No errors
No warnings
1125 ms
data source=metars
4898 results
raw_text,station_id,observation_time,latitude,longitude,temp_c,dewpoint_c,wind_dir_degrees,wind_speed_kt,wind_gust_kt,visibility_statute_mi,altim_in_hg,sea_level_pressure_mb,corrected,auto,auto_station,maintenance_indicator_on,no_signal,lightning_sensor_off,freezing_rain_sensor_off,present_weather_sensor_off,wx_string,sky_cover,cloud_base_ft_agl,sky_cover,cloud_base_ft_agl,sky_cover,cloud_base_ft_agl,sky_cover,cloud_base_ft_agl,flight_category,three_hr_pressure_tendency_mb,maxT_c,minT_c,maxT24hr_c,minT24hr_c,precip_in,pcp3hr_in,pcp6hr_in,pcp24hr_in,snow_in,vert_vis_ft,metar_type,elevation_m
KTBN 211458Z 32009KT 10SM FEW010 BKN019 BKN040 03/00 RMK SLPNO 5////,KTBN,2018-03-21T14:58:00Z,37.72,-92.12,3.0,0.0,320,9,,10.0,,,,,,,,,,,,FEW,1000,BKN,1900,BKN,4000,,,MVFR,,,,,,,,,,,,METAR,353.0
KHUA 211458Z AUTO 35014G21KT 10SM FEW085 05/M02 A3000 RMK AO2 SLP163 T00511024 52022,KHUA,2018-03-21T14:58:00Z,34.68,-86.68,5.1,-2.4,350,14,21,10.0,30.0,1016.3,,TRUE,TRUE,,,,,,,FEW,8500,,,,,,,VFR,2.2,,,,,,,,,,,METAR,209.0
KHLR 211458Z AUTO 15006KT 10SM CLR 14/02 A3018 RMK AO2 SLP216 T01440022 52028,KHLR,2018-03-21T14:58:00Z,31.13,-97.72,14.4,2.2,150,6,,10.0,30.180119,1021.6,,TRUE,TRUE,,,,,,,CLR,,,,,,,,VFR,2.8,,,,,,,,,,,METAR,283.0
KGRK 211458Z AUTO 13008KT 10SM CLR 14/02 A3020 RMK AO2 SLPNO T01390017 52025,KGRK,2018-03-21T14:58:00Z,31.07,-97.83,13.9,1.7,130,8,,10.0,30.200787,,,TRUE,TRUE,,,,,,,CLR,,,,,,,,VFR,2.5,,,,,,,,,,,METAR,309.0
KT70 211458Z AUTO 18014KT 10SM CLR 17/08 A3009 RMK AO2 SLP183 T01730078 52016,KT70,2018-03-21T14:58:00Z,29.12,-100.48,17.3,7.8,180,14,,10.0,30.088583,1018.3,,TRUE,TRUE,,,,,,,CLR,,,,,,,,VFR,1.6,,,,,,,,,,,METAR,298.0
KSXS 211458Z AUTO 33011G17KT 9SM CLR 11/00 A3004 RMK AO2 SLP174 T01090002 52018,KSXS,2018-03-21T14:58:00Z,31.37,-85.85,10.9,0.2,330,11,17,9.0,30.041338,1017.4,,TRUE,TRUE,,,,,,,CLR,,,,,,,,VFR,1.8,,,,,,,,,,,METAR,122.0
KLOR 211458Z AUTO 28013G25KT 10SM CLR 11/00 A3004 RMK AO2 SLP156 T01130004 52019,KLOR,2018-03-21T14:58:00Z,31.35,-85.75,11.3,0.4,280,13,25,10.0,30.041338,1015.6,,TRUE,TRUE,,,,,,,CLR,,,,,,,,VFR,1.9,,,,,,,,,,,METAR,74.0
KAMN 211458Z AUTO 03012G17KT 10SM CLR 00/M07 A3003 RMK AO2 T00021066,KAMN,2018-03-21T14:58:00Z,43.32,-84.68,0.2,-6.6,30,12,17,10.0,30.029528,,,TRUE,TRUE,,,,,,,CLR,,,,,,,,VFR,,,,,,,,,,,,METAR,230.0
CYXS 211457Z AUTO 35004KT 5/8SM VV003 M01/ A2973 RMK VIS VRB 1/4-3 TD MISG SLP098,CYXS,2018-03-21T14:57:00Z,53.9,-122.68,-1.0,,350,4,,0.63,29.731298,1009.8,,TRUE,,,,,,,,OVX,0,,,,,,,LIFR,,,,,,,,,,,300,SPECI,691.0
CYQZ 211457Z AUTO 00000KT 1 1/2SM -SN -UP BKN014 OVC019 00/00 A2973 RMK SLP092,CYQZ,2018-03-21T14:57:00Z,53.02,-122.52,0.0,0.0,0,0,,1.5,29.731298,1009.2,,TRUE,,,,,,,-SN UP,BKN,1400,OVC,1900,,,,,IFR,,,,,,,,,,,,SPECI,545.0
PAJC 211457Z AUTO 22008KT 10SM CLR 01/M04 RMK AO2 SLPNO T00111044 FZRANO $,PAJC,2018-03-21T14:57:00Z,56.32,-158.37,1.1,-4.4,220,8,,10.0,,,,TRUE,TRUE,TRUE,,,TRUE,,,CLR,,,,,,,,VFR,,,,,,,,,,,,METAR,15.0
PHNG 211457Z AUTO 07009G17KT 10SM FEW025 OVC043 23/18 A2990 RMK AO2 SLP118 T02280178 55004 $ ,PHNG,2018-03-21T14:57:00Z,21.43,-157.77,22.8,17.8,70,9,17,10.0,29.899607,1011.8,,TRUE,TRUE,TRUE,,,,,,FEW,2500,OVC,4300,,,,,VFR,-0.4,,,,,,,,,,,METAR,3.0
KRND 211456Z AUTO 12006KT 10SM CLR 16/03 A3019 RMK AO2 SLP221 T01590030 52018,KRND,2018-03-21T14:56:00Z,29.52,-98.27,15.9,3.0,120,6,,10.0,30.188976,1022.1,,TRUE,TRUE,,,,,,,CLR,,,,,,,,VFR,1.8,,,,,,,,,,,METAR,232.0
KPVU 211456Z 11008KT 10SM FEW044 BKN060 OVC075 08/00 A3003 RMK AO2 SLP159 T00780000 53019,KPVU,2018-03-21T14:56:00Z,40.22,-111.72,7.8,0.0,110,8,,10.0,30.029528,1015.9,,,TRUE,,,,,,,FEW,4400,BKN,6000,OVC,7500,,,VFR,1.9,,,,,,,,,,,METAR,1369.0
KBAD 211456Z AUTO 33005KT 10SM CLR 13/05 A3020 RMK AO2 SLP230 T01290046 52024,KBAD,2018-03-21T14:56:00Z,32.5,-93.67,12.9,4.6,330,5,,10.0,30.200787,1023.0,,TRUE,TRUE,,,,,,,CLR,,,,,,,,VFR,2.4,,,,,,,,,,,METAR,51.0
KABH 211456Z AUTO 00000KT A3006 RMK AO2 SLPNO 50003 $ ,KABH,2018-03-21T14:56:00Z,38.75,-104.3,,,0,0,,,30.059055,,,TRUE,TRUE,TRUE,,,,,,,,,,,,,,,0.3,,,,,,,,,,,METAR,1840.0
K2WX 211456Z AUTO 01003KT M03/M08 A2992 RMK AO1 SLP168 T10281078 53011 ,K2WX,2018-03-21T14:56:00Z,45.6,-103.55,-2.8,-7.8,10,3,,,29.920275,1016.8,,TRUE,TRUE,,,,,,,,,,,,,,,,1.1,,,,,,,,,,,METAR,915.0
KCBM 211456Z AUTO 30011G17KT 10SM SCT047 09/02 A3008 RMK AO2 SLP190 T00920023 52024 $,KCBM,2018-03-21T14:56:00Z,33.63,-88.45,9.2,2.3,300,11,17,10.0,30.079725,1019.0,,TRUE,TRUE,TRUE,,,,,,SCT,4700,,,,,,,VFR,2.4,,,,,,,,,,,METAR,67.0
KCOF 211456Z AUTO 30019G22KT 10SM SCT035 19/10 A2994 RMK AO2 PK WND 28028/28 SLP143 T01850096 51018 $,KCOF,2018-03-21T14:56:00Z,28.23,-80.6,18.5,9.6,300,19,22,10.0,29.940945,1014.3,,TRUE,TRUE,TRUE,,,,,,SCT,3500,,,,,,,VFR,1.8,,,,,,,,,,,METAR,3.0
KFTK 211456Z AUTO 29010KT 3SM -SN BR BKN010 OVC016 00/M02 A2990 RMK AO2 SLP135 P0000 60000 T10031016 52028,KFTK,2018-03-21T14:56:00Z,37.88,-85.97,-0.3,-1.6,290,10,,3.0,29.899607,1013.5,,TRUE,TRUE,,,,,,-SN BR,BKN,1000,OVC,1600,,,,,MVFR,2.8,,,,,0.005,0.005,,,,,METAR,230.0
KIAB 211456Z AUTO 09003KT 10SM CLR 06/M01 A3021 RMK AO2 SLP239 T00581007 52024,KIAB,2018-03-21T14:56:00Z,37.62,-97.27,5.8,-0.7,90,3,,10.0,30.209646,1023.9,,TRUE,TRUE,,,,,,,CLR,,,,,,,,VFR,2.4,,,,,,,,,,,METAR,418.0
KLSF 211456Z AUTO 28017G24KT 10SM CLR 10/00 A2998 RMK AO2 PK WND 28027/33 SLP157 T00950001 52019,KLSF,2018-03-21T14:56:00Z,32.32,-84.97,9.5,0.1,280,17,24,10.0,29.97933,1015.7,,TRUE,TRUE,,,,,,,CLR,,,,,,,,VFR,1.9,,,,,,,,,,,METAR,71.0
KLTS 211456Z AUTO 15008KT 10SM CLR 11/M02 A3018 RMK AO2 SLP221 T01131022 52017 $,KLTS,2018-03-21T14:56:00Z,34.67,-99.27,11.3,-2.2,150,8,,10.0,30.180119,1022.1,,TRUE,TRUE,TRUE,,,,,,CLR,,,,,,,,VFR,1.7,,,,,,,,,,,METAR,420.0
KMCF 211456Z AUTO 33013G24KT 10SM SCT033 17/09 A3002 RMK AO2 SLP169 T01740090 52030 FZRANO $,KMCF,2018-03-21T14:56:00Z,27.85,-82.52,17.4,9.0,330,13,24,10.0,30.02067,1016.9,,TRUE,TRUE,TRUE,,,TRUE,,,SCT,3300,,,,,,,VFR,3.0,,,,,,,,,,,METAR,4.0
KOZR 211456Z AUTO 28014G19KT 10SM CLR 12/00 A3004 RMK AO2 SLP175 T01170002 52018 $,KOZR,2018-03-21T14:56:00Z,31.28,-85.72,11.7,0.2,280,14,19,10.0,30.041338,1017.5,,TRUE,TRUE,TRUE,,,,,,CLR,,,,,,,,VFR,1.8,,,,,,,,,,,METAR,93.0
KPAM 211456Z AUTO 34012KT 10SM CLR 15/06 A3006 RMK AO2 SLP182 T01450061 52016 $,KPAM,2018-03-21T14:56:00Z,30.07,-85.57,14.5,6.1,340,12,,10.0,30.059055,1018.2,,TRUE,TRUE,TRUE,,,,,,CLR,,,,,,,,VFR,1.6,,,,,,,,,,,METAR,5.0
KWRB 211456Z 29020G25KT 10SM BKN036 09/00 A2991 RMK AO2A PK WND 29028/16 SLP131 T00871001 52017,KWRB,2018-03-21T14:56:00Z,32.62,-83.58,8.7,-0.1,290,20,25,10.0,29.911417,1013.1,,,TRUE,,,,,,,BKN,3600,,,,,,,VFR,1.7,,,,,,,,,,,METAR,90.0
KGTB 211456Z AUTO 03011KT 10SM FEW140 SCT180 M05/M11 A2988 RMK AO2 SLP129 T10511115 53001,KGTB,2018-03-21T14:56:00Z,44.07,-75.72,-5.1,-11.5,30,11,,10.0,29.878937,1012.9,,TRUE,TRUE,,,,,,,FEW,14000,SCT,18000,,,,,VFR,0.1,,,,,,,,,,,METAR,207.0
KNJK 211456Z 00000KT 10SM CLR 16/M04 A2995 RMK AO2 SLP158 T01611044 53018,KNJK,2018-03-21T14:56:00Z,32.82,-115.67,16.1,-4.4,0,0,,10.0,29.949802,1015.8,,,TRUE,,,,,,,CLR,,,,,,,,VFR,1.8,,,,,,,,,,,METAR,-13.0
KBLV 211456Z AUTO 32015KT 10SM CLR 04/M05 A3008 RMK AO2 SLP192 T00401052 52026 $,KBLV,2018-03-21T14:56:00Z,38.53,-89.83,4.0,-5.2,320,15,,10.0,30.079725,1019.2,,TRUE,TRUE,TRUE,,,,,,CLR,,,,,,,,VFR,2.6,,,,,,,,,,,METAR,138.0
KGAI 211456Z AUTO VRB03KT 3/4SM -SN BR BKN007 OVC012 00/M01 A2965 RMK AO2 CIG 004V008 SLP072 P0005 60011 T00001011 52004 FZRANO,KGAI,2018-03-21T14:56:00Z,39.17,-77.17,0.0,-1.1,0,3,,0.75,29.648623,1007.2,,TRUE,TRUE,,,,TRUE,,-SN BR,BKN,700,OVC,1200,,,,,LIFR,0.4,,,,,0.05,0.11,,,,,METAR,165.0
KGTU 211456Z 13004KT 10SM CLR 13/04 A3023 RMK AO2 SLP235 T01330039 51025,KGTU,2018-03-21T14:56:00Z,30.68,-97.68,13.3,3.9,130,4,,10.0,30.230314,1023.5,,,TRUE,,,,,,,CLR,,,,,,,,VFR,2.5,,,,,,,,,,,METAR,240.0
KVBT 211456Z AUTO 36008KT 10SM CLR 06/01 A3022 RMK AO2 SLP241 T00560006 51025,KVBT,2018-03-21T14:56:00Z,36.35,-94.22,5.6,0.6,360,8,,10.0,30.221457,1024.1,,TRUE,TRUE,,,,,,,CLR,,,,,,,,VFR,2.5,,,,,,,,,,,METAR,395.0
KVIS 211456Z AUTO 12007KT 3SM -RA BR FEW040 OVC080 12/12 A2992 RMK AO2 SLP140 P0001 60009 T01220117 50006,KVIS,2018-03-21T14:56:00Z,36.32,-119.4,12.2,11.7,120,7,,3.0,29.920275,1014.0,,TRUE,TRUE,,,,,,-RA BR,FEW,4000,OVC,8000,,,,,MVFR,0.6,,,,,0.01,0.09,,,,,METAR,89.0
KWVL 211456Z AUTO 03011KT 10SM CLR M01/M09 A2982 RMK AO2 SLP130 T10111094 56012 FZRANO,KWVL,2018-03-21T14:56:00Z,44.52,-69.67,-1.1,-9.4,30,11,,10.0,29.819881,1013.0,,TRUE,TRUE,,,,TRUE,,,CLR,,,,,,,,VFR,-1.2,,,,,,,,,,,METAR,101.0
K1M4 211456Z AUTO 33010G20KT 10SM FEW055 OVC080 04/M01 A3006 RMK AO2 SLP204 T00441011 53025,K1M4,2018-03-21T14:56:00Z,34.28,-87.6,4.4,-1.1,330,10,20,10.0,30.059055,1020.4,,TRUE,TRUE,,,,,,,FEW,5500,OVC,8000,,,,,VFR,2.5,,,,,,,,,,,METAR,284.0
K7N0 211456Z AUTO VRB06KT 10SM CLR 16/03 A3018 RMK AO2 SLP221 T01560028 51021,K7N0,2018-03-21T14:56:00Z,29.95,-90.07,15.6,2.8,0,6,,10.0,30.180119,1022.1,,TRUE,TRUE,,,,,,,CLR,,,,,,,,VFR,2.1,,,,,,,,,,,METAR,0.0
KADF 211456Z AUTO 31005KT 10SM CLR 10/02 A3022 RMK AO2 SLP236 T01000022 51028,KADF,2018-03-21T14:56:00Z,34.1,-93.07,10.0,2.2,310,5,,10.0,30.221457,1023.6,,TRUE,TRUE,,,,,,,CLR,,,,,,,,VFR,2.8,,,,,,,,,,,METAR,56.0
KAFJ 211456Z AUTO 03006KT 3/4SM -SN BR BKN007 OVC019 00/M02 A2972 RMK AO2 SLP074 P0003 60003 T00001022 53009 FZRANO RVRNO,KAFJ,2018-03-21T14:56:00Z,40.12,-80.27,0.0,-2.2,30,6,,0.75,29.719488,1007.4,,TRUE,TRUE,,,,TRUE,,-SN BR,BKN,700,OVC,1900,,,,,LIFR,0.9,,,,,0.03,0.03,,,,,METAR,361.0
KAJO 211456Z AUTO 00000KT 10SM OVC060 12/07 A3003 RMK AO2 SLP179 6//// T01170067 51015 $,KAJO,2018-03-21T14:56:00Z,33.9,-117.6,11.7,6.7,0,0,,10.0,30.029528,1017.9,,TRUE,TRUE,TRUE,,,,,,OVC,6000,,,,,,,VFR,1.5,,,,,,,,,,,METAR,163.0
KARG 211456Z AUTO 32016KT 10SM FEW031 BKN055 08/01 A3013 RMK AO2 SLP206 T00830011 51022,KARG,2018-03-21T14:56:00Z,36.12,-90.92,8.3,1.1,320,16,,10.0,30.129921,1020.6,,TRUE,TRUE,,,,,,,FEW,3100,BKN,5500,,,,,VFR,2.2,,,,,,,,,,,METAR,83.0
KASH 211456Z VRB06KT 10SM CLR M01/M08 A2985 RMK AO2 SLP118 T10061083 55001,KASH,2018-03-21T14:56:00Z,42.78,-71.52,-0.6,-8.3,0,6,,10.0,29.84941,1011.8,,,TRUE,,,,,,,CLR,,,,,,,,VFR,-0.1,,,,,,,,,,,METAR,61.0
KBHB 211456Z AUTO 04011KT 10SM CLR M02/M09 A2987 RMK AO2 SLP118 6//// T10171089 58012 FZRANO PNO $,KBHB,2018-03-21T14:56:00Z,44.45,-68.37,-1.7,-8.9,40,11,,10.0,29.870079,1011.8,,TRUE,TRUE,TRUE,,,TRUE,,,CLR,,,,,,,,VFR,-1.2,,,,,,,,,,,METAR,26.0
KAWO 211456Z AUTO 00000KT 10SM CLR 02/01 A2977 RMK AO2 SLP087 T00170011 56009 FZRANO,KAWO,2018-03-21T14:56:00Z,48.17,-122.17,1.7,1.1,0,0,,10.0,29.769686,1008.7,,TRUE,TRUE,,,,TRUE,,,CLR,,,,,,,,VFR,-0.9,,,,,,,,,,,METAR,42.0
KAUO 211456Z AUTO 30018G23KT 10SM FEW036 08/00 A3000 RMK AO2 SLP183 T00780000 51019,KAUO,2018-03-21T14:56:00Z,32.62,-85.42,7.8,0.0,300,18,23,10.0,30.0,1018.3,,TRUE,TRUE,,,,,,,FEW,3600,,,,,,,VFR,1.9,,,,,,,,,,,METAR,236.0
KBLM 211456Z AUTO 04014G22KT 1 1/4SM -SN BR OVC011 00/M01 A2965 RMK AO2 UPE27SNB27 SLP045 P0003 60007 T00001011 51001 FZRANO,KBLM,2018-03-21T14:56:00Z,40.17,-74.12,0.0,-1.1,40,14,22,1.25,29.648623,1004.5,,TRUE,TRUE,,,,TRUE,,-SN BR,OVC,1100,,,,,,,IFR,0.1,,,,,0.03,0.07,,,,,METAR,48.0
KBKX 211456Z AUTO 21005KT 10SM OVC011 M01/M03 A3010 RMK AO2 SLP227 T10061033 51012 FZRANO,KBKX,2018-03-21T14:56:00Z,44.28,-96.82,-0.6,-3.3,210,5,,10.0,30.100393,1022.7,,TRUE,TRUE,,,,TRUE,,,OVC,1100,,,,,,,MVFR,1.2,,,,,,,,,,,METAR,502.0
KBID 211456Z AUTO 04018G27KT 9SM -RA BKN013 BKN020 OVC043 02/01 A2969 RMK AO2 PK WND 05029/1410 RAE01B27UPB25E27SNB01E25 SLP058 P0001 60001 T00220011 53003 FZRANO,KBID,2018-03-21T14:56:00Z,41.17,-71.58,2.2,1.1,40,18,27,9.0,29.68996,1005.8,,TRUE,TRUE,,,,TRUE,,-RA,BKN,1300,BKN,2000,OVC,4300,,,MVFR,0.3,,,,,0.01,0.01,,,,,METAR,33.0
KBMI 211456Z 01012KT 10SM CLR 01/M06 A3006 RMK AO2 SLP207 T00061056 51023 $,KBMI,2018-03-21T14:56:00Z,40.47,-88.92,0.6,-5.6,10,12,,10.0,30.059055,1020.7,,,TRUE,TRUE,,,,,,CLR,,,,,,,,VFR,2.3,,,,,,,,,,,METAR,267.0
KBOK 211456Z AUTO VRB05KT 10SM OVC004 09/09 A2975 RMK AO2 RAE55 SLP092 P0002 60013 T00940094 53001,KBOK,2018-03-21T14:56:00Z,42.07,-124.28,9.4,9.4,0,5,,10.0,29.749016,1009.2,,TRUE,TRUE,,,,,,,OVC,400,,,,,,,LIFR,0.1,,,,,0.02,0.13,,,,,METAR,140.0
KBTP 211456Z AUTO 01008KT 3/4SM -SN BR BKN008 OVC013 M01/M03 A2973 RMK AO2 CIG 006V010 SLP085 P0006 60012 T10111033 53009 FZRANO RVRNO,KBTP,2018-03-21T14:56:00Z,40.77,-79.95,-1.1,-3.3,10,8,,0.75,29.731298,1008.5,,TRUE,TRUE,,,,TRUE,,-SN BR,BKN,800,OVC,1300,,,,,LIFR,0.9,,,,,0.06,0.12,,,,,METAR,380.0
KBVX 211456Z AUTO VRB05KT 10SM OVC041 08/01 A3016 RMK AO2 SLP212 T00780006 51026,KBVX,2018-03-21T14:56:00Z,35.73,-91.65,7.8,0.6,0,5,,10.0,30.159449,1021.2,,TRUE,TRUE,,,,,,,OVC,4100,,,,,,,VFR,2.6,,,,,,,,,,,METAR,141.0
KDVL 211456Z AUTO 00000KT 7SM OVC007 M01/M03 A3002 RMK AO2 UPE1357 SLP200 60000 T10111028 51010 FZRANO,KDVL,2018-03-21T14:56:00Z,48.12,-98.92,-1.1,-2.8,0,0,,7.0,30.02067,1020.0,,TRUE,TRUE,,,,TRUE,,,OVC,700,,,,,,,IFR,1.0,,,,,,0.005,,,,,METAR,443.0
KDIJ 211456Z AUTO 18008KT 10SM BKN070 OVC085 00/M03 A2997 RMK AO2 SLP173 T00001028 55002,KDIJ,2018-03-21T14:56:00Z,43.75,-111.1,0.0,-2.8,180,8,,10.0,29.970472,1017.3,,TRUE,TRUE,,,,,,,BKN,7000,OVC,8500,,,,,VFR,-0.2,,,,,,,,,,,METAR,1899.0
KCWI 211456Z AUTO 01010KT 10SM CLR M01/M07 A3013 RMK AO2 SLP231 T10061067 51019 FZRANO,KCWI,2018-03-21T14:56:00Z,41.82,-90.32,-0.6,-6.7,10,10,,10.0,30.129921,1023.1,,TRUE,TRUE,,,,TRUE,,,CLR,,,,,,,,VFR,1.9,,,,,,,,,,,METAR,216.0
KCVO 211456Z AUTO 00000KT 10SM BKN055 OVC070 05/03 A2976 RMK AO2 SLP079 60000 T00500028 55004,KCVO,2018-03-21T14:56:00Z,44.5,-123.27,5.0,2.8,0,0,,10.0,29.760826,1007.9,,TRUE,TRUE,,,,,,,BKN,5500,OVC,7000,,,,,VFR,-0.4,,,,,,0.005,,,,,METAR,75.0
KCVN 211456Z AUTO 35009KT 10SM CLR 06/M07 A3011 RMK AO2 SLP197 T00561072 53015,KCVN,2018-03-21T14:56:00Z,34.42,-103.07,5.6,-7.2,350,9,,10.0,30.109253,1019.7,,TRUE,TRUE,,,,,,,CLR,,,,,,,,VFR,1.5,,,,,,,,,,,METAR,1284.0
KCOE 211456Z AUTO 05007KT 10SM CLR 00/M02 A2982 RMK AO2 SLP131 T00001022 55003 FZRANO,KCOE,2018-03-21T14:56:00Z,47.77,-116.82,0.0,-2.2,50,7,,10.0,29.819881,1013.1,,TRUE,TRUE,,,,TRUE,,,CLR,,,,,,,,VFR,-0.3,,,,,,,,,,,METAR,707.0
KCOD 211456Z AUTO 14005KT 10SM SCT070 BKN090 02/M07 A2994 RMK AO2 SLP159 T00171072 58001 FZRANO,KCOD,2018-03-21T14:56:00Z,44.52,-109.02,1.7,-7.2,140,5,,10.0,29.940945,1015.9,,TRUE,TRUE,,,,TRUE,,,SCT,7000,BKN,9000,,,,,VFR,-0.1,,,,,,,,,,,METAR,1553.0
KCIU 211456Z AUTO 01007KT 10SM CLR M06/M17 A3015 RMK AO2 SLP238 T10611167 50006 FZRANO,KCIU,2018-03-21T14:56:00Z,46.25,-84.47,-6.1,-16.7,10,7,,10.0,30.15059,1023.8,,TRUE,TRUE,,,,TRUE,,,CLR,,,,,,,,VFR,0.6,,,,,,,,,,,METAR,244.0
KCGZ 211456Z AUTO 08004KT 10SM 14/M06 A3000 RMK AO2 SLP154 6//// T01391061 53013 $,KCGZ,2018-03-21T14:56:00Z,32.95,-111.77,13.9,-6.1,80,4,,10.0,30.0,1015.4,,TRUE,TRUE,TRUE,,,,,,,,,,,,,,,1.3,,,,,,,,,,,METAR,446.0
KEAR 211456Z AUTO 19005KT 10SM CLR 01/M01 A3014 RMK AO2 SLP219 T00111006 51010 FZRANO,KEAR,2018-03-21T14:56:00Z,40.72,-99.0,1.1,-0.6,190,5,,10.0,30.138779,1021.9,,TRUE,TRUE,,,,TRUE,,,CLR,,,,,,,,VFR,1.0,,,,,,,,,,,METAR,649.0
KDYR 211456Z AUTO 30011G15KT 10SM OVC070 05/M01 A3012 RMK AO2 SLP218 6//// T00501011 53031 PNO $,KDYR,2018-03-21T14:56:00Z,36.0,-89.4,5.0,-1.1,300,11,15,10.0,30.121063,1021.8,,TRUE,TRUE,TRUE,,,,,,OVC,7000,,,,,,,VFR,3.1,,,,,,,,,,,METAR,103.0
KDWU 211456Z AUTO 31006KT 1 3/4SM UP BR FEW006 BKN018 OVC025 01/01 A2973 RMK AO2 UPB32SNE32 SLP070 P0003 60004 T00110006 53026 FZRANO,KDWU,2018-03-21T14:56:00Z,38.55,-82.73,1.1,0.6,310,6,,1.75,29.731298,1007.0,,TRUE,TRUE,,,,TRUE,,BR UP,FEW,600,BKN,1800,OVC,2500,,,IFR,2.6,,,,,0.03,0.04,,,,,METAR,166.0
KEKY 211456Z AUTO 29007KT 260V320 10SM BKN070 06/M01 A3005 RMK AO2 SLP200 T00561006 53015,KEKY,2018-03-21T14:56:00Z,33.32,-86.93,5.6,-0.6,290,7,,10.0,30.050198,1020.0,,TRUE,TRUE,,,,,,,BKN,7000,,,,,,,VFR,1.5,,,,,,,,,,,METAR,213.0
KEKQ 211456Z AUTO 31019G25KT 9SM -SN BKN012 OVC020 01/M01 A2987 RMK AO2 SLP142 6//// T00061011 53021 PNO $,KEKQ,2018-03-21T14:56:00Z,36.85,-84.85,0.6,-1.1,310,19,25,9.0,29.870079,1014.2,,TRUE,TRUE,TRUE,,,,,-SN,BKN,1200,OVC,2000,,,,,MVFR,2.1,,,,,,,,,,,METAR,294.0
KEHR 211456Z AUTO 31016G19KT 10SM SCT024 02/M03 A3001 RMK AO2 SLP175 60001 T00221028 51026 FZRANO,KEHR,2018-03-21T14:56:00Z,37.82,-87.67,2.2,-2.8,310,16,19,10.0,30.008858,1017.5,,TRUE,TRUE,,,,TRUE,,,SCT,2400,,,,,,,VFR,2.6,,,,,,0.01,,,,,METAR,117.0
KEEN 211456Z AUTO 04008KT 10SM CLR 01/M11 A2982 RMK AO2 SLP118 T00061106 56008 FZRANO,KEEN,2018-03-21T14:56:00Z,42.88,-72.27,0.6,-10.6,40,8,,10.0,29.819881,1011.8,,TRUE,TRUE,,,,TRUE,,,CLR,,,,,,,,VFR,-0.8,,,,,,,,,,,METAR,149.0
KEAU 211456Z 00000KT 10SM CLR M02/M08 A3015 RMK AO2 SLP222 T10221078 51010,KEAU,2018-03-21T14:56:00Z,44.87,-91.47,-2.2,-7.8,0,0,,10.0,30.15059,1022.2,,,TRUE,,,,,,,CLR,,,,,,,,VFR,1.0,,,,,,,,,,,METAR,276.0
PAKP 211456Z AUTO 35003KT 10SM CLR M24/M28 A3043 RMK AO2 SLP390 60000 T12441278 50010 FZRANO,PAKP,2018-03-21T14:56:00Z,68.13,-151.73,-24.4,-27.8,350,3,,10.0,30.431103,1039.0,,TRUE,TRUE,,,,TRUE,,,CLR,,,,,,,,VFR,1.0,,,,,,0.005,,,,,METAR,642.0
PAKK 211456Z AUTO 03004KT 10SM OVC026 M13/M15 A3057 RMK AO2 SLP367 T11331150 58003 FZRANO,PAKK,2018-03-21T14:56:00Z,64.93,-161.15,-13.3,-15.0,30,4,,10.0,30.569881,1036.7,,TRUE,TRUE,,,,TRUE,,,OVC,2600,,,,,,,MVFR,-0.3,,,,,,,,,,,METAR,47.0
PAKI 211456Z AUTO 16012KT 1/2SM -SN FZFG OVC003 M06/M07 A3062 RMK AO2 SLP373 P0000 60000 T10611067 58012 FZRANO,PAKI,2018-03-21T14:56:00Z,59.93,-164.03,-6.1,-6.7,160,12,,0.5,30.620079,1037.3,,TRUE,TRUE,,,,TRUE,,-SN FZFG,OVC,300,,,,,,,LIFR,-1.2,,,,,0.005,0.005,,,,,METAR,4.0
PMDY 211456Z AUTO 28014G23KT 10SM FEW021 SCT026 BKN049 18/14 A2978 RMK AO2 SLP084 60000 T01780144 53001,PMDY,2018-03-21T14:56:00Z,28.22,-177.37,17.8,14.4,280,14,23,10.0,29.778543,1008.4,,TRUE,TRUE,,,,,,,FEW,2100,SCT,2600,BKN,4900,,,VFR,0.1,,,,,,0.005,,,,,METAR,4.0
PHNY 211456Z AUTO 04015KT 10SM OVC080 18/16 A2993 RMK AO2 SLP119 T01830161 58009,PHNY,2018-03-21T14:56:00Z,20.77,-156.93,18.3,16.1,40,15,,10.0,29.929134,1011.9,,TRUE,TRUE,,,,,,,OVC,8000,,,,,,,VFR,-0.9,,,,,,,,,,,METAR,399.0
PAKH 211456Z AUTO 34012G22KT CLR 01/M11 A3054 RMK AO2 SLP343 T00061106 58001 PWINO FZRANO $,PAKH,2018-03-21T14:56:00Z,56.93,-154.18,0.6,-10.6,340,12,22,,30.540354,1034.3,,TRUE,TRUE,TRUE,,,TRUE,TRUE,,CLR,,,,,,,,,-0.1,,,,,,,,,,,METAR,14.0
PAKF 211456Z AUTO 16013KT 10SM CLR 02/M02 A3066 RMK AO2 SLP481 T00221022 58018 FZRANO,PAKF,2018-03-21T14:56:00Z,54.85,-163.42,2.2,-2.2,160,13,,10.0,30.661417,1048.1,,TRUE,TRUE,,,,TRUE,,,CLR,,,,,,,,VFR,-1.8,,,,,,,,,,,METAR,6.0
PAJZ 211456Z AUTO 00000KT 9SM CLR M12/M14 A3072 RMK AO2 SLP409 T11221144 58005 FZRANO $,PAJZ,2018-03-21T14:56:00Z,59.73,-157.27,-12.2,-14.4,0,0,,9.0,30.720472,1040.9,,TRUE,TRUE,TRUE,,,TRUE,,,CLR,,,,,,,,VFR,-0.5,,,,,,,,,,,METAR,82.0
PAIW 211456Z AUTO 06015KT 1SM -SN BR OVC007 M16/M18 A3047 RMK AO2 SLP321 P0000 60000 T11611178 58028 FZRANO,PAIW,2018-03-21T14:56:00Z,65.62,-168.1,-16.1,-17.8,60,15,,1.0,30.469488,1032.1,,TRUE,TRUE,,,,TRUE,,-SN BR,OVC,700,,,,,,,IFR,-2.8,,,,,0.005,0.005,,,,,METAR,7.0
PAIN 211456Z AUTO VRB04KT 2SM -SN BR FEW022 OVC034 M09/M11 A3041 RMK AO2 VIS 1 1/2V3 SLP340 P0000 60000 T10891106 53006 FZRANO,PAIN,2018-03-21T14:56:00Z,63.73,-148.92,-8.9,-10.6,0,4,,2.0,30.410433,1034.0,,TRUE,TRUE,,,,TRUE,,-SN BR,FEW,2200,OVC,3400,,,,,IFR,0.6,,,,,0.005,0.005,,,,,METAR,524.0
PAIK 211456Z AUTO 00000KT 10SM -SN CLR M27/M29 A3069 RMK AO2 SNB56 SLP402 P0000 60000 T12721294 51007 FZRANO,PAIK,2018-03-21T14:56:00Z,66.98,-160.43,-27.2,-29.4,0,0,,10.0,30.690945,1040.2,,TRUE,TRUE,,,,TRUE,,-SN,CLR,,,,,,,,VFR,0.7,,,,,0.005,0.005,,,,,METAR,51.0
PAII 211456Z AUTO 35003KT 10SM CLR M06/M07 A3070 RMK AO2 SLP399 T10611067 56010 FZRANO,PAII,2018-03-21T14:56:00Z,58.18,-157.38,-6.1,-6.7,350,3,,10.0,30.699802,1039.9,,TRUE,TRUE,,,,TRUE,,,CLR,,,,,,,,VFR,-1.0,,,,,,,,,,,METAR,30.0
PAIG 211456Z AUTO 17003KT 10SM CLR M11/M13 A3067 RMK AO2 SLP396 T11111128 58008 FZRANO $,PAIG,2018-03-21T14:56:00Z,59.32,-155.9,-11.1,-12.8,170,3,,10.0,30.670275,1039.6,,TRUE,TRUE,TRUE,,,TRUE,,,CLR,,,,,,,,VFR,-0.8,,,,,,,,,,,METAR,28.0
PAHP 211456Z AUTO 15012KT 10SM OVC033 M02/M03 A3055 RMK AO2 SLP384 T10221028 58014 FZRANO,PAHP,2018-03-21T14:56:00Z,61.52,-166.15,-2.2,-2.8,150,12,,10.0,30.549213,1038.4,,TRUE,TRUE,,,,TRUE,,,OVC,3300,,,,,,,VFR,-1.4,,,,,,,,,,,METAR,5.0
PAHL 211456Z AUTO 28005KT 10SM CLR M19/M22 A3065 RMK AO2 SLP392 T11941217 51015 FZRANO,PAHL,2018-03-21T14:56:00Z,65.7,-156.35,-19.4,-21.7,280,5,,10.0,30.649607,1039.2,,TRUE,TRUE,,,,TRUE,,,CLR,,,,,,,,VFR,1.5,,,,,,,,,,,METAR,65.0
PAGS 211456Z AUTO 28004KT 10SM BKN075 OVC090 M01/M05 A2994 RMK AO2 SLP138 T10111050 51005 FZRANO,PAGS,2018-03-21T14:56:00Z,58.42,-135.73,-1.1,-5.0,280,4,,10.0,29.940945,1013.8,,TRUE,TRUE,,,,TRUE,,,BKN,7500,OVC,9000,,,,,VFR,0.5,,,,,,,,,,,METAR,9.0
PAGN 211456Z AUTO 06004KT 10SM FEW050 M01/M02 A2989 RMK AO2 SLP111 T10111017 58004 FZRANO,PAGN,2018-03-21T14:56:00Z,57.5,-134.58,-1.1,-1.7,60,4,,10.0,29.890747,1011.1,,TRUE,TRUE,,,,TRUE,,,FEW,5000,,,,,,,VFR,-0.4,,,,,,,,,,,METAR,2.0
PAGM 211456Z AUTO 2 1/2SM -SN BR BKN010 OVC016 M01/M02 A3032 RMK AO2 SLP273 P0000 60000 T10111017 58015 FZRANO $,PAGM,2018-03-21T14:56:00Z,63.77,-171.73,-1.1,-1.7,,,,2.5,30.318897,1027.3,,TRUE,TRUE,TRUE,,,TRUE,,-SN BR,BKN,1000,OVC,1600,,,,,IFR,-1.5,,,,,0.005,0.005,,,,,METAR,8.0
PAGL 211456Z AUTO 29006KT 10SM OVC012 M10/M12 A3060 RMK AO2 SNE39 SLP358 P0000 60000 T11001117 55001 FZRANO,PAGL,2018-03-21T14:56:00Z,64.55,-163.03,-10.0,-11.7,290,6,,10.0,30.59941,1035.8,,TRUE,TRUE,,,,TRUE,,,OVC,1200,,,,,,,MVFR,-0.1,,,,,0.005,0.005,,,,,METAR,8.0
PAGA 211456Z AUTO 00000KT 10SM OVC022 M11/M12 A3066 RMK AO2 SLP384 60000 T11061122 51015 FZRANO,PAGA,2018-03-21T14:56:00Z,64.73,-156.93,-10.6,-12.2,0,0,,10.0,30.661417,1038.4,,TRUE,TRUE,,,,TRUE,,,OVC,2200,,,,,,,MVFR,1.5,,,,,,0.005,,,,,METAR,46.0
PAFM 211456Z AUTO 00000KT 10SM CLR M27/M29 A3070 RMK AO2 SLP414 T12671289 51010 FZRANO,PAFM,2018-03-21T14:56:00Z,67.1,-157.85,-26.7,-28.9,0,0,,10.0,30.699802,1041.4,,TRUE,TRUE,,,,TRUE,,,CLR,,,,,,,,VFR,1.0,,,,,,,,,,,METAR,88.0
PAEM 211456Z AUTO 17011KT 4SM UP BR OVC002 M04/M05 A3058 RMK AO2 SLP417 P0000 60000 T10441050 58007 FZRANO,PAEM,2018-03-21T14:56:00Z,62.78,-164.48,-4.4,-5.0,170,11,,4.0,30.578741,1041.7,,TRUE,TRUE,,,,TRUE,,BR UP,OVC,200,,,,,,,LIFR,-0.7,,,,,0.005,0.005,,,,,METAR,3.0
PADU 211456Z 15011KT 10SM OVC013 04/02 A3059 RMK AO2 RAE06 SLP363 MH P0000 60000 T00440022 58023,PADU,2018-03-21T14:56:00Z,53.9,-166.53,4.4,2.2,150,11,,10.0,30.590551,1036.3,,,TRUE,,,,,,,OVC,1300,,,,,,,MVFR,-2.3,,,,,0.005,0.005,,,,,METAR,4.0
PADM 211456Z AUTO 08008KT 2 1/2SM -SN BR OVC007 M06/M06 A3066 RMK AO2 SNB27 CIG 003V009 SLP390 P0000 60000 T10561061 55008 FZRANO,PADM,2018-03-21T14:56:00Z,61.87,-162.03,-5.6,-6.1,80,8,,2.5,30.661417,1039.0,,TRUE,TRUE,,,,TRUE,,-SN BR,OVC,700,,,,,,,IFR,-0.8,,,,,0.005,0.005,,,,,METAR,31.0
PADL 211456Z AUTO 00000KT 10SM CLR M09/M11 A3069 RMK AO2 SLP400 T10941111 56008 FZRANO,PADL,2018-03-21T14:56:00Z,59.05,-158.5,-9.4,-11.1,0,0,,10.0,30.690945,1040.0,,TRUE,TRUE,,,,TRUE,,,CLR,,,,,,,,VFR,-0.8,,,,,,,,,,,METAR,26.0
PADK 211456Z AUTO 17013KT 4SM BR OVC009 04/03 A3016 RMK AO2 RAE53 CIG 006V011 SLP213 P0000 60001 T00440033 56023,PADK,2018-03-21T14:56:00Z,51.88,-176.65,4.4,3.3,170,13,,4.0,30.159449,1021.3,,TRUE,TRUE,,,,,,BR,OVC,900,,,,,,,IFR,-2.3,,,,,0.005,0.01,,,,,METAR,4.0
PACM 211456Z AUTO 05005KT 10SM OVC004 M03/M03 A3059 RMK AO2 CIG 004V008 SLP356 T10281033 58008 FZRANO,PACM,2018-03-21T14:56:00Z,61.85,-165.57,-2.8,-3.3,50,5,,10.0,30.590551,1035.6,,TRUE,TRUE,,,,TRUE,,,OVC,400,,,,,,,LIFR,-0.8,,,,,,,,,,,METAR,4.0
PABV 211456Z AUTO 21006KT 10SM CLR M04/M12 A3042 RMK AO2 SLP309 T10441117 58002 FZRANO $,PABV,2018-03-21T14:56:00Z,61.42,-149.52,-4.4,-11.7,210,6,,10.0,30.41929,1030.9,,TRUE,TRUE,TRUE,,,TRUE,,,CLR,,,,,,,,VFR,-0.2,,,,,,,,,,,METAR,29.0
PABL 211456Z AUTO 13006KT 10SM CLR M27/M29 A3069 RMK AO2 SLP395 T12721294 50000 FZRANO,PABL,2018-03-21T14:56:00Z,65.98,-161.15,-27.2,-29.4,130,6,,10.0,30.690945,1039.5,,TRUE,TRUE,,,,TRUE,,,CLR,,,,,,,,VFR,0.0,,,,,,,,,,,METAR,7.0
PAAK 211456Z AUTO 12018KT 1 1/4SM -RA BR OVC003 04/04 A3029 RMK AO2 RAB03 SLP258 6//// T00440039 58010 PNO $,PAAK,2018-03-21T14:56:00Z,52.22,-174.2,4.4,3.9,120,18,,1.25,30.28937,1025.8,,TRUE,TRUE,TRUE,,,,,-RA BR,OVC,300,,,,,,,LIFR,-1.0,,,,,,,,,,,METAR,17.0
PPIZ 211456Z AUTO 13005KT 10SM CLR M31/M33 A3067 RMK AO2 SLP391 T13061333 58001 FZRANO TSNO,PPIZ,2018-03-21T14:56:00Z,69.73,-163.0,-30.6,-33.3,130,5,,10.0,30.670275,1039.1,,TRUE,TRUE,,,TRUE,TRUE,,,CLR,,,,,,,,VFR,-0.1,,,,,,,,,,,METAR,8.0
PPIT 211456Z AUTO 5SM BR OVC038 M03/M03 A3064 RMK AO2 SLP376 60000 T10281033 58007 FZRANO TSNO $,PPIT,2018-03-21T14:56:00Z,60.9,-162.43,-2.8,-3.3,,,,5.0,30.640747,1037.6,,TRUE,TRUE,TRUE,,TRUE,TRUE,,BR,OVC,3800,,,,,,,MVFR,-0.7,,,,,,0.005,,,,,METAR,4.0
PFYU 211456Z 00000KT 2 1/2SM -SN BR BKN018 OVC026 M14/M15 A3048 RMK AO2 VIS 1 3/4V5 SLP351 P0000 60000 T11391150 $,PFYU,2018-03-21T14:56:00Z,66.57,-145.27,-13.9,-15.0,0,0,,2.5,30.481298,1035.1,,,TRUE,TRUE,,,,,-SN BR,BKN,1800,OVC,2600,,,,,IFR,,,,,,0.005,0.005,,,,,METAR,131.0
PFKW 211456Z AUTO 21004KT 2SM BR OVC003 M02/M02 A3066 RMK AO2 SLP383 T10221022 58009 FZRANO,PFKW,2018-03-21T14:56:00Z,60.8,-161.43,-2.2,-2.2,210,4,,2.0,30.661417,1038.3,,TRUE,TRUE,,,,TRUE,,BR,OVC,300,,,,,,,LIFR,-0.9,,,,,,,,,,,METAR,8.0
PFKT 211456Z AUTO 10019KT 9SM OVC014 M14/M16 A3053 RMK AO2 SNE05B33E53 SLP340 P0000 60000 T11391156 58015 FZRANO,PFKT,2018-03-21T14:56:00Z,65.33,-166.47,-13.9,-15.6,100,19,,9.0,30.528543,1034.0,,TRUE,TRUE,,,,TRUE,,,OVC,1400,,,,,,,MVFR,-1.5,,,,,0.005,0.005,,,,,METAR,9.0
PFEL 211456Z AUTO 03003KT 9SM -SN OVC018 M12/M14 A3061 RMK AO2 SLP368 P0000 60000 T11221144 58003 FZRANO,PFEL,2018-03-21T14:56:00Z,64.62,-162.27,-12.2,-14.4,30,3,,9.0,30.611221,1036.8,,TRUE,TRUE,,,,TRUE,,-SN,OVC,1800,,,,,,,MVFR,-0.3,,,,,0.005,0.005,,,,,METAR,49.0
PFCL 211456Z AUTO 20003KT 10SM CLR M07/M08 A3069 RMK AO2 SLP387 T10721078 56012 FZRANO TSNO,PFCL,2018-03-21T14:56:00Z,58.83,-158.53,-7.2,-7.8,200,3,,10.0,30.690945,1038.7,,TRUE,TRUE,,,TRUE,TRUE,,,CLR,,,,,,,,VFR,-1.2,,,,,,,,,,,METAR,24.0
PAZK 211456Z AUTO 32019G26KT 6SM -SN FEW060 M12/M17 A3017 RMK AO2 PK WND 32026/1451 SNB47 SLP294 P0000 60000 T11221172 51001 FZRANO,PAZK,2018-03-21T14:56:00Z,61.93,-147.17,-12.2,-17.2,320,19,26,6.0,30.171259,1029.4,,TRUE,TRUE,,,,TRUE,,-SN,FEW,6000,,,,,,,VFR,0.1,,,,,0.005,0.005,,,,,METAR,1003.0
PAWN 211456Z AUTO 02003KT 10SM CLR M32/M34 A3067 RMK AO2 SLP404 T13171344 58002 FZRANO $,PAWN,2018-03-21T14:56:00Z,67.57,-162.98,-31.7,-34.4,20,3,,10.0,30.670275,1040.4,,TRUE,TRUE,TRUE,,,TRUE,,,CLR,,,,,,,,VFR,-0.2,,,,,,,,,,,METAR,30.0
PAWM 211456Z AUTO 35005KT 8SM OVC010 M11/M12 A3057 RMK AO2 SNE00 SLP361 P0000 60000 T11061122 55003 FZRANO,PAWM,2018-03-21T14:56:00Z,64.68,-163.42,-10.6,-12.2,350,5,,8.0,30.569881,1036.1,,TRUE,TRUE,,,,TRUE,,,OVC,1000,,,,,,,MVFR,-0.3,,,,,0.005,0.005,,,,,METAR,82.0
PAWG 211456Z 12004KT 10SM FEW010 FEW030 SCT100 M03/M03 A2983 RMK AO2 SLP101 T10281033 58016 $,PAWG,2018-03-21T14:56:00Z,56.48,-132.37,-2.8,-3.3,120,4,,10.0,29.828741,1010.1,,,TRUE,TRUE,,,,,,FEW,1000,FEW,3000,SCT,10000,,,VFR,-1.6,,,,,,,,,,,METAR,11.0
PAVD 211456Z 25007G16KT 10SM FEW070 00/M14 A3022 RMK AO2 SLP258 1451Z WEA: NONE TWR WND 20010KT T00001144 53004 $,PAVD,2018-03-21T14:56:00Z,61.13,-146.25,0.0,-14.4,250,7,16,10.0,30.221457,1025.8,,,TRUE,TRUE,,,,,,FEW,7000,,,,,,,VFR,0.4,,1.0,,,,,,,,,METAR,37.0
PAVC 211456Z AUTO 00000KT 10SM OVC024 M01/M02 A3070 RMK AO2 SLP403 T10111022 56020 PWINO FZRANO $,PAVC,2018-03-21T14:56:00Z,55.12,-162.27,-1.1,-2.2,0,0,,10.0,30.699802,1040.3,,TRUE,TRUE,TRUE,,,TRUE,TRUE,,OVC,2400,,,,,,,MVFR,-2.0,,,,,,,,,,,METAR,47.0
PAVA 211456Z AUTO 16013KT 1 3/4SM BR FEW001 OVC030 M05/M06 A3057 RMK AO2 SLP441 T10501056 58013 FZRANO,PAVA,2018-03-21T14:56:00Z,61.53,-165.6,-5.0,-5.6,160,13,,1.75,30.569881,1044.1,,TRUE,TRUE,,,,TRUE,,BR,FEW,100,OVC,3000,,,,,IFR,-1.3,,,,,,,,,,,METAR,23.0
PAUN 211456Z AUTO 07006KT 4SM -SN BR OVC014 M04/M05 A3060 RMK AO2 SLP368 P0000 60000 T10391050 58004 FZRANO,PAUN,2018-03-21T14:56:00Z,63.88,-160.8,-3.9,-5.0,70,6,,4.0,30.59941,1036.8,,TRUE,TRUE,,,,TRUE,,-SN BR,OVC,1400,,,,,,,MVFR,-0.4,,,,,0.005,0.005,,,,,METAR,6.0
PATG 211456Z AUTO 01006KT 10SM OVC037 M08/M09 A3072 RMK AO2 SLP501 T10781089 57008 FZRANO,PATG,2018-03-21T14:56:00Z,59.05,-160.38,-7.8,-8.9,10,6,,10.0,30.720472,1050.1,,TRUE,TRUE,,,,TRUE,,,OVC,3700,,,,,,,VFR,-0.8,,,,,,,,,,,METAR,4.0
PATE 211456Z AUTO 12015KT 9SM OVC012 M13/M15 A3049 RMK AO2 SLP336 60000 T11331150 58014 FZRANO,PATE,2018-03-21T14:56:00Z,65.23,-166.33,-13.3,-15.0,120,15,,9.0,30.490158,1033.6,,TRUE,TRUE,,,,TRUE,,,OVC,1200,,,,,,,MVFR,-1.4,,,,,,0.005,,,,,METAR,90.0
KLJF 211456Z AUTO 13004KT 10SM OVC015 M02/M03 A3016 RMK AO2,KLJF,2018-03-21T14:56:00Z,45.1,-94.52,-2.0,-3.0,130,4,,10.0,30.159449,,,TRUE,TRUE,,,,,,,OVC,1500,,,,,,,MVFR,,,,,,,,,,,,METAR,348.0
KLGD 211456Z AUTO 14011KT 10SM OVC055 07/01 A2979 RMK AO2 SLP229 T00670006 56008,KLGD,2018-03-21T14:56:00Z,45.27,-118.0,6.7,0.6,140,11,,10.0,29.790354,1022.9,,TRUE,TRUE,,,,,,,OVC,5500,,,,,,,VFR,-0.8,,,,,,,,,,,METAR,827.0
KLEW 211456Z AUTO 02010KT 10SM CLR M01/M09 A2986 RMK AO2 SLP128 T10111094 58012 FZRANO,KLEW,2018-03-21T14:56:00Z,44.03,-70.27,-1.1,-9.4,20,10,,10.0,29.861221,1012.8,,TRUE,TRUE,,,,TRUE,,,CLR,,,,,,,,VFR,-1.2,,,,,,,,,,,METAR,88.0
KLCI 211456Z AUTO 05007KT 10SM CLR M01/M09 A2985 RMK AO2 SLP129 T10111094 56003 FZRANO,KLCI,2018-03-21T14:56:00Z,43.57,-71.42,-1.1,-9.4,50,7,,10.0,29.84941,1012.9,,TRUE,TRUE,,,,TRUE,,,CLR,,,,,,,,VFR,-0.3,,,,,,,,,,,METAR,166.0
KLBL 211456Z AUTO 04003KT 10SM CLR 06/M02 A3016 RMK AO2 SLP217 T00561022 51016,KLBL,2018-03-21T14:56:00Z,37.03,-100.97,5.6,-2.2,40,3,,10.0,30.159449,1021.7,,TRUE,TRUE,,,,,,,CLR,,,,,,,,VFR,1.6,,,,,,,,,,,METAR,879.0
KKLS 211456Z AUTO 00000KT 10SM BKN003 00/M01 A2977 RMK AO2 SLP086 T00001006 55005 FZRANO,KKLS,2018-03-21T14:56:00Z,46.12,-122.9,0.0,-0.6,0,0,,10.0,29.769686,1008.6,,TRUE,TRUE,,,,TRUE,,,BKN,300,,,,,,,LIFR,-0.5,,,,,,,,,,,METAR,5.0
KJRB 211456Z AUTO 04016G28KT 1SM -SN BR 01/M01 RMK AO2 PK WND 04033/1400 SLPNO P0000 60000 T00061006 FZRANO RVRNO $,KJRB,2018-03-21T14:56:00Z,40.7,-74.02,0.6,-0.6,40,16,28,1.0,,,,TRUE,TRUE,TRUE,,,TRUE,,-SN BR,,,,,,,,,,,,,,,0.005,0.005,,,,,METAR,7.0
KJHW 211456Z AUTO 04012KT 10SM FEW100 M03/M09 A2975 RMK AO2 SLP099 T10331089 53005 FZRANO,KJHW,2018-03-21T14:56:00Z,42.13,-79.27,-3.3,-8.9,40,12,,10.0,29.749016,1009.9,,TRUE,TRUE,,,,TRUE,,,FEW,10000,,,,,,,VFR,0.5,,,,,,,,,,,METAR,525.0
KJAC 211456Z 19005KT 1SM -SN BR FEW007 OVC012 M02/M03 A2999 RMK AO2 SLP188 P0001 60001 T10171028 $,KJAC,2018-03-21T14:56:00Z,43.62,-110.73,-1.7,-2.8,190,5,,1.0,29.991142,1018.8,,,TRUE,TRUE,,,,,-SN BR,FEW,700,OVC,1200,,,,,IFR,,,,,,0.01,0.01,,,,,METAR,1961.0
KIWD 211456Z AUTO 09006KT 10SM CLR M04/M11 A3016 RMK AO2 SLP235 T10441111 51008 FZRANO,KIWD,2018-03-21T14:56:00Z,46.52,-90.12,-4.4,-11.1,90,6,,10.0,30.159449,1023.5,,TRUE,TRUE,,,,TRUE,,,CLR,,,,,,,,VFR,0.8,,,,,,,,,,,METAR,375.0
KITH 211456Z 00000KT 10SM CLR M02/M09 A2978 RMK AO2 SLP099 T10221089 58001,KITH,2018-03-21T14:56:00Z,42.47,-76.45,-2.2,-8.9,0,0,,10.0,29.778543,1009.9,,,TRUE,,,,,,,CLR,,,,,,,,VFR,-0.1,,,,,,,,,,,METAR,335.0
KHYS 211456Z AUTO 23005KT 10SM CLR 05/02 A3017 RMK AO2 SLP230 T00500022 51016,KHYS,2018-03-21T14:56:00Z,38.85,-99.27,5.0,2.2,230,5,,10.0,30.171259,1023.0,,TRUE,TRUE,,,,,,,CLR,,,,,,,,VFR,1.6,,,,,,,,,,,METAR,609.0
KHND 211456Z 16012KT 10SM CLR 14/M02 A2998 RMK AO2 SLP145 T01391017 53008 $,KHND,2018-03-21T14:56:00Z,35.98,-115.13,13.9,-1.7,160,12,,10.0,29.97933,1014.5,,,TRUE,TRUE,,,,,,CLR,,,,,,,,VFR,0.8,,,,,,,,,,,METAR,749.0
KHNB 211456Z AUTO 33011G20KT 10SM OVC015 00/M02 A2997 RMK AO2 SLP153 60000 T00001022 53029 FZRANO,KHNB,2018-03-21T14:56:00Z,38.25,-86.95,0.0,-2.2,330,11,20,10.0,29.970472,1015.3,,TRUE,TRUE,,,,TRUE,,,OVC,1500,,,,,,,MVFR,2.9,,,,,,0.005,,,,,METAR,161.0
KHEZ 211456Z AUTO 34012G18KT 10SM CLR 13/03 A3018 RMK AO2 SLP225 T01280033 51021,KHEZ,2018-03-21T14:56:00Z,31.62,-91.3,12.8,3.3,340,12,18,10.0,30.180119,1022.5,,TRUE,TRUE,,,,,,,CLR,,,,,,,,VFR,2.1,,,,,,,,,,,METAR,83.0
KHDN 211456Z AUTO 10009KT 10SM CLR 02/M04 A3008 RMK AO2 SLP189 T00171044 51006 FZRANO,KHDN,2018-03-21T14:56:00Z,40.47,-107.22,1.7,-4.4,100,9,,10.0,30.079725,1018.9,,TRUE,TRUE,,,,TRUE,,,CLR,,,,,,,,VFR,0.6,,,,,,,,,,,METAR,2012.0
KGXY 211456Z AUTO 00000KT 10SM CLR 02/M04 A3004 RMK AO2 SLP194 T00171044 52007 FZRANO,KGXY,2018-03-21T14:56:00Z,40.42,-104.62,1.7,-4.4,0,0,,10.0,30.041338,1019.4,,TRUE,TRUE,,,,TRUE,,,CLR,,,,,,,,VFR,0.7,,,,,,,,,,,METAR,1420.0
KGTR 211456Z 32010G14KT 10SM CLR 10/03 A3010 RMK AO2 SLP195 T01000028 51025,KGTR,2018-03-21T14:56:00Z,33.45,-88.57,10.0,2.8,320,10,14,10.0,30.100393,1019.5,,,TRUE,,,,,,,CLR,,,,,,,,VFR,2.5,,,,,,,,,,,METAR,80.0
KGPZ 211456Z AUTO 14005KT 10SM OVC050 M06/M09 A3016 RMK AO2 SLP239 T10561089 51007 FZRANO,KGPZ,2018-03-21T14:56:00Z,47.22,-93.52,-5.6,-8.9,140,5,,10.0,30.159449,1023.9,,TRUE,TRUE,,,,TRUE,,,OVC,5000,,,,,,,VFR,0.7,,,,,,,,,,,METAR,413.0
KGDV 211456Z AUTO 19009KT 10SM CLR M02/M04 A2997 RMK AO2 SLP178 T10171039 53007 FZRANO,KGDV,2018-03-21T14:56:00Z,47.12,-104.78,-1.7,-3.9,190,9,,10.0,29.970472,1017.8,,TRUE,TRUE,,,,TRUE,,,CLR,,,,,,,,VFR,0.7,,,,,,,,,,,METAR,749.0
KGBD 211456Z AUTO 26004KT 10SM CLR 04/02 A3019 RMK AO2 SLP234 T00440017 53019,KGBD,2018-03-21T14:56:00Z,38.35,-98.87,4.4,1.7,260,4,,10.0,30.188976,1023.4,,TRUE,TRUE,,,,,,,CLR,,,,,,,,VFR,1.9,,,,,,,,,,,METAR,575.0
KGAD 211456Z AUTO 30013G19KT 10SM BKN031 06/M01 A3001 RMK AO2 SLP167 T00611006 53021,KGAD,2018-03-21T14:56:00Z,33.97,-86.07,6.1,-0.6,300,13,19,10.0,30.008858,1016.7,,TRUE,TRUE,,,,,,,BKN,3100,,,,,,,VFR,2.1,,,,,,,,,,,METAR,173.0
KFRM 211456Z AUTO 17005KT 10SM BKN014 OVC026 M01/M02 A3016 RMK AO2 SLP233 T10111022 51014 FZRANO,KFRM,2018-03-21T14:56:00Z,43.63,-94.42,-1.1,-2.2,170,5,,10.0,30.159449,1023.3,,TRUE,TRUE,,,,TRUE,,,BKN,1400,OVC,2600,,,,,MVFR,1.4,,,,,,,,,,,METAR,354.0
KFOD 211456Z AUTO 00000KT 10SM BKN011 BKN047 03/M01 A3018 RMK AO2 SLP258 T00281011 53017,KFOD,2018-03-21T14:56:00Z,42.53,-94.17,2.8,-1.1,0,0,,10.0,30.180119,1025.8,,TRUE,TRUE,,,,,,,BKN,1100,BKN,4700,,,,,MVFR,1.7,,,,,,,,,,,METAR,355.0
KFNL 211456Z AUTO 02005KT 10SM CLR 03/M03 A3003 RMK AO2 SLP167 T00281033 51004,KFNL,2018-03-21T14:56:00Z,40.45,-105.02,2.8,-3.3,20,5,,10.0,30.029528,1016.7,,TRUE,TRUE,,,,,,,CLR,,,,,,,,VFR,0.4,,,,,,,,,,,METAR,1529.0
KFLP 211456Z AUTO 33007G15KT 10SM FEW025 OVC032 07/00 A3018 RMK AO2 SLP219 T00670000 53024,KFLP,2018-03-21T14:56:00Z,36.28,-92.58,6.7,0.0,330,7,15,10.0,30.180119,1021.9,,TRUE,TRUE,,,,,,,FEW,2500,OVC,3200,,,,,VFR,2.4,,,,,,,,,,,METAR,219.0
KFKL 211456Z AUTO 02007KT 10SM OVC036 M02/M08 A2972 RMK AO2 SNE05 SLP081 P0000 60000 T10171078 53006 FZRANO,KFKL,2018-03-21T14:56:00Z,41.37,-79.87,-1.7,-7.8,20,7,,10.0,29.719488,1008.1,,TRUE,TRUE,,,,TRUE,,,OVC,3600,,,,,,,VFR,0.6,,,,,0.005,0.005,,,,,METAR,469.0
KFFX 211456Z AUTO 05008KT 10SM CLR 00/M14 A3005 RMK AO2 T10051142,KFFX,2018-03-21T14:56:00Z,43.43,-86.0,-0.5,-14.2,50,8,,10.0,30.050198,,,TRUE,TRUE,,,,,,,CLR,,,,,,,,VFR,,,,,,,,,,,,METAR,236.0
KFAM 211456Z AUTO 33011G19KT 10SM BKN034 04/M03 A3009 RMK AO2 SLP197 T00441033 52026,KFAM,2018-03-21T14:56:00Z,37.77,-90.42,4.4,-3.3,330,11,19,10.0,30.088583,1019.7,,TRUE,TRUE,,,,,,,BKN,3400,,,,,,,VFR,2.6,,,,,,,,,,,METAR,288.0
KEWK 211456Z AUTO 10003KT 10SM CLR 04/00 A3021 RMK AO2 SLP238 T00440000 51024,KEWK,2018-03-21T14:56:00Z,38.03,-97.27,4.4,0.0,100,3,,10.0,30.209646,1023.8,,TRUE,TRUE,,,,,,,CLR,,,,,,,,VFR,2.4,,,,,,,,,,,METAR,467.0
KEUL 211456Z AUTO 13011KT 10SM SCT090 07/01 A2986 RMK AO2 SLP115 T00720006 53004,KEUL,2018-03-21T14:56:00Z,43.62,-116.62,7.2,0.6,130,11,,10.0,29.861221,1011.5,,TRUE,TRUE,,,,,,,SCT,9000,,,,,,,VFR,0.4,,,,,,,,,,,METAR,740.0
KESC 211456Z AUTO 06006KT 10SM CLR M04/M13 A3018 RMK AO2 SLP245 T10441128 53010 FZRANO,KESC,2018-03-21T14:56:00Z,45.75,-87.08,-4.4,-12.8,60,6,,10.0,30.180119,1024.5,,TRUE,TRUE,,,,TRUE,,,CLR,,,,,,,,VFR,1.0,,,,,,,,,,,METAR,187.0
KENV 211456Z AUTO 00000KT 10SM CLR 04/M03 A2996 RMK AO2 SLP151 T00441028 53010,KENV,2018-03-21T14:56:00Z,40.72,-114.02,4.4,-2.8,0,0,,10.0,29.958662,1015.1,,TRUE,TRUE,,,,,,,CLR,,,,,,,,VFR,1.0,,,,,,,,,,,METAR,1292.0
PAOU 211456Z AUTO 10SM CLR M02/M03 A3069 RMK AO2 SLP392 T10221028 56022 FZRANO $,PAOU,2018-03-21T14:56:00Z,56.0,-161.17,-2.2,-2.8,,,,10.0,30.690945,1039.2,,TRUE,TRUE,TRUE,,,TRUE,,,CLR,,,,,,,,VFR,-2.2,,,,,,,,,,,METAR,4.0
PAOO 211456Z AUTO 00000KT 1/2SM -SN FZFG OVC003 M03/M04 A3061 RMK AO2 UPB53E55SNB41E53B55 SLP378 P0000 60000 T10331039 56008 FZRANO,PAOO,2018-03-21T14:56:00Z,60.53,-165.12,-3.3,-3.9,0,0,,0.5,30.611221,1037.8,,TRUE,TRUE,,,,TRUE,,-SN FZFG,OVC,300,,,,,,,LIFR,-0.8,,,,,0.005,0.005,,,,,METAR,18.0
PAOH 211456Z AUTO 00000KT 8SM OVC049 M01/M02 A2991 RMK AO2 UPB37E43SNE37 SLP131 P0000 60000 T10111017 58001 FZRANO,PAOH,2018-03-21T14:56:00Z,58.1,-135.45,-1.1,-1.7,0,0,,8.0,29.911417,1013.1,,TRUE,TRUE,,,,TRUE,,,OVC,4900,,,,,,,VFR,-0.1,,,,,0.005,0.005,,,,,METAR,9.0
PANW 211456Z AUTO 26009KT 10SM CLR M08/M12 A3067 RMK AO2 SLP405 T10831117 56007 FZRANO,PANW,2018-03-21T14:56:00Z,59.45,-157.37,-8.3,-11.7,260,9,,10.0,30.670275,1040.5,,TRUE,TRUE,,,,TRUE,,,CLR,,,,,,,,VFR,-0.7,,,,,,,,,,,METAR,92.0
PANA 211456Z AUTO 20005KT 3SM BR OVC002 M02/M03 A3066 RMK AO2 SLP381 60000 T10221028 56008 FZRANO,PANA,2018-03-21T14:56:00Z,60.68,-161.98,-2.2,-2.8,200,5,,3.0,30.661417,1038.1,,TRUE,TRUE,,,,TRUE,,BR,OVC,200,,,,,,,LIFR,-0.8,,,,,,0.005,,,,,METAR,5.0
PAMK 211456Z AUTO 22015KT 10SM OVC019 M02/M04 A3058 RMK AO2 SNE26 SLP360 P0000 60000 T10171039 56004 FZRANO $,PAMK,2018-03-21T14:56:00Z,63.48,-162.12,-1.7,-3.9,220,15,,10.0,30.578741,1036.0,,TRUE,TRUE,TRUE,,,TRUE,,,OVC,1900,,,,,,,MVFR,-0.4,,,,,0.005,0.005,,,,,METAR,28.0
PAMH 211456Z 00000KT 9SM BKN029 OVC039 M09/M10 A3055 RMK AO2 SLP301 52014 PWINO FZRANO RVRNO,PAMH,2018-03-21T14:56:00Z,63.9,-152.32,-9.0,-10.0,0,0,,9.0,30.549213,1030.1,,,TRUE,,,,TRUE,TRUE,,BKN,2900,OVC,3900,,,,,MVFR,1.4,,,,,,,,,,,METAR,214.0
PAMB 211456Z AUTO 00000KT 10SM CLR M06/M08 A3069 RMK AO2 SLP399 T10561083 56010 FZRANO $,PAMB,2018-03-21T14:56:00Z,58.98,-159.05,-5.6,-8.3,0,0,,10.0,30.690945,1039.9,,TRUE,TRUE,TRUE,,,TRUE,,,CLR,,,,,,,,VFR,-1.0,,,,,,,,,,,METAR,16.0
PALG 211456Z AUTO 00000KT 1 1/2SM BR OVC003 M04/M04 A3066 RMK AO2 SLP389 60000 T10391044 58007 FZRANO,PALG,2018-03-21T14:56:00Z,61.53,-160.33,-3.9,-4.4,0,0,,1.5,30.661417,1038.9,,TRUE,TRUE,,,,TRUE,,BR,OVC,300,,,,,,,LIFR,-0.7,,,,,,0.005,,,,,METAR,17.0
PAPG 211456Z 00000KT 10SM FEW013 SCT120 M04/M04 A2984 RMK AO2 SLP110 A2984 T10391044 $,PAPG,2018-03-21T14:56:00Z,56.82,-132.97,-3.9,-4.4,0,0,,10.0,29.840551,1011.0,,,TRUE,TRUE,,,,,,FEW,1300,SCT,12000,,,,,VFR,,,,,,,,,,,,METAR,15.0
PARC 211456Z AUTO 00000KT 10SM CLR M27/M29 A3036 RMK AO2 SLP367 T12671289 51021 FZRANO,PARC,2018-03-21T14:56:00Z,68.12,-145.58,-26.7,-28.9,0,0,,10.0,30.360237,1036.7,,TRUE,TRUE,,,,TRUE,,,CLR,,,,,,,,VFR,2.1,,,,,,,,,,,METAR,636.0
PAQH 211456Z AUTO 17010KT 1/2SM FZFG OVC002 M02/M02 A3069 RMK AO2 SLP392 T10171017 58007 PWINO FZRANO,PAQH,2018-03-21T14:56:00Z,59.75,-161.85,-1.7,-1.7,170,10,,0.5,30.690945,1039.2,,TRUE,TRUE,,,,TRUE,TRUE,FZFG,OVC,200,,,,,,,LIFR,-0.7,,,,,,,,,,,METAR,13.0
PAPO 211456Z AUTO 08004KT 10SM CLR M30/M33 A3063 RMK AO2 SLP372 T13001328 58015 FZRANO,PAPO,2018-03-21T14:56:00Z,68.35,-166.8,-30.0,-32.8,80,4,,10.0,30.628937,1037.2,,TRUE,TRUE,,,,TRUE,,,CLR,,,,,,,,VFR,-1.5,,,,,,,,,,,METAR,6.0
PAPN 211456Z AUTO 00000KT 9SM CLR M04/M04 A3069 RMK AO2 SLP395 T10391044 56011 FZRANO,PAPN,2018-03-21T14:56:00Z,57.58,-157.57,-3.9,-4.4,0,0,,9.0,30.690945,1039.5,,TRUE,TRUE,,,,TRUE,,,CLR,,,,,,,,VFR,-1.1,,,,,,,,,,,METAR,18.0
PAPH 211456Z AUTO 00000KT 8SM OVC006 M03/M03 A3071 RMK AO2 SLP402 T10281033 57018 FZRANO,PAPH,2018-03-21T14:56:00Z,56.95,-158.62,-2.8,-3.3,0,0,,8.0,30.708662,1040.2,,TRUE,TRUE,,,,TRUE,,,OVC,600,,,,,,,IFR,-1.8,,,,,,,,,,,METAR,29.0
PARY 211456Z AUTO 28003KT 10SM CLR M13/M16 A3058 RMK AO2 SNB36E49 SLP389 P0000 60000 T11331156 51018 FZRANO,PARY,2018-03-21T14:56:00Z,64.73,-155.47,-13.3,-15.6,280,3,,10.0,30.578741,1038.9,,TRUE,TRUE,,,,TRUE,,,CLR,,,,,,,,VFR,1.8,,,,,0.005,0.005,,,,,METAR,199.0
PARS 211456Z AUTO 00000KT 1SM BR OVC003 M06/M07 A3066 RMK AO2 SLP388 60000 T10611067 56003 FZRANO RVRNO $,PARS,2018-03-21T14:56:00Z,61.77,-161.32,-6.1,-6.7,0,0,,1.0,30.661417,1038.8,,TRUE,TRUE,TRUE,,,TRUE,,BR,OVC,300,,,,,,,LIFR,-0.3,,,,,,0.005,,,,,METAR,16.0
KUCP 211456Z AUTO 01006KT 3/4SM -SN BR SCT006 BKN017 OVC023 M02/M03 A2977 RMK AO2 SLP107 P0000 60000 T10221033 51008 RVRNO,KUCP,2018-03-21T14:56:00Z,41.03,-80.42,-2.2,-3.3,10,6,,0.75,29.769686,1010.7,,TRUE,TRUE,,,,,,-SN BR,SCT,600,BKN,1700,OVC,2300,,,LIFR,0.8,,,,,0.005,0.005,,,,,METAR,327.0
KTVF 211456Z AUTO 13012KT 1 1/2SM -SN BR SCT008 BKN021 OVC029 M02/M03 A3010 RMK AO2 UPB31E54SNE31B36E51B54 SLP211 P0000 60000 T10171028 52009 FZRANO,KTVF,2018-03-21T14:56:00Z,48.07,-96.17,-1.7,-2.8,130,12,,1.5,30.100393,1021.1,,TRUE,TRUE,,,,TRUE,,-SN BR,SCT,800,BKN,2100,OVC,2900,,,IFR,0.9,,,,,0.005,0.005,,,,,METAR,340.0
KSUE 211456Z AUTO 35009KT 10SM CLR M03/M07 A3014 RMK AO2 SLP230 T10331072 51007 FZRANO,KSUE,2018-03-21T14:56:00Z,44.85,-87.42,-3.3,-7.2,350,9,,10.0,30.138779,1023.0,,TRUE,TRUE,,,,TRUE,,,CLR,,,,,,,,VFR,0.7,,,,,,,,,,,METAR,221.0
KSRC 211456Z AUTO 32008G15KT 10SM SCT043 09/01 A3017 RMK AO2 SLP229 6//// T00890006 51026,KSRC,2018-03-21T14:56:00Z,35.22,-91.73,8.9,0.6,320,8,15,10.0,30.171259,1022.9,,TRUE,TRUE,,,,,,,SCT,4300,,,,,,,VFR,2.6,,,,,,,,,,,METAR,80.0
KSQI 211456Z AUTO 03010KT 10SM CLR 01/M07 A3012 RMK AO2 SLP224 6//// T00061067 53020 FZRANO $,KSQI,2018-03-21T14:56:00Z,41.75,-89.67,0.6,-6.7,30,10,,10.0,30.121063,1022.4,,TRUE,TRUE,TRUE,,,TRUE,,,CLR,,,,,,,,VFR,2.0,,,,,,,,,,,METAR,197.0
KSMN 211456Z AUTO 00000KT 10SM OVC065 01/M02 A2992 RMK AO2 SLP154 T00061022 57002 FZRANO,KSMN,2018-03-21T14:56:00Z,45.12,-113.87,0.6,-2.2,0,0,,10.0,29.920275,1015.4,,TRUE,TRUE,,,,TRUE,,,OVC,6500,,,,,,,VFR,-0.2,,,,,,,,,,,METAR,1233.0
KSLG 211456Z AUTO 35007KT 10SM CLR 06/01 A3021 RMK AO2 SLP236 T00560011 51024,KSLG,2018-03-21T14:56:00Z,36.2,-94.47,5.6,1.1,350,7,,10.0,30.209646,1023.6,,TRUE,TRUE,,,,,,,CLR,,,,,,,,VFR,2.4,,,,,,,,,,,METAR,300.0
KSKX 211456Z AUTO 30003KT 10SM SCT110 02/M12 A3017 RMK AO2 SLP208 T00221117 53006 FZRANO $,KSKX,2018-03-21T14:56:00Z,36.45,-105.67,2.2,-11.7,300,3,,10.0,30.171259,1020.8,,TRUE,TRUE,TRUE,,,TRUE,,,SCT,11000,,,,,,,VFR,0.6,,,,,,,,,,,METAR,2161.0
KSGU 211456Z AUTO 00000KT 10SM OVC070 11/00 A3002 RMK AO2 SLP155 T01060000 53014,KSGU,2018-03-21T14:56:00Z,37.07,-113.52,10.6,0.0,0,0,,10.0,30.02067,1015.5,,TRUE,TRUE,,,,,,,OVC,7000,,,,,,,VFR,1.4,,,,,,,,,,,METAR,896.0
KSGT 211456Z AUTO 34017KT 10SM CLR 09/02 A3017 RMK AO2 SLP218 T00940017 51028,KSGT,2018-03-21T14:56:00Z,34.6,-91.57,9.4,1.7,340,17,,10.0,30.171259,1021.8,,TRUE,TRUE,,,,,,,CLR,,,,,,,,VFR,2.8,,,,,,,,,,,METAR,68.0
KSGH 211456Z AUTO 36013KT 8SM -SN M01/M03 A2978 RMK AO2 SLP096 P0000 60000 T10061028 53030 $,KSGH,2018-03-21T14:56:00Z,39.83,-83.83,-0.6,-2.8,360,13,,8.0,29.778543,1009.6,,TRUE,TRUE,TRUE,,,,,-SN,,,,,,,,,,3.0,,,,,0.005,0.005,,,,,METAR,321.0
KSFZ 211456Z AUTO 10SM OVC018 M01/M04 A2975 RMK AO2 SLP024 T10061039 51005 FZRANO $,KSFZ,2018-03-21T14:56:00Z,41.92,-71.5,-0.6,-3.9,,,,10.0,29.749016,1002.4,,TRUE,TRUE,TRUE,,,TRUE,,,OVC,1800,,,,,,,MVFR,0.5,,,,,,,,,,,METAR,134.0
KSFM 211456Z AUTO 01010KT 10SM M01/M08 A2985 RMK AO2 SLP115 T10111078 58003 FZRANO $,KSFM,2018-03-21T14:56:00Z,43.38,-70.72,-1.1,-7.8,10,10,,10.0,29.84941,1011.5,,TRUE,TRUE,TRUE,,,TRUE,,,,,,,,,,,,-0.3,,,,,,,,,,,METAR,74.0
KRUT 211456Z AUTO 01004KT 10SM CLR M06/M12 A2986 RMK AO2 SLP133 T10611117 55005 FZRANO $,KRUT,2018-03-21T14:56:00Z,43.52,-72.95,-6.1,-11.7,10,4,,10.0,29.861221,1013.3,,TRUE,TRUE,TRUE,,,TRUE,,,CLR,,,,,,,,VFR,-0.5,,,,,,,,,,,METAR,240.0
KRKD 211456Z AUTO 03009G15KT 10SM CLR M02/M08 A2986 RMK AO2 SLP114 T10171078 55006 FZRANO,KRKD,2018-03-21T14:56:00Z,44.07,-69.08,-1.7,-7.8,30,9,15,10.0,29.861221,1011.4,,TRUE,TRUE,,,,TRUE,,,CLR,,,,,,,,VFR,-0.6,,,,,,,,,,,METAR,17.0
KPWT 211456Z AUTO 00000KT 10SM BKN002 M02/M02 A2976 RMK AO2 SLP095 T10221022 55004 FZRANO,KPWT,2018-03-21T14:56:00Z,47.5,-122.75,-2.2,-2.2,0,0,,10.0,29.760826,1009.5,,TRUE,TRUE,,,,TRUE,,,BKN,200,,,,,,,LIFR,-0.4,,,,,,,,,,,METAR,147.0
KPVC 211456Z AUTO 04019G24KT 10SM OVC022 03/M01 A2977 RMK AO2 SLP080 T00331011 53004,KPVC,2018-03-21T14:56:00Z,42.07,-70.22,3.3,-1.1,40,19,24,10.0,29.769686,1008.0,,TRUE,TRUE,,,,,,,OVC,2200,,,,,,,MVFR,0.4,,,,,,,,,,,METAR,2.0
KPTV 211456Z AUTO 01004KT 3SM BR BKN060 OVC080 13/12 A2993 RMK AO2 RAB15E42 SLP148 P0001 60005 T01280122 50008,KPTV,2018-03-21T14:56:00Z,36.02,-119.07,12.8,12.2,10,4,,3.0,29.929134,1014.8,,TRUE,TRUE,,,,,,BR,BKN,6000,OVC,8000,,,,,MVFR,0.8,,,,,0.01,0.05,,,,,METAR,135.0
CYHY 211456Z 04004KT 350V070 15SM -SN BKN024 M22/M26 A3039 RMK SC7 SLP315,CYHY,2018-03-21T14:56:00Z,60.82,-115.77,-22.0,-26.0,40,4,,15.0,30.389763,1031.5,,,,,,,,,-SN,BKN,2400,,,,,,,MVFR,,,,,,,,,,,,SPECI,166.0
KOCH 211456Z AUTO 04005KT 10SM 16/03 A3021 RMK AO2 SLP235 T01560033 51019 $,KOCH,2018-03-21T14:56:00Z,31.57,-94.72,15.6,3.3,40,5,,10.0,30.209646,1023.5,,TRUE,TRUE,TRUE,,,,,,,,,,,,,,,1.9,,,,,,,,,,,METAR,108.0
KOAJ 211456Z AUTO 31005KT 10SM -RA OVC011 05/04 A2964 RMK AO2 SLP043 P0000 60001 T00500044 52004,KOAJ,2018-03-21T14:56:00Z,34.82,-77.62,5.0,4.4,310,5,,10.0,29.639763,1004.3,,TRUE,TRUE,,,,,,-RA,OVC,1100,,,,,,,MVFR,0.4,,,,,0.005,0.01,,,,,METAR,29.0
KMYR 211456Z 27014KT 10SM FEW028 OVC035 11/03 A2968 RMK AO2 SLP049 T01060033 53018,KMYR,2018-03-21T14:56:00Z,33.67,-78.92,10.6,3.3,270,14,,10.0,29.681103,1004.9,,,TRUE,,,,,,,FEW,2800,OVC,3500,,,,,VFR,1.8,,,,,,,,,,,METAR,8.0
KMKY 211456Z AUTO 32014G20KT 10SM FEW026 SCT037 BKN060 22/14 A3002 RMK AO2 SLP164 T02170144 51024,KMKY,2018-03-21T14:56:00Z,26.0,-81.67,21.7,14.4,320,14,20,10.0,30.02067,1016.4,,TRUE,TRUE,,,,,,,FEW,2600,SCT,3700,BKN,6000,,,VFR,2.4,,,,,,,,,,,METAR,2.0
KISM 211456Z 29017G22KT 9SM BKN031 18/08 A2998 RMK AO2 SLP154 T01780083 51020,KISM,2018-03-21T14:56:00Z,28.28,-81.43,17.8,8.3,290,17,22,9.0,29.97933,1015.4,,,TRUE,,,,,,,BKN,3100,,,,,,,VFR,2.0,,,,,,,,,,,METAR,25.0
KILE 211456Z AUTO 16005KT 10SM CLR 14/03 A3022 RMK AO2 SLP252 6//// T01440028 51028 PNO $,KILE,2018-03-21T14:56:00Z,31.07,-97.67,14.4,2.8,160,5,,10.0,30.221457,1025.2,,TRUE,TRUE,TRUE,,,,,,CLR,,,,,,,,VFR,2.8,,,,,,,,,,,METAR,258.0
KHYI 211456Z 14005KT 10SM CLR 16/03 A3021 RMK AO2 SLP224 T01560028 53022 $,KHYI,2018-03-21T14:56:00Z,29.88,-97.87,15.6,2.8,140,5,,10.0,30.209646,1022.4,,,TRUE,TRUE,,,,,,CLR,,,,,,,,VFR,2.2,,,,,,,,,,,METAR,182.0
KUDG 211456Z AUTO 33010KT 8SM -RA BKN014 OVC019 05/04 A2970 RMK AO2 SLP066 P0002 60003 T00500039 53027,KUDG,2018-03-21T14:56:00Z,34.45,-79.88,5.0,3.9,330,10,,8.0,29.698818,1006.6,,TRUE,TRUE,,,,,,-RA,BKN,1400,OVC,1900,,,,,MVFR,2.7,,,,,0.02,0.03,,,,,METAR,59.0
KSOP 211456Z AUTO 31005KT 10SM -RA BKN007 OVC012 02/02 A2968 RMK AO2 CIG 003V007 SLP071 P0000 60003 T00220022 53019 FZRANO,KSOP,2018-03-21T14:56:00Z,35.22,-79.4,2.2,2.2,310,5,,10.0,29.681103,1007.1,,TRUE,TRUE,,,,TRUE,,-RA,BKN,700,OVC,1200,,,,,IFR,1.9,,,,,0.005,0.03,,,,,METAR,141.0
KSGJ 211456Z 28015G21KT 10SM CLR 16/01 A2993 RMK AO2 PK WND 29028/1423 SLP135 T01560011 53020,KSGJ,2018-03-21T14:56:00Z,29.97,-81.32,15.6,1.1,280,15,21,10.0,29.929134,1013.5,,,TRUE,,,,,,,CLR,,,,,,,,VFR,2.0,,,,,,,,,,,METAR,3.0
KSDY 211456Z AUTO 19004KT 3SM BR FEW002 M03/M04 A2999 RMK AO2 SLP188 T10331044 53004 FZRANO,KSDY,2018-03-21T14:56:00Z,47.7,-104.2,-3.3,-4.4,190,4,,3.0,29.991142,1018.8,,TRUE,TRUE,,,,TRUE,,BR,FEW,200,,,,,,,MVFR,0.4,,,,,,,,,,,METAR,605.0
KPWG 211456Z AUTO 00000KT 10SM CLR 12/06 A3022 RMK AO2 SLP251 T01220061 51027,KPWG,2018-03-21T14:56:00Z,31.47,-97.32,12.2,6.1,0,0,,10.0,30.221457,1025.1,,TRUE,TRUE,,,,,,,CLR,,,,,,,,VFR,2.7,,,,,,,,,,,METAR,180.0
KPVG 211456Z AUTO 29005KT 8SM -RA OVC005 A2959 RMK AO2 UPE33RAB33 CIG 004V009 SLPNO 6//// 54000 FZRANO PNO $,KPVG,2018-03-21T14:56:00Z,36.78,-76.45,,,290,5,,8.0,29.589567,,,TRUE,TRUE,TRUE,,,TRUE,,-RA,OVC,500,,,,,,,IFR,,,,,,,,,,,,METAR,7.0
KPRX 211456Z AUTO 01006KT 10SM CLR 11/03 A3023 RMK AO2 SLP254 T01110028 53026,KPRX,2018-03-21T14:56:00Z,33.62,-95.45,11.1,2.8,10,6,,10.0,30.230314,1025.4,,TRUE,TRUE,,,,,,,CLR,,,,,,,,VFR,2.6,,,,,,,,,,,METAR,167.0
KHEF 211456Z 36011KT 3/4SM -SN BR BKN006 OVC014 00/M01 A2967 RMK AO2 CIG 004V009 SLP060 6//// T00001011 51009 FZRANO PNO $,KHEF,2018-03-21T14:56:00Z,38.72,-77.52,0.0,-1.1,360,11,,0.75,29.66929,1006.0,,,TRUE,TRUE,,,TRUE,,-SN BR,BKN,600,OVC,1400,,,,,LIFR,0.9,,,,,,,,,,,METAR,59.0
KGUC 211456Z AUTO 00000KT 10SM FEW095 M06/M11 A3016 RMK AO2 SLP243 T10561106 52001 FZRANO,KGUC,2018-03-21T14:56:00Z,38.52,-106.92,-5.6,-10.6,0,0,,10.0,30.159449,1024.3,,TRUE,TRUE,,,,TRUE,,,FEW,9500,,,,,,,VFR,0.1,,,,,,,,,,,METAR,2339.0
PASH 211456Z AUTO 08017KT 9SM BKN060 M21/M23 A3055 RMK AO2 SLP348 60000 T12111233 56025 FZRANO,PASH,2018-03-21T14:56:00Z,66.27,-166.08,-21.1,-23.3,80,17,,9.0,30.549213,1034.8,,TRUE,TRUE,,,,TRUE,,,BKN,6000,,,,,,,VFR,-2.5,,,,,,0.005,,,,,METAR,2.0
KNUW 211456Z 12005KT 9SM SCT020 SCT100 BKN130 OVC250 06/04 A2980 RMK AO2 RAB23E36 SLP090 P0000 60000 T00560039 56008 VISNO $ ,KNUW,2018-03-21T14:56:00Z,48.35,-122.65,5.6,3.9,120,5,,9.0,29.799213,1009.0,,,TRUE,TRUE,,,,,,SCT,2000,SCT,10000,BKN,13000,OVC,25000,VFR,-0.8,,,,,0.005,0.005,,,,,METAR,14.0
PASK 211456Z AUTO 07004KT 10SM CLR M28/M32 A3071 RMK AO2 SLP396 T12831317 51005 FZRANO $,PASK,2018-03-21T14:56:00Z,66.6,-160.0,-28.3,-31.7,70,4,,10.0,30.708662,1039.6,,TRUE,TRUE,TRUE,,,TRUE,,,CLR,,,,,,,,VFR,0.5,,,,,,,,,,,METAR,8.0
PASL 211456Z AUTO 00000KT 6SM -SN BR BKN026 OVC036 M08/M09 A3068 RMK AO2 SLP387 P0000 60000 T10831094 58003 FZRANO,PASL,2018-03-21T14:56:00Z,61.72,-157.15,-8.3,-9.4,0,0,,6.0,30.679134,1038.7,,TRUE,TRUE,,,,TRUE,,-SN BR,BKN,2600,OVC,3600,,,,,MVFR,-0.3,,,,,0.005,0.005,,,,,METAR,55.0
PASM 211456Z AUTO 10005KT 1 1/2SM -SN BR OVC002 M06/M07 A3063 RMK AO2 SLPNO P0000 60000 T10611067 55005 FZRANO,PASM,2018-03-21T14:56:00Z,62.07,-163.3,-6.1,-6.7,100,5,,1.5,30.628937,,,TRUE,TRUE,,,,TRUE,,-SN BR,OVC,200,,,,,,,LIFR,-0.5,,,,,0.005,0.005,,,,,METAR,92.0
PASX 211456Z AUTO 00000KT 10SM CLR M13/M15 A3046 RMK AO2 SLP326 T11281150 58002 FZRANO,PASX,2018-03-21T14:56:00Z,60.48,-151.03,-12.8,-15.0,0,0,,10.0,30.46063,1032.6,,TRUE,TRUE,,,,TRUE,,,CLR,,,,,,,,VFR,-0.2,,,,,,,,,,,METAR,32.0
KLPC 211456Z AUTO 11005KT 7SM -RA SCT014 BKN022 OVC027 13/12 A2993 RMK AO2 SLP138 P0008 60020 T01280122 55004,KLPC,2018-03-21T14:56:00Z,34.67,-120.47,12.8,12.2,110,5,,7.0,29.929134,1013.8,,TRUE,TRUE,,,,,,-RA,SCT,1400,BKN,2200,OVC,2700,,,MVFR,-0.4,,,,,0.08,0.2,,,,,METAR,27.0
KLRD 211456Z 13014KT 10SM CLR 20/13 A3015 RMK AO2 SLP213 T02000133 51018,KLRD,2018-03-21T14:56:00Z,27.55,-99.47,20.0,13.3,130,14,,10.0,30.15059,1021.3,,,TRUE,,,,,,,CLR,,,,,,,,VFR,1.8,,,,,,,,,,,METAR,155.0
KLZU 211456Z 28011G16KT 10SM OVC024 03/M02 A2985 RMK AO2 SLP123 T00331017 53022,KLZU,2018-03-21T14:56:00Z,33.98,-83.97,3.3,-1.7,280,11,16,10.0,29.84941,1012.3,,,TRUE,,,,,,,OVC,2400,,,,,,,MVFR,2.2,,,,,,,,,,,METAR,323.0
KM19 211456Z AUTO 34008KT 10SM 08/02 A3015 RMK AO2 SLP217 T00830017 51027 $,KM19,2018-03-21T14:56:00Z,35.65,-91.17,8.3,1.7,340,8,,10.0,30.15059,1021.7,,TRUE,TRUE,TRUE,,,,,,,,,,,,,,,2.7,,,,,,,,,,,METAR,73.0
KMJX 211456Z AUTO 04014KT 3/4SM -SN BR BKN006 OVC011 01/M01 A2964 RMK AO2 RAE39UPB39E40SNB40 CIG 005V009 SLP044 P0004 60010 T00061006 53003 FZRANO,KMJX,2018-03-21T14:56:00Z,39.93,-74.3,0.6,-0.6,40,14,,0.75,29.639763,1004.4,,TRUE,TRUE,,,,TRUE,,-SN BR,BKN,600,OVC,1100,,,,,LIFR,0.3,,,,,0.04,0.1,,,,,METAR,25.0
KMBL 211456Z AUTO 05010KT 10SM CLR M02/M10 A3009 RMK AO2 SLP212 T10171100 51007 FZRANO,KMBL,2018-03-21T14:56:00Z,44.27,-86.25,-1.7,-10.0,50,10,,10.0,30.088583,1021.2,,TRUE,TRUE,,,,TRUE,,,CLR,,,,,,,,VFR,0.7,,,,,,,,,,,METAR,189.0
KMKT 211456Z AUTO 11003KT 10SM OVC035 M02/M03 A3017 RMK AO2 SLP233 60000 T10221033 51012 FZRANO,KMKT,2018-03-21T14:56:00Z,44.22,-93.92,-2.2,-3.3,110,3,,10.0,30.171259,1023.3,,TRUE,TRUE,,,,TRUE,,,OVC,3500,,,,,,,VFR,1.2,,,,,,0.005,,,,,METAR,311.0
KMML 211456Z AUTO 18006KT 10SM OVC019 02/M02 A3013 RMK AO2 SLP218 T00171022 51009 FZRANO,KMML,2018-03-21T14:56:00Z,44.45,-95.82,1.7,-2.2,180,6,,10.0,30.129921,1021.8,,TRUE,TRUE,,,,TRUE,,,OVC,1900,,,,,,,MVFR,0.9,,,,,,,,,,,METAR,359.0
KMNM 211456Z AUTO 08004KT 10SM SCT100 M02/M09 A3016 RMK AO2 SLP234 T10221089 51008 FZRANO $,KMNM,2018-03-21T14:56:00Z,45.12,-87.62,-2.2,-8.9,80,4,,10.0,30.159449,1023.4,,TRUE,TRUE,TRUE,,,TRUE,,,SCT,10000,,,,,,,VFR,0.8,,,,,,,,,,,METAR,191.0
KMQY 211456Z 30014KT 10SM SCT033 05/M02 A2998 RMK AO2 SLP134 T00501022 51023,KMQY,2018-03-21T14:56:00Z,36.02,-86.52,5.0,-2.2,300,14,,10.0,29.97933,1013.4,,,TRUE,,,,,,,SCT,3300,,,,,,,VFR,2.3,,,,,,,,,,,METAR,166.0
KOLU 211456Z AUTO 10SM CLR 03/01 A3017 RMK AO2 SLP232 T00280011 51010 $,KOLU,2018-03-21T14:56:00Z,41.45,-97.32,2.8,1.1,,,,10.0,30.171259,1023.2,,TRUE,TRUE,TRUE,,,,,,CLR,,,,,,,,VFR,1.0,,,,,,,,,,,METAR,440.0
KOKK 211456Z AUTO 35011G20KT 10SM FEW100 00/M07 A2995 RMK AO2 SLP151 T00001067 51023 FZRANO,KOKK,2018-03-21T14:56:00Z,40.53,-86.07,0.0,-6.7,350,11,20,10.0,29.949802,1015.1,,TRUE,TRUE,,,,TRUE,,,FEW,10000,,,,,,,VFR,2.3,,,,,,,,,,,METAR,253.0
KMTW 211456Z AUTO 36006KT 10SM CLR M02/M07 A3012 RMK AO2 SLP224 T10171072 51008 FZRANO,KMTW,2018-03-21T14:56:00Z,44.12,-87.67,-1.7,-7.2,360,6,,10.0,30.121063,1022.4,,TRUE,TRUE,,,,TRUE,,,CLR,,,,,,,,VFR,0.8,,,,,,,,,,,METAR,198.0
KMSV 211456Z AUTO 07008G17KT 10SM FEW060 00/M09 A2968 RMK AO2 SLP066 6//// T00001094 FZRANO,KMSV,2018-03-21T14:56:00Z,41.7,-74.78,0.0,-9.4,70,8,17,10.0,29.681103,1006.6,,TRUE,TRUE,,,,TRUE,,,FEW,6000,,,,,,,VFR,,,,,,,,,,,,METAR,428.0
KMRF 211456Z AUTO 15005KT 10SM CLR 15/M06 A3015 RMK AO2 SLP176 T01501061 53016,KMRF,2018-03-21T14:56:00Z,30.37,-104.02,15.0,-6.1,150,5,,10.0,30.15059,1017.6,,TRUE,TRUE,,,,,,,CLR,,,,,,,,VFR,1.6,,,,,,,,,,,METAR,1481.0
KOTG 211456Z AUTO 22004KT 10SM OVC015 M01/M02 A3014 RMK AO2 SLP228 T10061022 51016 FZRANO,KOTG,2018-03-21T14:56:00Z,43.63,-95.57,-0.6,-2.2,220,4,,10.0,30.138779,1022.8,,TRUE,TRUE,,,,TRUE,,,OVC,1500,,,,,,,MVFR,1.6,,,,,,,,,,,METAR,480.0
KOWB 211456Z 32014G19KT 10SM BKN020 02/M02 A2998 RMK AO2 SLP167 T00171022 53027,KOWB,2018-03-21T14:56:00Z,37.72,-87.17,1.7,-2.2,320,14,19,10.0,29.97933,1016.7,,,TRUE,,,,,,,BKN,2000,,,,,,,MVFR,2.7,,,,,,,,,,,METAR,124.0
KOTH 211456Z 13005KT 5SM -RA BR SCT015 BKN027 OVC033 08/08 A2975 RMK AO2 SLP073 P0006 60006 T00830078 56007,KOTH,2018-03-21T14:56:00Z,43.42,-124.25,8.3,7.8,130,5,,5.0,29.749016,1007.3,,,TRUE,,,,,,-RA BR,SCT,1500,BKN,2700,OVC,3300,,,MVFR,-0.7,,,,,0.06,0.06,,,,,METAR,4.0
KPIB 211456Z AUTO 30007KT 260V330 10SM CLR 12/04 A3014 RMK AO2 SLP206 T01170044 51025,KPIB,2018-03-21T14:56:00Z,31.47,-89.32,11.7,4.4,300,7,,10.0,30.138779,1020.6,,TRUE,TRUE,,,,,,,CLR,,,,,,,,VFR,2.5,,,,,,,,,,,METAR,91.0
PFNO 211456Z AUTO 06009KT 10SM CLR M28/M31 A3067 RMK AO2 SLP389 T12831306 50001 FZRANO,PFNO,2018-03-21T14:56:00Z,66.82,-161.02,-28.3,-30.6,60,9,,10.0,30.670275,1038.9,,TRUE,TRUE,,,,TRUE,,,CLR,,,,,,,,VFR,0.1,,,,,,,,,,,METAR,17.0
PAHX 211456Z AUTO 21007KT 10SM OVC047 M05/M06 A3064 RMK AO2 SNE47 SLP377 P0000 60000 T10501056 58003 FZRANO,PAHX,2018-03-21T14:56:00Z,62.7,-159.57,-5.0,-5.6,210,7,,10.0,30.640747,1037.7,,TRUE,TRUE,,,,TRUE,,,OVC,4700,,,,,,,VFR,-0.3,,,,,0.005,0.005,,,,,METAR,24.0
KYKN 211456Z AUTO 15007KT 10SM CLR 01/M02 A3013 RMK AO2 SLP230 T00061017 51004 FZRANO,KYKN,2018-03-21T14:56:00Z,42.92,-97.37,0.6,-1.7,150,7,,10.0,30.129921,1023.0,,TRUE,TRUE,,,,TRUE,,,CLR,,,,,,,,VFR,0.4,,,,,,,,,,,METAR,398.0
KY50 211456Z AUTO 01006KT 10SM CLR M02/M10 A3015 RMK AO2 SLP240 T10221100 51013,KY50,2018-03-21T14:56:00Z,44.03,-89.3,-2.2,-10.0,10,6,,10.0,30.15059,1024.0,,TRUE,TRUE,,,,,,,CLR,,,,,,,,VFR,1.3,,,,,,,,,,,METAR,262.0
KPTN 211456Z AUTO 33007KT 10SM CLR 15/07 A3020 RMK AO2 SLP226 60000 T01500072 51020,KPTN,2018-03-21T14:56:00Z,29.72,-91.32,15.0,7.2,330,7,,10.0,30.200787,1022.6,,TRUE,TRUE,,,,,,,CLR,,,,,,,,VFR,2.0,,,,,,0.005,,,,,METAR,3.0
KPQI 211456Z AUTO 00000KT 10SM CLR M03/M10 A2997 RMK AO2 SLP193 T10331100 58006 FZRANO,KPQI,2018-03-21T14:56:00Z,46.67,-68.03,-3.3,-10.0,0,0,,10.0,29.970472,1019.3,,TRUE,TRUE,,,,TRUE,,,CLR,,,,,,,,VFR,-0.6,,,,,,,,,,,METAR,146.0
PFWS 211456Z AUTO 00000KT 10SM CLR M06/M09 A3069 RMK AO2 SLP399 T10561089 56010 FZRANO,PFWS,2018-03-21T14:56:00Z,58.7,-157.0,-5.6,-8.9,0,0,,10.0,30.690945,1039.9,,TRUE,TRUE,,,,TRUE,,,CLR,,,,,,,,VFR,-1.0,,,,,,,,,,,METAR,49.0
ETAD 211456Z AUTO 11004KT 9999 CLR 06/M09 A3030 RMK AO2 SLP268 T00641087 57012 TSNO $,ETAD,2018-03-21T14:56:00Z,49.98,6.7,6.4,-8.7,110,4,,6.21,30.301182,1026.8,,TRUE,TRUE,TRUE,,TRUE,,,,CLR,,,,,,,,VFR,-1.2,,,,,,,,,,,METAR,365.0
ETAR 211456Z AUTO 01007KT 9999 CLR 06/M08 A3031 RMK AO2 SLP282 T00601083 57010 $,ETAR,2018-03-21T14:56:00Z,49.42,7.58,6.0,-8.3,10,7,,6.21,30.31004,1028.2,,TRUE,TRUE,TRUE,,,,,,CLR,,,,,,,,VFR,-1.0,,,,,,,,,,,METAR,238.0
ETOU 211456Z AUTO 05004KT 9999 CLR 07/M08 A3033 RMK AO2 SLP280 T00721084 57012 $,ETOU,2018-03-21T14:56:00Z,50.03,8.32,7.2,-8.4,50,4,,6.21,30.33071,1028.0,,TRUE,TRUE,TRUE,,,,,,CLR,,,,,,,,VFR,-1.2,,,,,,,,,,,METAR,141.0
KGSB 211456Z 32004KT 10SM -RA BKN007 BKN011 OVC025 03/02 A2964 RMK AO2A RAE1356UPB1356E11RAB11 SLP041 P0003 60008 T00300017 52015 $,KGSB,2018-03-21T14:56:00Z,35.32,-77.97,3.0,1.7,320,4,,10.0,29.639763,1004.1,,,TRUE,TRUE,,,,,-RA,BKN,700,BKN,1100,OVC,2500,,,IFR,1.5,,,,,0.03,0.08,,,,,METAR,33.0
KMGE 211456Z 29014G23KT 10SM BKN023 OVC030 04/M02 A2988 RMK AO2A SLP123 T00351017 52025 $,KMGE,2018-03-21T14:56:00Z,33.92,-84.52,3.5,-1.7,290,14,23,10.0,29.878937,1012.3,,,TRUE,TRUE,,,,,,BKN,2300,OVC,3000,,,,,MVFR,2.5,,,,,,,,,,,METAR,326.0
KNUC 211456Z 21005KT 10SM BKN050 BKN180 BKN220 16/11 A3002 RMK SLP166 T01560106 53010,KNUC,2018-03-21T14:56:00Z,33.02,-118.57,15.6,10.6,210,5,,10.0,30.02067,1016.6,,,,,,,,,,BKN,5000,BKN,18000,BKN,22000,,,VFR,1.0,,,,,,,,,,,METAR,55.0
KRCA 211456Z AUTO 27004KT 10SM CLR 00/M06 A2999 RMK AO2 DZB44E53 SLP188 P0000 60000 T00001056 53007 $,KRCA,2018-03-21T14:56:00Z,44.13,-103.08,0.0,-5.6,270,4,,10.0,29.991142,1018.8,,TRUE,TRUE,TRUE,,,,,,CLR,,,,,,,,VFR,0.7,,,,,0.005,0.005,,,,,METAR,999.0
KSZL 211456Z 32009KT 10SM SCT018 BKN025 BKN037 04/00 A3015 RMK AO2A SLP218 T00370002 52027 $,KSZL,2018-03-21T14:56:00Z,38.72,-93.53,3.7,0.2,320,9,,10.0,30.15059,1021.8,,,TRUE,TRUE,,,,,,SCT,1800,BKN,2500,BKN,3700,,,MVFR,2.7,,,,,,,,,,,METAR,265.0
KTTS 211456Z AUTO 29017G24KT 10SM CLR 17/08 A2992 RMK AO2 PK WND 28030/08 SLP136 T01680082 51016 $,KTTS,2018-03-21T14:56:00Z,28.62,-80.72,16.8,8.2,290,17,24,10.0,29.920275,1013.6,,TRUE,TRUE,TRUE,,,,,,CLR,,,,,,,,VFR,1.6,,,,,,,,,,,METAR,3.0
RODN 211456Z AUTO 31017G23KT 10SM OVC050 15/07 A2993 RMK AO2 SLP143 T01540074 401990147 50002,RODN,2018-03-21T14:56:00Z,26.35,127.77,15.4,7.4,310,17,23,10.0,29.929134,1014.3,,TRUE,TRUE,,,,,,,OVC,5000,,,,,,,VFR,0.2,,,19.9,14.7,,,,,,,METAR,45.0
KNMM 211456Z 33011KT 10SM FEW035 FEW250 12/02 A3010 RMK AO2 SLP205 T01170017 51025 $,KNMM,2018-03-21T14:56:00Z,32.53,-88.57,11.7,1.7,330,11,,10.0,30.100393,1020.5,,,TRUE,TRUE,,,,,,FEW,3500,FEW,25000,,,,,VFR,2.5,,,,,,,,,,,METAR,97.0
KAQV 211456Z AUTO VRB04KT 10SM CLR 14/04 A3019 RMK AO2 SLP223 60000 T01440044 51022,KAQV,2018-03-21T14:56:00Z,31.4,-93.3,14.4,4.4,0,4,,10.0,30.188976,1022.3,,TRUE,TRUE,,,,,,,CLR,,,,,,,,VFR,2.2,,,,,,0.005,,,,,METAR,111.0
KP28 211456Z AUTO 00000KT 06/02 A3020 RMK AO1 SLP234 T00610022 53021 ,KP28,2018-03-21T14:56:00Z,37.28,-98.55,6.1,2.2,0,0,,,30.200787,1023.4,,TRUE,TRUE,,,,,,,,,,,,,,,,2.1,,,,,,,,,,,METAR,469.0
KNFL 211456Z 00000KT 10SM FEW030 SCT050 BKN080 BKN130 BKN180 06/04 A2989 RMK AO2 RAE12 SLP096 P0000 60002 T00560044 53008 ,KNFL,2018-03-21T14:56:00Z,39.42,-118.7,5.6,4.4,0,0,,10.0,29.890747,1009.6,,,TRUE,,,,,,,FEW,3000,SCT,5000,BKN,8000,BKN,13000,VFR,0.8,,,,,0.005,0.02,,,,,METAR,1199.0
KMHS 211456Z AUTO 00000KT 3SM BR BKN014 OVC022 05/04 A2979 RMK AO2 RAE00B16E26 SLP111 P0000 60002 T00500044 55006 ,KMHS,2018-03-21T14:56:00Z,41.32,-122.32,5.0,4.4,0,0,,3.0,29.790354,1011.1,,TRUE,TRUE,,,,,,BR,BKN,1400,OVC,2200,,,,,MVFR,-0.6,,,,,0.005,0.02,,,,,METAR,1078.0
KNID 211456Z 00000KT 10SM FEW034 SCT080 BKN140 OVC200 09/08 A2998 RMK AO2 RAB17E51 SLP152 P0000 60000 T00940083 50011 $ ,KNID,2018-03-21T14:56:00Z,35.67,-117.67,9.4,8.3,0,0,,10.0,29.97933,1015.2,,,TRUE,TRUE,,,,,,FEW,3400,SCT,8000,BKN,14000,OVC,20000,VFR,1.1,,,,,0.005,0.005,,,,,METAR,696.0
K8D3 211456Z AUTO 17006KT 00/M02 A3007 RMK AO1 SLP203 T00001022 50006 ,K8D3,2018-03-21T14:56:00Z,45.67,-96.98,0.0,-2.2,170,6,,,30.070866,1020.3,,TRUE,TRUE,,,,,,,,,,,,,,,,0.6,,,,,,,,,,,METAR,354.0
KNPA 211456Z 29007KT 10SM CLR 14/05 A3009 RMK AO2 SLP190 T01440050 51022 ,KNPA,2018-03-21T14:56:00Z,30.35,-87.32,14.4,5.0,290,7,,10.0,30.088583,1019.0,,,TRUE,,,,,,,CLR,,,,,,,,VFR,2.2,,,,,,,,,,,METAR,9.0
K79J 211456Z AUTO 31010G19KT 10SM CLR 13/01 A3006 RMK AO2 SLP176 T01330006 $ ,K79J,2018-03-21T14:56:00Z,31.32,-86.4,13.3,0.6,310,10,19,10.0,30.059055,1017.6,,TRUE,TRUE,TRUE,,,,,,CLR,,,,,,,,VFR,,,,,,,,,,,,METAR,94.0
KNFE 211456Z AUTO 29008KT 250V320 10SM OVC007 04/03 A2957 RMK AO2 RAE06 SLP014 P0001 60002 T00440028 51007 ,KNFE,2018-03-21T14:56:00Z,36.7,-76.13,4.4,2.8,290,8,,10.0,29.568897,1001.4,,TRUE,TRUE,,,,,,,OVC,700,,,,,,,IFR,0.7,,,,,0.01,0.02,,,,,METAR,5.0
KNGP 211456Z 10014KT 10SM FEW350 21/11 A3016 RMK AO2 SLP214 T02110111 53023 $ ,KNGP,2018-03-21T14:56:00Z,27.68,-97.27,21.1,11.1,100,14,,10.0,30.159449,1021.4,,,TRUE,TRUE,,,,,,FEW,35000,,,,,,,VFR,2.3,,,,,,,,,,,METAR,6.0
PHBK 211456Z AUTO 04004KT 10SM OVC060 19/19 A2987 RMK AO2 SLP117 T01940194 55003 ,PHBK,2018-03-21T14:56:00Z,22.03,-159.78,19.4,19.4,40,4,,10.0,29.870079,1011.7,,TRUE,TRUE,,,,,,,OVC,6000,,,,,,,VFR,-0.3,,,,,,,,,,,METAR,8.0
KNRS 211456Z 02006KT 10SM FEW120 BKN250 12/07 A3001 RMK AO2 SLP160 T01170067 53015 PNO $ ,KNRS,2018-03-21T14:56:00Z,32.57,-117.12,11.7,6.7,20,6,,10.0,30.008858,1016.0,,,TRUE,TRUE,,,,,,FEW,12000,BKN,25000,,,,,VFR,1.5,,,,,,,,,,,METAR,7.0
KGNR 211456Z AUTO 34003KT M02/M11 A2982 RMK AO1 SLP122 T10221111 56010 ,KGNR,2018-03-21T14:56:00Z,45.47,-69.55,-2.2,-11.1,340,3,,,29.819881,1012.2,,TRUE,TRUE,,,,,,,,,,,,,,,,-1.0,,,,,,,,,,,METAR,427.0
KNDZ 211456Z 33009KT 10SM FEW032 13/07 A3009 RMK AO2 SLP176 T01280067 51024 $ ,KNDZ,2018-03-21T14:56:00Z,30.7,-87.02,12.8,6.7,330,9,,10.0,30.088583,1017.6,,,TRUE,TRUE,,,,,,FEW,3200,,,,,,,VFR,2.4,,,,,,,,,,,METAR,54.0
KNTU 211456Z 30009KT 1SM BR OVC006 03/03 A2956 RMK AO2 RAB29E39 CIG 005V009 SLP011 P0001 60002 T00330033 50007 ,KNTU,2018-03-21T14:56:00Z,36.82,-76.02,3.3,3.3,300,9,,1.0,29.56004,1001.1,,,TRUE,,,,,,BR,OVC,600,,,,,,,IFR,0.7,,,,,0.01,0.02,,,,,METAR,7.0
KNCA 211456Z 32007KT 7SM -RA SCT006 OVC011 06/04 A2963 RMK AO2 RAB03 SLP036 P0001 60001 T00560044 51008 ,KNCA,2018-03-21T14:56:00Z,34.72,-77.45,5.6,4.4,320,7,,7.0,29.630905,1003.6,,,TRUE,,,,,,-RA,SCT,600,OVC,1100,,,,,MVFR,0.8,,,,,0.01,0.01,,,,,METAR,8.0
KNYG 211456Z AUTO 34010KT 3/4SM -SN BR VV013 01/00 A2967 RMK AO2 SLP048 P0003 60010 T00060000 51009 ,KNYG,2018-03-21T14:56:00Z,38.5,-77.28,0.6,0.0,340,10,,0.75,29.66929,1004.8,,TRUE,TRUE,,,,,,-SN BR,OVX,0,,,,,,,LIFR,0.9,,,,,0.03,0.1,,,,1300,METAR,4.0
KNBC 211456Z 29019G26KT 10SM FEW050 12/02 A2978 RMK AO2 PK WND 29030/1432 SLP084 T01220017 51021 $ ,KNBC,2018-03-21T14:56:00Z,32.47,-80.72,12.2,1.7,290,19,26,10.0,29.778543,1008.4,,,TRUE,TRUE,,,,,,FEW,5000,,,,,,,VFR,2.1,,,,,,,,,,,METAR,12.0
KALK 211456Z AUTO 00000KT 10SM CLR 15/M08 A3011 RMK AO2 SLP127 T01501083 51008 ,KALK,2018-03-21T14:56:00Z,31.6,-110.43,15.0,-8.3,0,0,,10.0,30.109253,1012.7,,TRUE,TRUE,,,,,,,CLR,,,,,,,,VFR,0.8,,,,,,,,,,,METAR,1453.0
KPRN 211456Z AUTO 33011G19KT 10SM CLR 11/M01 A3005 RMK AO2 SLP174 T01111006 53020 ,KPRN,2018-03-21T14:56:00Z,31.85,-86.62,11.1,-0.6,330,11,19,10.0,30.050198,1017.4,,TRUE,TRUE,,,,,,,CLR,,,,,,,,VFR,2.0,,,,,,,,,,,METAR,138.0
ETIC 211456Z AUTO 30006KT 9999 CLR 05/M12 A3024 RMK AO2 SLP264 T00451116 56009 $,ETIC,2018-03-21T14:56:00Z,49.7,11.93,4.5,-11.6,300,6,,6.21,30.239174,1026.4,,TRUE,TRUE,TRUE,,,,,,CLR,,,,,,,,VFR,-0.9,,,,,,,,,,,METAR,415.0
ETIH 211456Z AUTO 33003KT 9999 FEW065 04/M09 A3026 RMK AO2 SLP272 T00391088 56006 $,ETIH,2018-03-21T14:56:00Z,49.22,11.82,3.9,-8.8,330,3,,6.21,30.259842,1027.2,,TRUE,TRUE,TRUE,,,,,,FEW,6500,,,,,,,VFR,-0.6,,,,,,,,,,,METAR,442.0
ETIK 211456Z AUTO 29005KT 9999 CLR 03/M08 A3031 RMK AO2 SLP288 T00321079 57009 $,ETIK,2018-03-21T14:56:00Z,49.47,10.37,3.2,-7.9,290,5,,6.21,30.31004,1028.8,,TRUE,TRUE,TRUE,,,,,,CLR,,,,,,,,VFR,-0.9,,,,,,,,,,,METAR,325.0
PGUA 211456Z 06012KT 10SM SCT014 BKN021 25/23 A2976 RMK AO2A RAB30E46 SLPNO P0012 60012 T02510227 57011 CHINO RWY24L $,PGUA,2018-03-21T14:56:00Z,13.57,144.92,25.1,22.7,60,12,,10.0,29.760826,,,,TRUE,TRUE,,,,,,SCT,1400,BKN,2100,,,,,MVFR,-1.1,,,,,0.12,0.12,,,,,METAR,187.0
PHHI 211456Z AUTO 14005KT 10SM FEW017 BKN060 OVC075 20/17 A2990 RMK AO2 SLP117 60000 T01990173 55005 RVRNO $,PHHI,2018-03-21T14:56:00Z,21.48,-158.05,19.9,17.3,140,5,,10.0,29.899607,1011.7,,TRUE,TRUE,TRUE,,,,,,FEW,1700,BKN,6000,OVC,7500,,,VFR,-0.5,,,,,,0.005,,,,,METAR,255.0
RKJK 211456Z 01006KT 10SM BKN019 02/02 A2998 RMK AO2A SLP157 T00210020 400240002 58002,RKJK,2018-03-21T14:56:00Z,35.9,126.62,2.1,2.0,10,6,,10.0,29.97933,1015.7,,,TRUE,,,,,,,BKN,1900,,,,,,,MVFR,-0.2,,,2.4,0.2,,,,,,,METAR,9.0
RKSG 211456Z 33005KT 2 1/2SM BR BKN005 OVC015 01/01 A3000 RMK AO2A SLP163 P0000 60002 T00060006 400360004 58003 PWINO $,RKSG,2018-03-21T14:56:00Z,36.97,127.02,0.6,0.6,330,5,,2.5,30.0,1016.3,,,TRUE,TRUE,,,,TRUE,BR,BKN,500,OVC,1500,,,,,IFR,-0.3,,,3.6,0.4,0.005,0.02,,,,,METAR,16.0
RJTY 211456Z AUTO 33008KT 7SM -RA SCT014 OVC024 04/03 A2981 RMK AO2 CIG 015 RWY18 SLP106 P0010 60024 T00430034 400530006 57052 FZRANO $,RJTY,2018-03-21T14:56:00Z,35.75,139.33,4.3,3.4,330,8,,7.0,29.811024,1010.6,,TRUE,TRUE,TRUE,,,TRUE,,-RA,SCT,1400,OVC,2400,,,,,MVFR,-5.2,,,5.3,0.6,0.1,0.24,,,,,METAR,139.0
KP53 211456Z AUTO 00000KT M07/M11 A3019 RMK AO1 SLP236 T10671106 51011 ,KP53,2018-03-21T14:56:00Z,46.42,-86.65,-6.7,-10.6,0,0,,,30.188976,1023.6,,TRUE,TRUE,,,,,,,,,,,,,,,,1.1,,,,,,,,,,,METAR,187.0
PASA 211456Z AUTO 10013G24KT 2 1/2SM -SN BR OVC013 00/M02 A3038 RMK AO2 VIS 1 3/4V3 SLP288 P0000 60000 T00001022 56018 FZRANO $,PASA,2018-03-21T14:56:00Z,63.68,-170.5,0.0,-2.2,100,13,24,2.5,30.380905,1028.8,,TRUE,TRUE,TRUE,,,TRUE,,-SN BR,OVC,1300,,,,,,,IFR,-1.8,,,,,0.005,0.005,,,,,METAR,16.0
KBED 211456Z 02014G19KT 10SM FEW024 M01/M07 A2981 RMK AO2 SLP109 T10061067 58000,KBED,2018-03-21T14:56:00Z,42.47,-71.3,-0.6,-6.7,20,14,19,10.0,29.811024,1010.9,,,TRUE,,,,,,,FEW,2400,,,,,,,VFR,0.0,,,,,,,,,,,METAR,50.0
KBIH 211456Z AUTO 00000KT 10SM BKN095 05/02 A2998 RMK AO2 SLP134 T00500022 53010,KBIH,2018-03-21T14:56:00Z,37.37,-118.35,5.0,2.2,0,0,,10.0,29.97933,1013.4,,TRUE,TRUE,,,,,,,BKN,9500,,,,,,,VFR,1.0,,,,,,,,,,,METAR,1253.0
KCAE 211456Z 27018G26KT 10SM SCT048 09/M01 A2974 RMK AO2 PK WND 28028/1415 SLP069 T00891006 51023,KCAE,2018-03-21T14:56:00Z,33.93,-81.12,8.9,-0.6,270,18,26,10.0,29.740158,1006.9,,,TRUE,,,,,,,SCT,4800,,,,,,,VFR,2.3,,,,,,,,,,,METAR,70.0
KBZN 211456Z 15003KT 10SM CLR M03/M08 A2991 RMK AO2 SLP155 T10331078 58001,KBZN,2018-03-21T14:56:00Z,45.78,-111.17,-3.3,-7.8,150,3,,10.0,29.911417,1015.5,,,TRUE,,,,,,,CLR,,,,,,,,VFR,-0.1,,,,,,,,,,,METAR,1361.0
KJXN 211456Z 35010KT 10SM OVC100 00/M08 A2995 RMK AO2 SLP153 T00001083 51022,KJXN,2018-03-21T14:56:00Z,42.27,-84.47,0.0,-8.3,350,10,,10.0,29.949802,1015.3,,,TRUE,,,,,,,OVC,10000,,,,,,,VFR,2.2,,,,,,,,,,,METAR,305.0
KJMS 211456Z AUTO 21003KT 10SM OVC060 00/M02 A3000 RMK AO2 SLP179 T00001022 52007,KJMS,2018-03-21T14:56:00Z,46.93,-98.67,0.0,-2.2,210,3,,10.0,30.0,1017.9,,TRUE,TRUE,,,,,,,OVC,6000,,,,,,,VFR,0.7,,,,,,,,,,,METAR,455.0
KLAS 211456Z 00000KT 10SM FEW080 SCT170 14/00 A2996 RMK AO2 SLP135 T01440000 53012,KLAS,2018-03-21T14:56:00Z,36.07,-115.17,14.4,0.0,0,0,,10.0,29.958662,1013.5,,,TRUE,,,,,,,FEW,8000,SCT,17000,,,,,VFR,1.2,,,,,,,,,,,METAR,636.0
PAEI 211456Z 16006KT 10SM SCT070 M16/M19 A3050 RMK AO2A SLP343 T11641187 52012 VISNO RWY32 $,PAEI,2018-03-21T14:56:00Z,64.67,-147.1,-16.4,-18.7,160,6,,10.0,30.499016,1034.3,,,TRUE,TRUE,,,,,,SCT,7000,,,,,,,VFR,1.2,,,,,,,,,,,METAR,167.0
PAED 211456Z AUTO 00000KT 10SM FEW090 SCT110 M06/M13 A3040 RMK AO2 SLP292 T10561128 58001,PAED,2018-03-21T14:56:00Z,61.25,-149.8,-5.6,-12.8,0,0,,10.0,30.398623,1029.2,,TRUE,TRUE,,,,,,,FEW,9000,SCT,11000,,,,,VFR,-0.1,,,,,,,,,,,METAR,59.0
OTBH 211456Z 10008KT 9000 HZ CLR 28/07 A2988 RMK AO2A SLP120 T02760074 58000 $,OTBH,2018-03-21T14:56:00Z,25.12,51.32,27.6,7.4,100,8,,5.59,29.878937,1012.0,,,TRUE,TRUE,,,,,HZ,CLR,,,,,,,,VFR,0.0,,,,,,,,,,,METAR,40.0
KVOK 211456Z 36004KT 10SM FEW250 M01/M09 A3014 RMK AO2A SLP222 51012,KVOK,2018-03-21T14:56:00Z,43.92,-90.27,-1.0,-9.0,360,4,,10.0,30.138779,1022.2,,,TRUE,,,,,,,FEW,25000,,,,,,,VFR,1.2,,,,,,,,,,,METAR,277.0
KOFF 211456Z AUTO 24003KT 9SM BKN010 02/M01 A3020 RMK AO2 SLP240 T00221011 52022 $,KOFF,2018-03-21T14:56:00Z,41.12,-95.92,2.2,-1.1,240,3,,9.0,30.200787,1024.0,,TRUE,TRUE,TRUE,,,,,,BKN,1000,,,,,,,MVFR,2.2,,,,,,,,,,,METAR,319.0
KGUS 211456Z AUTO 35013KT 10SM OVC095 00/M06 A2994 RMK AO2 SLP149 T10031063 52022 RVRNO $,KGUS,2018-03-21T14:56:00Z,40.63,-86.15,-0.3,-6.3,350,13,,10.0,29.940945,1014.9,,TRUE,TRUE,TRUE,,,,,,OVC,9500,,,,,,,VFR,2.2,,,,,,,,,,,METAR,247.0
KLNR 211456Z AUTO VRB04KT 10SM CLR M01/M08 A3015 RMK AO2 SLP215 T10061083 51016,KLNR,2018-03-21T14:56:00Z,43.22,-90.18,-0.6,-8.3,0,4,,10.0,30.15059,1021.5,,TRUE,TRUE,,,,,,,CLR,,,,,,,,VFR,1.6,,,,,,,,,,,METAR,217.0
KLWS 211456Z 07008KT 10SM BKN060 OVC070 06/01 A2981 RMK AO2 SLP100 T00610006 55003,KLWS,2018-03-21T14:56:00Z,46.37,-117.02,6.1,0.6,70,8,,10.0,29.811024,1010.0,,,TRUE,,,,,,,BKN,6000,OVC,7000,,,,,VFR,-0.3,,,,,,,,,,,METAR,438.0
KMDT 211456Z 31003KT 1/4SM R13/2000V2400FT SN FZFG VV006 M01/M02 A2969 RMK AO2 TWR VIS 1/4 SLP058 SNINCR 1/7 P0013 60031 T10111022 53007,KMDT,2018-03-21T14:56:00Z,40.2,-76.77,-1.1,-2.2,310,3,,0.25,29.68996,1005.8,,,TRUE,,,,,,SN FZFG,OVX,0,,,,,,,LIFR,0.7,,,,,0.13,0.31,,,7.0,600,METAR,95.0
KHOP 211456Z AUTO 31017G23KT 10SM CLR 04/M02 A2999 RMK AO2 PK WND 31028/14 SLP161 T00381022 52026,KHOP,2018-03-21T14:56:00Z,36.67,-87.5,3.8,-2.2,310,17,23,10.0,29.991142,1016.1,,TRUE,TRUE,,,,,,,CLR,,,,,,,,VFR,2.6,,,,,,,,,,,METAR,174.0
KDAA 211456Z AUTO 32005KT 1 3/8SM -SN BR OVC009 00/M01 A2966 RMK AO2 CIG 007V009 SLP048 P0000 60000 T00011012 51008 $,KDAA,2018-03-21T14:56:00Z,38.72,-77.17,0.1,-1.2,320,5,,1.38,29.660433,1004.8,,TRUE,TRUE,TRUE,,,,,-SN BR,OVC,900,,,,,,,IFR,0.8,,,,,0.005,0.005,,,,,METAR,21.0
KFCI 211456Z AUTO 33008KT 3SM -SN BR OVC007 01/M01 A2963 RMK AO2 CIG 005V012 SLP052 P0003 60008 T00061006 52002 FZRANO $,KFCI,2018-03-21T14:56:00Z,37.4,-77.52,0.6,-0.6,330,8,,3.0,29.630905,1005.2,,TRUE,TRUE,TRUE,,,TRUE,,-SN BR,OVC,700,,,,,,,IFR,0.2,,,,,0.03,0.08,,,,,METAR,72.0
KEGE 211456Z 00000KT 10SM OVC075 00/M07 A3013 RMK AO2 SLP220 T00001067 53005,KEGE,2018-03-21T14:56:00Z,39.63,-106.92,0.0,-6.7,0,0,,10.0,30.129921,1022.0,,,TRUE,,,,,,,OVC,7500,,,,,,,VFR,0.5,,,,,,,,,,,METAR,1993.0
KMOB 211456Z 29009G15KT 260V330 10SM FEW250 13/04 A3012 RMK AO2 SLP198 T01280044 51025 $,KMOB,2018-03-21T14:56:00Z,30.68,-88.25,12.8,4.4,290,9,15,10.0,30.121063,1019.8,,,TRUE,TRUE,,,,,,FEW,25000,,,,,,,VFR,2.5,,,,,,,,,,,METAR,63.0
KNUQ 211456Z 14009KT 10SM CLR 15/12 A2981 RMK AO2 SLP096 T01500122 53001,KNUQ,2018-03-21T14:56:00Z,37.4,-122.05,15.0,12.2,140,9,,10.0,29.811024,1009.6,,,TRUE,,,,,,,CLR,,,,,,,,VFR,0.1,,,,,,,,,,,METAR,12.0
KOFK 211456Z AUTO 19008KT 10SM CLR 01/M01 A3012 RMK AO2 SLP217 T00111011 51007,KOFK,2018-03-21T14:56:00Z,41.98,-97.43,1.1,-1.1,190,8,,10.0,30.121063,1021.7,,TRUE,TRUE,,,,,,,CLR,,,,,,,,VFR,0.7,,,,,,,,,,,METAR,470.0
KELZ 211456Z AUTO 04010KT 10SM BKN100 M04/M11 A2972 RMK AO2 SLP094 T10391106 53001 $,KELZ,2018-03-21T14:56:00Z,42.1,-77.98,-3.9,-10.6,40,10,,10.0,29.719488,1009.4,,TRUE,TRUE,TRUE,,,,,,BKN,10000,,,,,,,VFR,0.1,,,,,,,,,,,METAR,646.0
KEKO 211456Z AUTO 07004KT 10SM FEW048 OVC060 07/02 A2991 RMK AO2 SLP113 T00720022 53001,KEKO,2018-03-21T14:56:00Z,40.82,-115.78,7.2,2.2,70,4,,10.0,29.911417,1011.3,,TRUE,TRUE,,,,,,,FEW,4800,OVC,6000,,,,,VFR,0.1,,,,,,,,,,,METAR,1547.0
KEED 211456Z AUTO 15003KT 10SM CLR 17/M07 A2997 RMK AO2 SLP128 T01721067 53015,KEED,2018-03-21T14:56:00Z,34.77,-114.62,17.2,-6.7,150,3,,10.0,29.970472,1012.8,,TRUE,TRUE,,,,,,,CLR,,,,,,,,VFR,1.5,,,,,,,,,,,METAR,302.0
KDUJ 211456Z AUTO 03008KT 1 1/2SM -SN FEW011 BKN028 OVC036 M03/M06 A2966 RMK AO2 P0000 T10281061 TSNO,KDUJ,2018-03-21T14:56:00Z,41.17,-78.9,-2.8,-6.1,30,8,,1.5,29.660433,,,TRUE,TRUE,,,TRUE,,,-SN,FEW,1100,BKN,2800,OVC,3600,,,IFR,,,,,,0.005,,,,,,SPECI,554.0
KDUG 211456Z AUTO 00000KT 10SM CLR 10/M08 A3010 RMK AO2 SLP154 T01001078 53012,KDUG,2018-03-21T14:56:00Z,31.47,-109.58,10.0,-7.8,0,0,,10.0,30.100393,1015.4,,TRUE,TRUE,,,,,,,CLR,,,,,,,,VFR,1.2,,,,,,,,,,,METAR,1265.0
KDIK 211456Z AUTO 00000KT 10SM CLR M02/M03 A2996 RMK AO2 SLP174 I3001 T10171033 53007,KDIK,2018-03-21T14:56:00Z,46.8,-102.8,-1.7,-3.3,0,0,,10.0,29.958662,1017.4,,TRUE,TRUE,,,,,,,CLR,,,,,,,,VFR,0.7,,,,,,,,,,,METAR,788.0
KDAY 211456Z 35015KT 9SM OVC012 M02/M03 A2981 RMK AO2 SNE31 SLP106 P0000 60000 T10171028 53029,KDAY,2018-03-21T14:56:00Z,39.9,-84.22,-1.7,-2.8,350,15,,9.0,29.811024,1010.6,,,TRUE,,,,,,,OVC,1200,,,,,,,MVFR,2.9,,,,,0.005,0.005,,,,,METAR,305.0
KCXY 211456Z 07003KT 1/4SM R08/2000V2600FT SN FG VV004 00/M02 A2970 RMK AO2 SLP063 P0012 60024 T00001017 51008,KCXY,2018-03-21T14:56:00Z,40.22,-76.85,0.0,-1.7,70,3,,0.25,29.698818,1006.3,,,TRUE,,,,,,SN FG,OVX,0,,,,,,,LIFR,0.8,,,,,0.12,0.24,,,,400,METAR,106.0
KCTB 211456Z AUTO 05003KT 10SM CLR M03/M06 A2983 RMK AO2 SLP132 T10281056 51004,KCTB,2018-03-21T14:56:00Z,48.6,-112.37,-2.8,-5.6,50,3,,10.0,29.828741,1013.2,,TRUE,TRUE,,,,,,,CLR,,,,,,,,VFR,0.4,,,,,,,,,,,METAR,1175.0
KCHS 211456Z 29013G28KT 10SM FEW040 SCT250 12/01 A2972 RMK AO2 PK WND 30032/1442 SLP064 T01170011 53018,KCHS,2018-03-21T14:56:00Z,32.9,-80.03,11.7,1.1,290,13,28,10.0,29.719488,1006.4,,,TRUE,,,,,,,FEW,4000,SCT,25000,,,,,VFR,1.8,,,,,,,,,,,METAR,13.0
KFAF 211456Z 33008KT 3SM -RASN BR OVC007 02/01 A2957 RMK AO2A UPB1356E1358SNB1358E08UPB08E09RAB09 SLP017 P0002 60008 T00220009 52004 $,KFAF,2018-03-21T14:56:00Z,37.12,-76.62,2.2,0.9,330,8,,3.0,29.568897,1001.7,,,TRUE,TRUE,,,,,-RA -SN BR,OVC,700,,,,,,,IFR,0.4,,,,,0.02,0.08,,,,,METAR,4.0
KFSD 211456Z 19005KT 10SM BKN011 OVC032 00/M03 A3012 RMK AO2 SLP217 T00001028 50009,KFSD,2018-03-21T14:56:00Z,43.58,-96.75,0.0,-2.8,190,5,,10.0,30.121063,1021.7,,,TRUE,,,,,,,BKN,1100,OVC,3200,,,,,MVFR,0.9,,,,,,,,,,,METAR,436.0
KQN3 211456Z AUTO 27005KT 9999 FEW095 40/15 A2968 RMK AO2 SLP042 WND DATA ESTMD T04020154 57025,KQN3,2018-03-21T14:56:00Z,,,40.2,15.4,270,5,,6.21,29.681103,1004.2,,TRUE,TRUE,,,,,,,FEW,9500,,,,,,,VFR,-2.5,,,,,,,,,,,METAR,
KQKR 211456Z AUTO VRB05KT 9999 CLR 40/10 A2966 RMK AO2 SLPNO WND DATA ESTMD T04020097,KQKR,2018-03-21T14:56:00Z,,,40.2,9.7,0,5,,6.21,29.660433,,,TRUE,TRUE,,,,,,,CLR,,,,,,,,VFR,,,,,,,,,,,,METAR,
KQDG 211456Z AUTO 14010G18KT 9999 BKN140 04/00 A2999 RMK AO2 SLP158 T00421002 400421035 57022 PWINO $,KQDG,2018-03-21T14:56:00Z,,,4.2,-0.2,140,10,18,6.21,29.991142,1015.8,,TRUE,TRUE,TRUE,,,,TRUE,,BKN,14000,,,,,,,VFR,-2.2,,,4.2,-3.5,,,,,,,METAR,
KQD3 211456Z AUTO 08007KT 9999 CLR 29/12 A2994 RMK AO2 SLP104 WND DATA ESTMD T02870116 55001,KQD3,2018-03-21T14:56:00Z,,,28.7,11.6,80,7,,6.21,29.940945,1010.4,,TRUE,TRUE,,,,,,,CLR,,,,,,,,VFR,-0.1,,,,,,,,,,,METAR,
KQBF 211456Z AUTO 00000KT 9999 CLR 37/13 A2976 RMK AO2 SLPNO WND DATA ESTMD T03740133,KQBF,2018-03-21T14:56:00Z,,,37.4,13.3,0,0,,6.21,29.760826,,,TRUE,TRUE,,,,,,,CLR,,,,,,,,VFR,,,,,,,,,,,,METAR,
KWRI 211456Z 04014KT 1 1/2SM -SN BR OVC011 00/M01 A2962 RMK AO2A VIS 1 1/2V2 1/4 FZRAE05RAB05E18SNB18 SLP031 P0001 60002 T00011012 53004 $,KWRI,2018-03-21T14:56:00Z,40.02,-74.58,0.1,-1.2,40,14,,1.5,29.619095,1003.1,,,TRUE,TRUE,,,,,-SN BR,OVC,1100,,,,,,,IFR,0.4,,,,,0.01,0.02,,,,,METAR,41.0
KPSM 211456Z 01007KT 10SM OVC150 M01/M11 A2984 RMK AO2A SLP108 T10081107 50001,KPSM,2018-03-21T14:56:00Z,43.07,-70.82,-0.8,-10.7,10,7,,10.0,29.840551,1010.8,,,TRUE,,,,,,,OVC,15000,,,,,,,VFR,0.1,,,,,,,,,,,METAR,31.0
KLFI 211456Z 31010KT 6SM -RASN BR OVC007 03/03 A2958 RMK AO2A RAE1356RAB1356 SLP024 P0002 60007 T00270026 53003 $,KLFI,2018-03-21T14:56:00Z,37.07,-76.37,2.7,2.6,310,10,,6.0,29.58071,1002.4,,,TRUE,TRUE,,,,,-RA -SN BR,OVC,700,,,,,,,IFR,0.3,,,,,0.02,0.07,,,,,METAR,3.0
KQND 211456Z AUTO 00000KT 9999 CLR 43/M03 A2971 RMK AO2 SLPNO WND DATA ESTMD T04251030 57024,KQND,2018-03-21T14:56:00Z,,,42.5,-3.0,0,0,,6.21,29.71063,,,TRUE,TRUE,,,,,,,CLR,,,,,,,,VFR,-2.4,,,,,,,,,,,METAR,
KRDM 211456Z 13004KT 10SM OVC090 05/01 A2973 RMK AO2 SLP065 T00500011 56005,KRDM,2018-03-21T14:56:00Z,44.25,-121.15,5.0,1.1,130,4,,10.0,29.731298,1006.5,,,TRUE,,,,,,,OVC,9000,,,,,,,VFR,-0.5,,,,,,,,,,,METAR,938.0
KQVF 211456Z AUTO 07008KT 040V150 9999 CLR 28/24 A2988 RMK AO2 SLPNO WND DATA ESTMD T02790242 55001,KQVF,2018-03-21T14:56:00Z,,,27.9,24.2,70,8,,6.21,29.878937,,,TRUE,TRUE,,,,,,,CLR,,,,,,,,VFR,-0.1,,,,,,,,,,,METAR,
KQRH 211456Z AUTO VRB03KT 9999 CLR 28/15 A2991 RMK AO2 SLP115 WND DATA ESTMD T02800151 55002,KQRH,2018-03-21T14:56:00Z,,,28.0,15.1,0,3,,6.21,29.911417,1011.5,,TRUE,TRUE,,,,,,,CLR,,,,,,,,VFR,-0.2,,,,,,,,,,,METAR,
KSLE 211456Z 00000KT 10SM BKN060 OVC080 05/02 A2974 RMK AO2 RAB29E39 SLP071 P0000 60000 T00500022 56007,KSLE,2018-03-21T14:56:00Z,44.9,-123.0,5.0,2.2,0,0,,10.0,29.740158,1007.1,,,TRUE,,,,,,,BKN,6000,OVC,8000,,,,,VFR,-0.7,,,,,0.005,0.005,,,,,METAR,59.0
KSHV 211456Z VRB05KT 10SM FEW280 13/06 A3021 RMK AO2 SLP228 T01330056 52027,KSHV,2018-03-21T14:56:00Z,32.45,-93.83,13.3,5.6,0,5,,10.0,30.209646,1022.8,,,TRUE,,,,,,,FEW,28000,,,,,,,VFR,2.7,,,,,,,,,,,METAR,83.0
KSFO 211456Z 17005KT 10SM FEW012 OVC020 15/12 A2979 RMK AO2 RAB15E24 SLP089 P0000 60001 T01500117 52001 $,KSFO,2018-03-21T14:56:00Z,37.62,-122.37,15.0,11.7,170,5,,10.0,29.790354,1008.9,,,TRUE,TRUE,,,,,,FEW,1200,OVC,2000,,,,,MVFR,0.1,,,,,0.005,0.01,,,,,METAR,3.0
KSDF 211456Z 34016G22KT 3/4SM R35R/3000V6000FT -SN BR BKN009 OVC014 M01/M02 A2990 RMK AO2 PK WND 34026/1431 TWR VIS 1 SLP130 P0003 60017 T10061022 53030,KSDF,2018-03-21T14:56:00Z,38.18,-85.73,-0.6,-2.2,340,16,22,0.75,29.899607,1013.0,,,TRUE,,,,,,-SN BR,BKN,900,OVC,1400,,,,,LIFR,3.0,,,,,0.03,0.17,,,,,METAR,146.0
KSBP 211456Z 11003KT 1 3/4SM +RA BR OVC017 14/13 A2990 RMK AO2 SLP125 P0024 60024 T01390128 55005,KSBP,2018-03-21T14:56:00Z,35.23,-120.63,13.9,12.8,110,3,,1.75,29.899607,1012.5,,,TRUE,,,,,,+RA BR,OVC,1700,,,,,,,IFR,-0.5,,,,,0.24,0.24,,,,,METAR,59.0
KGRD 211456Z AUTO 26013G26KT 10SM FEW043 07/M02 A2977 RMK AO2 PK WND 26028/1427 SLP079 T00721022 51020,KGRD,2018-03-21T14:56:00Z,34.25,-82.15,7.2,-2.2,260,13,26,10.0,29.769686,1007.9,,TRUE,TRUE,,,,,,,FEW,4300,,,,,,,VFR,2.0,,,,,,,,,,,METAR,185.0
KGON 211456Z 03016G23KT 5SM -RA FEW021 SCT043 OVC070 02/M02 A2970 RMK AO2 RAB56SNB16E56 SLP057 P0000 60000 T00221017 51002,KGON,2018-03-21T14:56:00Z,41.33,-72.05,2.2,-1.7,30,16,23,5.0,29.698818,1005.7,,,TRUE,,,,,,-RA,FEW,2100,SCT,4300,OVC,7000,,,MVFR,0.2,,,,,0.005,0.005,,,,,METAR,3.0
KGED 211456Z AUTO 06019G26KT 2 1/2SM -RA BKN008 OVC017 03/ A2957 RMK AO2 P0000 T0033 $,KGED,2018-03-21T14:56:00Z,38.68,-75.37,3.3,,60,19,26,2.5,29.568897,,,TRUE,TRUE,TRUE,,,,,-RA,BKN,800,OVC,1700,,,,,IFR,,,,,,0.005,,,,,,SPECI,19.0
KTPH 211456Z AUTO 12008KT 10SM OVC020 05/00 A2999 RMK AO2 SLP135 T00500000 53007,KTPH,2018-03-21T14:56:00Z,38.05,-117.08,5.0,0.0,120,8,,10.0,29.991142,1013.5,,TRUE,TRUE,,,,,,,OVC,2000,,,,,,,MVFR,0.7,,,,,,,,,,,METAR,1652.0
KHWV 211456Z AUTO 01007G16KT 5SM -RA BR OVC010 01/00 A2967 RMK AO2 RAE14B38SNB14E38 CIG 007V013 SLP049 P0008 60018 I3000 T00060000 58004,KHWV,2018-03-21T14:56:00Z,40.82,-72.87,0.6,0.0,10,7,16,5.0,29.66929,1004.9,,TRUE,TRUE,,,,,,-RA BR,OVC,1000,,,,,,,MVFR,-0.4,,,,,0.08,0.18,,,,,METAR,21.0
KHPN 211456Z 02012G17KT 1SM R16/P6000FT -SN BR OVC021 M01/M04 A2968 RMK AO2 SLP056 P0000 60000 T10061039 58001,KHPN,2018-03-21T14:56:00Z,41.07,-73.7,-0.6,-3.9,20,12,17,1.0,29.681103,1005.6,,,TRUE,,,,,,-SN BR,OVC,2100,,,,,,,IFR,-0.1,,,,,0.005,0.005,,,,,METAR,121.0
KIGX 211456Z AUTO 33005KT 3SM -SN BR BKN009 OVC015 01/M01 A2967 RMK AO2 CIG 007V010 SLP050 P0001 60001 T00111006 53011,KIGX,2018-03-21T14:56:00Z,35.93,-79.07,1.1,-0.6,330,5,,3.0,29.66929,1005.0,,TRUE,TRUE,,,,,,-SN BR,BKN,900,OVC,1500,,,,,IFR,1.1,,,,,0.01,0.01,,,,,METAR,155.0
KHYA 211456Z 03016G27KT 10SM BKN023 OVC055 03/M01 A2970 RMK AO2 PK WND 04027/1455 SLP059 60000 T00331011 53004,KHYA,2018-03-21T14:56:00Z,41.67,-70.27,3.3,-1.1,30,16,27,10.0,29.698818,1005.9,,,TRUE,,,,,,,BKN,2300,OVC,5500,,,,,MVFR,0.4,,,,,,0.005,,,,,METAR,22.0
TJSJ 211456Z 07013KT 10SM FEW042 FEW050 SCT065 29/22 A3005 RMK AO2 SLP176 T02890222 50003,TJSJ,2018-03-21T14:56:00Z,18.43,-66.02,28.9,22.2,70,13,,10.0,30.050198,1017.6,,,TRUE,,,,,,,FEW,4200,FEW,5000,SCT,6500,,,VFR,0.3,,,,,,,,,,,METAR,21.0
KWMC 211456Z AUTO 08003KT 10SM -RA BKN005 OVC032 03/02 A2992 RMK AO2 SLP126 P0006 60012 T00330017 53011,KWMC,2018-03-21T14:56:00Z,40.9,-117.8,3.3,1.7,80,3,,10.0,29.920275,1012.6,,TRUE,TRUE,,,,,,-RA,BKN,500,OVC,3200,,,,,IFR,1.1,,,,,0.06,0.12,,,,,METAR,1310.0
KWJF 211456Z 20008KT 10SM -RA OVC100 11/08 A3001 RMK AO2 SLP165 P0001 60005 T01060078 50012,KWJF,2018-03-21T14:56:00Z,34.72,-118.22,10.6,7.8,200,8,,10.0,30.008858,1016.5,,,TRUE,,,,,,-RA,OVC,10000,,,,,,,VFR,1.2,,,,,0.01,0.05,,,,,METAR,715.0
KVPZ 211456Z AUTO 34014G19KT 10SM CLR 02/M05 A3001 RMK AO2 SLP169 T00221050 51021,KVPZ,2018-03-21T14:56:00Z,41.45,-87.0,2.2,-5.0,340,14,19,10.0,30.008858,1016.9,,TRUE,TRUE,,,,,,,CLR,,,,,,,,VFR,2.1,,,,,,,,,,,METAR,231.0
KUKI 211456Z AUTO 00000KT 9SM BKN004 OVC027 11/09 A2980 RMK AO2 SLP087 T01060094 55004,KUKI,2018-03-21T14:56:00Z,39.12,-123.2,10.6,9.4,0,0,,9.0,29.799213,1008.7,,TRUE,TRUE,,,,,,,BKN,400,OVC,2700,,,,,LIFR,-0.4,,,,,,,,,,,METAR,187.0
KJAX 211456Z 28017G32KT 10SM FEW015 FEW200 15/01 A2990 RMK AO2 PK WND 28036/1442 SLP127 T01500011 51021,KJAX,2018-03-21T14:56:00Z,30.5,-81.68,15.0,1.1,280,17,32,10.0,29.899607,1012.7,,,TRUE,,,,,,,FEW,1500,FEW,20000,,,,,VFR,2.1,,,,,,,,,,,METAR,10.0
KISP 211456Z 03020G27KT 1SM R06/4500VP6000FT -SNPL BR BKN008 OVC012 01/M01 A2966 RMK AO2 PK WND 04028/1428 SLP044 P0005 60011 T00061006 58003 $,KISP,2018-03-21T14:56:00Z,40.8,-73.1,0.6,-0.6,30,20,27,1.0,29.660433,1004.4,,,TRUE,TRUE,,,,,-SN -PL BR,BKN,800,OVC,1200,,,,,IFR,-0.3,,,,,0.05,0.11,,,,,METAR,43.0
KART 211456Z AUTO 04014KT 10SM CLR M03/M10 A2991 RMK AO2 SLP136 T10281100 55001,KART,2018-03-21T14:56:00Z,43.98,-76.03,-2.8,-10.0,40,14,,10.0,29.911417,1013.6,,TRUE,TRUE,,,,,,,CLR,,,,,,,,VFR,-0.1,,,,,,,,,,,METAR,100.0
KAND 211456Z AUTO 28016G23KT 10SM SCT044 SCT055 07/M03 A2976 RMK AO2 PK WND 30031/1423 SLP077 T00721028 53019,KAND,2018-03-21T14:56:00Z,34.5,-82.72,7.2,-2.8,280,16,23,10.0,29.760826,1007.7,,TRUE,TRUE,,,,,,,SCT,4400,SCT,5500,,,,,VFR,1.9,,,,,,,,,,,METAR,239.0
KNQI 211456Z 10012KT 10SM SCT090 SCT250 22/12 A3016 RMK AO2 SLP209 T02170117 51022 ,KNQI,2018-03-21T14:56:00Z,27.5,-97.82,21.7,11.7,100,12,,10.0,30.159449,1020.9,,,TRUE,,,,,,,SCT,9000,SCT,25000,,,,,VFR,2.2,,,,,,,,,,,METAR,15.0
KINW 211456Z AUTO 11006KT 10SM CLR 07/M13 A3008 RMK AO2 SLP158 T00671133 51011,KINW,2018-03-21T14:56:00Z,35.03,-110.72,6.7,-13.3,110,6,,10.0,30.079725,1015.8,,TRUE,TRUE,,,,,,,CLR,,,,,,,,VFR,1.1,,,,,,,,,,,METAR,1490.0
KHFF 211456Z AUTO 33006KT 10SM -RA OVC007 03/02 A2968 RMK AO2 RAE13DZB13E25RAB25 SLP068 60005 T00320024 52021 $,KHFF,2018-03-21T14:56:00Z,35.02,-79.5,3.2,2.4,330,6,,10.0,29.681103,1006.8,,TRUE,TRUE,TRUE,,,,,-RA,OVC,700,,,,,,,IFR,2.1,,,,,,0.05,,,,,METAR,115.0
KXNO 211456Z AUTO 26020G25KT 10SM FEW041 09/M04 A2975 RMK AO2 PK WND 25026/14 RAB1357E00 SLP077 P0000 60000 T00881041 52021 $,KXNO,2018-03-21T14:56:00Z,33.62,-81.07,8.8,-4.1,260,20,25,10.0,29.749016,1007.7,,TRUE,TRUE,TRUE,,,,,,FEW,4100,,,,,,,VFR,2.1,,,,,0.005,0.005,,,,,METAR,98.0
KXMR 211456Z AUTO 30019G24KT 10SM CLR 17/08 A2993 RMK AO2 PK WND 30028/24 SLP138 T01720083 51017 FZRANO $,KXMR,2018-03-21T14:56:00Z,28.47,-80.57,17.2,8.3,300,19,24,10.0,29.929134,1013.8,,TRUE,TRUE,TRUE,,,TRUE,,,CLR,,,,,,,,VFR,1.7,,,,,,,,,,,METAR,3.0
KTIK 211456Z AUTO 10007KT 10SM CLR 11/M01 A3020 RMK AO2 SLP236 T01121009 52023,KTIK,2018-03-21T14:56:00Z,35.42,-97.37,11.2,-0.9,100,7,,10.0,30.200787,1023.6,,TRUE,TRUE,,,,,,,CLR,,,,,,,,VFR,2.3,,,,,,,,,,,METAR,394.0
KTDR 211456Z AUTO 33004KT 10SM FEW036 15/07 A3006 RMK AO2 SLP183 T01480066 52015 $,KTDR,2018-03-21T14:56:00Z,30.05,-85.52,14.8,6.6,330,4,,10.0,30.059055,1018.3,,TRUE,TRUE,TRUE,,,,,,FEW,3600,,,,,,,VFR,1.5,,,,,,,,,,,METAR,5.0
KSKF 211456Z AUTO 12005KT 10SM CLR 16/03 A3017 RMK AO2 SLP214 T01610032 52021 $,KSKF,2018-03-21T14:56:00Z,29.37,-98.57,16.1,3.2,120,5,,10.0,30.171259,1021.4,,TRUE,TRUE,TRUE,,,,,,CLR,,,,,,,,VFR,2.1,,,,,,,,,,,METAR,210.0
KPOB 211456Z AUTO 33008KT 10SM -RA BKN007 OVC013 03/02 A2967 RMK AO2 DZE29DZB36E52RAB52 SLP051 P0000 60006 T00310015 52018 $,KPOB,2018-03-21T14:56:00Z,35.17,-79.02,3.1,1.5,330,8,,10.0,29.66929,1005.1,,TRUE,TRUE,TRUE,,,,,-RA,BKN,700,OVC,1300,,,,,IFR,1.8,,,,,0.005,0.06,,,,,METAR,66.0
KFSI 211456Z AUTO 10007KT 10SM CLR 13/03 A3018 RMK AO2 SLP219 T01270028 52015,KFSI,2018-03-21T14:56:00Z,34.65,-98.4,12.7,2.8,100,7,,10.0,30.180119,1021.9,,TRUE,TRUE,,,,,,,CLR,,,,,,,,VFR,1.5,,,,,,,,,,,METAR,362.0
KFRI 211456Z AUTO 00000KT 10SM CLR 01/M01 A3022 RMK AO2 SLP241 T00121010 52021,KFRI,2018-03-21T14:56:00Z,39.03,-96.77,1.2,-1.0,0,0,,10.0,30.221457,1024.1,,TRUE,TRUE,,,,,,,CLR,,,,,,,,VFR,2.1,,,,,,,,,,,METAR,325.0
KFBG 211456Z AUTO 35006KT 10SM -UP OVC008 03/02 A2966 RMK AO2 RAE06UPB55 CIG 006V008 SLP048 P0000 60005 T00330024 52018,KFBG,2018-03-21T14:56:00Z,35.12,-78.92,3.3,2.4,350,6,,10.0,29.660433,1004.8,,TRUE,TRUE,,,,,,UP,OVC,800,,,,,,,IFR,1.8,,,,,0.005,0.05,,,,,METAR,74.0
KDYS 211456Z AUTO 14016G25KT 10SM CLR 15/01 A3013 RMK AO2 PK WND 13026/46 SLP191 T01490007 52016 $,KDYS,2018-03-21T14:56:00Z,32.42,-99.83,14.9,0.7,140,16,25,10.0,30.129921,1019.1,,TRUE,TRUE,TRUE,,,,,,CLR,,,,,,,,VFR,1.6,,,,,,,,,,,METAR,545.0
K2DP 211456Z AUTO 30009KT 10SM -RA OVC007 05/04 A2958 RMK AO2 SHRAB52E54RAB54 SLPNO T00470037 52012 $,K2DP,2018-03-21T14:56:00Z,35.68,-75.9,4.7,3.7,300,9,,10.0,29.58071,,,TRUE,TRUE,TRUE,,,,,-RA,OVC,700,,,,,,,IFR,1.2,,,,,,,,,,,METAR,3.0
KMXF 211456Z AUTO 30011G18KT 10SM CLR 10/00 A3004 RMK AO2 SLP175 T00981001 52021 $,KMXF,2018-03-21T14:56:00Z,32.37,-86.37,9.8,-0.1,300,11,18,10.0,30.041338,1017.5,,TRUE,TRUE,TRUE,,,,,,CLR,,,,,,,,VFR,2.1,,,,,,,,,,,METAR,51.0
KVAD 211456Z AUTO 30015G24KT 10SM CLR 13/00 A2995 RMK AO2 PK WND 31026/39 SLP144 T01291004 52019 $,KVAD,2018-03-21T14:56:00Z,30.97,-83.2,12.9,-0.4,300,15,24,10.0,29.949802,1014.4,,TRUE,TRUE,TRUE,,,,,,CLR,,,,,,,,VFR,1.9,,,,,,,,,,,METAR,71.0
KSSC 211456Z AUTO 26015G22KT 10SM BKN041 09/M02 A2969 RMK AO2 PK WND 26029/08 SLP056 T00921018 52026 $,KSSC,2018-03-21T14:56:00Z,33.97,-80.47,9.2,-1.8,260,15,22,10.0,29.68996,1005.6,,TRUE,TRUE,TRUE,,,,,,BKN,4100,,,,,,,VFR,2.6,,,,,,,,,,,METAR,74.0
KTRK 211455Z 00000KT 7SM RA OVC025 03/02 A2988,KTRK,2018-03-21T14:55:00Z,39.32,-120.12,3.0,2.0,0,0,,7.0,29.878937,,,,,,,,,,RA,OVC,2500,,,,,,,MVFR,,,,,,,,,,,,METAR,1798.0
KVNC 211455Z AUTO 32016G25KT 10SM FEW034 FEW041 20/11 A3003 RMK AO2,KVNC,2018-03-21T14:55:00Z,27.07,-82.43,20.0,11.0,320,16,25,10.0,30.029528,,,TRUE,TRUE,,,,,,,FEW,3400,FEW,4100,,,,,VFR,,,,,,,,,,,,METAR,6.0
KCCA 211455Z AUTO 36008G17KT 10SM SCT034 08/00 A3017 RMK AO2,KCCA,2018-03-21T14:55:00Z,35.6,-92.45,8.0,0.0,360,8,17,10.0,30.171259,,,TRUE,TRUE,,,,,,,SCT,3400,,,,,,,VFR,,,,,,,,,,,,SPECI,157.0
KMHL 211455Z AUTO 00000KT 10SM SCT014 OVC042 04/01 A3019 RMK AO2,KMHL,2018-03-21T14:55:00Z,39.1,-93.2,4.0,1.0,0,0,,10.0,30.188976,,,TRUE,TRUE,,,,,,,SCT,1400,OVC,4200,,,,,VFR,,,,,,,,,,,,SPECI,237.0
KSPF 211455Z AUTO 00000KT 10SM 02/M07 A2999 RMK AO2,KSPF,2018-03-21T14:55:00Z,44.47,-103.77,2.0,-7.0,0,0,,10.0,29.991142,,,TRUE,TRUE,,,,,,,,,,,,,,,,,,,,,,,,,,,SPECI,1188.0
KSDC 211455Z AUTO 05008KT 010V070 10SM CLR M01/M06 A2989 RMK AO2,KSDC,2018-03-21T14:55:00Z,43.23,-77.12,-1.0,-6.0,50,8,,10.0,29.890747,,,TRUE,TRUE,,,,,,,CLR,,,,,,,,VFR,,,,,,,,,,,,SPECI,129.0
OAHR 211455Z VRB02KT CAVOK 18/10 Q1017 RMK A3005 BLU,OAHR,2018-03-21T14:55:00Z,34.22,62.22,18.0,10.0,0,2,,6.21,30.029528,,,,,,,,,,,CAVOK,,,,,,,,VFR,,,,,,,,,,,,METAR,964.0
K1S5 211455Z AUTO 00000KT 10SM OVC090 03/00 A2978 RMK AO2 T00300000,K1S5,2018-03-21T14:55:00Z,46.33,-119.97,3.0,0.0,0,0,,10.0,29.778543,,,TRUE,TRUE,,,,,,,OVC,9000,,,,,,,VFR,,,,,,,,,,,,SPECI,234.0
KRCM 211455Z AUTO 31008KT 10SM OVC037 03/00 A3020 RMK AO2,KRCM,2018-03-21T14:55:00Z,38.78,-93.8,3.0,0.0,310,8,,10.0,30.200787,,,TRUE,TRUE,,,,,,,OVC,3700,,,,,,,VFR,,,,,,,,,,,,SPECI,244.0
KBWW 211455Z AUTO 27009KT 10SM CLR M03/M07 A2987 RMK AO2,KBWW,2018-03-21T14:55:00Z,46.17,-103.3,-3.0,-7.0,270,9,,10.0,29.870079,,,TRUE,TRUE,,,,,,,CLR,,,,,,,,VFR,,,,,,,,,,,,METAR,910.0
K20U 211455Z AUTO 23003KT 10SM CLR M00/M03 A2999 RMK AO2,K20U,2018-03-21T14:55:00Z,46.93,-103.98,0.0,-3.0,230,3,,10.0,29.991142,,,TRUE,TRUE,,,,,,,CLR,,,,,,,,VFR,,,,,,,,,,,,METAR,840.0
KRUG 211455Z AUTO 00000KT 2 1/2SM BR OVC050 M03/M03 A3000 RMK AO2,KRUG,2018-03-21T14:55:00Z,48.38,-100.02,-3.0,-3.0,0,0,,2.5,30.0,,,TRUE,TRUE,,,,,,BR,OVC,5000,,,,,,,IFR,,,,,,,,,,,,METAR,472.0
K1P1 211455Z AUTO 00000KT 10SM CLR M02/M11 A2986 RMK AO2 T10201110,K1P1,2018-03-21T14:55:00Z,43.78,-71.75,-2.0,-11.0,0,0,,10.0,29.861221,,,TRUE,TRUE,,,,,,,CLR,,,,,,,,VFR,,,,,,,,,,,,METAR,154.0
KS32 211455Z AUTO 18007KT 8SM BKN013 BKN060 M02/M02 A3002 RMK AO2,KS32,2018-03-21T14:55:00Z,47.42,-98.1,-2.0,-2.0,180,7,,8.0,30.02067,,,TRUE,TRUE,,,,,,,BKN,1300,BKN,6000,,,,,MVFR,,,,,,,,,,,,METAR,684.0
KRAW 211455Z AUTO 32004KT 10SM BKN013 BKN019 OVC033 A3018 RMK AO2,KRAW,2018-03-21T14:55:00Z,38.35,-93.35,,,320,4,,10.0,30.180119,,,TRUE,TRUE,,,,,,,BKN,1300,BKN,1900,OVC,3300,,,MVFR,,,,,,,,,,,,METAR,285.0
KLQK 211455Z AUTO 31015G28KT 10SM OVC050 07/M04 A2973 RMK AO2 T00651039,KLQK,2018-03-21T14:55:00Z,34.82,-82.7,6.5,-3.9,310,15,28,10.0,29.731298,,,TRUE,TRUE,,,,,,,OVC,5000,,,,,,,VFR,,,,,,,,,,,,METAR,309.0
KDCM 211455Z AUTO 27010G16KT 250V310 10SM SCT034 SCT041 BKN050 07/M01 A2971 RMK AO2,KDCM,2018-03-21T14:55:00Z,34.78,-81.2,7.0,-1.0,270,10,16,10.0,29.71063,,,TRUE,TRUE,,,,,,,SCT,3400,SCT,4100,BKN,5000,,,VFR,,,,,,,,,,,,METAR,200.0
KSPA 211455Z AUTO 30008KT 10SM SCT060 07/M02 A2971 RMK AO2,KSPA,2018-03-21T14:55:00Z,34.92,-81.93,7.0,-2.0,300,8,,10.0,29.71063,,,TRUE,TRUE,,,,,,,SCT,6000,,,,,,,VFR,,,,,,,,,,,,METAR,303.0
KZPH 211455Z AUTO 30015G19KT 10SM SCT037 17/08 A3001 RMK AO2 T01740077,KZPH,2018-03-21T14:55:00Z,28.23,-82.15,17.4,7.7,300,15,19,10.0,30.008858,,,TRUE,TRUE,,,,,,,SCT,3700,,,,,,,VFR,,,,,,,,,,,,METAR,26.0
K42J 211455Z AUTO 31018G30KT 10SM CLR 14/00 A2996 RMK AO1 TSNO,K42J,2018-03-21T14:55:00Z,29.85,-82.05,14.0,0.0,310,18,30,10.0,29.958662,,,TRUE,TRUE,,,TRUE,,,,CLR,,,,,,,,VFR,,,,,,,,,,,,METAR,60.0
K2J9 211455Z AUTO 30017G24KT 10SM CLR 13/00 A3004 RMK AO2,K2J9,2018-03-21T14:55:00Z,30.6,-84.55,13.0,0.0,300,17,24,10.0,30.041338,,,TRUE,TRUE,,,,,,,CLR,,,,,,,,VFR,,,,,,,,,,,,METAR,69.0
K2C8 211455Z AUTO 13007KT M01/ A3006 RMK AO2 TSNO,K2C8,2018-03-21T14:55:00Z,48.78,-97.63,-1.0,,130,7,,,30.059055,,,TRUE,TRUE,,,TRUE,,,,,,,,,,,,,,,,,,,,,,,,METAR,272.0
K96D 211455Z AUTO 13004KT 4SM BR CLR M01/M01 A3006 RMK AO2,K96D,2018-03-21T14:55:00Z,48.93,-97.9,-1.0,-1.0,130,4,,4.0,30.059055,,,TRUE,TRUE,,,,,,BR,CLR,,,,,,,,MVFR,,,,,,,,,,,,METAR,290.0
KCKI 211455Z AUTO 28020G27KT 10SM SCT041 SCT055 08/M01 A2970 RMK AO2,KCKI,2018-03-21T14:55:00Z,33.72,-79.85,8.0,-1.0,280,20,27,10.0,29.698818,,,TRUE,TRUE,,,,,,,SCT,4100,SCT,5500,,,,,VFR,,,,,,,,,,,,METAR,21.0
KDEH 211455Z AUTO 00000KT 10SM CLR M01/M09 A3013 RMK AO2,KDEH,2018-03-21T14:55:00Z,43.27,-91.72,-1.0,-9.0,0,0,,10.0,30.129921,,,TRUE,TRUE,,,,,,,CLR,,,,,,,,VFR,,,,,,,,,,,,METAR,353.0
KGPH 211455Z AUTO 33008KT 10SM OVC040 03/00 A3021 RMK AO2,KGPH,2018-03-21T14:55:00Z,39.33,-94.32,3.0,0.0,330,8,,10.0,30.209646,,,TRUE,TRUE,,,,,,,OVC,4000,,,,,,,VFR,,,,,,,,,,,,METAR,235.0
KLRY 211455Z AUTO 10SM CLR 03/00 A3023 RMK AO2,KLRY,2018-03-21T14:55:00Z,38.62,-94.35,3.0,0.0,,,,10.0,30.230314,,,TRUE,TRUE,,,,,,,CLR,,,,,,,,VFR,,,,,,,,,,,,METAR,279.0
KHZE 211455Z AUTO 24005KT 4SM BR OVC070 M03/M03 A3003 RMK AO2,KHZE,2018-03-21T14:55:00Z,47.28,-101.58,-3.0,-3.0,240,5,,4.0,30.029528,,,TRUE,TRUE,,,,,,BR,OVC,7000,,,,,,,MVFR,,,,,,,,,,,,METAR,553.0
KLUX 211455Z AUTO 29010G22KT 10SM SCT045 07/M02 A2973 RMK AO2,KLUX,2018-03-21T14:55:00Z,34.5,-81.95,7.0,-2.0,290,10,22,10.0,29.731298,,,TRUE,TRUE,,,,,,,SCT,4500,,,,,,,VFR,,,,,,,,,,,,METAR,213.0
KRID 211455Z AUTO 36018G22KT 7SM OVC012 M02/M03 A2983 RMK AO2,KRID,2018-03-21T14:55:00Z,39.75,-84.85,-2.0,-3.0,360,18,22,7.0,29.828741,,,TRUE,TRUE,,,,,,,OVC,1200,,,,,,,MVFR,,,,,,,,,,,,METAR,348.0
KSTF 211455Z AUTO 30003KT 10SM CLR 09/03 A3011 RMK AO2,KSTF,2018-03-21T14:55:00Z,33.43,-88.85,9.0,3.0,300,3,,10.0,30.109253,,,TRUE,TRUE,,,,,,,CLR,,,,,,,,VFR,,,,,,,,,,,,METAR,102.0
KVDF 211455Z AUTO 31012G21KT 10SM BKN036 17/08 A3003 RMK AO2,KVDF,2018-03-21T14:55:00Z,28.02,-82.33,17.0,8.0,310,12,21,10.0,30.029528,,,TRUE,TRUE,,,,,,,BKN,3600,,,,,,,VFR,,,,,,,,,,,,METAR,7.0
KRBW 211455Z AUTO 29019G25KT 10SM SCT040 10/00 A2977 RMK AO2,KRBW,2018-03-21T14:55:00Z,32.92,-80.63,10.0,0.0,290,19,25,10.0,29.769686,,,TRUE,TRUE,,,,,,,SCT,4000,,,,,,,VFR,,,,,,,,,,,,METAR,31.0
KPQN 211455Z AUTO 22006KT 10SM OVC011 M01/M03 A3010 RMK AO2,KPQN,2018-03-21T14:55:00Z,43.97,-96.32,-1.0,-3.0,220,6,,10.0,30.100393,,,TRUE,TRUE,,,,,,,OVC,1100,,,,,,,MVFR,,,,,,,,,,,,METAR,529.0
KOZW 211455Z AUTO 02007KT 10SM OVC110 00/M08 A2995 RMK AO2 T10011078,KOZW,2018-03-21T14:55:00Z,42.62,-83.97,-0.1,-7.8,20,7,,10.0,29.949802,,,TRUE,TRUE,,,,,,,OVC,11000,,,,,,,VFR,,,,,,,,,,,,METAR,293.0
KJKJ 211455Z AUTO 15007KT 7SM SCT008 BKN019 OVC044 00/M02 A3009 RMK AO2,KJKJ,2018-03-21T14:55:00Z,46.83,-96.67,0.0,-2.0,150,7,,7.0,30.088583,,,TRUE,TRUE,,,,,,,SCT,800,BKN,1900,OVC,4400,,,MVFR,,,,,,,,,,,,METAR,280.0
KISQ 211455Z AUTO 01005KT 10SM CLR M05/M16 A3015 RMK AO2 T10501165,KISQ,2018-03-21T14:55:00Z,45.97,-86.17,-5.0,-16.5,10,5,,10.0,30.15059,,,TRUE,TRUE,,,,,,,CLR,,,,,,,,VFR,,,,,,,,,,,,METAR,209.0
KHCO 211455Z AUTO 14010KT 10SM BKN021 BKN034 BKN050 M01/M02 A3008 RMK AO2,KHCO,2018-03-21T14:55:00Z,48.75,-96.93,-1.0,-2.0,140,10,,10.0,30.079725,,,TRUE,TRUE,,,,,,,BKN,2100,BKN,3400,BKN,5000,,,MVFR,,,,,,,,,,,,METAR,250.0
KHCD 211455Z AUTO 11004KT 10SM OVC018 M02/M04 A3017 RMK AO2 T10161037,KHCD,2018-03-21T14:55:00Z,44.87,-94.38,-1.6,-3.7,110,4,,10.0,30.171259,,,TRUE,TRUE,,,,,,,OVC,1800,,,,,,,MVFR,,,,,,,,,,,,METAR,323.0
KHAF 211455Z AUTO 16014G20KT 7SM OVC014 13/12 A2977 RMK AO2,KHAF,2018-03-21T14:55:00Z,37.52,-122.5,13.0,12.0,160,14,20,7.0,29.769686,,,TRUE,TRUE,,,,,,,OVC,1400,,,,,,,MVFR,,,,,,,,,,,,METAR,21.0
KGYL 211455Z AUTO 00000KT 5SM -SN OVC028 M01/M03 A3016 RMK AO2 T10151033,KGYL,2018-03-21T14:55:00Z,44.77,-94.08,-1.5,-3.3,0,0,,5.0,30.159449,,,TRUE,TRUE,,,,,,-SN,OVC,2800,,,,,,,MVFR,,,,,,,,,,,,METAR,302.0
KGPI 211455Z 00000KT 10SM FEW065 BKN080 M03/M04 A2987 RMK AO2 SLP140 T10281039 51002,KGPI,2018-03-21T14:55:00Z,48.32,-114.25,-2.8,-3.9,0,0,,10.0,29.870079,1014.0,,,TRUE,,,,,,,FEW,6500,BKN,8000,,,,,VFR,0.2,,,,,,,,,,,METAR,908.0
KGHW 211455Z AUTO 13006KT 1 1/2SM BR OVC002 M02/M02 A3013 RMK AO2,KGHW,2018-03-21T14:55:00Z,45.63,-95.32,-2.0,-2.0,130,6,,1.5,30.129921,,,TRUE,TRUE,,,,,,BR,OVC,200,,,,,,,LIFR,,,,,,,,,,,,METAR,425.0
KPZQ 211455Z AUTO 05010KT 7SM CLR M04/M13 A3014 RMK AO2 T10441128,KPZQ,2018-03-21T14:55:00Z,45.4,-83.82,-4.4,-12.8,50,10,,7.0,30.138779,,,TRUE,TRUE,,,,,,,CLR,,,,,,,,VFR,,,,,,,,,,,,METAR,204.0
KRGK 211455Z AUTO 00000KT 10SM OVC060 M03/M07 A3016 RMK AO2,KRGK,2018-03-21T14:55:00Z,44.58,-92.48,-3.0,-7.0,0,0,,10.0,30.159449,,,TRUE,TRUE,,,,,,,OVC,6000,,,,,,,VFR,,,,,,,,,,,,METAR,239.0
KRNP 211455Z AUTO 04011G16KT 10SM CLR 00/M08 A2999 RMK AO2 T10011082,KRNP,2018-03-21T14:55:00Z,43.0,-84.13,-0.1,-8.2,40,11,16,10.0,29.991142,,,TRUE,TRUE,,,,,,,CLR,,,,,,,,VFR,,,,,,,,,,,,METAR,224.0
KSAZ 211455Z AUTO 15005KT 10SM OVC010 M04/M07 A3013 RMK AO2,KSAZ,2018-03-21T14:55:00Z,46.37,-94.8,-4.0,-7.0,150,5,,10.0,30.129921,,,TRUE,TRUE,,,,,,,OVC,1000,,,,,,,MVFR,,,,,,,,,,,,METAR,392.0
KCAD 211455Z AUTO 02008KT 10SM CLR M03/M10 A3003 RMK AO2 T10401106,KCAD,2018-03-21T14:55:00Z,44.27,-85.42,-4.0,-10.6,20,8,,10.0,30.029528,,,TRUE,TRUE,,,,,,,CLR,,,,,,,,VFR,,,,,,,,,,,,METAR,398.0
KCDI 211455Z AUTO 03010KT 5SM -SN OVC016 00/M02 A2972 RMK AO2 T00001020,KCDI,2018-03-21T14:55:00Z,39.97,-81.58,0.0,-2.0,30,10,,5.0,29.719488,,,TRUE,TRUE,,,,,,-SN,OVC,1600,,,,,,,MVFR,,,,,,,,,,,,METAR,244.0
KCFS 211455Z AUTO 03009G15KT 010V080 10SM CLR 00/M06 A3000 RMK AO2 T10031056,KCFS,2018-03-21T14:55:00Z,43.47,-83.45,-0.3,-5.6,30,9,15,10.0,30.0,,,TRUE,TRUE,,,,,,,CLR,,,,,,,,VFR,,,,,,,,,,,,METAR,214.0
KCOQ 211455Z AUTO 06005KT 10SM SCT014 BKN110 M05/M09 A3015 RMK AO2,KCOQ,2018-03-21T14:55:00Z,46.7,-92.5,-5.0,-9.0,60,5,,10.0,30.15059,,,TRUE,TRUE,,,,,,,SCT,1400,BKN,11000,,,,,VFR,,,,,,,,,,,,METAR,390.0
KCVX 211455Z AUTO 07008KT 10SM CLR M03/M13 A3015 RMK AO2 T10341129,KCVX,2018-03-21T14:55:00Z,45.3,-85.27,-3.4,-12.9,70,8,,10.0,30.15059,,,TRUE,TRUE,,,,,,,CLR,,,,,,,,VFR,,,,,,,,,,,,METAR,204.0
KDLZ 211455Z AUTO 01012KT 10SM OVC015 00/M03 A2978 RMK AO2,KDLZ,2018-03-21T14:55:00Z,40.28,-83.12,0.0,-3.0,10,12,,10.0,29.778543,,,TRUE,TRUE,,,,,,,OVC,1500,,,,,,,MVFR,,,,,,,,,,,,METAR,289.0
KDRM 211455Z AUTO 35004KT 10SM CLR M07/M18 A3014 RMK AO2 T10701185,KDRM,2018-03-21T14:55:00Z,46.0,-83.75,-7.0,-18.5,350,4,,10.0,30.138779,,,TRUE,TRUE,,,,,,,CLR,,,,,,,,VFR,,,,,,,,,,,,METAR,204.0
KDUH 211455Z AUTO 02010G17KT 10SM BKN095 OVC120 01/M09 A2990 RMK AO2 T00051093,KDUH,2018-03-21T14:55:00Z,41.73,-83.65,0.5,-9.3,20,10,17,10.0,29.899607,,,TRUE,TRUE,,,,,,,BKN,9500,OVC,12000,,,,,VFR,,,,,,,,,,,,METAR,204.0
KDXX 211455Z AUTO 17005KT 10SM OVC020 02/M01 A3012 RMK AO2,KDXX,2018-03-21T14:55:00Z,44.98,-96.18,2.0,-1.0,170,5,,10.0,30.121063,,,TRUE,TRUE,,,,,,,OVC,2000,,,,,,,MVFR,,,,,,,,,,,,METAR,330.0
KDYT 211455Z AUTO 00000KT 10SM BKN110 M04/M08 A3021 RMK AO2,KDYT,2018-03-21T14:55:00Z,46.72,-92.03,-4.0,-8.0,0,0,,10.0,30.209646,,,TRUE,TRUE,,,,,,,BKN,11000,,,,,,,VFR,,,,,,,,,,,,METAR,186.0
KERY 211455Z AUTO 06006KT 10SM CLR M06/M19 A3016 RMK AO2 T10651187,KERY,2018-03-21T14:55:00Z,46.3,-85.45,-6.5,-18.7,60,6,,10.0,30.159449,,,TRUE,TRUE,,,,,,,CLR,,,,,,,,VFR,,,,,,,,,,,,METAR,265.0
KNFG 211455Z 00000KT 7SM SCT100 BKN150 10/08 A3000 RMK AO2 SLP158 T01000078 51014,KNFG,2018-03-21T14:55:00Z,33.28,-117.33,10.0,7.8,0,0,,7.0,30.0,1015.8,,,TRUE,,,,,,,SCT,10000,BKN,15000,,,,,VFR,1.4,,,,,,,,,,,METAR,24.0
EHKD 211455Z AUTO 26011KT 220V290 9999 OVC280 06/02 Q1027 BLU 27010KT 9999 FEW016 SCT250 TEMPO SCT016 SCT250,EHKD,2018-03-21T14:55:00Z,52.92,4.77,6.0,2.0,260,11,,6.21,30.324802,,,TRUE,,,,,,,,OVC,28000,FEW,1600,SCT,25000,,,VFR,,,,,,,,,,,,METAR,14.0
KPEA 211455Z AUTO 33006KT 10SM CLR 01/M03 A3019 RMK AO2 T00101035,KPEA,2018-03-21T14:55:00Z,41.4,-92.95,1.0,-3.5,330,6,,10.0,30.188976,,,TRUE,TRUE,,,,,,,CLR,,,,,,,,VFR,,,,,,,,,,,,METAR,270.0
KGAF 211455Z AUTO 13009KT 2 1/2SM BR BKN006 BKN019 BKN029 M01/M01 A3008 RMK AO2 PWINO,KGAF,2018-03-21T14:55:00Z,48.4,-97.37,-1.0,-1.0,130,9,,2.5,30.079725,,,TRUE,TRUE,,,,,TRUE,BR,BKN,600,BKN,1900,BKN,2900,,,IFR,,,,,,,,,,,,METAR,252.0
KEKX 211455Z AUTO 31009KT 5SM BR OVC010 00/M02 A2990 RMK AO2 T10051018,KEKX,2018-03-21T14:55:00Z,,,-0.5,-1.8,310,9,,5.0,29.899607,,,TRUE,TRUE,,,,,,BR,OVC,1000,,,,,,,MVFR,,,,,,,,,,,,METAR,
K2V5 211455Z AUTO 26005KT 10SM CLR 04/M02 A3007 RMK AO2,K2V5,2018-03-21T14:55:00Z,40.1,-102.25,4.0,-2.0,260,5,,10.0,30.070866,,,TRUE,TRUE,,,,,,,CLR,,,,,,,,VFR,,,,,,,,,,,,METAR,1118.0
KBYS 211455Z AUTO VRB03KT 10SM FEW026 BKN065 13/04 A3003 RMK AO2 SLP163 WND DATA ESTMD T01270042 53017,KBYS,2018-03-21T14:55:00Z,35.28,-116.62,12.7,4.2,0,3,,10.0,30.029528,1016.3,,TRUE,TRUE,,,,,,,FEW,2600,BKN,6500,,,,,VFR,1.7,,,,,,,,,,,METAR,716.0
TXKF 211455Z 20025KT 9999 FEW013 SCT170 BKN300 22/19 Q1012 ,TXKF,2018-03-21T14:55:00Z,32.37,-64.68,22.0,19.0,200,25,,6.21,29.88189,,,,,,,,,,,FEW,1300,SCT,17000,BKN,30000,,,VFR,,,,,,,,,,,,METAR,6.0
KFPK 211455Z AUTO 02011G17KT 10SM CLR 00/M07 A2997 RMK AO2 T00001072,KFPK,2018-03-21T14:55:00Z,42.57,-84.82,0.0,-7.2,20,11,17,10.0,29.970472,,,TRUE,TRUE,,,,,,,CLR,,,,,,,,VFR,,,,,,,,,,,,METAR,272.0
KFGN 211455Z AUTO 15008KT 10SM UP SCT022 OVC036 M04/M06 A3012 RMK AO2,KFGN,2018-03-21T14:55:00Z,49.32,-94.9,-4.0,-6.0,150,8,,10.0,30.121063,,,TRUE,TRUE,,,,,,UP,SCT,2200,OVC,3600,,,,,VFR,,,,,,,,,,,,METAR,328.0
KBBB 211455Z AUTO 18007KT 1 3/4SM BR OVC004 M01/M01 A3014 RMK AO2,KBBB,2018-03-21T14:55:00Z,45.32,-95.65,-1.0,-1.0,180,7,,1.75,30.138779,,,TRUE,TRUE,,,,,,BR,OVC,400,,,,,,,LIFR,,,,,,,,,,,,METAR,317.0
KAEL 211455Z AUTO 00000KT 10SM OVC050 M02/M07 A3015 RMK AO2,KAEL,2018-03-21T14:55:00Z,43.68,-93.37,-2.0,-7.0,0,0,,10.0,30.15059,,,TRUE,TRUE,,,,,,,OVC,5000,,,,,,,VFR,,,,,,,,,,,,METAR,383.0
KADC 211455Z AUTO 14006KT 4SM UP OVC007 M04/M06 A3012 RMK AO2,KADC,2018-03-21T14:55:00Z,46.45,-95.22,-4.0,-6.0,140,6,,4.0,30.121063,,,TRUE,TRUE,,,,,,UP,OVC,700,,,,,,,IFR,,,,,,,,,,,,METAR,418.0
KACQ 211455Z AUTO 00000KT 10SM OVC050 M02/M05 A3017 RMK AO2,KACQ,2018-03-21T14:55:00Z,44.07,-93.55,-2.0,-5.0,0,0,,10.0,30.171259,,,TRUE,TRUE,,,,,,,OVC,5000,,,,,,,VFR,,,,,,,,,,,,METAR,343.0
K33V 211455Z AUTO 21012KT 10SM SCT100 SCT120 01/M10 A3005 RMK AO1,K33V,2018-03-21T14:55:00Z,40.75,-106.28,1.0,-10.0,210,12,,10.0,30.050198,,,TRUE,TRUE,,,,,,,SCT,10000,SCT,12000,,,,,VFR,,,,,,,,,,,,METAR,2484.0
K04W 211455Z AUTO 00000KT 10SM M05/M08 A3017 RMK AO2,K04W,2018-03-21T14:55:00Z,46.02,-92.9,-5.0,-8.0,0,0,,10.0,30.171259,,,TRUE,TRUE,,,,,,,,,,,,,,,,,,,,,,,,,,,METAR,311.0
KY70 211455Z AUTO 03011G16KT 10SM CLR 01/M07 A3000 RMK AO2 T00051066,KY70,2018-03-21T14:55:00Z,42.93,-85.07,0.5,-6.6,30,11,16,10.0,30.0,,,TRUE,TRUE,,,,,,,CLR,,,,,,,,VFR,,,,,,,,,,,,METAR,250.0
KY31 211455Z AUTO 01008G14KT 330V040 10SM CLR M01/M09 A3003 RMK AO2 T10111087,KY31,2018-03-21T14:55:00Z,44.25,-84.18,-1.1,-8.7,10,8,14,10.0,30.029528,,,TRUE,TRUE,,,,,,,CLR,,,,,,,,VFR,,,,,,,,,,,,METAR,269.0
KWYS 211455Z AUTO 00000KT 10SM FEW023 OVC036 M05/M06 A2993 RMK AO2,KWYS,2018-03-21T14:55:00Z,44.67,-111.12,-5.0,-6.0,0,0,,10.0,29.929134,,,TRUE,TRUE,,,,,,,FEW,2300,OVC,3600,,,,,VFR,,,,,,,,,,,,METAR,2025.0
KWWD 211455Z AUTO 05021G29KT 3SM -RA BR OVC007 03/02 A2956 RMK AO2 PK WND 04034/1434 SLP012 P0002 60002 T00280017 58007,KWWD,2018-03-21T14:55:00Z,39.02,-74.92,2.8,1.7,50,21,29,3.0,29.56004,1001.2,,TRUE,TRUE,,,,,,-RA BR,OVC,700,,,,,,,IFR,-0.7,,,,,0.02,0.02,,,,,METAR,7.0
KVVV 211455Z AUTO 22005KT 10SM BKN017 00/M02 A3011 RMK AO2,KVVV,2018-03-21T14:55:00Z,45.3,-96.42,0.0,-2.0,220,5,,10.0,30.109253,,,TRUE,TRUE,,,,,,,BKN,1700,,,,,,,MVFR,,,,,,,,,,,,METAR,335.0
KVLL 211455Z AUTO 02010G17KT 10SM OVC080 01/M10 A2995 RMK AO2 T00081102,KVLL,2018-03-21T14:55:00Z,42.55,-83.18,0.8,-10.2,20,10,17,10.0,29.949802,,,TRUE,TRUE,,,,,,,OVC,8000,,,,,,,VFR,,,,,,,,,,,,METAR,222.0
KULM 211455Z AUTO 15003KT 10SM OVC015 M02/M03 A3016 RMK AO2,KULM,2018-03-21T14:55:00Z,44.32,-94.5,-2.0,-3.0,150,3,,10.0,30.159449,,,TRUE,TRUE,,,,,,,OVC,1500,,,,,,,MVFR,,,,,,,,,,,,METAR,308.0
KUKT 211455Z AUTO 03009G15KT 1/4SM FZFG OVC002 M02/M03 A2965 RMK A01 P0004,KUKT,2018-03-21T14:55:00Z,40.43,-75.38,-2.0,-3.0,30,9,15,0.25,29.648623,,,TRUE,TRUE,,,,,,FZFG,OVC,200,,,,,,,LIFR,,,,,,0.04,,,,,,METAR,160.0
KTWM 211455Z AUTO 10006KT 10SM OVC018 M02/M07 A3015 RMK AO2,KTWM,2018-03-21T14:55:00Z,47.03,-91.75,-2.0,-7.0,100,6,,10.0,30.15059,,,TRUE,TRUE,,,,,,,OVC,1800,,,,,,,MVFR,,,,,,,,,,,,METAR,328.0
KTOB 211455Z AUTO 00000KT 10SM OVC050 M02/M06 A3013 RMK AO2,KTOB,2018-03-21T14:55:00Z,44.02,-92.82,-2.0,-6.0,0,0,,10.0,30.129921,,,TRUE,TRUE,,,,,,,OVC,5000,,,,,,,VFR,,,,,,,,,,,,METAR,398.0
KSYM 211455Z AUTO 31011G16KT 6SM BR OVC008 M01/M02 A2977 RMK AO2,KSYM,2018-03-21T14:55:00Z,38.22,-83.58,-1.0,-2.0,310,11,16,6.0,29.769686,,,TRUE,TRUE,,,,,,BR,OVC,800,,,,,,,IFR,,,,,,,,,,,,METAR,313.0
KSLH 211455Z AUTO 06012KT 10SM CLR M03/M12 A3013 RMK AO2 T10371129,KSLH,2018-03-21T14:55:00Z,45.65,-84.52,-3.7,-12.9,60,12,,10.0,30.129921,,,TRUE,TRUE,,,,,,,CLR,,,,,,,,VFR,,,,,,,,,,,,METAR,195.0
KOEB 211455Z AUTO 03012G18KT 10SM CLR 01/M09 A2995 RMK AO2 T00061088,KOEB,2018-03-21T14:55:00Z,41.92,-85.03,0.6,-8.8,30,12,18,10.0,29.949802,,,TRUE,TRUE,,,,,,,CLR,,,,,,,,VFR,,,,,,,,,,,,METAR,292.0
KMWM 211455Z AUTO 00000KT 10SM OVC016 00/M08 A3013 RMK AO2,KMWM,2018-03-21T14:55:00Z,43.9,-95.1,0.0,-8.0,0,0,,10.0,30.129921,,,TRUE,TRUE,,,,,,,OVC,1600,,,,,,,MVFR,,,,,,,,,,,,METAR,430.0
KMVE 211455Z AUTO 17003KT 10SM OVC022 01/01 A3013 RMK AO2,KMVE,2018-03-21T14:55:00Z,44.97,-95.72,1.0,1.0,170,3,,10.0,30.129921,,,TRUE,TRUE,,,,,,,OVC,2200,,,,,,,MVFR,,,,,,,,,,,,METAR,315.0
KMRT 211455Z AUTO 03014KT 10SM OVC014 00/M03 A2978 RMK AO2 T10051030,KMRT,2018-03-21T14:55:00Z,40.22,-83.35,-0.5,-3.0,30,14,,10.0,29.778543,,,TRUE,TRUE,,,,,,,OVC,1400,,,,,,,MVFR,,,,,,,,,,,,METAR,312.0
KMJQ 211455Z AUTO 20004KT 10SM OVC021 00/M01 A3014 RMK AO2,KMJQ,2018-03-21T14:55:00Z,43.63,-94.97,0.0,-1.0,200,4,,10.0,30.138779,,,TRUE,TRUE,,,,,,,OVC,2100,,,,,,,MVFR,,,,,,,,,,,,METAR,441.0
KATS 211455Z AUTO 35010KT 10SM CLR 09/M10 A3009 RMK AO2,KATS,2018-03-21T14:55:00Z,32.85,-104.47,9.0,-10.0,350,10,,10.0,30.088583,,,TRUE,TRUE,,,,,,,CLR,,,,,,,,VFR,,,,,,,,,,,,METAR,1081.0
KFFL 211455Z AUTO 03009KT 10SM CLR 01/M08 A3015 RMK AO2 PWINO,KFFL,2018-03-21T14:55:00Z,41.03,-91.97,1.0,-8.0,30,9,,10.0,30.15059,,,TRUE,TRUE,,,,,TRUE,,CLR,,,,,,,,VFR,,,,,,,,,,,,METAR,244.0
KIIB 211455Z AUTO 02006KT 10SM CLR 00/M09 A3015 RMK AO2 T00021092,KIIB,2018-03-21T14:55:00Z,42.45,-91.95,0.2,-9.2,20,6,,10.0,30.15059,,,TRUE,TRUE,,,,,,,CLR,,,,,,,,VFR,,,,,,,,,,,,METAR,298.0
KIFA 211455Z AUTO 00000KT 10SM CLR 00/M04 A3017 RMK AO2 T00021039,KIFA,2018-03-21T14:55:00Z,42.47,-93.27,0.2,-3.9,0,0,,10.0,30.171259,,,TRUE,TRUE,,,,,,,CLR,,,,,,,,VFR,,,,,,,,,,,,METAR,347.0
KM25 211455Z AUTO 33013G19KT 10SM BKN032 04/M02 A3006 RMK AO2,KM25,2018-03-21T14:55:00Z,36.77,-88.58,4.0,-2.0,330,13,19,10.0,30.059055,,,TRUE,TRUE,,,,,,,BKN,3200,,,,,,,VFR,,,,,,,,,,,,METAR,160.0
KMAO 211455Z AUTO 28012G21KT 5SM HZ SCT017 SCT023 OVC030 07/02 A2967 RMK AO2,KMAO,2018-03-21T14:55:00Z,34.18,-79.33,7.0,2.0,280,12,21,5.0,29.66929,,,TRUE,TRUE,,,,,,HZ,SCT,1700,SCT,2300,OVC,3000,,,MVFR,,,,,,,,,,,,METAR,28.0
KFGX 211455Z AUTO 31009KT 1 1/2SM -SN OVC009 M01/M02 A2977 RMK AO2 T10151020,KFGX,2018-03-21T14:55:00Z,38.55,-83.75,-1.5,-2.0,310,9,,1.5,29.769686,,,TRUE,TRUE,,,,,,-SN,OVC,900,,,,,,,IFR,,,,,,,,,,,,METAR,278.0
KFMH 211455Z AUTO 03018G31KT 3SM -SN SCT021 SCT025 02/M00 A2973 RMK AO2,KFMH,2018-03-21T14:55:00Z,41.63,-70.52,2.0,0.0,30,18,31,3.0,29.731298,,,TRUE,TRUE,,,,,,-SN,SCT,2100,SCT,2500,,,,,MVFR,,,,,,,,,,,,METAR,40.0
KFWZ 211455Z AUTO 20004KT 10SM BKN041 M05/M07 RMK AO2 TSNO,KFWZ,2018-03-21T14:55:00Z,42.52,-108.78,-5.0,-7.0,200,4,,10.0,,,,TRUE,TRUE,,,TRUE,,,,BKN,4100,,,,,,,VFR,,,,,,,,,,,,METAR,2588.0
KFRH 211455Z AUTO 32005KT 10SM OVC011 00/M01 A2993 RMK AO1,KFRH,2018-03-21T14:55:00Z,38.5,-86.63,0.0,-1.0,320,5,,10.0,29.929134,,,TRUE,TRUE,,,,,,,OVC,1100,,,,,,,MVFR,,,,,,,,,,,,METAR,241.0
KGAO 211455Z AUTO 34008KT 10SM CLR 15/06 A3017 RMK AO2 T01510056,KGAO,2018-03-21T14:55:00Z,29.45,-90.27,15.1,5.6,340,8,,10.0,30.171259,,,TRUE,TRUE,,,,,,,CLR,,,,,,,,VFR,,,,,,,,,,,,METAR,1.0
KGIC 211455Z AUTO 11004KT 10SM SCT039 OVC055 01/00 A2982 RMK AO1,KGIC,2018-03-21T14:55:00Z,45.95,-116.12,1.0,0.0,110,4,,10.0,29.819881,,,TRUE,TRUE,,,,,,,SCT,3900,OVC,5500,,,,,VFR,,,,,,,,,,,,METAR,1009.0
KGLE 211455Z AUTO 07006KT 10SM CLR 12/02 A3023 RMK AO2 T01240021,KGLE,2018-03-21T14:55:00Z,33.65,-97.2,12.4,2.1,70,6,,10.0,30.230314,,,TRUE,TRUE,,,,,,,CLR,,,,,,,,VFR,,,,,,,,,,,,METAR,256.0
KUGN 211455Z 03015G21KT 10SM SCT027 M01/M08 A3007 RMK AO2 SLP196 T10111078 51019,KUGN,2018-03-21T14:55:00Z,42.42,-87.87,-1.1,-7.8,30,15,21,10.0,30.070866,1019.6,,,TRUE,,,,,,,SCT,2700,,,,,,,VFR,1.9,,,,,,,,,,,METAR,222.0
K9MN 211455Z AUTO 00000KT 10SM OVC050 M01/M06 A3014 RMK AO1 T10131058,K9MN,2018-03-21T14:55:00Z,44.02,-92.48,-1.3,-5.8,0,0,,10.0,30.138779,,,TRUE,TRUE,,,,,,,OVC,5000,,,,,,,VFR,,,,,,,,,,,,METAR,355.0
KAIT 211455Z AUTO 10005KT 10SM CLR M06/M09 A3014 RMK AO2,KAIT,2018-03-21T14:55:00Z,46.53,-93.67,-6.0,-9.0,100,5,,10.0,30.138779,,,TRUE,TRUE,,,,,,,CLR,,,,,,,,VFR,,,,,,,,,,,,METAR,367.0
KANJ 211455Z AUTO 05004KT 10SM CLR M05/M18 A3016 RMK AO2 SLP223 T10501178 51005,KANJ,2018-03-21T14:55:00Z,46.47,-84.37,-5.0,-17.8,50,4,,10.0,30.159449,1022.3,,TRUE,TRUE,,,,,,,CLR,,,,,,,,VFR,0.5,,,,,,,,,,,METAR,218.0
KBFW 211455Z AUTO 09006KT 10SM BKN110 M03/M10 A3016 RMK AO2,KBFW,2018-03-21T14:55:00Z,47.25,-91.4,-3.0,-10.0,90,6,,10.0,30.159449,,,TRUE,TRUE,,,,,,,BKN,11000,,,,,,,VFR,,,,,,,,,,,,METAR,331.0
KAXV 211455Z AUTO 36015G20KT 5SM -SN OVC010 M01/M01 A2985 RMK AO2,KAXV,2018-03-21T14:55:00Z,40.5,-84.3,-1.0,-1.0,360,15,20,5.0,29.84941,,,TRUE,TRUE,,,,,,-SN,OVC,1000,,,,,,,MVFR,,,,,,,,,,,,METAR,279.0
KAST 211455Z AUTO 15003KT 1/4SM FG VV002 02/02 A2973 RMK AO2 SLP067 T00170017 56008,KAST,2018-03-21T14:55:00Z,46.15,-123.88,1.7,1.7,150,3,,0.25,29.731298,1006.7,,TRUE,TRUE,,,,,,FG,OVX,0,,,,,,,LIFR,-0.8,,,,,,,,,,200,METAR,3.0
KCAO 211455Z AUTO 00000KT 10SM CLR 06/M07 A3013 RMK AO2 SLP197 T00611067 53013,KCAO,2018-03-21T14:55:00Z,36.45,-103.15,6.1,-6.7,0,0,,10.0,30.129921,1019.7,,TRUE,TRUE,,,,,,,CLR,,,,,,,,VFR,1.3,,,,,,,,,,,METAR,1514.0
KDTL 211455Z AUTO 14008KT 2SM -SN OVC008 M01/M02 A3010 RMK AO2,KDTL,2018-03-21T14:55:00Z,46.82,-95.87,-1.0,-2.0,140,8,,2.0,30.100393,,,TRUE,TRUE,,,,,,-SN,OVC,800,,,,,,,IFR,,,,,,,,,,,,METAR,426.0
KDLH 211455Z 09004KT 10SM SCT016 BKN100 M04/M08 A3014 RMK AO2 SLP234 T10441083 51011,KDLH,2018-03-21T14:55:00Z,46.85,-92.2,-4.4,-8.3,90,4,,10.0,30.138779,1023.4,,,TRUE,,,,,,,SCT,1600,BKN,10000,,,,,VFR,1.1,,,,,,,,,,,METAR,435.0
KCNK 211455Z AUTO 11003KT 10SM CLR 02/00 A3020 RMK AO2 SLP237 I3001 T00170000 51019,KCNK,2018-03-21T14:55:00Z,39.55,-97.65,1.7,0.0,110,3,,10.0,30.200787,1023.7,,TRUE,TRUE,,,,,,,CLR,,,,,,,,VFR,1.9,,,,,,,,,,,METAR,447.0
KCNB 211455Z AUTO 23006KT 10SM SCT017 OVC070 02/M02 A3013 RMK AO2 T00151017,KCNB,2018-03-21T14:55:00Z,44.73,-96.27,1.5,-1.7,230,6,,10.0,30.129921,,,TRUE,TRUE,,,,,,,SCT,1700,OVC,7000,,,,,VFR,,,,,,,,,,,,METAR,364.0
KCMA 211455Z 07005KT 5SM -RA BKN046 BKN060 OVC075 13/11 A3000 RMK AO2 SLP166 P0002 60006 T01330106 50018,KCMA,2018-03-21T14:55:00Z,34.22,-119.1,13.3,10.6,70,5,,5.0,30.0,1016.6,,,TRUE,,,,,,-RA,BKN,4600,BKN,6000,OVC,7500,,,MVFR,1.8,,,,,0.02,0.06,,,,,METAR,23.0
KCFE 211455Z AUTO 00000KT 10SM OVC060 M03/M06 A3018 RMK AO2 T10311061,KCFE,2018-03-21T14:55:00Z,45.17,-93.85,-3.1,-6.1,0,0,,10.0,30.180119,,,TRUE,TRUE,,,,,,,OVC,6000,,,,,,,VFR,,,,,,,,,,,,METAR,295.0
KEAT 211455Z AUTO 30003KT 10SM OVC110 01/M02 A2980 RMK AO2 SLP098 T00111022 55001,KEAT,2018-03-21T14:55:00Z,47.4,-120.2,1.1,-2.2,300,3,,10.0,29.799213,1009.8,,TRUE,TRUE,,,,,,,OVC,11000,,,,,,,VFR,-0.1,,,,,,,,,,,METAR,377.0
KIRS 211455Z AUTO 01011G17KT 10SM SCT120 01/M07 A2995 RMK AO2 T00071075,KIRS,2018-03-21T14:55:00Z,41.8,-85.43,0.7,-7.5,10,11,17,10.0,29.949802,,,TRUE,TRUE,,,,,,,SCT,12000,,,,,,,VFR,,,,,,,,,,,,METAR,282.0
KIRK 211455Z AUTO 35008KT 10SM CLR 03/M03 A3016 RMK AO2 SLP224 T00281028 51021,KIRK,2018-03-21T14:55:00Z,40.1,-92.55,2.8,-2.8,350,8,,10.0,30.159449,1022.4,,TRUE,TRUE,,,,,,,CLR,,,,,,,,VFR,2.1,,,,,,,,,,,METAR,293.0
KINL 211455Z AUTO 14006KT 10SM BKN065 BKN075 M04/M08 A3015 RMK AO2 SLP234 T10441083 51009,KINL,2018-03-21T14:55:00Z,48.57,-93.4,-4.4,-8.3,140,6,,10.0,30.15059,1023.4,,TRUE,TRUE,,,,,,,BKN,6500,BKN,7500,,,,,VFR,0.9,,,,,,,,,,,METAR,360.0
KIMS 211455Z AUTO 32010KT 10SM OVC015 M01/M03 A2989 RMK AO1,KIMS,2018-03-21T14:55:00Z,38.75,-85.47,-1.0,-3.0,320,10,,10.0,29.890747,,,TRUE,TRUE,,,,,,,OVC,1500,,,,,,,MVFR,,,,,,,,,,,,METAR,250.0
KI23 211455Z AUTO 36010G18KT 1 3/4SM OVC007 M01/M01 A2975 RMK AO1 P0001,KI23,2018-03-21T14:55:00Z,39.57,-83.42,-1.0,-1.0,360,10,18,1.75,29.749016,,,TRUE,TRUE,,,,,,,OVC,700,,,,,,,IFR,,,,,,0.01,,,,,,METAR,299.0
KI19 211455Z AUTO 36010KT 10SM OVC014 M01/M02 A2980 RMK AO2 T10101018,KI19,2018-03-21T14:55:00Z,39.7,-83.98,-1.0,-1.8,360,10,,10.0,29.799213,,,TRUE,TRUE,,,,,,,OVC,1400,,,,,,,MVFR,,,,,,,,,,,,METAR,289.0
KFKS 211455Z AUTO 03005KT 10SM CLR M01/M11 A3010 RMK AO2 T10111112,KFKS,2018-03-21T14:55:00Z,44.63,-86.2,-1.1,-11.2,30,5,,10.0,30.100393,,,TRUE,TRUE,,,,,,,CLR,,,,,,,,VFR,,,,,,,,,,,,METAR,193.0
KELO 211455Z AUTO 00000KT 10SM SCT065 M08/M13 A3016 RMK AO2,KELO,2018-03-21T14:55:00Z,47.82,-91.82,-8.0,-13.0,0,0,,10.0,30.159449,,,TRUE,TRUE,,,,,,,SCT,6500,,,,,,,VFR,,,,,,,,,,,,METAR,443.0
KTEW 211455Z AUTO 01011G16KT 10SM SCT120 01/M09 A2997 RMK AO2 T00071088,KTEW,2018-03-21T14:55:00Z,42.57,-84.42,0.7,-8.8,10,11,16,10.0,29.970472,,,TRUE,TRUE,,,,,,,SCT,12000,,,,,,,VFR,,,,,,,,,,,,METAR,280.0
KSYN 211455Z AUTO 00000KT 7SM OVC060 M03/M05 A3015 RMK AO2 T10341048,KSYN,2018-03-21T14:55:00Z,44.47,-93.02,-3.4,-4.8,0,0,,7.0,30.15059,,,TRUE,TRUE,,,,,,,OVC,6000,,,,,,,VFR,,,,,,,,,,,,METAR,280.0
KSGS 211455Z AUTO 00000KT 10SM OVC060 M03/M07 A3017 RMK AO2 T10261070,KSGS,2018-03-21T14:55:00Z,44.87,-93.03,-2.6,-7.0,0,0,,10.0,30.171259,,,TRUE,TRUE,,,,,,,OVC,6000,,,,,,,VFR,,,,,,,,,,,,METAR,250.0
KRQB 211455Z AUTO 05006KT 10SM CLR M01/M11 A3003 RMK AO2 T10141106,KRQB,2018-03-21T14:55:00Z,43.72,-85.5,-1.4,-10.6,50,6,,10.0,30.029528,,,TRUE,TRUE,,,,,,,CLR,,,,,,,,VFR,,,,,,,,,,,,METAR,302.0
KRMY 211455Z AUTO 35008KT 10SM SCT120 M01/M08 A2996 RMK AO2 T10061076,KRMY,2018-03-21T14:55:00Z,42.23,-84.95,-0.6,-7.6,350,8,,10.0,29.958662,,,TRUE,TRUE,,,,,,,SCT,12000,,,,,,,VFR,,,,,,,,,,,,METAR,287.0
KPWC 211455Z AUTO 15003KT 10SM OVC024 M06/M08 A3017 RMK AO2,KPWC,2018-03-21T14:55:00Z,46.72,-94.37,-6.0,-8.0,150,3,,10.0,30.171259,,,TRUE,TRUE,,,,,,,OVC,2400,,,,,,,MVFR,,,,,,,,,,,,METAR,395.0
KY19 211455Z AUTO 25003KT 5SM BR SCT004 M02/M02 A3001 RMK AO2 PWINO,KY19,2018-03-21T14:55:00Z,46.77,-100.9,-2.0,-2.0,250,3,,5.0,30.008858,,,TRUE,TRUE,,,,,TRUE,BR,SCT,400,,,,,,,MVFR,,,,,,,,,,,,METAR,593.0
KX60 211455Z AUTO 28016G23KT 9SM 16/02 A3001 RMK A01,KX60,2018-03-21T14:55:00Z,29.35,-82.47,16.0,2.0,280,16,23,9.0,30.008858,,,TRUE,TRUE,,,,,,,,,,,,,,,,,,,,,,,,,,,METAR,23.0
KOXV 211455Z AUTO 33005KT 10SM CLR 01/M04 A3016 RMK AO2,KOXV,2018-03-21T14:55:00Z,41.28,-93.12,1.0,-4.0,330,5,,10.0,30.159449,,,TRUE,TRUE,,,,,,,CLR,,,,,,,,VFR,,,,,,,,,,,,METAR,283.0
KORS 211455Z AUTO 00000KT 6SM BR OVC090 05/04 A2976 RMK AO2,KORS,2018-03-21T14:55:00Z,48.7,-122.92,5.0,4.0,0,0,,6.0,29.760826,,,TRUE,TRUE,,,,,,BR,OVC,9000,,,,,,,VFR,,,,,,,,,,,,METAR,9.0
KORG 211455Z AUTO 04005KT 10SM CLR 16/08 A3022 RMK AO2 T01550084,KORG,2018-03-21T14:55:00Z,30.07,-93.8,15.5,8.4,40,5,,10.0,30.221457,,,TRUE,TRUE,,,,,,,CLR,,,,,,,,VFR,,,,,,,,,,,,METAR,4.0
KOLZ 211455Z AUTO 02004KT 10SM CLR M00/M09 A3015 RMK AO2,KOLZ,2018-03-21T14:55:00Z,42.67,-91.97,0.0,-9.0,20,4,,10.0,30.15059,,,TRUE,TRUE,,,,,,,CLR,,,,,,,,VFR,,,,,,,,,,,,METAR,328.0
KOKZ 211455Z AUTO 28011G22KT OVC031 07/00 A2987 RMK AO2 T00701005 PWINO,KOKZ,2018-03-21T14:55:00Z,32.97,-82.83,7.0,-0.5,280,11,22,,29.870079,,,TRUE,TRUE,,,,,TRUE,,OVC,3100,,,,,,,,,,,,,,,,,,,METAR,134.0
KN03 211455Z AUTO 02007KT 10SM CLR M02/M10 A2977 RMK AO2,KN03,2018-03-21T14:55:00Z,42.6,-76.22,-2.0,-10.0,20,7,,10.0,29.769686,,,TRUE,TRUE,,,,,,,CLR,,,,,,,,VFR,,,,,,,,,,,,METAR,366.0
KMXO 211455Z AUTO 02008KT 10SM CLR M00/M08 A3014 RMK AO2,KMXO,2018-03-21T14:55:00Z,42.22,-91.17,0.0,-8.0,20,8,,10.0,30.138779,,,TRUE,TRUE,,,,,,,CLR,,,,,,,,VFR,,,,,,,,,,,,METAR,259.0
KMUT 211455Z AUTO 36010KT 10SM CLR 01/M08 A3015 RMK AO2 P0028,KMUT,2018-03-21T14:55:00Z,41.37,-91.15,1.0,-8.0,360,10,,10.0,30.15059,,,TRUE,TRUE,,,,,,,CLR,,,,,,,,VFR,,,,,,0.28,,,,,,METAR,167.0
KMNE 211455Z AUTO 01004KT 10SM CLR 12/06 A3020 RMK AO2 T01160058,KMNE,2018-03-21T14:55:00Z,32.65,-93.3,11.6,5.8,10,4,,10.0,30.200787,,,TRUE,TRUE,,,,,,,CLR,,,,,,,,VFR,,,,,,,,,,,,METAR,85.0
KMMI 211455Z AUTO 28011KT 220V320 10SM OVC028 02/M03 A2989 RMK,KMMI,2018-03-21T14:55:00Z,35.4,-84.57,2.0,-3.0,280,11,,10.0,29.890747,,,TRUE,,,,,,,,OVC,2800,,,,,,,MVFR,,,,,,,,,,,,METAR,266.0
KMKS 211455Z AUTO 27007G18KT 10SM BKN039 09/M01 A2973 RMK AO2,KMKS,2018-03-21T14:55:00Z,33.18,-80.03,9.0,-1.0,270,7,18,10.0,29.731298,,,TRUE,TRUE,,,,,,,BKN,3900,,,,,,,VFR,,,,,,,,,,,,METAR,23.0
KMFV 211455Z AUTO 32006KT 3SM RA OVC006 05/04 A2955 RMK AO2 P0008 60009 T00450040,KMFV,2018-03-21T14:55:00Z,37.63,-75.77,4.5,4.0,320,6,,3.0,29.551182,,,TRUE,TRUE,,,,,,RA,OVC,600,,,,,,,IFR,,,,,,0.08,0.09,,,,,METAR,15.0
KMAN 211455Z AUTO 17008KT 10SM FEW075 BKN095 07/02 A2986 RMK A01,KMAN,2018-03-21T14:55:00Z,43.58,-116.52,7.0,2.0,170,8,,10.0,29.861221,,,TRUE,TRUE,,,,,,,FEW,7500,BKN,9500,,,,,VFR,,,,,,,,,,,,METAR,774.0
KM40 211455Z AUTO 32010KT 10SM CLR 10/09 A3010 RMK AO2,KM40,2018-03-21T14:55:00Z,33.87,-88.48,10.0,9.0,320,10,,10.0,30.100393,,,TRUE,TRUE,,,,,,,CLR,,,,,,,,VFR,,,,,,,,,,,,METAR,69.0
KLRJ 211455Z AUTO 00000KT 10SM BKN012 BKN040 02/M01 A3016 RMK AO2,KLRJ,2018-03-21T14:55:00Z,42.77,-96.2,2.0,-1.0,0,0,,10.0,30.159449,,,TRUE,TRUE,,,,,,,BKN,1200,BKN,4000,,,,,MVFR,,,,,,,,,,,,METAR,365.0
KLIC 211455Z AUTO 17008KT 10SM CLR 05/M07 A3007 RMK AO2 SLP183 T00501072 51005,KLIC,2018-03-21T14:55:00Z,39.27,-103.67,5.0,-7.2,170,8,,10.0,30.070866,1018.3,,TRUE,TRUE,,,,,,,CLR,,,,,,,,VFR,0.5,,,,,,,,,,,METAR,1630.0
KLHB 211455Z AUTO 00000KT 10SM CLR 13/05 A3023 RMK AO2 T01320049,KLHB,2018-03-21T14:55:00Z,30.87,-96.62,13.2,4.9,0,0,,10.0,30.230314,,,TRUE,TRUE,,,,,,,CLR,,,,,,,,VFR,,,,,,,,,,,,METAR,87.0
KL08 211455Z AUTO 25003KT 10SM CLR 14/M03 A2995 RMK AO2,KL08,2018-03-21T14:55:00Z,,,14.0,-3.0,250,3,,10.0,29.949802,,,TRUE,TRUE,,,,,,,CLR,,,,,,,,VFR,,,,,,,,,,,,METAR,
KJZI 211455Z AUTO 26016G26KT 10SM CLR 12/02 A2972 RMK AO2,KJZI,2018-03-21T14:55:00Z,32.7,-80.0,12.0,2.0,260,16,26,10.0,29.719488,,,TRUE,TRUE,,,,,,,CLR,,,,,,,,VFR,,,,,,,,,,,,METAR,6.0
KJVW 211455Z AUTO 32011G16KT 9SM CLR 12/02 A3015 RMK AO2,KJVW,2018-03-21T14:55:00Z,32.3,-90.42,12.0,2.0,320,11,16,9.0,30.15059,,,TRUE,TRUE,,,,,,,CLR,,,,,,,,VFR,,,,,,,,,,,,METAR,76.0
KIKV 211455Z AUTO VRB06KT 10SM CLR 00/M03 A3020 RMK AO2,KIKV,2018-03-21T14:55:00Z,41.68,-93.57,0.0,-3.0,0,6,,10.0,30.200787,,,TRUE,TRUE,,,,,,,CLR,,,,,,,,VFR,,,,,,,,,,,,METAR,275.0
KIER 211455Z AUTO 32003KT 10SM CLR 13/06 A3022 RMK AO2 T01260061,KIER,2018-03-21T14:55:00Z,31.73,-93.1,12.6,6.1,320,3,,10.0,30.221457,,,TRUE,TRUE,,,,,,,CLR,,,,,,,,VFR,,,,,,,,,,,,METAR,37.0
KICL 211455Z AUTO 31008KT 10SM OVC016 03/01 A3023 RMK AO2,KICL,2018-03-21T14:55:00Z,40.72,-95.02,3.0,1.0,310,8,,10.0,30.230314,,,TRUE,TRUE,,,,,,,OVC,1600,,,,,,,MVFR,,,,,,,,,,,,METAR,303.0
KI67 211455Z AUTO 36010G19KT 10SM OVC020 M01/M04 A2985 RMK AO1,KI67,2018-03-21T14:55:00Z,39.25,-84.78,-1.0,-4.0,360,10,19,10.0,29.84941,,,TRUE,TRUE,,,,,,,OVC,2000,,,,,,,MVFR,,,,,,,,,,,,METAR,178.0
KHYW 211455Z AUTO 26012G19KT 7SM SCT038 OVC050 09/02 A2968 RMK AO2,KHYW,2018-03-21T14:55:00Z,33.83,-79.12,9.0,2.0,260,12,19,7.0,29.681103,,,TRUE,TRUE,,,,,,,SCT,3800,OVC,5000,,,,,VFR,,,,,,,,,,,,METAR,11.0
KHON 211455Z AUTO 17009KT 10SM FEW008 00/M01 A3008 RMK AO2 SLP199 T00001011 53000,KHON,2018-03-21T14:55:00Z,44.38,-98.23,0.0,-1.1,170,9,,10.0,30.079725,1019.9,,TRUE,TRUE,,,,,,,FEW,800,,,,,,,VFR,0.0,,,,,,,,,,,METAR,390.0
KHFY 211455Z AUTO 34011G14KT 10SM OVC049 A2992 RMK AO2,KHFY,2018-03-21T14:55:00Z,39.63,-86.08,,,340,11,14,10.0,29.920275,,,TRUE,TRUE,,,,,,,OVC,4900,,,,,,,VFR,,,,,,,,,,,,METAR,251.0
KU42 211455Z AUTO 15020G23KT 10SM SCT060 BKN075 OVC085 07/00 A2998 RMK AO1 T00700000,KU42,2018-03-21T14:55:00Z,40.62,-111.98,7.0,0.0,150,20,23,10.0,29.97933,,,TRUE,TRUE,,,,,,,SCT,6000,BKN,7500,OVC,8500,,,VFR,,,,,,,,,,,,METAR,1402.0
KTME 211455Z AUTO 10008KT 10SM CLR 17/04 A3022 RMK AO2,KTME,2018-03-21T14:55:00Z,29.8,-95.9,17.0,4.0,100,8,,10.0,30.221457,,,TRUE,TRUE,,,,,,,CLR,,,,,,,,VFR,,,,,,,,,,,,METAR,51.0
KTKX 211455Z AUTO 32011G20KT 10SM OVC070 06/M00 A3012 RMK AO2,KTKX,2018-03-21T14:55:00Z,36.22,-90.02,6.0,0.0,320,11,20,10.0,30.121063,,,TRUE,TRUE,,,,,,,OVC,7000,,,,,,,VFR,,,,,,,,,,,,METAR,80.0
KSZT 211455Z AUTO 00000KT 10SM SCT060 M01/M01 A2984 RMK AO2,KSZT,2018-03-21T14:55:00Z,48.3,-116.57,-1.0,-1.0,0,0,,10.0,29.840551,,,TRUE,TRUE,,,,,,,SCT,6000,,,,,,,VFR,,,,,,,,,,,,METAR,648.0
KSRR 211455Z AUTO 00000KT CLR 08/M13 A3016 RMK AO2,KSRR,2018-03-21T14:55:00Z,33.47,-105.52,8.0,-13.0,0,0,,,30.159449,,,TRUE,TRUE,,,,,,,CLR,,,,,,,,,,,,,,,,,,,,METAR,2076.0
KSOW 211455Z AUTO 19011G17KT 10SM CLR 10/M12 A3013 RMK AO2,KSOW,2018-03-21T14:55:00Z,34.27,-110.0,10.0,-12.0,190,11,17,10.0,30.129921,,,TRUE,TRUE,,,,,,,CLR,,,,,,,,VFR,,,,,,,,,,,,METAR,1954.0
KSNC 211455Z AUTO 04011G19KT 1SM -SN BKN001 BKN010 OVC022 00/M03 A2970 RMK AO2,KSNC,2018-03-21T14:55:00Z,41.38,-72.5,0.0,-3.0,40,11,19,1.0,29.698818,,,TRUE,TRUE,,,,,,-SN,BKN,100,BKN,1000,OVC,2200,,,LIFR,,,,,,,,,,,,METAR,127.0
KSLB 211455Z AUTO 30004KT 7SM BKN005 BKN014 M00/M00 A3016 RMK AO2,KSLB,2018-03-21T14:55:00Z,42.6,-95.22,0.0,0.0,300,4,,7.0,30.159449,,,TRUE,TRUE,,,,,,,BKN,500,BKN,1400,,,,,IFR,,,,,,,,,,,,METAR,454.0
KSHL 211455Z AUTO 00000KT 10SM OVC016 00/M02 A3013 RMK AO2,KSHL,2018-03-21T14:55:00Z,43.22,-95.82,0.0,-2.0,0,0,,10.0,30.129921,,,TRUE,TRUE,,,,,,,OVC,1600,,,,,,,MVFR,,,,,,,,,,,,METAR,432.0
KSEM 211455Z AUTO 31015KT 10SM CLR 11/01 A3008 RMK AO2,KSEM,2018-03-21T14:55:00Z,32.35,-86.98,11.0,1.0,310,15,,10.0,30.079725,,,TRUE,TRUE,,,,,,,CLR,,,,,,,,VFR,,,,,,,,,,,,METAR,51.0
KSDA 211455Z AUTO 28005KT 10SM BKN014 03/00 A3021 RMK AO2,KSDA,2018-03-21T14:55:00Z,40.75,-95.42,3.0,0.0,280,5,,10.0,30.209646,,,TRUE,TRUE,,,,,,,BKN,1400,,,,,,,MVFR,,,,,,,,,,,,METAR,296.0
KSCK 211455Z 15016G23KT 10SM OVC043 13/12 A2983 RMK AO2 RAB16E36 SLP099 P0000 60003 T01280117 55004,KSCK,2018-03-21T14:55:00Z,37.88,-121.22,12.8,11.7,150,16,23,10.0,29.828741,1009.9,,,TRUE,,,,,,,OVC,4300,,,,,,,VFR,-0.4,,,,,0.005,0.03,,,,,METAR,10.0
KSCD 211455Z AUTO 31016G22KT 10SM BKN080 08/02 A3003 RMK AO2 T00810019,KSCD,2018-03-21T14:55:00Z,33.17,-86.3,8.1,1.9,310,16,22,10.0,30.029528,,,TRUE,TRUE,,,,,,,BKN,8000,,,,,,,VFR,,,,,,,,,,,,METAR,173.0
KSAC 211455Z 19003KT 1SM RA BR BKN008 OVC012 12/12 A2984 RMK AO2 P0000 T01170117,KSAC,2018-03-21T14:55:00Z,38.5,-121.5,11.7,11.7,190,3,,1.0,29.840551,,,,TRUE,,,,,,RA BR,BKN,800,OVC,1200,,,,,IFR,,,,,,0.005,,,,,,SPECI,11.0
KRSN 211455Z AUTO 00000KT 10SM CLR 11/03 A3023 RMK AO2 T01120029,KRSN,2018-03-21T14:55:00Z,32.52,-92.58,11.2,2.9,0,0,,10.0,30.230314,,,TRUE,TRUE,,,,,,,CLR,,,,,,,,VFR,,,,,,,,,,,,METAR,95.0
KRNV 211455Z AUTO 33015KT 10SM CLR 10/03 A3015 RMK AO2 T01020026,KRNV,2018-03-21T14:55:00Z,33.77,-90.75,10.2,2.6,330,15,,10.0,30.15059,,,TRUE,TRUE,,,,,,,CLR,,,,,,,,VFR,,,,,,,,,,,,METAR,41.0
KRNO 211455Z 09006KT 7SM -RA FEW006 SCT020 BKN045 OVC180 07/05 A2986 RMK AO2 SLP096 MTN TOPS OBSCD S THRU NW P0004 60008 T00670050 50002,KRNO,2018-03-21T14:55:00Z,39.5,-119.77,6.7,5.0,90,6,,7.0,29.861221,1009.6,,,TRUE,,,,,,-RA,FEW,600,SCT,2000,BKN,4500,OVC,18000,VFR,0.2,,,,,0.04,0.08,,,,,METAR,1342.0
KRCV 211455Z AUTO 26006KT 10SM SCT120 00/M12 A3015 RMK AO2 T00001117,KRCV,2018-03-21T14:55:00Z,37.72,-106.35,0.0,-11.7,260,6,,10.0,30.15059,,,TRUE,TRUE,,,,,,,SCT,12000,,,,,,,VFR,,,,,,,,,,,,METAR,2424.0
KPLR 211455Z AUTO 30010KT 10SM FEW037 07/M01 A3003 RMK A01,KPLR,2018-03-21T14:55:00Z,33.57,-86.25,7.0,-1.0,300,10,,10.0,30.029528,,,TRUE,TRUE,,,,,,,FEW,3700,,,,,,,VFR,,,,,,,,,,,,METAR,148.0
KPHP 211455Z AUTO 26007KT 10SM OVC100 00/M03 A3002 RMK AO2 SLP185 T00001028 53005,KPHP,2018-03-21T14:55:00Z,44.05,-101.6,0.0,-2.8,260,7,,10.0,30.02067,1018.5,,TRUE,TRUE,,,,,,,OVC,10000,,,,,,,VFR,0.5,,,,,,,,,,,METAR,672.0
KPAN 211455Z AUTO 00000KT 10SM CLR 08/M09 A3009 RMK AO2,KPAN,2018-03-21T14:55:00Z,34.25,-111.33,8.0,-9.0,0,0,,10.0,30.088583,,,TRUE,TRUE,,,,,,,CLR,,,,,,,,VFR,,,,,,,,,,,,METAR,1572.0
KCMD 211455Z AUTO 32010G17KT 10SM CLR 04/M02 A3002 RMK AO2 T00421018,KCMD,2018-03-21T14:55:00Z,34.27,-86.85,4.2,-1.8,320,10,17,10.0,30.02067,,,TRUE,TRUE,,,,,,,CLR,,,,,,,,VFR,,,,,,,,,,,,METAR,294.0
KCKF 211455Z AUTO 29017G23KT 10SM CLR 12/00 A2996 RMK AO2 T01190001,KCKF,2018-03-21T14:55:00Z,31.98,-83.77,11.9,0.1,290,17,23,10.0,29.958662,,,TRUE,TRUE,,,,,,,CLR,,,,,,,,VFR,,,,,,,,,,,,METAR,91.0
KCIN 211455Z AUTO 00000KT 10SM OVC016 02/M00 A3017 RMK AO2,KCIN,2018-03-21T14:55:00Z,42.03,-94.77,2.0,0.0,0,0,,10.0,30.171259,,,TRUE,TRUE,,,,,,,OVC,1600,,,,,,,MVFR,,,,,,,,,,,,METAR,375.0
KCDN 211455Z AUTO 28015KT 10SM SCT039 BKN060 OVC065 08/M01 A2972 RMK AO2,KCDN,2018-03-21T14:55:00Z,34.28,-80.57,8.0,-1.0,280,15,,10.0,29.719488,,,TRUE,TRUE,,,,,,,SCT,3900,BKN,6000,OVC,6500,,,VFR,,,,,,,,,,,,METAR,92.0
KCBF 211455Z AUTO 00000KT 10SM CLR 02/02 A3018 RMK AO2,KCBF,2018-03-21T14:55:00Z,41.27,-95.77,2.0,2.0,0,0,,10.0,30.180119,,,TRUE,TRUE,,,,,,,CLR,,,,,,,,VFR,,,,,,,,,,,,METAR,382.0
KCAV 211455Z AUTO 00000KT 10SM SCT050 M01/M01 A3017 RMK AO2 PWINO,KCAV,2018-03-21T14:55:00Z,42.75,-93.77,-1.0,-1.0,0,0,,10.0,30.171259,,,TRUE,TRUE,,,,,TRUE,,SCT,5000,,,,,,,VFR,,,,,,,,,,,,METAR,354.0
KBVU 211455Z AUTO 00000KT 10SM CLR 13/02 A2999 RMK AO2,KBVU,2018-03-21T14:55:00Z,35.95,-114.87,13.0,2.0,0,0,,10.0,29.991142,,,TRUE,TRUE,,,,,,,CLR,,,,,,,,VFR,,,,,,,,,,,,METAR,671.0
KBNW 211455Z AUTO 31006KT 10SM BKN011 M00/M02 A3017 RMK AO2,KBNW,2018-03-21T14:55:00Z,42.03,-93.83,0.0,-2.0,310,6,,10.0,30.171259,,,TRUE,TRUE,,,,,,,BKN,1100,,,,,,,MVFR,,,,,,,,,,,,METAR,354.0
KBNL 211455Z AUTO 27012G23KT 10SM A2978 RMK AO2,KBNL,2018-03-21T14:55:00Z,33.25,-81.38,,,270,12,23,10.0,29.778543,,,TRUE,TRUE,,,,,,,,,,,,,,,,,,,,,,,,,,,METAR,75.0
KBEA 211455Z AUTO 11009KT 10SM CLR 18/08 A3016 RMK AO2 T01760080,KBEA,2018-03-21T14:55:00Z,28.37,-97.78,17.6,8.0,110,9,,10.0,30.159449,,,TRUE,TRUE,,,,,,,CLR,,,,,,,,VFR,,,,,,,,,,,,METAR,82.0
KBDN 211455Z AUTO 16007KT 10SM BKN045 BKN060 04/02 A2974 RMK AO2,KBDN,2018-03-21T14:55:00Z,44.1,-121.2,4.0,2.0,160,7,,10.0,29.740158,,,TRUE,TRUE,,,,,,,BKN,4500,BKN,6000,,,,,VFR,,,,,,,,,,,,METAR,1055.0
KBAM 211455Z AUTO 33007KT 10SM SCT044 BKN050 OVC075 04/04 A2991 RMK AO1,KBAM,2018-03-21T14:55:00Z,,,4.0,4.0,330,7,,10.0,29.911417,,,TRUE,TRUE,,,,,,,SCT,4400,BKN,5000,OVC,7500,,,VFR,,,,,,,,,,,,METAR,
KBAC 211455Z AUTO 19008KT 8SM OVC065 M02/M02 A3004 RMK AO2,KBAC,2018-03-21T14:55:00Z,46.93,-98.02,-2.0,-2.0,190,8,,8.0,30.041338,,,TRUE,TRUE,,,,,,,OVC,6500,,,,,,,VFR,,,,,,,,,,,,METAR,427.0
KAXA 211455Z AUTO 00000KT 10SM BKN017 OVC027 M01/M02 A3016 RMK AO2 PWINO,KAXA,2018-03-21T14:55:00Z,43.07,-94.27,-1.0,-2.0,0,0,,10.0,30.159449,,,TRUE,TRUE,,,,,TRUE,,BKN,1700,OVC,2700,,,,,MVFR,,,,,,,,,,,,METAR,372.0
KAUN 211455Z AUTO 00000KT 3SM BKN003 OVC009 11/11 A2984 RMK AO1 P0004,KAUN,2018-03-21T14:55:00Z,38.95,-121.08,11.0,11.0,0,0,,3.0,29.840551,,,TRUE,TRUE,,,,,,,BKN,300,OVC,900,,,,,LIFR,,,,,,0.04,,,,,,METAR,467.0
KASN 211455Z AUTO 30011G15KT 10SM BKN034 BKN040 07/00 A3002 RMK AO2 T00691001,KASN,2018-03-21T14:55:00Z,33.57,-86.05,6.9,-0.1,300,11,15,10.0,30.02067,,,TRUE,TRUE,,,,,,,BKN,3400,BKN,4000,,,,,VFR,,,,,,,,,,,,METAR,162.0
KARW 211455Z AUTO 28022G28KT 10SM CLR 11/00 A2977 RMK AO2,KARW,2018-03-21T14:55:00Z,32.42,-80.63,11.0,0.0,280,22,28,10.0,29.769686,,,TRUE,TRUE,,,,,,,CLR,,,,,,,,VFR,,,,,,,,,,,,METAR,4.0
KAQX 211455Z AUTO VRB07G18KT 10SM SCT038 10/M01 A2979 RMK AO2,KAQX,2018-03-21T14:55:00Z,32.98,-81.27,10.0,-1.0,0,7,18,10.0,29.790354,,,TRUE,TRUE,,,,,,,SCT,3800,,,,,,,VFR,,,,,,,,,,,,METAR,49.0
KANQ 211455Z AUTO 02009G15KT 10SM CLR M00/M08 A2993 RMK AO2 TSNO,KANQ,2018-03-21T14:55:00Z,41.63,-85.08,0.0,-8.0,20,9,15,10.0,29.929134,,,TRUE,TRUE,,,TRUE,,,,CLR,,,,,,,,VFR,,,,,,,,,,,,METAR,303.0
KAIO 211455Z AUTO 29006KT 10SM FEW009 BKN013 OVC021 02/01 A3018 RMK AO2,KAIO,2018-03-21T14:55:00Z,41.38,-95.03,2.0,1.0,290,6,,10.0,30.180119,,,TRUE,TRUE,,,,,,,FEW,900,BKN,1300,OVC,2100,,,MVFR,,,,,,,,,,,,METAR,360.0
KADM 211455Z 00000KT 10SM SKC 10/02 A3022,KADM,2018-03-21T14:55:00Z,34.28,-97.02,10.0,2.0,0,0,,10.0,30.221457,,,,,,,,,,,SKC,,,,,,,,VFR,,,,,,,,,,,,METAR,232.0
KAAT 211455Z AUTO 00000KT 10SM BKN035 OVC045 04/03 A2982 RMK AO2 RAB02E43 SLP096 P0001 60002 T00440033 58001,KAAT,2018-03-21T14:55:00Z,41.48,-120.57,4.4,3.3,0,0,,10.0,29.819881,1009.6,,TRUE,TRUE,,,,,,,BKN,3500,OVC,4500,,,,,VFR,-0.1,,,,,0.01,0.02,,,,,METAR,1331.0
K9D7 211455Z AUTO 00000KT 5SM BR OVC005 M01/M01 A3003 RMK AO2,K9D7,2018-03-21T14:55:00Z,48.48,-99.23,-1.0,-1.0,0,0,,5.0,30.029528,,,TRUE,TRUE,,,,,,BR,OVC,500,,,,,,,IFR,,,,,,,,,,,,METAR,452.0
K8B0 211455Z AUTO 09009KT 10SM CLR M02/M11 A2981 RMK AO2,K8B0,2018-03-21T14:55:00Z,,,-2.0,-11.0,90,9,,10.0,29.811024,,,TRUE,TRUE,,,,,,,CLR,,,,,,,,VFR,,,,,,,,,,,,METAR,
K82V 211455Z AUTO 10SM OVC090 04/M07 A3003 RMK AO2 PWINO,K82V,2018-03-21T14:55:00Z,41.15,-104.13,4.0,-7.0,,,,10.0,30.029528,,,TRUE,TRUE,,,,,TRUE,,OVC,9000,,,,,,,VFR,,,,,,,,,,,,METAR,1570.0
K7L2 211455Z AUTO 00000KT 9SM M00/M00 A3003 RMK AO2,K7L2,2018-03-21T14:55:00Z,46.22,-100.25,0.0,0.0,0,0,,9.0,30.029528,,,TRUE,TRUE,,,,,,,,,,,,,,,,,,,,,,,,,,,METAR,543.0
K6L4 211455Z AUTO 23006G11KT 1SM -SN BKN024 BKN033 M00/M01 A2966 RMK AO2,K6L4,2018-03-21T14:55:00Z,37.85,-81.92,0.0,-1.0,230,6,11,1.0,29.660433,,,TRUE,TRUE,,,,,,-SN,BKN,2400,BKN,3300,,,,,IFR,,,,,,,,,,,,METAR,508.0
K6B9 211455Z AUTO 02006KT 10SM CLR M02/M11 A2981 RMK AO2,K6B9,2018-03-21T14:55:00Z,42.92,-76.43,-2.0,-11.0,20,6,,10.0,29.811024,,,TRUE,TRUE,,,,,,,CLR,,,,,,,,VFR,,,,,,,,,,,,METAR,316.0
K5H4 211455Z AUTO 00000KT 1/4SM FZFG OVC070 M03/M03 A3001 RMK AO2,K5H4,2018-03-21T14:55:00Z,47.78,-99.93,-3.0,-3.0,0,0,,0.25,30.008858,,,TRUE,TRUE,,,,,,FZFG,OVC,7000,,,,,,,LIFR,,,,,,,,,,,,METAR,490.0
K4M9 211455Z AUTO 33011KT 10SM FEW046 OVC060 07/02 A3013 RMK AO2 PWINO,K4M9,2018-03-21T14:55:00Z,36.4,-90.65,7.0,2.0,330,11,,10.0,30.129921,,,TRUE,TRUE,,,,,TRUE,,FEW,4600,OVC,6000,,,,,VFR,,,,,,,,,,,,METAR,90.0
K4A9 211455Z AUTO 31011G24KT 10SM SCT032 BKN040 03/M05 A2995 RMK AO2,K4A9,2018-03-21T14:55:00Z,34.47,-85.72,3.0,-5.0,310,11,24,10.0,29.949802,,,TRUE,TRUE,,,,,,,SCT,3200,BKN,4000,,,,,VFR,,,,,,,,,,,,METAR,267.0
K4A6 211455Z AUTO 30012G19KT 270V350 10SM BKN037 BKN043 05/M03 A2998 RMK AO2,K4A6,2018-03-21T14:55:00Z,34.68,-86.0,5.0,-3.0,300,12,19,10.0,29.97933,,,TRUE,TRUE,,,,,,,BKN,3700,BKN,4300,,,,,VFR,,,,,,,,,,,,METAR,198.0
K46D 211455Z AUTO 26004KT 6SM BR OVC049 M00/M01 A3002 RMK AO2,K46D,2018-03-21T14:55:00Z,47.45,-99.15,0.0,-1.0,260,4,,6.0,30.02067,,,TRUE,TRUE,,,,,,BR,OVC,4900,,,,,,,VFR,,,,,,,,,,,,METAR,490.0
K3R7 211455Z AUTO 35005KT 10SM CLR 14/06 A3021 RMK AO2 T01360062,K3R7,2018-03-21T14:55:00Z,30.25,-92.67,13.6,6.2,350,5,,10.0,30.209646,,,TRUE,TRUE,,,,,,,CLR,,,,,,,,VFR,,,,,,,,,,,,METAR,7.0
K2D5 211455Z AUTO 20009KT 10SM M01/M01 A3004 RMK AO2 PWINO,K2D5,2018-03-21T14:55:00Z,46.17,-98.08,-1.0,-1.0,200,9,,10.0,30.041338,,,TRUE,TRUE,,,,,TRUE,,,,,,,,,,,,,,,,,,,,,,METAR,407.0
K27K 211455Z AUTO 32012G17KT 10SM OVC012 M01/M03 A2980 RMK AO1,K27K,2018-03-21T14:55:00Z,38.23,-84.43,-1.0,-3.0,320,12,17,10.0,29.799213,,,TRUE,TRUE,,,,,,,OVC,1200,,,,,,,MVFR,,,,,,,,,,,,METAR,289.0
K24J 211455Z AUTO 27015G23KT 10SM CLR 14/00 A2999 RMK A01,K24J,2018-03-21T14:55:00Z,30.3,-83.03,14.0,0.0,270,15,23,10.0,29.991142,,,TRUE,TRUE,,,,,,,CLR,,,,,,,,VFR,,,,,,,,,,,,METAR,32.0
K1A9 211455Z AUTO 30013G20KT 10SM CLR 09/00 A3005 RMK AO2 T00930004,K1A9,2018-03-21T14:55:00Z,32.43,-86.52,9.3,0.4,300,13,20,10.0,30.050198,,,TRUE,TRUE,,,,,,,CLR,,,,,,,,VFR,,,,,,,,,,,,METAR,69.0
K0S9 211455Z AUTO 00000KT 10SM OVC110 02/01 A2977 RMK AO2,K0S9,2018-03-21T14:55:00Z,48.05,-122.82,2.0,1.0,0,0,,10.0,29.769686,,,TRUE,TRUE,,,,,,,OVC,11000,,,,,,,VFR,,,,,,,,,,,,METAR,33.0
KHCR 211455Z AUTO 20012G18KT 7SM UP SCT008 04/M01 A3001 RMK AO2,KHCR,2018-03-21T14:55:00Z,40.48,-111.43,4.0,-1.0,200,12,18,7.0,30.008858,,,TRUE,TRUE,,,,,,UP,SCT,800,,,,,,,VFR,,,,,,,,,,,,METAR,1706.0
KGWR 211455Z AUTO 20009KT 10SM M00/M01 A3005 RMK A01,KGWR,2018-03-21T14:55:00Z,46.22,-97.65,0.0,-1.0,200,9,,10.0,30.050198,,,TRUE,TRUE,,,,,,,,,,,,,,,,,,,,,,,,,,,METAR,386.0
KLLJ 211455Z AUTO 16003KT 10SM OVC060 00/M05 A2991 RMK AO2 SLP132 T00001050 53002,KLLJ,2018-03-21T14:55:00Z,44.52,-114.22,0.0,-5.0,160,3,,10.0,29.911417,1013.2,,TRUE,TRUE,,,,,,,OVC,6000,,,,,,,VFR,0.2,,,,,,,,,,,METAR,1536.0
KLYV 211455Z AUTO 21005KT 10SM OVC012 00/M03 A3014 RMK AO2,KLYV,2018-03-21T14:55:00Z,43.62,-96.22,0.0,-3.0,210,5,,10.0,30.138779,,,TRUE,TRUE,,,,,,,OVC,1200,,,,,,,MVFR,,,,,,,,,,,,METAR,436.0
KMKG 211455Z 02010KT 10SM OVC200 00/M10 A3006 RMK AO2 SLP186 T00001100 51015,KMKG,2018-03-21T14:55:00Z,43.17,-86.23,0.0,-10.0,20,10,,10.0,30.059055,1018.6,,,TRUE,,,,,,,OVC,20000,,,,,,,VFR,1.5,,,,,,,,,,,METAR,191.0
KMGG 211455Z AUTO 00000KT 10SM SCT022 BKN043 OVC060 M02/M05 A3017 RMK AO2 T10221048,KMGG,2018-03-21T14:55:00Z,45.23,-93.98,-2.2,-4.8,0,0,,10.0,30.171259,,,TRUE,TRUE,,,,,,,SCT,2200,BKN,4300,OVC,6000,,,VFR,,,,,,,,,,,,METAR,313.0
KMOX 211455Z AUTO 14007KT 4SM BR SCT004 OVC019 00/M01 A3011 RMK AO2,KMOX,2018-03-21T14:55:00Z,45.57,-95.97,0.0,-1.0,140,7,,4.0,30.109253,,,TRUE,TRUE,,,,,,BR,SCT,400,OVC,1900,,,,,MVFR,,,,,,,,,,,,METAR,344.0
KMZH 211455Z AUTO 00000KT 10SM OVC085 M05/M08 A3015 RMK AO2,KMZH,2018-03-21T14:55:00Z,46.42,-92.8,-5.0,-8.0,0,0,,10.0,30.15059,,,TRUE,TRUE,,,,,,,OVC,8500,,,,,,,VFR,,,,,,,,,,,,METAR,328.0
KONZ 211455Z AUTO 04013KT 10SM OVC100 01/M11 A2991 RMK AO2 T00131111,KONZ,2018-03-21T14:55:00Z,42.1,-83.15,1.3,-11.1,40,13,,10.0,29.911417,,,TRUE,TRUE,,,,,,,OVC,10000,,,,,,,VFR,,,,,,,,,,,,METAR,180.0
KPEX 211455Z AUTO 13004KT 10SM OVC009 M02/M03 A3016 RMK AO2 T10221030,KPEX,2018-03-21T14:55:00Z,45.37,-94.73,-2.2,-3.0,130,4,,10.0,30.159449,,,TRUE,TRUE,,,,,,,OVC,900,,,,,,,IFR,,,,,,,,,,,,METAR,360.0
FJDG 211455Z 18009KT 9999 FEW022 SCT045 SCT260 28/26 A2986 RMK SLP108 60002 8/801 T02840258 52014,FJDG,2018-03-21T14:55:00Z,-7.32,72.42,28.4,25.8,180,9,,6.21,29.861221,1010.8,,,,,,,,,,FEW,2200,SCT,4500,SCT,26000,,,VFR,1.4,,,,,,0.02,,,,,METAR,3.0
CYPE 211455Z 05010KT 10SM -SN OVC015 M01/M04 A2990 RMK SC8 SLP154,CYPE,2018-03-21T14:55:00Z,56.22,-117.45,-1.0,-4.0,50,10,,10.0,29.899607,1015.4,,,,,,,,,-SN,OVC,1500,,,,,,,MVFR,,,,,,,,,,,,SPECI,571.0
EHRD 211455Z AUTO 29008KT 250V330 9999 FEW021 SCT025 07/02 Q1028 NOSIG,EHRD,2018-03-21T14:55:00Z,51.95,4.45,7.0,2.0,290,8,,6.21,30.35433,,,TRUE,,,TRUE,,,,,FEW,2100,SCT,2500,,,,,VFR,,,,,,,,,,,,METAR,-5.0
EHGG 211455Z AUTO 27013KT 230V320 9999 NSC 07/M01 Q1026 NOSIG,EHGG,2018-03-21T14:55:00Z,53.12,6.57,7.0,-1.0,270,13,,6.21,30.295275,,,TRUE,,,TRUE,,,,,CLR,,,,,,,,VFR,,,,,,,,,,,,METAR,4.0
EHBK 211455Z AUTO 22005KT 170V260 9999 OVC037 06/M02 Q1028 NOSIG,EHBK,2018-03-21T14:55:00Z,50.92,5.77,6.0,-2.0,220,5,,6.21,30.35433,,,TRUE,,,TRUE,,,,,OVC,3700,,,,,,,VFR,,,,,,,,,,,,METAR,116.0
EHAM 211455Z 28011KT 9999 SCT023 07/M00 Q1028 NOSIG,EHAM,2018-03-21T14:55:00Z,52.32,4.78,7.0,0.0,280,11,,6.21,30.35433,,,,,,TRUE,,,,,SCT,2300,,,,,,,VFR,,,,,,,,,,,,METAR,9.0
EHEH 211455Z AUTO 25007KT 200V320 9999 SCT029 BKN053 BKN250 07/M00 Q1028 BLU 27006KT 9999 SCT032 SCT050,EHEH,2018-03-21T14:55:00Z,51.45,5.38,7.0,0.0,250,7,,6.21,30.35433,,,TRUE,,,,,,,,SCT,2900,BKN,5300,BKN,25000,SCT,3200,VFR,,,,,,,,,,,,METAR,22.0
EHDL 211455Z AUTO 25009KT 210V310 9999 SCT031 SCT036 OVC042 07/M01 Q1027 BLU,EHDL,2018-03-21T14:55:00Z,52.07,5.87,7.0,-1.0,250,9,,6.21,30.324802,,,TRUE,,,,,,,,SCT,3100,SCT,3600,OVC,4200,,,VFR,,,,,,,,,,,,METAR,52.0
EHVK 211455Z AUTO 24008KT 9999 OVC057 07/M01 Q1028 BLU 27005KT 9999 BKN030,EHVK,2018-03-21T14:55:00Z,51.63,5.7,7.0,-1.0,240,8,,6.21,30.35433,,,TRUE,,,,,,,,OVC,5700,BKN,3000,,,,,VFR,,,,,,,,,,,,METAR,21.0
EHLW 211455Z AUTO 28013KT 230V310 9999 BKN020 BKN026 OVC300 06/01 Q1026 WHT 26012KT 9999 SCT017 BECMG FEW017,EHLW,2018-03-21T14:55:00Z,53.22,5.75,6.0,1.0,280,13,,6.21,30.295275,,,TRUE,,,,,,,,BKN,2000,BKN,2600,OVC,30000,SCT,1700,MVFR,,,,,,,,,,,,METAR,2.0
EHGR 211455Z AUTO 27009KT 230V310 9999 SCT046 BKN051 BKN300 08/M01 Q1028 BLU 27007KT 9999 SCT030,EHGR,2018-03-21T14:55:00Z,51.57,4.92,8.0,-1.0,270,9,,6.21,30.35433,,,TRUE,,,,,,,,SCT,4600,BKN,5100,BKN,30000,SCT,3000,VFR,,,,,,,,,,,,METAR,13.0
EHVL 211455Z AUTO 25014KT 9999 OVC300 05/03 Q1027 BLU,EHVL,2018-03-21T14:55:00Z,53.23,4.92,5.0,3.0,250,14,,6.21,30.324802,,,TRUE,,,,,,,,OVC,30000,,,,,,,VFR,,,,,,,,,,,,METAR,5.0
EHWO 211455Z AUTO 28010KT 230V360 9999 OVC250 08/01 Q1028 BLU 30008KT 9999 SCT028,EHWO,2018-03-21T14:55:00Z,51.45,4.32,8.0,1.0,280,10,,6.21,30.35433,,,TRUE,,,,,,,,OVC,25000,SCT,2800,,,,,VFR,,,,,,,,,,,,METAR,17.0
K22N 211455Z AUTO 06006KT 1/2SM SN OVC012 00/M01 A2968 RMK AO2,K22N,2018-03-21T14:55:00Z,40.8,-75.77,0.0,-1.0,60,6,,0.5,29.681103,,,TRUE,TRUE,,,,,,SN,OVC,1200,,,,,,,LIFR,,,,,,,,,,,,METAR,163.0
K08D 211455Z AUTO 00000KT 3SM BR M04/M04 A3000 RMK AO2,K08D,2018-03-21T14:55:00Z,48.3,-102.4,-4.0,-4.0,0,0,,3.0,30.0,,,TRUE,TRUE,,,,,,BR,,,,,,,,,,,,,,,,,,,,,METAR,684.0
PATL 211455Z AUTO VRB03KT 4SM -SN FEW037 OVC045 M07/M07 A3059 RMK AO2 SNB1255 SLP384 P0000 60000 T10711073 52008,PATL,2018-03-21T14:55:00Z,62.9,-155.97,-7.1,-7.3,0,3,,4.0,30.590551,1038.4,,TRUE,TRUE,,,,,,-SN,FEW,3700,OVC,4500,,,,,MVFR,0.8,,,,,0.005,0.005,,,,,METAR,294.0
PATC 211455Z AUTO 17008KT 10SM -FZDZ CLR M09/M10 A3044 RMK AO2 SLP320 P0000 60000 T10911101 57019 $,PATC,2018-03-21T14:55:00Z,65.57,-167.92,-9.1,-10.1,170,8,,10.0,30.43996,1032.0,,TRUE,TRUE,TRUE,,,,,-FZDZ,CLR,,,,,,,,VFR,-1.9,,,,,0.005,0.005,,,,,METAR,83.0
PASV 211455Z AUTO 32009KT 2 1/2SM -SN FEW009 BKN032 M06/M08 A3054 RMK AO2 SNB1355 SLP379 P0000 60001 T10621077 57005,PASV,2018-03-21T14:55:00Z,61.1,-155.57,-6.2,-7.7,320,9,,2.5,30.540354,1037.9,,TRUE,TRUE,,,,,,-SN,FEW,900,BKN,3200,,,,,IFR,-0.5,,,,,0.005,0.01,,,,,METAR,484.0
PALU 211455Z AUTO 11006KT 10SM FEW250 M26/M29 A3063 RMK AO2 SLP374 T12571295 58009,PALU,2018-03-21T14:55:00Z,68.88,-166.1,-25.7,-29.5,110,6,,10.0,30.628937,1037.4,,TRUE,TRUE,,,,,,,FEW,25000,,,,,,,VFR,-0.9,,,,,,,,,,,METAR,3.0
PAIM 211455Z AUTO 31008KT 270V020 10SM FEW006 M13/M16 A3050 RMK AO2 SLP371 T11281158 52016,PAIM,2018-03-21T14:55:00Z,66.0,-153.7,-12.8,-15.8,310,8,,10.0,30.499016,1037.1,,TRUE,TRUE,,,,,,,FEW,600,,,,,,,VFR,1.6,,,,,,,,,,,METAR,389.0
PACZ 211455Z 16019KT 10SM BKN026 M01/M02 A3050 RMK AO2A SLP339 5//// RCRNR,PACZ,2018-03-21T14:55:00Z,61.78,-166.03,-1.0,-2.0,160,19,,10.0,30.499016,1033.9,,,TRUE,,,,,,,BKN,2600,,,,,,,MVFR,,,,,,,,,,,,METAR,146.0
K3I2 211455Z AUTO 00000KT 1 1/4SM -SN OVC005 01/01 A2970 RMK AO2 T00080006,K3I2,2018-03-21T14:55:00Z,38.92,-82.1,0.8,0.6,0,0,,1.25,29.698818,,,TRUE,TRUE,,,,,,-SN,OVC,500,,,,,,,IFR,,,,,,,,,,,,METAR,196.0
KAXS 211455Z AUTO 00000KT 10SM CLR 12/M02 A3020 RMK AO2 T01181016,KAXS,2018-03-21T14:55:00Z,34.7,-99.33,11.8,-1.6,0,0,,10.0,30.200787,,,TRUE,TRUE,,,,,,,CLR,,,,,,,,VFR,,,,,,,,,,,,METAR,437.0
KAZC 211455Z AUTO 00000KT 10SM OVC050 07/00 A3007 RMK AO2,KAZC,2018-03-21T14:55:00Z,36.97,-113.02,7.0,0.0,0,0,,10.0,30.070866,,,TRUE,TRUE,,,,,,,OVC,5000,,,,,,,VFR,,,,,,,,,,,,METAR,1486.0
KAXX 211455Z AUTO 04004KT 10SM CLR M03/M09 A3015 RMK AO2 T10301087,KAXX,2018-03-21T14:55:00Z,36.42,-105.28,-3.0,-8.7,40,4,,10.0,30.15059,,,TRUE,TRUE,,,,,,,CLR,,,,,,,,VFR,,,,,,,,,,,,METAR,2548.0
KBBP 211455Z AUTO 27005KT 10SM -RA SCT007 BKN022 OVC034 06/05 A2969 RMK AO2 P0002,KBBP,2018-03-21T14:55:00Z,34.62,-79.73,6.0,5.0,270,5,,10.0,29.68996,,,TRUE,TRUE,,,,,,-RA,SCT,700,BKN,2200,OVC,3400,,,MVFR,,,,,,0.02,,,,,,METAR,45.0
KBCB 211455Z AUTO 00000KT 1 1/4SM -SN BKN006 OVC010 00/M01 A2963 RMK AO2 T10011008,KBCB,2018-03-21T14:55:00Z,37.22,-80.42,-0.1,-0.8,0,0,,1.25,29.630905,,,TRUE,TRUE,,,,,,-SN,BKN,600,OVC,1000,,,,,IFR,,,,,,,,,,,,METAR,650.0
KBIJ 211455Z AUTO 30008G19KT 260V330 10SM CLR 12/01 A3003 RMK AO2,KBIJ,2018-03-21T14:55:00Z,31.4,-84.9,12.0,1.0,300,8,19,10.0,30.029528,,,TRUE,TRUE,,,,,,,CLR,,,,,,,,VFR,,,,,,,,,,,,METAR,65.0
KBKS 211455Z AUTO 08004KT 10SM CLR 20/12 A3016 RMK AO1 T01960121,KBKS,2018-03-21T14:55:00Z,27.2,-98.12,19.6,12.1,80,4,,10.0,30.159449,,,TRUE,TRUE,,,,,,,CLR,,,,,,,,VFR,,,,,,,,,,,,METAR,34.0
KBPC 211455Z AUTO 04003KT 10SM CLR 06/M03 A3016 RMK AO2,KBPC,2018-03-21T14:55:00Z,35.88,-101.03,6.0,-3.0,40,3,,10.0,30.159449,,,TRUE,TRUE,,,,,,,CLR,,,,,,,,VFR,,,,,,,,,,,,METAR,845.0
KCDH 211455Z AUTO VRB05G10KT 10SM CLR 12/01 A3020 RMK AO2,KCDH,2018-03-21T14:55:00Z,33.62,-92.77,12.0,1.0,0,5,10,10.0,30.200787,,,TRUE,TRUE,,,,,,,CLR,,,,,,,,VFR,,,,,,,,,,,,METAR,35.0
KC35 211455Z AUTO 03006KT 10SM CLR M02/M09 A3013 RMK AO2 T10201086,KC35,2018-03-21T14:55:00Z,43.53,-89.98,-2.0,-8.6,30,6,,10.0,30.129921,,,TRUE,TRUE,,,,,,,CLR,,,,,,,,VFR,,,,,,,,,,,,METAR,276.0
KBYY 211455Z AUTO 08009KT 10SM CLR 17/06 A3019 RMK AO2 T01740070,KBYY,2018-03-21T14:55:00Z,28.97,-95.87,17.4,7.0,80,9,,10.0,30.188976,,,TRUE,TRUE,,,,,,,CLR,,,,,,,,VFR,,,,,,,,,,,,METAR,14.0
KBXA 211455Z AUTO 33008G14KT 10SM CLR 14/05 A3016 RMK AO2 T01380053,KBXA,2018-03-21T14:55:00Z,30.82,-89.87,13.8,5.3,330,8,14,10.0,30.159449,,,TRUE,TRUE,,,,,,,CLR,,,,,,,,VFR,,,,,,,,,,,,METAR,36.0
KCEY 211455Z AUTO 32020KT 10SM FEW033 04/M04 A3005 RMK AO1,KCEY,2018-03-21T14:55:00Z,36.67,-88.37,4.0,-4.0,320,20,,10.0,30.050198,,,TRUE,TRUE,,,,,,,FEW,3300,,,,,,,VFR,,,,,,,,,,,,METAR,176.0
KJXI 211455Z AUTO 00000KT 10SM CLR 12/03 A3022 RMK AO2 T01200031,KJXI,2018-03-21T14:55:00Z,32.7,-94.95,12.0,3.1,0,0,,10.0,30.221457,,,TRUE,TRUE,,,,,,,CLR,,,,,,,,VFR,,,,,,,,,,,,METAR,127.0
KJSV 211455Z AUTO 33005KT 10SM CLR 08/01 A3022 RMK AO2,KJSV,2018-03-21T14:55:00Z,35.43,-94.8,8.0,1.0,330,5,,10.0,30.221457,,,TRUE,TRUE,,,,,,,CLR,,,,,,,,VFR,,,,,,,,,,,,METAR,161.0
KJHN 211455Z AUTO 00000KT 10SM CLR 06/M04 A3013 RMK AO2 T00601038,KJHN,2018-03-21T14:55:00Z,37.58,-101.73,6.0,-3.8,0,0,,10.0,30.129921,,,TRUE,TRUE,,,,,,,CLR,,,,,,,,VFR,,,,,,,,,,,,METAR,1013.0
KCGC 211455Z AUTO 29010G18KT 10SM CLR 16/05 A3002 RMK AO2,KCGC,2018-03-21T14:55:00Z,28.87,-82.57,16.0,5.0,290,10,18,10.0,30.02067,,,TRUE,TRUE,,,,,,,CLR,,,,,,,,VFR,,,,,,,,,,,,METAR,3.0
KCFJ 211455Z AUTO 34012G17KT 10SM CLR M01/M07 A2997 RMK AO2 T10101066,KCFJ,2018-03-21T14:55:00Z,39.98,-86.92,-1.0,-6.6,340,12,17,10.0,29.970472,,,TRUE,TRUE,,,,,,,CLR,,,,,,,,VFR,,,,,,,,,,,,METAR,244.0
KJYL 211455Z AUTO 30015G23KT 10SM CLR 10/02 A2983 RMK AO2 T00980016,KJYL,2018-03-21T14:55:00Z,32.65,-81.6,9.8,1.6,300,15,23,10.0,29.828741,,,TRUE,TRUE,,,,,,,CLR,,,,,,,,VFR,,,,,,,,,,,,METAR,57.0
KK88 211455Z AUTO 00000KT 10SM 03/00 A3024 RMK AO1 T00300001,KK88,2018-03-21T14:55:00Z,37.87,-95.38,3.0,0.1,0,0,,10.0,30.239174,,,TRUE,TRUE,,,,,,,,,,,,,,,,,,,,,,,,,,,METAR,309.0
KLAM 211455Z AUTO 00000KT 10SM CLR 05/M12 A3015 RMK AO2 T00471118,KLAM,2018-03-21T14:55:00Z,35.87,-106.27,4.7,-11.8,0,0,,10.0,30.15059,,,TRUE,TRUE,,,,,,,CLR,,,,,,,,VFR,,,,,,,,,,,,METAR,2179.0
KL18 211455Z AUTO 02009KT 10SM CLR 12/03 A3001 RMK AO2,KL18,2018-03-21T14:55:00Z,33.35,-117.25,12.0,3.0,20,9,,10.0,30.008858,,,TRUE,TRUE,,,,,,,CLR,,,,,,,,VFR,,,,,,,,,,,,METAR,216.0
KLMO 211455Z AUTO 00000KT 10SM CLR 05/M04 A3004 RMK AO2 T00471040,KLMO,2018-03-21T14:55:00Z,40.17,-105.17,4.7,-4.0,0,0,,10.0,30.041338,,,TRUE,TRUE,,,,,,,CLR,,,,,,,,VFR,,,,,,,,,,,,METAR,1541.0
OAJL 211455Z 12002KT 9999 SCT120 21/07 A2991 RMK AO2A SLP106 T02110067 53018,OAJL,2018-03-21T14:55:00Z,34.42,70.47,21.1,6.7,120,2,,6.21,29.911417,1010.6,,,TRUE,,,,,,,SCT,12000,,,,,,,VFR,1.8,,,,,,,,,,,METAR,580.0
KLNA 211455Z AUTO 28013G24KT 10SM SCT065 22/12 A2998 RMK AO2 T02170118,KLNA,2018-03-21T14:55:00Z,26.6,-80.02,21.7,11.8,280,13,24,10.0,29.97933,,,TRUE,TRUE,,,,,,,SCT,6500,,,,,,,VFR,,,,,,,,,,,,METAR,11.0
KLNL 211455Z AUTO 07003KT 10SM CLR M05/M11 A3013 RMK AO2 T10501113,KLNL,2018-03-21T14:55:00Z,46.15,-89.22,-5.0,-11.3,70,3,,10.0,30.129921,,,TRUE,TRUE,,,,,,,CLR,,,,,,,,VFR,,,,,,,,,,,,METAR,520.0
KLRU 211455Z AUTO 00000KT 10SM CLR 16/M12 A3009 RMK AO2 T01561122,KLRU,2018-03-21T14:55:00Z,32.27,-106.92,15.6,-12.2,0,0,,10.0,30.088583,,,TRUE,TRUE,,,,,,,CLR,,,,,,,,VFR,,,,,,,,,,,,METAR,1358.0
KLUM 211455Z AUTO 00000KT 10SM CLR M03/M08 A3016 RMK AO2 T10291076,KLUM,2018-03-21T14:55:00Z,44.9,-91.87,-2.9,-7.6,0,0,,10.0,30.159449,,,TRUE,TRUE,,,,,,,CLR,,,,,,,,VFR,,,,,,,,,,,,METAR,273.0
KLUA 211455Z AUTO 00000KT 5SM -SN BKN007 OVC014 00/00 A2966 RMK AO2,KLUA,2018-03-21T14:55:00Z,38.67,-78.5,0.0,0.0,0,0,,5.0,29.660433,,,TRUE,TRUE,,,,,,-SN,BKN,700,OVC,1400,,,,,IFR,,,,,,,,,,,,METAR,275.0
KM21 211455Z AUTO 31011G18KT 10SM SCT023 OVC100 01/M02 A2999 RMK AO2 T00141021,KM21,2018-03-21T14:55:00Z,37.22,-87.15,1.4,-2.1,310,11,18,10.0,29.991142,,,TRUE,TRUE,,,,,,,SCT,2300,OVC,10000,,,,,VFR,,,,,,,,,,,,METAR,129.0
KLXY 211455Z AUTO 00000KT 10SM CLR 14/01 A3021 RMK AO2 T01350009,KLXY,2018-03-21T14:55:00Z,31.63,-96.52,13.5,0.9,0,0,,10.0,30.209646,,,TRUE,TRUE,,,,,,,CLR,,,,,,,,VFR,,,,,,,,,,,,METAR,166.0
KMEZ 211455Z AUTO 34008KT 324V024 10SM CLR 11/00 A3020 RMK AO2,KMEZ,2018-03-21T14:55:00Z,34.55,-94.2,11.0,0.0,340,8,,10.0,30.200787,,,TRUE,TRUE,,,,,,,CLR,,,,,,,,VFR,,,,,,,,,,,,METAR,329.0
KEOK 211455Z AUTO 33010KT 10SM CLR 01/M08 A3014 RMK AO2,KEOK,2018-03-21T14:55:00Z,40.47,-91.42,1.0,-8.0,330,10,,10.0,30.138779,,,TRUE,TRUE,,,,,,,CLR,,,,,,,,VFR,,,,,,,,,,,,METAR,205.0
KE80 211455Z AUTO 00000KT 10SM CLR 07/M13 A3012 RMK AO2 T00661132,KE80,2018-03-21T14:55:00Z,34.65,-106.83,6.6,-13.2,0,0,,10.0,30.121063,,,TRUE,TRUE,,,,,,,CLR,,,,,,,,VFR,,,,,,,,,,,,METAR,1582.0
KDRI 211455Z AUTO 01006KT 10SM CLR 14/05 A3022 RMK AO2 T01360053,KDRI,2018-03-21T14:55:00Z,30.83,-93.33,13.6,5.3,10,6,,10.0,30.221457,,,TRUE,TRUE,,,,,,,CLR,,,,,,,,VFR,,,,,,,,,,,,METAR,63.0
KDNN 211455Z AUTO 32008G16KT 10SM OVC033 03/M01 A2992 RMK AO2,KDNN,2018-03-21T14:55:00Z,34.72,-84.87,3.0,-1.0,320,8,16,10.0,29.920275,,,TRUE,TRUE,,,,,,,OVC,3300,,,,,,,VFR,,,,,,,,,,,,METAR,216.0
KDNA 211455Z AUTO 00000KT 10SM CLR 13/M12 A3008 RMK AO2 PWINO,KDNA,2018-03-21T14:55:00Z,31.88,-106.7,13.0,-12.0,0,0,,10.0,30.079725,,,TRUE,TRUE,,,,,TRUE,,CLR,,,,,,,,VFR,,,,,,,,,,,,METAR,1253.0
KD60 211455Z AUTO 00000KT M1/4SM FZFG OVC002 M07/M07 A2999 RMK AO2,KD60,2018-03-21T14:55:00Z,48.38,-102.9,-7.0,-7.0,0,0,,0.25,29.991142,,,TRUE,TRUE,,,,,,FZFG,OVC,200,,,,,,,LIFR,,,,,,,,,,,,METAR,693.0
KD57 211455Z AUTO 00000KT 3SM BR SCT002 M04/M05 A3000 RMK AO2,KD57,2018-03-21T14:55:00Z,46.82,-101.87,-4.0,-5.0,0,0,,3.0,30.0,,,TRUE,TRUE,,,,,,BR,SCT,200,,,,,,,MVFR,,,,,,,,,,,,METAR,637.0
KD50 211455Z AUTO 20008KT 4SM BR SCT001 M07/M07 A2998 RMK AO2,KD50,2018-03-21T14:55:00Z,48.93,-103.3,-7.0,-7.0,200,8,,4.0,29.97933,,,TRUE,TRUE,,,,,,BR,SCT,100,,,,,,,MVFR,,,,,,,,,,,,METAR,595.0
KCZT 211455Z AUTO 14005KT 10SM CLR 16/10 A3015 RMK AO2,KCZT,2018-03-21T14:55:00Z,28.52,-99.82,16.0,10.0,140,5,,10.0,30.15059,,,TRUE,TRUE,,,,,,,CLR,,,,,,,,VFR,,,,,,,,,,,,METAR,183.0
KCXU 211455Z AUTO 34007G17KT 10SM CLR 12/02 A3001 RMK AO1 T01230024,KCXU,2018-03-21T14:55:00Z,31.22,-84.23,12.3,2.4,340,7,17,10.0,30.008858,,,TRUE,TRUE,,,,,,,CLR,,,,,,,,VFR,,,,,,,,,,,,METAR,53.0
KCWC 211455Z AUTO 08004KT 10SM CLR 11/01 A3022 RMK AO2 T01060011,KCWC,2018-03-21T14:55:00Z,33.85,-98.48,10.6,1.1,80,4,,10.0,30.221457,,,TRUE,TRUE,,,,,,,CLR,,,,,,,,VFR,,,,,,,,,,,,METAR,305.0
KCSQ 211455Z AUTO 01006KT 10SM BKN011 OVC038 01/M01 A3019 RMK AO2,KCSQ,2018-03-21T14:55:00Z,41.02,-94.37,1.0,-1.0,10,6,,10.0,30.188976,,,TRUE,TRUE,,,,,,,BKN,1100,OVC,3800,,,,,MVFR,,,,,,,,,,,,METAR,394.0
KCPT 211455Z AUTO 20005KT 10SM CLR 13/02 A3023 RMK AO2,KCPT,2018-03-21T14:55:00Z,32.35,-97.43,13.0,2.0,200,5,,10.0,30.230314,,,TRUE,TRUE,,,,,,,CLR,,,,,,,,VFR,,,,,,,,,,,,METAR,260.0
KCNC 211455Z AUTO 34007KT 10SM CLR 01/M03 A3017 RMK AO2,KCNC,2018-03-21T14:55:00Z,41.02,-93.37,1.0,-3.0,340,7,,10.0,30.171259,,,TRUE,TRUE,,,,,,,CLR,,,,,,,,VFR,,,,,,,,,,,,METAR,320.0
KCMR 211455Z AUTO 21004KT 10SM FEW039 09/M11 A3008 RMK AO2,KCMR,2018-03-21T14:55:00Z,35.3,-112.2,9.0,-11.0,210,4,,10.0,30.079725,,,TRUE,TRUE,,,,,,,FEW,3900,,,,,,,VFR,,,,,,,,,,,,METAR,2036.0
KMMH 211455Z AUTO 13004KT 7SM UP SCT025 BKN034 OVC047 01/01 A2999 RMK AO2 T00090009,KMMH,2018-03-21T14:55:00Z,37.62,-118.82,0.9,0.9,130,4,,7.0,29.991142,,,TRUE,TRUE,,,,,,UP,SCT,2500,BKN,3400,OVC,4700,,,VFR,,,,,,,,,,,,METAR,2173.0
KMLJ 211455Z AUTO 29017G22KT 10SM OVC034 07/00 A2989 RMK AO2,KMLJ,2018-03-21T14:55:00Z,33.15,-83.23,7.0,0.0,290,17,22,10.0,29.890747,,,TRUE,TRUE,,,,,,,OVC,3400,,,,,,,VFR,,,,,,,,,,,,METAR,117.0
KMGC 211455Z AUTO 36013G20KT 10SM CLR 00/M05 A3003 RMK AO2,KMGC,2018-03-21T14:55:00Z,41.7,-86.82,0.0,-5.0,360,13,20,10.0,30.029528,,,TRUE,TRUE,,,,,,,CLR,,,,,,,,VFR,,,,,,,,,,,,METAR,200.0
KOBE 211455Z AUTO 30015G19KT 10SM BKN029 BKN036 19/12 A2998 RMK AO2,KOBE,2018-03-21T14:55:00Z,27.27,-80.85,19.0,12.0,300,15,19,10.0,29.97933,,,TRUE,TRUE,,,,,,,BKN,2900,BKN,3600,,,,,MVFR,,,,,,,,,,,,METAR,11.0
KOLE 211455Z AUTO 04008KT 10SM SCT110 M05/M10 A2972 RMK AO2,KOLE,2018-03-21T14:55:00Z,42.23,-78.37,-5.0,-10.0,40,8,,10.0,29.719488,,,TRUE,TRUE,,,,,,,SCT,11000,,,,,,,VFR,,,,,,,,,,,,METAR,651.0
KOJA 211455Z AUTO 13003KT 10SM CLR 08/02 A3020 RMK AO2,KOJA,2018-03-21T14:55:00Z,35.55,-98.67,8.0,2.0,130,3,,10.0,30.200787,,,TRUE,TRUE,,,,,,,CLR,,,,,,,,VFR,,,,,,,,,,,,METAR,490.0
KOOA 211455Z AUTO 03004KT 10SM CLR 01/M04 A3017 RMK AO2 T00051040,KOOA,2018-03-21T14:55:00Z,41.23,-92.5,0.5,-4.0,30,4,,10.0,30.171259,,,TRUE,TRUE,,,,,,,CLR,,,,,,,,VFR,,,,,,,,,,,,METAR,256.0
KOZS 211455Z AUTO 34010KT 10SM BKN019 OVC043 05/00 A3016 RMK AO2,KOZS,2018-03-21T14:55:00Z,37.97,-92.68,5.0,0.0,340,10,,10.0,30.159449,,,TRUE,TRUE,,,,,,,BKN,1900,OVC,4300,,,,,MVFR,,,,,,,,,,,,METAR,324.0
KOWP 211455Z AUTO 00000KT 10SM CLR 08/01 A3024 RMK AO2 T00800007,KOWP,2018-03-21T14:55:00Z,36.18,-96.15,8.0,0.7,0,0,,10.0,30.239174,,,TRUE,TRUE,,,,,,,CLR,,,,,,,,VFR,,,,,,,,,,,,METAR,272.0
KFEP 211455Z AUTO 36012KT 10SM CLR M01/M07 A3013 RMK AO2 T10111075,KFEP,2018-03-21T14:55:00Z,42.25,-89.58,-1.1,-7.5,360,12,,10.0,30.129921,,,TRUE,TRUE,,,,,,,CLR,,,,,,,,VFR,,,,,,,,,,,,METAR,262.0
KFBR 211455Z AUTO 30003KT 10SM SCT035 SCT041 OVC065 00/00 A3003 RMK AO2 T00000000,KFBR,2018-03-21T14:55:00Z,41.4,-110.4,0.0,0.0,300,3,,10.0,30.029528,,,TRUE,TRUE,,,,,,,SCT,3500,SCT,4100,OVC,6500,,,VFR,,,,,,,,,,,,METAR,2144.0
KF46 211455Z AUTO 13008KT 10SM CLR 14/02 A3022 RMK AO2 T01370020,KF46,2018-03-21T14:55:00Z,32.93,-96.43,13.7,2.0,130,8,,10.0,30.221457,,,TRUE,TRUE,,,,,,,CLR,,,,,,,,VFR,,,,,,,,,,,,METAR,176.0
KEZS 211455Z AUTO 02004KT 10SM CLR M01/M09 A3015 RMK AO2 T10131094,KEZS,2018-03-21T14:55:00Z,44.78,-88.57,-1.3,-9.4,20,4,,10.0,30.15059,,,TRUE,TRUE,,,,,,,CLR,,,,,,,,VFR,,,,,,,,,,,,METAR,248.0
KEQA 211455Z AUTO 00000KT 10SM CLR 06/01 A3021 RMK AO2,KEQA,2018-03-21T14:55:00Z,37.78,-96.82,6.0,1.0,0,0,,10.0,30.209646,,,TRUE,TRUE,,,,,,,CLR,,,,,,,,VFR,,,,,,,,,,,,METAR,420.0
KEGV 211455Z AUTO 03003KT 10SM CLR M06/M12 A3011 RMK AO2 T10611120,KEGV,2018-03-21T14:55:00Z,45.93,-89.27,-6.1,-12.0,30,3,,10.0,30.109253,,,TRUE,TRUE,,,,,,,CLR,,,,,,,,VFR,,,,,,,,,,,,METAR,500.0
KEDC 211455Z AUTO 10006KT 10SM CLR 14/03 A3022 RMK AO2,KEDC,2018-03-21T14:55:00Z,30.4,-97.57,14.0,3.0,100,6,,10.0,30.221457,,,TRUE,TRUE,,,,,,,CLR,,,,,,,,VFR,,,,,,,,,,,,METAR,189.0
KECS 211455Z AUTO 02005KT 10SM CLR 00/M05 A3000 RMK AO2,KECS,2018-03-21T14:55:00Z,43.88,-104.32,0.0,-5.0,20,5,,10.0,30.0,,,TRUE,TRUE,,,,,,,CLR,,,,,,,,VFR,,,,,,,,,,,,METAR,1273.0
KDZB 211455Z AUTO 14008KT 10SM CLR 17/01 A3019 RMK AO2 T01650007,KDZB,2018-03-21T14:55:00Z,30.53,-98.37,16.5,0.7,140,8,,10.0,30.188976,,,TRUE,TRUE,,,,,,,CLR,,,,,,,,VFR,,,,,,,,,,,,METAR,334.0
KDUX 211455Z AUTO 07007KT 10SM CLR 06/M05 A3013 RMK AO2 T00571047,KDUX,2018-03-21T14:55:00Z,35.85,-102.02,5.7,-4.7,70,7,,10.0,30.129921,,,TRUE,TRUE,,,,,,,CLR,,,,,,,,VFR,,,,,,,,,,,,METAR,1129.0
KDLO 211455Z AUTO 00000KT 3SM BR SCT070 BKN080 BKN120 11/10 A2991 RMK AO2 60006 T01100098,KDLO,2018-03-21T14:55:00Z,35.75,-119.23,11.0,9.8,0,0,,3.0,29.911417,,,TRUE,TRUE,,,,,,BR,SCT,7000,BKN,8000,BKN,12000,,,MVFR,,,,,,,0.06,,,,,METAR,96.0
KDKB 211455Z AUTO 01012KT 10SM SCT026 01/M06 A3007 RMK AO2 T00051061 TSNO,KDKB,2018-03-21T14:55:00Z,41.93,-88.7,0.5,-6.1,10,12,,10.0,30.070866,,,TRUE,TRUE,,,TRUE,,,,SCT,2600,,,,,,,VFR,,,,,,,,,,,,METAR,279.0
KCZL 211455Z AUTO 32012G21KT 290V350 10SM SCT037 SCT045 06/M03 A2994 RMK AO2 T00561030,KCZL,2018-03-21T14:55:00Z,34.47,-84.93,5.6,-3.0,320,12,21,10.0,29.940945,,,TRUE,TRUE,,,,,,,SCT,3700,SCT,4500,,,,,VFR,,,,,,,,,,,,METAR,195.0
KCXP 211455Z AUTO 00000KT 10SM FEW027 BKN042 06/04 A2989 RMK AO2,KCXP,2018-03-21T14:55:00Z,39.18,-119.73,6.0,4.0,0,0,,10.0,29.890747,,,TRUE,TRUE,,,,,,,FEW,2700,BKN,4200,,,,,VFR,,,,,,,,,,,,METAR,1435.0
KCWV 211455Z AUTO 25019G29KT 10SM CLR 12/01 A2985 RMK AO2 T01160010,KCWV,2018-03-21T14:55:00Z,32.2,-81.87,11.6,1.0,250,19,29,10.0,29.84941,,,TRUE,TRUE,,,,,,,CLR,,,,,,,,VFR,,,,,,,,,,,,METAR,33.0
KCUL 211455Z AUTO 33018G24KT 10SM SCT025 02/M02 A3002 RMK AO2 T00231023,KCUL,2018-03-21T14:55:00Z,38.08,-88.12,2.3,-2.3,330,18,24,10.0,30.02067,,,TRUE,TRUE,,,,,,,SCT,2500,,,,,,,VFR,,,,,,,,,,,,METAR,118.0
KCNW 211455Z 21004KT 10SM SKC 14/03 A3022,KCNW,2018-03-21T14:55:00Z,31.63,-97.07,14.0,3.0,210,4,,10.0,30.221457,,,,,,,,,,,SKC,,,,,,,,VFR,,,,,,,,,,,,METAR,156.0
KCLI 211455Z AUTO 35004KT 10SM CLR M02/M11 A3014 RMK AO2 T10231108,KCLI,2018-03-21T14:55:00Z,44.62,-88.73,-2.3,-10.8,350,4,,10.0,30.138779,,,TRUE,TRUE,,,,,,,CLR,,,,,,,,VFR,,,,,,,,,,,,METAR,250.0
KCIR 211455Z AUTO 34019G23KT 10SM CLR 05/M02 A3008 RMK AO2 T00451023,KCIR,2018-03-21T14:55:00Z,37.07,-89.22,4.5,-2.3,340,19,23,10.0,30.079725,,,TRUE,TRUE,,,,,,,CLR,,,,,,,,VFR,,,,,,,,,,,,METAR,98.0
PAUT 211455Z AUTO 13010KT 10SM OVC008 04/03 A3062 RMK AO2 T00360026,PAUT,2018-03-21T14:55:00Z,54.15,-165.6,3.6,2.6,130,10,,10.0,30.620079,,,TRUE,TRUE,,,,,,,OVC,800,,,,,,,IFR,,,,,,,,,,,,METAR,25.0
KPBH 211455Z AUTO 16003KT 10SM CLR M05/M12 A3012 RMK AO2 T10531116,KPBH,2018-03-21T14:55:00Z,45.7,-90.4,-5.3,-11.6,160,3,,10.0,30.121063,,,TRUE,TRUE,,,,,,,CLR,,,,,,,,VFR,,,,,,,,,,,,METAR,449.0
KFSW 211455Z AUTO 36009KT 10SM CLR 01/M08 A3014 RMK AO2,KFSW,2018-03-21T14:55:00Z,40.67,-91.32,1.0,-8.0,360,9,,10.0,30.138779,,,TRUE,TRUE,,,,,,,CLR,,,,,,,,VFR,,,,,,,,,,,,METAR,221.0
KFRR 211455Z AUTO 36004KT 2 1/2SM OVC007 00/M01 A2966 RMK AO1,KFRR,2018-03-21T14:55:00Z,38.92,-78.25,0.0,-1.0,360,4,,2.5,29.660433,,,TRUE,TRUE,,,,,,,OVC,700,,,,,,,IFR,,,,,,,,,,,,METAR,216.0
KFOA 211455Z AUTO 34011G16KT 10SM SCT023 03/M03 A3005 RMK AO2 T00251030,KFOA,2018-03-21T14:55:00Z,38.67,-88.45,2.5,-3.0,340,11,16,10.0,30.050198,,,TRUE,TRUE,,,,,,,SCT,2300,,,,,,,VFR,,,,,,,,,,,,METAR,144.0
KFLY 211455Z AUTO 22003KT 10SM CLR 03/M12 A3009 RMK AO2 T00251116,KFLY,2018-03-21T14:55:00Z,38.95,-104.57,2.5,-11.6,220,3,,10.0,30.088583,,,TRUE,TRUE,,,,,,,CLR,,,,,,,,VFR,,,,,,,,,,,,METAR,2096.0
KRFI 211455Z AUTO 00000KT 10SM CLR 13/04 A3022 RMK AO2 T01340040,KRFI,2018-03-21T14:55:00Z,32.15,-94.85,13.4,4.0,0,0,,10.0,30.221457,,,TRUE,TRUE,,,,,,,CLR,,,,,,,,VFR,,,,,,,,,,,,METAR,135.0
KPYX 211455Z AUTO 18005KT 10SM CLR 09/00 A3014 RMK AO2 T00871001,KPYX,2018-03-21T14:55:00Z,36.42,-100.75,8.7,-0.1,180,5,,10.0,30.138779,,,TRUE,TRUE,,,,,,,CLR,,,,,,,,VFR,,,,,,,,,,,,METAR,889.0
KPVJ 211455Z AUTO 00000KT 10SM CLR 10/02 A3021 RMK AO2 T01000016,KPVJ,2018-03-21T14:55:00Z,34.72,-97.22,10.0,1.6,0,0,,10.0,30.209646,,,TRUE,TRUE,,,,,,,CLR,,,,,,,,VFR,,,,,,,,,,,,METAR,295.0
KPVF 211455Z AUTO 15011G17KT 2SM SCT007 BKN011 10/10 A2985 RMK AO1 P0010,KPVF,2018-03-21T14:55:00Z,38.72,-120.75,10.0,10.0,150,11,17,2.0,29.84941,,,TRUE,TRUE,,,,,,,SCT,700,BKN,1100,,,,,IFR,,,,,,0.1,,,,,,METAR,789.0
KPUJ 211455Z AUTO 31014G20KT 270V340 10SM OVC022 05/01 A2990 RMK AO2,KPUJ,2018-03-21T14:55:00Z,33.92,-84.93,5.0,1.0,310,14,20,10.0,29.899607,,,TRUE,TRUE,,,,,,,OVC,2200,,,,,,,MVFR,,,,,,,,,,,,METAR,393.0
KPTB 211455Z AUTO 33007KT 2 1/2SM -SN OVC007 00/M01 A2964 RMK AO2 T00031010,KPTB,2018-03-21T14:55:00Z,37.17,-77.52,0.3,-1.0,330,7,,2.5,29.639763,,,TRUE,TRUE,,,,,,-SN,OVC,700,,,,,,,IFR,,,,,,,,,,,,METAR,59.0
KPSN 211455Z AUTO 00000KT 10SM CLR 15/01 A3022 RMK AO2 T01510019,KPSN,2018-03-21T14:55:00Z,31.78,-95.7,15.1,1.9,0,0,,10.0,30.221457,,,TRUE,TRUE,,,,,,,CLR,,,,,,,,VFR,,,,,,,,,,,,METAR,129.0
KPSK 211455Z AUTO 27007KT 3SM -SN SCT019 BKN024 OVC040 02/00 A2961 RMK AO2 60004 T00161001,KPSK,2018-03-21T14:55:00Z,37.12,-80.67,1.6,-0.1,270,7,,3.0,29.610237,,,TRUE,TRUE,,,,,,-SN,SCT,1900,BKN,2400,OVC,4000,,,MVFR,,,,,,,0.04,,,,,METAR,642.0
KPKV 211455Z AUTO 08011KT 10SM CLR 19/06 A3018 RMK AO2 T01900064,KPKV,2018-03-21T14:55:00Z,28.65,-96.68,19.0,6.4,80,11,,10.0,30.180119,,,TRUE,TRUE,,,,,,,CLR,,,,,,,,VFR,,,,,,,,,,,,METAR,9.0
KPEZ 211455Z AUTO 12004KT 10SM CLR 15/04 A3019 RMK AO2 T01510039,KPEZ,2018-03-21T14:55:00Z,28.95,-98.52,15.1,3.9,120,4,,10.0,30.188976,,,TRUE,TRUE,,,,,,,CLR,,,,,,,,VFR,,,,,,,,,,,,METAR,132.0
KPCZ 211455Z AUTO 35004KT 10SM CLR M01/M11 A3015 RMK AO2 T10101107,KPCZ,2018-03-21T14:55:00Z,44.33,-89.02,-1.0,-10.7,350,4,,10.0,30.15059,,,TRUE,TRUE,,,,,,,CLR,,,,,,,,VFR,,,,,,,,,,,,METAR,252.0
KPCM 211455Z AUTO 30018G24KT 10SM BKN036 19/08 A3003 RMK AO2,KPCM,2018-03-21T14:55:00Z,28.0,-82.17,19.0,8.0,300,18,24,10.0,30.029528,,,TRUE,TRUE,,,,,,,BKN,3600,,,,,,,VFR,,,,,,,,,,,,METAR,47.0
KPCD 211455Z AUTO 34014KT 10SM SCT035 05/M03 A3009 RMK AO2 T00451030,KPCD,2018-03-21T14:55:00Z,37.87,-89.87,4.5,-3.0,340,14,,10.0,30.088583,,,TRUE,TRUE,,,,,,,SCT,3500,,,,,,,VFR,,,,,,,,,,,,METAR,113.0
KSMS 211455Z AUTO 27018KT 10SM BKN042 BKN048 BKN055 10/M01 A2972 RMK AO2,KSMS,2018-03-21T14:55:00Z,34.0,-80.37,10.0,-1.0,270,18,,10.0,29.719488,,,TRUE,TRUE,,,,,,,BKN,4200,BKN,4800,BKN,5500,,,VFR,,,,,,,,,,,,METAR,56.0
KSLO 211455Z AUTO 35015G19KT 10SM CLR 03/M03 A3006 RMK AO2 T00271031,KSLO,2018-03-21T14:55:00Z,38.65,-88.97,2.7,-3.1,350,15,19,10.0,30.059055,,,TRUE,TRUE,,,,,,,CLR,,,,,,,,VFR,,,,,,,,,,,,METAR,175.0
KSAR 211455Z AUTO 34012G18KT 10SM CLR 03/M03 A3010 RMK AO2 T00301035,KSAR,2018-03-21T14:55:00Z,38.15,-89.7,3.0,-3.5,340,12,18,10.0,30.100393,,,TRUE,TRUE,,,,,,,CLR,,,,,,,,VFR,,,,,,,,,,,,METAR,164.0
KRZL 211455Z AUTO 36013G18KT 10SM SCT023 02/M08 A3001 RMK AO2,KRZL,2018-03-21T14:55:00Z,40.95,-87.18,2.0,-8.0,360,13,18,10.0,30.008858,,,TRUE,TRUE,,,,,,,SCT,2300,,,,,,,VFR,,,,,,,,,,,,METAR,213.0
KRSV 211455Z AUTO 35014G22KT 10SM SCT019 00/M03 A3001 RMK AO2 T10011034,KRSV,2018-03-21T14:55:00Z,39.02,-87.65,-0.1,-3.4,350,14,22,10.0,30.008858,,,TRUE,TRUE,,,,,,,SCT,1900,,,,,,,VFR,,,,,,,,,,,,METAR,141.0
KRRL 211455Z AUTO 00000KT 10SM CLR M05/M11 A3014 RMK AO2 T10491113,KRRL,2018-03-21T14:55:00Z,45.2,-89.72,-4.9,-11.3,0,0,,10.0,30.138779,,,TRUE,TRUE,,,,,,,CLR,,,,,,,,VFR,,,,,,,,,,,,METAR,401.0
KSUW 211455Z AUTO 00000KT 10SM OVC110 M05/M08 A3021 RMK AO2 T10471085,KSUW,2018-03-21T14:55:00Z,46.68,-92.1,-4.7,-8.5,0,0,,10.0,30.209646,,,TRUE,TRUE,,,,,,,OVC,11000,,,,,,,VFR,,,,,,,,,,,,METAR,206.0
KSNK 211455Z AUTO 15013KT 10SM CLR 12/M03 A3012 RMK AO2 T01211032,KSNK,2018-03-21T14:55:00Z,32.7,-100.95,12.1,-3.2,150,13,,10.0,30.121063,,,TRUE,TRUE,,,,,,,CLR,,,,,,,,VFR,,,,,,,,,,,,METAR,741.0
KGMJ 211455Z AUTO 35006KT 10SM CLR 06/02 A3023 RMK AO2,KGMJ,2018-03-21T14:55:00Z,36.6,-94.73,6.0,2.0,350,6,,10.0,30.230314,,,TRUE,TRUE,,,,,,,CLR,,,,,,,,VFR,,,,,,,,,,,,METAR,254.0
KGCM 211455Z AUTO 00000KT 10SM CLR 05/00 A3025 RMK AO2,KGCM,2018-03-21T14:55:00Z,36.3,-95.48,5.0,0.0,0,0,,10.0,30.250984,,,TRUE,TRUE,,,,,,,CLR,,,,,,,,VFR,,,,,,,,,,,,METAR,221.0
KGCD 211455Z AUTO 00000KT 10SM SCT034 BKN040 BKN049 06/02 A2977 RMK AO2 T00600015,KGCD,2018-03-21T14:55:00Z,44.38,-118.97,6.0,1.5,0,0,,10.0,29.769686,,,TRUE,TRUE,,,,,,,SCT,3400,BKN,4000,BKN,4900,,,VFR,,,,,,,,,,,,METAR,1127.0
KFXY 211455Z AUTO 00000KT 10SM OVC048 M01/M03 A3016 RMK AO2,KFXY,2018-03-21T14:55:00Z,43.23,-93.62,-1.0,-3.0,0,0,,10.0,30.159449,,,TRUE,TRUE,,,,,,,OVC,4800,,,,,,,VFR,,,,,,,,,,,,METAR,375.0
KFWB 211455Z AUTO 31006KT 10SM BKN019 BKN025 05/00 A3018 RMK AO2,KFWB,2018-03-21T14:55:00Z,36.7,-93.4,5.0,0.0,310,6,,10.0,30.180119,,,TRUE,TRUE,,,,,,,BKN,1900,BKN,2500,,,,,MVFR,,,,,,,,,,,,METAR,406.0
KTQH 211455Z AUTO 36004KT 10SM CLR 07/02 A3022 RMK AO2,KTQH,2018-03-21T14:55:00Z,35.93,-95.0,7.0,2.0,360,4,,10.0,30.221457,,,TRUE,TRUE,,,,,,,CLR,,,,,,,,VFR,,,,,,,,,,,,METAR,266.0
KTNB 211455Z AUTO 30015G25KT 3SM -SN OVC015 M03/M05 A2959 RMK AO2 T10271051,KTNB,2018-03-21T14:55:00Z,36.2,-81.65,-2.7,-5.1,300,15,25,3.0,29.589567,,,TRUE,TRUE,,,,,,-SN,OVC,1500,,,,,,,MVFR,,,,,,,,,,,,METAR,911.0
KTEX 211455Z AUTO 00000KT 10SM SCT070 OVC090 00/M08 A3014 RMK AO2 T00011085,KTEX,2018-03-21T14:55:00Z,37.95,-107.9,0.1,-8.5,0,0,,10.0,30.138779,,,TRUE,TRUE,,,,,,,SCT,7000,OVC,9000,,,,,VFR,,,,,,,,,,,,METAR,2769.0
KSYF 211455Z AUTO 24005KT 10SM SCT110 00/M03 A3009 RMK AO2 T00021034,KSYF,2018-03-21T14:55:00Z,39.77,-101.8,0.2,-3.4,240,5,,10.0,30.088583,,,TRUE,TRUE,,,,,,,SCT,11000,,,,,,,VFR,,,,,,,,,,,,METAR,1025.0
KSVE 211455Z AUTO 00000KT 5SM BR OVC007 04/03 A2986 RMK AO2,KSVE,2018-03-21T14:55:00Z,40.37,-120.57,4.0,3.0,0,0,,5.0,29.861221,,,TRUE,TRUE,,,,,,BR,OVC,700,,,,,,,IFR,,,,,,,,,,,,METAR,1263.0
KGZL 211455Z AUTO 33004KT 10SM CLR 09/M02 A3024 RMK AO2,KGZL,2018-03-21T14:55:00Z,35.28,-95.1,9.0,-2.0,330,4,,10.0,30.239174,,,TRUE,TRUE,,,,,,,CLR,,,,,,,,VFR,,,,,,,,,,,,METAR,183.0
KGYB 211455Z AUTO 09005KT 10SM CLR 15/05 A3021 RMK AO2 T01500054,KGYB,2018-03-21T14:55:00Z,30.17,-96.98,15.0,5.4,90,5,,10.0,30.209646,,,TRUE,TRUE,,,,,,,CLR,,,,,,,,VFR,,,,,,,,,,,,METAR,148.0
KGWB 211455Z AUTO 36012G18KT 10SM SCT030 SCT055 00/M07 A2993 RMK AO2,KGWB,2018-03-21T14:55:00Z,41.3,-85.07,0.0,-7.0,360,12,18,10.0,29.929134,,,TRUE,TRUE,,,,,,,SCT,3000,SCT,5500,,,,,VFR,,,,,,,,,,,,METAR,269.0
KHVE 211455Z AUTO 00000KT 10SM SCT075 OVC085 05/M12 A3005 RMK AO2,KHVE,2018-03-21T14:55:00Z,38.42,-110.7,5.0,-12.0,0,0,,10.0,30.050198,,,TRUE,TRUE,,,,,,,SCT,7500,OVC,8500,,,,,VFR,,,,,,,,,,,,METAR,1350.0
KHSB 211455Z AUTO 33011G19KT 10SM CLR 04/M02 A3005 RMK AO2 T00361023,KHSB,2018-03-21T14:55:00Z,37.82,-88.55,3.6,-2.3,330,11,19,10.0,30.050198,,,TRUE,TRUE,,,,,,,CLR,,,,,,,,VFR,,,,,,,,,,,,METAR,121.0
KHRX 211455Z AUTO 12003KT 10SM CLR 05/M06 A3011 RMK AO2 T00451059,KHRX,2018-03-21T14:55:00Z,34.87,-102.33,4.5,-5.9,120,3,,10.0,30.109253,,,TRUE,TRUE,,,,,,,CLR,,,,,,,,VFR,,,,,,,,,,,,METAR,1154.0
KHMP 211455Z AUTO 32007G15KT 280V010 10SM BKN027 OVC032 05/M01 A2991 RMK AO2 T00521008,KHMP,2018-03-21T14:55:00Z,33.38,-84.33,5.2,-0.8,320,7,15,10.0,29.911417,,,TRUE,TRUE,,,,,,,BKN,2700,OVC,3200,,,,,MVFR,,,,,,,,,,,,METAR,269.0
KHDC 211455Z AUTO 35010KT 10SM CLR 13/06 A3017 RMK AO2,KHDC,2018-03-21T14:55:00Z,30.52,-90.42,13.0,6.0,350,10,,10.0,30.171259,,,TRUE,TRUE,,,,,,,CLR,,,,,,,,VFR,,,,,,,,,,,,METAR,13.0
KIGQ 211455Z AUTO 36012G20KT 10SM OVC023 00/M04 A3004 RMK AO2 T00001042,KIGQ,2018-03-21T14:55:00Z,41.53,-87.53,0.0,-4.2,360,12,20,10.0,30.041338,,,TRUE,TRUE,,,,,,,OVC,2300,,,,,,,MVFR,,,,,,,,,,,,METAR,188.0
KI75 211455Z AUTO 33007KT 10SM CLR 01/M02 A3018 RMK AO2 T00121025,KI75,2018-03-21T14:55:00Z,41.05,-93.68,1.2,-2.5,330,7,,10.0,30.180119,,,TRUE,TRUE,,,,,,,CLR,,,,,,,,VFR,,,,,,,,,,,,METAR,339.0
KI68 211455Z AUTO 35013G16KT 2 1/2SM -SN OVC011 M01/M02 A2980 RMK AO2,KI68,2018-03-21T14:55:00Z,39.47,-84.25,-1.0,-2.0,350,13,16,2.5,29.799213,,,TRUE,TRUE,,,,,,-SN,OVC,1100,,,,,,,IFR,,,,,,,,,,,,METAR,274.0
KHZL 211455Z AUTO 01007KT 3/4SM -SN OVC009 M01/M03 A2965 RMK AO2 P0001,KHZL,2018-03-21T14:55:00Z,40.98,-76.0,-1.0,-3.0,10,7,,0.75,29.648623,,,TRUE,TRUE,,,,,,-SN,OVC,900,,,,,,,LIFR,,,,,,0.01,,,,,,METAR,489.0
KY51 211455Z AUTO 00000KT 10SM CLR M01/M08 A3012 RMK AO1 T10091082,KY51,2018-03-21T14:55:00Z,43.58,-90.9,-0.9,-8.2,0,0,,10.0,30.121063,,,TRUE,TRUE,,,,,,,CLR,,,,,,,,VFR,,,,,,,,,,,,METAR,394.0
KXBP 211455Z AUTO 12004KT 10SM CLR 14/00 A3023 RMK AO2 T01401003,KXBP,2018-03-21T14:55:00Z,33.18,-97.83,14.0,-0.3,120,4,,10.0,30.230314,,,TRUE,TRUE,,,,,,,CLR,,,,,,,,VFR,,,,,,,,,,,,METAR,260.0
KWWR 211455Z AUTO 14007KT 10SM CLR 11/M02 A3020 RMK AO2,KWWR,2018-03-21T14:55:00Z,36.45,-99.52,11.0,-2.0,140,7,,10.0,30.200787,,,TRUE,TRUE,,,,,,,CLR,,,,,,,,VFR,,,,,,,,,,,,METAR,667.0
KW96 211455Z AUTO 32006KT 1/2SM FG OVC004 00/00 A2961 RMK AO1 P0002 60009 T00000000,KW96,2018-03-21T14:55:00Z,37.5,-77.12,0.0,0.0,320,6,,0.5,29.610237,,,TRUE,TRUE,,,,,,FG,OVC,400,,,,,,,LIFR,,,,,,0.02,0.09,,,,,METAR,37.0
KW31 211455Z AUTO 33009KT 7SM OVC009 M01/M01 A2963 RMK AO1 T10071007,KW31,2018-03-21T14:55:00Z,36.95,-78.18,-0.7,-0.7,330,9,,7.0,29.630905,,,TRUE,TRUE,,,,,,,OVC,900,,,,,,,IFR,,,,,,,,,,,,METAR,162.0
KVJI 211455Z AUTO 29011G16KT 7SM -SN OVC016 01/M02 A2967 RMK AO2 T00071016,KVJI,2018-03-21T14:55:00Z,36.67,-82.02,0.7,-1.6,290,11,16,7.0,29.66929,,,TRUE,TRUE,,,,,,-SN,OVC,1600,,,,,,,MVFR,,,,,,,,,,,,METAR,631.0
KUVA 211455Z AUTO 11009KT 10SM CLR 15/04 A3017 RMK AO2 T01510038,KUVA,2018-03-21T14:55:00Z,29.22,-99.75,15.1,3.8,110,9,,10.0,30.171259,,,TRUE,TRUE,,,,,,,CLR,,,,,,,,VFR,,,,,,,,,,,,METAR,287.0
KUTA 211455Z AUTO 34008G14KT 10SM 08/02 A3015 RMK AO2 TSNO,KUTA,2018-03-21T14:55:00Z,34.68,-90.35,8.0,2.0,340,8,14,10.0,30.15059,,,TRUE,TRUE,,,TRUE,,,,,,,,,,,,,,,,,,,,,,,,METAR,59.0
KUOX 211455Z AUTO 33012G20KT 10SM CLR 08/01 A3012 RMK AO2,KUOX,2018-03-21T14:55:00Z,34.38,-89.53,8.0,1.0,330,12,20,10.0,30.121063,,,TRUE,TRUE,,,,,,,CLR,,,,,,,,VFR,,,,,,,,,,,,METAR,137.0
KTYQ 211455Z AUTO 35013G21KT 10SM SCT090 BKN120 M02/M06 A2994 RMK AO2 T10161057,KTYQ,2018-03-21T14:55:00Z,40.03,-86.25,-1.6,-5.7,350,13,21,10.0,29.940945,,,TRUE,TRUE,,,,,,,SCT,9000,BKN,12000,,,,,VFR,,,,,,,,,,,,METAR,281.0
KJAQ 211455Z AUTO 14011G21KT 7SM OVC006 12/12 A2984 RMK AO1 T01160116,KJAQ,2018-03-21T14:55:00Z,38.37,-120.8,11.6,11.6,140,11,21,7.0,29.840551,,,TRUE,TRUE,,,,,,,OVC,600,,,,,,,IFR,,,,,,,,,,,,METAR,512.0
KIZA 211455Z AUTO 10013G18KT 10SM -RA SCT024 OVC038 12/10 A2993 RMK AO2 P0002,KIZA,2018-03-21T14:55:00Z,34.6,-120.07,12.0,10.0,100,13,18,10.0,29.929134,,,TRUE,TRUE,,,,,,-RA,SCT,2400,OVC,3800,,,,,VFR,,,,,,0.02,,,,,,METAR,205.0
KIOB 211455Z AUTO 00000KT 10SM OVC012 M01/M02 A2980 RMK AO2,KIOB,2018-03-21T14:55:00Z,38.05,-83.98,-1.0,-2.0,0,0,,10.0,29.799213,,,TRUE,TRUE,,,,,,,OVC,1200,,,,,,,MVFR,,,,,,,,,,,,METAR,311.0
KVTI 211455Z AUTO 03005KT 10SM CLR 02/M07 A3015 RMK AO2 T00201074,KVTI,2018-03-21T14:55:00Z,42.22,-92.02,2.0,-7.4,30,5,,10.0,30.15059,,,TRUE,TRUE,,,,,,,CLR,,,,,,,,VFR,,,,,,,,,,,,METAR,255.0
KAVQ 211455Z AUTO 12010KT 10SM CLR 13/M06 A3001 RMK AO2 T01321062,KAVQ,2018-03-21T14:55:00Z,32.4,-111.22,13.2,-6.2,120,10,,10.0,30.008858,,,TRUE,TRUE,,,,,,,CLR,,,,,,,,VFR,,,,,,,,,,,,METAR,619.0
KASW 211455Z AUTO 36012G15KT 10SM CLR 00/M07 A2995 RMK AO2,KASW,2018-03-21T14:55:00Z,41.27,-85.83,0.0,-7.0,360,12,15,10.0,29.949802,,,TRUE,TRUE,,,,,,,CLR,,,,,,,,VFR,,,,,,,,,,,,METAR,259.0
KARM 211455Z AUTO 08008KT 10SM CLR 17/05 A3020 RMK AO2 T01660047,KARM,2018-03-21T14:55:00Z,29.25,-96.15,16.6,4.7,80,8,,10.0,30.200787,,,TRUE,TRUE,,,,,,,CLR,,,,,,,,VFR,,,,,,,,,,,,METAR,31.0
KALM 211455Z AUTO 16003KT 10SM CLR 09/M07 A3008 RMK AO2,KALM,2018-03-21T14:55:00Z,32.82,-105.97,9.0,-7.0,160,3,,10.0,30.079725,,,TRUE,TRUE,,,,,,,CLR,,,,,,,,VFR,,,,,,,,,,,,METAR,1279.0
KAJG 211455Z AUTO 33012KT 10SM BKN018 BKN120 00/M03 A3001 RMK AO2 T00001028,KAJG,2018-03-21T14:55:00Z,38.62,-87.73,0.0,-2.8,330,12,,10.0,30.008858,,,TRUE,TRUE,,,,,,,BKN,1800,BKN,12000,,,,,MVFR,,,,,,,,,,,,METAR,131.0
KAIB 211455Z AUTO 00000KT 10SM OVC090 01/M06 A3012 RMK AO2,KAIB,2018-03-21T14:55:00Z,38.23,-108.57,1.0,-6.0,0,0,,10.0,30.121063,,,TRUE,TRUE,,,,,,,OVC,9000,,,,,,,VFR,,,,,,,,,,,,METAR,1811.0
KAFO 211455Z AUTO 00000KT 10SM BKN045 OVC060 M01/M03 A2998 RMK AO2,KAFO,2018-03-21T14:55:00Z,42.72,-110.95,-1.0,-3.0,0,0,,10.0,29.97933,,,TRUE,TRUE,,,,,,,BKN,4500,OVC,6000,,,,,VFR,,,,,,,,,,,,METAR,1897.0
K6S2 211455Z AUTO 00000KT 10SM OVC060 07/06 A2973 RMK AO2,K6S2,2018-03-21T14:55:00Z,43.98,-124.12,7.0,6.0,0,0,,10.0,29.731298,,,TRUE,TRUE,,,,,,,OVC,6000,,,,,,,VFR,,,,,,,,,,,,METAR,16.0
K6A2 211455Z AUTO 31009G20KT 10SM OVC026 06/00 A2990 RMK AO2,K6A2,2018-03-21T14:55:00Z,33.23,-84.27,6.0,0.0,310,9,20,10.0,29.899607,,,TRUE,TRUE,,,,,,,OVC,2600,,,,,,,MVFR,,,,,,,,,,,,METAR,292.0
K4V0 211455Z AUTO 00000KT 10SM BKN065 OVC075 03/M04 A3006 RMK AO2 T00251039,K4V0,2018-03-21T14:55:00Z,40.1,-108.77,2.5,-3.9,0,0,,10.0,30.059055,,,TRUE,TRUE,,,,,,,BKN,6500,OVC,7500,,,,,VFR,,,,,,,,,,,,METAR,1608.0
K4S2 211455Z AUTO 00000KT 10SM SCT095 SCT120 03/01 A2977 RMK AO2,K4S2,2018-03-21T14:55:00Z,45.68,-121.55,3.0,1.0,0,0,,10.0,29.769686,,,TRUE,TRUE,,,,,,,SCT,9500,SCT,12000,,,,,VFR,,,,,,,,,,,,METAR,192.0
K4O4 211455Z AUTO 35006KT 10SM CLR 11/01 A3021 RMK AO2,K4O4,2018-03-21T14:55:00Z,33.92,-94.87,11.0,1.0,350,6,,10.0,30.209646,,,TRUE,TRUE,,,,,,,CLR,,,,,,,,VFR,,,,,,,,,,,,METAR,144.0
K3J7 211455Z AUTO 28007G18KT 10SM OVC030 06/00 A2982 RMK AO2,K3J7,2018-03-21T14:55:00Z,33.6,-83.13,6.0,0.0,280,7,18,10.0,29.819881,,,TRUE,TRUE,,,,,,,OVC,3000,,,,,,,MVFR,,,,,,,,,,,,METAR,206.0
KIKG 211455Z AUTO 08008KT 10SM CLR 21/13 A3017 RMK AO2 T02060132,KIKG,2018-03-21T14:55:00Z,27.55,-98.03,20.6,13.2,80,8,,10.0,30.171259,,,TRUE,TRUE,,,,,,,CLR,,,,,,,,VFR,,,,,,,,,,,,METAR,40.0
K6S0 211455Z AUTO 28005KT 10SM CLR 02/M06 A2992 RMK A01,K6S0,2018-03-21T14:55:00Z,45.8,-109.97,2.0,-6.0,280,5,,10.0,29.920275,,,TRUE,TRUE,,,,,,,CLR,,,,,,,,VFR,,,,,,,,,,,,METAR,1363.0
K6P9 211455Z AUTO 18008KT 10SM CLR 14/00 A3019 RMK AO2 T01381001,K6P9,2018-03-21T14:55:00Z,32.43,-98.6,13.8,-0.1,180,8,,10.0,30.188976,,,TRUE,TRUE,,,,,,,CLR,,,,,,,,VFR,,,,,,,,,,,,METAR,449.0
K8W2 211455Z AUTO 01004KT 4SM SCT010 BKN039 OVC046 M01/M03 A2966 RMK AO1 60001 T10101028,K8W2,2018-03-21T14:55:00Z,38.65,-78.7,-1.0,-2.8,10,4,,4.0,29.660433,,,TRUE,TRUE,,,,,,,SCT,1000,BKN,3900,OVC,4600,,,MVFR,,,,,,,0.01,,,,,METAR,297.0
K7W4 211455Z AUTO 35004KT 1/2SM OVC006 00/M01 A2964 RMK AO1 P0003 60005 T10051011,K7W4,2018-03-21T14:55:00Z,37.97,-77.75,-0.5,-1.1,350,4,,0.5,29.639763,,,TRUE,TRUE,,,,,,,OVC,600,,,,,,,LIFR,,,,,,0.03,0.05,,,,,METAR,106.0
K9V9 211455Z AUTO 00000KT 10SM CLR 02/01 A3006 RMK AO2 T00210006,K9V9,2018-03-21T14:55:00Z,43.77,-99.32,2.1,0.6,0,0,,10.0,30.059055,,,TRUE,TRUE,,,,,,,CLR,,,,,,,,VFR,,,,,,,,,,,,METAR,519.0
K9A5 211455Z AUTO 30005KT 10SM BKN035 OVC042 04/M03 A2994 RMK AO2 T00371035,K9A5,2018-03-21T14:55:00Z,34.68,-85.28,3.7,-3.5,300,5,,10.0,29.940945,,,TRUE,TRUE,,,,,,,BKN,3500,OVC,4200,,,,,VFR,,,,,,,,,,,,METAR,237.0
KALX 211455Z AUTO 31013G21KT 10SM CLR 07/01 A3001 RMK AO2 T00690013,KALX,2018-03-21T14:55:00Z,32.92,-85.97,6.9,1.3,310,13,21,10.0,30.008858,,,TRUE,TRUE,,,,,,,CLR,,,,,,,,VFR,,,,,,,,,,,,METAR,209.0
KAJR 211455Z AUTO 30012G21KT 10SM SCT032 OVC038 03/00 A2979 RMK AO2 T00310000,KAJR,2018-03-21T14:55:00Z,34.5,-83.55,3.1,0.0,300,12,21,10.0,29.790354,,,TRUE,TRUE,,,,,,,SCT,3200,OVC,3800,,,,,VFR,,,,,,,,,,,,METAR,441.0
KANW 211455Z AUTO 22005KT 10SM CLR 04/00 A3004 RMK AO2 T00390000,KANW,2018-03-21T14:55:00Z,42.57,-100.0,3.9,0.0,220,5,,10.0,30.041338,,,TRUE,TRUE,,,,,,,CLR,,,,,,,,VFR,,,,,,,,,,,,METAR,789.0
KAVC 211455Z AUTO 33006KT 1 1/2SM OVC008 00/00 A2969 RMK AO2 P0003 60003 T00001001,KAVC,2018-03-21T14:55:00Z,36.68,-78.03,0.0,-0.1,330,6,,1.5,29.68996,,,TRUE,TRUE,,,,,,,OVC,800,,,,,,,IFR,,,,,,0.03,0.03,,,,,METAR,135.0
KAUH 211455Z AUTO 20007KT 10SM CLR 00/00 A3015 RMK AO2 T00030000,KAUH,2018-03-21T14:55:00Z,40.88,-98.0,0.3,0.0,200,7,,10.0,30.15059,,,TRUE,TRUE,,,,,,,CLR,,,,,,,,VFR,,,,,,,,,,,,METAR,550.0
KASL 211455Z AUTO 01004KT 10SM CLR 13/02 A3024 RMK AO1 T01270023,KASL,2018-03-21T14:55:00Z,32.52,-94.3,12.7,2.3,10,4,,10.0,30.239174,,,TRUE,TRUE,,,,,,,CLR,,,,,,,,VFR,,,,,,,,,,,,METAR,109.0
KAQR 211455Z AUTO 03006KT 10SM CLR 11/00 A3023 RMK AO2,KAQR,2018-03-21T14:55:00Z,34.4,-96.15,11.0,0.0,30,6,,10.0,30.230314,,,TRUE,TRUE,,,,,,,CLR,,,,,,,,VFR,,,,,,,,,,,,METAR,189.0
KAXH 211455Z AUTO 08007KT 10SM CLR 18/07 A3021 RMK AO2 T01760068,KAXH,2018-03-21T14:55:00Z,29.52,-95.48,17.6,6.8,80,7,,10.0,30.209646,,,TRUE,TRUE,,,,,,,CLR,,,,,,,,VFR,,,,,,,,,,,,METAR,21.0
KAVK 211455Z AUTO 07004KT 8SM CLR 07/04 A3021 RMK AO2,KAVK,2018-03-21T14:55:00Z,36.77,-98.67,7.0,4.0,70,4,,8.0,30.209646,,,TRUE,TRUE,,,,,,,CLR,,,,,,,,VFR,,,,,,,,,,,,METAR,449.0
KBBD 211455Z AUTO 14008KT 10SM CLR 13/01 A3017 RMK AO2,KBBD,2018-03-21T14:55:00Z,31.18,-99.32,13.0,1.0,140,8,,10.0,30.171259,,,TRUE,TRUE,,,,,,,CLR,,,,,,,,VFR,,,,,,,,,,,,METAR,557.0
KAYS 211455Z AUTO 27018G23KT 10SM CLR 13/M01 A2991 RMK AO2 T01301015,KAYS,2018-03-21T14:55:00Z,31.25,-82.4,13.0,-1.5,270,18,23,10.0,29.911417,,,TRUE,TRUE,,,,,,,CLR,,,,,,,,VFR,,,,,,,,,,,,METAR,46.0
KBCK 211455Z AUTO 00000KT 10SM CLR 00/M11 A3015 RMK AO2 T00001111,KBCK,2018-03-21T14:55:00Z,44.25,-90.85,0.0,-11.1,0,0,,10.0,30.15059,,,TRUE,TRUE,,,,,,,CLR,,,,,,,,VFR,,,,,,,,,,,,METAR,255.0
KBDH 211455Z AUTO 13007KT 2SM OVC003 M01/M02 A3016 RMK AO2,KBDH,2018-03-21T14:55:00Z,45.12,-95.13,-1.0,-2.0,130,7,,2.0,30.159449,,,TRUE,TRUE,,,,,,,OVC,300,,,,,,,LIFR,,,,,,,,,,,,METAR,247.0
KBDG 211455Z AUTO 00000KT 10SM 05/M09 A3017 RMK AO1 T00521094,KBDG,2018-03-21T14:55:00Z,37.58,-109.47,5.2,-9.4,0,0,,10.0,30.171259,,,TRUE,TRUE,,,,,,,,,,,,,,,,,,,,,,,,,,,METAR,1788.0
KBEC 211455Z AUTO 05003KT 10SM CLR 05/00 A3021 RMK AO2 T00501002,KBEC,2018-03-21T14:55:00Z,37.7,-97.22,5.0,-0.2,50,3,,10.0,30.209646,,,TRUE,TRUE,,,,,,,CLR,,,,,,,,VFR,,,,,,,,,,,,METAR,429.0
KBGE 211455Z AUTO 28015G20KT 10SM CLR 12/04 A3003 RMK AO2,KBGE,2018-03-21T14:55:00Z,30.97,-84.63,12.0,4.0,280,15,20,10.0,30.029528,,,TRUE,TRUE,,,,,,,CLR,,,,,,,,VFR,,,,,,,,,,,,METAR,43.0
KBHC 211455Z AUTO 29013G21KT 10SM CLR 10/00 A2989 RMK AO2,KBHC,2018-03-21T14:55:00Z,31.72,-82.4,10.0,0.0,290,13,21,10.0,29.890747,,,TRUE,TRUE,,,,,,,CLR,,,,,,,,VFR,,,,,,,,,,,,METAR,61.0
KBIE 211455Z AUTO 00000KT 10SM CLR 02/00 A3020 RMK AO2 T00161004,KBIE,2018-03-21T14:55:00Z,40.28,-96.75,1.6,-0.4,0,0,,10.0,30.200787,,,TRUE,TRUE,,,,,,,CLR,,,,,,,,VFR,,,,,,,,,,,,METAR,403.0
KBJI 211455Z AUTO 14008KT 10SM OVC022 M04/M06 A3011 RMK AO2 T10421060,KBJI,2018-03-21T14:55:00Z,47.5,-94.92,-4.2,-6.0,140,8,,10.0,30.109253,,,TRUE,TRUE,,,,,,,OVC,2200,,,,,,,MVFR,,,,,,,,,,,,METAR,420.0
KBKT 211455Z AUTO 34009KT 1 3/4SM OVC006 00/00 A2963 RMK AO1 P0001 60001 T10051005,KBKT,2018-03-21T14:55:00Z,37.07,-77.95,-0.5,-0.5,340,9,,1.75,29.630905,,,TRUE,TRUE,,,,,,,OVC,600,,,,,,,IFR,,,,,,0.01,0.01,,,,,METAR,134.0
KBMC 211455Z AUTO 33005KT 10SM OVC080 06/02 A2997 RMK AO1 T00610019,KBMC,2018-03-21T14:55:00Z,41.55,-112.07,6.1,1.9,330,5,,10.0,29.970472,,,TRUE,TRUE,,,,,,,OVC,8000,,,,,,,VFR,,,,,,,,,,,,METAR,1288.0
KBMT 211455Z AUTO 03005KT 10SM CLR 17/05 A3021 RMK AO2 T01720051,KBMT,2018-03-21T14:55:00Z,30.07,-94.22,17.2,5.1,30,5,,10.0,30.209646,,,TRUE,TRUE,,,,,,,CLR,,,,,,,,VFR,,,,,,,,,,,,METAR,10.0
KBPG 211455Z AUTO 15016KT 10SM CLR 14/M01 A3011 RMK AO2 T01361007,KBPG,2018-03-21T14:55:00Z,32.22,-101.52,13.6,-0.7,150,16,,10.0,30.109253,,,TRUE,TRUE,,,,,,,CLR,,,,,,,,VFR,,,,,,,,,,,,METAR,784.0
KDZJ 211455Z AUTO 31010G15KT 280V360 2SM -SN BKN022 OVC028 00/M03 A2981 RMK AO2 T00011028,KDZJ,2018-03-21T14:55:00Z,34.85,-84.0,0.1,-2.8,310,10,15,2.0,29.811024,,,TRUE,TRUE,,,,,,-SN,BKN,2200,OVC,2800,,,,,IFR,,,,,,,,,,,,METAR,582.0
KMDZ 211455Z AUTO 00000KT 10SM CLR M05/M12 A3012 RMK AO2 T10531118,KMDZ,2018-03-21T14:55:00Z,45.1,-90.3,-5.3,-11.8,0,0,,10.0,30.121063,,,TRUE,TRUE,,,,,,,CLR,,,,,,,,VFR,,,,,,,,,,,,METAR,448.0
KMCD 211455Z AUTO 06009KT 10SM CLR M05/M17 A3015 RMK AO2 T10461166,KMCD,2018-03-21T14:55:00Z,45.85,-84.63,-4.6,-16.6,60,9,,10.0,30.15059,,,TRUE,TRUE,,,,,,,CLR,,,,,,,,VFR,,,,,,,,,,,,METAR,226.0
KM91 211455Z AUTO 31012G19KT 10SM SCT024 OVC075 03/M01 A2996 RMK A01,KM91,2018-03-21T14:55:00Z,36.53,-86.92,3.0,-1.0,310,12,19,10.0,29.958662,,,TRUE,TRUE,,,,,,,SCT,2400,OVC,7500,,,,,VFR,,,,,,,,,,,,METAR,215.0
KM75 211455Z AUTO 09006KT M1/4SM FZFG OVC003 M10/M11 A2992 RMK A01,KM75,2018-03-21T14:55:00Z,48.37,-107.92,-10.0,-11.0,90,6,,0.25,29.920275,,,TRUE,TRUE,,,,,,FZFG,OVC,300,,,,,,,LIFR,,,,,,,,,,,,METAR,687.0
KM33 211455Z AUTO 30011G19KT 10SM SCT023 BKN028 OVC075 03/M01 A2998 RMK A01,KM33,2018-03-21T14:55:00Z,36.38,-86.42,3.0,-1.0,300,11,19,10.0,29.97933,,,TRUE,TRUE,,,,,,,SCT,2300,BKN,2800,OVC,7500,,,MVFR,,,,,,,,,,,,METAR,178.0
KM08 211455Z AUTO 31011KT 10SM OVC050 05/M01 A3009 RMK A01,KM08,2018-03-21T14:55:00Z,35.22,-89.05,5.0,-1.0,310,11,,10.0,30.088583,,,TRUE,TRUE,,,,,,,OVC,5000,,,,,,,VFR,,,,,,,,,,,,METAR,152.0
KM04 211455Z AUTO 35010G16KT 10SM OVC050 06/01 A3013 RMK A01,KM04,2018-03-21T14:55:00Z,35.58,-89.58,6.0,1.0,350,10,16,10.0,30.129921,,,TRUE,TRUE,,,,,,,OVC,5000,,,,,,,VFR,,,,,,,,,,,,METAR,85.0
KLXN 211455Z AUTO 00000KT 10SM CLR 02/00 A3012 RMK AO2 T00210004,KLXN,2018-03-21T14:55:00Z,40.78,-99.77,2.1,0.4,0,0,,10.0,30.121063,,,TRUE,TRUE,,,,,,,CLR,,,,,,,,VFR,,,,,,,,,,,,METAR,734.0
KLVL 211455Z AUTO 33007KT 5SM OVC009 01/00 A2963 RMK AO1 T00051005,KLVL,2018-03-21T14:55:00Z,36.78,-77.8,0.5,-0.5,330,7,,5.0,29.630905,,,TRUE,TRUE,,,,,,,OVC,900,,,,,,,IFR,,,,,,,,,,,,METAR,100.0
KLUD 211455Z AUTO 07006KT 7SM CLR 13/00 A3020 RMK AO2 T01251002,KLUD,2018-03-21T14:55:00Z,33.25,-97.58,12.5,-0.2,70,6,,7.0,30.200787,,,TRUE,TRUE,,,,,,,CLR,,,,,,,,VFR,,,,,,,,,,,,METAR,319.0
KLOT 211455Z AUTO 03012G18KT 10SM SCT028 01/M05 A3006 RMK AO2 T00101050,KLOT,2018-03-21T14:55:00Z,41.6,-88.1,1.0,-5.0,30,12,18,10.0,30.059055,,,TRUE,TRUE,,,,,,,SCT,2800,,,,,,,VFR,,,,,,,,,,,,METAR,205.0
KLOM 211455Z AUTO 04005KT 3/4SM OVC008 M01/M02 A2967 RMK AO1,KLOM,2018-03-21T14:55:00Z,40.13,-75.27,-1.0,-2.0,40,5,,0.75,29.66929,,,TRUE,TRUE,,,,,,,OVC,800,,,,,,,LIFR,,,,,,,,,,,,METAR,92.0
KLNN 211455Z AUTO 06017G23KT 10SM BKN019 OVC110 M01/M05 A2984 RMK AO1 T10091051,KLNN,2018-03-21T14:55:00Z,41.67,-81.37,-0.9,-5.1,60,17,23,10.0,29.840551,,,TRUE,TRUE,,,,,,,BKN,1900,OVC,11000,,,,,MVFR,,,,,,,,,,,,METAR,191.0
KLKU 211455Z AUTO 34008KT 1/2SM SN FZFG OVC005 M01/M02 A2968 RMK AO2 P0001 T10091018 60006,KLKU,2018-03-21T14:55:00Z,38.02,-77.97,-0.9,-1.8,340,8,,0.5,29.681103,,,TRUE,TRUE,,,,,,SN FZFG,OVC,500,,,,,,,LIFR,,,,,,0.01,0.06,,,,,METAR,150.0
KLHZ 211455Z AUTO 31003KT 10SM OVC009 00/00 A2968 RMK AO2,KLHZ,2018-03-21T14:55:00Z,36.02,-78.33,0.0,0.0,310,3,,10.0,29.681103,,,TRUE,TRUE,,,,,,,OVC,900,,,,,,,IFR,,,,,,,,,,,,METAR,113.0
KLHM 211455Z AUTO 00000KT 1 3/4SM OVC003 11/11 A2984 RMK AO1,KLHM,2018-03-21T14:55:00Z,38.92,-121.35,11.0,11.0,0,0,,1.75,29.840551,,,TRUE,TRUE,,,,,,,OVC,300,,,,,,,LIFR,,,,,,,,,,,,METAR,37.0
KLCQ 211455Z AUTO 30016G25KT 10SM CLR 13/01 A2997 RMK AO2,KLCQ,2018-03-21T14:55:00Z,30.18,-82.58,13.0,1.0,300,16,25,10.0,29.970472,,,TRUE,TRUE,,,,,,,CLR,,,,,,,,VFR,,,,,,,,,,,,METAR,61.0
KLCG 211455Z AUTO 18007KT 10SM CLR 01/00 A3015 RMK AO2 T00050000,KLCG,2018-03-21T14:55:00Z,42.25,-96.98,0.5,0.0,180,7,,10.0,30.15059,,,TRUE,TRUE,,,,,,,CLR,,,,,,,,VFR,,,,,,,,,,,,METAR,436.0
KL35 211455Z AUTO 27005KT 10SM BKN019 OVC055 05/03 A3011 RMK AO2,KL35,2018-03-21T14:55:00Z,34.27,-116.85,5.0,3.0,270,5,,10.0,30.109253,,,TRUE,TRUE,,,,,,,BKN,1900,OVC,5500,,,,,MVFR,,,,,,,,,,,,METAR,2059.0
KJYR 211455Z AUTO 21007KT 10SM CLR 00/00 A3017 RMK AO2,KJYR,2018-03-21T14:55:00Z,40.9,-97.62,0.0,0.0,210,7,,10.0,30.171259,,,TRUE,TRUE,,,,,,,CLR,,,,,,,,VFR,,,,,,,,,,,,METAR,509.0
KJYO 211455Z AUTO 01010KT 1 1/2SM -SN BKN006 OVC010 00/00 A2968 RMK AO2,KJYO,2018-03-21T14:55:00Z,39.07,-77.57,0.0,0.0,10,10,,1.5,29.681103,,,TRUE,TRUE,,,,,,-SN,BKN,600,OVC,1000,,,,,IFR,,,,,,,,,,,,METAR,119.0
KJWY 211455Z AUTO 07005KT 10SM CLR 15/02 A3023 RMK AO2 T01470018,KJWY,2018-03-21T14:55:00Z,32.45,-96.92,14.7,1.8,70,5,,10.0,30.230314,,,TRUE,TRUE,,,,,,,CLR,,,,,,,,VFR,,,,,,,,,,,,METAR,217.0
KJWN 211455Z AUTO 31011G20KT 10SM FEW035 04/M03 A2997 RMK A01,KJWN,2018-03-21T14:55:00Z,36.18,-86.88,4.0,-3.0,310,11,20,10.0,29.970472,,,TRUE,TRUE,,,,,,,FEW,3500,,,,,,,VFR,,,,,,,,,,,,METAR,151.0
KJWG 211455Z AUTO 16005KT 10SM CLR 10/04 A3020 RMK AO2 T00970036,KJWG,2018-03-21T14:55:00Z,35.87,-98.42,9.7,3.6,160,5,,10.0,30.200787,,,TRUE,TRUE,,,,,,,CLR,,,,,,,,VFR,,,,,,,,,,,,METAR,472.0
KJTC 211455Z AUTO VRB06KT 10SM CLR 09/M07 A3013 RMK AO2,KJTC,2018-03-21T14:55:00Z,34.13,-109.32,9.0,-7.0,0,6,,10.0,30.129921,,,TRUE,TRUE,,,,,,,CLR,,,,,,,,VFR,,,,,,,,,,,,METAR,2150.0
KJOT 211455Z AUTO 36010G15KT 10SM CLR 02/M05 A3006 RMK AO2 T00151050,KJOT,2018-03-21T14:55:00Z,41.52,-88.18,1.5,-5.0,360,10,15,10.0,30.059055,,,TRUE,TRUE,,,,,,,CLR,,,,,,,,VFR,,,,,,,,,,,,METAR,177.0
KJKA 211455Z AUTO 32009G16KT 10SM CLR 14/05 A3011 RMK AO2 T01370050,KJKA,2018-03-21T14:55:00Z,30.28,-87.67,13.7,5.0,320,9,16,10.0,30.109253,,,TRUE,TRUE,,,,,,,CLR,,,,,,,,VFR,,,,,,,,,,,,METAR,5.0
KJGG 211455Z AUTO 33006KT 3SM BKN008 BKN012 OVC033 02/02 A2960 RMK AO1 P0001,KJGG,2018-03-21T14:55:00Z,37.23,-76.72,2.0,2.0,330,6,,3.0,29.601377,,,TRUE,TRUE,,,,,,,BKN,800,BKN,1200,OVC,3300,,,IFR,,,,,,0.01,,,,,,METAR,15.0
KJFZ 211455Z AUTO 30010G17KT 10SM OVC014 M02/M04 A2963 RMK AO2 T10171038,KJFZ,2018-03-21T14:55:00Z,37.07,-81.8,-1.7,-3.8,300,10,17,10.0,29.630905,,,TRUE,TRUE,,,,,,,OVC,1400,,,,,,,MVFR,,,,,,,,,,,,METAR,809.0
KJDD 211455Z AUTO 00000KT 10SM CLR 12/04 A3023 RMK AO2,KJDD,2018-03-21T14:55:00Z,32.75,-95.5,12.0,4.0,0,0,,10.0,30.230314,,,TRUE,TRUE,,,,,,,CLR,,,,,,,,VFR,,,,,,,,,,,,METAR,132.0
KJCA 211455Z AUTO 30016G23KT 10SM OVC028 04/00 A2983 RMK AO2,KJCA,2018-03-21T14:55:00Z,34.18,-83.57,4.0,0.0,300,16,23,10.0,29.828741,,,TRUE,TRUE,,,,,,,OVC,2800,,,,,,,MVFR,,,,,,,,,,,,METAR,290.0
KJAU 211455Z AUTO VRB04G11KT 1 3/4SM HZ SCT015 SCT024 01/M01 A2984 RMK A01 P0004,KJAU,2018-03-21T14:55:00Z,36.33,-84.17,1.0,-1.0,0,4,11,1.75,29.840551,,,TRUE,TRUE,,,,,,HZ,SCT,1500,SCT,2400,,,,,IFR,,,,,,0.04,,,,,,METAR,360.0
KJAS 211455Z AUTO 00000KT 10SM CLR 13/09 A3023 RMK AO2 T01320089,KJAS,2018-03-21T14:55:00Z,30.88,-94.03,13.2,8.9,0,0,,10.0,30.230314,,,TRUE,TRUE,,,,,,,CLR,,,,,,,,VFR,,,,,,,,,,,,METAR,65.0
KINJ 211455Z AUTO 00000KT 10SM CLR 12/04 A3021 RMK AO2 T01230036,KINJ,2018-03-21T14:55:00Z,32.08,-97.1,12.3,3.6,0,0,,10.0,30.209646,,,TRUE,TRUE,,,,,,,CLR,,,,,,,,VFR,,,,,,,,,,,,METAR,209.0
KIMM 211455Z AUTO 28011G17KT 10SM SCT034 23/13 A3001 RMK AO2,KIMM,2018-03-21T14:55:00Z,26.43,-81.4,23.0,13.0,280,11,17,10.0,30.008858,,,TRUE,TRUE,,,,,,,SCT,3400,,,,,,,VFR,,,,,,,,,,,,METAR,12.0
KBQK 211455Z AUTO 27018G24KT 10SM CLR 13/01 A2987 RMK AO2,KBQK,2018-03-21T14:55:00Z,31.25,-81.47,13.0,1.0,270,18,24,10.0,29.870079,,,TRUE,TRUE,,,,,,,CLR,,,,,,,,VFR,,,,,,,,,,,,METAR,8.0
KF44 211455Z AUTO 00000KT 10SM CLR 13/04 A3020 RMK AO2,KF44,2018-03-21T14:55:00Z,32.17,-95.83,13.0,4.0,0,0,,10.0,30.200787,,,TRUE,TRUE,,,,,,,CLR,,,,,,,,VFR,,,,,,,,,,,,METAR,135.0
KF17 211455Z AUTO 32003KT 10SM CLR 12/04 A3023 RMK AO2 T01220040,KF17,2018-03-21T14:55:00Z,31.83,-94.15,12.2,4.0,320,3,,10.0,30.230314,,,TRUE,TRUE,,,,,,,CLR,,,,,,,,VFR,,,,,,,,,,,,METAR,97.0
KF05 211455Z AUTO 16006KT 10SM CLR 12/M03 A3019 RMK AO1 T01201032,KF05,2018-03-21T14:55:00Z,34.23,-99.28,12.0,-3.2,160,6,,10.0,30.188976,,,TRUE,TRUE,,,,,,,CLR,,,,,,,,VFR,,,,,,,,,,,,METAR,386.0
KF00 211455Z AUTO 02003KT 10SM CLR 11/02 A3023 RMK AO2 T01140020,KF00,2018-03-21T14:55:00Z,33.62,-96.18,11.4,2.0,20,3,,10.0,30.230314,,,TRUE,TRUE,,,,,,,CLR,,,,,,,,VFR,,,,,,,,,,,,METAR,188.0
KEZM 211455Z AUTO 27014G24KT 10SM CLR 11/M05 A2993 RMK AO2 T01071050,KEZM,2018-03-21T14:55:00Z,32.22,-83.13,10.7,-5.0,270,14,24,10.0,29.929134,,,TRUE,TRUE,,,,,,,CLR,,,,,,,,VFR,,,,,,,,,,,,METAR,93.0
KEVU 211455Z AUTO 30007KT 10SM OVC011 04/M01 A3019 RMK AO2,KEVU,2018-03-21T14:55:00Z,40.35,-94.92,4.0,-1.0,300,7,,10.0,30.188976,,,TRUE,TRUE,,,,,,,OVC,1100,,,,,,,MVFR,,,,,,,,,,,,METAR,349.0
KETN 211455Z AUTO 15009KT 10SM CLR 13/00 A3019 RMK AO2 T01290000,KETN,2018-03-21T14:55:00Z,32.42,-98.82,12.9,0.0,150,9,,10.0,30.188976,,,TRUE,TRUE,,,,,,,CLR,,,,,,,,VFR,,,,,,,,,,,,METAR,446.0
KETB 211455Z AUTO 03009G14KT 10SM CLR M01/M07 A3010 RMK AO2,KETB,2018-03-21T14:55:00Z,43.42,-88.13,-1.0,-7.0,30,9,14,10.0,30.100393,,,TRUE,TRUE,,,,,,,CLR,,,,,,,,VFR,,,,,,,,,,,,METAR,270.0
KERV 211455Z AUTO 15004KT 10SM CLR 13/03 A3018 RMK AO2 T01310030,KERV,2018-03-21T14:55:00Z,29.98,-99.08,13.1,3.0,150,4,,10.0,30.180119,,,TRUE,TRUE,,,,,,,CLR,,,,,,,,VFR,,,,,,,,,,,,METAR,510.0
KEOE 211455Z AUTO 27011G20KT 190V290 10SM SCT048 07/M01 A2976 RMK AO2,KEOE,2018-03-21T14:55:00Z,34.32,-81.63,7.0,-1.0,270,11,20,10.0,29.760826,,,TRUE,TRUE,,,,,,,SCT,4800,,,,,,,VFR,,,,,,,,,,,,METAR,174.0
KENL 211455Z AUTO 33016G21KT 10SM CLR 03/M03 A3006 RMK AO2 T00271029,KENL,2018-03-21T14:55:00Z,38.52,-89.1,2.7,-2.9,330,16,21,10.0,30.059055,,,TRUE,TRUE,,,,,,,CLR,,,,,,,,VFR,,,,,,,,,,,,METAR,163.0
KELK 211455Z AUTO 09005KT 10SM CLR 10/00 A3017 RMK AO2 T01001002,KELK,2018-03-21T14:55:00Z,35.43,-99.4,10.0,-0.2,90,5,,10.0,30.171259,,,TRUE,TRUE,,,,,,,CLR,,,,,,,,VFR,,,,,,,,,,,,METAR,610.0
KELA 211455Z AUTO 11006KT 10SM CLR 17/06 A3020 RMK AO2 T01730062,KELA,2018-03-21T14:55:00Z,29.6,-96.32,17.3,6.2,110,6,,10.0,30.200787,,,TRUE,TRUE,,,,,,,CLR,,,,,,,,VFR,,,,,,,,,,,,METAR,56.0
KEKS 211455Z AUTO 19010KT 10SM FEW047 OVC060 01/M04 A2993 RMK AO2,KEKS,2018-03-21T14:55:00Z,45.27,-111.65,1.0,-4.0,190,10,,10.0,29.929134,,,TRUE,TRUE,,,,,,,FEW,4700,OVC,6000,,,,,VFR,,,,,,,,,,,,METAR,1641.0
KEHA 211455Z AUTO 20010KT 10SM CLR 10/M02 A3013 RMK AO2 T01001021,KEHA,2018-03-21T14:55:00Z,37.0,-101.9,10.0,-2.1,200,10,,10.0,30.129921,,,TRUE,TRUE,,,,,,,CLR,,,,,,,,VFR,,,,,,,,,,,,METAR,1099.0
KEFT 211455Z AUTO 01012G16KT 10SM CLR M01/M07 A3010 RMK AO2,KEFT,2018-03-21T14:55:00Z,42.62,-89.6,-1.0,-7.0,10,12,16,10.0,30.100393,,,TRUE,TRUE,,,,,,,CLR,,,,,,,,VFR,,,,,,,,,,,,METAR,331.0
KEFK 211455Z AUTO 35006KT 10SM CLR M07/M13 A2988 RMK AO2 T10751127,KEFK,2018-03-21T14:55:00Z,44.88,-72.23,-7.5,-12.7,350,6,,10.0,29.878937,,,TRUE,TRUE,,,,,,,CLR,,,,,,,,VFR,,,,,,,,,,,,METAR,284.0
KEDU 211455Z AUTO 00000KT 2SM OVC006 11/10 A2985 RMK AO1 P0003,KEDU,2018-03-21T14:55:00Z,38.53,-121.78,11.0,10.0,0,0,,2.0,29.84941,,,TRUE,TRUE,,,,,,,OVC,600,,,,,,,IFR,,,,,,0.03,,,,,,METAR,21.0
KEDN 211455Z AUTO 32008G17KT 270V340 10SM CLR A3005 RMK AO2 6////,KEDN,2018-03-21T14:55:00Z,31.3,-85.9,,,320,8,17,10.0,30.050198,,,TRUE,TRUE,,,,,,,CLR,,,,,,,,VFR,,,,,,,,,,,,METAR,110.0
KECU 211455Z AUTO 15016G25KT 10SM CLR 14/02 A3018 RMK AO2,KECU,2018-03-21T14:55:00Z,29.95,-100.17,14.0,2.0,150,16,25,10.0,30.180119,,,TRUE,TRUE,,,,,,,CLR,,,,,,,,VFR,,,,,,,,,,,,METAR,725.0
KEBS 211455Z AUTO 00000KT 10SM CLR M00/M03 A3016 RMK AO2,KEBS,2018-03-21T14:55:00Z,42.42,-93.87,0.0,-3.0,0,0,,10.0,30.159449,,,TRUE,TRUE,,,,,,,CLR,,,,,,,,VFR,,,,,,,,,,,,METAR,342.0
KEBG 211455Z AUTO 11005KT 10SM CLR 21/14 A3015 RMK AO2 T02120136,KEBG,2018-03-21T14:55:00Z,26.45,-98.13,21.2,13.6,110,5,,10.0,30.15059,,,TRUE,TRUE,,,,,,,CLR,,,,,,,,VFR,,,,,,,,,,,,METAR,24.0
KEBA 211455Z AUTO 28012G26KT 260V320 10SM SCT037 OVC042 07/M02 A2982 RMK AO2 T00711016,KEBA,2018-03-21T14:55:00Z,34.1,-82.82,7.1,-1.6,280,12,26,10.0,29.819881,,,TRUE,TRUE,,,,,,,SCT,3700,OVC,4200,,,,,VFR,,,,,,,,,,,,METAR,184.0
KE38 211455Z AUTO 25007KT 10SM CLR 19/M06 A3016 RMK AO2 60003 T01891057,KE38,2018-03-21T14:55:00Z,30.38,-103.68,18.9,-5.7,250,7,,10.0,30.159449,,,TRUE,TRUE,,,,,,,CLR,,,,,,,,VFR,,,,,,,0.03,,,,,METAR,1376.0
KE16 211455Z AUTO 20003KT 3SM -RA FEW005 OVC025 12/12 A2986 RMK AO2,KE16,2018-03-21T14:55:00Z,37.08,-121.6,12.0,12.0,200,3,,3.0,29.861221,,,TRUE,TRUE,,,,,,-RA,FEW,500,OVC,2500,,,,,MVFR,,,,,,,,,,,,METAR,86.0
KE11 211455Z AUTO 18006KT 10SM CLR 12/M05 A3008 RMK AO2 T01191046,KE11,2018-03-21T14:55:00Z,32.33,-102.53,11.9,-4.6,180,6,,10.0,30.079725,,,TRUE,TRUE,,,,,,,CLR,,,,,,,,VFR,,,,,,,,,,,,METAR,967.0
KF70 211455Z AUTO 00000KT 10SM CLR 11/02 A3002 RMK AO1,KF70,2018-03-21T14:55:00Z,33.57,-117.13,11.0,2.0,0,0,,10.0,30.02067,,,TRUE,TRUE,,,,,,,CLR,,,,,,,,VFR,,,,,,,,,,,,METAR,412.0
KFCH 211455Z AUTO 3SM BR FEW005 BKN032 OVC075 13/12 A2993 RMK A01,KFCH,2018-03-21T14:55:00Z,36.72,-119.82,13.0,12.0,,,,3.0,29.929134,,,TRUE,TRUE,,,,,,BR,FEW,500,BKN,3200,OVC,7500,,,MVFR,,,,,,,,,,,,METAR,85.0
KFET 211455Z AUTO 00000KT 10SM OVC036 01/00 A3019 RMK AO2 T00081004,KFET,2018-03-21T14:55:00Z,41.45,-96.52,0.8,-0.4,0,0,,10.0,30.188976,,,TRUE,TRUE,,,,,,,OVC,3600,,,,,,,VFR,,,,,,,,,,,,METAR,367.0
KFKR 211455Z AUTO 01012KT 10SM OVC100 01/M05 A2997 RMK AO2 T00061054,KFKR,2018-03-21T14:55:00Z,40.27,-86.57,0.6,-5.4,10,12,,10.0,29.970472,,,TRUE,TRUE,,,,,,,OVC,10000,,,,,,,VFR,,,,,,,,,,,,METAR,262.0
KFOT 211455Z AUTO 00000KT 10SM BKN035 OVC042 11/10 A2975 RMK AO1,KFOT,2018-03-21T14:55:00Z,40.55,-124.13,11.0,10.0,0,0,,10.0,29.749016,,,TRUE,TRUE,,,,,,,BKN,3500,OVC,4200,,,,,VFR,,,,,,,,,,,,METAR,120.0
KFQD 211455Z AUTO 30013G19KT 10SM SCT055 OVC110 05/M04 A2970 RMK AO2 T00471041,KFQD,2018-03-21T14:55:00Z,35.42,-81.93,4.7,-4.1,300,13,19,10.0,29.698818,,,TRUE,TRUE,,,,,,,SCT,5500,OVC,11000,,,,,VFR,,,,,,,,,,,,METAR,329.0
KFSO 211455Z AUTO 34004KT 10SM CLR M07/M12 A2994 RMK AO2 T10691120,KFSO,2018-03-21T14:55:00Z,44.93,-73.1,-6.9,-12.0,340,4,,10.0,29.940945,,,TRUE,TRUE,,,,,,,CLR,,,,,,,,VFR,,,,,,,,,,,,METAR,70.0
KFTN 211455Z AUTO 13010G17KT 10SM CLR 19/11 A3015 RMK A01,KFTN,2018-03-21T14:55:00Z,28.22,-100.02,19.0,11.0,130,10,17,10.0,30.15059,,,TRUE,TRUE,,,,,,,CLR,,,,,,,,VFR,,,,,,,,,,,,METAR,236.0
KFYE 211455Z AUTO 31009G15KT 10SM BKN042 OVC055 05/00 A3010 RMK A01,KFYE,2018-03-21T14:55:00Z,35.2,-89.38,5.0,0.0,310,9,15,10.0,30.100393,,,TRUE,TRUE,,,,,,,BKN,4200,OVC,5500,,,,,VFR,,,,,,,,,,,,METAR,133.0
KFWC 211455Z AUTO 34009G16KT 10SM SCT023 02/M03 A3004 RMK AO1 T00171031,KFWC,2018-03-21T14:55:00Z,38.38,-88.42,1.7,-3.1,340,9,16,10.0,30.041338,,,TRUE,TRUE,,,,,,,SCT,2300,,,,,,,VFR,,,,,,,,,,,,METAR,133.0
KFVX 211455Z AUTO 36004KT 1 1/2SM -SN BKN008 OVC012 A2964 RMK AO2,KFVX,2018-03-21T14:55:00Z,37.35,-78.42,,,360,4,,1.5,29.639763,,,TRUE,TRUE,,,,,,-SN,BKN,800,OVC,1200,,,,,IFR,,,,,,,,,,,,METAR,125.0
KMGN 211455Z AUTO 06011G17KT 10SM CLR M02/M13 A3012 RMK AO2 T10271134,KMGN,2018-03-21T14:55:00Z,45.43,-84.92,-2.7,-13.4,60,11,17,10.0,30.121063,,,TRUE,TRUE,,,,,,,CLR,,,,,,,,VFR,,,,,,,,,,,,METAR,209.0
KMDS 211455Z AUTO 16007KT 10SM BKN006 OVC027 M02/M02 A3010 RMK AO2,KMDS,2018-03-21T14:55:00Z,44.02,-97.08,-2.0,-2.0,160,7,,10.0,30.100393,,,TRUE,TRUE,,,,,,,BKN,600,OVC,2700,,,,,IFR,,,,,,,,,,,,METAR,524.0
KLXL 211455Z AUTO 14003KT 10SM BKN016 OVC022 M03/M09 A3016 RMK AO2,KLXL,2018-03-21T14:55:00Z,45.95,-94.33,-3.0,-9.0,140,3,,10.0,30.159449,,,TRUE,TRUE,,,,,,,BKN,1600,OVC,2200,,,,,MVFR,,,,,,,,,,,,METAR,342.0
KLDM 211455Z AUTO 05009KT 10SM CLR M01/M10 A3008 RMK AO2 T10131098,KLDM,2018-03-21T14:55:00Z,43.97,-86.4,-1.3,-9.8,50,9,,10.0,30.079725,,,TRUE,TRUE,,,,,,,CLR,,,,,,,,VFR,,,,,,,,,,,,METAR,197.0
KJYM 211455Z AUTO 01009G14KT 10SM OVC090 00/M09 A2991 RMK AO2,KJYM,2018-03-21T14:55:00Z,41.92,-84.58,0.0,-9.0,10,9,14,10.0,29.911417,,,TRUE,TRUE,,,,,,,OVC,9000,,,,,,,VFR,,,,,,,,,,,,METAR,360.0
KQZF 211455Z AUTO VRB05KT 10SM CLR 41/M07 A2977 RMK AO2 SLP056 WND DATA ESTMD T04091067 56022 $,KQZF,2018-03-21T14:55:00Z,,,40.9,-6.7,0,5,,10.0,29.769686,1005.6,,TRUE,TRUE,TRUE,,,,,,CLR,,,,,,,,VFR,-2.2,,,,,,,,,,,METAR,
KEGI 211455Z VRB05KT 10SM FEW024 12/06 A3007 RMK AO2A SLP184 T01230057 52018 $,KEGI,2018-03-21T14:55:00Z,30.63,-86.52,12.3,5.7,0,5,,10.0,30.070866,1018.4,,,TRUE,TRUE,,,,,,FEW,2400,,,,,,,VFR,1.8,,,,,,,,,,,METAR,59.0
KVPS 211455Z 31011G16KT 10SM FEW035 14/05 A3006 RMK AO2A SLP186 T01420048 52014 $,KVPS,2018-03-21T14:55:00Z,30.47,-86.52,14.2,4.8,310,11,16,10.0,30.059055,1018.6,,,TRUE,TRUE,,,,,,FEW,3500,,,,,,,VFR,1.4,,,,,,,,,,,METAR,26.0
KAHQ 211455Z AUTO 00000KT 10SM OVC035 01/M01 A3020 RMK AO2 T00071013,KAHQ,2018-03-21T14:55:00Z,41.23,-96.6,0.7,-1.3,0,0,,10.0,30.200787,,,TRUE,TRUE,,,,,,,OVC,3500,,,,,,,VFR,,,,,,,,,,,,METAR,374.0
KAFK 211455Z AUTO 31003KT 2SM BR OVC005 00/00 A3021 RMK AO2 T00000000,KAFK,2018-03-21T14:55:00Z,40.6,-95.85,0.0,0.0,310,3,,2.0,30.209646,,,TRUE,TRUE,,,,,,BR,OVC,500,,,,,,,IFR,,,,,,,,,,,,METAR,354.0
KADH 211455Z AUTO 07003KT 10SM CLR 09/01 A3023 RMK AO2,KADH,2018-03-21T14:55:00Z,34.8,-96.67,9.0,1.0,70,3,,10.0,30.230314,,,TRUE,TRUE,,,,,,,CLR,,,,,,,,VFR,,,,,,,,,,,,METAR,308.0
KACP 211455Z AUTO 36005KT 10SM CLR 14/06 A3020 RMK AO2 T01400060,KACP,2018-03-21T14:55:00Z,30.75,-92.68,14.0,6.0,360,5,,10.0,30.200787,,,TRUE,TRUE,,,,,,,CLR,,,,,,,,VFR,,,,,,,,,,,,METAR,33.0
KA39 211455Z AUTO 12008KT 10SM CLR 14/M07 A3003 RMK AO2,KA39,2018-03-21T14:55:00Z,32.98,-111.92,14.0,-7.0,120,8,,10.0,30.029528,,,TRUE,TRUE,,,,,,,CLR,,,,,,,,VFR,,,,,,,,,,,,METAR,396.0
KA08 211455Z AUTO 31013G23KT 10SM CLR 10/03 A3008 RMK AO2 T00980027,KA08,2018-03-21T14:55:00Z,32.52,-87.38,9.8,2.7,310,13,23,10.0,30.079725,,,TRUE,TRUE,,,,,,,CLR,,,,,,,,VFR,,,,,,,,,,,,METAR,69.0
KGDB 211455Z AUTO 11004KT 10SM OVC021 01/M01 A3015 RMK AO2 T00101007,KGDB,2018-03-21T14:55:00Z,44.75,-95.55,1.0,-0.7,110,4,,10.0,30.15059,,,TRUE,TRUE,,,,,,,OVC,2100,,,,,,,MVFR,,,,,,,,,,,,METAR,319.0
KFSE 211455Z AUTO 13008KT 1 3/4SM -SN OVC010 M02/M04 A3009 RMK AO2,KFSE,2018-03-21T14:55:00Z,47.58,-95.77,-2.0,-4.0,130,8,,1.75,30.088583,,,TRUE,TRUE,,,,,,-SN,OVC,1000,,,,,,,IFR,,,,,,,,,,,,METAR,389.0
CYZY 211455Z AUTO 00000KT 9SM -SN FEW010 BKN016 OVC021 M00/M00 A2975 RMK SLP106,CYZY,2018-03-21T14:55:00Z,55.28,-123.12,0.0,0.0,0,0,,9.0,29.749016,1010.6,,TRUE,,,,,,,-SN,FEW,1000,BKN,1600,OVC,2100,,,MVFR,,,,,,,,,,,,METAR,690.0
CYNM 211455Z AUTO 36008KT 6SM -SN FEW029 OVC036 M12/M15 A3016 RMK ICG SLP243,CYNM,2018-03-21T14:55:00Z,49.77,-77.82,-12.0,-15.0,360,8,,6.0,30.159449,1024.3,,TRUE,,,,,,,-SN,FEW,2900,OVC,3600,,,,,VFR,,,,,,,,,,,,SPECI,281.0
KXVG 211455Z AUTO 13003KT 10SM -SN OVC030 M04/M07 A3014 RMK AO2,KXVG,2018-03-21T14:55:00Z,46.98,-94.2,-4.0,-7.0,130,3,,10.0,30.138779,,,TRUE,TRUE,,,,,,-SN,OVC,3000,,,,,,,MVFR,,,,,,,,,,,,METAR,407.0
KUYF 211455Z AUTO 36013G21KT 10SM OVC010 00/M01 A2976 RMK AO2,KUYF,2018-03-21T14:55:00Z,39.93,-83.47,0.0,-1.0,360,13,21,10.0,29.760826,,,TRUE,TRUE,,,,,,,OVC,1000,,,,,,,MVFR,,,,,,,,,,,,METAR,330.0
KTVY 211455Z AUTO 15004KT 10SM SCT075 BKN090 06/00 A2995 RMK AO2,KTVY,2018-03-21T14:55:00Z,40.62,-112.35,6.0,0.0,150,4,,10.0,29.949802,,,TRUE,TRUE,,,,,,,SCT,7500,BKN,9000,,,,,VFR,,,,,,,,,,,,METAR,1317.0
KTPF 211455Z AUTO 32012G19KT 10SM BKN035 OVC110 17/09 A3003 RMK AO2,KTPF,2018-03-21T14:55:00Z,27.92,-82.45,17.0,9.0,320,12,19,10.0,30.029528,,,TRUE,TRUE,,,,,,,BKN,3500,OVC,11000,,,,,VFR,,,,,,,,,,,,METAR,3.0
KTNU 211455Z AUTO 36006KT 10SM CLR 00/M04 A3018 RMK AO2,KTNU,2018-03-21T14:55:00Z,41.67,-93.02,0.0,-4.0,360,6,,10.0,30.180119,,,TRUE,TRUE,,,,,,,CLR,,,,,,,,VFR,,,,,,,,,,,,METAR,290.0
KTKC 211455Z AUTO 16003KT 10SM OVC018 01/M01 A3012 RMK AO2 T00071010,KTKC,2018-03-21T14:55:00Z,44.25,-95.62,0.7,-1.0,160,3,,10.0,30.121063,,,TRUE,TRUE,,,,,,,OVC,1800,,,,,,,MVFR,,,,,,,,,,,,METAR,408.0
KTFP 211455Z AUTO 14014KT 10SM CLR 21/10 A3016 RMK AO2 T02130104 PNO,KTFP,2018-03-21T14:55:00Z,27.92,-97.22,21.3,10.4,140,14,,10.0,30.159449,,,TRUE,TRUE,,,,,,,CLR,,,,,,,,VFR,,,,,,,,,,,,METAR,6.0
KSXU 211455Z AUTO 01007KT 10SM BKN110 07/M08 A3013 RMK AO2 T00651084,KSXU,2018-03-21T14:55:00Z,34.93,-104.65,6.5,-8.4,10,7,,10.0,30.129921,,,TRUE,TRUE,,,,,,,BKN,11000,,,,,,,VFR,,,,,,,,,,,,METAR,1460.0
KSVC 211455Z AUTO 32007KT 10SM CLR 13/M11 A3011 RMK AO2 T01251106,KSVC,2018-03-21T14:55:00Z,32.63,-108.15,12.5,-10.6,320,7,,10.0,30.109253,,,TRUE,TRUE,,,,,,,CLR,,,,,,,,VFR,,,,,,,,,,,,METAR,1659.0
KSJX 211455Z AUTO 07008KT 10SM CLR M03/M13 A3015 RMK AO2 T10341135,KSJX,2018-03-21T14:55:00Z,45.7,-85.57,-3.4,-13.5,70,8,,10.0,30.15059,,,TRUE,TRUE,,,,,,,CLR,,,,,,,,VFR,,,,,,,,,,,,METAR,204.0
KS33 211455Z AUTO 17004KT 10SM SCT050 05/02 A2974 RMK AO2,KS33,2018-03-21T14:55:00Z,44.67,-121.15,5.0,2.0,170,4,,10.0,29.740158,,,TRUE,TRUE,,,,,,,SCT,5000,,,,,,,VFR,,,,,,,,,,,,METAR,743.0
KS25 211455Z AUTO 00000KT 6SM BR CLR M05/M05 A2999 RMK AO2,KS25,2018-03-21T14:55:00Z,47.8,-103.25,-5.0,-5.0,0,0,,6.0,29.991142,,,TRUE,TRUE,,,,,,BR,CLR,,,,,,,,VFR,,,,,,,,,,,,METAR,644.0
KRZT 211455Z AUTO 03009KT 4SM -SN SCT007 OVC012 00/00 A2974 RMK AO2,KRZT,2018-03-21T14:55:00Z,39.43,-83.02,0.0,0.0,30,9,,4.0,29.740158,,,TRUE,TRUE,,,,,,-SN,SCT,700,OVC,1200,,,,,MVFR,,,,,,,,,,,,METAR,221.0
KRRT 211455Z AUTO 15007KT 10SM -SN BKN034 M02/M04 A3012 RMK AO2,KRRT,2018-03-21T14:55:00Z,48.93,-95.33,-2.0,-4.0,150,7,,10.0,30.121063,,,TRUE,TRUE,,,,,,-SN,BKN,3400,,,,,,,VFR,,,,,,,,,,,,METAR,327.0
KROX 211455Z AUTO 15007KT 10SM BKN034 OVC046 M01/M04 A3011 RMK AO2,KROX,2018-03-21T14:55:00Z,48.85,-95.7,-1.0,-4.0,150,7,,10.0,30.109253,,,TRUE,TRUE,,,,,,,BKN,3400,OVC,4600,,,,,VFR,,,,,,,,,,,,METAR,323.0
KROS 211455Z AUTO 00000KT 10SM BKN033 BKN055 BKN080 M04/M08 A3018 RMK AO2 T10451080,KROS,2018-03-21T14:55:00Z,45.7,-92.95,-4.5,-8.0,0,0,,10.0,30.180119,,,TRUE,TRUE,,,,,,,BKN,3300,BKN,5500,BKN,8000,,,VFR,,,,,,,,,,,,METAR,281.0
KRDK 211455Z AUTO 32006KT 10SM OVC014 03/00 A3020 RMK AO2,KRDK,2018-03-21T14:55:00Z,41.02,-95.27,3.0,0.0,320,6,,10.0,30.200787,,,TRUE,TRUE,,,,,,,OVC,1400,,,,,,,MVFR,,,,,,,,,,,,METAR,318.0
KPSO 211455Z AUTO 00000KT 10SM BKN100 BKN120 00/M08 A3016 RMK AO2 T00001085,KPSO,2018-03-21T14:55:00Z,37.28,-107.05,0.0,-8.5,0,0,,10.0,30.159449,,,TRUE,TRUE,,,,,,,BKN,10000,BKN,12000,,,,,VFR,,,,,,,,,,,,METAR,2334.0
KPOV 211455Z AUTO 02007KT 5SM -RA BKN036 OVC044 M02/M06 A2978 RMK AO2 T10221064,KPOV,2018-03-21T14:55:00Z,41.22,-81.25,-2.2,-6.4,20,7,,5.0,29.778543,,,TRUE,TRUE,,,,,,-RA,BKN,3600,OVC,4400,,,,,MVFR,,,,,,,,,,,,METAR,365.0
KPNM 211455Z AUTO 00000KT 10SM OVC030 M03/M07 A3017 RMK AO2 TSNO,KPNM,2018-03-21T14:55:00Z,45.57,-93.6,-3.0,-7.0,0,0,,10.0,30.171259,,,TRUE,TRUE,,,TRUE,,,,OVC,3000,,,,,,,MVFR,,,,,,,,,,,,METAR,298.0
KPHN 211455Z AUTO 01012G15KT 10SM CLR 00/M09 A2995 RMK AO2,KPHN,2018-03-21T14:55:00Z,42.92,-82.52,0.0,-9.0,10,12,15,10.0,29.949802,,,TRUE,TRUE,,,,,,,CLR,,,,,,,,VFR,,,,,,,,,,,,METAR,198.0
KOWX 211455Z AUTO 01020G23KT 2 1/2SM BKN011 OVC017 M02/M03 A2989 RMK AO1,KOWX,2018-03-21T14:55:00Z,41.03,-83.98,-2.0,-3.0,10,20,23,2.5,29.890747,,,TRUE,TRUE,,,,,,,BKN,1100,OVC,1700,,,,,IFR,,,,,,,,,,,,METAR,233.0
KOSC 211455Z AUTO 03016KT 10SM OVC024 00/M08 A3006 RMK AO2 T10051077,KOSC,2018-03-21T14:55:00Z,44.45,-83.4,-0.5,-7.7,30,16,,10.0,30.059055,,,TRUE,TRUE,,,,,,,OVC,2400,,,,,,,MVFR,,,,,,,,,,,,METAR,193.0
KORC 211455Z AUTO 00000KT 10SM SCT013 01/M01 A3015 RMK AO2,KORC,2018-03-21T14:55:00Z,42.97,-96.07,1.0,-1.0,0,0,,10.0,30.15059,,,TRUE,TRUE,,,,,,,SCT,1300,,,,,,,VFR,,,,,,,,,,,,METAR,431.0
KONA 211455Z AUTO 00000KT 10SM CLR 00/M06 A3015 RMK AO2,KONA,2018-03-21T14:55:00Z,44.07,-91.7,0.0,-6.0,0,0,,10.0,30.15059,,,TRUE,TRUE,,,,,,,CLR,,,,,,,,VFR,,,,,,,,,,,,METAR,200.0
KOGS 211455Z AUTO 02008KT 10SM CLR M02/M10 A2996 RMK AO2 T10251097,KOGS,2018-03-21T14:55:00Z,44.67,-75.47,-2.5,-9.7,20,8,,10.0,29.958662,,,TRUE,TRUE,,,,,,,CLR,,,,,,,,VFR,,,,,,,,,,,,METAR,91.0
KMQJ 211455Z AUTO 35016G24KT 4SM BKN020 OVC026 M02/M04 A2991 RMK AO1,KMQJ,2018-03-21T14:55:00Z,39.85,-85.9,-2.0,-4.0,350,16,24,4.0,29.911417,,,TRUE,TRUE,,,,,,,BKN,2000,OVC,2600,,,,,MVFR,,,,,,,,,,,,METAR,263.0
KMOP 211455Z AUTO 04011G15KT 10SM CLR 01/M08 A3003 RMK AO2 T00051083,KMOP,2018-03-21T14:55:00Z,43.62,-84.73,0.5,-8.3,40,11,15,10.0,30.029528,,,TRUE,TRUE,,,,,,,CLR,,,,,,,,VFR,,,,,,,,,,,,METAR,230.0
KMBO 211455Z AUTO 33010G19KT 10SM CLR 10/02 A3014 RMK AO2 PWINO,KMBO,2018-03-21T14:55:00Z,32.43,-90.1,10.0,2.0,330,10,19,10.0,30.138779,,,TRUE,TRUE,,,,,TRUE,,CLR,,,,,,,,VFR,,,,,,,,,,,,METAR,99.0
KLZZ 211455Z AUTO 15004KT 10SM CLR 13/02 A3019 RMK AO2 T01290016,KLZZ,2018-03-21T14:55:00Z,31.1,-98.2,12.9,1.6,150,4,,10.0,30.188976,,,TRUE,TRUE,,,,,,,CLR,,,,,,,,VFR,,,,,,,,,,,,METAR,371.0
KLWA 211455Z AUTO 02009G14KT 10SM CLR 01/M08 A3002 RMK AO2 T00061083,KLWA,2018-03-21T14:55:00Z,42.35,-86.25,0.6,-8.3,20,9,14,10.0,30.02067,,,TRUE,TRUE,,,,,,,CLR,,,,,,,,VFR,,,,,,,,,,,,METAR,203.0
KLKR 211455Z AUTO 33008KT 030V360 10SM SCT015 SCT022 BKN070 06/04 A2971 RMK AO2,KLKR,2018-03-21T14:55:00Z,34.72,-80.85,6.0,4.0,330,8,,10.0,29.71063,,,TRUE,TRUE,,,,,,,SCT,1500,SCT,2200,BKN,7000,,,VFR,,,,,,,,,,,,METAR,149.0
KJYG 211455Z AUTO 00000KT 10SM OVC010 M01/M03 A3017 RMK AO2,KJYG,2018-03-21T14:55:00Z,43.98,-94.55,-1.0,-3.0,0,0,,10.0,30.171259,,,TRUE,TRUE,,,,,,,OVC,1000,,,,,,,MVFR,,,,,,,,,,,,METAR,325.0
KY63 211455Z AUTO 11007KT 10SM OVC017 M01/M01 A3011 RMK AO2 T10071015,KY63,2018-03-21T14:55:00Z,45.98,-96.0,-0.7,-1.5,110,7,,10.0,30.109253,,,TRUE,TRUE,,,,,,,OVC,1700,,,,,,,MVFR,,,,,,,,,,,,METAR,367.0
KJSO 211455Z AUTO 08006KT 10SM CLR 14/03 A3022 RMK AO2 T01440033,KJSO,2018-03-21T14:55:00Z,31.87,-95.22,14.4,3.3,80,6,,10.0,30.221457,,,TRUE,TRUE,,,,,,,CLR,,,,,,,,VFR,,,,,,,,,,,,METAR,206.0
KJMR 211455Z AUTO 00000KT 10SM SCT029 SCT065 SCT090 M03/M07 A3018 RMK AO2,KJMR,2018-03-21T14:55:00Z,45.88,-93.27,-3.0,-7.0,0,0,,10.0,30.180119,,,TRUE,TRUE,,,,,,,SCT,2900,SCT,6500,SCT,9000,,,VFR,,,,,,,,,,,,METAR,309.0
KJFX 211455Z AUTO 29012KT 10SM 08/00 A3005 RMK AO2 PWINO,KJFX,2018-03-21T14:55:00Z,33.9,-87.32,8.0,0.0,290,12,,10.0,30.050198,,,TRUE,TRUE,,,,,TRUE,,,,,,,,,,,,,,,,,,,,,,METAR,148.0
KIDI 211455Z AUTO 00000KT 3/4SM BR VV005 M02/M03 A2972 RMK A01,KIDI,2018-03-21T14:55:00Z,40.62,-79.08,-2.0,-3.0,0,0,,0.75,29.719488,,,TRUE,TRUE,,,,,,BR,OVX,0,,,,,,,LIFR,,,,,,,,,,,500,METAR,429.0
KI69 211455Z AUTO 33011G15KT 1 3/4SM -SN OVC010 M01/M03 A2980 RMK AO2 T10121026,KI69,2018-03-21T14:55:00Z,39.08,-84.22,-1.2,-2.6,330,11,15,1.75,29.799213,,,TRUE,TRUE,,,,,,-SN,OVC,1000,,,,,,,IFR,,,,,,,,,,,,METAR,255.0
KHZX 211455Z AUTO 08003KT 10SM SCT036 SCT043 SCT070 M03/M06 A3016 RMK AO2,KHZX,2018-03-21T14:55:00Z,46.62,-93.32,-3.0,-6.0,80,3,,10.0,30.159449,,,TRUE,TRUE,,,,,,,SCT,3600,SCT,4300,SCT,7000,,,VFR,,,,,,,,,,,,METAR,374.0
KHYX 211455Z AUTO 04018G23KT 10SM SCT023 00/M06 A3001 RMK AO2,KHYX,2018-03-21T14:55:00Z,43.43,-83.87,0.0,-6.0,40,18,23,10.0,30.008858,,,TRUE,TRUE,,,,,,,SCT,2300,,,,,,,VFR,,,,,,,,,,,,METAR,183.0
KHNR 211455Z AUTO 29006KT 10SM OVC013 01/01 A3022 RMK AO2,KHNR,2018-03-21T14:55:00Z,41.58,-95.33,1.0,1.0,290,6,,10.0,30.221457,,,TRUE,TRUE,,,,,,,OVC,1300,,,,,,,MVFR,,,,,,,,,,,,METAR,375.0
KHEG 211455Z AUTO 27013G25KT 10SM CLR 15/02 A2994 RMK AO2,KHEG,2018-03-21T14:55:00Z,,,15.0,2.0,270,13,25,10.0,29.940945,,,TRUE,TRUE,,,,,,,CLR,,,,,,,,VFR,,,,,,,,,,,,METAR,
KHAI 211455Z AUTO 02012G17KT 10SM SCT120 00/M08 A2998 RMK AO2 T10021077,KHAI,2018-03-21T14:55:00Z,41.97,-85.6,-0.2,-7.7,20,12,17,10.0,29.97933,,,TRUE,TRUE,,,,,,,SCT,12000,,,,,,,VFR,,,,,,,,,,,,METAR,251.0
KGPC 211455Z AUTO 35013KT 7SM SCT080 BKN095 M01/M06 A2996 RMK AO2,KGPC,2018-03-21T14:55:00Z,39.63,-86.82,-1.0,-6.0,350,13,,7.0,29.958662,,,TRUE,TRUE,,,,,,,SCT,8000,BKN,9500,,,,,VFR,,,,,,,,,,,,METAR,257.0
KGNT 211455Z AUTO 00000KT 10SM CLR 02/M11 A3015 RMK AO2 T00161114,KGNT,2018-03-21T14:55:00Z,35.17,-107.9,1.6,-11.4,0,0,,10.0,30.15059,,,TRUE,TRUE,,,,,,,CLR,,,,,,,,VFR,,,,,,,,,,,,METAR,1987.0
KGLY 211455Z AUTO 9SM BKN020 04/00 A3020 RMK AO2,KGLY,2018-03-21T14:55:00Z,38.35,-93.68,4.0,0.0,,,,9.0,30.200787,,,TRUE,TRUE,,,,,,,BKN,2000,,,,,,,MVFR,,,,,,,,,,,,METAR,251.0
KGGE 211455Z AUTO 27017G25KT 10SM OVC042 10/02 A2969 RMK AO2,KGGE,2018-03-21T14:55:00Z,33.32,-79.32,10.0,2.0,270,17,25,10.0,29.68996,,,TRUE,TRUE,,,,,,,OVC,4200,,,,,,,VFR,,,,,,,,,,,,METAR,12.0
KFMM 211455Z AUTO 00000KT 10SM CLR 03/M08 A3004 RMK AO2 T00291077,KFMM,2018-03-21T14:55:00Z,40.33,-103.8,2.9,-7.7,0,0,,10.0,30.041338,,,TRUE,TRUE,,,,,,,CLR,,,,,,,,VFR,,,,,,,,,,,,METAR,1393.0
KFKA 211455Z AUTO 00000KT 10SM CLR M02/M07 A3014 RMK AO2 T10161075,KFKA,2018-03-21T14:55:00Z,43.68,-92.17,-1.6,-7.5,0,0,,10.0,30.138779,,,TRUE,TRUE,,,,,,,CLR,,,,,,,,VFR,,,,,,,,,,,,METAR,389.0
KFFM 211455Z AUTO 14008KT 5SM UP SCT007 OVC021 M01/M01 A3009 RMK AO2,KFFM,2018-03-21T14:55:00Z,46.28,-96.15,-1.0,-1.0,140,8,,5.0,30.088583,,,TRUE,TRUE,,,,,,UP,SCT,700,OVC,2100,,,,,MVFR,,,,,,,,,,,,METAR,361.0
KD95 211455Z AUTO 02012G16KT 10SM CLR 00/M08 A2998 RMK AO2 T00001079,KD95,2018-03-21T14:55:00Z,43.07,-83.27,0.0,-7.9,20,12,16,10.0,29.97933,,,TRUE,TRUE,,,,,,,CLR,,,,,,,,VFR,,,,,,,,,,,,METAR,255.0
KCLW 211455Z AUTO 33018G23KT 10SM SCT034 16/07 A3004 RMK AO2,KCLW,2018-03-21T14:55:00Z,27.98,-82.75,16.0,7.0,330,18,23,10.0,30.041338,,,TRUE,TRUE,,,,,,,SCT,3400,,,,,,,VFR,,,,,,,,,,,,METAR,22.0
KCLS 211455Z AUTO 00000KT M1/4SM FZFG OVC004 M00/M00 A2976 RMK AO2,KCLS,2018-03-21T14:55:00Z,46.68,-122.98,0.0,0.0,0,0,,0.25,29.760826,,,TRUE,TRUE,,,,,,FZFG,OVC,400,,,,,,,LIFR,,,,,,,,,,,,METAR,54.0
KCCY 211455Z AUTO 00000KT 10SM CLR M01/M04 A3016 RMK AO2,KCCY,2018-03-21T14:55:00Z,43.07,-92.62,-1.0,-4.0,0,0,,10.0,30.159449,,,TRUE,TRUE,,,,,,,CLR,,,,,,,,VFR,,,,,,,,,,,,METAR,343.0
KCBG 211455Z AUTO 00000KT 10SM M03/M08 A3018 RMK AO2,KCBG,2018-03-21T14:55:00Z,45.57,-93.27,-3.0,-8.0,0,0,,10.0,30.180119,,,TRUE,TRUE,,,,,,,,,,,,,,,,,,,,,,,,,,,METAR,287.0
KBKN 211455Z AUTO VRB05KT 10SM CLR 06/03 A3026 RMK AO2,KBKN,2018-03-21T14:55:00Z,36.75,-97.35,6.0,3.0,0,5,,10.0,30.259842,,,TRUE,TRUE,,,,,,,CLR,,,,,,,,VFR,,,,,,,,,,,,METAR,314.0
KBAX 211455Z AUTO 04014G19KT 10SM CLR M02/M06 A3001 RMK AO2 T10161065,KBAX,2018-03-21T14:55:00Z,43.78,-82.98,-1.6,-6.5,40,14,19,10.0,30.008858,,,TRUE,TRUE,,,,,,,CLR,,,,,,,,VFR,,,,,,,,,,,,METAR,234.0
KAWG 211455Z AUTO 35008KT 10SM CLR 00/M08 A3016 RMK AO2,KAWG,2018-03-21T14:55:00Z,41.27,-91.67,0.0,-8.0,350,8,,10.0,30.159449,,,TRUE,TRUE,,,,,,,CLR,,,,,,,,VFR,,,,,,,,,,,,METAR,230.0
KAUM 211455Z AUTO 00000KT 10SM CLR M01/M07 A3014 RMK AO2,KAUM,2018-03-21T14:55:00Z,43.67,-92.92,-1.0,-7.0,0,0,,10.0,30.138779,,,TRUE,TRUE,,,,,,,CLR,,,,,,,,VFR,,,,,,,,,,,,METAR,375.0
KANK 211455Z AUTO 00000KT 10SM SCT120 M01/M12 A3019 RMK AO1 T10111125,KANK,2018-03-21T14:55:00Z,38.53,-106.05,-1.1,-12.5,0,0,,10.0,30.188976,,,TRUE,TRUE,,,,,,,SCT,12000,,,,,,,VFR,,,,,,,,,,,,METAR,2293.0
KAJZ 211455Z AUTO 00000KT 10SM CLR 04/M07 A3010 RMK AO2 T00371067,KAJZ,2018-03-21T14:55:00Z,38.78,-108.07,3.7,-6.7,0,0,,10.0,30.100393,,,TRUE,TRUE,,,,,,,CLR,,,,,,,,VFR,,,,,,,,,,,,METAR,1583.0
KAIK 211455Z AUTO 26022G28KT 10SM BKN037 07/M01 A2980 RMK AO2,KAIK,2018-03-21T14:55:00Z,33.65,-81.68,7.0,-1.0,260,22,28,10.0,29.799213,,,TRUE,TRUE,,,,,,,BKN,3700,,,,,,,VFR,,,,,,,,,,,,METAR,161.0
KAEJ 211455Z AUTO 00000KT 10SM CLR M01/M12 A3010 RMK AO2 T10101119,KAEJ,2018-03-21T14:55:00Z,38.82,-106.12,-1.0,-11.9,0,0,,10.0,30.100393,,,TRUE,TRUE,,,,,,,CLR,,,,,,,,VFR,,,,,,,,,,,,METAR,2422.0
KADU 211455Z AUTO 00000KT 10SM OVC011 01/M01 A3019 RMK AO2,KADU,2018-03-21T14:55:00Z,41.7,-94.92,1.0,-1.0,0,0,,10.0,30.188976,,,TRUE,TRUE,,,,,,,OVC,1100,,,,,,,MVFR,,,,,,,,,,,,METAR,392.0
KACB 211455Z AUTO 03006KT 10SM CLR M03/M10 A3012 RMK AO2 T10261104,KACB,2018-03-21T14:55:00Z,44.98,-85.2,-2.6,-10.4,30,6,,10.0,30.121063,,,TRUE,TRUE,,,,,,,CLR,,,,,,,,VFR,,,,,,,,,,,,METAR,190.0
K54J 211455Z AUTO 30008KT 270V330 10SM CLR 12/03 A3007 RMK AO2 T01160034,K54J,2018-03-21T14:55:00Z,30.73,-86.15,11.6,3.4,300,8,,10.0,30.070866,,,TRUE,TRUE,,,,,,,CLR,,,,,,,,VFR,,,,,,,,,,,,METAR,88.0
K4I3 211455Z AUTO 01010G16KT 7SM SCT016 M00/M02 A2975 RMK AO2,K4I3,2018-03-21T14:55:00Z,40.33,-82.53,0.0,-2.0,10,10,16,7.0,29.749016,,,TRUE,TRUE,,,,,,,SCT,1600,,,,,,,VFR,,,,,,,,,,,,METAR,363.0
K3T5 211455Z AUTO 00000KT 10SM CLR 14/08 A3018 RMK AO2 T01390075,K3T5,2018-03-21T14:55:00Z,29.9,-96.95,13.9,7.5,0,0,,10.0,30.180119,,,TRUE,TRUE,,,,,,,CLR,,,,,,,,VFR,,,,,,,,,,,,METAR,99.0
K14Y 211455Z AUTO 09004KT 10SM OVC010 M03/M06 A3014 RMK AO2,K14Y,2018-03-21T14:55:00Z,45.9,-94.87,-3.0,-6.0,90,4,,10.0,30.138779,,,TRUE,TRUE,,,,,,,OVC,1000,,,,,,,MVFR,,,,,,,,,,,,METAR,406.0
K06D 211455Z AUTO 00000KT 8SM OVC013 M02/M02 A3000 RMK AO2,K06D,2018-03-21T14:55:00Z,48.88,-99.62,-2.0,-2.0,0,0,,8.0,30.0,,,TRUE,TRUE,,,,,,,OVC,1300,,,,,,,MVFR,,,,,,,,,,,,METAR,556.0
KMNI 211455Z 10SM CLR 08/M07 A2973 RMK AO2,KMNI,2018-03-21T14:55:00Z,33.58,-80.22,8.0,-7.0,,,,10.0,29.731298,,,,TRUE,,,,,,,CLR,,,,,,,,VFR,,,,,,,,,,,,METAR,32.0
KPTS 211455Z AUTO 33007KT 10SM CLR 05/01 A3022 RMK AO2 T00500012,KPTS,2018-03-21T14:55:00Z,37.45,-94.73,5.0,1.2,330,7,,10.0,30.221457,,,TRUE,TRUE,,,,,,,CLR,,,,,,,,VFR,,,,,,,,,,,,METAR,290.0
KDYB 211455Z AUTO 28014G23KT 10SM SCT042 10/00 A2975 RMK AO1,KDYB,2018-03-21T14:55:00Z,33.07,-80.28,10.0,0.0,280,14,23,10.0,29.749016,,,TRUE,TRUE,,,,,,,SCT,4200,,,,,,,VFR,,,,,,,,,,,,METAR,18.0
KDYA 211455Z AUTO 32008G14KT 280V350 10SM 11/02 A3010 RMK AO2 T01120022,KDYA,2018-03-21T14:55:00Z,32.47,-87.95,11.2,2.2,320,8,14,10.0,30.100393,,,TRUE,TRUE,,,,,,,,,,,,,,,,,,,,,,,,,,,METAR,34.0
KC62 211455Z AUTO 04012G15KT 10SM CLR 00/M06 A2993 RMK AO2 T00011066,KC62,2018-03-21T14:55:00Z,41.47,-85.25,0.1,-6.6,40,12,15,10.0,29.929134,,,TRUE,TRUE,,,,,,,CLR,,,,,,,,VFR,,,,,,,,,,,,METAR,306.0
KBRY 211455Z AUTO 34008KT 1 1/2SM OVC004 M01/M02 A2987 RMK AO1,KBRY,2018-03-21T14:55:00Z,37.82,-85.5,-1.0,-2.0,340,8,,1.5,29.870079,,,TRUE,TRUE,,,,,,,OVC,400,,,,,,,LIFR,,,,,,,,,,,,METAR,204.0
KD55 211455Z AUTO 12006KT 1/2SM BR OVC001 M01/M01 A3001 RMK AO2,KD55,2018-03-21T14:55:00Z,48.75,-98.4,-1.0,-1.0,120,6,,0.5,30.008858,,,TRUE,TRUE,,,,,,BR,OVC,100,,,,,,,LIFR,,,,,,,,,,,,METAR,491.0
CYNE 211455Z AUTO 13002KT 7SM M08/M09 A3008 RMK CLD MISG SLP207,CYNE,2018-03-21T14:55:00Z,53.97,-97.82,-8.0,-9.0,130,2,,7.0,30.079725,1020.7,,TRUE,,,,,,,,,,,,,,,,,,,,,,,,,,,,SPECI,223.0
KCKM 211455Z AUTO 32013KT 10SM CLR 09/04 A3013 RMK A01,KCKM,2018-03-21T14:55:00Z,34.3,-90.52,9.0,4.0,320,13,,10.0,30.129921,,,TRUE,TRUE,,,,,,,CLR,,,,,,,,VFR,,,,,,,,,,,,METAR,53.0
KFDW 211455Z AUTO 26011G21KT 244V304 10SM SCT036 OVC043 07/M01 A2971 RMK AO1,KFDW,2018-03-21T14:55:00Z,34.32,-81.12,7.0,-1.0,260,11,21,10.0,29.71063,,,TRUE,TRUE,,,,,,,SCT,3600,OVC,4300,,,,,VFR,,,,,,,,,,,,SPECI,176.0
KSIK 211455Z AUTO 33009G15KT 10SM SCT036 05/M01 A3010 RMK AO2,KSIK,2018-03-21T14:55:00Z,36.9,-89.57,5.0,-1.0,330,9,15,10.0,30.100393,,,TRUE,TRUE,,,,,,,SCT,3600,,,,,,,VFR,,,,,,,,,,,,SPECI,96.0
KGGI 211455Z AUTO 34004KT 10SM CLR 00/M04 A3017 RMK AO2 T00001036,KGGI,2018-03-21T14:55:00Z,41.72,-92.73,0.0,-3.6,340,4,,10.0,30.171259,,,TRUE,TRUE,,,,,,,CLR,,,,,,,,VFR,,,,,,,,,,,,SPECI,307.0
KCQW 211455Z AUTO 31005KT 5SM -RA FEW001 BKN021 OVC027 04/03 A2969 RMK AO2 P0002,KCQW,2018-03-21T14:55:00Z,34.72,-79.95,4.0,3.0,310,5,,5.0,29.68996,,,TRUE,TRUE,,,,,,-RA,FEW,100,BKN,2100,OVC,2700,,,MVFR,,,,,,0.02,,,,,,SPECI,73.0
KLBO 211455Z AUTO 31006KT 10SM OVC012 03/01 A3015 RMK AO2,KLBO,2018-03-21T14:55:00Z,37.65,-92.65,3.0,1.0,310,6,,10.0,30.15059,,,TRUE,TRUE,,,,,,,OVC,1200,,,,,,,MVFR,,,,,,,,,,,,METAR,403.0
KPNE 211454Z AUTO 04009KT 1/2SM SN FG BKN009 OVC014 01/M01 A2967 RMK AO2 SLP048 P0005 60012 I3001 T00061011 53005 RVRNO,KPNE,2018-03-21T14:54:00Z,40.08,-75.02,0.6,-1.1,40,9,,0.5,29.66929,1004.8,,TRUE,TRUE,,,,,,SN FG,BKN,900,OVC,1400,,,,,LIFR,0.5,,,,,0.05,0.12,,,,,METAR,28.0
KPLN 211454Z AUTO 04011KT 10SM CLR M03/M13 A3014 RMK AO2 SLP217 T10331128 51008,KPLN,2018-03-21T14:54:00Z,45.57,-84.8,-3.3,-12.8,40,11,,10.0,30.138779,1021.7,,TRUE,TRUE,,,,,,,CLR,,,,,,,,VFR,0.8,,,,,,,,,,,METAR,217.0
KPIA 211454Z VRB06G14KT 10SM CLR 01/M06 A3011 RMK AO2 SLP201 T00061056 53023,KPIA,2018-03-21T14:54:00Z,40.67,-89.68,0.6,-5.6,0,6,14,10.0,30.109253,1020.1,,,TRUE,,,,,,,CLR,,,,,,,,VFR,2.3,,,,,,,,,,,METAR,205.0
KPHL 211454Z 04014KT 3/4SM R09R/3500V4000FT -SN BR BKN010 OVC015 M01/M01 A2966 RMK AO2 FZRAE1357SNB1357PLE24 SLP043 P0006 60009 I1000 I3000 T10061011 53008,KPHL,2018-03-21T14:54:00Z,39.87,-75.23,-0.6,-1.1,40,14,,0.75,29.660433,1004.3,,,TRUE,,,,,,-SN BR,BKN,1000,OVC,1500,,,,,LIFR,0.8,,,,,0.06,0.09,,,,,METAR,18.0
KPHF 211454Z 31008KT 5SM -SN OVC008 02/01 A2959 RMK AO2 CIG 005V012 SLP019 P0000 60006 T00220011 53005,KPHF,2018-03-21T14:54:00Z,37.13,-76.5,2.2,1.1,310,8,,5.0,29.589567,1001.9,,,TRUE,,,,,,-SN,OVC,800,,,,,,,IFR,0.5,,,,,0.005,0.06,,,,,METAR,12.0
KORH 211454Z 04009G22KT 10SM OVC110 M02/M08 A2975 RMK AO2 SLP087 T10221083 58001,KORH,2018-03-21T14:54:00Z,42.27,-71.87,-2.2,-8.3,40,9,22,10.0,29.749016,1008.7,,,TRUE,,,,,,,OVC,11000,,,,,,,VFR,-0.1,,,,,,,,,,,METAR,304.0
KOLS 211454Z AUTO 00000KT 10SM CLR 11/M07 A3006 RMK AO2 SLP142 T01111067 51007,KOLS,2018-03-21T14:54:00Z,31.42,-110.85,11.1,-6.7,0,0,,10.0,30.059055,1014.2,,TRUE,TRUE,,,,,,,CLR,,,,,,,,VFR,0.7,,,,,,,,,,,METAR,1184.0
KOLM 211454Z 00000KT 1/2SM FZFG BKN001 M02/M02 A2976 RMK AO2 SLP081 I3001 T10221022 56009,KOLM,2018-03-21T14:54:00Z,46.97,-122.9,-2.2,-2.2,0,0,,0.5,29.760826,1008.1,,,TRUE,,,,,,FZFG,BKN,100,,,,,,,LIFR,-0.9,,,,,,,,,,,METAR,58.0
KJAN 211454Z 33013KT 10SM CLR 12/02 A3013 RMK AO2 SLP203 T01170022 51028,KJAN,2018-03-21T14:54:00Z,32.32,-90.08,11.7,2.2,330,13,,10.0,30.129921,1020.3,,,TRUE,,,,,,,CLR,,,,,,,,VFR,2.8,,,,,,,,,,,METAR,91.0
KIZG 211454Z AUTO 03008KT CLR M01/M09 A2987 RMK AO2 SLP120 T10061094 58009 $,KIZG,2018-03-21T14:54:00Z,43.98,-70.95,-0.6,-9.4,30,8,,,29.870079,1012.0,,TRUE,TRUE,TRUE,,,,,,CLR,,,,,,,,,-0.9,,,,,,,,,,,METAR,135.0
KISW 211454Z AUTO 03004KT 10SM CLR M03/M11 A3015 RMK AO2 SLP226 T10281111 51013 TSNO,KISW,2018-03-21T14:54:00Z,44.37,-89.83,-2.8,-11.1,30,4,,10.0,30.15059,1022.6,,TRUE,TRUE,,,TRUE,,,,CLR,,,,,,,,VFR,1.3,,,,,,,,,,,METAR,307.0
KIPT 211454Z 30004KT 10SM BKN037 OVC049 M01/M05 A2973 RMK AO2 SNE34 SLP071 P0000 60000 T10111050 50005,KIPT,2018-03-21T14:54:00Z,41.25,-76.92,-1.1,-5.0,300,4,,10.0,29.731298,1007.1,,,TRUE,,,,,,,BKN,3700,OVC,4900,,,,,VFR,0.5,,,,,0.005,0.005,,,,,METAR,164.0
KINT 211454Z 00000KT 1SM -SN BR BKN005 OVC012 01/00 A2967 RMK AO2 SLP053 P0001 60003 T00060000 53011,KINT,2018-03-21T14:54:00Z,36.13,-80.22,0.6,0.0,0,0,,1.0,29.66929,1005.3,,,TRUE,,,,,,-SN BR,BKN,500,OVC,1200,,,,,IFR,1.1,,,,,0.01,0.03,,,,,METAR,291.0
KIND 211454Z 34014KT 10SM FEW032 FEW050 BKN100 OVC250 M01/M06 A2993 RMK AO2 SLP142 60002 T10061056 53024,KIND,2018-03-21T14:54:00Z,39.72,-86.3,-0.6,-5.6,340,14,,10.0,29.929134,1014.2,,,TRUE,,,,,,,FEW,3200,FEW,5000,BKN,10000,OVC,25000,VFR,2.4,,,,,,0.02,,,,,METAR,241.0
KILN 211454Z AUTO 35014KT 2SM -SN BR BKN008 OVC014 M01/M02 A2976 RMK AO2 CIG 007V012 SLP102 P0002 60005 T10111017 53029,KILN,2018-03-21T14:54:00Z,39.43,-83.8,-1.1,-1.7,350,14,,2.0,29.760826,1010.2,,TRUE,TRUE,,,,,,-SN BR,BKN,800,OVC,1400,,,,,IFR,2.9,,,,,0.02,0.05,,,,,METAR,322.0
KHWD 211454Z 15008KT 10SM OVC028 15/11 A2980 RMK AO2 SLP100 T01500106 55000,KHWD,2018-03-21T14:54:00Z,37.67,-122.12,15.0,10.6,150,8,,10.0,29.799213,1010.0,,,TRUE,,,,,,,OVC,2800,,,,,,,MVFR,0.0,,,,,,,,,,,METAR,21.0
KGSO 211454Z 02006KT 1 3/4SM -SN BR FEW006 BKN012 OVC040 00/M02 A2966 RMK AO2 SFC VIS 2 1/2 SLP048 P0000 60002 T00001017 53015,KGSO,2018-03-21T14:54:00Z,36.1,-79.95,0.0,-1.7,20,6,,1.75,29.660433,1004.8,,,TRUE,,,,,,-SN BR,FEW,600,BKN,1200,OVC,4000,,,IFR,1.5,,,,,0.005,0.02,,,,,METAR,275.0
KPTW 211454Z AUTO 04005KT 1/2SM SN FZFG BKN008 OVC015 M02/M03 A2967 RMK AO2 SLP049 P0007 60016 T10171028 53003,KPTW,2018-03-21T14:54:00Z,40.23,-75.55,-1.7,-2.8,40,5,,0.5,29.66929,1004.9,,TRUE,TRUE,,,,,,SN FZFG,BKN,800,OVC,1500,,,,,LIFR,0.3,,,,,0.07,0.16,,,,,METAR,92.0
KRBL 211454Z AUTO 00000KT 1 3/4SM -RA BR OVC008 11/10 A2985 RMK AO2 CIG 004V010 SLP105 P0002 60003 T01060100 55004,KRBL,2018-03-21T14:54:00Z,40.15,-122.25,10.6,10.0,0,0,,1.75,29.84941,1010.5,,TRUE,TRUE,,,,,,-RA BR,OVC,800,,,,,,,IFR,-0.4,,,,,0.02,0.03,,,,,METAR,104.0
KRDG 211454Z VRB04KT 1SM R36/3500V4500FT -SN BR FEW008 OVC014 M01/M02 A2966 RMK AO2 SLP052 P0003 60005 T10111017 53001,KRDG,2018-03-21T14:54:00Z,40.37,-75.97,-1.1,-1.7,0,4,,1.0,29.660433,1005.2,,,TRUE,,,,,,-SN BR,FEW,800,OVC,1400,,,,,IFR,0.1,,,,,0.03,0.05,,,,,METAR,109.0
KRFD 211454Z 01011KT 10SM FEW030 OVC250 M01/M08 A3012 RMK AO2 SLP208 T10061078 53020,KRFD,2018-03-21T14:54:00Z,42.2,-89.1,-0.6,-7.8,10,11,,10.0,30.121063,1020.8,,,TRUE,,,,,,,FEW,3000,OVC,25000,,,,,VFR,2.0,,,,,,,,,,,METAR,221.0
KRIC 211454Z 33009KT 1SM R34/4500VP6000FT -SN BR BKN007 OVC013 01/01 A2962 RMK AO2 SLP036 P0003 60013 T00060006 55000,KRIC,2018-03-21T14:54:00Z,37.52,-77.32,0.6,0.6,330,9,,1.0,29.619095,1003.6,,,TRUE,,,,,,-SN BR,BKN,700,OVC,1300,,,,,IFR,0.0,,,,,0.03,0.13,,,,,METAR,50.0
KRKS 211454Z AUTO 00000KT 10SM BKN110 00/M05 A3001 RMK AO2 SLP168 T00001050 53004,KRKS,2018-03-21T14:54:00Z,41.6,-109.07,0.0,-5.0,0,0,,10.0,30.008858,1016.8,,TRUE,TRUE,,,,,,,BKN,11000,,,,,,,VFR,0.4,,,,,,,,,,,METAR,2060.0
KROA 211454Z 06005KT 1SM -SN BR FEW006 BKN016 OVC024 M01/M02 A2967 RMK AO2 SFC VIS 1 1/4 SLP056 P0002 60005 T10111022 50007,KROA,2018-03-21T14:54:00Z,37.32,-79.97,-1.1,-2.2,60,5,,1.0,29.66929,1005.6,,,TRUE,,,,,,-SN BR,FEW,600,BKN,1600,OVC,2400,,,IFR,0.7,,,,,0.02,0.05,,,,,METAR,362.0
KROC 211454Z 05018KT 10SM FEW024 BKN150 OVC220 M01/M06 A2988 RMK AO2 SLP127 T10111061 51006,KROC,2018-03-21T14:54:00Z,43.12,-77.68,-1.1,-6.1,50,18,,10.0,29.878937,1012.7,,,TRUE,,,,,,,FEW,2400,BKN,15000,OVC,22000,,,VFR,0.6,,,,,,,,,,,METAR,178.0
KRST 211454Z 00000KT 10SM OVC050 M01/M06 A3014 RMK AO2 SLP222 T10111061 51011,KRST,2018-03-21T14:54:00Z,43.9,-92.5,-1.1,-6.1,0,0,,10.0,30.138779,1022.2,,,TRUE,,,,,,,OVC,5000,,,,,,,VFR,1.1,,,,,,,,,,,METAR,403.0
KSBN 211454Z 01010KT 10SM CLR 00/M08 A3000 RMK AO2 SLP167 T00001083 51020 $,KSBN,2018-03-21T14:54:00Z,41.7,-86.32,0.0,-8.3,10,10,,10.0,30.0,1016.7,,,TRUE,TRUE,,,,,,CLR,,,,,,,,VFR,2.0,,,,,,,,,,,METAR,237.0
KSBY 211454Z 04012G20KT 5SM -RA BR OVC010 04/03 A2953 RMK AO2 CIG 007V014 SLP003 P0002 60005 T00390033 56003,KSBY,2018-03-21T14:54:00Z,38.33,-75.5,3.9,3.3,40,12,20,5.0,29.530512,1000.3,,,TRUE,,,,,,-RA BR,OVC,1000,,,,,,,MVFR,-0.3,,,,,0.02,0.05,,,,,METAR,19.0
KSBS 211454Z AUTO 00000KT 10SM SCT046 BKN060 OVC080 00/M04 A3008 RMK AO1 T10051040,KSBS,2018-03-21T14:54:00Z,40.52,-106.87,-0.5,-4.0,0,0,,10.0,30.079725,,,TRUE,TRUE,,,,,,,SCT,4600,BKN,6000,OVC,8000,,,VFR,,,,,,,,,,,,METAR,2096.0
KBUY 211454Z AUTO 36005KT 4SM -SN BR BKN010 BKN013 OVC035 02/00 A2966 RMK AO2 SLP048 P0000 60001 T00170000 53009,KBUY,2018-03-21T14:54:00Z,36.05,-79.47,1.7,0.0,360,5,,4.0,29.660433,1004.8,,TRUE,TRUE,,,,,,-SN BR,BKN,1000,BKN,1300,OVC,3500,,,MVFR,0.9,,,,,0.005,0.01,,,,,METAR,180.0
KBWI 211454Z 01007KT 1/8SM R10/1800V2400FT +SN FZFG VV005 M01/M01 A2964 RMK AO2 SLP038 SNINCR 1/2 P0010 60019 I3000 T10061006 50006,KBWI,2018-03-21T14:54:00Z,39.17,-76.68,-0.6,-0.6,10,7,,0.13,29.639763,1003.8,,,TRUE,,,,,,+SN FZFG,OVX,0,,,,,,,LIFR,0.6,,,,,0.1,0.19,,,2.0,500,METAR,59.0
KCAR 211454Z AUTO 35004KT 10SM CLR M01/M10 A2995 RMK AO2 SLP154 T10111100 58005,KCAR,2018-03-21T14:54:00Z,46.87,-68.02,-1.1,-10.0,350,4,,10.0,29.949802,1015.4,,TRUE,TRUE,,,,,,,CLR,,,,,,,,VFR,-0.5,,,,,,,,,,,METAR,191.0
KCCU 211454Z AUTO 28003KT 10SM SCT014 OVC025 M04/M08 A3012 RMK AO2,KCCU,2018-03-21T14:54:00Z,39.48,-106.15,-4.0,-8.0,280,3,,10.0,30.121063,,,TRUE,TRUE,,,,,,,SCT,1400,OVC,2500,,,,,MVFR,,,,,,,,,,,,METAR,3680.0
KCEC 211454Z AUTO 13007KT 9SM BKN008 OVC013 12/10 A2975 RMK AO2 RAE46 CIG 005V010 SLP075 P0003 60011 T01170100 56005,KCEC,2018-03-21T14:54:00Z,41.77,-124.22,11.7,10.0,130,7,,9.0,29.749016,1007.5,,TRUE,TRUE,,,,,,,BKN,800,OVC,1300,,,,,IFR,-0.5,,,,,0.03,0.11,,,,,METAR,17.0
KCEU 211454Z AUTO 27014G20KT 10SM BKN050 BKN055 06/M04 A2976 RMK AO2 SLP076 T00611039 53018,KCEU,2018-03-21T14:54:00Z,34.67,-82.88,6.1,-3.9,270,14,20,10.0,29.760826,1007.6,,TRUE,TRUE,,,,,,,BKN,5000,BKN,5500,,,,,VFR,1.8,,,,,,,,,,,METAR,268.0
KCOS 211454Z 00000KT 10SM SCT200 BKN250 03/M09 A3008 RMK AO2 SLP193 T00281089 50006,KCOS,2018-03-21T14:54:00Z,38.82,-104.68,2.8,-8.9,0,0,,10.0,30.079725,1019.3,,,TRUE,,,,,,,SCT,20000,BKN,25000,,,,,VFR,0.6,,,,,,,,,,,METAR,1856.0
KCOU 211454Z 33009KT 10SM FEW024 04/M02 A3015 RMK AO2 SLP215 T00391017 52026,KCOU,2018-03-21T14:54:00Z,38.82,-92.22,3.9,-1.7,330,9,,10.0,30.15059,1021.5,,,TRUE,,,,,,,FEW,2400,,,,,,,VFR,2.6,,,,,,,,,,,METAR,271.0
KCRW 211454Z 25009KT 1/2SM SN FG BKN005 OVC010 01/00 A2966 RMK AO2 SLP047 SNINCR 1/1 P0006 60017 T00060000 51021 RVRNO,KCRW,2018-03-21T14:54:00Z,38.38,-81.58,0.6,0.0,250,9,,0.5,29.660433,1004.7,,,TRUE,,,,,,SN FG,BKN,500,OVC,1000,,,,,LIFR,2.1,,,,,0.06,0.17,,,1.0,,METAR,309.0
KDDH 211454Z AUTO 00000KT 10SM CLR M01/M11 A2980 RMK AO2 SLP099 T10111106 55004,KDDH,2018-03-21T14:54:00Z,42.9,-73.25,-1.1,-10.6,0,0,,10.0,29.799213,1009.9,,TRUE,TRUE,,,,,,,CLR,,,,,,,,VFR,-0.4,,,,,,,,,,,METAR,244.0
KDEC 211454Z 34014KT 10SM CLR 02/M05 A3005 RMK AO2 SLP183 T00171050 51024,KDEC,2018-03-21T14:54:00Z,39.83,-88.85,1.7,-5.0,340,14,,10.0,30.050198,1018.3,,,TRUE,,,,,,,CLR,,,,,,,,VFR,2.4,,,,,,,,,,,METAR,207.0
KDSM 211454Z 34006KT 10SM FEW020 FEW040 02/M03 A3018 RMK AO2 SLP230 T00171033 53019,KDSM,2018-03-21T14:54:00Z,41.53,-93.67,1.7,-3.3,340,6,,10.0,30.180119,1023.0,,,TRUE,,,,,,,FEW,2000,FEW,4000,,,,,VFR,1.9,,,,,,,,,,,METAR,295.0
KDSV 211454Z AUTO 32013KT 10SM CLR 00/M08 A2983 RMK AO2 SLP116 T00001078 58001,KDSV,2018-03-21T14:54:00Z,42.57,-77.72,0.0,-7.8,320,13,,10.0,29.828741,1011.6,,TRUE,TRUE,,,,,,,CLR,,,,,,,,VFR,-0.1,,,,,,,,,,,METAR,198.0
KDYL 211454Z AUTO 05008G15KT 010V070 1SM -SN BR SCT009 OVC015 M02/M03 A2964 RMK AO2 SLP046 P0000 60000 T10171028 55002,KDYL,2018-03-21T14:54:00Z,40.33,-75.12,-1.7,-2.8,50,8,15,1.0,29.639763,1004.6,,TRUE,TRUE,,,,,,-SN BR,SCT,900,OVC,1500,,,,,IFR,-0.2,,,,,0.005,0.005,,,,,METAR,117.0
KECG 211454Z 28013KT 10SM OVC007 03/03 A2959 RMK AO2 CIG 006V011 SLP018 60001 T00330033 53009,KECG,2018-03-21T14:54:00Z,36.27,-76.18,3.3,3.3,280,13,,10.0,29.589567,1001.8,,,TRUE,,,,,,,OVC,700,,,,,,,IFR,0.9,,,,,,0.01,,,,,METAR,11.0
KEUG 211454Z 00000KT 8SM OVC030 06/06 A2974 RMK AO2 RAB17E32 SLP072 VCSH P0000 60000 T00610056 56006,KEUG,2018-03-21T14:54:00Z,44.13,-123.22,6.1,5.6,0,0,,8.0,29.740158,1007.2,,,TRUE,,,,,,,OVC,3000,,,,,,,MVFR,-0.6,,,,,0.005,0.005,,,,,METAR,114.0
KEVV 211454Z 32014G21KT 10SM BKN023 01/M02 A3000 RMK AO2 PK WND 34026/1434 SLP164 T00111022 51018,KEVV,2018-03-21T14:54:00Z,38.05,-87.52,1.1,-2.2,320,14,21,10.0,30.0,1016.4,,,TRUE,,,,,,,BKN,2300,,,,,,,MVFR,1.8,,,,,,,,,,,METAR,117.0
YMDG 211454Z AUTO 13013KT 9999 // SCT022 OVC125 17/12 Q1024,YMDG,2018-03-21T14:54:00Z,-32.57,149.62,17.0,12.0,130,13,,6.21,30.236221,,,TRUE,,,,,,,,SCT,2200,OVC,12500,,,,,VFR,,,,,,,,,,,,SPECI,471.0
CYQV 211454Z AUTO 17006KT 1/2SM SN VV003 M05/M06 A2999 RMK SLP190,CYQV,2018-03-21T14:54:00Z,51.27,-102.47,-5.0,-6.0,170,6,,0.5,29.991142,1019.0,,TRUE,,,,,,,SN,OVX,0,,,,,,,LIFR,,,,,,,,,,,300,SPECI,498.0
KFZY 211454Z AUTO 33005KT 10SM CLR M01/M09 A2987 RMK AO2 SLP119 T10061094 50003,KFZY,2018-03-21T14:54:00Z,43.35,-76.38,-0.6,-9.4,330,5,,10.0,29.870079,1011.9,,TRUE,TRUE,,,,,,,CLR,,,,,,,,VFR,0.3,,,,,,,,,,,METAR,138.0
KFIG 211454Z AUTO 05006KT 3/4SM -SN BR VV017 M03/M05 A2968 RMK AO2 SLP064 P0001 60002 T10281050 53002,KFIG,2018-03-21T14:54:00Z,41.05,-78.42,-2.8,-5.0,50,6,,0.75,29.681103,1006.4,,TRUE,TRUE,,,,,,-SN BR,OVX,0,,,,,,,LIFR,0.2,,,,,0.01,0.02,,,,1700,METAR,462.0
KEWN 211454Z 31005KT 10SM SCT008 BKN013 OVC032 04/03 A2964 RMK AO2 RAB1358E44 SLP036 P0000 60001 T00440033 51010,KEWN,2018-03-21T14:54:00Z,35.07,-77.05,4.4,3.3,310,5,,10.0,29.639763,1003.6,,,TRUE,,,,,,,SCT,800,BKN,1300,OVC,3200,,,MVFR,1.0,,,,,0.005,0.01,,,,,METAR,3.0
PAHN 211454Z AUTO 34009KT 10SM BKN080 M02/M06 A3002 RMK AO2 SLP168 T10221056 51008 TSNO,PAHN,2018-03-21T14:54:00Z,59.25,-135.52,-2.2,-5.6,340,9,,10.0,30.02067,1016.8,,TRUE,TRUE,,,TRUE,,,,BKN,8000,,,,,,,VFR,0.8,,,,,,,,,,,METAR,5.0
KBUF 211454Z 04016KT 10SM FEW020 FEW160 BKN240 M01/M07 A2986 RMK AO2 SLP120 T10111067 51004,KBUF,2018-03-21T14:54:00Z,42.93,-78.73,-1.1,-6.7,40,16,,10.0,29.861221,1012.0,,,TRUE,,,,,,,FEW,2000,FEW,16000,BKN,24000,,,VFR,0.4,,,,,,,,,,,METAR,211.0
KBTV 211454Z 32006KT 10SM SCT130 BKN150 M06/M12 A2992 RMK AO2 SLP137 T10611117 56004,KBTV,2018-03-21T14:54:00Z,44.47,-73.15,-6.1,-11.7,320,6,,10.0,29.920275,1013.7,,,TRUE,,,,,,,SCT,13000,BKN,15000,,,,,VFR,-0.4,,,,,,,,,,,METAR,105.0
KBOS 211454Z 03018KT 10SM OVC024 01/M03 A2981 RMK AO2 PK WND 03028/1426 SLP095 T00111033 53005,KBOS,2018-03-21T14:54:00Z,42.37,-71.02,1.1,-3.3,30,18,,10.0,29.811024,1009.5,,,TRUE,,,,,,,OVC,2400,,,,,,,MVFR,0.5,,,,,,,,,,,METAR,6.0
KBFL 211454Z 10007KT 3SM BR BKN080 OVC095 14/12 A2990 RMK AO2 SFC VIS 4 RAE1356 SLP122 P0000 60022 T01390117 58008,KBFL,2018-03-21T14:54:00Z,35.43,-119.05,13.9,11.7,100,7,,3.0,29.899607,1012.2,,,TRUE,,,,,,BR,BKN,8000,OVC,9500,,,,,MVFR,-0.8,,,,,0.005,0.22,,,,,METAR,151.0
KBDU 211454Z AUTO 00000KT 10SM CLR 03/M06 A3002 RMK AO2,KBDU,2018-03-21T14:54:00Z,40.03,-105.23,3.0,-6.0,0,0,,10.0,30.02067,,,TRUE,TRUE,,,,,,,CLR,,,,,,,,VFR,,,,,,,,,,,,METAR,1612.0
KAVP 211454Z 03011KT 1/2SM R04/3500VP6000FT SN FZFG BKN007 OVC013 M02/M03 A2969 RMK AO2 SLP062 P0001 60001 T10221033 50000,KAVP,2018-03-21T14:54:00Z,41.33,-75.72,-2.2,-3.3,30,11,,0.5,29.68996,1006.2,,,TRUE,,,,,,SN FZFG,BKN,700,OVC,1300,,,,,LIFR,0.0,,,,,0.01,0.01,,,,,METAR,291.0
KAVL 211454Z 33009G16KT 10SM BKN038 OVC048 03/M04 A2968 RMK AO2 SLP050 T00281039 53019,KAVL,2018-03-21T14:54:00Z,35.43,-82.53,2.8,-3.9,330,9,16,10.0,29.681103,1005.0,,,TRUE,,,,,,,BKN,3800,OVC,4800,,,,,VFR,1.9,,,,,,,,,,,METAR,670.0
KAUW 211454Z AUTO VRB03KT 10SM CLR M04/M11 A3012 RMK AO2 SLP223 T10441111 51013,KAUW,2018-03-21T14:54:00Z,44.93,-89.62,-4.4,-11.1,0,3,,10.0,30.121063,1022.3,,TRUE,TRUE,,,,,,,CLR,,,,,,,,VFR,1.3,,,,,,,,,,,METAR,362.0
KAPN 211454Z AUTO 03015KT 10SM CLR M03/M10 A3010 RMK AO2 SLP206 T10281100 51012,KAPN,2018-03-21T14:54:00Z,45.07,-83.57,-2.8,-10.0,30,15,,10.0,30.100393,1020.6,,TRUE,TRUE,,,,,,,CLR,,,,,,,,VFR,1.2,,,,,,,,,,,METAR,210.0
KAPC 211454Z 08005KT 4SM -RA BR FEW005 OVC012 12/11 A2981 RMK AO2 RAB03 SLP087 P0006 60008 T01170111 50000,KAPC,2018-03-21T14:54:00Z,38.2,-122.28,11.7,11.1,80,5,,4.0,29.811024,1008.7,,,TRUE,,,,,,-RA BR,FEW,500,OVC,1200,,,,,MVFR,0.0,,,,,0.06,0.08,,,,,METAR,13.0
KALO 211454Z 00000KT 10SM CLR 00/M06 A3016 RMK AO2 SLP224 T00001056 51016,KALO,2018-03-21T14:54:00Z,42.55,-92.4,0.0,-5.6,0,0,,10.0,30.159449,1022.4,,,TRUE,,,,,,,CLR,,,,,,,,VFR,1.6,,,,,,,,,,,METAR,264.0
KAKR 211454Z AUTO 03008KT 3SM -SN SCT015 BKN029 OVC043 M01/M04 A2977 RMK AO2 SLP090 P0000 60000 T10111044 51014,KAKR,2018-03-21T14:54:00Z,41.03,-81.47,-1.1,-4.4,30,8,,3.0,29.769686,1009.0,,TRUE,TRUE,,,,,,-SN,SCT,1500,BKN,2900,OVC,4300,,,MVFR,1.4,,,,,0.005,0.005,,,,,METAR,363.0
KAKQ 211454Z AUTO VRB05KT 1/2SM -SN FG BKN005 OVC009 01/01 A2961 RMK AO2 SLP028 P0001 60004 T00110006 51007,KAKQ,2018-03-21T14:54:00Z,36.98,-77.0,1.1,0.6,0,5,,0.5,29.610237,1002.8,,TRUE,TRUE,,,,,,-SN FG,BKN,500,OVC,900,,,,,LIFR,0.7,,,,,0.01,0.04,,,,,METAR,34.0
KAKH 211454Z AUTO 26006KT 10SM FEW016 FEW023 OVC039 06/01 A2969 RMK AO2 SLP057 60000 T00560006 52021,KAKH,2018-03-21T14:54:00Z,35.2,-81.15,5.6,0.6,260,6,,10.0,29.68996,1005.7,,TRUE,TRUE,,,,,,,FEW,1600,FEW,2300,OVC,3900,,,VFR,2.1,,,,,,0.005,,,,,METAR,243.0
KACY 211454Z 05016G29KT 2 1/2SM UP BR OVC009 02/02 A2959 RMK AO2 PK WND 06036/1412 UPB35SNE35 CIG 006V013 SLP020 P0003 60009 T00220017 50002,KACY,2018-03-21T14:54:00Z,39.45,-74.57,2.2,1.7,50,16,29,2.5,29.589567,1002.0,,,TRUE,,,,,,BR UP,OVC,900,,,,,,,IFR,0.2,,,,,0.03,0.09,,,,,METAR,23.0
KAAO 211454Z AUTO 07003KT 10SM CLR 05/01 A3021 RMK AO2 SLP239 T00500011 51024,KAAO,2018-03-21T14:54:00Z,37.75,-97.22,5.0,1.1,70,3,,10.0,30.209646,1023.9,,TRUE,TRUE,,,,,,,CLR,,,,,,,,VFR,2.4,,,,,,,,,,,METAR,434.0
K5SM 211454Z AUTO 22009G14KT 3SM -SN BKN015 BKN026 OVC035 M05/M09 A3016 RMK AO2,K5SM,2018-03-21T14:54:00Z,39.43,-107.38,-5.0,-9.0,220,9,14,3.0,30.159449,,,TRUE,TRUE,,,,,,-SN,BKN,1500,BKN,2600,OVC,3500,,,MVFR,,,,,,,,,,,,METAR,3232.0
K4BM 211454Z AUTO 23005KT 10SM CLR M05/M13 A3013 RMK AO2 LTG DSNT N AND NW,K4BM,2018-03-21T14:54:00Z,39.05,-105.52,-5.0,-13.0,230,5,,10.0,30.129921,,,TRUE,TRUE,,,,,,,CLR,,,,,,,,VFR,,,,,,,,,,,,METAR,3438.0
K2V6 211454Z AUTO 21010KT 10SM CLR 06/M05 A3006 RMK AO2,K2V6,2018-03-21T14:54:00Z,40.1,-102.72,6.0,-5.0,210,10,,10.0,30.059055,,,TRUE,TRUE,,,,,,,CLR,,,,,,,,VFR,,,,,,,,,,,,METAR,1261.0
K20V 211454Z AUTO 00000KT 10SM SCT055 SCT070 02/M05 A3011 RMK AO2,K20V,2018-03-21T14:54:00Z,40.05,-106.37,2.0,-5.0,0,0,,10.0,30.109253,,,TRUE,TRUE,,,,,,,SCT,5500,SCT,7000,,,,,VFR,,,,,,,,,,,,METAR,2259.0
K0CO 211454Z AUTO 30032G39KT 3SM HZ M10/M16 A3006 RMK AO2 SKY OBSCURED,K0CO,2018-03-21T14:54:00Z,39.8,-105.77,-10.0,-16.0,300,32,39,3.0,30.059055,,,TRUE,TRUE,,,,,,HZ,,,,,,,,,,,,,,,,,,,,,METAR,3807.0
K04V 211454Z AUTO 32009KT 10SM CLR 00/M13 A3014 RMK AO2,K04V,2018-03-21T14:54:00Z,38.1,-106.17,0.0,-13.0,320,9,,10.0,30.138779,,,TRUE,TRUE,,,,,,,CLR,,,,,,,,VFR,,,,,,,,,,,,METAR,2385.0
PAKN 211454Z AUTO 00000KT 10SM CLR M11/M12 A3065 RMK AO2 SLP380 I3000 T11061122 56010 TSNO,PAKN,2018-03-21T14:54:00Z,58.68,-156.65,-10.6,-12.2,0,0,,10.0,30.649607,1038.0,,TRUE,TRUE,,,TRUE,,,,CLR,,,,,,,,VFR,-1.0,,,,,,,,,,,METAR,17.0
KWAL 211454Z AUTO 03016G24KT 1 3/4SM -RA BR BKN008 OVC012 05/03 A2952 RMK AO2 PK WND 03031/1410 PRESRR SLP993 P0002 60002 T00500033 53000,KWAL,2018-03-21T14:54:00Z,37.93,-75.47,5.0,3.3,30,16,24,1.75,29.518702,999.3,,TRUE,TRUE,,,,,,-RA BR,BKN,800,OVC,1200,,,,,IFR,0.0,,,,,0.02,0.02,,,,,METAR,14.0
KVTA 211454Z AUTO 02008G16KT 350V060 7SM BKN017 OVC023 00/M03 A2973 RMK AO2 SNE11 SLP075 P0000 60002 T00001033 53017,KVTA,2018-03-21T14:54:00Z,40.02,-82.47,0.0,-3.3,20,8,16,7.0,29.731298,1007.5,,TRUE,TRUE,,,,,,,BKN,1700,OVC,2300,,,,,MVFR,1.7,,,,,0.005,0.02,,,,,METAR,268.0
KVSF 211454Z AUTO 36004KT 10SM CLR M02/M12 A2986 RMK AO2 SLP120 T10221117 55005,KVSF,2018-03-21T14:54:00Z,43.35,-72.52,-2.2,-11.7,360,4,,10.0,29.861221,1012.0,,TRUE,TRUE,,,,,,,CLR,,,,,,,,VFR,-0.5,,,,,,,,,,,METAR,175.0
KVAY 211454Z AUTO 05010KT 3/4SM -SN BR OVC010 00/M01 A2965 RMK AO2 UPE05SNB05 SLP041 P0001 60003 I3001 T00001011 53007,KVAY,2018-03-21T14:54:00Z,39.93,-74.83,0.0,-1.1,50,10,,0.75,29.648623,1004.1,,TRUE,TRUE,,,,,,-SN BR,OVC,1000,,,,,,,LIFR,0.7,,,,,0.01,0.03,,,,,METAR,15.0
KUZA 211454Z AUTO 32008KT 10SM OVC044 05/01 A2970 RMK AO2 RAE02 SLP061 P0000 60003 T00500011 51024,KUZA,2018-03-21T14:54:00Z,34.98,-81.05,5.0,1.1,320,8,,10.0,29.698818,1006.1,,TRUE,TRUE,,,,,,,OVC,4400,,,,,,,VFR,2.4,,,,,0.005,0.03,,,,,METAR,202.0
KUIN 211454Z AUTO 36011KT 10SM CLR 02/M06 A3012 RMK AO2 SLP206 T00221061 51022,KUIN,2018-03-21T14:54:00Z,39.95,-91.2,2.2,-6.1,360,11,,10.0,30.121063,1020.6,,TRUE,TRUE,,,,,,,CLR,,,,,,,,VFR,2.2,,,,,,,,,,,METAR,234.0
KTQE 211454Z AUTO 00000KT 10SM OVC009 01/M01 A3019 RMK AO2 SLP230 T00061011 51021,KTQE,2018-03-21T14:54:00Z,41.77,-96.18,0.6,-1.1,0,0,,10.0,30.188976,1023.0,,TRUE,TRUE,,,,,,,OVC,900,,,,,,,IFR,2.1,,,,,,,,,,,METAR,312.0
KTAD 211454Z AUTO 23009KT 10SM CLR 04/M11 A3011 RMK AO2 SLP188 T00441106 52011,KTAD,2018-03-21T14:54:00Z,37.27,-104.33,4.4,-10.6,230,9,,10.0,30.109253,1018.8,,TRUE,TRUE,,,,,,,CLR,,,,,,,,VFR,1.1,,,,,,,,,,,METAR,1756.0
KSYR 211454Z 32003KT 10SM BKN180 OVC250 M02/M10 A2985 RMK AO2 SLP112 T10221100 50002,KSYR,2018-03-21T14:54:00Z,43.12,-76.1,-2.2,-10.0,320,3,,10.0,29.84941,1011.2,,,TRUE,,,,,,,BKN,18000,OVC,25000,,,,,VFR,0.2,,,,,,,,,,,METAR,127.0
KSUS 211454Z 33014G18KT 10SM FEW060 04/M04 A3012 RMK AO2 SLP203 T00441039 51027,KSUS,2018-03-21T14:54:00Z,38.65,-90.65,4.4,-3.9,330,14,18,10.0,30.121063,1020.3,,,TRUE,,,,,,,FEW,6000,,,,,,,VFR,2.7,,,,,,,,,,,METAR,141.0
KSLC 211454Z 15008KT 10SM FEW050 SCT060 BKN075 11/M01 A2997 RMK AO2 RAE19 SLP127 VIRGA DSNT E SH DSNT SE P0000 60000 T01061006 53011 $,KSLC,2018-03-21T14:54:00Z,40.77,-111.97,10.6,-0.6,150,8,,10.0,29.970472,1012.7,,,TRUE,TRUE,,,,,,FEW,5000,SCT,6000,BKN,7500,,,VFR,1.1,,,,,0.005,0.005,,,,,METAR,1286.0
KSJN 211454Z AUTO 00000KT 10SM CLR 06/M09 A3009 RMK AO2 SLP153 T00611094 53010 TSNO,KSJN,2018-03-21T14:54:00Z,34.52,-109.38,6.1,-9.4,0,0,,10.0,30.088583,1015.3,,TRUE,TRUE,,,TRUE,,,,CLR,,,,,,,,VFR,1.0,,,,,,,,,,,METAR,1745.0
KSET 211454Z AUTO 35013G19KT 10SM CLR 04/M05 A3011 RMK AO2 SLP200 T00391050 51026,KSET,2018-03-21T14:54:00Z,38.93,-90.43,3.9,-5.0,350,13,19,10.0,30.109253,1020.0,,TRUE,TRUE,,,,,,,CLR,,,,,,,,VFR,2.6,,,,,,,,,,,METAR,134.0
KOFP 211454Z AUTO 33008KT 1/2SM SN FG OVC006 00/M01 A2964 RMK AO2 SLP038 P0009 60021 T00001011 51007,KOFP,2018-03-21T14:54:00Z,37.7,-77.43,0.0,-1.1,330,8,,0.5,29.639763,1003.8,,TRUE,TRUE,,,,,,SN FG,OVC,600,,,,,,,LIFR,0.7,,,,,0.09,0.21,,,,,METAR,62.0
KMYP 211454Z AUTO 27020KT 10SM CLR M06/M13 A3023 RMK AO2,KMYP,2018-03-21T14:54:00Z,38.48,-106.32,-6.0,-13.0,270,20,,10.0,30.230314,,,TRUE,TRUE,,,,,,,CLR,,,,,,,,VFR,,,,,,,,,,,,METAR,3667.0
KMVL 211454Z AUTO 00000KT 10SM CLR M03/M12 A2989 RMK AO2 SLP134 60000 T10281117 56010,KMVL,2018-03-21T14:54:00Z,44.53,-72.62,-2.8,-11.7,0,0,,10.0,29.890747,1013.4,,TRUE,TRUE,,,,,,,CLR,,,,,,,,VFR,-1.0,,,,,,0.005,,,,,METAR,234.0
KMRY 211454Z 00000KT 10SM BKN034 BKN055 BKN070 13/12 A2981 RMK AO2 SLP107 60000 T01330122 55001,KMRY,2018-03-21T14:54:00Z,36.58,-121.85,13.3,12.2,0,0,,10.0,29.811024,1010.7,,,TRUE,,,,,,,BKN,3400,BKN,5500,BKN,7000,,,VFR,-0.1,,,,,,0.005,,,,,METAR,66.0
KMNH 211454Z AUTO 19009KT 10SM CLR 02/M08 A3007 RMK AO2,KMNH,2018-03-21T14:54:00Z,39.22,-104.65,2.0,-8.0,190,9,,10.0,30.070866,,,TRUE,TRUE,,,,,,,CLR,,,,,,,,VFR,,,,,,,,,,,,METAR,2152.0
KMKC 211454Z 31008KT 10SM FEW016 04/M01 A3021 RMK AO2 SLP233 T00391011 50016,KMKC,2018-03-21T14:54:00Z,39.12,-94.6,3.9,-1.1,310,8,,10.0,30.209646,1023.3,,,TRUE,,,,,,,FEW,1600,,,,,,,VFR,1.6,,,,,,,,,,,METAR,227.0
KIMT 211454Z AUTO 33004KT 10SM CLR M03/M11 A3013 RMK AO2 SLP222 T10331111 51009,KIMT,2018-03-21T14:54:00Z,45.82,-88.12,-3.3,-11.1,330,4,,10.0,30.129921,1022.2,,TRUE,TRUE,,,,,,,CLR,,,,,,,,VFR,0.9,,,,,,,,,,,METAR,349.0
KLWT 211454Z AUTO 11004KT 10SM CLR M02/M07 A2988 RMK AO2 SLP147 T10221067 50003,KLWT,2018-03-21T14:54:00Z,47.03,-109.47,-2.2,-6.7,110,4,,10.0,29.878937,1014.7,,TRUE,TRUE,,,,,,,CLR,,,,,,,,VFR,0.3,,,,,,,,,,,METAR,1270.0
KMOT 211454Z 00000KT 6SM BR BKN070 M01/M03 A2999 RMK AO2 SLP178 T10111033 51010,KMOT,2018-03-21T14:54:00Z,48.25,-101.27,-1.1,-3.3,0,0,,6.0,29.991142,1017.8,,,TRUE,,,,,,BR,BKN,7000,,,,,,,VFR,1.0,,,,,,,,,,,METAR,519.0
KMTP 211454Z AUTO 04010G18KT 04/01 A2969 RMK AO1 PK WND 04026/1409 SLP055 P0003 60007 T00390006 53001 $,KMTP,2018-03-21T14:54:00Z,41.07,-71.92,3.9,0.6,40,10,18,,29.68996,1005.5,,TRUE,TRUE,TRUE,,,,,,,,,,,,,,,0.1,,,,,0.03,0.07,,,,,METAR,2.0
KRSP 211454Z AUTO 06009G18KT OVC005 M03/M04 A2960 RMK AO2 PK WND 33057/1400 SLP050 P0006 60024 T10331044 53007 PWINO FZRANO $ ,KRSP,2018-03-21T14:54:00Z,39.65,-77.47,-3.3,-4.4,60,9,18,,29.601377,1005.0,,TRUE,TRUE,TRUE,,,TRUE,TRUE,,OVC,500,,,,,,,,0.7,,,,,0.06,0.24,,,,,METAR,561.0
KWLD 211454Z AUTO 18003KT 10SM CLR 04/02 A3024 RMK AO2 SLP245 T00440022 52026,KWLD,2018-03-21T14:54:00Z,37.17,-97.03,4.4,2.2,180,3,,10.0,30.239174,1024.5,,TRUE,TRUE,,,,,,,CLR,,,,,,,,VFR,2.6,,,,,,,,,,,METAR,350.0
KBKB 211454Z AUTO VRB05KT 10SM CLR 15/04 A3018 RMK AO2 SLP247 T01500039 51022 $ ,KBKB,2018-03-21T14:54:00Z,31.0,-92.92,15.0,3.9,0,5,,10.0,30.180119,1024.7,,TRUE,TRUE,TRUE,,,,,,CLR,,,,,,,,VFR,2.2,,,,,,,,,,,METAR,94.0
K1V4 211454Z AUTO M04/M12 A2985 RMK AO1 SLP122 T10391122 58014 ,K1V4,2018-03-21T14:54:00Z,44.42,-72.02,-3.9,-12.2,,,,,29.84941,1012.2,,TRUE,TRUE,,,,,,,,,,,,,,,,-1.4,,,,,,,,,,,METAR,210.0
KPSF 211454Z AUTO 06008KT 10SM CLR M01/M11 A2975 RMK AO2 SLP083 T10111111 55000,KPSF,2018-03-21T14:54:00Z,42.43,-73.28,-1.1,-11.1,60,8,,10.0,29.749016,1008.3,,TRUE,TRUE,,,,,,,CLR,,,,,,,,VFR,0.0,,,,,,,,,,,METAR,355.0
KMGJ 211454Z AUTO 04017G24KT 10SM OVC060 M01/M10 A2971 RMK AO2 SLP066 T10061100 58002,KMGJ,2018-03-21T14:54:00Z,41.52,-74.27,-0.6,-10.0,40,17,24,10.0,29.71063,1006.6,,TRUE,TRUE,,,,,,,OVC,6000,,,,,,,VFR,-0.2,,,,,,,,,,,METAR,108.0
KMFI 211454Z AUTO 04004KT 10SM CLR M03/M10 A3012 RMK AO2 SLP218 T10281100 51013 TSNO,KMFI,2018-03-21T14:54:00Z,44.63,-90.18,-2.8,-10.0,40,4,,10.0,30.121063,1021.8,,TRUE,TRUE,,,TRUE,,,,CLR,,,,,,,,VFR,1.3,,,,,,,,,,,METAR,389.0
KMEM 211454Z 34012KT 10SM FEW010 SCT044 BKN055 07/01 A3012 RMK AO2 SLP199 T00720011 51031,KMEM,2018-03-21T14:54:00Z,35.07,-89.98,7.2,1.1,340,12,,10.0,30.121063,1019.9,,,TRUE,,,,,,,FEW,1000,SCT,4400,BKN,5500,,,VFR,3.1,,,,,,,,,,,METAR,86.0
KLYH 211454Z 01007KT 4SM -SN BR BKN008 BKN027 OVC034 00/M02 A2965 RMK AO2 SLP045 P0001 60003 T00001022 53004,KLYH,2018-03-21T14:54:00Z,37.32,-79.2,0.0,-2.2,10,7,,4.0,29.648623,1004.5,,,TRUE,,,,,,-SN BR,BKN,800,BKN,2700,OVC,3400,,,IFR,0.4,,,,,0.01,0.03,,,,,METAR,295.0
KLWM 211454Z 03009KT 10SM CLR 00/M07 A2986 RMK AO2 SLP111 T00001072 53004,KLWM,2018-03-21T14:54:00Z,42.72,-71.13,0.0,-7.2,30,9,,10.0,29.861221,1011.1,,,TRUE,,,,,,,CLR,,,,,,,,VFR,0.4,,,,,,,,,,,METAR,54.0
KLNK 211454Z 00000KT 9SM FEW039 02/M01 A3021 RMK AO2 SLP238 T00171011 51018,KLNK,2018-03-21T14:54:00Z,40.85,-96.77,1.7,-1.1,0,0,,9.0,30.209646,1023.8,,,TRUE,,,,,,,FEW,3900,,,,,,,VFR,1.8,,,,,,,,,,,METAR,364.0
KLEX 211454Z 31011G21KT 2SM -SN BR BKN012 OVC018 M01/M03 A2982 RMK AO2 SLP103 P0001 60002 T10111033 53027,KLEX,2018-03-21T14:54:00Z,38.03,-84.6,-1.1,-3.3,310,11,21,2.0,29.819881,1010.3,,,TRUE,,,,,,-SN BR,BKN,1200,OVC,1800,,,,,IFR,2.7,,,,,0.01,0.02,,,,,METAR,300.0
KLBT 211454Z AUTO 33009KT 5SM -RA BR FEW006 SCT010 OVC015 05/04 A2967 RMK AO2 SLP046 P0001 60003 T00500044 51016,KLBT,2018-03-21T14:54:00Z,34.6,-79.07,5.0,4.4,330,9,,5.0,29.66929,1004.6,,TRUE,TRUE,,,,,,-RA BR,FEW,600,SCT,1000,OVC,1500,,,MVFR,1.6,,,,,0.01,0.03,,,,,METAR,37.0
KLAF 211454Z 35014KT 10SM CLR M01/M06 A2999 RMK AO2 SLP160 T10061061 51023,KLAF,2018-03-21T14:54:00Z,40.42,-86.93,-0.6,-6.1,350,14,,10.0,29.991142,1016.0,,,TRUE,,,,,,,CLR,,,,,,,,VFR,2.3,,,,,,,,,,,METAR,182.0
KJST 211454Z AUTO 04008KT 1/4SM SN FZFG VV010 M04/M06 A2961 RMK AO2 SLP054 P0003 60010 T10441061 53004,KJST,2018-03-21T14:54:00Z,40.32,-78.83,-4.4,-6.1,40,8,,0.25,29.610237,1005.4,,TRUE,TRUE,,,,,,SN FZFG,OVX,0,,,,,,,LIFR,0.4,,,,,0.03,0.1,,,,1000,METAR,694.0
CZFA 211454Z 31006KT 1SM -SN SCT018 OVC024 M07/M08 A2986 RMK SC3SC5 SLP163,CZFA,2018-03-21T14:54:00Z,62.2,-133.37,-7.0,-8.0,310,6,,1.0,29.861221,1016.3,,,,,,,,,-SN,SCT,1800,OVC,2400,,,,,IFR,,,,,,,,,,,,SPECI,717.0
KGCN 211454Z 00000KT 10SM SCT047 05/M02 A3009 RMK AO2 SLP169 T00501022 53004,KGCN,2018-03-21T14:54:00Z,35.95,-112.15,5.0,-2.2,0,0,,10.0,30.088583,1016.9,,,TRUE,,,,,,,SCT,4700,,,,,,,VFR,0.4,,,,,,,,,,,METAR,2016.0
KGCK 211454Z 23005KT 10SM CLR 04/00 A3016 RMK AO2 SLP221 T00440000 53017,KGCK,2018-03-21T14:54:00Z,37.92,-100.72,4.4,0.0,230,5,,10.0,30.159449,1022.1,,,TRUE,,,,,,,CLR,,,,,,,,VFR,1.7,,,,,,,,,,,METAR,877.0
KFWA 211454Z 01013KT 10SM FEW036 BKN045 OVC060 00/M05 A2993 RMK AO2 SNE52 SLP141 P0000 60001 T00001050 51021,KFWA,2018-03-21T14:54:00Z,40.98,-85.18,0.0,-5.0,10,13,,10.0,29.929134,1014.1,,,TRUE,,,,,,,FEW,3600,BKN,4500,OVC,6000,,,VFR,2.1,,,,,0.005,0.01,,,,,METAR,248.0
K12N 211454Z AUTO 03007G17KT 350V070 M02/M06 A2968 RMK AO1 SLP060 P0002 60007 T10171061 58009,K12N,2018-03-21T14:54:00Z,41.02,-74.73,-1.7,-6.1,30,7,17,,29.681103,1006.0,,TRUE,TRUE,,,,,,,,,,,,,,,,-0.9,,,,,0.02,0.07,,,,,METAR,177.0
KDMH 211454Z AUTO 01/M01 A2964 RMK AO1 SLP038 P0005 60011 T00061006 50004,KDMH,2018-03-21T14:54:00Z,39.28,-76.62,0.6,-0.6,,,,,29.639763,1003.8,,TRUE,TRUE,,,,,,,,,,,,,,,,0.4,,,,,0.05,0.11,,,,,METAR,5.0
KNAK 211454Z AUTO 36010KT 1/4SM SN FG VV008 02/01 A2963 RMK AO2 SLP034 P0006 60014 T00170011 50003,KNAK,2018-03-21T14:54:00Z,38.98,-76.48,1.7,1.1,360,10,,0.25,29.630905,1003.4,,TRUE,TRUE,,,,,,SN FG,OVX,0,,,,,,,LIFR,0.3,,,,,0.06,0.14,,,,800,METAR,2.0
KOUN 211454Z 06006KT 10SM SKC 11/02 A3019,KOUN,2018-03-21T14:54:00Z,35.25,-97.47,11.0,2.0,60,6,,10.0,30.188976,,,,,,,,,,,SKC,,,,,,,,VFR,,,,,,,,,,,,METAR,357.0
KETH 211454Z AUTO 16007KT 10SM OVC018 00/M02 A3012 RMK AO2,KETH,2018-03-21T14:54:00Z,45.78,-96.55,0.0,-2.0,160,7,,10.0,30.121063,,,TRUE,TRUE,,,,,,,OVC,1800,,,,,,,MVFR,,,,,,,,,,,,METAR,313.0
PGUM 211454Z 07007KT 10SM FEW070 27/24 A2976 RMK AO2 SLP069 T02670239 58011,PGUM,2018-03-21T14:54:00Z,13.48,144.8,26.7,23.9,70,7,,10.0,29.760826,1006.9,,,TRUE,,,,,,,FEW,7000,,,,,,,VFR,-1.1,,,,,,,,,,,METAR,91.0
KMIV 211454Z AUTO 04011KT 3/4SM -SN BR BKN007 OVC012 01/M01 A2960 RMK AO2 CIG 005V011 SLP023 P0001 60003 I3000 T00061006 55002,KMIV,2018-03-21T14:54:00Z,39.37,-75.08,0.6,-0.6,40,11,,0.75,29.601377,1002.3,,TRUE,TRUE,,,,,,-SN BR,BKN,700,OVC,1200,,,,,LIFR,-0.2,,,,,0.01,0.03,,,,,METAR,23.0
PGSN 211454Z 09012KT 10SM SCT024 26/23 A2976 RMK AO2 SLP099 T02610228 58010 $,PGSN,2018-03-21T14:54:00Z,15.12,145.72,26.1,22.8,90,12,,10.0,29.760826,1009.9,,,TRUE,TRUE,,,,,,SCT,2400,,,,,,,VFR,-1.0,,,,,,,,,,,METAR,65.0
PHOG 211454Z AUTO 05013KT 10SM OVC100 21/17 A2991 RMK AO2 SLP133 T02110172 56004 TSNO,PHOG,2018-03-21T14:54:00Z,20.9,-156.43,21.1,17.2,50,13,,10.0,29.911417,1013.3,,TRUE,TRUE,,,TRUE,,,,OVC,10000,,,,,,,VFR,-0.4,,,,,,,,,,,METAR,12.0
PHMK 211454Z AUTO 04006KT 10SM OVC090 22/17 A2990 RMK AO2 SLP129 T02170167 58005 TSNO $,PHMK,2018-03-21T14:54:00Z,21.15,-157.1,21.7,16.7,40,6,,10.0,29.899607,1012.9,,TRUE,TRUE,TRUE,,TRUE,,,,OVC,9000,,,,,,,VFR,-0.5,,,,,,,,,,,METAR,141.0
KQFR 211454Z AUTO 01005KT 10SM SCT070 SCT085 M04/M13 A3040 RMK AO1,KQFR,2018-03-21T14:54:00Z,,,-4.0,-13.0,10,5,,10.0,30.398623,,,TRUE,TRUE,,,,,,,SCT,7000,SCT,8500,,,,,VFR,,,,,,,,,,,,METAR,
PHLI 211453Z AUTO 07017KT 10SM BKN019 OVC028 22/19 A2992 RMK AO2 SLP130 T02220194 55005 TSNO,PHLI,2018-03-21T14:53:00Z,21.97,-159.33,22.2,19.4,70,17,,10.0,29.920275,1013.0,,TRUE,TRUE,,,TRUE,,,,BKN,1900,OVC,2800,,,,,MVFR,-0.5,,,,,,,,,,,METAR,45.0
PHKO 211453Z AUTO 06006KT 10SM OVC100 23/18 A2987 RMK AO2 SLP114 T02330183 55004 TSNO,PHKO,2018-03-21T14:53:00Z,19.73,-156.05,23.3,18.3,60,6,,10.0,29.870079,1011.4,,TRUE,TRUE,,,TRUE,,,,OVC,10000,,,,,,,VFR,-0.4,,,,,,,,,,,METAR,27.0
KUNV 211453Z 04006KT 3/4SM -SN OVC008 M03/M04 A2968,KUNV,2018-03-21T14:53:00Z,40.85,-77.83,-3.0,-4.0,40,6,,0.75,29.681103,,,,,,,,,,-SN,OVC,800,,,,,,,LIFR,,,,,,,,,,,,METAR,378.0
KPDX 211453Z 00000KT 10SM FEW075 SCT120 BKN230 04/02 A2976 RMK AO2 SLP076 T00440017 58007,KPDX,2018-03-21T14:53:00Z,45.6,-122.62,4.4,1.7,0,0,,10.0,29.760826,1007.6,,,TRUE,,,,,,,FEW,7500,SCT,12000,BKN,23000,,,VFR,-0.7,,,,,,,,,,,METAR,7.0
KPDT 211453Z 13004KT 10SM SCT048 BKN075 OVC095 08/03 A2975 RMK AO2 SLP071 T00830028 56002,KPDT,2018-03-21T14:53:00Z,45.7,-118.83,8.3,2.8,130,4,,10.0,29.749016,1007.1,,,TRUE,,,,,,,SCT,4800,BKN,7500,OVC,9500,,,VFR,-0.2,,,,,,,,,,,METAR,462.0
KPDK 211453Z 30011G26KT 10SM OVC025 03/M02 A2988 RMK AO2 PK WND 29029/1429 SLP127 T00331022 53023,KPDK,2018-03-21T14:53:00Z,33.88,-84.3,3.3,-2.2,300,11,26,10.0,29.878937,1012.7,,,TRUE,,,,,,,OVC,2500,,,,,,,MVFR,2.3,,,,,,,,,,,METAR,302.0
KPEO 211453Z AUTO VRB05KT 10SM CLR M01/M10 A2981 RMK AO2 SLP108 T10111100 58002,KPEO,2018-03-21T14:53:00Z,42.65,-77.05,-1.1,-10.0,0,5,,10.0,29.811024,1010.8,,TRUE,TRUE,,,,,,,CLR,,,,,,,,VFR,-0.2,,,,,,,,,,,METAR,256.0
KESN 211453Z 02006G14KT 1SM -SN OVC006 00/M01 A2964,KESN,2018-03-21T14:53:00Z,38.8,-76.07,0.0,-1.0,20,6,14,1.0,29.639763,,,,,,,,,,-SN,OVC,600,,,,,,,IFR,,,,,,,,,,,,METAR,22.0
KPGA 211453Z AUTO 10003KT 10SM OVC070 09/M04 A3003 RMK AO2 SLP147 T00891039 53011 TSNO,KPGA,2018-03-21T14:53:00Z,36.92,-111.45,8.9,-3.9,100,3,,10.0,30.029528,1014.7,,TRUE,TRUE,,,TRUE,,,,OVC,7000,,,,,,,VFR,1.1,,,,,,,,,,,METAR,1307.0
KGEZ 211453Z AUTO 34017KT 3SM -SN FEW015 BKN028 OVC035 M01/M05 A2990 RMK AO2 SNE1354B21 SLP133 P0000 60000 T10111050 51018,KGEZ,2018-03-21T14:53:00Z,39.58,-85.8,-1.1,-5.0,340,17,,3.0,29.899607,1013.3,,TRUE,TRUE,,,,,,-SN,FEW,1500,BKN,2800,OVC,3500,,,MVFR,1.8,,,,,0.005,0.005,,,,,METAR,245.0
KAGS 211453Z 30018G28KT 10SM BKN041 09/M01 A2981 RMK AO2 PK WND 30029/1426 SLP093 T00941011 51017,KAGS,2018-03-21T14:53:00Z,33.37,-81.97,9.4,-1.1,300,18,28,10.0,29.811024,1009.3,,,TRUE,,,,,,,BKN,4100,,,,,,,VFR,1.7,,,,,,,,,,,METAR,44.0
KAGC 211453Z 01008KT 3/4SM R28/3000VP6000FT -SN BR SCT007 OVC012 M02/M03 A2969 RMK AO2 SLP071 P0000 60000 T10171028 51009,KAGC,2018-03-21T14:53:00Z,40.35,-79.92,-1.7,-2.8,10,8,,0.75,29.68996,1007.1,,,TRUE,,,,,,-SN BR,SCT,700,OVC,1200,,,,,LIFR,0.9,,,,,0.005,0.005,,,,,METAR,389.0
KAFW 211453Z 08005KT 10SM SCT300 13/03 A3021 RMK AO2 SLP229 T01280028 51027,KAFW,2018-03-21T14:53:00Z,32.97,-97.32,12.8,2.8,80,5,,10.0,30.209646,1022.9,,,TRUE,,,,,,,SCT,30000,,,,,,,VFR,2.7,,,,,,,,,,,METAR,233.0
KAEX 211453Z 34005KT 10SM CLR 13/06 A3019 RMK AO2 SLP227 T01280061 51024,KAEX,2018-03-21T14:53:00Z,31.33,-92.57,12.8,6.1,340,5,,10.0,30.188976,1022.7,,,TRUE,,,,,,,CLR,,,,,,,,VFR,2.4,,,,,,,,,,,METAR,27.0
KADG 211453Z AUTO 04014G21KT 10SM OVC085 01/M09 A2992 RMK AO2 SLP142 T00061094 51019 TSNO,KADG,2018-03-21T14:53:00Z,41.87,-84.08,0.6,-9.4,40,14,21,10.0,29.920275,1014.2,,TRUE,TRUE,,,TRUE,,,,OVC,8500,,,,,,,VFR,1.9,,,,,,,,,,,METAR,241.0
KACV 211453Z AUTO 00000KT 10SM OVC008 12/10 A2975 RMK AO2 SLP079 T01170100 50001,KACV,2018-03-21T14:53:00Z,40.98,-124.1,11.7,10.0,0,0,,10.0,29.749016,1007.9,,TRUE,TRUE,,,,,,,OVC,800,,,,,,,IFR,0.1,,,,,,,,,,,METAR,67.0
KACK 211453Z 02021G29KT 7SM -RASN BKN028 OVC036 02/02 A2968 RMK AO2 PK WND 03033/1432 SLP050 P0001 60007 T00220017 53001,KACK,2018-03-21T14:53:00Z,41.25,-70.07,2.2,1.7,20,21,29,7.0,29.681103,1005.0,,,TRUE,,,,,,-RA -SN,BKN,2800,OVC,3600,,,,,MVFR,0.1,,,,,0.01,0.07,,,,,METAR,16.0
KABY 211453Z 28011G21KT 10SM CLR 12/01 A3000 RMK AO2 SLP159 T01170006 51016,KABY,2018-03-21T14:53:00Z,31.53,-84.2,11.7,0.6,280,11,21,10.0,30.0,1015.9,,,TRUE,,,,,,,CLR,,,,,,,,VFR,1.6,,,,,,,,,,,METAR,58.0
KABR 211453Z AUTO 18010KT 7SM OVC005 00/M01 A3006 RMK AO2 SLP196 T00001011 53002,KABR,2018-03-21T14:53:00Z,45.45,-98.42,0.0,-1.1,180,10,,7.0,30.059055,1019.6,,TRUE,TRUE,,,,,,,OVC,500,,,,,,,IFR,0.2,,,,,,,,,,,METAR,397.0
KAAF 211453Z AUTO 31019G24KT 10SM CLR 16/06 A3004 RMK AO2 SLP173 T01560056 50014,KAAF,2018-03-21T14:53:00Z,29.73,-85.03,15.6,5.6,310,19,24,10.0,30.041338,1017.3,,TRUE,TRUE,,,,,,,CLR,,,,,,,,VFR,1.4,,,,,,,,,,,METAR,5.0
KAIA 211453Z AUTO 26004KT 10SM CLR M01/M02 A3001 RMK AO2 SLP186 I3000 T10061017 53005,KAIA,2018-03-21T14:53:00Z,42.05,-102.8,-0.6,-1.7,260,4,,10.0,30.008858,1018.6,,TRUE,TRUE,,,,,,,CLR,,,,,,,,VFR,0.5,,,,,,,,,,,METAR,1196.0
KAKO 211453Z AUTO 19010KT 10SM CLR 06/M07 A3004 RMK AO2 SLP176 T00611067 53001,KAKO,2018-03-21T14:53:00Z,40.17,-103.22,6.1,-6.7,190,10,,10.0,30.041338,1017.6,,TRUE,TRUE,,,,,,,CLR,,,,,,,,VFR,0.1,,,,,,,,,,,METAR,1421.0
KALW 211453Z 18005KT 10SM OVC100 12/02 A2975 RMK AO2 SLP077 T01170022 56004,KALW,2018-03-21T14:53:00Z,46.1,-118.28,11.7,2.2,180,5,,10.0,29.749016,1007.7,,,TRUE,,,,,,,OVC,10000,,,,,,,VFR,-0.4,,,,,,,,,,,METAR,363.0
KALI 211453Z AUTO 12010KT 10SM CLR 19/09 A3015 RMK AO2 SLP209 T01940089 51019,KALI,2018-03-21T14:53:00Z,27.73,-98.02,19.4,8.9,120,10,,10.0,30.15059,1020.9,,TRUE,TRUE,,,,,,,CLR,,,,,,,,VFR,1.9,,,,,,,,,,,METAR,53.0
KAMA 211453Z 12014KT 10SM CLR 06/M05 A3012 RMK AO2 SLP191 T00611050 53014,KAMA,2018-03-21T14:53:00Z,35.22,-101.72,6.1,-5.0,120,14,,10.0,30.121063,1019.1,,,TRUE,,,,,,,CLR,,,,,,,,VFR,1.4,,,,,,,,,,,METAR,1093.0
KAMG 211453Z AUTO 27013G22KT 10SM CLR 12/02 A2990 RMK AO2 PK WND 30026/1407 SLP124 T01220017 51019,KAMG,2018-03-21T14:53:00Z,31.53,-82.5,12.2,1.7,270,13,22,10.0,29.899607,1012.4,,TRUE,TRUE,,,,,,,CLR,,,,,,,,VFR,1.9,,,,,,,,,,,METAR,59.0
KAMW 211453Z AUTO 36006KT 10SM CLR 01/M03 A3018 RMK AO2 SLP227 T00061028 53018,KAMW,2018-03-21T14:53:00Z,41.98,-93.62,0.6,-2.8,360,6,,10.0,30.180119,1022.7,,TRUE,TRUE,,,,,,,CLR,,,,,,,,VFR,1.8,,,,,,,,,,,METAR,279.0
KANB 211453Z AUTO 30015G20KT 10SM FEW035 06/M01 A3000 RMK AO2 SLP165 T00611011 51022,KANB,2018-03-21T14:53:00Z,33.58,-85.85,6.1,-1.1,300,15,20,10.0,30.0,1016.5,,TRUE,TRUE,,,,,,,FEW,3500,,,,,,,VFR,2.2,,,,,,,,,,,METAR,183.0
KAOH 211453Z AUTO 36015G23KT 4SM -SN BR BKN010 OVC014 M02/M03 A2984 RMK AO2 PK WND 01027/1437 CIG 008V013 SLP114 P0000 60000 T10171033 53019,KAOH,2018-03-21T14:53:00Z,40.7,-84.02,-1.7,-3.3,360,15,23,4.0,29.840551,1011.4,,TRUE,TRUE,,,,,,-SN BR,BKN,1000,OVC,1400,,,,,MVFR,1.9,,,,,0.005,0.005,,,,,METAR,296.0
KAOO 211453Z AUTO 01010KT 1/2SM SN FZFG VV012 M03/M04 A2967 RMK AO2 SLP063 P0003 60010 T10331044 53003,KAOO,2018-03-21T14:53:00Z,40.3,-78.32,-3.3,-4.4,10,10,,0.5,29.66929,1006.3,,TRUE,TRUE,,,,,,SN FZFG,OVX,0,,,,,,,LIFR,0.3,,,,,0.03,0.1,,,,1200,METAR,455.0
KORL 211453Z 29017G24KT 10SM -RA SCT035 18/08 A2996 RMK AO2 PK WND 29029/1421 SLP151 P0000 60000 T01780078 51022,KORL,2018-03-21T14:53:00Z,28.55,-81.33,17.8,7.8,290,17,24,10.0,29.958662,1015.1,,,TRUE,,,,,,-RA,SCT,3500,,,,,,,VFR,2.2,,,,,0.005,0.005,,,,,METAR,37.0
KAPF 211453Z 33015G21KT 10SM SCT024 21/15 A3001 RMK AO2 SLP160 T02110150 51024,KAPF,2018-03-21T14:53:00Z,26.15,-81.77,21.1,15.0,330,15,21,10.0,30.008858,1016.0,,,TRUE,,,,,,,SCT,2400,,,,,,,VFR,2.4,,,,,,,,,,,METAR,3.0
KAPA 211453Z 12006KT 10SM FEW100 FEW220 01/M06 A3002 RMK AO2 SLP177 T00111061 50004,KAPA,2018-03-21T14:53:00Z,39.57,-104.85,1.1,-6.1,120,6,,10.0,30.02067,1017.7,,,TRUE,,,,,,,FEW,10000,FEW,22000,,,,,VFR,0.4,,,,,,,,,,,METAR,1775.0
KLWD 211453Z AUTO 33008KT 10SM BKN014 02/M01 A3017 RMK AO2 SLP228 T00221011 51027,KLWD,2018-03-21T14:53:00Z,40.63,-93.9,2.2,-1.1,330,8,,10.0,30.171259,1022.8,,TRUE,TRUE,,,,,,,BKN,1400,,,,,,,MVFR,2.7,,,,,,,,,,,METAR,346.0
KHSI 211453Z AUTO 18005KT 1 1/2SM BR BKN001 M01/M01 A3015 RMK AO2 SLP228 I3000 T10111011 51012,KHSI,2018-03-21T14:53:00Z,40.6,-98.43,-1.1,-1.1,180,5,,1.5,30.15059,1022.8,,TRUE,TRUE,,,,,,BR,BKN,100,,,,,,,LIFR,1.2,,,,,,,,,,,METAR,591.0
KOVS 211453Z AUTO VRB05KT 10SM CLR 00/M09 A3016 RMK AO2 SLP222 T00001094 51013,KOVS,2018-03-21T14:53:00Z,43.15,-90.68,0.0,-9.4,0,5,,10.0,30.159449,1022.2,,TRUE,TRUE,,,,,,,CLR,,,,,,,,VFR,1.3,,,,,,,,,,,METAR,202.0
KOVE 211453Z AUTO 10003KT 6SM -RA BR OVC008 12/12 A2986 RMK AO2 CIG 005V010 SLP114 P0006 60013 T01170117 55001,KOVE,2018-03-21T14:53:00Z,39.5,-121.62,11.7,11.7,100,3,,6.0,29.861221,1011.4,,TRUE,TRUE,,,,,,-RA BR,OVC,800,,,,,,,IFR,-0.1,,,,,0.06,0.13,,,,,METAR,58.0
KOSU 211453Z 36013KT 10SM OVC020 M01/M03 A2975 RMK AO2 SNB05E28 SLP083 P0000 60000 T10061028 53019,KOSU,2018-03-21T14:53:00Z,40.08,-83.08,-0.6,-2.8,360,13,,10.0,29.749016,1008.3,,,TRUE,,,,,,,OVC,2000,,,,,,,MVFR,1.9,,,,,0.005,0.005,,,,,METAR,280.0
KOSH 211453Z 01009KT 10SM CLR M02/M10 A3012 RMK AO2 SLP218 T10171100 52010,KOSH,2018-03-21T14:53:00Z,43.97,-88.55,-1.7,-10.0,10,9,,10.0,30.121063,1021.8,,,TRUE,,,,,,,CLR,,,,,,,,VFR,1.0,,,,,,,,,,,METAR,248.0
KARA 211453Z 32005KT 10SM CLR 16/06 A3020 RMK AO2 SLP226 T01560061 51022,KARA,2018-03-21T14:53:00Z,30.03,-91.88,15.6,6.1,320,5,,10.0,30.200787,1022.6,,,TRUE,,,,,,,CLR,,,,,,,,VFR,2.2,,,,,,,,,,,METAR,18.0
KLPR 211453Z AUTO 04021G31KT 10SM OVC043 M01/M07 A2983 RMK AO2 PK WND 04031/1412 SLP110 60000 T10111067 51022,KLPR,2018-03-21T14:53:00Z,41.35,-82.18,-1.1,-6.7,40,21,31,10.0,29.828741,1011.0,,TRUE,TRUE,,,,,,,OVC,4300,,,,,,,VFR,2.2,,,,,,0.005,,,,,METAR,241.0
KLOZ 211453Z AUTO 32010G20KT 8SM -SN SCT016 BKN029 OVC047 00/M03 A2979 RMK AO2 SLP097 P0000 60001 T00001028 51016,KLOZ,2018-03-21T14:53:00Z,37.08,-84.07,0.0,-2.8,320,10,20,8.0,29.790354,1009.7,,TRUE,TRUE,,,,,,-SN,SCT,1600,BKN,2900,OVC,4700,,,MVFR,1.6,,,,,0.005,0.01,,,,,METAR,362.0
KLOU 211453Z 34009G21KT 9SM FEW010 BKN055 OVC075 M01/M02 A2990 RMK AO2 SNE40 SLP130 P0001 60008 T10061022 53029,KLOU,2018-03-21T14:53:00Z,38.22,-85.67,-0.6,-2.2,340,9,21,9.0,29.899607,1013.0,,,TRUE,,,,,,,FEW,1000,BKN,5500,OVC,7500,,,VFR,2.9,,,,,0.01,0.08,,,,,METAR,164.0
KLOL 211453Z AUTO 00000KT 10SM BKN048 OVC060 06/04 A2989 RMK AO2 SLP119 T00560039 51012 PWINO,KLOL,2018-03-21T14:53:00Z,40.07,-118.57,5.6,3.9,0,0,,10.0,29.890747,1011.9,,TRUE,TRUE,,,,,TRUE,,BKN,4800,OVC,6000,,,,,VFR,1.2,,,,,,,,,,,METAR,1189.0
KLNS 211453Z 05003KT 1/4SM SN FZFG VV009 M01/M02 A2968 RMK AO2 SLP054 P0008 60015 T10111022 53008,KLNS,2018-03-21T14:53:00Z,40.12,-76.3,-1.1,-2.2,50,3,,0.25,29.681103,1005.4,,,TRUE,,,,,,SN FZFG,OVX,0,,,,,,,LIFR,0.8,,,,,0.08,0.15,,,,900,METAR,125.0
KVLD 211453Z 30007G19KT 260V350 10SM CLR 13/00 A2998 RMK AO2 SLP159 T01280000 51020,KVLD,2018-03-21T14:53:00Z,30.78,-83.27,12.8,0.0,300,7,19,10.0,29.97933,1015.9,,,TRUE,,,,,,,CLR,,,,,,,,VFR,2.0,,,,,,,,,,,METAR,62.0
OPMT 211453Z 00000KT 5000 FU FEW120 22/13 Q1010 NOSIG,OPMT,2018-03-21T14:53:00Z,30.18,71.42,22.0,13.0,0,0,,3.11,29.822834,,,,,,TRUE,,,,FU,FEW,12000,,,,,,,MVFR,,,,,,,,,,,,METAR,123.0
PAMC 211453Z AUTO 10SM OVC026 M06/M07 A3061 RMK AO2 SLP373 60000 T10611072 51010 TSNO,PAMC,2018-03-21T14:53:00Z,62.97,-155.62,-6.1,-7.2,,,,10.0,30.611221,1037.3,,TRUE,TRUE,,,TRUE,,,,OVC,2600,,,,,,,MVFR,1.0,,,,,,0.005,,,,,METAR,103.0
PALH 211453Z 06005KT 10SM CLR M04/M12 A3042 RMK AO2 SLP303 T10441122 58001,PALH,2018-03-21T14:53:00Z,61.18,-149.97,-4.4,-12.2,60,5,,10.0,30.41929,1030.3,,,TRUE,,,,,,,CLR,,,,,,,,VFR,-0.1,,,,,,,,,,,METAR,22.0
PAKV 211453Z AUTO 00000KT 10SM UP OVC036 M17/M19 A3067 RMK AO2 SLP391 P0000 60000 T11721194 51014 TSNO,PAKV,2018-03-21T14:53:00Z,64.33,-158.75,-17.2,-19.4,0,0,,10.0,30.670275,1039.1,,TRUE,TRUE,,,TRUE,,,UP,OVC,3600,,,,,,,VFR,1.4,,,,,0.005,0.005,,,,,METAR,61.0
PAKT 211453Z 34008KT 10SM CLR 01/M01 A2978 RMK AO2 SLP086 HARBOR WIND 07007KT T00061011 58018,PAKT,2018-03-21T14:53:00Z,55.35,-131.7,0.6,-1.1,340,8,,10.0,29.778543,1008.6,,,TRUE,,,,,,,CLR,,,,,,,,VFR,-1.8,,,,,,,,,,,METAR,28.0
PAJN 211453Z 00000KT 10SM BCFG FEW001 SCT039 BKN070 M01/M01 A2991 RMK AO2 SNE35 SLP128 BCFG SE AND W-NW P0000 60002 T10111011 58002,PAJN,2018-03-21T14:53:00Z,58.35,-134.58,-1.1,-1.1,0,0,,10.0,29.911417,1012.8,,,TRUE,,,,,,BCFG,FEW,100,SCT,3900,BKN,7000,,,VFR,-0.2,,,,,0.005,0.02,,,,,METAR,5.0
PAIL 211453Z 34014G19KT 10SM CLR M04/M11 A3062 RMK AO2 SLP372 T10391106 56009,PAIL,2018-03-21T14:53:00Z,59.75,-154.92,-3.9,-10.6,340,14,19,10.0,30.620079,1037.2,,,TRUE,,,,,,,CLR,,,,,,,,VFR,-0.9,,,,,,,,,,,METAR,49.0
PAHO 211453Z 34006KT 10SM CLR M02/M10 A3043 RMK AO2 SLP307 T10171100 58005,PAHO,2018-03-21T14:53:00Z,59.63,-151.47,-1.7,-10.0,340,6,,10.0,30.431103,1030.7,,,TRUE,,,,,,,CLR,,,,,,,,VFR,-0.5,,,,,,,,,,,METAR,28.0
PAGY 211453Z AUTO 00000KT 10SM OVC090 M03/M05 A3003 RMK AO2 SLP170 T10331050 51009 TSNO,PAGY,2018-03-21T14:53:00Z,59.47,-135.3,-3.3,-5.0,0,0,,10.0,30.029528,1017.0,,TRUE,TRUE,,,TRUE,,,,OVC,9000,,,,,,,VFR,0.9,,,,,,,,,,,METAR,5.0
PAGK 211453Z AUTO 33010KT 10SM CLR M10/M17 A3028 RMK AO2 SLP294 T11001167 51006 TSNO $,PAGK,2018-03-21T14:53:00Z,62.15,-145.45,-10.0,-16.7,330,10,,10.0,30.280512,1029.4,,TRUE,TRUE,TRUE,,TRUE,,,,CLR,,,,,,,,VFR,0.6,,,,,,,,,,,METAR,481.0
PAFA 211453Z 00000KT 10SM SCT080 M12/M15 A3051 RMK AO2 SLP343 T11221150 53015 $,PAFA,2018-03-21T14:53:00Z,64.8,-147.85,-12.2,-15.0,0,0,,10.0,30.510826,1034.3,,,TRUE,TRUE,,,,,,SCT,8000,,,,,,,VFR,1.5,,,,,,,,,,,METAR,132.0
PAEN 211453Z 00000KT 10SM CLR M09/M13 A3044 RMK AO2 SLP312 T10941128 58002,PAEN,2018-03-21T14:53:00Z,60.57,-151.25,-9.4,-12.8,0,0,,10.0,30.43996,1031.2,,,TRUE,,,,,,,CLR,,,,,,,,VFR,-0.2,,,,,,,,,,,METAR,27.0
PAEG 211453Z AUTO 00000KT 10SM OVC080 M17/M18 A3038 RMK AO2 SLP307 I1000 I3000 T11671183 51022 TSNO,PAEG,2018-03-21T14:53:00Z,64.78,-141.15,-16.7,-18.3,0,0,,10.0,30.380905,1030.7,,TRUE,TRUE,,,TRUE,,,,OVC,8000,,,,,,,VFR,2.2,,,,,,,,,,,METAR,268.0
PACV 211453Z 35008KT 10SM CLR 01/M16 A3009 RMK AO2 SLP190 T00061156 58000,PACV,2018-03-21T14:53:00Z,60.5,-145.47,0.6,-15.6,350,8,,10.0,30.088583,1019.0,,,TRUE,,,,,,,CLR,,,,,,,,VFR,0.0,,,,,,,,,,,METAR,12.0
PACD 211453Z AUTO 15007KT 10SM CLR M02/M04 A3065 RMK AO2 SLP380 T10221039 58025 TSNO,PACD,2018-03-21T14:53:00Z,55.2,-162.72,-2.2,-3.9,150,7,,10.0,30.649607,1038.0,,TRUE,TRUE,,,TRUE,,,,CLR,,,,,,,,VFR,-2.5,,,,,,,,,,,METAR,30.0
PABT 211453Z 00000KT 10SM -SN OVC019 M21/M24 A3056 RMK AO2 SLP373 PCPN VRY LGT 60000 931000 T12111244 51025,PABT,2018-03-21T14:53:00Z,66.92,-151.52,-21.1,-24.4,0,0,,10.0,30.561024,1037.3,,,TRUE,,,,,,-SN,OVC,1900,,,,,,,MVFR,2.5,,,,,,0.005,,,,,METAR,195.0
PABR 211453Z 00000KT 2SM BR CLR M31/M32 A3067 RMK AO2 SLP388 T13061322 51009 $,PABR,2018-03-21T14:53:00Z,71.28,-156.77,-30.6,-32.2,0,0,,2.0,30.670275,1038.8,,,TRUE,TRUE,,,,,BR,CLR,,,,,,,,IFR,0.9,,,,,,,,,,,METAR,7.0
PAOT 211453Z AUTO 00000KT 10SM CLR M26/M28 A3065 RMK AO2 SLP377 T12561278 58005 TSNO,PAOT,2018-03-21T14:53:00Z,66.87,-162.58,-25.6,-27.8,0,0,,10.0,30.649607,1037.7,,TRUE,TRUE,,,TRUE,,,,CLR,,,,,,,,VFR,-0.5,,,,,,,,,,,METAR,3.0
PASC 211453Z 25014KT 7SM -SN OVC070 M22/M25 A3070 RMK AO2 SLP397 P0000 60000 T12171250 51020,PASC,2018-03-21T14:53:00Z,70.2,-148.47,-21.7,-25.0,250,14,,7.0,30.699802,1039.7,,,TRUE,,,,,,-SN,OVC,7000,,,,,,,VFR,2.0,,,,,0.005,0.005,,,,,METAR,15.0
KRSL 211453Z AUTO VRB03KT 10SM CLR 07/03 A3016 RMK AO2 SLP225 T00670033 53016,KRSL,2018-03-21T14:53:00Z,38.87,-98.82,6.7,3.3,0,3,,10.0,30.159449,1022.5,,TRUE,TRUE,,,,,,,CLR,,,,,,,,VFR,1.6,,,,,,,,,,,METAR,567.0
KSEA 211453Z 00000KT 10SM FEW100 BKN250 03/00 A2975 RMK AO2 SLP082 T00330000 56010,KSEA,2018-03-21T14:53:00Z,47.45,-122.32,3.3,0.0,0,0,,10.0,29.749016,1008.2,,,TRUE,,,,,,,FEW,10000,BKN,25000,,,,,VFR,-1.0,,,,,,,,,,,METAR,136.0
KNUI 211453Z AUTO VRB03KT 3/4SM -SN BKN005 OVC009 01/ A2960 RMK AO2 SLP023 P0006 60013 T0006 52004 $,KNUI,2018-03-21T14:53:00Z,38.15,-76.43,0.6,,0,3,,0.75,29.601377,1002.3,,TRUE,TRUE,TRUE,,,,,-SN,BKN,500,OVC,900,,,,,LIFR,0.4,,,,,0.06,0.13,,,,,METAR,7.0
KPUC 211453Z AUTO 00000KT 10SM OVC070 04/M07 A3004 RMK AO2 SLP183 T00441067 53010,KPUC,2018-03-21T14:53:00Z,39.62,-110.75,4.4,-6.7,0,0,,10.0,30.041338,1018.3,,TRUE,TRUE,,,,,,,OVC,7000,,,,,,,VFR,1.0,,,,,,,,,,,METAR,2091.0
KOTM 211453Z AUTO 01006KT 10SM CLR 02/M04 A3015 RMK AO2 SLP217 T00171044 51017,KOTM,2018-03-21T14:53:00Z,41.1,-92.45,1.7,-4.4,10,6,,10.0,30.15059,1021.7,,TRUE,TRUE,,,,,,,CLR,,,,,,,,VFR,1.7,,,,,,,,,,,METAR,256.0
KCPS 211453Z 34014G23KT 10SM CLR 04/M06 A3011 RMK AO2 SLP197 T00391056 51027,KCPS,2018-03-21T14:53:00Z,38.57,-90.15,3.9,-5.6,340,14,23,10.0,30.109253,1019.7,,,TRUE,,,,,,,CLR,,,,,,,,VFR,2.7,,,,,,,,,,,METAR,126.0
KBVO 211453Z AUTO 00000KT 10SM CLR 06/00 A3025 RMK AO2 SLP245 I3000 T00610000 53026,KBVO,2018-03-21T14:53:00Z,36.77,-96.02,6.1,0.0,0,0,,10.0,30.250984,1024.5,,TRUE,TRUE,,,,,,,CLR,,,,,,,,VFR,2.6,,,,,,,,,,,METAR,210.0
KBIL 211453Z 21008KT 10SM FEW090 SCT170 M01/M04 A2992 RMK AO2 SLP150 T10061044 50002,KBIL,2018-03-21T14:53:00Z,45.8,-108.55,-0.6,-4.4,210,8,,10.0,29.920275,1015.0,,,TRUE,,,,,,,FEW,9000,SCT,17000,,,,,VFR,0.2,,,,,,,,,,,METAR,1091.0
KBAF 211453Z 01009KT 10SM BKN120 00/M10 A2977 RMK AO2 SLP088 T00001100 58007,KBAF,2018-03-21T14:53:00Z,42.17,-72.72,0.0,-10.0,10,9,,10.0,29.769686,1008.8,,,TRUE,,,,,,,BKN,12000,,,,,,,VFR,-0.7,,,,,,,,,,,METAR,83.0
KAQP 211453Z AUTO 15003KT 10SM OVC021 01/M02 A3012 RMK AO2,KAQP,2018-03-21T14:53:00Z,45.22,-96.0,1.0,-2.0,150,3,,10.0,30.121063,,,TRUE,TRUE,,,,,,,OVC,2100,,,,,,,MVFR,,,,,,,,,,,,METAR,311.0
KAID 211453Z 34010G20KT 10SM BKN016 OVC024 M02/M05 A2991 RMK BRA ALL SFC GOOD,KAID,2018-03-21T14:53:00Z,40.12,-85.62,-2.0,-5.0,340,10,20,10.0,29.911417,,,,,,,,,,,BKN,1600,OVC,2400,,,,,MVFR,,,,,,,,,,,,METAR,280.0
KODX 211453Z AUTO 10003KT 5SM BR CLR M01/M02 A3010 RMK AO2 SLP215 I3000 T10061017 50006,KODX,2018-03-21T14:53:00Z,41.62,-98.95,-0.6,-1.7,100,3,,5.0,30.100393,1021.5,,TRUE,TRUE,,,,,,BR,CLR,,,,,,,,MVFR,0.6,,,,,,,,,,,METAR,631.0
KMIC 211453Z 00000KT 10SM OVC060 M03/M07 A3016 RMK AO2 SLP227 T10281067 51012,KMIC,2018-03-21T14:53:00Z,45.07,-93.35,-2.8,-6.7,0,0,,10.0,30.159449,1022.7,,,TRUE,,,,,,,OVC,6000,,,,,,,VFR,1.2,,,,,,,,,,,METAR,265.0
KLKV 211453Z AUTO 17010KT 10SM BKN028 BKN060 04/03 A2982 RMK AO2 RAE18 SLP576 P0000 60000 T00390033 56002,KLKV,2018-03-21T14:53:00Z,42.17,-120.4,3.9,3.3,170,10,,10.0,29.819881,957.6,,TRUE,TRUE,,,,,,,BKN,2800,BKN,6000,,,,,MVFR,-0.2,,,,,0.005,0.005,,,,,METAR,1441.0
KHUL 211453Z AUTO 02007KT 10SM CLR M01/M10 A2992 RMK AO2 SLP140 T10111100 58008,KHUL,2018-03-21T14:53:00Z,46.12,-67.8,-1.1,-10.0,20,7,,10.0,29.920275,1014.0,,TRUE,TRUE,,,,,,,CLR,,,,,,,,VFR,-0.8,,,,,,,,,,,METAR,150.0
KNQX 211453Z 33016KT 10SM SCT038 BKN050 24/17 A3001 RMK AO2 SLP160 T02440167 51022,KNQX,2018-03-21T14:53:00Z,24.57,-81.67,24.4,16.7,330,16,,10.0,30.008858,1016.0,,,TRUE,,,,,,,SCT,3800,BKN,5000,,,,,VFR,2.2,,,,,,,,,,,METAR,2.0
KOQT 211453Z AUTO 26006KT 10SM -SN BKN038 OVC048 02/M01 A2985 RMK AO2 SNE1359B51 SLP118 P0000 60000 T00221011 53021,KOQT,2018-03-21T14:53:00Z,36.02,-84.23,2.2,-1.1,260,6,,10.0,29.84941,1011.8,,TRUE,TRUE,,,,,,-SN,BKN,3800,OVC,4800,,,,,VFR,2.1,,,,,0.005,0.005,,,,,METAR,277.0
KTUP 211453Z 29008G16KT 10SM CLR 08/00 A3008 RMK AO2 SLP186 T00830000 51022,KTUP,2018-03-21T14:53:00Z,34.27,-88.77,8.3,0.0,290,8,16,10.0,30.079725,1018.6,,,TRUE,,,,,,,CLR,,,,,,,,VFR,2.2,,,,,,,,,,,METAR,105.0
KNIP 211453Z 30016G23KT 10SM FEW045 FEW250 16/01 A2993 RMK AO2 PK WND 31028/1432 SLP129 T01560011 51020 $,KNIP,2018-03-21T14:53:00Z,30.22,-81.67,15.6,1.1,300,16,23,10.0,29.929134,1012.9,,,TRUE,TRUE,,,,,,FEW,4500,FEW,25000,,,,,VFR,2.0,,,,,,,,,,,METAR,7.0
KSDB 211453Z AUTO 18010KT 10SM -RA BKN007 BKN036 OVC090 06/05 A3004 RMK AO2 RAE14B51 CIG 006V019 SLP159 P0001 60010 T00560050 50012 $,KSDB,2018-03-21T14:53:00Z,34.75,-118.72,5.6,5.0,180,10,,10.0,30.041338,1015.9,,TRUE,TRUE,TRUE,,,,,-RA,BKN,700,BKN,3600,OVC,9000,,,IFR,1.2,,,,,0.01,0.1,,,,,METAR,1377.0
KDLF 211453Z 13013G21KT 10SM FEW250 SCT320 17/07 A3012 RMK AO2A SLP193 T01710069 52018,KDLF,2018-03-21T14:53:00Z,29.37,-100.77,17.1,6.9,130,13,21,10.0,30.121063,1019.3,,,TRUE,,,,,,,FEW,25000,SCT,32000,,,,,VFR,1.8,,,,,,,,,,,METAR,330.0
KMWT 211453Z AUTO VRB03KT 10SM CLR 09/02 A3016 RMK AO2 SLP216 T00940017 51025,KMWT,2018-03-21T14:53:00Z,34.55,-93.58,9.4,1.7,0,3,,10.0,30.159449,1021.6,,TRUE,TRUE,,,,,,,CLR,,,,,,,,VFR,2.5,,,,,,,,,,,METAR,214.0
KSPW 211453Z AUTO 23004KT 10SM OVC020 01/M02 A3015 RMK AO2 SLP225 T00061017 51019,KSPW,2018-03-21T14:53:00Z,43.17,-95.22,0.6,-1.7,230,4,,10.0,30.15059,1022.5,,TRUE,TRUE,,,,,,,OVC,2000,,,,,,,MVFR,1.9,,,,,,,,,,,METAR,403.0
FALE 211453Z 19016G27KT 9999 FEW015 BKN020 BKN030 25/19 Q1015 NOSIG,FALE,2018-03-21T14:53:00Z,-29.62,31.12,25.0,19.0,190,16,27,6.21,29.970472,,,,,,TRUE,,,,,FEW,1500,BKN,2000,BKN,3000,,,MVFR,,,,,,,,,,,,SPECI,109.0
KARB 211453Z 36013G18KT 10SM OVC090 01/M09 A2992 RMK AO2 SLP141 T00111094 $,KARB,2018-03-21T14:53:00Z,42.22,-83.73,1.1,-9.4,360,13,18,10.0,29.920275,1014.1,,,TRUE,TRUE,,,,,,OVC,9000,,,,,,,VFR,,,,,,,,,,,,METAR,251.0
KFOK 211453Z 04016G25KT 1 1/2SM -SN BR OVC015 01/M01 A2968 RMK AO2 PK WND 03026/1422 RAE02SNB02 SLP049 P0004 60019 T00111011 58003,KFOK,2018-03-21T14:53:00Z,40.85,-72.62,1.1,-1.1,40,16,25,1.5,29.681103,1004.9,,,TRUE,,,,,,-SN BR,OVC,1500,,,,,,,IFR,-0.3,,,,,0.04,0.19,,,,,METAR,33.0
KASE 211453Z 22004KT 10SM OVC070 01/M09 A3008 RMK AO2 SLP159 T00111089 56000,KASE,2018-03-21T14:53:00Z,39.23,-106.87,1.1,-8.9,220,4,,10.0,30.079725,1015.9,,,TRUE,,,,,,,OVC,7000,,,,,,,VFR,0.0,,,,,,,,,,,METAR,2354.0
KASD 211453Z AUTO 33007KT 290V020 10SM CLR 14/05 A3016 RMK AO2 SLP213 T01390050 51022,KASD,2018-03-21T14:53:00Z,30.35,-89.82,13.9,5.0,330,7,,10.0,30.159449,1021.3,,TRUE,TRUE,,,,,,,CLR,,,,,,,,VFR,2.2,,,,,,,,,,,METAR,9.0
KFRG 211453Z 04015G21KT 3/4SM -SN BR BKN010 OVC013 00/M01 A2967 RMK AO2 PK WND 04027/1359 FZRAE30SNB30 SLP047 P0005 60012 T00001011 58001,KFRG,2018-03-21T14:53:00Z,40.73,-73.42,0.0,-1.1,40,15,21,0.75,29.66929,1004.7,,,TRUE,,,,,,-SN BR,BKN,1000,OVC,1300,,,,,LIFR,-0.1,,,,,0.05,0.12,,,,,METAR,21.0
KFPR 211453Z 28017G24KT 10SM FEW030 19/12 A2996 RMK AO2 SLP144 T01890122 51018,KFPR,2018-03-21T14:53:00Z,27.5,-80.38,18.9,12.2,280,17,24,10.0,29.958662,1014.4,,,TRUE,,,,,,,FEW,3000,,,,,,,VFR,1.8,,,,,,,,,,,METAR,13.0
KFSM 211453Z 36006KT 10SM CLR 09/01 A3021 RMK AO2 SLP230 T00890011 51021,KFSM,2018-03-21T14:53:00Z,35.33,-94.37,8.9,1.1,360,6,,10.0,30.209646,1023.0,,,TRUE,,,,,,,CLR,,,,,,,,VFR,2.1,,,,,,,,,,,METAR,140.0
KFTW 211453Z 16005KT 10SM CLR 14/03 A3021 RMK AO2 SLP225 T01440028 51025,KFTW,2018-03-21T14:53:00Z,32.83,-97.37,14.4,2.8,160,5,,10.0,30.209646,1022.5,,,TRUE,,,,,,,CLR,,,,,,,,VFR,2.5,,,,,,,,,,,METAR,214.0
KFST 211453Z AUTO 16015KT 10SM CLR 16/M01 A3006 RMK AO2 SLP150 T01561011 51017,KFST,2018-03-21T14:53:00Z,30.92,-102.92,15.6,-1.1,160,15,,10.0,30.059055,1015.0,,TRUE,TRUE,,,,,,,CLR,,,,,,,,VFR,1.7,,,,,,,,,,,METAR,918.0
KFTY 211453Z 31015G27KT 10SM OVC029 04/M02 A2990 RMK AO2 PK WND 28027/1447 SLP127 T00391017 53022,KFTY,2018-03-21T14:53:00Z,33.78,-84.52,3.9,-1.7,310,15,27,10.0,29.899607,1012.7,,,TRUE,,,,,,,OVC,2900,,,,,,,MVFR,2.2,,,,,,,,,,,METAR,263.0
KFUL 211453Z 07005KT 10SM BKN060 16/09 A2998 RMK AO2 SLP151 T01560089 50012,KFUL,2018-03-21T14:53:00Z,33.87,-117.98,15.6,8.9,70,5,,10.0,29.97933,1015.1,,,TRUE,,,,,,,BKN,6000,,,,,,,VFR,1.2,,,,,,,,,,,METAR,35.0
KFWN 211453Z AUTO 05011G17KT 10SM OVC055 00/M09 A2969 RMK AO2 SLP058 T00001094 56012,KFWN,2018-03-21T14:53:00Z,41.2,-74.63,0.0,-9.4,50,11,17,10.0,29.68996,1005.8,,TRUE,TRUE,,,,,,,OVC,5500,,,,,,,VFR,-1.2,,,,,,,,,,,METAR,133.0
KFVE 211453Z AUTO 00000KT 10SM CLR M01/M09 A2994 RMK AO2 SLP154 T10061094 50003,KFVE,2018-03-21T14:53:00Z,47.28,-68.3,-0.6,-9.4,0,0,,10.0,29.940945,1015.4,,TRUE,TRUE,,,,,,,CLR,,,,,,,,VFR,0.3,,,,,,,,,,,METAR,301.0
KFXE 211453Z 31010G24KT 10SM SCT032 SCT060 22/14 A2997 RMK AO2 SLP151 T02220139 51020,KFXE,2018-03-21T14:53:00Z,26.2,-80.18,22.2,13.9,310,10,24,10.0,29.970472,1015.1,,,TRUE,,,,,,,SCT,3200,SCT,6000,,,,,VFR,2.0,,,,,,,,,,,METAR,6.0
KFYV 211453Z 34007KT 10SM CLR 06/02 A3020 RMK AO2 SLP230 I3000 T00610022 51024,KFYV,2018-03-21T14:53:00Z,36.02,-94.17,6.1,2.2,340,7,,10.0,30.200787,1023.0,,,TRUE,,,,,,,CLR,,,,,,,,VFR,2.4,,,,,,,,,,,METAR,379.0
KGAG 211453Z AUTO 00000KT CLR 08/00 A3016 RMK AO2 SLP214 T00830000 51014,KGAG,2018-03-21T14:53:00Z,36.3,-99.77,8.3,0.0,0,0,,,30.159449,1021.4,,TRUE,TRUE,,,,,,,CLR,,,,,,,,,1.4,,,,,,,,,,,METAR,668.0
KGCC 211453Z AUTO 23011KT 10SM CLR 03/M04 A2995 RMK AO2 SLP165 T00331044 51005,KGCC,2018-03-21T14:53:00Z,44.33,-105.55,3.3,-4.4,230,11,,10.0,29.949802,1016.5,,TRUE,TRUE,,,,,,,CLR,,,,,,,,VFR,0.5,,,,,,,,,,,METAR,1320.0
KGEY 211453Z AUTO 17003KT 10SM SCT110 M01/M04 A2997 RMK AO2 SLP170 T10061044 50002,KGEY,2018-03-21T14:53:00Z,44.52,-108.08,-0.6,-4.4,170,3,,10.0,29.970472,1017.0,,TRUE,TRUE,,,,,,,SCT,11000,,,,,,,VFR,0.2,,,,,,,,,,,METAR,1191.0
KGEG 211453Z 06007KT 10SM FEW060 SCT090 BKN240 01/M02 A2980 RMK AO2 SLP103 T00061022 55003,KGEG,2018-03-21T14:53:00Z,47.62,-117.53,0.6,-2.2,60,7,,10.0,29.799213,1010.3,,,TRUE,,,,,,,FEW,6000,SCT,9000,BKN,24000,,,VFR,-0.3,,,,,,,,,,,METAR,735.0
KGGG 211453Z 00000KT 10SM CLR 13/07 A3022 RMK AO2 SLP233 T01280067 51029,KGGG,2018-03-21T14:53:00Z,32.38,-94.72,12.8,6.7,0,0,,10.0,30.221457,1023.3,,,TRUE,,,,,,,CLR,,,,,,,,VFR,2.9,,,,,,,,,,,METAR,107.0
KGFL 211453Z AUTO 05010KT 10SM CLR M02/M10 A2987 RMK AO2 SLP126 T10171100 55001,KGFL,2018-03-21T14:53:00Z,43.33,-73.62,-1.7,-10.0,50,10,,10.0,29.870079,1012.6,,TRUE,TRUE,,,,,,,CLR,,,,,,,,VFR,-0.1,,,,,,,,,,,METAR,103.0
KGFK 211453Z 15009KT 4SM BR OVC018 00/M01 A3006 RMK AO2 SNE24 SLP192 P0000 60004 T00001006 53003,KGFK,2018-03-21T14:53:00Z,47.95,-97.18,0.0,-0.6,150,9,,4.0,30.059055,1019.2,,,TRUE,,,,,,BR,OVC,1800,,,,,,,MVFR,0.3,,,,,0.005,0.04,,,,,METAR,258.0
KGGW 211453Z AUTO 11007KT M1/4SM FZFG VV002 M07/M08 A2993 RMK AO2 SLP171 I3001 T10671083 51004 $,KGGW,2018-03-21T14:53:00Z,48.22,-106.62,-6.7,-8.3,110,7,,0.25,29.929134,1017.1,,TRUE,TRUE,TRUE,,,,,FZFG,OVX,0,,,,,,,LIFR,0.4,,,,,,,,,,200,METAR,694.0
KGJT 211453Z 10012KT 10SM SCT110 06/M05 A3005 RMK AO2 SLP162 T00611050 51006,KGJT,2018-03-21T14:53:00Z,39.12,-108.52,6.1,-5.0,100,12,,10.0,30.050198,1016.2,,,TRUE,,,,,,,SCT,11000,,,,,,,VFR,0.6,,,,,,,,,,,METAR,1475.0
KGIF 211453Z AUTO 30017G24KT 10SM FEW036 18/08 A2999 RMK AO2 PK WND 31029/1405 SLP154 T01780083 51022,KGIF,2018-03-21T14:53:00Z,28.07,-81.75,17.8,8.3,300,17,24,10.0,29.991142,1015.4,,TRUE,TRUE,,,,,,,FEW,3600,,,,,,,VFR,2.2,,,,,,,,,,,METAR,43.0
KGKJ 211453Z AUTO 03010KT 10SM OVC070 M02/M10 A2975 RMK AO2 SLP087 T10221100 53010,KGKJ,2018-03-21T14:53:00Z,41.63,-80.22,-2.2,-10.0,30,10,,10.0,29.749016,1008.7,,TRUE,TRUE,,,,,,,OVC,7000,,,,,,,VFR,1.0,,,,,,,,,,,METAR,428.0
KGKY 211453Z 06004KT 10SM CLR 14/03 A3021 RMK AO2 SLP229 T01390028 51025,KGKY,2018-03-21T14:53:00Z,32.67,-97.1,13.9,2.8,60,4,,10.0,30.209646,1022.9,,,TRUE,,,,,,,CLR,,,,,,,,VFR,2.5,,,,,,,,,,,METAR,192.0
KTPA 211453Z 32014G23KT 10SM SCT035 18/08 A3003 RMK AO2 SLP167 T01830078 51029,KTPA,2018-03-21T14:53:00Z,27.97,-82.53,18.3,7.8,320,14,23,10.0,30.029528,1016.7,,,TRUE,,,,,,,SCT,3500,,,,,,,VFR,2.9,,,,,,,,,,,METAR,11.0
KTOR 211453Z AUTO 00000KT 10SM OVC075 M02/M04 A3001 RMK AO2 SLP189 T10171039 51006,KTOR,2018-03-21T14:53:00Z,42.07,-104.15,-1.7,-3.9,0,0,,10.0,30.008858,1018.9,,TRUE,TRUE,,,,,,,OVC,7500,,,,,,,VFR,0.6,,,,,,,,,,,METAR,1277.0
KTOP 211453Z 32005KT 10SM CLR 03/00 A3023 RMK AO2 SLP241 T00280000 51025,KTOP,2018-03-21T14:53:00Z,39.07,-95.63,2.8,0.0,320,5,,10.0,30.230314,1024.1,,,TRUE,,,,,,,CLR,,,,,,,,VFR,2.5,,,,,,,,,,,METAR,268.0
KTOI 211453Z AUTO 31014G22KT 10SM CLR 11/01 A3005 RMK AO2 SLP173 T01110011 51019,KTOI,2018-03-21T14:53:00Z,31.85,-86.02,11.1,1.1,310,14,22,10.0,30.050198,1017.3,,TRUE,TRUE,,,,,,,CLR,,,,,,,,VFR,1.9,,,,,,,,,,,METAR,118.0
KTMB 211453Z 31011KT 10SM BKN026 BKN030 24/16 A2997 RMK AO2 SLP149 T02390156 51019,KTMB,2018-03-21T14:53:00Z,25.65,-80.43,23.9,15.6,310,11,,10.0,29.970472,1014.9,,,TRUE,,,,,,,BKN,2600,BKN,3000,,,,,MVFR,1.9,,,,,,,,,,,METAR,2.0
KLSE 211453Z 19003KT 10SM CLR 00/M11 A3016 RMK AO2 SLP224 T00001106 50010,KLSE,2018-03-21T14:53:00Z,43.88,-91.25,0.0,-10.6,190,3,,10.0,30.159449,1022.4,,,TRUE,,,,,,,CLR,,,,,,,,VFR,1.0,,,,,,,,,,,METAR,199.0
KPBI 211453Z 28018KT 10SM FEW036 SCT065 22/12 A2997 RMK AO2 PK WND 28028/1409 SLP146 T02220117 51016,KPBI,2018-03-21T14:53:00Z,26.68,-80.1,22.2,11.7,280,18,,10.0,29.970472,1014.6,,,TRUE,,,,,,,FEW,3600,SCT,6500,,,,,VFR,1.6,,,,,,,,,,,METAR,6.0
KPBG 211453Z AUTO 36012KT 10SM CLR M04/M11 A2993 RMK AO2 SLP141 T10391111 58006,KPBG,2018-03-21T14:53:00Z,44.65,-73.47,-3.9,-11.1,360,12,,10.0,29.929134,1014.1,,TRUE,TRUE,,,,,,,CLR,,,,,,,,VFR,-0.6,,,,,,,,,,,METAR,72.0
KPBF 211453Z AUTO 32013KT 10SM CLR 10/01 A3018 RMK AO2 SLP220 T01000011 51030,KPBF,2018-03-21T14:53:00Z,34.18,-91.93,10.0,1.1,320,13,,10.0,30.180119,1022.0,,TRUE,TRUE,,,,,,,CLR,,,,,,,,VFR,3.0,,,,,,,,,,,METAR,62.0
KPAH 211453Z 34014G23KT 10SM CLR 05/M04 A3006 RMK AO2 SLP180 T00501039 51029,KPAH,2018-03-21T14:53:00Z,37.07,-88.77,5.0,-3.9,340,14,23,10.0,30.059055,1018.0,,,TRUE,,,,,,,CLR,,,,,,,,VFR,2.9,,,,,,,,,,,METAR,119.0
KPAE 211453Z 14003KT 10SM CLR 03/02 A2975 RMK AO2 SLP078 T00330017 56009,KPAE,2018-03-21T14:53:00Z,47.92,-122.28,3.3,1.7,140,3,,10.0,29.749016,1007.8,,,TRUE,,,,,,,CLR,,,,,,,,VFR,-0.9,,,,,,,,,,,METAR,180.0
KOWD 211453Z 02007G19KT 10SM OVC021 03/M03 A2980 RMK AO2 SLP091 T00281028 53006,KOWD,2018-03-21T14:53:00Z,42.18,-71.17,2.8,-2.8,20,7,19,10.0,29.799213,1009.1,,,TRUE,,,,,,,OVC,2100,,,,,,,MVFR,0.6,,,,,,,,,,,METAR,19.0
KGLD 211453Z AUTO 23011KT 10SM CLR 06/M05 A3008 RMK AO2 SLP199 T00611050 51007,KGLD,2018-03-21T14:53:00Z,39.37,-101.7,6.1,-5.0,230,11,,10.0,30.079725,1019.9,,TRUE,TRUE,,,,,,,CLR,,,,,,,,VFR,0.7,,,,,,,,,,,METAR,1113.0
KGLH 211453Z 33013G20KT 10SM CLR 11/02 A3016 RMK AO2 SLP220 T01060022 51030,KGLH,2018-03-21T14:53:00Z,33.5,-90.98,10.6,2.2,330,13,20,10.0,30.159449,1022.0,,,TRUE,,,,,,,CLR,,,,,,,,VFR,3.0,,,,,,,,,,,METAR,45.0
KASX 211453Z AUTO 00000KT 10SM CLR M05/M09 A3019 RMK AO2 SLP239 T10501089 51012,KASX,2018-03-21T14:53:00Z,46.55,-90.92,-5.0,-8.9,0,0,,10.0,30.188976,1023.9,,TRUE,TRUE,,,,,,,CLR,,,,,,,,VFR,1.2,,,,,,,,,,,METAR,251.0
KGLR 211453Z AUTO 06007KT 10SM CLR M05/M12 A3005 RMK AO2 SLP199 T10501117 51008,KGLR,2018-03-21T14:53:00Z,45.02,-84.68,-5.0,-11.7,60,7,,10.0,30.050198,1019.9,,TRUE,TRUE,,,,,,,CLR,,,,,,,,VFR,0.8,,,,,,,,,,,METAR,407.0
KATY 211453Z AUTO 19006KT 10SM OVC007 M02/M03 A3007 RMK AO2 SLP205 6//// T10221028 51010 PNO $,KATY,2018-03-21T14:53:00Z,44.9,-97.15,-2.2,-2.8,190,6,,10.0,30.070866,1020.5,,TRUE,TRUE,TRUE,,,,,,OVC,700,,,,,,,IFR,1.0,,,,,,,,,,,METAR,532.0
KAZO 211453Z 02011KT 10SM CLR 01/M08 A2999 RMK AO2 SLP165 T00061078 51021,KAZO,2018-03-21T14:53:00Z,42.23,-85.55,0.6,-7.8,20,11,,10.0,29.991142,1016.5,,,TRUE,,,,,,,CLR,,,,,,,,VFR,2.1,,,,,,,,,,,METAR,272.0
KAXN 211453Z AUTO 14007KT 4SM BR OVC004 M02/M03 A3012 RMK AO2 SLP219 I3001 T10221028 51011,KAXN,2018-03-21T14:53:00Z,45.87,-95.4,-2.2,-2.8,140,7,,4.0,30.121063,1021.9,,TRUE,TRUE,,,,,,BR,OVC,400,,,,,,,LIFR,1.1,,,,,,,,,,,METAR,433.0
KAWM 211453Z AUTO 36007KT 10SM SCT042 OVC055 08/02 A3013 RMK AO2 SLP202 T00780022 51031 $,KAWM,2018-03-21T14:53:00Z,35.13,-90.23,7.8,2.2,360,7,,10.0,30.129921,1020.2,,TRUE,TRUE,TRUE,,,,,,SCT,4200,OVC,5500,,,,,VFR,3.1,,,,,,,,,,,METAR,65.0
KAUS 211453Z 00000KT 10SM BKN300 BKN350 14/04 A3020 RMK AO2 SLP227 T01440039 53023,KAUS,2018-03-21T14:53:00Z,30.18,-97.68,14.4,3.9,0,0,,10.0,30.200787,1022.7,,,TRUE,,,,,,,BKN,30000,BKN,35000,,,,,VFR,2.3,,,,,,,,,,,METAR,166.0
KAUG 211453Z AUTO 01013KT 10SM CLR M01/M10 A2987 RMK AO2 SLP118 T10111100 56014,KAUG,2018-03-21T14:53:00Z,44.32,-69.8,-1.1,-10.0,10,13,,10.0,29.870079,1011.8,,TRUE,TRUE,,,,,,,CLR,,,,,,,,VFR,-1.4,,,,,,,,,,,METAR,109.0
KBBW 211453Z AUTO 18003KT 10SM CLR 03/00 A3008 RMK AO2 SLP206 T00330000 51004,KBBW,2018-03-21T14:53:00Z,41.43,-99.63,3.3,0.0,180,3,,10.0,30.079725,1020.6,,TRUE,TRUE,,,,,,,CLR,,,,,,,,VFR,0.4,,,,,,,,,,,METAR,776.0
KBDE 211453Z AUTO 15009KT 10SM OVC055 M03/M07 A3012 RMK AO2 SLP219 T10331067 51010,KBDE,2018-03-21T14:53:00Z,48.73,-94.62,-3.3,-6.7,150,9,,10.0,30.121063,1021.9,,TRUE,TRUE,,,,,,,OVC,5500,,,,,,,VFR,1.0,,,,,,,,,,,METAR,329.0
KBCE 211453Z AUTO 00000KT 10SM OVC029 02/M06 A3007 RMK AO2 SLP146 T00221056 53005,KBCE,2018-03-21T14:53:00Z,37.7,-112.15,2.2,-5.6,0,0,,10.0,30.070866,1014.6,,TRUE,TRUE,,,,,,,OVC,2900,,,,,,,MVFR,0.5,,,,,,,,,,,METAR,2312.0
KBEH 211453Z AUTO 10SM CLR 01/M09 A3002 RMK AO2 SLP173 T00061089 51020,KBEH,2018-03-21T14:53:00Z,42.13,-86.42,0.6,-8.9,,,,10.0,30.02067,1017.3,,TRUE,TRUE,,,,,,,CLR,,,,,,,,VFR,2.0,,,,,,,,,,,METAR,191.0
KBHM 211453Z 29013G21KT 10SM FEW032 BKN080 07/M01 A3006 RMK AO2 SLP178 T00671011 51024,KBHM,2018-03-21T14:53:00Z,33.57,-86.75,6.7,-1.1,290,13,21,10.0,30.059055,1017.8,,,TRUE,,,,,,,FEW,3200,BKN,8000,,,,,VFR,2.4,,,,,,,,,,,METAR,197.0
KBGR 211453Z 02009KT 10SM FEW150 BKN200 M01/M09 A2989 RMK AO2 SLP124 T10061094 56013,KBGR,2018-03-21T14:53:00Z,44.8,-68.82,-0.6,-9.4,20,9,,10.0,29.890747,1012.4,,,TRUE,,,,,,,FEW,15000,BKN,20000,,,,,VFR,-1.3,,,,,,,,,,,METAR,57.0
KBGM 211453Z 05010KT 10SM FEW120 M03/M12 A2971 RMK AO2 SLP082 T10331117 52000,KBGM,2018-03-21T14:53:00Z,42.22,-75.98,-3.3,-11.7,50,10,,10.0,29.71063,1008.2,,,TRUE,,,,,,,FEW,12000,,,,,,,VFR,0.0,,,,,,,,,,,METAR,490.0
KBFM 211453Z 29008KT 10SM CLR 14/05 A3013 RMK AO2 SLP201 T01440050 51024 $,KBFM,2018-03-21T14:53:00Z,30.62,-88.07,14.4,5.0,290,8,,10.0,30.129921,1020.1,,,TRUE,TRUE,,,,,,CLR,,,,,,,,VFR,2.4,,,,,,,,,,,METAR,20.0
KBFI 211453Z 17005KT 10SM FEW100 OVC250 02/01 A2977 RMK AO2 SLP080 T00220011 56009,KBFI,2018-03-21T14:53:00Z,47.55,-122.32,2.2,1.1,170,5,,10.0,29.769686,1008.0,,,TRUE,,,,,,,FEW,10000,OVC,25000,,,,,VFR,-0.9,,,,,,,,,,,METAR,4.0
KBFF 211453Z AUTO 31005KT 10SM OVC085 01/M02 A3002 RMK AO2 SLP188 T00061022 51006,KBFF,2018-03-21T14:53:00Z,41.87,-103.58,0.6,-2.2,310,5,,10.0,30.02067,1018.8,,TRUE,TRUE,,,,,,,OVC,8500,,,,,,,VFR,0.6,,,,,,,,,,,METAR,1203.0
KBFD 211453Z AUTO 04013G18KT 10SM OVC095 M02/M13 A2968 RMK AO2 SLP071 T10221128 53003,KBFD,2018-03-21T14:53:00Z,41.8,-78.63,-2.2,-12.8,40,13,18,10.0,29.681103,1007.1,,TRUE,TRUE,,,,,,,OVC,9500,,,,,,,VFR,0.3,,,,,,,,,,,METAR,647.0
KBIV 211453Z AUTO 05007KT 10SM CLR 01/M08 A3004 RMK AO2 SLP180 T00061083 51017,KBIV,2018-03-21T14:53:00Z,42.75,-86.1,0.6,-8.3,50,7,,10.0,30.041338,1018.0,,TRUE,TRUE,,,,,,,CLR,,,,,,,,VFR,1.7,,,,,,,,,,,METAR,208.0
KBJJ 211453Z AUTO 03014KT 3SM -SN BR BKN014 OVC043 M02/M04 A2978 RMK AO2 SLP094 P0000 60001 T10221044 53021,KBJJ,2018-03-21T14:53:00Z,40.87,-81.88,-2.2,-4.4,30,14,,3.0,29.778543,1009.4,,TRUE,TRUE,,,,,,-SN BR,BKN,1400,OVC,4300,,,,,MVFR,2.1,,,,,0.005,0.01,,,,,METAR,343.0
KBKE 211453Z AUTO 12006KT 10SM BKN060 OVC090 06/00 A2981 RMK AO2 SLP097 T00610000 56004,KBKE,2018-03-21T14:53:00Z,44.85,-117.82,6.1,0.0,120,6,,10.0,29.811024,1009.7,,TRUE,TRUE,,,,,,,BKN,6000,OVC,9000,,,,,VFR,-0.4,,,,,,,,,,,METAR,1024.0
KBKL 211453Z 04021G29KT 10SM FEW021 SCT070 BKN100 M01/M05 A2982 RMK AO2 PK WND 03030/1432 SLP105 T10061050 51018,KBKL,2018-03-21T14:53:00Z,41.53,-81.67,-0.6,-5.0,40,21,29,10.0,29.819881,1010.5,,,TRUE,,,,,,,FEW,2100,SCT,7000,BKN,10000,,,VFR,1.8,,,,,,,,,,,METAR,184.0
KBKV 211453Z 31016G25KT 10SM CLR 17/05 A3002 RMK AO2 PK WND 30027/1420 SLP164 T01720050 51028,KBKV,2018-03-21T14:53:00Z,28.47,-82.45,17.2,5.0,310,16,25,10.0,30.02067,1016.4,,,TRUE,,,,,,,CLR,,,,,,,,VFR,2.8,,,,,,,,,,,METAR,20.0
KBLI 211453Z 00000KT 10SM OVC100 04/03 A2976 RMK AO2 SLP086 T00390028 57008,KBLI,2018-03-21T14:53:00Z,48.8,-122.53,3.9,2.8,0,0,,10.0,29.760826,1008.6,,,TRUE,,,,,,,OVC,10000,,,,,,,VFR,-0.8,,,,,,,,,,,METAR,50.0
KBMG 211453Z 35009G18KT 10SM FEW025 SCT070 M01/M05 A2993 RMK AO2 SLP141 60000 T10111050 52028,KBMG,2018-03-21T14:53:00Z,39.15,-86.62,-1.1,-5.0,350,9,18,10.0,29.929134,1014.1,,,TRUE,,,,,,,FEW,2500,SCT,7000,,,,,VFR,2.8,,,,,,0.005,,,,,METAR,257.0
KBMQ 211453Z AUTO 15004KT 10SM CLR 15/02 A3021 RMK AO2 SLP223 T01500022 52022 $,KBMQ,2018-03-21T14:53:00Z,30.73,-98.23,15.0,2.2,150,4,,10.0,30.209646,1022.3,,TRUE,TRUE,TRUE,,,,,,CLR,,,,,,,,VFR,2.2,,,,,,,,,,,METAR,389.0
KBNO 211453Z AUTO 01004KT 10SM FEW095 01/M01 A2981 RMK AO2 SLP104 T00061006 55002 $,KBNO,2018-03-21T14:53:00Z,43.6,-118.95,0.6,-0.6,10,4,,10.0,29.811024,1010.4,,TRUE,TRUE,TRUE,,,,,,FEW,9500,,,,,,,VFR,-0.2,,,,,,,,,,,METAR,1264.0
KBNA 211453Z 32016G23KT 10SM SCT033 SCT250 04/M04 A2998 RMK AO2 SLP154 T00441039 51024,KBNA,2018-03-21T14:53:00Z,36.12,-86.68,4.4,-3.9,320,16,23,10.0,29.97933,1015.4,,,TRUE,,,,,,,SCT,3300,SCT,25000,,,,,VFR,2.4,,,,,,,,,,,METAR,210.0
KHOT 211453Z AUTO VRB04KT 10SM CLR 10/01 A3018 RMK AO2 SLP221 T01000011 51027,KHOT,2018-03-21T14:53:00Z,34.48,-93.1,10.0,1.1,0,4,,10.0,30.180119,1022.1,,TRUE,TRUE,,,,,,,CLR,,,,,,,,VFR,2.7,,,,,,,,,,,METAR,162.0
KHLN 211453Z 00000KT 10SM CLR M02/M06 A2990 RMK AO2 SLP167 T10221056 50000,KHLN,2018-03-21T14:53:00Z,46.6,-111.98,-2.2,-5.6,0,0,,10.0,29.899607,1016.7,,,TRUE,,,,,,,CLR,,,,,,,,VFR,0.0,,,,,,,,,,,METAR,1182.0
KHOU 211453Z 07012KT 10SM BKN250 18/03 A3020 RMK AO2 SLP230 T01780033 51021,KHOU,2018-03-21T14:53:00Z,29.63,-95.28,17.8,3.3,70,12,,10.0,30.200787,1023.0,,,TRUE,,,,,,,BKN,25000,,,,,,,VFR,2.1,,,,,,,,,,,METAR,36.0
KHQM 211453Z AUTO 07005KT 1 1/2SM BR BKN001 01/01 A2974 RMK AO2 SLP076 T00060006 56004,KHQM,2018-03-21T14:53:00Z,46.97,-123.93,0.6,0.6,70,5,,1.5,29.740158,1007.6,,TRUE,TRUE,,,,,,BR,BKN,100,,,,,,,LIFR,-0.4,,,,,,,,,,,METAR,7.0
KHRI 211453Z AUTO 00000KT 10SM FEW080 OVC100 06/02 A2975 RMK AO2 SLP077 T00560022 51000,KHRI,2018-03-21T14:53:00Z,45.83,-119.27,5.6,2.2,0,0,,10.0,29.749016,1007.7,,TRUE,TRUE,,,,,,,FEW,8000,OVC,10000,,,,,VFR,0.0,,,,,,,,,,,METAR,195.0
KHSV 211453Z 31011G18KT 10SM FEW025 FEW085 06/00 A3001 RMK AO2 SLP163 T00610000 51023,KHSV,2018-03-21T14:53:00Z,34.65,-86.78,6.1,0.0,310,11,18,10.0,30.008858,1016.3,,,TRUE,,,,,,,FEW,2500,FEW,8500,,,,,VFR,2.3,,,,,,,,,,,METAR,191.0
KHRO 211453Z AUTO 32011KT 10SM FEW015 05/01 A3016 RMK AO2 SLP217 T00500006 51023,KHRO,2018-03-21T14:53:00Z,36.27,-93.15,5.0,0.6,320,11,,10.0,30.159449,1021.7,,TRUE,TRUE,,,,,,,FEW,1500,,,,,,,VFR,2.3,,,,,,,,,,,METAR,417.0
KHTL 211453Z AUTO 04010KT 10SM CLR M03/M11 A3004 RMK AO2 SLP191 T10281106 51010,KHTL,2018-03-21T14:53:00Z,44.35,-84.67,-2.8,-10.6,40,10,,10.0,30.041338,1019.1,,TRUE,TRUE,,,,,,,CLR,,,,,,,,VFR,1.0,,,,,,,,,,,METAR,351.0
KHUF 211453Z 34011G18KT 10SM FEW024 M01/M05 A2998 RMK AO2 SLP159 T10061050 51028,KHUF,2018-03-21T14:53:00Z,39.45,-87.3,-0.6,-5.0,340,11,18,10.0,29.97933,1015.9,,,TRUE,,,,,,,FEW,2400,,,,,,,VFR,2.8,,,,,,,,,,,METAR,179.0
KHVN 211453Z 03011KT 1SM R02/5000VP6000FT -SN VV020 01/M02 A2971 RMK AO2 SLP059 P0000 60000 T00061022 58003,KHVN,2018-03-21T14:53:00Z,41.27,-72.87,0.6,-2.2,30,11,,1.0,29.71063,1005.9,,,TRUE,,,,,,-SN,OVX,0,,,,,,,LIFR,-0.3,,,,,0.005,0.005,,,,2000,METAR,4.0
KHVR 211453Z AUTO 10003KT 5SM BR CLR M09/M11 A2989 RMK AO2 SLP159 I3000 T10941106 51004,KHVR,2018-03-21T14:53:00Z,48.55,-109.77,-9.4,-10.6,100,3,,5.0,29.890747,1015.9,,TRUE,TRUE,,,,,,BR,CLR,,,,,,,,MVFR,0.4,,,,,,,,,,,METAR,787.0
KHWO 211453Z 31017G23KT 10SM FEW028 OVC055 24/14 A2999 RMK AO2 SLP155 T02390144 51009,KHWO,2018-03-21T14:53:00Z,26.0,-80.23,23.9,14.4,310,17,23,10.0,29.991142,1015.5,,,TRUE,,,,,,,FEW,2800,OVC,5500,,,,,VFR,0.9,,,,,,,,,,,METAR,2.0
KHYR 211453Z AUTO 10003KT 10SM CLR M04/M09 A3015 RMK AO2 SLP230 T10441094 51009,KHYR,2018-03-21T14:53:00Z,46.02,-91.45,-4.4,-9.4,100,3,,10.0,30.15059,1023.0,,TRUE,TRUE,,,,,,,CLR,,,,,,,,VFR,0.9,,,,,,,,,,,METAR,370.0
KHZY 211453Z AUTO 04013G20KT 10SM OVC090 M02/M06 A2982 RMK AO2 SLP106 T10171061 53013,KHZY,2018-03-21T14:53:00Z,41.78,-80.7,-1.7,-6.1,40,13,20,10.0,29.819881,1010.6,,TRUE,TRUE,,,,,,,OVC,9000,,,,,,,VFR,1.3,,,,,,,,,,,METAR,276.0
KIAG 211453Z 06015KT 10SM CLR 00/M08 A2988 RMK AO2 SLP132 T00001078 50004,KIAG,2018-03-21T14:53:00Z,43.12,-78.93,0.0,-7.8,60,15,,10.0,29.878937,1013.2,,,TRUE,,,,,,,CLR,,,,,,,,VFR,0.4,,,,,,,,,,,METAR,182.0
KIAH 211453Z 14007KT 10SM BKN250 16/06 A3021 RMK AO2 SLP231 T01610061 51028,KIAH,2018-03-21T14:53:00Z,30.0,-95.37,16.1,6.1,140,7,,10.0,30.209646,1023.1,,,TRUE,,,,,,,BKN,25000,,,,,,,VFR,2.8,,,,,,,,,,,METAR,36.0
KICR 211453Z AUTO 00000KT 10SM CLR 04/M02 A3005 RMK AO2 SLP194 T00391022 51006,KICR,2018-03-21T14:53:00Z,43.38,-99.85,3.9,-2.2,0,0,,10.0,30.050198,1019.4,,TRUE,TRUE,,,,,,,CLR,,,,,,,,VFR,0.6,,,,,,,,,,,METAR,621.0
KICT 211453Z 30003KT 8SM FEW250 06/01 A3021 RMK AO2 SLP235 T00610011 53023 $,KICT,2018-03-21T14:53:00Z,37.65,-97.43,6.1,1.1,300,3,,8.0,30.209646,1023.5,,,TRUE,TRUE,,,,,,FEW,25000,,,,,,,VFR,2.3,,,,,,,,,,,METAR,407.0
KIWI 211453Z AUTO VRB06KT 10SM CLR M01/M10 A2987 RMK AO2 SLP115 T10061100 58011,KIWI,2018-03-21T14:53:00Z,43.97,-69.72,-0.6,-10.0,0,6,,10.0,29.870079,1011.5,,TRUE,TRUE,,,,,,,CLR,,,,,,,,VFR,-1.1,,,,,,,,,,,METAR,20.0
KITR 211453Z AUTO 23013KT 10SM CLR 07/M05 A3008 RMK AO2 SLP188 T00721050 51007,KITR,2018-03-21T14:53:00Z,39.23,-102.28,7.2,-5.0,230,13,,10.0,30.079725,1018.8,,TRUE,TRUE,,,,,,,CLR,,,,,,,,VFR,0.7,,,,,,,,,,,METAR,1279.0
KIPL 211453Z AUTO 25003KT 10SM CLR 14/01 A2993 RMK AO2 SLP135 T01440011 53018,KIPL,2018-03-21T14:53:00Z,32.83,-115.58,14.4,1.1,250,3,,10.0,29.929134,1013.5,,TRUE,TRUE,,,,,,,CLR,,,,,,,,VFR,1.8,,,,,,,,,,,METAR,-17.0
KINK 211453Z AUTO 14012KT 10SM CLR 14/M02 A3005 RMK AO2 SLP153 T01391022 53015,KINK,2018-03-21T14:53:00Z,31.78,-103.2,13.9,-2.2,140,12,,10.0,30.050198,1015.3,,TRUE,TRUE,,,,,,,CLR,,,,,,,,VFR,1.5,,,,,,,,,,,METAR,855.0
KIML 211453Z AUTO 20006KT 10SM OVC100 02/M02 A3006 RMK AO2 SLP201 T00221017 53002,KIML,2018-03-21T14:53:00Z,40.52,-101.62,2.2,-1.7,200,6,,10.0,30.059055,1020.1,,TRUE,TRUE,,,,,,,OVC,10000,,,,,,,VFR,0.2,,,,,,,,,,,METAR,998.0
KILM 211453Z 33008KT 10SM OVC006 08/07 A2964 RMK AO2 SLP035 T00780067 53010,KILM,2018-03-21T14:53:00Z,34.27,-77.9,7.8,6.7,330,8,,10.0,29.639763,1003.5,,,TRUE,,,,,,,OVC,600,,,,,,,IFR,1.0,,,,,,,,,,,METAR,9.0
KIDA 211453Z 06003KT 10SM SCT070 BKN120 01/M01 A2996 RMK AO2 SLP164 T00061006 53003,KIDA,2018-03-21T14:53:00Z,43.52,-112.07,0.6,-0.6,60,3,,10.0,29.958662,1016.4,,,TRUE,,,,,,,SCT,7000,BKN,12000,,,,,VFR,0.3,,,,,,,,,,,METAR,1453.0
KIXD 211453Z 34007KT 310V030 10SM CLR 03/00 A3021 RMK AO2 SLP236 T00330000 51025,KIXD,2018-03-21T14:53:00Z,38.82,-94.88,3.3,0.0,340,7,,10.0,30.209646,1023.6,,,TRUE,,,,,,,CLR,,,,,,,,VFR,2.5,,,,,,,,,,,METAR,342.0
KJBR 211453Z AUTO 31012KT 10SM FEW032 OVC050 08/02 A3013 RMK AO2 SLP204 T00830022 51028 $,KJBR,2018-03-21T14:53:00Z,35.83,-90.65,8.3,2.2,310,12,,10.0,30.129921,1020.4,,TRUE,TRUE,TRUE,,,,,,FEW,3200,OVC,5000,,,,,VFR,2.8,,,,,,,,,,,METAR,79.0
KLUK 211453Z 33012KT 3SM -SN BR OVC018 M01/M03 A2983 RMK AO2 UPE1354SNB1354 SLP106 P0000 60000 T10061028 53029,KLUK,2018-03-21T14:53:00Z,39.1,-84.42,-0.6,-2.8,330,12,,3.0,29.828741,1010.6,,,TRUE,,,,,,-SN BR,OVC,1800,,,,,,,MVFR,2.9,,,,,0.005,0.005,,,,,METAR,155.0
KLVJ 211453Z AUTO 08011KT 10SM CLR 18/04 A3021 RMK AO2 SLP229 T01830039 51020,KLVJ,2018-03-21T14:53:00Z,29.52,-95.25,18.3,3.9,80,11,,10.0,30.209646,1022.9,,TRUE,TRUE,,,,,,,CLR,,,,,,,,VFR,2.0,,,,,,,,,,,METAR,12.0
KLVK 211453Z AUTO 00000KT 5SM BR OVC030 12/12 A2980 RMK AO2 SLP090 60002 T01220122 55000,KLVK,2018-03-21T14:53:00Z,37.7,-121.82,12.2,12.2,0,0,,5.0,29.799213,1009.0,,TRUE,TRUE,,,,,,BR,OVC,3000,,,,,,,MVFR,0.0,,,,,,0.02,,,,,METAR,117.0
KLVM 211453Z AUTO 29007KT 10SM CLR 02/M06 A2990 RMK AO2 SLP138 T00221056 50001,KLVM,2018-03-21T14:53:00Z,45.7,-110.43,2.2,-5.6,290,7,,10.0,29.899607,1013.8,,TRUE,TRUE,,,,,,,CLR,,,,,,,,VFR,0.1,,,,,,,,,,,METAR,1418.0
KLVS 211453Z AUTO 04005KT 10SM BKN095 01/M13 A3014 RMK AO2 SLP173 T00111133 53013,KLVS,2018-03-21T14:53:00Z,35.65,-105.13,1.1,-13.3,40,5,,10.0,30.138779,1017.3,,TRUE,TRUE,,,,,,,BKN,9500,,,,,,,VFR,1.3,,,,,,,,,,,METAR,2091.0
KLXT 211453Z AUTO 32008KT 10SM BKN014 03/00 A3020 RMK AO2 SLP234 T00280000 51029,KLXT,2018-03-21T14:53:00Z,38.97,-94.37,2.8,0.0,320,8,,10.0,30.200787,1023.4,,TRUE,TRUE,,,,,,,BKN,1400,,,,,,,MVFR,2.9,,,,,,,,,,,METAR,306.0
KLXV 211453Z AUTO 02007KT 10SM FEW110 M01/M11 A3009 RMK AO2 SLP146 T10111106 50002,KLXV,2018-03-21T14:53:00Z,39.23,-106.32,-1.1,-10.6,20,7,,10.0,30.088583,1014.6,,TRUE,TRUE,,,,,,,FEW,11000,,,,,,,VFR,0.2,,,,,,,,,,,METAR,3028.0
KMAE 211453Z AUTO 12010KT 3SM -RA BR FEW025 BKN050 OVC070 14/13 A2990 RMK AO2 SLP123 P0008 60029 T01390128 53004,KMAE,2018-03-21T14:53:00Z,36.98,-120.12,13.9,12.8,120,10,,3.0,29.899607,1012.3,,TRUE,TRUE,,,,,,-RA BR,FEW,2500,BKN,5000,OVC,7000,,,MVFR,0.4,,,,,0.08,0.29,,,,,METAR,77.0
KMAF 211453Z 17010KT 10SM CLR 14/M03 A3007 RMK AO2 SLP158 T01391033 51012,KMAF,2018-03-21T14:53:00Z,31.95,-102.2,13.9,-3.3,170,10,,10.0,30.070866,1015.8,,,TRUE,,,,,,,CLR,,,,,,,,VFR,1.2,,,,,,,,,,,METAR,874.0
KMAI 211453Z AUTO 29016G20KT 10SM CLR 13/01 A3004 RMK AO2 SLP172 T01280011 51018,KMAI,2018-03-21T14:53:00Z,30.83,-85.18,12.8,1.1,290,16,20,10.0,30.041338,1017.2,,TRUE,TRUE,,,,,,,CLR,,,,,,,,VFR,1.8,,,,,,,,,,,METAR,32.0
KMBS 211453Z 03018G24KT 10SM BKN024 01/M06 A3003 RMK AO2 SLP177 T00061056 53019,KMBS,2018-03-21T14:53:00Z,43.53,-84.08,0.6,-5.6,30,18,24,10.0,30.029528,1017.7,,,TRUE,,,,,,,BKN,2400,,,,,,,MVFR,1.9,,,,,,,,,,,METAR,202.0
KMCB 211453Z AUTO 32016G20KT 10SM CLR 13/03 A3015 RMK AO2 SLP209 T01280028 51023,KMCB,2018-03-21T14:53:00Z,31.18,-90.47,12.8,2.8,320,16,20,10.0,30.15059,1020.9,,TRUE,TRUE,,,,,,,CLR,,,,,,,,VFR,2.3,,,,,,,,,,,METAR,124.0
KMCE 211453Z AUTO 13011KT 4SM BR FEW008 BKN042 OVC050 13/12 A2987 RMK AO2 RAE1356B16E29 SLP115 P0002 60006 T01280122 51004,KMCE,2018-03-21T14:53:00Z,37.28,-120.5,12.8,12.2,130,11,,4.0,29.870079,1011.5,,TRUE,TRUE,,,,,,BR,FEW,800,BKN,4200,OVC,5000,,,MVFR,0.4,,,,,0.02,0.06,,,,,METAR,47.0
KMCI 211453Z 32004KT 9SM FEW012 03/M01 A3021 RMK AO2 SLP234 T00281011 51028,KMCI,2018-03-21T14:53:00Z,39.3,-94.73,2.8,-1.1,320,4,,9.0,30.209646,1023.4,,,TRUE,,,,,,,FEW,1200,,,,,,,VFR,2.8,,,,,,,,,,,METAR,320.0
KMCN 211453Z 28014G26KT 10SM BKN034 08/M01 A2991 RMK AO2 PK WND 28026/1447 SLP127 T00781006 51017,KMCN,2018-03-21T14:53:00Z,32.68,-83.65,7.8,-0.6,280,14,26,10.0,29.911417,1012.7,,,TRUE,,,,,,,BKN,3400,,,,,,,VFR,1.7,,,,,,,,,,,METAR,109.0
KMCK 211453Z AUTO 16007KT 10SM SCT110 04/02 A3010 RMK AO2 SLP209 T00390017 50002,KMCK,2018-03-21T14:53:00Z,40.2,-100.58,3.9,1.7,160,7,,10.0,30.100393,1020.9,,TRUE,TRUE,,,,,,,SCT,11000,,,,,,,VFR,0.2,,,,,,,,,,,METAR,782.0
KMCO 211453Z 29011G23KT 10SM SCT035 17/08 A2997 RMK AO2 SLP146 T01720083 51021,KMCO,2018-03-21T14:53:00Z,28.42,-81.33,17.2,8.3,290,11,23,10.0,29.970472,1014.6,,,TRUE,,,,,,,SCT,3500,,,,,,,VFR,2.1,,,,,,,,,,,METAR,29.0
KMCW 211453Z AUTO 02004KT 10SM OVC050 M01/M05 A3016 RMK AO2 SLP224 I3000 T10061050 51014,KMCW,2018-03-21T14:53:00Z,43.15,-93.33,-0.6,-5.0,20,4,,10.0,30.159449,1022.4,,TRUE,TRUE,,,,,,,OVC,5000,,,,,,,VFR,1.4,,,,,,,,,,,METAR,369.0
KMDW 211453Z 01015G20KT 10SM FEW030 SCT150 BKN200 BKN250 01/M06 A3005 RMK AO2 SLP189 T00111061 51021,KMDW,2018-03-21T14:53:00Z,41.78,-87.75,1.1,-6.1,10,15,20,10.0,30.050198,1018.9,,,TRUE,,,,,,,FEW,3000,SCT,15000,BKN,20000,BKN,25000,VFR,2.1,,,,,,,,,,,METAR,188.0
KMFE 211453Z 10010KT 10SM CLR 22/15 A3015 RMK AO2 SLP207 T02220150 51025,KMFE,2018-03-21T14:53:00Z,26.18,-98.25,22.2,15.0,100,10,,10.0,30.15059,1020.7,,,TRUE,,,,,,,CLR,,,,,,,,VFR,2.5,,,,,,,,,,,METAR,38.0
KMFR 211453Z 00000KT 10SM FEW070 SCT120 07/06 A2975 RMK AO2 SLP074 60000 T00670061 56011,KMFR,2018-03-21T14:53:00Z,42.38,-122.87,6.7,6.1,0,0,,10.0,29.749016,1007.4,,,TRUE,,,,,,,FEW,7000,SCT,12000,,,,,VFR,-1.1,,,,,,0.005,,,,,METAR,396.0
KMGM 211453Z 30014G21KT 10SM CLR 11/01 A3006 RMK AO2 SLP178 T01110006 51021,KMGM,2018-03-21T14:53:00Z,32.3,-86.4,11.1,0.6,300,14,21,10.0,30.059055,1017.8,,,TRUE,,,,,,,CLR,,,,,,,,VFR,2.1,,,,,,,,,,,METAR,63.0
KMGW 211453Z 01006KT 3SM BR SCT009 BKN014 OVC028 M01/M03 A2967 RMK AO2 SNE50 SLP057 P0000 60005 T10061028 53007,KMGW,2018-03-21T14:53:00Z,39.65,-79.92,-0.6,-2.8,10,6,,3.0,29.66929,1005.7,,,TRUE,,,,,,BR,SCT,900,BKN,1400,OVC,2800,,,MVFR,0.7,,,,,0.005,0.05,,,,,METAR,378.0
KMGY 211453Z AUTO 35015KT 5SM -SN OVC011 M01/M03 A2979 RMK AO2 CIG 009V013 SLP095 P0000 60000 T10061033 53029,KMGY,2018-03-21T14:53:00Z,39.6,-84.23,-0.6,-3.3,350,15,,5.0,29.790354,1009.5,,TRUE,TRUE,,,,,,-SN,OVC,1100,,,,,,,MVFR,2.9,,,,,0.005,0.005,,,,,METAR,289.0
KMHT 211453Z 04006KT 10SM OVC150 01/M09 A2983 RMK AO2 SLP121 T00061094 58000,KMHT,2018-03-21T14:53:00Z,42.93,-71.43,0.6,-9.4,40,6,,10.0,29.828741,1012.1,,,TRUE,,,,,,,OVC,15000,,,,,,,VFR,0.0,,,,,,,,,,,METAR,81.0
KEMP 211453Z AUTO VRB04KT 8SM CLR 02/M01 A3022 RMK AO2 SLP244 T00221011 51024,KEMP,2018-03-21T14:53:00Z,38.33,-96.2,2.2,-1.1,0,4,,8.0,30.221457,1024.4,,TRUE,TRUE,,,,,,,CLR,,,,,,,,VFR,2.4,,,,,,,,,,,METAR,367.0
KENW 211453Z 03014G22KT 10SM BKN030 00/M08 A3008 RMK AO2 SLP194 T00001078 51011,KENW,2018-03-21T14:53:00Z,42.6,-87.93,0.0,-7.8,30,14,22,10.0,30.079725,1019.4,,,TRUE,,,,,,,BKN,3000,,,,,,,MVFR,1.1,,,,,,,,,,,METAR,219.0
KEPH 211453Z AUTO 01008KT 10SM SCT120 01/M02 A2978 RMK AO2 SLP092 T00111017 56004,KEPH,2018-03-21T14:53:00Z,47.3,-119.52,1.1,-1.7,10,8,,10.0,29.778543,1009.2,,TRUE,TRUE,,,,,,,SCT,12000,,,,,,,VFR,-0.4,,,,,,,,,,,METAR,383.0
KEQY 211453Z AUTO 28006KT 10SM SCT012 OVC065 04/03 A2968 RMK AO2 RAE30 SLP068 P0000 60002 T00390028 51014,KEQY,2018-03-21T14:53:00Z,35.02,-80.62,3.9,2.8,280,6,,10.0,29.681103,1006.8,,TRUE,TRUE,,,,,,,SCT,1200,OVC,6500,,,,,VFR,1.4,,,,,0.005,0.02,,,,,METAR,212.0
KEYW 211453Z 32011G21KT 10SM SCT039 BKN050 BKN065 24/18 A3001 RMK AO2 SLP162 T02440178 51022 $,KEYW,2018-03-21T14:53:00Z,24.55,-81.75,24.4,17.8,320,11,21,10.0,30.008858,1016.2,,,TRUE,TRUE,,,,,,SCT,3900,BKN,5000,BKN,6500,,,VFR,2.2,,,,,,,,,,,METAR,5.0
KEYE 211453Z AUTO 35013G21KT 10SM BKN100 M01/M06 A2993 RMK AO2 SLP141 60001 T10061061 53024,KEYE,2018-03-21T14:53:00Z,39.83,-86.3,-0.6,-6.1,350,13,21,10.0,29.929134,1014.1,,TRUE,TRUE,,,,,,,BKN,10000,,,,,,,VFR,2.4,,,,,,0.01,,,,,METAR,248.0
KEWB 211453Z 03013G28KT 4SM -SN OVC022 02/M01 A2973 RMK AO2 PK WND 05028/1449 UPB28E46SNB46 SLP067 P0000 60000 T00221011 51005,KEWB,2018-03-21T14:53:00Z,41.68,-70.95,2.2,-1.1,30,13,28,4.0,29.731298,1006.7,,,TRUE,,,,,,-SN,OVC,2200,,,,,,,MVFR,0.5,,,,,0.005,0.005,,,,,METAR,23.0
KEVW 211453Z AUTO 06003KT 10SM SCT055 OVC070 00/M01 A2999 RMK AO2 SLP150 60000 T00001011 53001,KEVW,2018-03-21T14:53:00Z,41.27,-111.03,0.0,-1.1,60,3,,10.0,29.991142,1015.0,,TRUE,TRUE,,,,,,,SCT,5500,OVC,7000,,,,,VFR,0.1,,,,,,0.005,,,,,METAR,2177.0
KESF 211453Z AUTO VRB04KT 10SM CLR 14/06 A3020 RMK AO2 SLP224 T01390056 51023,KESF,2018-03-21T14:53:00Z,31.4,-92.28,13.9,5.6,0,4,,10.0,30.200787,1022.4,,TRUE,TRUE,,,,,,,CLR,,,,,,,,VFR,2.3,,,,,,,,,,,METAR,28.0
KFAT 211453Z 13004KT 10SM -RA FEW004 BKN036 OVC100 14/13 A2993 RMK AO2 SLP132 MTNS OBSC DSNT N-E-S P0005 60013 T01390128 53008,KFAT,2018-03-21T14:53:00Z,36.78,-119.72,13.9,12.8,130,4,,10.0,29.929134,1013.2,,,TRUE,,,,,,-RA,FEW,400,BKN,3600,OVC,10000,,,VFR,0.8,,,,,0.05,0.13,,,,,METAR,104.0
KFAR 211453Z 16009KT 3SM -SN BR SCT009 OVC023 01/M01 A3007 RMK AO2 SLP196 P0000 60000 T00061006 51004,KFAR,2018-03-21T14:53:00Z,46.93,-96.82,0.6,-0.6,160,9,,3.0,30.070866,1019.6,,,TRUE,,,,,,-SN BR,SCT,900,OVC,2300,,,,,MVFR,0.4,,,,,0.005,0.005,,,,,METAR,277.0
KZZV 211453Z AUTO 03007KT 1SM -SN BKN012 OVC019 00/M03 A2972 RMK AO2 SLP071 P0000 60003 T00001028 53015,KZZV,2018-03-21T14:53:00Z,39.95,-81.9,0.0,-2.8,30,7,,1.0,29.719488,1007.1,,TRUE,TRUE,,,,,,-SN,BKN,1200,OVC,1900,,,,,IFR,1.5,,,,,0.005,0.03,,,,,METAR,268.0
KYKM 211453Z 27005KT 10SM BKN070 OVC095 04/M02 A2978 RMK AO2 SLP088 T00391022 55003,KYKM,2018-03-21T14:53:00Z,46.57,-120.53,3.9,-2.2,270,5,,10.0,29.778543,1008.8,,,TRUE,,,,,,,BKN,7000,OVC,9500,,,,,VFR,-0.3,,,,,,,,,,,METAR,324.0
KYIP 211453Z 01015KT 10SM OVC100 03/M10 A2992 RMK AO2 SLP138 T00281100 51018,KYIP,2018-03-21T14:53:00Z,42.23,-83.53,2.8,-10.0,10,15,,10.0,29.920275,1013.8,,,TRUE,,,,,,,OVC,10000,,,,,,,VFR,1.8,,,,,,,,,,,METAR,215.0
KXNA 211453Z 35008KT 10SM CLR 06/02 A3021 RMK AO2 SLP232 T00560017 51027,KXNA,2018-03-21T14:53:00Z,36.28,-94.3,5.6,1.7,350,8,,10.0,30.209646,1023.2,,,TRUE,,,,,,,CLR,,,,,,,,VFR,2.7,,,,,,,,,,,METAR,392.0
KWVI 211453Z AUTO 00000KT 2SM -RA FEW008 FEW012 OVC024 13/ A2984 RMK AO2 SLP104 P0006 60017 T0128 56001 TSNO $,KWVI,2018-03-21T14:53:00Z,36.93,-121.78,12.8,,0,0,,2.0,29.840551,1010.4,,TRUE,TRUE,TRUE,,TRUE,,,-RA,FEW,800,FEW,1200,OVC,2400,,,IFR,-0.1,,,,,0.06,0.17,,,,,METAR,43.0
KWST 211453Z AUTO 03013G24KT 4SM -SN SCT021 BKN026 OVC031 03/M01 A2971 RMK AO2 PK WND 04027/1416 SNB40 SLP059 P0000 60000 T00281006 51003,KWST,2018-03-21T14:53:00Z,41.35,-71.8,2.8,-0.6,30,13,24,4.0,29.71063,1005.9,,TRUE,TRUE,,,,,,-SN,SCT,2100,BKN,2600,OVC,3100,,,MVFR,0.3,,,,,0.005,0.005,,,,,METAR,21.0
KWRL 211453Z AUTO 00000KT 10SM BKN100 M01/M04 A2996 RMK AO2 SLP172 T10111044 50000,KWRL,2018-03-21T14:53:00Z,43.97,-107.95,-1.1,-4.4,0,0,,10.0,29.958662,1017.2,,TRUE,TRUE,,,,,,,BKN,10000,,,,,,,VFR,0.0,,,,,,,,,,,METAR,1271.0
KFAY 211453Z 34006KT 6SM BR BKN007 OVC026 03/02 A2967 RMK AO2 RAE29 SLP042 P0001 60002 T00330017 53020,KFAY,2018-03-21T14:53:00Z,34.98,-78.88,3.3,1.7,340,6,,6.0,29.66929,1004.2,,,TRUE,,,,,,BR,BKN,700,OVC,2600,,,,,IFR,2.0,,,,,0.01,0.02,,,,,METAR,55.0
PABI 211453Z 26008KT 10SM FEW043 OVC075 M09/M12 A3047 RMK AO2 SLP355 T10941117 51012,PABI,2018-03-21T14:53:00Z,64.0,-145.72,-9.4,-11.7,260,8,,10.0,30.469488,1035.5,,,TRUE,,,,,,,FEW,4300,OVC,7500,,,,,VFR,1.2,,,,,,,,,,,METAR,386.0
PABE 211453Z 19007KT 1/2SM R19R/2200V2400FT FZFG BKN002 OVC041 M03/M03 A3066 RMK AO2 SLP386 I1002 I3008 T10281033 58009 $,PABE,2018-03-21T14:53:00Z,60.78,-161.83,-2.8,-3.3,190,7,,0.5,30.661417,1038.6,,,TRUE,TRUE,,,,,FZFG,BKN,200,OVC,4100,,,,,LIFR,-0.9,,,,,,,,,,,METAR,41.0
PAAQ 211453Z AUTO 35007KT 10SM CLR M11/M14 A3038 RMK AO2 SLP294 T11061139 51001 TSNO,PAAQ,2018-03-21T14:53:00Z,61.6,-149.08,-10.6,-13.9,350,7,,10.0,30.380905,1029.4,,TRUE,TRUE,,,TRUE,,,,CLR,,,,,,,,VFR,0.1,,,,,,,,,,,METAR,73.0
PAPB 211453Z AUTO 16014G23KT 8SM BKN005 OVC024 04/04 A3045 RMK AO2 SLP300 T00390039 56021 TSNO,PAPB,2018-03-21T14:53:00Z,56.58,-169.67,3.9,3.9,160,14,23,8.0,30.448818,1030.0,,TRUE,TRUE,,,TRUE,,,,BKN,500,OVC,2400,,,,,IFR,-2.1,,,,,,,,,,,METAR,35.0
PAKW 211453Z AUTO 05004KT 10SM CLR M03/M04 A2978 RMK AO2 SLP084 I1000 I3000 T10281039 58016 TSNO,PAKW,2018-03-21T14:53:00Z,55.58,-133.07,-2.8,-3.9,50,4,,10.0,29.778543,1008.4,,TRUE,TRUE,,,TRUE,,,,CLR,,,,,,,,VFR,-1.6,,,,,,,,,,,METAR,15.0
PADQ 211453Z 29013G25KT 10SM CLR 01/M12 A3043 RMK AO2 PK WND 29028/1356 SLP304 T00111122 58010,PADQ,2018-03-21T14:53:00Z,57.75,-152.5,1.1,-12.2,290,13,25,10.0,30.431103,1030.4,,,TRUE,,,,,,,CLR,,,,,,,,VFR,-1.0,,,,,,,,,,,METAR,34.0
KFLL 211453Z 29013G23KT 10SM FEW026 BKN055 22/15 A2997 RMK AO2 SLP148 T02220150 51022,KFLL,2018-03-21T14:53:00Z,26.07,-80.15,22.2,15.0,290,13,23,10.0,29.970472,1014.8,,,TRUE,,,,,,,FEW,2600,BKN,5500,,,,,VFR,2.2,,,,,,,,,,,METAR,3.0
KFLD 211453Z AUTO 01011KT 10SM CLR M01/M09 A3013 RMK AO2 SLP213 T10061094 53013 TSNO,KFLD,2018-03-21T14:53:00Z,43.77,-88.48,-0.6,-9.4,10,11,,10.0,30.129921,1021.3,,TRUE,TRUE,,,TRUE,,,,CLR,,,,,,,,VFR,1.3,,,,,,,,,,,METAR,240.0
KFHR 211453Z AUTO 00000KT 10SM BKN120 04/03 A2977 RMK AO2 SLP082 T00440033 56008,KFHR,2018-03-21T14:53:00Z,48.52,-123.03,4.4,3.3,0,0,,10.0,29.769686,1008.2,,TRUE,TRUE,,,,,,,BKN,12000,,,,,,,VFR,-0.8,,,,,,,,,,,METAR,32.0
KFFT 211453Z AUTO 32010KT 3SM HZ BKN016 OVC022 M01/M04 A2983 RMK AO2 UPB08E28SNE08 SLP107 P0000 60001 T10061039 51017,KFFT,2018-03-21T14:53:00Z,38.18,-84.9,-0.6,-3.9,320,10,,3.0,29.828741,1010.7,,TRUE,TRUE,,,,,,HZ,BKN,1600,OVC,2200,,,,,MVFR,1.7,,,,,0.005,0.01,,,,,METAR,236.0
KFFC 211453Z AUTO 31012G21KT 10SM OVC028 06/M01 A2992 RMK AO2 SLP136 T00561011 52020,KFFC,2018-03-21T14:53:00Z,33.35,-84.57,5.6,-1.1,310,12,21,10.0,29.920275,1013.6,,TRUE,TRUE,,,,,,,OVC,2800,,,,,,,MVFR,2.0,,,,,,,,,,,METAR,262.0
KSHR 211453Z AUTO 00000KT 10SM CLR 01/M05 A2994 RMK AO2 SLP166 T00111050 51005,KSHR,2018-03-21T14:53:00Z,44.77,-106.97,1.1,-5.0,0,0,,10.0,29.940945,1016.6,,TRUE,TRUE,,,,,,,CLR,,,,,,,,VFR,0.5,,,,,,,,,,,METAR,1202.0
KSHN 211453Z AUTO 00000KT 10SM CLR M03/M04 A2975 RMK AO2 SLP077 I3001 T10281039 56003,KSHN,2018-03-21T14:53:00Z,47.23,-123.13,-2.8,-3.9,0,0,,10.0,29.749016,1007.7,,TRUE,TRUE,,,,,,,CLR,,,,,,,,VFR,-0.3,,,,,,,,,,,METAR,82.0
KFLO 211453Z 28021G27KT 10SM OVC036 09/00 A2968 RMK AO2 PK WND 28027/1452 SLP049 T00890000 53024,KFLO,2018-03-21T14:53:00Z,34.18,-79.73,8.9,0.0,280,21,27,10.0,29.681103,1004.9,,,TRUE,,,,,,,OVC,3600,,,,,,,VFR,2.4,,,,,,,,,,,METAR,44.0
KVRB 211453Z 27015G22KT 10SM BKN033 19/12 A2997 RMK AO2 PK WND 26029/1412 SLP146 T01940117 51020,KVRB,2018-03-21T14:53:00Z,27.65,-80.42,19.4,11.7,270,15,22,10.0,29.970472,1014.6,,,TRUE,,,,,,,BKN,3300,,,,,,,VFR,2.0,,,,,,,,,,,METAR,10.0
KVPC 211453Z AUTO VRB05KT 10SM OVC026 04/M01 A2993 RMK AO2 SLP132 T00391006 53025,KVPC,2018-03-21T14:53:00Z,34.13,-84.85,3.9,-0.6,0,5,,10.0,29.929134,1013.2,,TRUE,TRUE,,,,,,,OVC,2600,,,,,,,MVFR,2.5,,,,,,,,,,,METAR,222.0
KSIY 211453Z AUTO 03006KT 10SM OVC065 04/04 A2978 RMK AO2 SLP096 T00440039 56008,KSIY,2018-03-21T14:53:00Z,41.77,-122.47,4.4,3.9,30,6,,10.0,29.778543,1009.6,,TRUE,TRUE,,,,,,,OVC,6500,,,,,,,VFR,-0.8,,,,,,,,,,,METAR,807.0
KFMY 211453Z 30018G23KT 10SM BKN038 BKN046 22/13 A3000 RMK AO2 SLP161 T02220128 51026,KFMY,2018-03-21T14:53:00Z,26.58,-81.87,22.2,12.8,300,18,23,10.0,30.0,1016.1,,,TRUE,,,,,,,BKN,3800,BKN,4600,,,,,VFR,2.6,,,,,,,,,,,METAR,4.0
KFMN 211453Z 11006KT 10SM OVC080 03/M07 A3010 RMK AO2 SLP190 T00281072 53008,KFMN,2018-03-21T14:53:00Z,36.75,-108.23,2.8,-7.2,110,6,,10.0,30.100393,1019.0,,,TRUE,,,,,,,OVC,8000,,,,,,,VFR,0.8,,,,,,,,,,,METAR,1685.0
KVUO 211453Z AUTO 00000KT 10SM FEW120 02/02 A2975 RMK AO2 SLP076 T00220017 58007,KVUO,2018-03-21T14:53:00Z,45.62,-122.65,2.2,1.7,0,0,,10.0,29.749016,1007.6,,TRUE,TRUE,,,,,,,FEW,12000,,,,,,,VFR,-0.7,,,,,,,,,,,METAR,8.0
KFDY 211453Z AUTO 01016KT 1 1/4SM -SN BKN010 OVC019 M01/M04 A2985 RMK AO2 SLP113 P0000 60000 T10061039 51028,KFDY,2018-03-21T14:53:00Z,41.02,-83.67,-0.6,-3.9,10,16,,1.25,29.84941,1011.3,,TRUE,TRUE,,,,,,-SN,BKN,1000,OVC,1900,,,,,IFR,2.8,,,,,0.005,0.005,,,,,METAR,247.0
KFDR 211453Z AUTO 10010KT 10SM CLR 12/M01 A3016 RMK AO2 SLP211 T01171006 53019,KFDR,2018-03-21T14:53:00Z,34.35,-98.98,11.7,-0.6,100,10,,10.0,30.159449,1021.1,,TRUE,TRUE,,,,,,,CLR,,,,,,,,VFR,1.9,,,,,,,,,,,METAR,386.0
KFCM 211453Z 00000KT 10SM OVC060 M03/M06 A3016 RMK AO2 SLP226 T10281056 51012,KFCM,2018-03-21T14:53:00Z,44.83,-93.47,-2.8,-5.6,0,0,,10.0,30.159449,1022.6,,,TRUE,,,,,,,OVC,6000,,,,,,,VFR,1.2,,,,,,,,,,,METAR,280.0
KFNB 211453Z AUTO 01003KT 3SM BR OVC005 00/M02 A3021 RMK AO2 SLP239 T00001017 51025,KFNB,2018-03-21T14:53:00Z,40.07,-95.58,0.0,-1.7,10,3,,3.0,30.209646,1023.9,,TRUE,TRUE,,,,,,BR,OVC,500,,,,,,,IFR,2.5,,,,,,,,,,,METAR,300.0
KFNT 211453Z 02010KT 10SM CLR 00/M08 A2998 RMK AO2 SLP162 T00001083 51019,KFNT,2018-03-21T14:53:00Z,42.97,-83.75,0.0,-8.3,20,10,,10.0,29.97933,1016.2,,,TRUE,,,,,,,CLR,,,,,,,,VFR,1.9,,,,,,,,,,,METAR,233.0
KSLN 211453Z VRB03KT 8SM CLR 03/00 A3021 RMK AO2 SLP239 T00330000 53020,KSLN,2018-03-21T14:53:00Z,38.78,-97.65,3.3,0.0,0,3,,8.0,30.209646,1023.9,,,TRUE,,,,,,,CLR,,,,,,,,VFR,2.0,,,,,,,,,,,METAR,385.0
KSMF 211453Z 23004KT 1 1/2SM -RA BR BKN007 OVC012 12/12 A2984 RMK AO2 CIG 003V010 SLP104 P0006 60012 T01170117 55000,KSMF,2018-03-21T14:53:00Z,38.7,-121.6,11.7,11.7,230,4,,1.5,29.840551,1010.4,,,TRUE,,,,,,-RA BR,BKN,700,OVC,1200,,,,,IFR,0.0,,,,,0.06,0.12,,,,,METAR,6.0
KSMQ 211453Z AUTO 04006KT 7SM FEW020 OVC044 00/M03 A2965 RMK AO2 SNE13B19E45 SLP044 P0000 60001 T00001033 58010,KSMQ,2018-03-21T14:53:00Z,40.62,-74.67,0.0,-3.3,40,6,,7.0,29.648623,1004.4,,TRUE,TRUE,,,,,,,FEW,2000,OVC,4400,,,,,VFR,-1.0,,,,,0.005,0.01,,,,,METAR,30.0
PANC 211453Z 03006KT 10SM FEW090 M04/M12 A3041 RMK AO2 SLP299 T10391122 56003 $,PANC,2018-03-21T14:53:00Z,61.17,-150.0,-3.9,-12.2,30,6,,10.0,30.410433,1029.9,,,TRUE,TRUE,,,,,,FEW,9000,,,,,,,VFR,-0.3,,,,,,,,,,,METAR,38.0
PAMR 211453Z 05003KT 10SM SCT090 M04/M12 A3041 RMK AO2 SLP299 T10391117 58001,PAMR,2018-03-21T14:53:00Z,61.22,-149.85,-3.9,-11.7,50,3,,10.0,30.410433,1029.9,,,TRUE,,,,,,,SCT,9000,,,,,,,VFR,-0.1,,,,,,,,,,,METAR,41.0
PANN 211453Z AUTO VRB03KT 10SM CLR M11/M13 A3051 RMK AO2 SLP345 T11111133 51008 TSNO,PANN,2018-03-21T14:53:00Z,64.55,-149.08,-11.1,-13.3,0,3,,10.0,30.510826,1034.5,,TRUE,TRUE,,,TRUE,,,,CLR,,,,,,,,VFR,0.8,,,,,,,,,,,METAR,110.0
PANT 211453Z AUTO 33005KT 10SM CLR 01/M03 A2975 RMK AO2 SLP076 T00061033 58023 TSNO $,PANT,2018-03-21T14:53:00Z,55.03,-131.57,0.6,-3.3,330,5,,10.0,29.749016,1007.6,,TRUE,TRUE,TRUE,,TRUE,,,,CLR,,,,,,,,VFR,-2.3,,,,,,,,,,,METAR,36.0
PAOM 211453Z 08010KT 10SM OVC008 M07/M08 A3054 RMK AO2 SLP341 60001 T10721083 55004 $,PAOM,2018-03-21T14:53:00Z,64.5,-165.43,-7.2,-8.3,80,10,,10.0,30.540354,1034.1,,,TRUE,TRUE,,,,,,OVC,800,,,,,,,IFR,-0.4,,,,,,0.01,,,,,METAR,11.0
PAOR 211453Z 31011G20KT 10SM SCT030 BKN050 M09/M13 A3029 RMK AO2 SLP298 T10891128 51011,PAOR,2018-03-21T14:53:00Z,62.97,-141.93,-8.9,-12.8,310,11,20,10.0,30.28937,1029.8,,,TRUE,,,,,,,SCT,3000,BKN,5000,,,,,VFR,1.1,,,,,,,,,,,METAR,523.0
KSNA 211453Z 08004KT 10SM SCT060 BKN090 BKN250 16/08 A2999 RMK AO2 SLP156 T01560083 51013,KSNA,2018-03-21T14:53:00Z,33.67,-117.87,15.6,8.3,80,4,,10.0,29.991142,1015.6,,,TRUE,,,,,,,SCT,6000,BKN,9000,BKN,25000,,,VFR,1.3,,,,,,,,,,,METAR,16.0
KSNY 211453Z AUTO 29013KT 10SM FEW080 FEW110 11/M05 A3003 RMK AO2 SLP182 T01061050 53006,KSNY,2018-03-21T14:53:00Z,41.1,-102.98,10.6,-5.0,290,13,,10.0,30.029528,1018.2,,TRUE,TRUE,,,,,,,FEW,8000,FEW,11000,,,,,VFR,0.6,,,,,,,,,,,METAR,1307.0
KSNS 211453Z 11019G25KT 10SM OVC038 13/12 A2981 RMK AO2 PK WND 11026/1421 SLP102 60002 T01330122 58004,KSNS,2018-03-21T14:53:00Z,36.67,-121.6,13.3,12.2,110,19,25,10.0,29.811024,1010.2,,,TRUE,,,,,,,OVC,3800,,,,,,,VFR,-0.4,,,,,,0.02,,,,,METAR,30.0
KHKY 211453Z 30012G19KT 10SM OVC044 04/M02 A2967 RMK AO2 SLP040 T00391017 53020,KHKY,2018-03-21T14:53:00Z,35.75,-81.38,3.9,-1.7,300,12,19,10.0,29.66929,1004.0,,,TRUE,,,,,,,OVC,4400,,,,,,,VFR,2.0,,,,,,,,,,,METAR,354.0
KHKS 211453Z 34011G16KT 10SM CLR 12/02 A3015 RMK AO2 SLP205 T01170022 51029,KHKS,2018-03-21T14:53:00Z,32.33,-90.22,11.7,2.2,340,11,16,10.0,30.15059,1020.5,,,TRUE,,,,,,,CLR,,,,,,,,VFR,2.9,,,,,,,,,,,METAR,108.0
KHKA 211453Z AUTO 33013KT 10SM BKN050 BKN070 08/02 A3013 RMK AO2 SLP203 60000 T00780017 51028,KHKA,2018-03-21T14:53:00Z,35.93,-89.83,7.8,1.7,330,13,,10.0,30.129921,1020.3,,TRUE,TRUE,,,,,,,BKN,5000,BKN,7000,,,,,VFR,2.8,,,,,,0.005,,,,,METAR,78.0
KHJO 211453Z AUTO VRB03KT 1 1/2SM -RA BR OVC060 12/12 A2993 RMK AO2 SLP136 P0003 60011 T01220117 50006,KHJO,2018-03-21T14:53:00Z,36.32,-119.62,12.2,11.7,0,3,,1.5,29.929134,1013.6,,TRUE,TRUE,,,,,,-RA BR,OVC,6000,,,,,,,IFR,0.6,,,,,0.03,0.11,,,,,METAR,74.0
KHIO 211453Z 31003KT 10SM OVC110 02/01 A2975 RMK AO2 SLP073 T00170006 58007,KHIO,2018-03-21T14:53:00Z,45.55,-122.95,1.7,0.6,310,3,,10.0,29.749016,1007.3,,,TRUE,,,,,,,OVC,11000,,,,,,,VFR,-0.7,,,,,,,,,,,METAR,68.0
KHIB 211453Z AUTO 13007KT 10SM OVC075 M06/M10 A3015 RMK AO2 SLP236 T10611100 51008,KHIB,2018-03-21T14:53:00Z,47.38,-92.83,-6.1,-10.0,130,7,,10.0,30.15059,1023.6,,TRUE,TRUE,,,,,,,OVC,7500,,,,,,,VFR,0.8,,,,,,,,,,,METAR,412.0
KHHR 211453Z 00000KT 10SM SCT060 BKN085 17/09 A3000 RMK AO2 SLP157 T01670089 50012,KHHR,2018-03-21T14:53:00Z,33.92,-118.33,16.7,8.9,0,0,,10.0,30.0,1015.7,,,TRUE,,,,,,,SCT,6000,BKN,8500,,,,,VFR,1.2,,,,,,,,,,,METAR,18.0
KHGR 211453Z 36007KT 1/4SM SN FZFG FEW005 OVC010 M01/M02 A2967 RMK AO2 SLP065 P0002 60005 T10061017 53006,KHGR,2018-03-21T14:53:00Z,39.7,-77.73,-0.6,-1.7,360,7,,0.25,29.66929,1006.5,,,TRUE,,,,,,SN FZFG,FEW,500,OVC,1000,,,,,LIFR,0.6,,,,,0.02,0.05,,,,,METAR,224.0
KHFD 211453Z 01012KT 10SM OVC070 02/M08 A2976 RMK AO2 SLP077 T00171078 58001,KHFD,2018-03-21T14:53:00Z,41.73,-72.65,1.7,-7.8,10,12,,10.0,29.760826,1007.7,,,TRUE,,,,,,,OVC,7000,,,,,,,VFR,-0.1,,,,,,,,,,,METAR,4.0
KHEI 211453Z AUTO 25003KT 10SM CLR M01/M04 A3000 RMK AO2 SLP191 T10111044 53014,KHEI,2018-03-21T14:53:00Z,46.02,-102.65,-1.1,-4.4,250,3,,10.0,30.0,1019.1,,TRUE,TRUE,,,,,,,CLR,,,,,,,,VFR,1.4,,,,,,,,,,,METAR,828.0
KHBR 211453Z AUTO 10007KT 10SM CLR 11/00 A3018 RMK AO2 SLP222 T01060000 53013,KHBR,2018-03-21T14:53:00Z,34.98,-99.05,10.6,0.0,100,7,,10.0,30.180119,1022.2,,TRUE,TRUE,,,,,,,CLR,,,,,,,,VFR,1.3,,,,,,,,,,,METAR,473.0
KHBG 211453Z AUTO 32011G19KT 10SM CLR 12/04 A3014 RMK AO2 SLP204 T01220044 51024,KHBG,2018-03-21T14:53:00Z,31.27,-89.25,12.2,4.4,320,11,19,10.0,30.138779,1020.4,,TRUE,TRUE,,,,,,,CLR,,,,,,,,VFR,2.4,,,,,,,,,,,METAR,44.0
KHAO 211453Z AUTO 34011KT 10SM UP OVC019 M01/M03 A2984 RMK AO2 SLP111 P0000 60000 T10111033 53029,KHAO,2018-03-21T14:53:00Z,39.37,-84.52,-1.1,-3.3,340,11,,10.0,29.840551,1011.1,,TRUE,TRUE,,,,,,UP,OVC,1900,,,,,,,MVFR,2.9,,,,,0.005,0.005,,,,,METAR,188.0
KGZH 211453Z AUTO VRB03KT 10SM CLR 12/03 A3008 RMK AO2 SLP185 T01170028 51022,KGZH,2018-03-21T14:53:00Z,31.42,-87.05,11.7,2.8,0,3,,10.0,30.079725,1018.5,,TRUE,TRUE,,,,,,,CLR,,,,,,,,VFR,2.2,,,,,,,,,,,METAR,78.0
KGWO 211453Z AUTO 34009G15KT 10SM CLR 11/03 A3013 RMK AO2 SLP203 T01060033 51028,KGWO,2018-03-21T14:53:00Z,33.5,-90.08,10.6,3.3,340,9,15,10.0,30.129921,1020.3,,TRUE,TRUE,,,,,,,CLR,,,,,,,,VFR,2.8,,,,,,,,,,,METAR,44.0
KGVL 211453Z AUTO 29016G24KT 10SM BKN025 OVC030 03/M02 A2983 RMK AO2 SLP103 T00281017 53023,KGVL,2018-03-21T14:53:00Z,34.27,-83.83,2.8,-1.7,290,16,24,10.0,29.828741,1010.3,,TRUE,TRUE,,,,,,,BKN,2500,OVC,3000,,,,,MVFR,2.3,,,,,,,,,,,METAR,386.0
KGUY 211453Z AUTO 19003KT 10SM CLR 06/M03 A3013 RMK AO2 SLP197 T00611033 51013,KGUY,2018-03-21T14:53:00Z,36.68,-101.5,6.1,-3.3,190,3,,10.0,30.129921,1019.7,,TRUE,TRUE,,,,,,,CLR,,,,,,,,VFR,1.3,,,,,,,,,,,METAR,948.0
KGUP 211453Z AUTO 00000KT 10SM OVC100 04/M06 A3011 RMK AO2 SLP169 T00391056 50005,KGUP,2018-03-21T14:53:00Z,35.52,-108.8,3.9,-5.6,0,0,,10.0,30.109253,1016.9,,TRUE,TRUE,,,,,,,OVC,10000,,,,,,,VFR,0.5,,,,,,,,,,,METAR,1971.0
KGTF 211453Z 20009KT 10SM CLR 02/M04 A2985 RMK AO2 SLP142 T00221044 50002,KGTF,2018-03-21T14:53:00Z,47.47,-111.38,2.2,-4.4,200,9,,10.0,29.84941,1014.2,,,TRUE,,,,,,,CLR,,,,,,,,VFR,0.2,,,,,,,,,,,METAR,1119.0
KGSP 211453Z 27017G22KT 10SM OVC055 08/M04 A2972 RMK AO2 SLP061 T00781044 51023,KGSP,2018-03-21T14:53:00Z,34.9,-82.22,7.8,-4.4,270,17,22,10.0,29.719488,1006.1,,,TRUE,,,,,,,OVC,5500,,,,,,,VFR,2.3,,,,,,,,,,,METAR,287.0
KGSH 211453Z AUTO 01012KT 10SM CLR 00/M08 A2996 RMK AO2 SLP154 T00001078 51022,KGSH,2018-03-21T14:53:00Z,41.53,-85.78,0.0,-7.8,10,12,,10.0,29.958662,1015.4,,TRUE,TRUE,,,,,,,CLR,,,,,,,,VFR,2.2,,,,,,,,,,,METAR,252.0
KGRR 211453Z 04010KT 10SM FEW150 OVC240 01/M08 A3001 RMK AO2 SLP174 T00061078 51017,KGRR,2018-03-21T14:53:00Z,42.88,-85.52,0.6,-7.8,40,10,,10.0,30.008858,1017.4,,,TRUE,,,,,,,FEW,15000,OVC,24000,,,,,VFR,1.7,,,,,,,,,,,METAR,237.0
KGRI 211453Z 19008KT 6SM HZ FEW095 01/M01 A3014 RMK AO2 SLP228 I3000 T00111006 50011,KGRI,2018-03-21T14:53:00Z,40.97,-98.32,1.1,-0.6,190,8,,6.0,30.138779,1022.8,,,TRUE,,,,,,HZ,FEW,9500,,,,,,,VFR,1.1,,,,,,,,,,,METAR,561.0
KGRB 211453Z 01007KT 10SM CLR M02/M08 A3014 RMK AO2 SLP217 T10171083 51008,KGRB,2018-03-21T14:53:00Z,44.48,-88.13,-1.7,-8.3,10,7,,10.0,30.138779,1021.7,,,TRUE,,,,,,,CLR,,,,,,,,VFR,0.8,,,,,,,,,,,METAR,208.0
KGPT 211453Z 32010KT 10SM CLR 14/04 A3014 RMK AO2 SLP204 T01440044 51022,KGPT,2018-03-21T14:53:00Z,30.42,-89.08,14.4,4.4,320,10,,10.0,30.138779,1020.4,,,TRUE,,,,,,,CLR,,,,,,,,VFR,2.2,,,,,,,,,,,METAR,14.0
KGOK 211453Z AUTO 08006KT 10SM CLR 09/02 A3022 RMK AO2 SLP236 T00940017 51023,KGOK,2018-03-21T14:53:00Z,35.85,-97.4,9.4,1.7,80,6,,10.0,30.221457,1023.6,,TRUE,TRUE,,,,,,,CLR,,,,,,,,VFR,2.3,,,,,,,,,,,METAR,324.0
KGNV 211453Z 29019G26KT 10SM CLR 15/02 A3000 RMK AO2 PK WND 29026/1452 SLP158 T01500017 51023,KGNV,2018-03-21T14:53:00Z,29.7,-82.28,15.0,1.7,290,19,26,10.0,30.0,1015.8,,,TRUE,,,,,,,CLR,,,,,,,,VFR,2.3,,,,,,,,,,,METAR,45.0
KGMU 211453Z 27014G22KT 10SM BKN050 08/M03 A2972 RMK AO2 SLP063 T00831033 51021,KGMU,2018-03-21T14:53:00Z,34.85,-82.35,8.3,-3.3,270,14,22,10.0,29.719488,1006.3,,,TRUE,,,,,,,BKN,5000,,,,,,,VFR,2.1,,,,,,,,,,,METAR,315.0
KFOE 211453Z 33006KT 9SM CLR 03/M01 A3022 RMK AO2 SLP239 T00331006 51026,KFOE,2018-03-21T14:53:00Z,38.93,-95.65,3.3,-0.6,330,6,,9.0,30.221457,1023.9,,,TRUE,,,,,,,CLR,,,,,,,,VFR,2.6,,,,,,,,,,,METAR,320.0
KCRE 211453Z 28010G18KT 10SM BKN040 OVC048 10/03 A2965 RMK AO1 SLP040 T01000033 53018,KCRE,2018-03-21T14:53:00Z,33.82,-78.72,10.0,3.3,280,10,18,10.0,29.648623,1004.0,,,TRUE,,,,,,,BKN,4000,OVC,4800,,,,,VFR,1.8,,,,,,,,,,,METAR,10.0
KCPR 211453Z 20003KT 10SM CLR 01/M04 A2998 RMK AO2 SLP167 T00111039 51003,KCPR,2018-03-21T14:53:00Z,42.9,-106.47,1.1,-3.9,200,3,,10.0,29.97933,1016.7,,,TRUE,,,,,,,CLR,,,,,,,,VFR,0.3,,,,,,,,,,,METAR,1621.0
KCOT 211453Z AUTO 13011KT 10SM CLR 18/09 A3016 RMK AO2 SLP207 T01780094 51016,KCOT,2018-03-21T14:53:00Z,28.45,-99.22,17.8,9.4,130,11,,10.0,30.159449,1020.7,,TRUE,TRUE,,,,,,,CLR,,,,,,,,VFR,1.6,,,,,,,,,,,METAR,140.0
KCNY 211453Z AUTO 14004KT 10SM SCT070 OVC090 06/M04 A3003 RMK AO2 SLP161 T00561044 53009,KCNY,2018-03-21T14:53:00Z,38.77,-109.75,5.6,-4.4,140,4,,10.0,30.029528,1016.1,,TRUE,TRUE,,,,,,,SCT,7000,OVC,9000,,,,,VFR,0.9,,,,,,,,,,,METAR,1390.0
KCNO 211453Z VRB03KT 10SM FEW055 BKN085 14/08 A3002 RMK AO2 SLP163 T01390083 51017,KCNO,2018-03-21T14:53:00Z,33.98,-117.62,13.9,8.3,0,3,,10.0,30.02067,1016.3,,,TRUE,,,,,,,FEW,5500,BKN,8500,,,,,VFR,1.7,,,,,,,,,,,METAR,207.0
KCNM 211453Z AUTO 33011KT 10SM CLR 11/M07 A3007 RMK AO2 SLP163 T01111067 53021,KCNM,2018-03-21T14:53:00Z,32.33,-104.25,11.1,-6.7,330,11,,10.0,30.070866,1016.3,,TRUE,TRUE,,,,,,,CLR,,,,,,,,VFR,2.1,,,,,,,,,,,METAR,985.0
KCMX 211453Z AUTO 06007KT 10SM FEW085 BKN110 M03/M11 A3016 RMK AO2 SLP233 T10281111 51013,KCMX,2018-03-21T14:53:00Z,47.17,-88.48,-2.8,-11.1,60,7,,10.0,30.159449,1023.3,,TRUE,TRUE,,,,,,,FEW,8500,BKN,11000,,,,,VFR,1.3,,,,,,,,,,,METAR,326.0
KCMI 211453Z 36015KT 10SM CLR 02/M05 A3003 RMK AO2 SLP175 T00171050 51026,KCMI,2018-03-21T14:53:00Z,40.03,-88.27,1.7,-5.0,360,15,,10.0,30.029528,1017.5,,,TRUE,,,,,,,CLR,,,,,,,,VFR,2.6,,,,,,,,,,,METAR,228.0
KCLM 211453Z AUTO 23004KT 8SM FEW009 BKN013 OVC110 04/03 A2976 RMK AO2 SLP080 T00390028 56009,KCLM,2018-03-21T14:53:00Z,48.12,-123.5,3.9,2.8,230,4,,8.0,29.760826,1008.0,,TRUE,TRUE,,,,,,,FEW,900,BKN,1300,OVC,11000,,,MVFR,-0.9,,,,,,,,,,,METAR,85.0
KCLL 211453Z 07004KT 10SM CLR 16/04 A3021 RMK AO2 SLP228 T01560044 51026,KCLL,2018-03-21T14:53:00Z,30.58,-96.37,15.6,4.4,70,4,,10.0,30.209646,1022.8,,,TRUE,,,,,,,CLR,,,,,,,,VFR,2.6,,,,,,,,,,,METAR,96.0
KCKB 211453Z 05008KT 1 1/4SM -SN BKN011 OVC028 M01/M03 A2964 RMK AO2 SLP041 P0001 60002 T10061033 53007,KCKB,2018-03-21T14:53:00Z,39.3,-80.22,-0.6,-3.3,50,8,,1.25,29.639763,1004.1,,,TRUE,,,,,,-SN,BKN,1100,OVC,2800,,,,,IFR,0.7,,,,,0.01,0.02,,,,,METAR,360.0
KHLG 211453Z 02012KT 1SM R03/4500VP6000FT -SN BR SCT009 BKN014 OVC021 M02/M04 A2970 RMK AO2 SLP070 P0000 60001 T10171039 53014,KHLG,2018-03-21T14:53:00Z,40.17,-80.65,-1.7,-3.9,20,12,,1.0,29.698818,1007.0,,,TRUE,,,,,,-SN BR,SCT,900,BKN,1400,OVC,2100,,,IFR,1.4,,,,,0.005,0.01,,,,,METAR,372.0
KHLC 211453Z AUTO 24005KT 10SM CLR 04/02 A3016 RMK AO2 SLP226 T00440017 51012,KHLC,2018-03-21T14:53:00Z,39.37,-99.83,4.4,1.7,240,5,,10.0,30.159449,1022.6,,TRUE,TRUE,,,,,,,CLR,,,,,,,,VFR,1.2,,,,,,,,,,,METAR,669.0
K6R6 211453Z AUTO 10008KT 13/02 A3009 RMK AO1 SLP173 T01330022 51019 ,K6R6,2018-03-21T14:53:00Z,30.05,-102.22,13.3,2.2,100,8,,,30.088583,1017.3,,TRUE,TRUE,,,,,,,,,,,,,,,,1.9,,,,,,,,,,,METAR,701.0
PATK 211453Z AUTO 35003KT 10SM BKN070 OVC085 M06/M11 A3044 RMK AO2 SLP315 T10561111 53005 TSNO,PATK,2018-03-21T14:53:00Z,62.3,-150.1,-5.6,-11.1,350,3,,10.0,30.43996,1031.5,,TRUE,TRUE,,,TRUE,,,,BKN,7000,OVC,8500,,,,,VFR,0.5,,,,,,,,,,,METAR,109.0
PASO 211453Z AUTO 02011KT 10SM CLR 01/M08 A3043 RMK AO2 SLP305 T00111083 56005 TSNO,PASO,2018-03-21T14:53:00Z,59.45,-151.7,1.1,-8.3,20,11,,10.0,30.431103,1030.5,,TRUE,TRUE,,,TRUE,,,,CLR,,,,,,,,VFR,-0.5,,,,,,,,,,,METAR,9.0
PASN 211453Z AUTO 16018KT 5SM BR OVC006 03/03 A3041 RMK AO2 SLP297 T00330028 58021 TSNO,PASN,2018-03-21T14:53:00Z,57.15,-170.22,3.3,2.8,160,18,,5.0,30.410433,1029.7,,TRUE,TRUE,,,TRUE,,,BR,OVC,600,,,,,,,IFR,-2.1,,,,,,,,,,,METAR,29.0
PASI 211453Z 02005KT 10SM FEW080 BKN150 M01/M04 A2982 RMK AO2 UPE03 SLP098 P0000 60000 T10111039 58005,PASI,2018-03-21T14:53:00Z,57.07,-135.35,-1.1,-3.9,20,5,,10.0,29.819881,1009.8,,,TRUE,,,,,,,FEW,8000,BKN,15000,,,,,VFR,-0.5,,,,,0.005,0.005,,,,,METAR,5.0
KMHE 211453Z AUTO 16008KT 10SM CLR 01/M01 A3010 RMK AO2 SLP206 T00061011 51003,KMHE,2018-03-21T14:53:00Z,43.77,-98.02,0.6,-1.1,160,8,,10.0,30.100393,1020.6,,TRUE,TRUE,,,,,,,CLR,,,,,,,,VFR,0.3,,,,,,,,,,,METAR,397.0
KLWV 211453Z AUTO 35022KT 10SM FEW020 BKN110 01/M03 A3001 RMK AO2 PK WND 35026/1453 SLP165 T00111028 53027,KLWV,2018-03-21T14:53:00Z,38.77,-87.6,1.1,-2.8,350,22,,10.0,30.008858,1016.5,,TRUE,TRUE,,,,,,,FEW,2000,BKN,11000,,,,,VFR,2.7,,,,,,,,,,,METAR,131.0
KLND 211453Z AUTO 13003KT 10SM SCT070 00/M07 A2994 RMK AO2 SLP145 T00001067 50000,KLND,2018-03-21T14:53:00Z,42.82,-108.73,0.0,-6.7,130,3,,10.0,29.940945,1014.5,,TRUE,TRUE,,,,,,,SCT,7000,,,,,,,VFR,0.0,,,,,,,,,,,METAR,1694.0
KTRI 211453Z 26010G16KT 10SM SCT021 BKN031 OVC038 01/M02 A2972 RMK AO2 SNB10E19 SLP058 P0000 60000 T00061017 53014,KTRI,2018-03-21T14:53:00Z,36.48,-82.4,0.6,-1.7,260,10,16,10.0,29.719488,1005.8,,,TRUE,,,,,,,SCT,2100,BKN,3100,OVC,3800,,,VFR,1.4,,,,,0.005,0.005,,,,,METAR,474.0
PHTO 211453Z AUTO 25004KT 10SM BKN019 BKN025 OVC032 21/19 A2994 RMK AO2 SLP138 60003 T02060189 53000 TSNO,PHTO,2018-03-21T14:53:00Z,19.72,-155.05,20.6,18.9,250,4,,10.0,29.940945,1013.8,,TRUE,TRUE,,,TRUE,,,,BKN,1900,BKN,2500,OVC,3200,,,MVFR,0.0,,,,,,0.03,,,,,METAR,12.0
PHNL 211453Z 08011KT 10SM SCT045 BKN080 23/17 A2990 RMK AO2 SLP123 T02280167 55005,PHNL,2018-03-21T14:53:00Z,21.33,-157.92,22.8,16.7,80,11,,10.0,29.899607,1012.3,,,TRUE,,,,,,,SCT,4500,BKN,8000,,,,,VFR,-0.5,,,,,,,,,,,METAR,4.0
TIST 211453Z AUTO 13014G20KT 10SM FEW025 26/23 A3006 RMK AO2 SLP180 T02610228 50005 $,TIST,2018-03-21T14:53:00Z,18.33,-64.98,26.1,22.8,130,14,20,10.0,30.059055,1018.0,,TRUE,TRUE,TRUE,,,,,,FEW,2500,,,,,,,VFR,0.5,,,,,,,,,,,METAR,7.0
TISX 211453Z 11015KT 10SM SCT021 29/22 A3007 RMK AO2 SLP180 T02940222 50004,TISX,2018-03-21T14:53:00Z,17.7,-64.8,29.4,22.2,110,15,,10.0,30.070866,1018.0,,,TRUE,,,,,,,SCT,2100,,,,,,,VFR,0.4,,,,,,,,,,,METAR,19.0
PHJR 211453Z AUTO 06004KT 10SM FEW055 OVC070 22/17 A2991 RMK AO2 SLP135 T02170172 55005 TSNO,PHJR,2018-03-21T14:53:00Z,21.32,-158.07,21.7,17.2,60,4,,10.0,29.911417,1013.5,,TRUE,TRUE,,,TRUE,,,,FEW,5500,OVC,7000,,,,,VFR,-0.5,,,,,,,,,,,METAR,15.0
PAYA 211453Z AUTO 11007KT 10SM SCT120 M01/M11 A2994 RMK AO2 SLP138 T10111106 51004 TSNO,PAYA,2018-03-21T14:53:00Z,59.52,-139.67,-1.1,-10.6,110,7,,10.0,29.940945,1013.8,,TRUE,TRUE,,,TRUE,,,,SCT,12000,,,,,,,VFR,0.4,,,,,,,,,,,METAR,11.0
PAWI 211453Z AUTO 13005KT 10SM BKN009 M29/M31 A3065 RMK AO2 SLP381 T12891311 50004 TSNO,PAWI,2018-03-21T14:53:00Z,70.62,-159.85,-28.9,-31.1,130,5,,10.0,30.649607,1038.1,,TRUE,TRUE,,,TRUE,,,,BKN,900,,,,,,,IFR,0.4,,,,,,,,,,,METAR,27.0
PAWD 211453Z AUTO 32020G31KT 10SM CLR M01/M13 A3030 RMK AO2 PK WND 33038/1430 SLP260 T10061128 56012 TSNO $,PAWD,2018-03-21T14:53:00Z,60.12,-149.42,-0.6,-12.8,320,20,31,10.0,30.301182,1026.0,,TRUE,TRUE,TRUE,,TRUE,,,,CLR,,,,,,,,VFR,-1.2,,,,,,,,,,,METAR,23.0
PAVL 211453Z AUTO 07006KT 7SM CLR M29/M33 A3062 RMK AO2 SLP369 6//// T12891328 58012 TSNO PNO $,PAVL,2018-03-21T14:53:00Z,67.73,-164.55,-28.9,-32.8,70,6,,7.0,30.620079,1036.9,,TRUE,TRUE,TRUE,,TRUE,,,,CLR,,,,,,,,VFR,-1.2,,,,,,,,,,,METAR,3.0
PATO 211453Z AUTO 28010G24KT 10SM CLR M03/M12 A3032 RMK AO2 SLP269 T10281117 56004 TSNO,PATO,2018-03-21T14:53:00Z,60.78,-148.85,-2.8,-11.7,280,10,24,10.0,30.318897,1026.9,,TRUE,TRUE,,,TRUE,,,,CLR,,,,,,,,VFR,-0.4,,,,,,,,,,,METAR,31.0
KSRQ 211453Z AUTO 32018G29KT 10SM BKN036 18/09 A3002 RMK AO2 PK WND 32031/1440 SLP164 T01780094 51028,KSRQ,2018-03-21T14:53:00Z,27.4,-82.57,17.8,9.4,320,18,29,10.0,30.02067,1016.4,,TRUE,TRUE,,,,,,,BKN,3600,,,,,,,VFR,2.8,,,,,,,,,,,METAR,18.0
KSPG 211453Z 32015G27KT 10SM BKN035 17/08 A3001 RMK AO2 PK WND 31027/1444 SLP160 T01670083 51028,KSPG,2018-03-21T14:53:00Z,27.77,-82.63,16.7,8.3,320,15,27,10.0,30.008858,1016.0,,,TRUE,,,,,,,BKN,3500,,,,,,,VFR,2.8,,,,,,,,,,,METAR,2.0
KSPB 211453Z AUTO 35003KT 10SM BKN070 01/01 A2975 RMK AO2 SLP074 T00110006 58008,KSPB,2018-03-21T14:53:00Z,45.77,-122.87,1.1,0.6,350,3,,10.0,29.749016,1007.4,,TRUE,TRUE,,,,,,,BKN,7000,,,,,,,VFR,-0.8,,,,,,,,,,,METAR,14.0
KSSI 211453Z AUTO 27018G27KT 10SM CLR 14/03 A2986 RMK AO2 PK WND 26029/1420 SLP111 T01390028 51016,KSSI,2018-03-21T14:53:00Z,31.15,-81.38,13.9,2.8,270,18,27,10.0,29.861221,1011.1,,TRUE,TRUE,,,,,,,CLR,,,,,,,,VFR,1.6,,,,,,,,,,,METAR,6.0
KSSF 211453Z VRB03KT 10SM CLR 16/05 A3017 RMK AO2 SLP214 T01610050 53018,KSSF,2018-03-21T14:53:00Z,29.33,-98.47,16.1,5.0,0,3,,10.0,30.171259,1021.4,,,TRUE,,,,,,,CLR,,,,,,,,VFR,1.8,,,,,,,,,,,METAR,176.0
KORB 211453Z AUTO 16006KT 10SM BKN070 OVC095 M05/M11 A3014 RMK AO2,KORB,2018-03-21T14:53:00Z,48.02,-92.87,-5.0,-11.0,160,6,,10.0,30.138779,,,TRUE,TRUE,,,,,,,BKN,7000,OVC,9500,,,,,VFR,,,,,,,,,,,,METAR,397.0
KP92 211453Z AUTO VRB04KT 16/07 A3019 RMK AO1 SLP221 T01560072 51022 $,KP92,2018-03-21T14:53:00Z,29.57,-91.53,15.6,7.2,0,4,,,30.188976,1022.1,,TRUE,TRUE,TRUE,,,,,,,,,,,,,,,2.2,,,,,,,,,,,METAR,1.0
KMWL 211453Z AUTO 17006KT 10SM CLR 12/00 A3020 RMK AO2 SLP222 T01220000 51023,KMWL,2018-03-21T14:53:00Z,32.78,-98.07,12.2,0.0,170,6,,10.0,30.200787,1022.2,,TRUE,TRUE,,,,,,,CLR,,,,,,,,VFR,2.3,,,,,,,,,,,METAR,284.0
KMVY 211453Z 04021G27KT 10SM -RA SCT022 BKN030 OVC037 03/M01 A2969 RMK AO2 PK WND 04028/1441 RAE11B41 SLP053 P0000 60000 T00331006 53001,KMVY,2018-03-21T14:53:00Z,41.4,-70.62,3.3,-0.6,40,21,27,10.0,29.68996,1005.3,,,TRUE,,,,,,-RA,SCT,2200,BKN,3000,OVC,3700,,,MVFR,0.1,,,,,0.005,0.005,,,,,METAR,16.0
KMTO 211453Z AUTO 01020KT 10SM CLR 02/M04 A3002 RMK AO2 PK WND 35027/1422 SLP170 T00171044 51026,KMTO,2018-03-21T14:53:00Z,39.47,-88.27,1.7,-4.4,10,20,,10.0,30.02067,1017.0,,TRUE,TRUE,,,,,,,CLR,,,,,,,,VFR,2.6,,,,,,,,,,,METAR,214.0
KMTJ 211453Z AUTO 16006KT 10SM FEW110 02/M09 A3011 RMK AO2 SLP178 T00221094 53004,KMTJ,2018-03-21T14:53:00Z,38.5,-107.9,2.2,-9.4,160,6,,10.0,30.109253,1017.8,,TRUE,TRUE,,,,,,,FEW,11000,,,,,,,VFR,0.4,,,,,,,,,,,METAR,1750.0
KMTH 211453Z AUTO A3000 RMK AO2 SLP160 51024 PWINO $,KMTH,2018-03-21T14:53:00Z,24.73,-81.05,,,,,,,30.0,1016.0,,TRUE,TRUE,TRUE,,,,TRUE,,,,,,,,,,,2.4,,,,,,,,,,,METAR,2.0
KMSY 211453Z 32011KT 10SM SCT250 16/05 A3017 RMK AO2 SLP220 T01560050 51021,KMSY,2018-03-21T14:53:00Z,30.0,-90.25,15.6,5.0,320,11,,10.0,30.171259,1022.0,,,TRUE,,,,,,,SCT,25000,,,,,,,VFR,2.1,,,,,,,,,,,METAR,5.0
KMSS 211453Z AUTO 06011KT 10SM CLR M03/M09 A2998 RMK AO2 SLP160 T10331094 57000,KMSS,2018-03-21T14:53:00Z,44.93,-74.85,-3.3,-9.4,60,11,,10.0,29.97933,1016.0,,TRUE,TRUE,,,,,,,CLR,,,,,,,,VFR,0.0,,,,,,,,,,,METAR,66.0
KMSP 211453Z 00000KT 10SM OVC060 M02/M05 A3017 RMK AO2 SLP228 T10221050 51010,KMSP,2018-03-21T14:53:00Z,44.88,-93.23,-2.2,-5.0,0,0,,10.0,30.171259,1022.8,,,TRUE,,,,,,,OVC,6000,,,,,,,VFR,1.0,,,,,,,,,,,METAR,265.0
KMSO 211453Z 00000KT 10SM CLR M04/M06 A2990 RMK AO2 SLP154 T10391056 58002,KMSO,2018-03-21T14:53:00Z,46.92,-114.1,-3.9,-5.6,0,0,,10.0,29.899607,1015.4,,,TRUE,,,,,,,CLR,,,,,,,,VFR,-0.2,,,,,,,,,,,METAR,975.0
KMSN 211453Z 02008G17KT 10SM FEW028 FEW160 BKN250 M02/M08 A3012 RMK AO2 SLP212 T10171078 51016,KMSN,2018-03-21T14:53:00Z,43.13,-89.35,-1.7,-7.8,20,8,17,10.0,30.121063,1021.2,,,TRUE,,,,,,,FEW,2800,FEW,16000,BKN,25000,,,VFR,1.6,,,,,,,,,,,METAR,261.0
KMSL 211453Z AUTO 32013G21KT 10SM OVC085 06/M03 A3006 RMK AO2 SLP179 T00561028 51024,KMSL,2018-03-21T14:53:00Z,34.75,-87.6,5.6,-2.8,320,13,21,10.0,30.059055,1017.9,,TRUE,TRUE,,,,,,,OVC,8500,,,,,,,VFR,2.4,,,,,,,,,,,METAR,164.0
KMRB 211453Z 01010KT 3/4SM -SN BR SCT005 OVC013 M01/M02 A2968 RMK AO2 SLP055 P0000 60000 T10061017 51006,KMRB,2018-03-21T14:53:00Z,39.4,-77.98,-0.6,-1.7,10,10,,0.75,29.681103,1005.5,,,TRUE,,,,,,-SN BR,SCT,500,OVC,1300,,,,,LIFR,0.6,,,,,0.005,0.005,,,,,METAR,164.0
KMPO 211453Z AUTO 05014G24KT 1SM -SN BR BKN016 BKN029 OVC035 M04/M05 A2961 RMK AO2 SLP049 P0001 60003 T10391050 56009,KMPO,2018-03-21T14:53:00Z,41.13,-75.38,-3.9,-5.0,50,14,24,1.0,29.610237,1004.9,,TRUE,TRUE,,,,,,-SN BR,BKN,1600,BKN,2900,OVC,3500,,,IFR,-0.9,,,,,0.01,0.03,,,,,METAR,577.0
KMOD 211453Z 15006KT 5SM BR SCT011 OVC055 12/12 A2985 RMK AO2 RAE1359 SLP108 P0000 60000 T01220117 55002,KMOD,2018-03-21T14:53:00Z,37.62,-120.95,12.2,11.7,150,6,,5.0,29.84941,1010.8,,,TRUE,,,,,,BR,SCT,1100,OVC,5500,,,,,MVFR,-0.2,,,,,0.005,0.005,,,,,METAR,29.0
KMNN 211453Z AUTO 03018KT 7SM OVC043 M01/M04 A2980 RMK AO2 SLP101 60000 T10111039 53026,KMNN,2018-03-21T14:53:00Z,40.62,-83.07,-1.1,-3.9,30,18,,7.0,29.799213,1010.1,,TRUE,TRUE,,,,,,,OVC,4300,,,,,,,VFR,2.6,,,,,,0.005,,,,,METAR,301.0
KMMV 211453Z AUTO 00000KT 10SM BKN085 OVC110 01/01 A2975 RMK AO2 SLP074 T00060006 56007,KMMV,2018-03-21T14:53:00Z,45.2,-123.13,0.6,0.6,0,0,,10.0,29.749016,1007.4,,TRUE,TRUE,,,,,,,BKN,8500,OVC,11000,,,,,VFR,-0.7,,,,,,,,,,,METAR,48.0
KMMK 211453Z AUTO 01012KT 3/4SM -SN OVC023 M01/M04 A2974 RMK AO2 SNB36 SLP071 P0000 60000 T10111044 58000,KMMK,2018-03-21T14:53:00Z,41.52,-72.83,-1.1,-4.4,10,12,,0.75,29.740158,1007.1,,TRUE,TRUE,,,,,,-SN,OVC,2300,,,,,,,LIFR,0.0,,,,,0.005,0.005,,,,,METAR,31.0
KMLU 211453Z 36016KT 10SM CLR 13/02 A3020 RMK AO2 SLP225 T01280022 51023,KMLU,2018-03-21T14:53:00Z,32.52,-92.03,12.8,2.2,360,16,,10.0,30.200787,1022.5,,,TRUE,,,,,,,CLR,,,,,,,,VFR,2.3,,,,,,,,,,,METAR,29.0
KMLT 211453Z AUTO 03009KT 350V060 10SM CLR 00/M09 A2992 RMK AO2 SLP142 T00001094 58013,KMLT,2018-03-21T14:53:00Z,45.65,-68.7,0.0,-9.4,30,9,,10.0,29.920275,1014.2,,TRUE,TRUE,,,,,,,CLR,,,,,,,,VFR,-1.3,,,,,,,,,,,METAR,123.0
KMLS 211453Z AUTO 16009KT 10SM CLR M03/M06 A2995 RMK AO2 SLP170 T10331061 51007,KMLS,2018-03-21T14:53:00Z,46.43,-105.88,-3.3,-6.1,160,9,,10.0,29.949802,1017.0,,TRUE,TRUE,,,,,,,CLR,,,,,,,,VFR,0.7,,,,,,,,,,,METAR,801.0
KMLP 211453Z AUTO 17007KT 10SM FEW044 M03/M06 A2977 RMK AO2 SLP110 T10281056 56004 TSNO,KMLP,2018-03-21T14:53:00Z,47.45,-115.67,-2.8,-5.6,170,7,,10.0,29.769686,1011.0,,TRUE,TRUE,,,TRUE,,,,FEW,4400,,,,,,,VFR,-0.4,,,,,,,,,,,METAR,1837.0
KMLC 211453Z AUTO 02006KT 10SM FEW110 10/02 A3023 RMK AO2 SLP238 T01000022 51027,KMLC,2018-03-21T14:53:00Z,34.88,-95.78,10.0,2.2,20,6,,10.0,30.230314,1023.8,,TRUE,TRUE,,,,,,,FEW,11000,,,,,,,VFR,2.7,,,,,,,,,,,METAR,232.0
KMLB 211453Z 29022G28KT 10SM FEW034 19/10 A2995 RMK AO2 PK WND 29028/1444 SLP139 T01890100 51017,KMLB,2018-03-21T14:53:00Z,28.1,-80.65,18.9,10.0,290,22,28,10.0,29.949802,1013.9,,,TRUE,,,,,,,FEW,3400,,,,,,,VFR,1.7,,,,,,,,,,,METAR,11.0
KMKO 211453Z AUTO 00000KT 10SM CLR 07/02 A3025 RMK AO2 SLP245 T00720017 53026,KMKO,2018-03-21T14:53:00Z,35.65,-95.37,7.2,1.7,0,0,,10.0,30.250984,1024.5,,TRUE,TRUE,,,,,,,CLR,,,,,,,,VFR,2.6,,,,,,,,,,,METAR,185.0
KMKL 211453Z 31009KT 10SM OVC075 05/M01 A3010 RMK AO2 SLP195 T00501011 53029,KMKL,2018-03-21T14:53:00Z,35.6,-88.92,5.0,-1.1,310,9,,10.0,30.100393,1019.5,,,TRUE,,,,,,,OVC,7500,,,,,,,VFR,2.9,,,,,,,,,,,METAR,128.0
KMIW 211453Z AUTO 36006KT 10SM CLR 01/M04 A3016 RMK AO2 SLP224 T00061039 53020,KMIW,2018-03-21T14:53:00Z,42.12,-92.92,0.6,-3.9,360,6,,10.0,30.159449,1022.4,,TRUE,TRUE,,,,,,,CLR,,,,,,,,VFR,2.0,,,,,,,,,,,METAR,296.0
KMIE 211453Z 35015KT 10SM UP BKN016 BKN023 OVC070 M01/M05 A2990 RMK AO2 UPE1355B36 SLP128 P0000 60000 T10111050 53025,KMIE,2018-03-21T14:53:00Z,40.23,-85.4,-1.1,-5.0,350,15,,10.0,29.899607,1012.8,,,TRUE,,,,,,UP,BKN,1600,BKN,2300,OVC,7000,,,MVFR,2.5,,,,,0.005,0.005,,,,,METAR,285.0
KMIA 211453Z 30010G16KT 10SM BKN026 BKN048 22/16 A2998 RMK AO2 SLP152 T02220156 51021,KMIA,2018-03-21T14:53:00Z,25.8,-80.28,22.2,15.6,300,10,16,10.0,29.97933,1015.2,,,TRUE,,,,,,,BKN,2600,BKN,4800,,,,,MVFR,2.1,,,,,,,,,,,METAR,3.0
KRDD 211453Z 00000KT 1 1/2SM BR BKN003 OVC020 10/09 A2983 RMK AO2 SLP100 60003 T01000094 56005,KRDD,2018-03-21T14:53:00Z,40.52,-122.3,10.0,9.4,0,0,,1.5,29.828741,1010.0,,,TRUE,,,,,,BR,BKN,300,OVC,2000,,,,,LIFR,-0.5,,,,,,0.03,,,,,METAR,155.0
KRBG 211453Z AUTO 00000KT 6SM -RA BR BKN004 OVC065 09/08 A2974 RMK AO2 RAE30B39 SLP070 P0000 60006 T00890083 56009,KRBG,2018-03-21T14:53:00Z,43.23,-123.35,8.9,8.3,0,0,,6.0,29.740158,1007.0,,TRUE,TRUE,,,,,,-RA BR,BKN,400,OVC,6500,,,,,LIFR,-0.9,,,,,0.005,0.06,,,,,METAR,154.0
KRBD 211453Z 13004KT 10SM CLR 14/02 A3021 RMK AO2 SLP228 T01390017 53028,KRBD,2018-03-21T14:53:00Z,32.68,-96.87,13.9,1.7,130,4,,10.0,30.209646,1022.8,,,TRUE,,,,,,,CLR,,,,,,,,VFR,2.8,,,,,,,,,,,METAR,203.0
KRAL 211453Z 00000KT 10SM SCT055 OVC090 13/06 A3002 RMK AO2 SLP156 T01280061 51023,KRAL,2018-03-21T14:53:00Z,33.95,-117.45,12.8,6.1,0,0,,10.0,30.02067,1015.6,,,TRUE,,,,,,,SCT,5500,OVC,9000,,,,,VFR,2.3,,,,,,,,,,,METAR,252.0
KRAC 211453Z AUTO 02011G25KT 10SM OVC030 00/M08 A3010 RMK AO2 SLP200 T00001078 51020,KRAC,2018-03-21T14:53:00Z,42.77,-87.82,0.0,-7.8,20,11,25,10.0,30.100393,1020.0,,TRUE,TRUE,,,,,,,OVC,3000,,,,,,,MVFR,2.0,,,,,,,,,,,METAR,203.0
KPWA 211453Z 12006KT 10SM CLR 12/M01 A3021 RMK AO2 SLP231 T01171006 51023,KPWA,2018-03-21T14:53:00Z,35.53,-97.65,11.7,-0.6,120,6,,10.0,30.209646,1023.1,,,TRUE,,,,,,,CLR,,,,,,,,VFR,2.3,,,,,,,,,,,METAR,397.0
KPUW 211453Z AUTO 09013KT 10SM BKN070 OVC090 04/02 A2981 RMK AO2 SLP104 T00440022 55003,KPUW,2018-03-21T14:53:00Z,46.75,-117.12,4.4,2.2,90,13,,10.0,29.811024,1010.4,,TRUE,TRUE,,,,,,,BKN,7000,OVC,9000,,,,,VFR,-0.3,,,,,,,,,,,METAR,773.0
KPUB 211453Z 34003KT 10SM CLR 01/M11 A3009 RMK AO2 SLP187 T00111106 51006,KPUB,2018-03-21T14:53:00Z,38.28,-104.5,1.1,-10.6,340,3,,10.0,30.088583,1018.7,,,TRUE,,,,,,,CLR,,,,,,,,VFR,0.6,,,,,,,,,,,METAR,1420.0
KPTK 211453Z 02010KT 10SM SCT070 OVC110 00/M09 A2993 RMK AO2 SLP144 T00001094 51018,KPTK,2018-03-21T14:53:00Z,42.67,-83.42,0.0,-9.4,20,10,,10.0,29.929134,1014.4,,,TRUE,,,,,,,SCT,7000,OVC,11000,,,,,VFR,1.8,,,,,,,,,,,METAR,299.0
KPSX 211453Z AUTO 08014G19KT 10SM CLR 19/07 A3017 RMK AO2 SLP215 T01940067 51014,KPSX,2018-03-21T14:53:00Z,28.72,-96.25,19.4,6.7,80,14,19,10.0,30.171259,1021.5,,TRUE,TRUE,,,,,,,CLR,,,,,,,,VFR,1.4,,,,,,,,,,,METAR,5.0
KPSP 211453Z 25004KT 10SM CLR 18/01 A2996 RMK AO2 SLP144 T01830006 53017,KPSP,2018-03-21T14:53:00Z,33.82,-116.5,18.3,0.6,250,4,,10.0,29.958662,1014.4,,,TRUE,,,,,,,CLR,,,,,,,,VFR,1.7,,,,,,,,,,,METAR,135.0
KPSC 211453Z 34003KT 10SM BKN100 03/00 A2979 RMK AO2 SLP090 T00280000 55001,KPSC,2018-03-21T14:53:00Z,46.27,-119.12,2.8,0.0,340,3,,10.0,29.790354,1009.0,,,TRUE,,,,,,,BKN,10000,,,,,,,VFR,-0.1,,,,,,,,,,,METAR,121.0
KPRC 211453Z 19004KT 10SM CLR 09/M07 A3007 RMK AO2 SLP141 T00941067 53010,KPRC,2018-03-21T14:53:00Z,34.65,-112.42,9.4,-6.7,190,4,,10.0,30.070866,1014.1,,,TRUE,,,,,,,CLR,,,,,,,,VFR,1.0,,,,,,,,,,,METAR,1524.0
KPRB 211453Z AUTO 04005KT 1 1/2SM RA BR SCT013 OVC036 12/12 A2988 RMK AO2 SLP116 P0012 60026 T01220122 58005,KPRB,2018-03-21T14:53:00Z,35.67,-120.63,12.2,12.2,40,5,,1.5,29.878937,1011.6,,TRUE,TRUE,,,,,,RA BR,SCT,1300,OVC,3600,,,,,IFR,-0.5,,,,,0.12,0.26,,,,,METAR,245.0
KPQL 211453Z VRB04KT 10SM CLR 14/03 A3013 RMK AO2 SLP205 T01390033 51024,KPQL,2018-03-21T14:53:00Z,30.47,-88.53,13.9,3.3,0,4,,10.0,30.129921,1020.5,,,TRUE,,,,,,,CLR,,,,,,,,VFR,2.4,,,,,,,,,,,METAR,6.0
KPOU 211453Z 36011KT 10SM OVC075 M01/M10 A2975 RMK AO2 SLP072 T10061100 58002,KPOU,2018-03-21T14:53:00Z,41.63,-73.88,-0.6,-10.0,360,11,,10.0,29.749016,1007.2,,,TRUE,,,,,,,OVC,7500,,,,,,,VFR,-0.2,,,,,,,,,,,METAR,46.0
KPOF 211453Z AUTO 33010KT 10SM OVC029 05/M01 A3012 RMK AO2 SLP203 T00501006 51029,KPOF,2018-03-21T14:53:00Z,36.77,-90.32,5.0,-0.6,330,10,,10.0,30.121063,1020.3,,TRUE,TRUE,,,,,,,OVC,2900,,,,,,,MVFR,2.9,,,,,,,,,,,METAR,99.0
KPNS 211453Z 31009KT 10SM CLR 14/06 A3009 RMK AO2 SLP190 T01440056 51023,KPNS,2018-03-21T14:53:00Z,30.48,-87.18,14.4,5.6,310,9,,10.0,30.088583,1019.0,,,TRUE,,,,,,,CLR,,,,,,,,VFR,2.3,,,,,,,,,,,METAR,38.0
KPNC 211453Z AUTO 11004KT 10SM CLR 07/01 A3023 RMK AO2 SLP238 T00720006 51023,KPNC,2018-03-21T14:53:00Z,36.73,-97.1,7.2,0.6,110,4,,10.0,30.230314,1023.8,,TRUE,TRUE,,,,,,,CLR,,,,,,,,VFR,2.3,,,,,,,,,,,METAR,308.0
KPMP 211453Z 30014G21KT 10SM BKN060 23/14 A2997 RMK AO2 SLP149 T02280139 51020,KPMP,2018-03-21T14:53:00Z,26.25,-80.12,22.8,13.9,300,14,21,10.0,29.970472,1014.9,,,TRUE,,,,,,,BKN,6000,,,,,,,VFR,2.0,,,,,,,,,,,METAR,6.0
KPMD 211453Z AUTO 09003G17KT 10SM -RA OVC055 09/07 A3002 RMK AO2 SLP161 P0009 60014 T00940072 50014,KPMD,2018-03-21T14:53:00Z,34.63,-118.08,9.4,7.2,90,3,17,10.0,30.02067,1016.1,,TRUE,TRUE,,,,,,-RA,OVC,5500,,,,,,,VFR,1.4,,,,,0.09,0.14,,,,,METAR,780.0
KPKD 211453Z AUTO 13007KT 10SM BKN010 OVC019 M04/M07 A3011 RMK AO2 SLP218 T10391067 51013,KPKD,2018-03-21T14:53:00Z,46.9,-95.07,-3.9,-6.7,130,7,,10.0,30.109253,1021.8,,TRUE,TRUE,,,,,,,BKN,1000,OVC,1900,,,,,MVFR,1.3,,,,,,,,,,,METAR,442.0
KPKB 211453Z 03008KT 1SM -SN BR SCT007 BKN009 OVC021 M01/M02 A2970 RMK AO2 SLP064 P0001 60003 T10061022 53021,KPKB,2018-03-21T14:53:00Z,39.35,-81.42,-0.6,-2.2,30,8,,1.0,29.698818,1006.4,,,TRUE,,,,,,-SN BR,SCT,700,BKN,900,OVC,2100,,,IFR,2.1,,,,,0.01,0.03,,,,,METAR,262.0
KPIR 211453Z AUTO 22003KT 10SM CLR 01/M02 A3003 RMK AO2 SLP187 I3000 T00061017 53006,KPIR,2018-03-21T14:53:00Z,44.38,-100.28,0.6,-1.7,220,3,,10.0,30.029528,1018.7,,TRUE,TRUE,,,,,,,CLR,,,,,,,,VFR,0.6,,,,,,,,,,,METAR,526.0
KPIL 211453Z AUTO 09014KT 10SM CLR 23/12 A3014 RMK AO2 SLP205 T02280117 51024,KPIL,2018-03-21T14:53:00Z,26.17,-97.33,22.8,11.7,90,14,,10.0,30.138779,1020.5,,TRUE,TRUE,,,,,,,CLR,,,,,,,,VFR,2.4,,,,,,,,,,,METAR,5.0
KPIH 211453Z 17005KT 10SM BKN055 03/00 A2995 RMK AO2 SLP150 T00330000 51006,KPIH,2018-03-21T14:53:00Z,42.92,-112.57,3.3,0.0,170,5,,10.0,29.949802,1015.0,,,TRUE,,,,,,,BKN,5500,,,,,,,VFR,0.6,,,,,,,,,,,METAR,1359.0
KPIE 211453Z 32023G29KT 10SM FEW035 18/08 A3003 RMK AO2 PK WND 32029/1453 SLP168 T01830083 51030,KPIE,2018-03-21T14:53:00Z,27.92,-82.68,18.3,8.3,320,23,29,10.0,30.029528,1016.8,,,TRUE,,,,,,,FEW,3500,,,,,,,VFR,3.0,,,,,,,,,,,METAR,4.0
KPHD 211453Z AUTO 03007KT 3SM -SN SCT016 BKN020 OVC030 00/M03 A2975 RMK AO2 SLP082 P0000 60001 T00001033 53013,KPHD,2018-03-21T14:53:00Z,40.47,-81.42,0.0,-3.3,30,7,,3.0,29.749016,1008.2,,TRUE,TRUE,,,,,,-SN,SCT,1600,BKN,2000,OVC,3000,,,MVFR,1.3,,,,,0.005,0.01,,,,,METAR,272.0
KPGD 211453Z 31012G22KT 10SM BKN039 BKN045 19/11 A3003 RMK AO2 SLP169 T01940106 51028 $,KPGD,2018-03-21T14:53:00Z,26.92,-82.0,19.4,10.6,310,12,22,10.0,30.029528,1016.9,,,TRUE,TRUE,,,,,,BKN,3900,BKN,4500,,,,,VFR,2.8,,,,,,,,,,,METAR,7.0
KTLH 211453Z 32016G26KT 10SM FEW050 14/00 A3003 RMK AO2 PK WND 29026/1449 SLP167 T01390000 51019,KTLH,2018-03-21T14:53:00Z,30.4,-84.35,13.9,0.0,320,16,26,10.0,30.029528,1016.7,,,TRUE,,,,,,,FEW,5000,,,,,,,VFR,1.9,,,,,,,,,,,METAR,19.0
KTKI 211453Z 06004KT 10SM CLR 12/04 A3022 RMK AO2 SLP240 T01220039 52027,KTKI,2018-03-21T14:53:00Z,33.18,-96.58,12.2,3.9,60,4,,10.0,30.221457,1024.0,,,TRUE,,,,,,,CLR,,,,,,,,VFR,2.7,,,,,,,,,,,METAR,179.0
KTIW 211453Z 00000KT M1/4SM FG VV002 03/03 A2976 RMK AO2 SLP079 T00280028 56005,KTIW,2018-03-21T14:53:00Z,47.27,-122.58,2.8,2.8,0,0,,0.25,29.760826,1007.9,,,TRUE,,,,,,FG,OVX,0,,,,,,,LIFR,-0.5,,,,,,,,,,200,METAR,89.0
KTHV 211453Z AUTO 01006KT 1/4SM SN FZFG FEW004 OVC008 M01/M02 A2968 RMK AO2 SLP058 P0000 60000 T10111022 53009,KTHV,2018-03-21T14:53:00Z,39.92,-76.88,-1.1,-2.2,10,6,,0.25,29.681103,1005.8,,TRUE,TRUE,,,,,,SN FZFG,FEW,400,OVC,800,,,,,LIFR,0.9,,,,,0.005,0.005,,,,,METAR,144.0
KTDZ 211453Z AUTO 03012G23KT 10SM BKN050 BKN070 BKN085 01/M07 A2990 RMK AO2 SLP131 60000 T00061067 51023,KTDZ,2018-03-21T14:53:00Z,41.57,-83.48,0.6,-6.7,30,12,23,10.0,29.899607,1013.1,,TRUE,TRUE,,,,,,,BKN,5000,BKN,7000,BKN,8500,,,VFR,2.3,,,,,,0.005,,,,,METAR,189.0
KTCS 211453Z AUTO 36003KT 10SM CLR 11/M11 A3009 RMK AO2 SLP144 T01061111 53012,KTCS,2018-03-21T14:53:00Z,33.23,-107.27,10.6,-11.1,360,3,,10.0,30.088583,1014.4,,TRUE,TRUE,,,,,,,CLR,,,,,,,,VFR,1.2,,,,,,,,,,,METAR,1469.0
KTCL 211453Z 32011KT 10SM CLR 09/01 A3009 RMK AO2 SLP188 T00940011 51025,KTCL,2018-03-21T14:53:00Z,33.22,-87.62,9.4,1.1,320,11,,10.0,30.088583,1018.8,,,TRUE,,,,,,,CLR,,,,,,,,VFR,2.5,,,,,,,,,,,METAR,49.0
KTCC 211453Z AUTO 03008KT 10SM CLR 06/M06 A3011 RMK AO2 SLP179 T00611056 53018,KTCC,2018-03-21T14:53:00Z,35.18,-103.6,6.1,-5.6,30,8,,10.0,30.109253,1017.9,,TRUE,TRUE,,,,,,,CLR,,,,,,,,VFR,1.8,,,,,,,,,,,METAR,1235.0
KSWO 211453Z 11006KT 10SM CLR 08/01 A3023 RMK AO2 SLP236 T00830011 53023,KSWO,2018-03-21T14:53:00Z,36.17,-97.08,8.3,1.1,110,6,,10.0,30.230314,1023.6,,,TRUE,,,,,,,CLR,,,,,,,,VFR,2.3,,,,,,,,,,,METAR,290.0
KSTS 211453Z 00000KT 2SM -RA BR BKN003 BKN012 OVC017 11/11 A2979 RMK AO2 SLP080 P0001 60011 T01110111 58005,KSTS,2018-03-21T14:53:00Z,38.5,-122.82,11.1,11.1,0,0,,2.0,29.790354,1008.0,,,TRUE,,,,,,-RA BR,BKN,300,BKN,1200,OVC,1700,,,LIFR,-0.5,,,,,0.01,0.11,,,,,METAR,39.0
KSTP 211453Z 00000KT 10SM OVC060 M03/M06 A3018 RMK AO2 SLP229 T10331061 51010,KSTP,2018-03-21T14:53:00Z,44.93,-93.05,-3.3,-6.1,0,0,,10.0,30.180119,1022.9,,,TRUE,,,,,,,OVC,6000,,,,,,,VFR,1.0,,,,,,,,,,,METAR,219.0
KSTJ 211453Z 31007KT 9SM SCT013 03/00 A3022 RMK AO2 SLP240 T00280000 51017,KSTJ,2018-03-21T14:53:00Z,39.77,-94.92,2.8,0.0,310,7,,9.0,30.221457,1024.0,,,TRUE,,,,,,,SCT,1300,,,,,,,VFR,1.7,,,,,,,,,,,METAR,247.0
KSTC 211453Z 10004KT 10SM BKN035 OVC055 M04/M07 A3016 RMK AO2 SNB08E41 SLP237 P0000 60000 T10391067 51012,KSTC,2018-03-21T14:53:00Z,45.55,-94.05,-3.9,-6.7,100,4,,10.0,30.159449,1023.7,,,TRUE,,,,,,,BKN,3500,OVC,5500,,,,,VFR,1.2,,,,,0.005,0.005,,,,,METAR,314.0
KOPF 211453Z 30016KT 10SM SCT029 SCT050 23/15 A2999 RMK AO2 SLP155 T02280150 51023,KOPF,2018-03-21T14:53:00Z,25.92,-80.28,22.8,15.0,300,16,,10.0,29.991142,1015.5,,,TRUE,,,,,,,SCT,2900,SCT,5000,,,,,VFR,2.3,,,,,,,,,,,METAR,16.0
KONT 211453Z 03004KT 10SM BKN050 BKN080 OVC110 14/06 A3001 RMK AO2 SLP156 T01440061 51020,KONT,2018-03-21T14:53:00Z,34.05,-117.58,14.4,6.1,30,4,,10.0,30.008858,1015.6,,,TRUE,,,,,,,BKN,5000,BKN,8000,OVC,11000,,,VFR,2.0,,,,,,,,,,,METAR,274.0
KONO 211453Z AUTO 14007KT 10SM OVC070 09/01 A2986 RMK AO2 SLP117 T00890011 50005 TSNO,KONO,2018-03-21T14:53:00Z,44.02,-117.02,8.9,1.1,140,7,,10.0,29.861221,1011.7,,TRUE,TRUE,,,TRUE,,,,OVC,7000,,,,,,,VFR,0.5,,,,,,,,,,,METAR,667.0
KOMK 211453Z AUTO 32003KT 10SM CLR 00/M02 A2981 RMK AO2 SLP104 T00001017 55004,KOMK,2018-03-21T14:53:00Z,48.47,-119.52,0.0,-1.7,320,3,,10.0,29.811024,1010.4,,TRUE,TRUE,,,,,,,CLR,,,,,,,,VFR,-0.4,,,,,,,,,,,METAR,395.0
KOLF 211453Z AUTO 06003KT 1/4SM FZFG VV002 M06/M08 A2998 RMK AO2 SLP180 I1000 I3000 T10611078 53005,KOLF,2018-03-21T14:53:00Z,48.1,-105.58,-6.1,-7.8,60,3,,0.25,29.97933,1018.0,,TRUE,TRUE,,,,,,FZFG,OVX,0,,,,,,,LIFR,0.5,,,,,,,,,,200,METAR,604.0
KOJC 211453Z 36007KT 10SM CLR 03/M01 A3020 RMK AO2 SLP232 T00281011 51028,KOJC,2018-03-21T14:53:00Z,38.85,-94.73,2.8,-1.1,360,7,,10.0,30.200787,1023.2,,,TRUE,,,,,,,CLR,,,,,,,,VFR,2.8,,,,,,,,,,,METAR,326.0
KOGD 211453Z 07009KT 10SM OVC080 07/01 A2996 RMK AO2 SLP130 60000 T00720006 53005,KOGD,2018-03-21T14:53:00Z,41.2,-112.02,7.2,0.6,70,9,,10.0,29.958662,1013.0,,,TRUE,,,,,,,OVC,8000,,,,,,,VFR,0.5,,,,,,0.005,,,,,METAR,1353.0
KOGB 211453Z AUTO 29020G28KT 10SM SCT043 09/M02 A2976 RMK AO2 PK WND 26030/1438 SLP075 T00941022 51029,KOGB,2018-03-21T14:53:00Z,33.47,-80.85,9.4,-2.2,290,20,28,10.0,29.760826,1007.5,,TRUE,TRUE,,,,,,,SCT,4300,,,,,,,VFR,2.9,,,,,,,,,,,METAR,59.0
KODO 211453Z AUTO 18010KT 10SM CLR 14/M03 A3007 RMK AO2 SLP158 T01391033 51012,KODO,2018-03-21T14:53:00Z,31.92,-102.4,13.9,-3.3,180,10,,10.0,30.070866,1015.8,,TRUE,TRUE,,,,,,,CLR,,,,,,,,VFR,1.2,,,,,,,,,,,METAR,902.0
KOAK 211453Z 14012KT 10SM OVC023 14/13 A2980 RMK AO2 SLP091 60000 T01390128 55000,KOAK,2018-03-21T14:53:00Z,37.72,-122.23,13.9,12.8,140,12,,10.0,29.799213,1009.1,,,TRUE,,,,,,,OVC,2300,,,,,,,MVFR,0.0,,,,,,0.005,,,,,METAR,26.0
KNEW 211453Z 32013KT 10SM CLR 16/06 A3018 RMK AO2 SLP212 T01560061 51023,KNEW,2018-03-21T14:53:00Z,30.05,-90.03,15.6,6.1,320,13,,10.0,30.180119,1021.2,,,TRUE,,,,,,,CLR,,,,,,,,VFR,2.3,,,,,,,,,,,METAR,3.0
KMYV 211453Z AUTO 00000KT 1 1/2SM BR OVC004 12/11 A2985 RMK AO2 RAB1356E46 CIG 003V007 SLP113 P0008 60010 T01170106 55001,KMYV,2018-03-21T14:53:00Z,39.1,-121.57,11.7,10.6,0,0,,1.5,29.84941,1011.3,,TRUE,TRUE,,,,,,BR,OVC,400,,,,,,,LIFR,-0.1,,,,,0.08,0.1,,,,,METAR,21.0
KMYF 211453Z 33003KT 10SM CLR 14/06 A3000 RMK AO2 SLP157 T01440061 53015,KMYF,2018-03-21T14:53:00Z,32.82,-117.13,14.4,6.1,330,3,,10.0,30.0,1015.7,,,TRUE,,,,,,,CLR,,,,,,,,VFR,1.5,,,,,,,,,,,METAR,136.0
KSGR 211453Z 08007KT 10SM CLR 19/04 A3020 RMK AO2 SLP226 T01890039 53021,KSGR,2018-03-21T14:53:00Z,29.62,-95.65,18.9,3.9,80,7,,10.0,30.200787,1022.6,,,TRUE,,,,,,,CLR,,,,,,,,VFR,2.1,,,,,,,,,,,METAR,2.0
KSFF 211453Z 00000KT 9SM FEW040 FEW090 01/M01 A2982 RMK AO2 SLP110 T00061011 55003,KSFF,2018-03-21T14:53:00Z,47.68,-117.32,0.6,-1.1,0,0,,9.0,29.819881,1011.0,,,TRUE,,,,,,,FEW,4000,FEW,9000,,,,,VFR,-0.3,,,,,,,,,,,METAR,609.0
KSFB 211453Z 29016G25KT 10SM CLR 17/06 A2996 RMK AO2 PK WND 28031/1410 RAE48 SLP145 P0000 60000 T01720056 51024,KSFB,2018-03-21T14:53:00Z,28.77,-81.22,17.2,5.6,290,16,25,10.0,29.958662,1014.5,,,TRUE,,,,,,,CLR,,,,,,,,VFR,2.4,,,,,0.005,0.005,,,,,METAR,17.0
KSEG 211453Z AUTO 02007KT 1/2SM SN FZFG VV014 M01/M03 A2971 RMK AO2 SLP064 P0000 60002 T10111033 55000,KSEG,2018-03-21T14:53:00Z,40.82,-76.87,-1.1,-3.3,20,7,,0.5,29.71063,1006.4,,TRUE,TRUE,,,,,,SN FZFG,OVX,0,,,,,,,LIFR,0.0,,,,,0.005,0.02,,,,1400,METAR,134.0
KSDM 211453Z 11003KT 10SM CLR 13/07 A3000 RMK AO2 SLP155 T01330067 53014,KSDM,2018-03-21T14:53:00Z,32.58,-117.0,13.3,6.7,110,3,,10.0,30.0,1015.5,,,TRUE,,,,,,,CLR,,,,,,,,VFR,1.4,,,,,,,,,,,METAR,159.0
KSDL 211453Z 00000KT 10SM CLR 15/M03 A2999 RMK AO2 SLP139 T01501028 53013,KSDL,2018-03-21T14:53:00Z,33.62,-111.92,15.0,-2.8,0,0,,10.0,29.991142,1013.9,,,TRUE,,,,,,,CLR,,,,,,,,VFR,1.3,,,,,,,,,,,METAR,447.0
KSBM 211453Z AUTO 01011KT 10SM CLR 00/M07 A3010 RMK AO2 SLP204 T00001072 51010 TSNO,KSBM,2018-03-21T14:53:00Z,43.78,-87.85,0.0,-7.2,10,11,,10.0,30.100393,1020.4,,TRUE,TRUE,,,TRUE,,,,CLR,,,,,,,,VFR,1.0,,,,,,,,,,,METAR,232.0
KSBA 211453Z 08007KT 10SM -RA SCT025 BKN032 OVC041 13/11 A2997 RMK AO2 SLP149 MTN TOPS OBSC N P0005 60037 T01280111 58007,KSBA,2018-03-21T14:53:00Z,34.43,-119.85,12.8,11.1,80,7,,10.0,29.970472,1014.9,,,TRUE,,,,,,-RA,SCT,2500,BKN,3200,OVC,4100,,,VFR,-0.7,,,,,0.05,0.37,,,,,METAR,3.0
KSAV 211453Z 27018G29KT 10SM FEW042 SCT250 13/02 A2981 RMK AO2 PK WND 27030/1413 SLP095 T01330017 51017,KSAV,2018-03-21T14:53:00Z,32.12,-81.2,13.3,1.7,270,18,29,10.0,29.811024,1009.5,,,TRUE,,,,,,,FEW,4200,SCT,25000,,,,,VFR,1.7,,,,,,,,,,,METAR,14.0
KSAF 211453Z 01013KT 10SM SCT085 05/M12 A3012 RMK AO2 SLP165 T00501117 53012,KSAF,2018-03-21T14:53:00Z,35.62,-106.1,5.0,-11.7,10,13,,10.0,30.121063,1016.5,,,TRUE,,,,,,,SCT,8500,,,,,,,VFR,1.2,,,,,,,,,,,METAR,1930.0
KRXE 211453Z AUTO 00000KT 10SM BKN045 OVC050 00/M02 A2996 RMK AO2 SLP165 T00001017 53003,KRXE,2018-03-21T14:53:00Z,43.83,-111.8,0.0,-1.7,0,0,,10.0,29.958662,1016.5,,TRUE,TRUE,,,,,,,BKN,4500,OVC,5000,,,,,VFR,0.3,,,,,,,,,,,METAR,1480.0
KRWL 211453Z AUTO 00000KT 10SM FEW070 01/M04 A3002 RMK AO2 SLP163 T00061039 53005 $,KRWL,2018-03-21T14:53:00Z,41.78,-107.2,0.6,-3.9,0,0,,10.0,30.02067,1016.3,,TRUE,TRUE,TRUE,,,,,,FEW,7000,,,,,,,VFR,0.5,,,,,,,,,,,METAR,2077.0
KRWI 211453Z AUTO 32007KT 5SM -SN BR FEW008 BKN011 OVC023 02/01 A2965 RMK AO2 UPB31E38SNB38 SLP042 P0000 60000 T00220006 50009,KRWI,2018-03-21T14:53:00Z,35.85,-77.9,2.2,0.6,320,7,,5.0,29.648623,1004.2,,TRUE,TRUE,,,,,,-SN BR,FEW,800,BKN,1100,OVC,2300,,,MVFR,0.9,,,,,0.005,0.005,,,,,METAR,47.0
KRWF 211453Z AUTO 15006KT 8SM FEW008 BKN012 OVC017 M01/M02 A3014 RMK AO2 SLP220 T10111017 52004,KRWF,2018-03-21T14:53:00Z,44.55,-95.08,-1.1,-1.7,150,6,,8.0,30.138779,1022.0,,TRUE,TRUE,,,,,,,FEW,800,BKN,1200,OVC,1700,,,MVFR,0.4,,,,,,,,,,,METAR,311.0
KRVS 211453Z 04003KT 10SM CLR 08/M01 A3025 RMK AO2 SLP250 T00781006 52025,KRVS,2018-03-21T14:53:00Z,36.05,-95.98,7.8,-0.6,40,3,,10.0,30.250984,1025.0,,,TRUE,,,,,,,CLR,,,,,,,,VFR,2.5,,,,,,,,,,,METAR,200.0
KRUE 211453Z AUTO 35007KT 10SM CLR 09/01 A3018 RMK AO2 SLP217 T00890006 51025,KRUE,2018-03-21T14:53:00Z,35.25,-93.1,8.9,0.6,350,7,,10.0,30.180119,1021.7,,TRUE,TRUE,,,,,,,CLR,,,,,,,,VFR,2.5,,,,,,,,,,,METAR,115.0
KRTN 211453Z AUTO 05007KT 10SM CLR M01/M12 A3015 RMK AO2 SLP205 T10111122 51014,KRTN,2018-03-21T14:53:00Z,36.73,-104.5,-1.1,-12.2,50,7,,10.0,30.15059,1020.5,,TRUE,TRUE,,,,,,,CLR,,,,,,,,VFR,1.4,,,,,,,,,,,METAR,1936.0
KRSW 211453Z 32010G16KT 10SM BKN034 BKN042 21/13 A3000 RMK AO2 SLP158 T02060133 51025,KRSW,2018-03-21T14:53:00Z,26.53,-81.75,20.6,13.3,320,10,16,10.0,30.0,1015.8,,,TRUE,,,,,,,BKN,3400,BKN,4200,,,,,VFR,2.5,,,,,,,,,,,METAR,10.0
KRQE 211453Z AUTO 25003KT 10SM SCT100 04/M04 A3011 RMK AO2 SLP149 T00391044 51007 TSNO,KRQE,2018-03-21T14:53:00Z,35.65,-109.07,3.9,-4.4,250,3,,10.0,30.109253,1014.9,,TRUE,TRUE,,,TRUE,,,,SCT,10000,,,,,,,VFR,0.7,,,,,,,,,,,METAR,2055.0
KRNT 211453Z 00000KT 10SM CLR 02/00 A2977 RMK AO2 SLP085 T00170000 56009,KRNT,2018-03-21T14:53:00Z,47.5,-122.22,1.7,0.0,0,0,,10.0,29.769686,1008.5,,,TRUE,,,,,,,CLR,,,,,,,,VFR,-0.9,,,,,,,,,,,METAR,21.0
KRNM 211453Z 00000KT 10SM CLR 09/07 A3001 RMK AO2 SLP159 T00890067 53013,KRNM,2018-03-21T14:53:00Z,33.03,-116.92,8.9,6.7,0,0,,10.0,30.008858,1015.9,,,TRUE,,,,,,,CLR,,,,,,,,VFR,1.3,,,,,,,,,,,METAR,427.0
KRMG 211453Z AUTO 30011G18KT 10SM OVC033 05/M01 A2993 RMK AO2 SLP134 T00501011 53027,KRMG,2018-03-21T14:53:00Z,34.35,-85.17,5.0,-1.1,300,11,18,10.0,29.929134,1013.4,,TRUE,TRUE,,,,,,,OVC,3300,,,,,,,VFR,2.7,,,,,,,,,,,METAR,193.0
KRME 211453Z 00000KT 10SM CLR M02/M11 A2986 RMK AO2 SLP116 T10221106 50002,KRME,2018-03-21T14:53:00Z,43.22,-75.4,-2.2,-10.6,0,0,,10.0,29.861221,1011.6,,,TRUE,,,,,,,CLR,,,,,,,,VFR,0.2,,,,,,,,,,,METAR,154.0
KRKP 211453Z AUTO 11011KT 10SM CLR 20/10 A3016 RMK AO2 SLP216 T02000100 51023,KRKP,2018-03-21T14:53:00Z,28.08,-97.05,20.0,10.0,110,11,,10.0,30.159449,1021.6,,TRUE,TRUE,,,,,,,CLR,,,,,,,,VFR,2.3,,,,,,,,,,,METAR,6.0
KRIW 211453Z AUTO 11003KT 10SM CLR 01/M12 A2996 RMK AO2 SLP154 T00111117 50001,KRIW,2018-03-21T14:53:00Z,43.07,-108.47,1.1,-11.7,110,3,,10.0,29.958662,1015.4,,TRUE,TRUE,,,,,,,CLR,,,,,,,,VFR,0.1,,,,,,,,,,,METAR,1697.0
KRIL 211453Z AUTO 16004KT 10SM BKN065 OVC080 02/M06 A3011 RMK AO2 SLP196 T00171061 53009,KRIL,2018-03-21T14:53:00Z,39.53,-107.73,1.7,-6.1,160,4,,10.0,30.109253,1019.6,,TRUE,TRUE,,,,,,,BKN,6500,OVC,8000,,,,,VFR,0.9,,,,,,,,,,,METAR,1678.0
KRHI 211453Z AUTO 11004KT 10SM CLR M06/M11 A3012 RMK AO2 SLP226 T10611106 51013,KRHI,2018-03-21T14:53:00Z,45.63,-89.48,-6.1,-10.6,110,4,,10.0,30.121063,1022.6,,TRUE,TRUE,,,,,,,CLR,,,,,,,,VFR,1.3,,,,,,,,,,,METAR,485.0
KELY 211453Z AUTO 21012KT 10SM CLR 03/M03 A2998 RMK AO2 SLP127 T00331028 51006 TSNO $,KELY,2018-03-21T14:53:00Z,39.3,-114.85,3.3,-2.8,210,12,,10.0,29.97933,1012.7,,TRUE,TRUE,TRUE,,TRUE,,,,CLR,,,,,,,,VFR,0.6,,,,,,,,,,,METAR,1906.0
KELN 211453Z AUTO 01003KT 10SM BKN080 OVC110 00/M03 A2977 RMK AO2 SLP090 T00001033 57003,KELN,2018-03-21T14:53:00Z,47.03,-120.53,0.0,-3.3,10,3,,10.0,29.769686,1009.0,,TRUE,TRUE,,,,,,,BKN,8000,OVC,11000,,,,,VFR,-0.3,,,,,,,,,,,METAR,519.0
KELM 211453Z 02009KT 10SM CLR M01/M09 A2978 RMK AO2 SLP093 T10111094 53001,KELM,2018-03-21T14:53:00Z,42.15,-76.9,-1.1,-9.4,20,9,,10.0,29.778543,1009.3,,,TRUE,,,,,,,CLR,,,,,,,,VFR,0.1,,,,,,,,,,,METAR,302.0
KELD 211453Z AUTO 33009G14KT 10SM CLR 12/04 A3021 RMK AO2 SLP228 T01170039 52025,KELD,2018-03-21T14:53:00Z,33.22,-92.82,11.7,3.9,330,9,14,10.0,30.209646,1022.8,,TRUE,TRUE,,,,,,,CLR,,,,,,,,VFR,2.5,,,,,,,,,,,METAR,81.0
KEET 211453Z AUTO 31012KT 10SM OVC075 07/00 A3005 RMK AO2 SLP175 T00670000 51027,KEET,2018-03-21T14:53:00Z,33.18,-86.78,6.7,0.0,310,12,,10.0,30.050198,1017.5,,TRUE,TRUE,,,,,,,OVC,7500,,,,,,,VFR,2.7,,,,,,,,,,,METAR,173.0
KEEO 211453Z AUTO VRB04KT 10SM BKN060 OVC070 03/M04 A3007 RMK AO2 SLP171 T00281044 53010,KEEO,2018-03-21T14:53:00Z,40.05,-107.88,2.8,-4.4,0,4,,10.0,30.070866,1017.1,,TRUE,TRUE,,,,,,,BKN,6000,OVC,7000,,,,,VFR,1.0,,,,,,,,,,,METAR,1930.0
KECP 211453Z 30008KT 10SM CLR 13/06 A3006 RMK AO2 SLP190 T01330061 51018,KECP,2018-03-21T14:53:00Z,30.35,-85.8,13.3,6.1,300,8,,10.0,30.059055,1019.0,,,TRUE,,,,,,,CLR,,,,,,,,VFR,1.8,,,,,,,,,,,METAR,21.0
KDXR 211453Z 03011G17KT 1 3/4SM -SN BKN025 OVC033 M01/M05 A2972 RMK AO2 SNB04 SLP066 P0000 60000 T10061050 58002,KDXR,2018-03-21T14:53:00Z,41.37,-73.48,-0.6,-5.0,30,11,17,1.75,29.719488,1006.6,,,TRUE,,,,,,-SN,BKN,2500,OVC,3300,,,,,IFR,-0.2,,,,,0.005,0.005,,,,,METAR,139.0
KDWH 211453Z 11003KT 10SM CLR 15/07 A3021 RMK AO2 SLP229 T01500067 51026,KDWH,2018-03-21T14:53:00Z,30.07,-95.55,15.0,6.7,110,3,,10.0,30.209646,1022.9,,,TRUE,,,,,,,CLR,,,,,,,,VFR,2.6,,,,,,,,,,,METAR,46.0
KDVT 211453Z 07004KT 10SM CLR 17/M09 A2997 RMK AO2 SLP133 T01721094 53013,KDVT,2018-03-21T14:53:00Z,33.68,-112.07,17.2,-9.4,70,4,,10.0,29.970472,1013.3,,,TRUE,,,,,,,CLR,,,,,,,,VFR,1.3,,,,,,,,,,,METAR,443.0
KDTW 211453Z 02015KT 10SM OVC100 02/M12 A2992 RMK AO2 SLP139 T00171122 51018,KDTW,2018-03-21T14:53:00Z,42.23,-83.33,1.7,-12.2,20,15,,10.0,29.920275,1013.9,,,TRUE,,,,,,,OVC,10000,,,,,,,VFR,1.8,,,,,,,,,,,METAR,195.0
KDTS 211453Z 28005KT 10SM CLR 16/06 A3007 RMK AO2 SLP181 T01560056 51016,KDTS,2018-03-21T14:53:00Z,30.4,-86.47,15.6,5.6,280,5,,10.0,30.070866,1018.1,,,TRUE,,,,,,,CLR,,,,,,,,VFR,1.6,,,,,,,,,,,METAR,5.0
KDTO 211453Z 10008KT 10SM CLR 13/01 A3022 RMK AO2 SLP231 T01330011 51028,KDTO,2018-03-21T14:53:00Z,33.2,-97.2,13.3,1.1,100,8,,10.0,30.221457,1023.1,,,TRUE,,,,,,,CLR,,,,,,,,VFR,2.8,,,,,,,,,,,METAR,196.0
KDTN 211453Z 36005KT 10SM CLR 13/05 A3021 RMK AO2 SLP229 T01330050 53024,KDTN,2018-03-21T14:53:00Z,32.55,-93.75,13.3,5.0,360,5,,10.0,30.209646,1022.9,,,TRUE,,,,,,,CLR,,,,,,,,VFR,2.4,,,,,,,,,,,METAR,53.0
KDRT 211453Z AUTO 12011KT 10SM CLR 17/07 A3013 RMK AO2 SLP191 T01720067 $,KDRT,2018-03-21T14:53:00Z,29.37,-100.92,17.2,6.7,120,11,,10.0,30.129921,1019.1,,TRUE,TRUE,TRUE,,,,,,CLR,,,,,,,,VFR,,,,,,,,,,,,METAR,313.0
KDRO 211453Z AUTO 07004KT 10SM OVC095 M01/M06 A3012 RMK AO2 SLP213 T10111061 50009,KDRO,2018-03-21T14:53:00Z,37.15,-107.77,-1.1,-6.1,70,4,,10.0,30.121063,1021.3,,TRUE,TRUE,,,,,,,OVC,9500,,,,,,,VFR,0.9,,,,,,,,,,,METAR,2035.0
KDNL 211453Z AUTO 29014G25KT 10SM BKN041 08/M02 A2981 RMK AO2 PK WND 31029/1401 SLP093 T00831017 51021,KDNL,2018-03-21T14:53:00Z,33.47,-82.03,8.3,-1.7,290,14,25,10.0,29.811024,1009.3,,TRUE,TRUE,,,,,,,BKN,4100,,,,,,,VFR,2.1,,,,,,,,,,,METAR,130.0
KDMO 211453Z AUTO 32009KT 10SM BKN014 OVC042 04/02 A3019 RMK AO2 SLP229 T00390022 53019,KDMO,2018-03-21T14:53:00Z,38.72,-93.17,3.9,2.2,320,9,,10.0,30.188976,1022.9,,TRUE,TRUE,,,,,,,BKN,1400,OVC,4200,,,,,MVFR,1.9,,,,,,,,,,,METAR,274.0
KDMN 211453Z AUTO 20003KT 10SM CLR 09/M09 A3008 RMK AO2 SLP147 T00941094 53009,KDMN,2018-03-21T14:53:00Z,32.27,-107.72,9.4,-9.4,200,3,,10.0,30.079725,1014.7,,TRUE,TRUE,,,,,,,CLR,,,,,,,,VFR,0.9,,,,,,,,,,,METAR,1311.0
KDLS 211453Z AUTO 00000KT 10SM BKN110 04/02 A2977 RMK AO2 SLP081 T00440017 56004,KDLS,2018-03-21T14:53:00Z,45.62,-121.17,4.4,1.7,0,0,,10.0,29.769686,1008.1,,TRUE,TRUE,,,,,,,BKN,11000,,,,,,,VFR,-0.4,,,,,,,,,,,METAR,71.0
KDLN 211453Z AUTO 16003KT 10SM OVC055 M01/M04 A2989 RMK AO2 SLP142 T10111039 55003,KDLN,2018-03-21T14:53:00Z,45.25,-112.55,-1.1,-3.9,160,3,,10.0,29.890747,1014.2,,TRUE,TRUE,,,,,,,OVC,5500,,,,,,,VFR,-0.3,,,,,,,,,,,METAR,1591.0
KDKK 211453Z AUTO 03012G22KT 10SM CLR M02/M06 A2985 RMK AO2 SLP116 T10171056 53005,KDKK,2018-03-21T14:53:00Z,42.5,-79.28,-1.7,-5.6,30,12,22,10.0,29.84941,1011.6,,TRUE,TRUE,,,,,,,CLR,,,,,,,,VFR,0.5,,,,,,,,,,,METAR,202.0
KDHT 211453Z AUTO 04004KT 10SM CLR 06/M04 A3013 RMK AO2 SLP200 T00561039 51012,KDHT,2018-03-21T14:53:00Z,36.02,-102.55,5.6,-3.9,40,4,,10.0,30.129921,1020.0,,TRUE,TRUE,,,,,,,CLR,,,,,,,,VFR,1.2,,,,,,,,,,,METAR,1217.0
KDHN 211453Z 32019KT 10SM CLR 12/M01 A3006 RMK AO2 PK WND 32028/1439 SLP178 T01171006 51018,KDHN,2018-03-21T14:53:00Z,31.32,-85.45,11.7,-0.6,320,19,,10.0,30.059055,1017.8,,,TRUE,,,,,,,CLR,,,,,,,,VFR,1.8,,,,,,,,,,,METAR,113.0
KDGW 211453Z AUTO 00000KT 10SM SCT095 M01/M03 A3000 RMK AO2 SLP175 I3000 T10061033 51005,KDGW,2018-03-21T14:53:00Z,42.8,-105.38,-0.6,-3.3,0,0,,10.0,30.0,1017.5,,TRUE,TRUE,,,,,,,SCT,9500,,,,,,,VFR,0.5,,,,,,,,,,,METAR,1499.0
KDFW 211453Z 09004KT 10SM SCT300 15/03 A3020 RMK AO2 SLP223 T01500033 51028,KDFW,2018-03-21T14:53:00Z,32.9,-97.02,15.0,3.3,90,4,,10.0,30.200787,1022.3,,,TRUE,,,,,,,SCT,30000,,,,,,,VFR,2.8,,,,,,,,,,,METAR,174.0
KDFI 211453Z AUTO 02013KT 10SM FEW042 OVC049 00/M06 A2991 RMK AO2 SNE24 SLP135 P0000 60000 T00001061 51020,KDFI,2018-03-21T14:53:00Z,41.33,-84.43,0.0,-6.1,20,13,,10.0,29.911417,1013.5,,TRUE,TRUE,,,,,,,FEW,4200,OVC,4900,,,,,VFR,2.0,,,,,0.005,0.005,,,,,METAR,219.0
KDEW 211453Z AUTO 02005KT 10SM CLR 01/M02 A2981 RMK AO2 SLP111 T00111022 55005,KDEW,2018-03-21T14:53:00Z,47.97,-117.43,1.1,-2.2,20,5,,10.0,29.811024,1011.1,,TRUE,TRUE,,,,,,,CLR,,,,,,,,VFR,-0.5,,,,,,,,,,,METAR,674.0
KCHO 211453Z 34004KT 3/4SM -SN BR BKN005 OVC015 01/M01 A2965 RMK AO2 SLP045 P0004 60009 T00061011 51007,KCHO,2018-03-21T14:53:00Z,38.13,-78.45,0.6,-1.1,340,4,,0.75,29.648623,1004.5,,,TRUE,,,,,,-SN BR,BKN,500,OVC,1500,,,,,LIFR,0.7,,,,,0.04,0.09,,,,,METAR,192.0
KCHA 211453Z 28011KT 10SM SCT030 BKN035 BKN250 04/M03 A2992 RMK AO2 SLP134 T00391033 51026,KCHA,2018-03-21T14:53:00Z,35.03,-85.2,3.9,-3.3,280,11,,10.0,29.920275,1013.4,,,TRUE,,,,,,,SCT,3000,BKN,3500,BKN,25000,,,VFR,2.6,,,,,,,,,,,METAR,210.0
KCGI 211453Z 34014G23KT 310V010 10SM SCT037 06/M03 A3009 RMK AO2 PK WND 33027/1429 SLP191 T00561028 51029,KCGI,2018-03-21T14:53:00Z,37.23,-89.58,5.6,-2.8,340,14,23,10.0,30.088583,1019.1,,,TRUE,,,,,,,SCT,3700,,,,,,,VFR,2.9,,,,,,,,,,,METAR,102.0
KCEZ 211453Z AUTO 00000KT 10SM BKN080 OVC100 03/M04 A3011 RMK AO2 SLP192 T00281044 52008,KCEZ,2018-03-21T14:53:00Z,37.3,-108.63,2.8,-4.4,0,0,,10.0,30.109253,1019.2,,TRUE,TRUE,,,,,,,BKN,8000,OVC,10000,,,,,VFR,0.8,,,,,,,,,,,METAR,1797.0
KCEW 211453Z AUTO 31008KT 10SM CLR 12/04 A3008 RMK AO2 SLP185 T01220044 51018 $,KCEW,2018-03-21T14:53:00Z,30.78,-86.52,12.2,4.4,310,8,,10.0,30.079725,1018.5,,TRUE,TRUE,TRUE,,,,,,CLR,,,,,,,,VFR,1.8,,,,,,,,,,,METAR,55.0
KCDW 211453Z 04008G19KT 1/2SM SN FZFG VV014 M02/M02 A2969 RMK AO2 SLP060 P0000 60000 T10171022 58007,KCDW,2018-03-21T14:53:00Z,40.88,-74.28,-1.7,-2.2,40,8,19,0.5,29.68996,1006.0,,,TRUE,,,,,,SN FZFG,OVX,0,,,,,,,LIFR,-0.7,,,,,0.005,0.005,,,,1400,METAR,64.0
KCDS 211453Z AUTO 12006KT 10SM CLR 09/M01 A3016 RMK AO2 SLP210 T00941011 53015,KCDS,2018-03-21T14:53:00Z,34.43,-100.28,9.4,-1.1,120,6,,10.0,30.159449,1021.0,,TRUE,TRUE,,,,,,,CLR,,,,,,,,VFR,1.5,,,,,,,,,,,METAR,594.0
KCDR 211453Z AUTO 25007KT 10SM CLR 01/M02 A3003 RMK AO2 SLP204 I3000 T00061022 53007,KCDR,2018-03-21T14:53:00Z,42.83,-103.1,0.6,-2.2,250,7,,10.0,30.029528,1020.4,,TRUE,TRUE,,,,,,,CLR,,,,,,,,VFR,0.7,,,,,,,,,,,METAR,1010.0
KCDC 211453Z AUTO 01003KT 10SM OVC043 06/M02 A3002 RMK AO2 SLP147 T00561022 53015,KCDC,2018-03-21T14:53:00Z,37.7,-113.1,5.6,-2.2,10,3,,10.0,30.02067,1014.7,,TRUE,TRUE,,,,,,,OVC,4300,,,,,,,VFR,1.5,,,,,,,,,,,METAR,1714.0
KCCR 211453Z 01005KT 1 3/4SM BR OVC008 12/12 A2982 RMK AO2 RAE46 SLP084 P0002 60015 T01220117 53001,KCCR,2018-03-21T14:53:00Z,38.0,-122.05,12.2,11.7,10,5,,1.75,29.819881,1008.4,,,TRUE,,,,,,BR,OVC,800,,,,,,,IFR,0.1,,,,,0.02,0.15,,,,,METAR,11.0
KCAG 211453Z AUTO 00000KT 10SM OVC085 02/M03 A3006 RMK AO2 SLP182 T00221028 53007,KCAG,2018-03-21T14:53:00Z,40.5,-107.52,2.2,-2.8,0,0,,10.0,30.059055,1018.2,,TRUE,TRUE,,,,,,,OVC,8500,,,,,,,VFR,0.7,,,,,,,,,,,METAR,1887.0
KBYI 211453Z AUTO 18004KT 10SM SCT036 BKN050 OVC110 05/02 A2992 RMK AO2 SLP130 T00500017 53002,KBYI,2018-03-21T14:53:00Z,42.55,-113.77,5.0,1.7,180,4,,10.0,29.920275,1013.0,,TRUE,TRUE,,,,,,,SCT,3600,BKN,5000,OVC,11000,,,VFR,0.2,,,,,,,,,,,METAR,1264.0
KBYG 211453Z AUTO 19004KT 3SM HZ CLR 04/M07 A2994 RMK AO2 SLP150 T00441072 58000,KBYG,2018-03-21T14:53:00Z,44.38,-106.72,4.4,-7.2,190,4,,3.0,29.940945,1015.0,,TRUE,TRUE,,,,,,HZ,CLR,,,,,,,,MVFR,0.0,,,,,,,,,,,METAR,1497.0
KBWG 211453Z AUTO 30009G19KT 10SM BKN020 02/M01 A2995 RMK AO2 SLP146 T00221011 53024,KBWG,2018-03-21T14:53:00Z,36.97,-86.42,2.2,-1.1,300,9,19,10.0,29.949802,1014.6,,TRUE,TRUE,,,,,,,BKN,2000,,,,,,,MVFR,2.4,,,,,,,,,,,METAR,168.0
KBVY 211453Z 03016G25KT 10SM BKN023 OVC150 01/M04 A2981 RMK AO2 SLP093 T00061044 53003,KBVY,2018-03-21T14:53:00Z,42.58,-70.92,0.6,-4.4,30,16,25,10.0,29.811024,1009.3,,,TRUE,,,,,,,BKN,2300,OVC,15000,,,,,MVFR,0.3,,,,,,,,,,,METAR,28.0
KBUR 211453Z 34006KT 10SM -RA OVC047 15/11 A2999 RMK AO2 SLP147 P0001 60001 T01500106 50011 $,KBUR,2018-03-21T14:53:00Z,34.2,-118.37,15.0,10.6,340,6,,10.0,29.991142,1014.7,,,TRUE,TRUE,,,,,-RA,OVC,4700,,,,,,,VFR,1.1,,,,,0.01,0.01,,,,,METAR,217.0
KBTR 211453Z 35008KT 10SM CLR 15/05 A3018 RMK AO2 SLP219 T01500050 51023,KBTR,2018-03-21T14:53:00Z,30.53,-91.15,15.0,5.0,350,8,,10.0,30.180119,1021.9,,,TRUE,,,,,,,CLR,,,,,,,,VFR,2.3,,,,,,,,,,,METAR,21.0
KBTM 211453Z AUTO 00000KT 10SM OVC090 M06/M08 A2989 RMK AO2 SLP155 T10561083 56001,KBTM,2018-03-21T14:53:00Z,45.97,-112.5,-5.6,-8.3,0,0,,10.0,29.890747,1015.5,,TRUE,TRUE,,,,,,,OVC,9000,,,,,,,VFR,-0.1,,,,,,,,,,,METAR,1688.0
KBTL 211453Z 01011KT 10SM CLR 01/M07 A2997 RMK AO2 SLP160 T00111072 51020,KBTL,2018-03-21T14:53:00Z,42.32,-85.23,1.1,-7.2,10,11,,10.0,29.970472,1016.0,,,TRUE,,,,,,,CLR,,,,,,,,VFR,2.0,,,,,,,,,,,METAR,290.0
KBRO 211453Z 08010KT 10SM CLR 23/15 A3015 RMK AO2 SLP207 60000 T02330150 51022,KBRO,2018-03-21T14:53:00Z,25.92,-97.42,23.3,15.0,80,10,,10.0,30.15059,1020.7,,,TRUE,,,,,,,CLR,,,,,,,,VFR,2.2,,,,,,0.005,,,,,METAR,7.0
KBRL 211453Z AUTO 01010KT 10SM CLR A3012 RMK AO2 SLPNO 51020 PWINO FZRANO $,KBRL,2018-03-21T14:53:00Z,40.77,-91.13,,,10,10,,10.0,30.121063,,,TRUE,TRUE,TRUE,,,TRUE,TRUE,,CLR,,,,,,,,VFR,2.0,,,,,,,,,,,METAR,211.0
KBRD 211453Z AUTO 00000KT 9SM BKN025 OVC034 M04/M08 A3015 RMK AO2 SNB03E28 SLP232 P0000 60000 T10391083 53012,KBRD,2018-03-21T14:53:00Z,46.4,-94.13,-3.9,-8.3,0,0,,9.0,30.15059,1023.2,,TRUE,TRUE,,,,,,,BKN,2500,OVC,3400,,,,,MVFR,1.2,,,,,0.005,0.005,,,,,METAR,372.0
KBPT 211453Z 04006KT 10SM CLR 17/04 A3020 RMK AO2 SLP227 T01720044 51023,KBPT,2018-03-21T14:53:00Z,29.95,-94.03,17.2,4.4,40,6,,10.0,30.200787,1022.7,,,TRUE,,,,,,,CLR,,,,,,,,VFR,2.3,,,,,,,,,,,METAR,5.0
KBPK 211453Z AUTO VRB06KT 10SM FEW034 07/00 A3015 RMK AO2 SLP209 T00720000 51023,KBPK,2018-03-21T14:53:00Z,36.37,-92.47,7.2,0.0,0,6,,10.0,30.15059,1020.9,,TRUE,TRUE,,,,,,,FEW,3400,,,,,,,VFR,2.3,,,,,,,,,,,METAR,280.0
KBPI 211453Z AUTO 08003KT 10SM OVC055 M03/M06 A3001 RMK AO2 SLP175 T10281056 53002,KBPI,2018-03-21T14:53:00Z,42.58,-110.1,-2.8,-5.6,80,3,,10.0,30.008858,1017.5,,TRUE,TRUE,,,,,,,OVC,5500,,,,,,,VFR,0.2,,,,,,,,,,,METAR,2117.0
KBOI 211453Z 13011KT 10SM OVC070 08/M01 A2985 RMK AO2 SLP106 T00831006 53001,KBOI,2018-03-21T14:53:00Z,43.57,-116.23,8.3,-0.6,130,11,,10.0,29.84941,1010.6,,,TRUE,,,,,,,OVC,7000,,,,,,,VFR,0.1,,,,,,,,,,,METAR,875.0
KVIH 211453Z AUTO 34009KT 10SM FEW023 03/M01 A3013 RMK AO2 SLP209 T00331011 51025,KVIH,2018-03-21T14:53:00Z,38.13,-91.77,3.3,-1.1,340,9,,10.0,30.129921,1020.9,,TRUE,TRUE,,,,,,,FEW,2300,,,,,,,VFR,2.5,,,,,,,,,,,METAR,333.0
KVGT 211453Z 02003KT 10SM CLR 13/M03 A2997 RMK AO2 SLP158 T01331033 53013,KVGT,2018-03-21T14:53:00Z,36.22,-115.2,13.3,-3.3,20,3,,10.0,29.970472,1015.8,,,TRUE,,,,,,,CLR,,,,,,,,VFR,1.3,,,,,,,,,,,METAR,671.0
KVEL 211453Z AUTO 35004KT 10SM FEW090 SCT120 04/M03 A3004 RMK AO2 SLP168 T00391028 51007,KVEL,2018-03-21T14:53:00Z,40.45,-109.52,3.9,-2.8,350,4,,10.0,30.041338,1016.8,,TRUE,TRUE,,,,,,,FEW,9000,SCT,12000,,,,,VFR,0.7,,,,,,,,,,,METAR,1604.0
KVCB 211453Z AUTO 35007KT 3SM -RA BR OVC009 11/11 A2985 RMK AO2 SLP106 P0004 60011 T01060106 51000,KVCB,2018-03-21T14:53:00Z,38.38,-121.95,10.6,10.6,350,7,,3.0,29.84941,1010.6,,TRUE,TRUE,,,,,,-RA BR,OVC,900,,,,,,,IFR,0.0,,,,,0.04,0.11,,,,,METAR,33.0
KUUU 211453Z AUTO 03015G27KT 4SM -SN OVC021 02/M01 A2971 RMK AO2 PK WND 05028/1408 SNB25 SLP061 P0000 60000 T00221006 51004,KUUU,2018-03-21T14:53:00Z,41.53,-71.28,2.2,-0.6,30,15,27,4.0,29.71063,1006.1,,TRUE,TRUE,,,,,,-SN,OVC,2100,,,,,,,MVFR,0.4,,,,,0.005,0.005,,,,,METAR,51.0
KUTS 211453Z AUTO 06004KT 10SM CLR 15/03 A3020 RMK AO2 SLP225 T01500033 51027,KUTS,2018-03-21T14:53:00Z,30.75,-95.58,15.0,3.3,60,4,,10.0,30.200787,1022.5,,TRUE,TRUE,,,,,,,CLR,,,,,,,,VFR,2.7,,,,,,,,,,,METAR,104.0
KUNO 211453Z AUTO 34011G19KT 10SM FEW025 OVC032 06/00 A3012 RMK AO2 SLP204 T00560000 52025,KUNO,2018-03-21T14:53:00Z,36.88,-91.9,5.6,0.0,340,11,19,10.0,30.121063,1020.4,,TRUE,TRUE,,,,,,,FEW,2500,OVC,3200,,,,,VFR,2.5,,,,,,,,,,,METAR,372.0
KUIL 211453Z AUTO 00000KT 10SM BKN080 OVC110 01/01 A2975 RMK AO2 SLP075 T00110006 56011,KUIL,2018-03-21T14:53:00Z,47.93,-124.55,1.1,0.6,0,0,,10.0,29.749016,1007.5,,TRUE,TRUE,,,,,,,BKN,8000,OVC,11000,,,,,VFR,-1.1,,,,,,,,,,,METAR,54.0
KUAO 211453Z 01005KT 10SM OVC070 06/03 A2976 RMK AO2 SLP075 T00610028 55008,KUAO,2018-03-21T14:53:00Z,45.25,-122.77,6.1,2.8,10,5,,10.0,29.760826,1007.5,,,TRUE,,,,,,,OVC,7000,,,,,,,VFR,-0.8,,,,,,,,,,,METAR,59.0
KTYS 211453Z 27017G22KT 10SM SCT025 OVC048 03/M01 A2984 RMK AO2 PK WND 27026/1441 SLP106 60000 T00281011 53022,KTYS,2018-03-21T14:53:00Z,35.82,-83.98,2.8,-1.1,270,17,22,10.0,29.840551,1010.6,,,TRUE,,,,,,,SCT,2500,OVC,4800,,,,,VFR,2.2,,,,,,0.005,,,,,METAR,302.0
KTYR 211453Z 05004KT 10SM CLR 14/03 A3021 RMK AO2 SLP228 T01390033 51025,KTYR,2018-03-21T14:53:00Z,32.37,-95.4,13.9,3.3,50,4,,10.0,30.209646,1022.8,,,TRUE,,,,,,,CLR,,,,,,,,VFR,2.5,,,,,,,,,,,METAR,165.0
KTXK 211453Z 01006KT 10SM CLR 11/03 A3021 RMK AO2 SLP230 T01110033 51029,KTXK,2018-03-21T14:53:00Z,33.45,-93.98,11.1,3.3,10,6,,10.0,30.209646,1023.0,,,TRUE,,,,,,,CLR,,,,,,,,VFR,2.9,,,,,,,,,,,METAR,111.0
KTWF 211453Z 13005KT 10SM OVC044 03/02 A2992 RMK AO2 RAE03 SLP122 P0000 60000 T00330017 53003,KTWF,2018-03-21T14:53:00Z,42.48,-114.48,3.3,1.7,130,5,,10.0,29.920275,1012.2,,,TRUE,,,,,,,OVC,4400,,,,,,,VFR,0.3,,,,,0.005,0.005,,,,,METAR,1266.0
KTVR 211453Z AUTO 34011G16KT 10SM CLR 12/03 A3018 RMK AO2 SLP227 T01220033 51026,KTVR,2018-03-21T14:53:00Z,32.35,-91.03,12.2,3.3,340,11,16,10.0,30.180119,1022.7,,TRUE,TRUE,,,,,,,CLR,,,,,,,,VFR,2.6,,,,,,,,,,,METAR,26.0
KTVL 211453Z AUTO 20004KT 2SM -RA BR BKN027 BKN037 OVC047 03/02 A2989 RMK AO2 SLP108 P0005 60016 T00330022 53008,KTVL,2018-03-21T14:53:00Z,38.9,-120.0,3.3,2.2,200,4,,2.0,29.890747,1010.8,,TRUE,TRUE,,,,,,-RA BR,BKN,2700,BKN,3700,OVC,4700,,,IFR,0.8,,,,,0.05,0.16,,,,,METAR,1924.0
KTVC 211453Z 02008KT 10SM FEW120 BKN250 M03/M11 A3010 RMK AO2 SLP201 T10281111 51010,KTVC,2018-03-21T14:53:00Z,44.73,-85.57,-2.8,-11.1,20,8,,10.0,30.100393,1020.1,,,TRUE,,,,,,,FEW,12000,BKN,25000,,,,,VFR,1.0,,,,,,,,,,,METAR,190.0
KTUS 211453Z 15010KT 10SM CLR 14/M06 A3003 RMK AO2 SLP143 T01391061 51007 $,KTUS,2018-03-21T14:53:00Z,32.13,-110.95,13.9,-6.1,150,10,,10.0,30.029528,1014.3,,,TRUE,TRUE,,,,,,CLR,,,,,,,,VFR,0.7,,,,,,,,,,,METAR,776.0
KTUL 211453Z 30003KT 10SM CLR 07/01 A3024 RMK AO2 SLP242 T00720011 51028,KTUL,2018-03-21T14:53:00Z,36.2,-95.88,7.2,1.1,300,3,,10.0,30.239174,1024.2,,,TRUE,,,,,,,CLR,,,,,,,,VFR,2.8,,,,,,,,,,,METAR,207.0
KTTN 211453Z 05014G19KT 3/4SM -SN BR SCT009 OVC016 M01/M02 A2964 RMK AO2 SLP035 P0000 60000 T10061022 55004,KTTN,2018-03-21T14:53:00Z,40.28,-74.82,-0.6,-2.2,50,14,19,0.75,29.639763,1003.5,,,TRUE,,,,,,-SN BR,SCT,900,OVC,1600,,,,,LIFR,-0.4,,,,,0.005,0.005,,,,,METAR,59.0
KTTD 211453Z 01003KT 10SM OVC080 07/02 A2975 RMK AO2 SLP075 T00670022 56007,KTTD,2018-03-21T14:53:00Z,45.55,-122.42,6.7,2.2,10,3,,10.0,29.749016,1007.5,,,TRUE,,,,,,,OVC,8000,,,,,,,VFR,-0.7,,,,,,,,,,,METAR,14.0
KTRL 211453Z AUTO 08004KT 10SM CLR 13/04 A3023 RMK AO2 SLP233 T01330039 51028,KTRL,2018-03-21T14:53:00Z,32.72,-96.27,13.3,3.9,80,4,,10.0,30.230314,1023.3,,TRUE,TRUE,,,,,,,CLR,,,,,,,,VFR,2.8,,,,,,,,,,,METAR,145.0
KCRG 211453Z 30018G27KT 10SM CLR 16/01 A2991 RMK AO2 PK WND 30028/1421 SLP127 T01560011 51021,KCRG,2018-03-21T14:53:00Z,30.33,-81.52,15.6,1.1,300,18,27,10.0,29.911417,1012.7,,,TRUE,,,,,,,CLR,,,,,,,,VFR,2.1,,,,,,,,,,,METAR,13.0
KSJC 211453Z 12016KT 10SM -RA FEW003 BKN035 OVC100 14/12 A2980 RMK AO2 PK WND 13026/1356 SLP090 P0000 60000 T01440122 58001,KSJC,2018-03-21T14:53:00Z,37.37,-121.92,14.4,12.2,120,16,,10.0,29.799213,1009.0,,,TRUE,,,,,,-RA,FEW,300,BKN,3500,OVC,10000,,,VFR,-0.1,,,,,0.005,0.005,,,,,METAR,24.0
KLAA 211453Z AUTO 00000KT 10SM CLR 02/M04 A3012 RMK AO2 SLP203 T00221044 51017,KLAA,2018-03-21T14:53:00Z,38.07,-102.68,2.2,-4.4,0,0,,10.0,30.121063,1020.3,,TRUE,TRUE,,,,,,,CLR,,,,,,,,VFR,1.7,,,,,,,,,,,METAR,1119.0
KJLN 211453Z 34009KT 10SM CLR 05/01 A3022 RMK AO2 SLP238 T00500006 53027,KJLN,2018-03-21T14:53:00Z,37.15,-94.5,5.0,0.6,340,9,,10.0,30.221457,1023.8,,,TRUE,,,,,,,CLR,,,,,,,,VFR,2.7,,,,,,,,,,,METAR,299.0
KJKL 211453Z AUTO VRB06G18KT 10SM BKN010 OVC019 M01/M03 A2974 RMK AO2 SNE1357B25E38 CIG 007V013 SLP079 P0000 60000 I1000 I3000 T10111028 51018,KJKL,2018-03-21T14:53:00Z,37.6,-83.32,-1.1,-2.8,0,6,18,10.0,29.740158,1007.9,,TRUE,TRUE,,,,,,,BKN,1000,OVC,1900,,,,,MVFR,1.8,,,,,0.005,0.005,,,,,METAR,416.0
KJER 211453Z AUTO 08009KT 10SM BKN060 OVC070 04/01 A2992 RMK AO2 RAB03E27 SLP137 P0000 60000 T00440006 53002 TSNO,KJER,2018-03-21T14:53:00Z,42.72,-114.45,4.4,0.6,80,9,,10.0,29.920275,1013.7,,TRUE,TRUE,,,TRUE,,,,BKN,6000,OVC,7000,,,,,VFR,0.2,,,,,0.005,0.005,,,,,METAR,1222.0
KJEF 211453Z 35009KT 10SM SCT027 04/M02 A3017 RMK AO2 SLP209 T00441017 52026,KJEF,2018-03-21T14:53:00Z,38.6,-92.15,4.4,-1.7,350,9,,10.0,30.171259,1020.9,,,TRUE,,,,,,,SCT,2700,,,,,,,VFR,2.6,,,,,,,,,,,METAR,168.0
KDET 211453Z 02010G18KT 10SM SCT100 01/M11 A2993 RMK AO2 SLP144 T00111111 51018,KDET,2018-03-21T14:53:00Z,42.4,-83.02,1.1,-11.1,20,10,18,10.0,29.929134,1014.4,,,TRUE,,,,,,,SCT,10000,,,,,,,VFR,1.8,,,,,,,,,,,METAR,190.0
KDEQ 211453Z AUTO 00000KT 10SM CLR 11/04 A3020 RMK AO2 SLP225 T01060044 53025,KDEQ,2018-03-21T14:53:00Z,34.05,-94.4,10.6,4.4,0,0,,10.0,30.200787,1022.5,,TRUE,TRUE,,,,,,,CLR,,,,,,,,VFR,2.5,,,,,,,,,,,METAR,106.0
KDEN 211453Z 21009KT 10SM FEW100 SCT220 06/M08 A3002 RMK AO2 SLP149 T00561078 51006,KDEN,2018-03-21T14:53:00Z,39.85,-104.65,5.6,-7.8,210,9,,10.0,30.02067,1014.9,,,TRUE,,,,,,,FEW,10000,SCT,22000,,,,,VFR,0.6,,,,,,,,,,,METAR,1640.0
KDCU 211453Z AUTO 31010KT 10SM FEW090 06/M02 A3002 RMK AO2 SLP168 T00561017 51021,KDCU,2018-03-21T14:53:00Z,34.65,-86.95,5.6,-1.7,310,10,,10.0,30.02067,1016.8,,TRUE,TRUE,,,,,,,FEW,9000,,,,,,,VFR,2.1,,,,,,,,,,,METAR,176.0
KDBQ 211453Z 05010KT 10SM CLR M01/M10 A3012 RMK AO2 SLP211 T10111100 51015,KDBQ,2018-03-21T14:53:00Z,42.4,-90.7,-1.1,-10.0,50,10,,10.0,30.121063,1021.1,,,TRUE,,,,,,,CLR,,,,,,,,VFR,1.5,,,,,,,,,,,METAR,326.0
KDAN 211453Z AUTO 03004KT 3SM -SN BR BKN010 OVC014 00/M01 A2968 RMK AO2 CIG 007V012 SLP048 P0000 60000 T00001006 53012,KDAN,2018-03-21T14:53:00Z,36.57,-79.33,0.0,-0.6,30,4,,3.0,29.681103,1004.8,,TRUE,TRUE,,,,,,-SN BR,BKN,1000,OVC,1400,,,,,MVFR,1.2,,,,,0.005,0.005,,,,,METAR,175.0
KDAL 211453Z 11004KT 10SM SCT250 14/03 A3021 RMK AO2 SLP228 T01440028 51028,KDAL,2018-03-21T14:53:00Z,32.85,-96.85,14.4,2.8,110,4,,10.0,30.209646,1022.8,,,TRUE,,,,,,,SCT,25000,,,,,,,VFR,2.8,,,,,,,,,,,METAR,158.0
KDAB 211453Z 27014G25KT 10SM CLR 16/05 A2994 RMK AO2 PK WND 28026/1402 SLP139 T01610050 51023,KDAB,2018-03-21T14:53:00Z,29.18,-81.07,16.1,5.0,270,14,25,10.0,29.940945,1013.9,,,TRUE,,,,,,,CLR,,,,,,,,VFR,2.3,,,,,,,,,,,METAR,9.0
KCYS 211453Z 24003KT 10SM BKN070 03/M05 A3002 RMK AO2 SLP166 T00281050 51005,KCYS,2018-03-21T14:53:00Z,41.15,-104.8,2.8,-5.0,240,3,,10.0,30.02067,1016.6,,,TRUE,,,,,,,BKN,7000,,,,,,,VFR,0.5,,,,,,,,,,,METAR,1868.0
KCXO 211453Z 00000KT 10SM CLR 14/07 A3021 RMK AO2 SLP230 I3000 T01440067 51026,KCXO,2018-03-21T14:53:00Z,30.35,-95.42,14.4,6.7,0,0,,10.0,30.209646,1023.0,,,TRUE,,,,,,,CLR,,,,,,,,VFR,2.6,,,,,,,,,,,METAR,75.0
KCUT 211453Z AUTO 00000KT 10SM CLR 02/M07 A2996 RMK AO2 SLP169 T00171072 51003,KCUT,2018-03-21T14:53:00Z,43.73,-103.62,1.7,-7.2,0,0,,10.0,29.958662,1016.9,,TRUE,TRUE,,,,,,,CLR,,,,,,,,VFR,0.3,,,,,,,,,,,METAR,1725.0
KCUB 211453Z AUTO 28011G20KT 10SM OVC050 09/M03 A2975 RMK AO2 PK WND 29027/1426 SLP072 T00891028 51024,KCUB,2018-03-21T14:53:00Z,33.97,-81.0,8.9,-2.8,280,11,20,10.0,29.749016,1007.2,,TRUE,TRUE,,,,,,,OVC,5000,,,,,,,VFR,2.4,,,,,,,,,,,METAR,56.0
KCSV 211453Z AUTO 29014G21KT 3SM -SN BR BKN008 OVC013 M02/M03 A2984 RMK AO2 SLP118 P0000 60000 T10171033 53024,KCSV,2018-03-21T14:53:00Z,35.95,-85.08,-1.7,-3.3,290,14,21,3.0,29.840551,1011.8,,TRUE,TRUE,,,,,,-SN BR,BKN,800,OVC,1300,,,,,IFR,2.4,,,,,0.005,0.005,,,,,METAR,570.0
KCSM 211453Z 12010KT 10SM CLR 09/M01 A3018 RMK AO2 SLP218 T00941006 53012,KCSM,2018-03-21T14:53:00Z,35.35,-99.2,9.4,-0.6,120,10,,10.0,30.180119,1021.8,,,TRUE,,,,,,,CLR,,,,,,,,VFR,1.2,,,,,,,,,,,METAR,588.0
KCRS 211453Z AUTO 09004KT 10SM CLR 14/05 A3022 RMK AO2 SLP233 T01440050 53025,KCRS,2018-03-21T14:53:00Z,32.03,-96.4,14.4,5.0,90,4,,10.0,30.221457,1023.3,,TRUE,TRUE,,,,,,,CLR,,,,,,,,VFR,2.5,,,,,,,,,,,METAR,133.0
KCRQ 211453Z AUTO 07004KT 10SM CLR 14/08 A2999 RMK AO2 SLP153 T01390078 51013,KCRQ,2018-03-21T14:53:00Z,33.13,-117.28,13.9,7.8,70,4,,10.0,29.991142,1015.3,,TRUE,TRUE,,,,,,,CLR,,,,,,,,VFR,1.3,,,,,,,,,,,METAR,99.0
KLBF 211453Z AUTO 10006KT 10SM CLR 02/M01 A3008 RMK AO2 SLP205 I3000 T00171006 50001,KLBF,2018-03-21T14:53:00Z,41.12,-100.67,1.7,-0.6,100,6,,10.0,30.079725,1020.5,,TRUE,TRUE,,,,,,,CLR,,,,,,,,VFR,0.1,,,,,,,,,,,METAR,847.0
KLBB 211453Z 13010KT 10SM BKN210 BKN300 09/M06 A3010 RMK AO2 SLP177 T00941056 51011,KLBB,2018-03-21T14:53:00Z,33.67,-101.82,9.4,-5.6,130,10,,10.0,30.100393,1017.7,,,TRUE,,,,,,,BKN,21000,BKN,30000,,,,,VFR,1.1,,,,,,,,,,,METAR,993.0
KLAX 211453Z 04004KT 8SM SCT060 BKN085 BKN120 16/10 A2999 RMK AO2 SLP155 T01610100 50012,KLAX,2018-03-21T14:53:00Z,33.93,-118.38,16.1,10.0,40,4,,8.0,29.991142,1015.5,,,TRUE,,,,,,,SCT,6000,BKN,8500,BKN,12000,,,VFR,1.2,,,,,,,,,,,METAR,46.0
KLAW 211453Z 11009KT 10SM CLR 12/02 A3019 RMK AO2 SLP224 T01220017 51015,KLAW,2018-03-21T14:53:00Z,34.55,-98.42,12.2,1.7,110,9,,10.0,30.188976,1022.4,,,TRUE,,,,,,,CLR,,,,,,,,VFR,1.5,,,,,,,,,,,METAR,337.0
KLAR 211453Z AUTO VRB04KT 10SM CLR 01/M07 A3000 RMK AO2 SLP171 T00061067 51004,KLAR,2018-03-21T14:53:00Z,41.32,-105.67,0.6,-6.7,0,4,,10.0,30.0,1017.1,,TRUE,TRUE,,,,,,,CLR,,,,,,,,VFR,0.4,,,,,,,,,,,METAR,2216.0
KLAN 211453Z 03011G18KT 10SM CLR 01/M07 A2999 RMK AO2 SLP167 T00061067 51018,KLAN,2018-03-21T14:53:00Z,42.78,-84.58,0.6,-6.7,30,11,18,10.0,29.991142,1016.7,,,TRUE,,,,,,,CLR,,,,,,,,VFR,1.8,,,,,,,,,,,METAR,264.0
KLBX 211453Z AUTO 09008KT 10SM CLR 19/07 A3020 RMK AO2 SLP225 T01890067 53023,KLBX,2018-03-21T14:53:00Z,29.12,-95.47,18.9,6.7,90,8,,10.0,30.200787,1022.5,,TRUE,TRUE,,,,,,,CLR,,,,,,,,VFR,2.3,,,,,,,,,,,METAR,6.0
KLHQ 211453Z AUTO 02012KT 3SM -SN BR BKN013 OVC020 00/M01 A2973 RMK AO2 SLP075 P0000 60001 T00001011 53019,KLHQ,2018-03-21T14:53:00Z,39.75,-82.67,0.0,-1.1,20,12,,3.0,29.731298,1007.5,,TRUE,TRUE,,,,,,-SN BR,BKN,1300,OVC,2000,,,,,MVFR,1.9,,,,,0.005,0.01,,,,,METAR,260.0
KLGB 211453Z 06004KT 10SM SCT060 16/11 A2999 RMK AO2 SLP154 T01560111 50011,KLGB,2018-03-21T14:53:00Z,33.82,-118.15,15.6,11.1,60,4,,10.0,29.991142,1015.4,,,TRUE,,,,,,,SCT,6000,,,,,,,VFR,1.1,,,,,,,,,,,METAR,10.0
KLFT 211453Z 34003KT 10SM CLR 16/07 A3019 RMK AO2 SLP224 T01560067 51021,KLFT,2018-03-21T14:53:00Z,30.2,-92.0,15.6,6.7,340,3,,10.0,30.188976,1022.4,,,TRUE,,,,,,,CLR,,,,,,,,VFR,2.1,,,,,,,,,,,METAR,11.0
KLFK 211453Z AUTO 08007KT 10SM CLR 15/06 A3020 RMK AO2 SLP226 T01500056 51020,KLFK,2018-03-21T14:53:00Z,31.23,-94.75,15.0,5.6,80,7,,10.0,30.200787,1022.6,,TRUE,TRUE,,,,,,,CLR,,,,,,,,VFR,2.0,,,,,,,,,,,METAR,88.0
KLEE 211453Z 31012G19KT 10SM CLR 17/04 A3000 RMK AO2 SLP156 T01670044 51027,KLEE,2018-03-21T14:53:00Z,28.82,-81.82,16.7,4.4,310,12,19,10.0,30.0,1015.6,,,TRUE,,,,,,,CLR,,,,,,,,VFR,2.7,,,,,,,,,,,METAR,23.0
KLEB 211453Z 34006KT 10SM CLR M03/M12 A2987 RMK AO2 SLP126 T10281117 58006,KLEB,2018-03-21T14:53:00Z,43.63,-72.3,-2.8,-11.7,340,6,,10.0,29.870079,1012.6,,,TRUE,,,,,,,CLR,,,,,,,,VFR,-0.6,,,,,,,,,,,METAR,171.0
KLCH 211453Z 35008KT 10SM 17/03 A3020 RMK AO2 SLP234 T01720033 51020 $,KLCH,2018-03-21T14:53:00Z,30.13,-93.22,17.2,3.3,350,8,,10.0,30.200787,1023.4,,,TRUE,TRUE,,,,,,,,,,,,,,,2.0,,,,,,,,,,,METAR,4.0
KLHX 211453Z AUTO 22009KT 10SM CLR 04/M09 A3011 RMK AO2 SLP189 T00391094 51014,KLHX,2018-03-21T14:53:00Z,38.05,-103.52,3.9,-9.4,220,9,,10.0,30.109253,1018.9,,TRUE,TRUE,,,,,,,CLR,,,,,,,,VFR,1.4,,,,,,,,,,,METAR,1277.0
KLIT 211453Z 33012KT 10SM FEW030 10/02 A3018 RMK AO2 SLP223 T01000017 51028,KLIT,2018-03-21T14:53:00Z,34.73,-92.23,10.0,1.7,330,12,,10.0,30.180119,1022.3,,,TRUE,,,,,,,FEW,3000,,,,,,,VFR,2.8,,,,,,,,,,,METAR,79.0
KLMT 211453Z 15010KT 10SM OVC065 04/02 A2978 RMK AO2 SLP080 T00440022 56005,KLMT,2018-03-21T14:53:00Z,42.15,-121.72,4.4,2.2,150,10,,10.0,29.778543,1008.0,,,TRUE,,,,,,,OVC,6500,,,,,,,VFR,-0.5,,,,,,,,,,,METAR,1246.0
KLLQ 211453Z AUTO 32009KT 10SM CLR 11/01 A3018 RMK AO2 SLP218 T01060011 51033,KLLQ,2018-03-21T14:53:00Z,33.63,-91.75,10.6,1.1,320,9,,10.0,30.180119,1021.8,,TRUE,TRUE,,,,,,,CLR,,,,,,,,VFR,3.3,,,,,,,,,,,METAR,83.0
KEST 211452Z AUTO 18006KT 10SM OVC024 M01/M02 A3014 RMK AO2 SLP223 T10111022 51015,KEST,2018-03-21T14:52:00Z,43.4,-94.75,-1.1,-2.2,180,6,,10.0,30.138779,1022.3,,TRUE,TRUE,,,,,,,OVC,2400,,,,,,,MVFR,1.5,,,,,,,,,,,METAR,401.0
KHIE 211452Z AUTO 00000KT 10SM CLR M03/M12 A2982 RMK AO2 SLP117 T10281117 58014,KHIE,2018-03-21T14:52:00Z,44.37,-71.55,-2.8,-11.7,0,0,,10.0,29.819881,1011.7,,TRUE,TRUE,,,,,,,CLR,,,,,,,,VFR,-1.4,,,,,,,,,,,METAR,318.0
KFIT 211452Z AUTO 06009KT 020V090 10SM CLR 01/M08 A2983 RMK AO2 SLP106 T00111078 55001,KFIT,2018-03-21T14:52:00Z,42.55,-71.75,1.1,-7.8,60,9,,10.0,29.828741,1010.6,,TRUE,TRUE,,,,,,,CLR,,,,,,,,VFR,-0.1,,,,,,,,,,,METAR,103.0
KPPF 211452Z AUTO 36006KT 10SM CLR 04/01 A3024 RMK AO2 SLP246 I3000 T00440011 51027,KPPF,2018-03-21T14:52:00Z,37.33,-95.5,4.4,1.1,360,6,,10.0,30.239174,1024.6,,TRUE,TRUE,,,,,,,CLR,,,,,,,,VFR,2.7,,,,,,,,,,,METAR,274.0
KSUX 211452Z 12003KT 10SM FEW006 BKN037 01/M01 A3017 RMK AO2 SLP228 I3000 T00061006 51017,KSUX,2018-03-21T14:52:00Z,42.38,-96.38,0.6,-0.6,120,3,,10.0,30.171259,1022.8,,,TRUE,,,,,,,FEW,600,BKN,3700,,,,,VFR,1.7,,,,,,,,,,,METAR,338.0
KAFN 211452Z AUTO 02007KT 340V040 10SM CLR M02/M09 A2979 RMK AO2 SLP105 T10171094 55003 TSNO,KAFN,2018-03-21T14:52:00Z,42.8,-72.0,-1.7,-9.4,20,7,,10.0,29.790354,1010.5,,TRUE,TRUE,,,TRUE,,,,CLR,,,,,,,,VFR,-0.3,,,,,,,,,,,METAR,313.0
CYQF 211452Z 00000KT 3SM BR SCT090 BKN250 M10/M11 A2981 RMK AC3CI3 SLP146,CYQF,2018-03-21T14:52:00Z,52.17,-113.9,-10.0,-11.0,0,0,,3.0,29.811024,1014.6,,,,,,,,,BR,SCT,9000,BKN,25000,,,,,MVFR,,,,,,,,,,,,SPECI,905.0
KSGF 211452Z 36011KT 10SM OVC022 04/00 A3017 RMK AO2 SLP220 T00440000 51029,KSGF,2018-03-21T14:52:00Z,37.23,-93.38,4.4,0.0,360,11,,10.0,30.171259,1022.0,,,TRUE,,,,,,,OVC,2200,,,,,,,MVFR,2.9,,,,,,,,,,,METAR,390.0
KRAP 211452Z 31004KT 10SM CLR 02/M06 A3000 RMK AO2 SLP188 T00171056 53006,KRAP,2018-03-21T14:52:00Z,44.05,-103.05,1.7,-5.6,310,4,,10.0,30.0,1018.8,,,TRUE,,,,,,,CLR,,,,,,,,VFR,0.6,,,,,,,,,,,METAR,965.0
KPYM 211452Z AUTO 04015G22KT 10SM OVC022 03/M02 A2976 RMK AO2 SLP079 T00331017 51007 $,KPYM,2018-03-21T14:52:00Z,41.92,-70.73,3.3,-1.7,40,15,22,10.0,29.760826,1007.9,,TRUE,TRUE,TRUE,,,,,,OVC,2200,,,,,,,MVFR,0.7,,,,,,,,,,,METAR,43.0
KPWK 211452Z 01012G19KT 10SM BKN029 00/M07 A3008 RMK AO2 SLP194 T00001067 51020,KPWK,2018-03-21T14:52:00Z,42.12,-87.9,0.0,-6.7,10,12,19,10.0,30.079725,1019.4,,,TRUE,,,,,,,BKN,2900,,,,,,,MVFR,2.0,,,,,,,,,,,METAR,203.0
KOWA 211452Z AUTO 00000KT 10SM OVC055 M03/M05 A3015 RMK AO2,KOWA,2018-03-21T14:52:00Z,44.12,-93.25,-3.0,-5.0,0,0,,10.0,30.15059,,,TRUE,TRUE,,,,,,,OVC,5500,,,,,,,VFR,,,,,,,,,,,,METAR,350.0
KORE 211452Z AUTO 01006KT 10SM CLR M01/M09 A2980 RMK AO2 SLP100 T10061089 56006,KORE,2018-03-21T14:52:00Z,42.57,-72.28,-0.6,-8.9,10,6,,10.0,29.799213,1010.0,,TRUE,TRUE,,,,,,,CLR,,,,,,,,VFR,-0.6,,,,,,,,,,,METAR,164.0
KOMA 211452Z 00000KT 4SM BR OVC009 01/M01 A3020 RMK AO2 SLP234 T00111011 51022,KOMA,2018-03-21T14:52:00Z,41.32,-95.9,1.1,-1.1,0,0,,4.0,30.200787,1023.4,,,TRUE,,,,,,BR,OVC,900,,,,,,,IFR,2.2,,,,,,,,,,,METAR,312.0
KDVN 211452Z AUTO 36008KT 10SM CLR 01/M08 A3014 RMK AO2 SLP211 T00061083 51020,KDVN,2018-03-21T14:52:00Z,41.62,-90.58,0.6,-8.3,360,8,,10.0,30.138779,1021.1,,TRUE,TRUE,,,,,,,CLR,,,,,,,,VFR,2.0,,,,,,,,,,,METAR,230.0
KDDC 211452Z AUTO 19006KT 7SM CLR 07/02 A3017 RMK AO2 SLP225 T00670022 53019,KDDC,2018-03-21T14:52:00Z,37.77,-99.97,6.7,2.2,190,6,,7.0,30.171259,1022.5,,TRUE,TRUE,,,,,,,CLR,,,,,,,,VFR,1.9,,,,,,,,,,,METAR,789.0
KDCA 211452Z 34009KT 1/4SM R01/2600V3000FT +SN FG OVC006 00/00 A2966 RMK AO2 SLP044 SNINCR 2/3 P0011 60026 T00000000 53003,KDCA,2018-03-21T14:52:00Z,38.85,-77.03,0.0,0.0,340,9,,0.25,29.660433,1004.4,,,TRUE,,,,,,+SN FG,OVC,600,,,,,,,LIFR,0.3,,,,,0.11,0.26,,,3.0,,METAR,18.0
KCVG 211452Z 34017KT 4SM -SN BR OVC013 M02/M03 A2981 RMK AO2 SLP100 DRSN P0000 60001 T10171028 51028,KCVG,2018-03-21T14:52:00Z,39.05,-84.67,-1.7,-2.8,340,17,,4.0,29.811024,1010.0,,,TRUE,,,,,,-SN BR,OVC,1300,,,,,,,MVFR,2.8,,,,,0.005,0.01,,,,,METAR,269.0
KCQX 211452Z AUTO 04016G25KT 10SM BKN021 BKN041 OVC050 03/M01 A2972 RMK AO2 PK WND 06026/1405 RAB40E50 SLP067 P0000 60000 T00331006 55001,KCQX,2018-03-21T14:52:00Z,41.68,-70.0,3.3,-0.6,40,16,25,10.0,29.719488,1006.7,,TRUE,TRUE,,,,,,,BKN,2100,BKN,4100,OVC,5000,,,MVFR,-0.1,,,,,0.005,0.005,,,,,METAR,19.0
KCNU 211452Z AUTO 02009KT 10SM FEW038 04/01 A3024 RMK AO2 SLP244 T00390006 51027,KCNU,2018-03-21T14:52:00Z,37.67,-95.48,3.9,0.6,20,9,,10.0,30.239174,1024.4,,TRUE,TRUE,,,,,,,FEW,3800,,,,,,,VFR,2.7,,,,,,,,,,,METAR,297.0
KCLT 211452Z 24007KT 10SM SCT010 BKN023 BKN080 06/03 A2969 RMK AO2 RAE1353 SLP056 P0000 60001 T00560033 51021,KCLT,2018-03-21T14:52:00Z,35.22,-80.95,5.6,3.3,240,7,,10.0,29.68996,1005.6,,,TRUE,,,,,,,SCT,1000,BKN,2300,BKN,8000,,,MVFR,2.1,,,,,0.005,0.01,,,,,METAR,220.0
KCKV 211452Z AUTO 33017G26KT 10SM CLR 04/M03 A3000 RMK AO2 PK WND 31027/1407 SLP161 T00391033 53025,KCKV,2018-03-21T14:52:00Z,36.62,-87.42,3.9,-3.3,330,17,26,10.0,30.0,1016.1,,TRUE,TRUE,,,,,,,CLR,,,,,,,,VFR,2.5,,,,,,,,,,,METAR,165.0
KCID 211452Z 02007KT 10SM CLR 01/M11 A3013 RMK AO2 SLP213 T00111106 51017,KCID,2018-03-21T14:52:00Z,41.88,-91.72,1.1,-10.6,20,7,,10.0,30.129921,1021.3,,,TRUE,,,,,,,CLR,,,,,,,,VFR,1.7,,,,,,,,,,,METAR,264.0
KCFV 211452Z AUTO 36007KT 8SM CLR 06/01 A3024 RMK AO2 SLP243 T00560011 52026,KCFV,2018-03-21T14:52:00Z,37.08,-95.57,5.6,1.1,360,7,,8.0,30.239174,1024.3,,TRUE,TRUE,,,,,,,CLR,,,,,,,,VFR,2.6,,,,,,,,,,,METAR,225.0
KBLU 211452Z AUTO 17010KT M1/4SM -RA FG VV002 06/06 A2987 RMK AO2 SLP095 P0006 60048 T00560056 55002,KBLU,2018-03-21T14:52:00Z,39.28,-120.7,5.6,5.6,170,10,,0.25,29.870079,1009.5,,TRUE,TRUE,,,,,,-RA FG,OVX,0,,,,,,,LIFR,-0.2,,,,,0.06,0.48,,,,200,METAR,1609.0
KBLH 211452Z AUTO 34005KT 10SM CLR 14/M09 A2994 RMK AO2 SLP135 T01441089 53015,KBLH,2018-03-21T14:52:00Z,33.62,-114.72,14.4,-8.9,340,5,,10.0,29.940945,1013.5,,TRUE,TRUE,,,,,,,CLR,,,,,,,,VFR,1.5,,,,,,,,,,,METAR,119.0
KBLF 211452Z AUTO 30008G16KT 1 1/4SM -SN BR BKN006 OVC010 M02/M04 A2959 RMK AO2 SLP037 P0001 60002 T10221039 53011,KBLF,2018-03-21T14:52:00Z,37.3,-81.2,-2.2,-3.9,300,8,16,1.25,29.589567,1003.7,,TRUE,TRUE,,,,,,-SN BR,BKN,600,OVC,1000,,,,,IFR,1.1,,,,,0.01,0.02,,,,,METAR,873.0
KBIS 211452Z 00000KT 1 1/4SM BR OVC002 M01/M01 A3001 RMK AO2 SLP182 I3000 T10061011 51008,KBIS,2018-03-21T14:52:00Z,46.77,-100.75,-0.6,-1.1,0,0,,1.25,30.008858,1018.2,,,TRUE,,,,,,BR,OVC,200,,,,,,,LIFR,0.8,,,,,,,,,,,METAR,505.0
KBDR 211452Z 03013KT 3/4SM -SN VV016 01/M02 A2971 RMK AO2 SLP060 P0003 60003 T00061022 58002,KBDR,2018-03-21T14:52:00Z,41.17,-73.13,0.6,-2.2,30,13,,0.75,29.71063,1006.0,,,TRUE,,,,,,-SN,OVX,0,,,,,,,LIFR,-0.2,,,,,0.03,0.03,,,,1600,METAR,7.0
KATL 211452Z 30018G25KT 10SM BKN026 04/M01 A2989 RMK AO2 PK WND 29026/1359 SLP125 T00441011 53020,KATL,2018-03-21T14:52:00Z,33.63,-84.45,4.4,-1.1,300,18,25,10.0,29.890747,1012.5,,,TRUE,,,,,,,BKN,2600,,,,,,,MVFR,2.0,,,,,,,,,,,METAR,296.0
KARR 211452Z 02014G20KT 10SM CLR 01/M06 A3006 RMK AO2 SLP188 T00111061 51020,KARR,2018-03-21T14:52:00Z,41.77,-88.48,1.1,-6.1,20,14,20,10.0,30.059055,1018.8,,,TRUE,,,,,,,CLR,,,,,,,,VFR,2.0,,,,,,,,,,,METAR,215.0
KAQW 211452Z AUTO VRB05KT 10SM CLR 00/M10 A2980 RMK AO2 SLP101 T00001100 55003,KAQW,2018-03-21T14:52:00Z,42.7,-73.17,0.0,-10.0,0,5,,10.0,29.799213,1010.1,,TRUE,TRUE,,,,,,,CLR,,,,,,,,VFR,-0.3,,,,,,,,,,,METAR,199.0
KALS 211452Z AUTO 00000KT 10SM CLR M04/M13 A3013 RMK AO2 SLP215 T10391128 53005,KALS,2018-03-21T14:52:00Z,37.43,-105.87,-3.9,-12.8,0,0,,10.0,30.129921,1021.5,,TRUE,TRUE,,,,,,,CLR,,,,,,,,VFR,0.5,,,,,,,,,,,METAR,2299.0
KABQ 211452Z 35003KT 10SM SCT090 BKN300 06/M11 A3011 RMK AO2 SLP169 T00611111 53011,KABQ,2018-03-21T14:52:00Z,35.05,-106.62,6.1,-11.1,350,3,,10.0,30.109253,1016.9,,,TRUE,,,,,,,SCT,9000,BKN,30000,,,,,VFR,1.1,,,,,,,,,,,METAR,1618.0
KABI 211452Z 15014KT 10SM CLR 14/01 A3015 RMK AO2 SLP201 T01390006 53020,KABI,2018-03-21T14:52:00Z,32.42,-99.68,13.9,0.6,150,14,,10.0,30.15059,1020.1,,,TRUE,,,,,,,CLR,,,,,,,,VFR,2.0,,,,,,,,,,,METAR,548.0
KOKC 211452Z 10006KT 10SM FEW250 11/01 A3020 RMK AO2 SLP229 T01060011 51021,KOKC,2018-03-21T14:52:00Z,35.38,-97.6,10.6,1.1,100,6,,10.0,30.200787,1022.9,,,TRUE,,,,,,,FEW,25000,,,,,,,VFR,2.1,,,,,,,,,,,METAR,390.0
KOKB 211452Z AUTO 04003KT 10SM CLR 11/08 A2999 RMK AO2 SLP156 T01110078 51014,KOKB,2018-03-21T14:52:00Z,33.22,-117.35,11.1,7.8,40,3,,10.0,29.991142,1015.6,,TRUE,TRUE,,,,,,,CLR,,,,,,,,VFR,1.4,,,,,,,,,,,METAR,8.0
KMWH 211452Z 36009KT 10SM OVC110 01/M02 A2978 RMK AO2 SLP091 T00061022 57004 $,KMWH,2018-03-21T14:52:00Z,47.2,-119.32,0.6,-2.2,360,9,,10.0,29.778543,1009.1,,,TRUE,TRUE,,,,,,OVC,11000,,,,,,,VFR,-0.4,,,,,,,,,,,METAR,362.0
KMLI 211452Z 34008KT 10SM CLR 01/M08 A3013 RMK AO2 SLP207 T00111078 51021,KMLI,2018-03-21T14:52:00Z,41.45,-90.52,1.1,-7.8,340,8,,10.0,30.129921,1020.7,,,TRUE,,,,,,,CLR,,,,,,,,VFR,2.1,,,,,,,,,,,METAR,184.0
KMLF 211452Z AUTO 18011KT 10SM OVC065 07/M02 A2999 RMK AO2 SLP138 T00721017 51012,KMLF,2018-03-21T14:52:00Z,38.42,-113.02,7.2,-1.7,180,11,,10.0,29.991142,1013.8,,TRUE,TRUE,,,,,,,OVC,6500,,,,,,,VFR,1.2,,,,,,,,,,,METAR,1534.0
KMKE 211452Z 01013KT 10SM SCT027 BKN032 BKN250 M01/M06 A3009 RMK AO2 SLP199 T10061061 51019,KMKE,2018-03-21T14:52:00Z,42.95,-87.9,-0.6,-6.1,10,13,,10.0,30.088583,1019.9,,,TRUE,,,,,,,SCT,2700,BKN,3200,BKN,25000,,,VFR,1.9,,,,,,,,,,,METAR,206.0
KMHK 211452Z 00000KT 9SM CLR 03/M01 A3023 RMK AO2 SLP244 I3000 T00281006 51021,KMHK,2018-03-21T14:52:00Z,39.13,-96.68,2.8,-0.6,0,0,,9.0,30.230314,1024.4,,,TRUE,,,,,,,CLR,,,,,,,,VFR,2.1,,,,,,,,,,,METAR,317.0
KMFD 211452Z 03013KT 8SM BKN012 OVC022 M02/M04 A2976 RMK AO2 SLP093 60002 T10171044 51022,KMFD,2018-03-21T14:52:00Z,40.82,-82.52,-1.7,-4.4,30,13,,8.0,29.760826,1009.3,,,TRUE,,,,,,,BKN,1200,OVC,2200,,,,,MVFR,2.2,,,,,,0.02,,,,,METAR,395.0
KMEB 211452Z AUTO 36006KT 10SM SCT007 BKN011 OVC060 04/03 A2968 RMK AO2 RAB00E43 SLP052 P0003 60004 T00440033 53022,KMEB,2018-03-21T14:52:00Z,34.78,-79.37,4.4,3.3,360,6,,10.0,29.681103,1005.2,,TRUE,TRUE,,,,,,,SCT,700,BKN,1100,OVC,6000,,,MVFR,2.2,,,,,0.03,0.04,,,,,METAR,67.0
KMDH 211452Z 33017G28KT 10SM CLR 04/M04 A3008 RMK AO2 PK WND 35028/1449 SLP187 T00391039 51029,KMDH,2018-03-21T14:52:00Z,37.78,-89.25,3.9,-3.9,330,17,28,10.0,30.079725,1018.7,,,TRUE,,,,,,,CLR,,,,,,,,VFR,2.9,,,,,,,,,,,METAR,130.0
KMBG 211452Z AUTO 00000KT 9SM CLR M02/M03 A3000 RMK AO2 SLP178 I3000 T10171033 51010,KMBG,2018-03-21T14:52:00Z,45.55,-100.42,-1.7,-3.3,0,0,,9.0,30.0,1017.8,,TRUE,TRUE,,,,,,,CLR,,,,,,,,VFR,1.0,,,,,,,,,,,METAR,510.0
KLWC 211452Z AUTO 29006KT CLR A3022 RMK AO2 SLPNO 6//// 53023 PWINO FZRANO $,KLWC,2018-03-21T14:52:00Z,39.02,-95.22,,,290,6,,,30.221457,,,TRUE,TRUE,TRUE,,,TRUE,TRUE,,CLR,,,,,,,,,2.3,,,,,,,,,,,METAR,253.0
KISN 211452Z AUTO 23004KT 1/4SM FZFG VV003 M05/M06 A2999 RMK AO2 SLP182 I3000 T10501056 53005,KISN,2018-03-21T14:52:00Z,48.17,-103.63,-5.0,-5.6,230,4,,0.25,29.991142,1018.2,,TRUE,TRUE,,,,,,FZFG,OVX,0,,,,,,,LIFR,0.5,,,,,,,,,,300,METAR,579.0
KIOW 211452Z AUTO 35013KT 10SM CLR 01/M12 A3016 RMK AO2 SLP221 T00111117 51018,KIOW,2018-03-21T14:52:00Z,41.63,-91.55,1.1,-11.7,350,13,,10.0,30.159449,1022.1,,TRUE,TRUE,,,,,,,CLR,,,,,,,,VFR,1.8,,,,,,,,,,,METAR,198.0
KIJD 211452Z AUTO 04013G21KT 10SM FEW025 SCT060 OVC075 02/M05 A2975 RMK AO2 SLP077 T00171050 58001,KIJD,2018-03-21T14:52:00Z,41.75,-72.18,1.7,-5.0,40,13,21,10.0,29.749016,1007.7,,TRUE,TRUE,,,,,,,FEW,2500,SCT,6000,OVC,7500,,,VFR,-0.1,,,,,,,,,,,METAR,75.0
KIEN 211452Z AUTO 20006KT CLR 03/M02 A3002 RMK AO2 SLP190 T00281017 53005 $,KIEN,2018-03-21T14:52:00Z,43.03,-102.52,2.8,-1.7,200,6,,,30.02067,1019.0,,TRUE,TRUE,TRUE,,,,,,CLR,,,,,,,,,0.5,,,,,,,,,,,METAR,998.0
KHRL 211452Z 09007KT 10SM CLR 22/14 A3014 RMK AO2 SLP206 T02170144 51024,KHRL,2018-03-21T14:52:00Z,26.23,-97.65,21.7,14.4,90,7,,10.0,30.138779,1020.6,,,TRUE,,,,,,,CLR,,,,,,,,VFR,2.4,,,,,,,,,,,METAR,10.0
KGLS 211452Z 06011KT 10SM CLR 20/04 A3021 RMK AO2 SLP228 T02000039 53021 $,KGLS,2018-03-21T14:52:00Z,29.27,-94.87,20.0,3.9,60,11,,10.0,30.209646,1022.8,,,TRUE,TRUE,,,,,,CLR,,,,,,,,VFR,2.1,,,,,,,,,,,METAR,6.0
KP69 211452Z AUTO 34005KT 01/M01 A2992 RMK AO1 SLP149 T00111006 58007,KP69,2018-03-21T14:52:00Z,46.15,-115.6,1.1,-0.6,340,5,,,29.920275,1014.9,,TRUE,TRUE,,,,,,,,,,,,,,,,-0.7,,,,,,,,,,,METAR,480.0
CYEG 211452Z 31003KT 1 1/2SM BR SCT003 BKN014 BKN100 OVC240 M02/M02 A2984 RMK FG2ST1SC2AC2CI1 SLP139,CYEG,2018-03-21T14:52:00Z,53.28,-113.57,-2.0,-2.0,310,3,,1.5,29.840551,1013.9,,,,,,,,,BR,SCT,300,BKN,1400,BKN,10000,OVC,24000,IFR,,,,,,,,,,,,SPECI,723.0
KSPI 211452Z 35011KT 10SM CLR 02/M05 A3010 RMK AO2 SLP197 T00171050 51025,KSPI,2018-03-21T14:52:00Z,39.85,-89.68,1.7,-5.0,350,11,,10.0,30.100393,1019.7,,,TRUE,,,,,,,CLR,,,,,,,,VFR,2.5,,,,,,,,,,,METAR,181.0
PATA 211452Z 28005KT 10SM CLR M18/M20 A3060 RMK AO2 SLP370 I3001 T11831200 51018 PNO,PATA,2018-03-21T14:52:00Z,65.17,-152.1,-18.3,-20.0,280,5,,10.0,30.59941,1037.0,,,TRUE,,,,,,,CLR,,,,,,,,VFR,1.8,,,,,,,,,,,METAR,67.0
KVTN 211452Z AUTO 23003KT 2SM -SN CLR 02/M01 A3004 RMK AO2 VIS 1/2V5 SNB52 SLP195 P0000 60000 T00221006 55001,KVTN,2018-03-21T14:52:00Z,42.87,-100.55,2.2,-0.6,230,3,,2.0,30.041338,1019.5,,TRUE,TRUE,,,,,,-SN,CLR,,,,,,,,IFR,-0.1,,,,,0.005,0.005,,,,,METAR,788.0
KTRM 211452Z AUTO 00000KT 10SM CLR 16/04 A2993 RMK AO2 SLP135 T01560039 53018,KTRM,2018-03-21T14:52:00Z,33.63,-116.17,15.6,3.9,0,0,,10.0,29.929134,1013.5,,TRUE,TRUE,,,,,,,CLR,,,,,,,,VFR,1.8,,,,,,,,,,,METAR,-35.0
KTOL 211452Z 01014KT 10SM OVC080 01/M07 A2990 RMK AO2 SNE13 SLP130 P0000 60000 T00061072 51021,KTOL,2018-03-21T14:52:00Z,41.58,-83.8,0.6,-7.2,10,14,,10.0,29.899607,1013.0,,,TRUE,,,,,,,OVC,8000,,,,,,,VFR,2.1,,,,,0.005,0.005,,,,,METAR,210.0
KTAN 211452Z AUTO 04008G22KT 010V080 10SM OVC025 03/M02 A2975 RMK AO2 SLP076 T00331022 51008,KTAN,2018-03-21T14:52:00Z,41.88,-71.02,3.3,-2.2,40,8,22,10.0,29.749016,1007.6,,TRUE,TRUE,,,,,,,OVC,2500,,,,,,,MVFR,0.8,,,,,,,,,,,METAR,7.0
KSPS 211452Z 14006KT 10SM FEW250 11/00 A3019 RMK AO2 SLP223 T01110000 51020,KSPS,2018-03-21T14:52:00Z,33.98,-98.5,11.1,0.0,140,6,,10.0,30.188976,1022.3,,,TRUE,,,,,,,FEW,25000,,,,,,,VFR,2.0,,,,,,,,,,,METAR,308.0
PTRO 211452Z 00000KT 14SM SCT016 BKN120 BKN300 25/23 A2974 ,PTRO,2018-03-21T14:52:00Z,7.37,134.55,25.0,23.0,0,0,,14.0,29.740158,,,,,,,,,,,SCT,1600,BKN,12000,BKN,30000,,,VFR,,,,,,,,,,,,METAR,54.0
CYGE 211452Z 00000KT 20SM -SN FEW030 BKN050 OVC100 00/M02 A2983 RMK SC1SC5AS3 SC TR SLP130,CYGE,2018-03-21T14:52:00Z,51.3,-116.98,0.0,-2.0,0,0,,20.0,29.828741,1013.0,,,,,,,,,-SN,FEW,3000,BKN,5000,OVC,10000,,,VFR,,,,,,,,,,,,SPECI,785.0
KN60 211452Z AUTO 27003KT M04/M06 A3000 RMK AO1 SLP185 T10441056 53011,KN60,2018-03-21T14:52:00Z,47.65,-101.43,-4.4,-5.6,270,3,,,30.0,1018.5,,TRUE,TRUE,,,,,,,,,,,,,,,,1.1,,,,,,,,,,,METAR,582.0
KBAN 211452Z AUTO VRB04KT 10SM -RA BKN036 OVC055 02/00 A2988 RMK AO2 SLP103 P0000 60011 T00220000 58002 $,KBAN,2018-03-21T14:52:00Z,38.35,-119.52,2.2,0.0,0,4,,10.0,29.878937,1010.3,,TRUE,TRUE,TRUE,,,,,-RA,BKN,3600,OVC,5500,,,,,VFR,-0.2,,,,,0.005,0.11,,,,,METAR,2057.0
KCDJ 211452Z AUTO 32007KT 04/00 A3020 RMK AO1 SLP234 T00440000 53024,KCDJ,2018-03-21T14:52:00Z,39.82,-93.58,4.4,0.0,320,7,,,30.200787,1023.4,,TRUE,TRUE,,,,,,,,,,,,,,,,2.4,,,,,,,,,,,METAR,234.0
KCZZ 211452Z AUTO 06005KT 07/01 A3000 RMK AO1 SLP144 T00670006 51015,KCZZ,2018-03-21T14:52:00Z,32.63,-116.47,6.7,0.6,60,5,,,30.0,1014.4,,TRUE,TRUE,,,,,,,,,,,,,,,,1.5,,,,,,,,,,,METAR,807.0
KREO 211452Z AUTO 14013KT 05/02 A2983 RMK AO1 SLP100 T00500017 53001,KREO,2018-03-21T14:52:00Z,42.58,-117.87,5.0,1.7,140,13,,,29.828741,1010.0,,TRUE,TRUE,,,,,,,,,,,,,,,,0.1,,,,,,,,,,,METAR,1235.0
KNZY 211452Z 31004KT 10SM FEW150 BKN250 14/09 A3000 RMK AO2 SLP158 T01440089 53017 $,KNZY,2018-03-21T14:52:00Z,32.7,-117.22,14.4,8.9,310,4,,10.0,30.0,1015.8,,,TRUE,TRUE,,,,,,FEW,15000,BKN,25000,,,,,VFR,1.7,,,,,,,,,,,METAR,8.0
KNRB 211452Z 28015G25KT 10SM FEW250 15/02 A2990 RMK AO2 PK WND 29028/1402 SLP122 T01500017 51020 $,KNRB,2018-03-21T14:52:00Z,30.38,-81.42,15.0,1.7,280,15,25,10.0,29.899607,1012.2,,,TRUE,TRUE,,,,,,FEW,25000,,,,,,,VFR,2.0,,,,,,,,,,,METAR,5.0
PABA 211452Z 27022KT 5SM BR CLR M23/M25 A3069 RMK AO2 SLP379 60000 T12281250 51017 FZRANO,PABA,2018-03-21T14:52:00Z,70.13,-143.58,-22.8,-25.0,270,22,,5.0,30.690945,1037.9,,,TRUE,,,,TRUE,,BR,CLR,,,,,,,,MVFR,1.7,,,,,,0.005,,,,,METAR,2.0
KBML 211452Z AUTO 22003KT 10SM CLR M05/M12 A2984 RMK AO2 SLP127 T10501117 58014,KBML,2018-03-21T14:52:00Z,44.58,-71.18,-5.0,-11.7,220,3,,10.0,29.840551,1012.7,,TRUE,TRUE,,,,,,,CLR,,,,,,,,VFR,-1.4,,,,,,,,,,,METAR,345.0
KHUT 211452Z 17003KT 8SM CLR 05/01 A3019 RMK AO2 SLP225 I3000 T00500011 51018,KHUT,2018-03-21T14:52:00Z,38.07,-97.87,5.0,1.1,170,3,,8.0,30.188976,1022.5,,,TRUE,,,,,,,CLR,,,,,,,,VFR,1.8,,,,,,,,,,,METAR,467.0
KNFW 211452Z 00000KT 10SM FEW250 13/03 A3021 RMK AO2 SLP213 T01330033 51025 $,KNFW,2018-03-21T14:52:00Z,32.78,-97.43,13.3,3.3,0,0,,10.0,30.209646,1021.3,,,TRUE,TRUE,,,,,,FEW,25000,,,,,,,VFR,2.5,,,,,,,,,,,METAR,198.0
KNHK 211452Z 35010KT 3/4SM -SN BR BKN005 OVC010 01/01 A2961 RMK AO2 UPB00E02SNE00B02 SLP027 P0005 60018 T00060006 52010 ,KNHK,2018-03-21T14:52:00Z,38.27,-76.4,0.6,0.6,350,10,,0.75,29.610237,1002.7,,,TRUE,,,,,,-SN BR,BKN,500,OVC,1000,,,,,LIFR,1.0,,,,,0.05,0.18,,,,,METAR,12.0
KIAD 211452Z 34010KT 1/2SM R01R/2800V4000FT SN FZFG OVC007 M01/M01 A2966 RMK AO2 SLP048 SNINCR 1/3 P0007 60024 T10061011 51009,KIAD,2018-03-21T14:52:00Z,38.93,-77.45,-0.6,-1.1,340,10,,0.5,29.660433,1004.8,,,TRUE,,,,,,SN FZFG,OVC,700,,,,,,,LIFR,0.9,,,,,0.07,0.24,,,3.0,,METAR,93.0
KBYH 211452Z 33009KT 10SM BKN050 BKN085 07/02 A3012,KBYH,2018-03-21T14:52:00Z,35.97,-89.95,7.0,2.0,330,9,,10.0,30.121063,,,,,,,,,,,BKN,5000,BKN,8500,,,,,VFR,,,,,,,,,,,,METAR,78.0
KACT 211451Z 00000KT 10SM CLR 13/04 A3022 RMK AO2 SLP230 T01330039 51026,KACT,2018-03-21T14:51:00Z,31.62,-97.23,13.3,3.9,0,0,,10.0,30.221457,1023.0,,,TRUE,,,,,,,CLR,,,,,,,,VFR,2.6,,,,,,,,,,,METAR,151.0
KAHN 211451Z 28013G23KT 10SM BKN034 OVC041 05/M01 A2983 RMK AO2 SLP103 T00501011 53022,KAHN,2018-03-21T14:51:00Z,33.95,-83.33,5.0,-1.1,280,13,23,10.0,29.828741,1010.3,,,TRUE,,,,,,,BKN,3400,OVC,4100,,,,,VFR,2.2,,,,,,,,,,,METAR,244.0
KAVX 211451Z AUTO 00000KT 10SM OVC041 15/00 A3001 RMK AO2 SLP153 T01500000 53009,KAVX,2018-03-21T14:51:00Z,33.4,-118.42,15.0,0.0,0,0,,10.0,30.008858,1015.3,,TRUE,TRUE,,,,,,,OVC,4100,,,,,,,VFR,0.9,,,,,,,,,,,METAR,482.0
KALB 211451Z 36008KT 10SM BKN170 OVC250 M02/M11 A2985 RMK AO2 SLP112 T10171106 55000,KALB,2018-03-21T14:51:00Z,42.75,-73.8,-1.7,-10.6,360,8,,10.0,29.84941,1011.2,,,TRUE,,,,,,,BKN,17000,OVC,25000,,,,,VFR,0.0,,,,,,,,,,,METAR,92.0
KCLE 211451Z 04019G28KT 9SM -SN FEW017 BKN042 OVC060 M01/M04 A2985 RMK AO2 PK WND 03028/1447 SNB26 SLP117 P0000 60000 T10061044 51022,KCLE,2018-03-21T14:51:00Z,41.42,-81.85,-0.6,-4.4,40,19,28,9.0,29.84941,1011.7,,,TRUE,,,,,,-SN,FEW,1700,BKN,4200,OVC,6000,,,VFR,2.2,,,,,0.005,0.005,,,,,METAR,233.0
KCAK 211451Z 03013KT 3SM -SN BKN014 OVC027 M02/M05 A2976 RMK AO2 SFC VIS 5 SLP089 P0001 60005 T10171050 53020,KCAK,2018-03-21T14:51:00Z,40.92,-81.45,-1.7,-5.0,30,13,,3.0,29.760826,1008.9,,,TRUE,,,,,,-SN,BKN,1400,OVC,2700,,,,,MVFR,2.0,,,,,0.01,0.05,,,,,METAR,377.0
KBKW 211451Z AUTO 27008KT 3/4SM -SN BR SCT008 BKN013 OVC019 M01/M02 A2959 RMK AO2 CIG 008 RWY19 SLP043 P0000 60004 T10111022 52006 TSNO,KBKW,2018-03-21T14:51:00Z,37.8,-81.12,-1.1,-2.2,270,8,,0.75,29.589567,1004.3,,TRUE,TRUE,,,TRUE,,,-SN BR,SCT,800,BKN,1300,OVC,1900,,,LIFR,0.6,,,,,0.005,0.04,,,,,METAR,764.0
KBHK 211451Z AUTO 00000KT 10SM CLR M07/M08 A2997 RMK AO2 SLP183 I3000 T10671083 53008,KBHK,2018-03-21T14:51:00Z,46.35,-104.25,-6.7,-8.3,0,0,,10.0,29.970472,1018.3,,TRUE,TRUE,,,,,,,CLR,,,,,,,,VFR,0.8,,,,,,,,,,,METAR,902.0
KBGD 211451Z AUTO 06003KT 10SM CLR 06/M04 A3014 RMK AO2 SLP201 T00611044 53016,KBGD,2018-03-21T14:51:00Z,35.7,-101.4,6.1,-4.4,60,3,,10.0,30.138779,1020.1,,TRUE,TRUE,,,,,,,CLR,,,,,,,,VFR,1.6,,,,,,,,,,,METAR,927.0
KBDL 211451Z 01014G19KT 10SM FEW030 OVC085 00/M09 A2977 RMK AO2 SLP082 T00001094 58004,KBDL,2018-03-21T14:51:00Z,41.93,-72.68,0.0,-9.4,10,14,19,10.0,29.769686,1008.2,,,TRUE,,,,,,,FEW,3000,OVC,8500,,,,,VFR,-0.4,,,,,,,,,,,METAR,60.0
KBAZ 211451Z 16008KT 10SM CLR 16/03 A3019 RMK AO2 SLP218 T01610028 51024,KBAZ,2018-03-21T14:51:00Z,29.72,-98.05,16.1,2.8,160,8,,10.0,30.188976,1021.8,,,TRUE,,,,,,,CLR,,,,,,,,VFR,2.4,,,,,,,,,,,METAR,195.0
KCMH 211451Z 02009KT 7SM BKN019 OVC025 01/M02 A2974 RMK AO2 SNE32 SLP079 P0001 60001 T00061017 53026,KCMH,2018-03-21T14:51:00Z,40.0,-82.88,0.6,-1.7,20,9,,7.0,29.740158,1007.9,,,TRUE,,,,,,,BKN,1900,OVC,2500,,,,,MVFR,2.6,,,,,0.01,0.01,,,,,METAR,247.0
KCON 211451Z AUTO 03005KT 10SM CLR 00/M09 A2985 RMK AO2 SLP113 T00001094 57002,KCON,2018-03-21T14:51:00Z,43.2,-71.5,0.0,-9.4,30,5,,10.0,29.84941,1011.3,,TRUE,TRUE,,,,,,,CLR,,,,,,,,VFR,-0.2,,,,,,,,,,,METAR,103.0
KCRP 211451Z 11014KT 10SM SCT250 21/11 A3016 RMK AO2 SLP212 T02110111 53019,KCRP,2018-03-21T14:51:00Z,27.77,-97.5,21.1,11.1,110,14,,10.0,30.159449,1021.2,,,TRUE,,,,,,,SCT,25000,,,,,,,VFR,1.9,,,,,,,,,,,METAR,14.0
KCSG 211451Z 32017G23KT 10SM FEW039 10/M02 A2997 RMK AO2 PK WND 32028/1405 SLP149 T01001017 51019,KCSG,2018-03-21T14:51:00Z,32.52,-84.95,10.0,-1.7,320,17,23,10.0,29.970472,1014.9,,,TRUE,,,,,,,FEW,3900,,,,,,,VFR,1.9,,,,,,,,,,,METAR,135.0
KDAW 211451Z AUTO 04006KT 10SM CLR M01/M09 A2984 RMK AO2 SLP106 T10061094 58002,KDAW,2018-03-21T14:51:00Z,43.28,-70.92,-0.6,-9.4,40,6,,10.0,29.840551,1010.6,,TRUE,TRUE,,,,,,,CLR,,,,,,,,VFR,-0.2,,,,,,,,,,,METAR,100.0
KEKN 211451Z AUTO 00000KT 1 3/4SM -SN BKN028 OVC034 M02/M05 A2960 RMK AO2 SLP045 P0002 60006 T10221050 51007 TSNO $,KEKN,2018-03-21T14:51:00Z,38.88,-79.85,-2.2,-5.0,0,0,,1.75,29.601377,1004.5,,TRUE,TRUE,TRUE,,TRUE,,,-SN,BKN,2800,OVC,3400,,,,,IFR,0.7,,,,,0.02,0.06,,,,,METAR,603.0
KELP 211451Z 02005KT 10SM BKN250 11/M11 A3006 RMK AO2 SLP142 T01111111 51015,KELP,2018-03-21T14:51:00Z,31.82,-106.38,11.1,-11.1,20,5,,10.0,30.059055,1014.2,,,TRUE,,,,,,,BKN,25000,,,,,,,VFR,1.5,,,,,,,,,,,METAR,1197.0
KERI 211451Z 05018G26KT 10SM BKN017 M01/M06 A2983 RMK AO2 PK WND 03028/1410 SLP110 T10111061 53013,KERI,2018-03-21T14:51:00Z,42.08,-80.18,-1.1,-6.1,50,18,26,10.0,29.828741,1011.0,,,TRUE,,,,,,,BKN,1700,,,,,,,MVFR,1.3,,,,,,,,,,,METAR,222.0
KEWR 211451Z 02016KT 1/2SM R04R/3000V3500FT SN FZFG SCT004 BKN007 OVC013 M01/M01 A2967 RMK AO2 PK WND 03027/1428 SLP048 SNINCR 1/3 P0005 60013 T10061011 58010,KEWR,2018-03-21T14:51:00Z,40.68,-74.17,-0.6,-1.1,20,16,,0.5,29.66929,1004.8,,,TRUE,,,,,,SN FZFG,SCT,400,BKN,700,OVC,1300,,,LIFR,-1.0,,,,,0.05,0.13,,,3.0,,METAR,7.0
KHDO 211451Z AUTO 11009KT 10SM CLR 16/03 A3018 RMK AO2 SLP210 T01610033 53017,KHDO,2018-03-21T14:51:00Z,29.37,-99.17,16.1,3.3,110,9,,10.0,30.180119,1021.0,,TRUE,TRUE,,,,,,,CLR,,,,,,,,VFR,1.7,,,,,,,,,,,METAR,282.0
KHSE 211451Z AUTO 28006KT 10SM -RA OVC007 07/06 A2959 RMK AO2 RAB46 SLP019 P0000 60000 T00670061 53014,KHSE,2018-03-21T14:51:00Z,35.23,-75.62,6.7,6.1,280,6,,10.0,29.589567,1001.9,,TRUE,TRUE,,,,,,-RA,OVC,700,,,,,,,IFR,1.4,,,,,0.005,0.005,,,,,METAR,3.0
KHTS 211451Z 26010KT 3/4SM -SN BR BKN006 OVC012 01/M01 A2970 RMK AO2 SLP062 P0002 60002 T00061011 53019,KHTS,2018-03-21T14:51:00Z,38.37,-82.55,0.6,-1.1,260,10,,0.75,29.698818,1006.2,,,TRUE,,,,,,-SN BR,BKN,600,OVC,1200,,,,,LIFR,1.9,,,,,0.02,0.02,,,,,METAR,254.0
KIGM 211451Z AUTO 15003KT 10SM CLR 12/M04 A3002 RMK AO2 SLP123 T01221039 53016,KIGM,2018-03-21T14:51:00Z,35.25,-113.93,12.2,-3.9,150,3,,10.0,30.02067,1012.3,,TRUE,TRUE,,,,,,,CLR,,,,,,,,VFR,1.6,,,,,,,,,,,METAR,1032.0
KILG 211451Z 03013KT 3/4SM R01/4000V4500FT SNPL BR OVC007 00/M01 A2965 RMK AO2 SLP042 P0007 60013 I3006 T00001006 50003,KILG,2018-03-21T14:51:00Z,39.67,-75.6,0.0,-0.6,30,13,,0.75,29.648623,1004.2,,,TRUE,,,,,,SN PL BR,OVC,700,,,,,,,LIFR,0.3,,,,,0.07,0.13,,,,,METAR,28.0
KJCT 211451Z AUTO 10005KT 10SM CLR 13/01 A3015 RMK AO2 SLP187 T01280006 51013,KJCT,2018-03-21T14:51:00Z,30.5,-99.77,12.8,0.6,100,5,,10.0,30.15059,1018.7,,TRUE,TRUE,,,,,,,CLR,,,,,,,,VFR,1.3,,,,,,,,,,,METAR,522.0
KJFK 211451Z 03020G25KT 2 1/2SM R04R/3500VP6000FT -SN BR FEW007 BKN013 OVC038 00/M01 A2967 RMK AO2 PK WND 03029/1406 SFC VIS 3 PLE19 SLP048 P0004 60015 T00001011 58002,KJFK,2018-03-21T14:51:00Z,40.63,-73.77,0.0,-1.1,30,20,25,2.5,29.66929,1004.8,,,TRUE,,,,,,-SN BR,FEW,700,BKN,1300,OVC,3800,,,IFR,-0.2,,,,,0.04,0.15,,,,,METAR,9.0
KLGA 211451Z 03018G26KT 1/2SM R04/2600V3000FT -SN BR BKN007 OVC010 01/M02 A2967 RMK AO2 PK WND 02026/1432 SFC VIS 3/4 SLP048 SNINCR 1/2 P0007 60014 T00061017 58006,KLGA,2018-03-21T14:51:00Z,40.78,-73.88,0.6,-1.7,30,18,26,0.5,29.66929,1004.8,,,TRUE,,,,,,-SN BR,BKN,700,OVC,1000,,,,,LIFR,-0.6,,,,,0.07,0.14,,,2.0,,METAR,11.0
KLGU 211451Z AUTO 01008KT 10SM SCT050 OVC080 05/01 A2998 RMK AO2 RAB1357RAEMM SLP142 P0000 60000 T00500006 51010 $,KLGU,2018-03-21T14:51:00Z,41.78,-111.85,5.0,0.6,10,8,,10.0,29.97933,1014.2,,TRUE,TRUE,TRUE,,,,,,SCT,5000,OVC,8000,,,,,VFR,1.0,,,,,0.005,0.005,,,,,METAR,1355.0
KMYL 211451Z AUTO 00000KT 10SM OVC048 M02/M04 A2983 RMK AO2 SLP120 T10221039 55002 $,KMYL,2018-03-21T14:51:00Z,44.9,-116.1,-2.2,-3.9,0,0,,10.0,29.828741,1012.0,,TRUE,TRUE,TRUE,,,,,,OVC,4800,,,,,,,VFR,-0.2,,,,,,,,,,,METAR,1533.0
KORD 211451Z 02014KT 10SM SCT029 BKN150 BKN250 01/M07 A3006 RMK AO2 SLP185 T00061072 51020,KORD,2018-03-21T14:51:00Z,41.98,-87.93,0.6,-7.2,20,14,,10.0,30.059055,1018.5,,,TRUE,,,,,,,SCT,2900,BKN,15000,BKN,25000,,,VFR,2.0,,,,,,,,,,,METAR,200.0
KORF 211451Z VRB05KT 5SM BR BKN007 OVC011 03/03 A2957 RMK AO2 UPE1358RAB1358E16 SLP012 P0000 60003 T00330028 51007,KORF,2018-03-21T14:51:00Z,36.9,-76.2,3.3,2.8,0,5,,5.0,29.568897,1001.2,,,TRUE,,,,,,BR,BKN,700,OVC,1100,,,,,IFR,0.7,,,,,0.005,0.03,,,,,METAR,14.0
KOXR 211451Z 12005KT 9SM -RA FEW039 BKN055 OVC070 13/11 A3000 RMK AO2 RAE09B28 SLP158 P0003 60011 T01330111 51018,KOXR,2018-03-21T14:51:00Z,34.2,-119.2,13.3,11.1,120,5,,9.0,30.0,1015.8,,,TRUE,,,,,,-RA,FEW,3900,BKN,5500,OVC,7000,,,VFR,1.8,,,,,0.03,0.11,,,,,METAR,20.0
KPHX 211451Z 10008KT 10SM BKN250 16/M06 A2996 RMK AO2 SLP133 T01611056 53011,KPHX,2018-03-21T14:51:00Z,33.43,-112.02,16.1,-5.6,100,8,,10.0,29.958662,1013.3,,,TRUE,,,,,,,BKN,25000,,,,,,,VFR,1.1,,,,,,,,,,,METAR,336.0
KPIT 211451Z 04006KT 1/2SM R28R/2800V4000FT SN VV009 M01/M03 A2971 RMK AO2 SLP080 P0004 60017 T10111028 53014,KPIT,2018-03-21T14:51:00Z,40.5,-80.27,-1.1,-2.8,40,6,,0.5,29.71063,1008.0,,,TRUE,,,,,,SN,OVX,0,,,,,,,LIFR,1.4,,,,,0.04,0.17,,,,900,METAR,357.0
KPVD 211451Z 02018G23KT 10SM OVC023 03/M01 A2975 RMK AO2 PK WND 03027/1410 SLP074 60000 T00281011 50006,KPVD,2018-03-21T14:51:00Z,41.72,-71.43,2.8,-1.1,20,18,23,10.0,29.749016,1007.4,,,TRUE,,,,,,,OVC,2300,,,,,,,MVFR,0.6,,,,,,0.005,,,,,METAR,16.0
KSMX 211451Z 14010KT 6SM -RA BR OVC025 14/13 A2990 RMK AO2 SLP127 P0007 60010 T01440128 56008,KSMX,2018-03-21T14:51:00Z,34.9,-120.45,14.4,12.8,140,10,,6.0,29.899607,1012.7,,,TRUE,,,,,,-RA BR,OVC,2500,,,,,,,MVFR,-0.8,,,,,0.07,0.1,,,,,METAR,74.0
KSMO 211451Z 00000KT 10SM SCT048 BKN085 16/09 A3000 RMK AO2 SLP157 T01560094 50013,KSMO,2018-03-21T14:51:00Z,34.02,-118.45,15.6,9.4,0,0,,10.0,30.0,1015.7,,,TRUE,,,,,,,SCT,4800,BKN,8500,,,,,VFR,1.3,,,,,,,,,,,METAR,57.0
KSTL 211451Z 32011KT 10SM FEW065 FEW250 04/M04 A3011 RMK AO2 SLP203 T00391039 51026,KSTL,2018-03-21T14:51:00Z,38.75,-90.37,3.9,-3.9,320,11,,10.0,30.109253,1020.3,,,TRUE,,,,,,,FEW,6500,FEW,25000,,,,,VFR,2.6,,,,,,,,,,,METAR,171.0
KVCT 211451Z 09009KT 10SM CLR 18/05 A3019 RMK AO2 SLP221 T01780050 53020,KVCT,2018-03-21T14:51:00Z,28.87,-96.93,17.8,5.0,90,9,,10.0,30.188976,1022.1,,,TRUE,,,,,,,CLR,,,,,,,,VFR,2.0,,,,,,,,,,,METAR,31.0
KTEB 211451Z 02010G21KT 1/2SM R06/3000V4500FT -SN BR OVC005 00/M02 A2968 RMK AO2 SLP049 P0006 60011 T00001017 58007,KTEB,2018-03-21T14:51:00Z,40.87,-74.05,0.0,-1.7,20,10,21,0.5,29.681103,1004.9,,,TRUE,,,,,,-SN BR,OVC,500,,,,,,,LIFR,-0.7,,,,,0.06,0.11,,,,,METAR,7.0
PTYA 211451Z 04007KT 12SM FEW016 SCT130 BKN300 27/23 A2972 RMK SLP066 8/171 T02710226 403190264 58003,PTYA,2018-03-21T14:51:00Z,9.48,138.08,27.1,22.6,40,7,,12.0,29.719488,1006.6,,,,,,,,,,FEW,1600,SCT,13000,BKN,30000,,,VFR,-0.3,,,31.9,26.4,,,,,,,METAR,17.0
YPGV 211451Z AUTO 13014KT 9999 // BKN013 OVC028 26/25 Q1002,YPGV,2018-03-21T14:51:00Z,-12.27,136.82,26.0,25.0,130,14,,6.21,29.586615,,,TRUE,,,,,,,,BKN,1300,OVC,2800,,,,,MVFR,,,,,,,,,,,,SPECI,55.0
KMPV 211451Z AUTO 00000KT 10SM CLR M06/M12 A2988 RMK AO2 SLP139 T10611122 58008,KMPV,2018-03-21T14:51:00Z,44.2,-72.57,-6.1,-12.2,0,0,,10.0,29.878937,1013.9,,TRUE,TRUE,,,,,,,CLR,,,,,,,,VFR,-0.8,,,,,,,,,,,METAR,343.0
KOXC 211451Z 04015G21KT 1 3/4SM -SN BKN020 OVC033 M02/M06 A2969 RMK AO2 SLP075 P0000 60000 T10171056 58004,KOXC,2018-03-21T14:51:00Z,41.47,-73.13,-1.7,-5.6,40,15,21,1.75,29.68996,1007.5,,,TRUE,,,,,,-SN,BKN,2000,OVC,3300,,,,,IFR,-0.4,,,,,0.005,0.005,,,,,METAR,222.0
KTPL 211451Z AUTO 17003KT 10SM CLR 14/04 A3022 RMK AO2 SLP250 T01440039 51030,KTPL,2018-03-21T14:51:00Z,31.13,-97.4,14.4,3.9,170,3,,10.0,30.221457,1025.0,,TRUE,TRUE,,,,,,,CLR,,,,,,,,VFR,3.0,,,,,,,,,,,METAR,208.0
PAMD 211451Z AUTO 33027G37KT 10SM CLR 02/M09 A3006 RMK AO2 PK WND 34039/1433 SLP171 T00171094 50002 FZRANO,PAMD,2018-03-21T14:51:00Z,59.43,-146.3,1.7,-9.4,330,27,37,10.0,30.059055,1017.1,,TRUE,TRUE,,,,TRUE,,,CLR,,,,,,,,VFR,0.2,,,,,,,,,,,METAR,14.0
KSNT 211451Z AUTO 00000KT M05/M07 A2989 RMK AO1 SLP120 T10501072 55003,KSNT,2018-03-21T14:51:00Z,44.17,-114.93,-5.0,-7.2,0,0,,,29.890747,1012.0,,TRUE,TRUE,,,,,,,,,,,,,,,,-0.3,,,,,,,,,,,METAR,1980.0
KNYC 211451Z AUTO 04012G19KT 1/4SM +SN FZFG VV008 M01/M01 A2969 RMK AO2 SLP045 P0013 60028 T10061011 58009,KNYC,2018-03-21T14:51:00Z,40.78,-73.97,-0.6,-1.1,40,12,19,0.25,29.68996,1004.5,,TRUE,TRUE,,,,,,+SN FZFG,OVX,0,,,,,,,LIFR,-0.9,,,,,0.13,0.28,,,,800,METAR,11.0
KP58 211451Z AUTO 03017KT M02/M06 A3001 RMK AO1 SLP175 T10171056 52017,KP58,2018-03-21T14:51:00Z,44.02,-82.8,-1.7,-5.6,30,17,,,30.008858,1017.5,,TRUE,TRUE,,,,,,,,,,,,,,,,1.7,,,,,,,,,,,METAR,179.0
KATT 211451Z AUTO 00000KT 10SM CLR 16/ A3021 RMK AO2 SLP227 T0156 53024 $,KATT,2018-03-21T14:51:00Z,30.32,-97.77,15.6,,0,0,,10.0,30.209646,1022.7,,TRUE,TRUE,TRUE,,,,,,CLR,,,,,,,,VFR,2.4,,,,,,,,,,,METAR,201.0
KP59 211451Z AUTO 11006KT M03/M09 A3020 RMK AO1 SLP246 T10331094 51014,KP59,2018-03-21T14:51:00Z,47.47,-87.88,-3.3,-9.4,110,6,,,30.200787,1024.6,,TRUE,TRUE,,,,,,,,,,,,,,,,1.4,,,,,,,,,,,METAR,190.0
KABE 211451Z 05016G26KT 3/4SM -SN FEW013 BKN023 OVC035 M01/M04 A2967 RMK AO2 PK WND 05026/1447 SFC VIS 1 3/4 SLP048 P0002 60006 T10061039 56008,KABE,2018-03-21T14:51:00Z,40.65,-75.45,-0.6,-3.9,50,16,26,0.75,29.66929,1004.8,,,TRUE,,,,,,-SN,FEW,1300,BKN,2300,OVC,3500,,,LIFR,-0.8,,,,,0.02,0.06,,,,,METAR,114.0
KYNG 211451Z 02008KT 3SM -SN BKN022 OVC035 M02/M06 A2976 RMK AO2 SLP090 60011 T10171061 53015,KYNG,2018-03-21T14:51:00Z,41.25,-80.67,-1.7,-6.1,20,8,,3.0,29.760826,1009.0,,,TRUE,,,,,,-SN,BKN,2200,OVC,3500,,,,,MVFR,1.5,,,,,,0.11,,,,,METAR,360.0
KVNY 211451Z 00000KT 10SM OVC045 13/12 A3000 RMK AO2 RAE40 SLP154 P0000 60001 T01330122 50015,KVNY,2018-03-21T14:51:00Z,34.22,-118.48,13.3,12.2,0,0,,10.0,30.0,1015.4,,,TRUE,,,,,,,OVC,4500,,,,,,,VFR,1.5,,,,,0.005,0.01,,,,,METAR,245.0
KSLK 211451Z AUTO 05008KT 10SM CLR M04/M11 A2981 RMK AO2 SLP121 T10441111 55002,KSLK,2018-03-21T14:51:00Z,44.4,-74.2,-4.4,-11.1,50,8,,10.0,29.811024,1012.1,,TRUE,TRUE,,,,,,,CLR,,,,,,,,VFR,-0.2,,,,,,,,,,,METAR,498.0
KSJT 211451Z 17010KT 10SM CLR 16/M01 A3013 RMK AO2 SLP195 T01611006 51017,KSJT,2018-03-21T14:51:00Z,31.37,-100.5,16.1,-0.6,170,10,,10.0,30.129921,1019.5,,,TRUE,,,,,,,CLR,,,,,,,,VFR,1.7,,,,,,,,,,,METAR,576.0
KSAT 211451Z 11007KT 10SM BKN250 16/03 A3019 RMK AO2 SLP211 T01560033 52019 $,KSAT,2018-03-21T14:51:00Z,29.53,-98.47,15.6,3.3,110,7,,10.0,30.188976,1021.1,,,TRUE,TRUE,,,,,,BKN,25000,,,,,,,VFR,1.9,,,,,,,,,,,METAR,243.0
KSAN 211451Z 34003KT 10SM FEW120 SCT200 BKN250 14/07 A3002 RMK AO2 SLP165 T01440067 53017,KSAN,2018-03-21T14:51:00Z,32.73,-117.18,14.4,6.7,340,3,,10.0,30.02067,1016.5,,,TRUE,,,,,,,FEW,12000,SCT,20000,BKN,25000,,,VFR,1.7,,,,,,,,,,,METAR,12.0
KSAD 211451Z AUTO 15004KT 10SM CLR 11/M09 A3004 RMK AO2 SLP148 T01061089 53013,KSAD,2018-03-21T14:51:00Z,32.85,-109.63,10.6,-8.9,150,4,,10.0,30.041338,1014.8,,TRUE,TRUE,,,,,,,CLR,,,,,,,,VFR,1.3,,,,,,,,,,,METAR,962.0
KROW 211451Z 34012KT 10SM CLR 10/M10 A3008 RMK AO2 SLP152 T01001100 51017,KROW,2018-03-21T14:51:00Z,33.3,-104.5,10.0,-10.0,340,12,,10.0,30.079725,1015.2,,,TRUE,,,,,,,CLR,,,,,,,,VFR,1.7,,,,,,,,,,,METAR,1112.0
KRDU 211451Z VRB04KT 8SM -SN BKN009 BKN032 OVC075 01/M01 A2967 RMK AO2 SLP049 P0000 60003 T00111006 53015,KRDU,2018-03-21T14:51:00Z,35.9,-78.78,1.1,-0.6,0,4,,8.0,29.66929,1004.9,,,TRUE,,,,,,-SN,BKN,900,BKN,3200,OVC,7500,,,IFR,1.5,,,,,0.005,0.03,,,,,METAR,130.0
KPWM 211451Z 03009G17KT 360V100 10SM BKN150 OVC200 M01/M10 A2986 RMK AO2 SLP114 T10061100 58007,KPWM,2018-03-21T14:51:00Z,43.65,-70.3,-0.6,-10.0,30,9,17,10.0,29.861221,1011.4,,,TRUE,,,,,,,BKN,15000,OVC,20000,,,,,VFR,-0.7,,,,,,,,,,,METAR,15.0
KBVE 211451Z AUTO 31012G16KT 6SM HZ CLR 16/08 A3017 RMK AO2 SLP215 T01610083 51022 ,KBVE,2018-03-21T14:51:00Z,29.32,-89.4,16.1,8.3,310,12,16,6.0,30.171259,1021.5,,TRUE,TRUE,,,,,,HZ,CLR,,,,,,,,VFR,2.2,,,,,,,,,,,METAR,1.0
KGDP 211451Z AUTO 21005KT 10SM CLR 12/M11 A3012 RMK AO2 SLP152 T01221111 51017,KGDP,2018-03-21T14:51:00Z,31.83,-104.82,12.2,-11.1,210,5,,10.0,30.121063,1015.2,,TRUE,TRUE,,,,,,,CLR,,,,,,,,VFR,1.7,,,,,,,,,,,METAR,1692.0
EDJA 211450Z 07005KT 020V130 9999 FEW035 BKN053 01/M05 Q1024,EDJA,2018-03-21T14:50:00Z,47.98,10.23,1.0,-5.0,70,5,,6.21,30.236221,,,,,,,,,,,FEW,3500,BKN,5300,,,,,VFR,,,,,,,,,,,,METAR,633.0
EDHK 211450Z 27013KT CAVOK 06/01 Q1023,EDHK,2018-03-21T14:50:00Z,54.38,10.15,6.0,1.0,270,13,,6.21,30.206694,,,,,,,,,,,CAVOK,,,,,,,,VFR,,,,,,,,,,,,METAR,31.0
EDHI 211450Z 23011KT 9999 FEW019 BKN025 OVC039 05/02 Q1025,EDHI,2018-03-21T14:50:00Z,53.53,9.83,5.0,2.0,230,11,,6.21,30.265747,,,,,,,,,,,FEW,1900,BKN,2500,OVC,3900,,,MVFR,,,,,,,,,,,,METAR,13.0
EDXW 211450Z 27012KT 9999 FEW022 04/02 Q1023,EDXW,2018-03-21T14:50:00Z,54.92,8.33,4.0,2.0,270,12,,6.21,30.206694,,,,,,,,,,,FEW,2200,,,,,,,VFR,,,,,,,,,,,,METAR,20.0
EDVE 211450Z 28011KT 9999 FEW047 SCT220 06/M05 Q1026,EDVE,2018-03-21T14:50:00Z,52.32,10.55,6.0,-5.0,280,11,,6.21,30.295275,,,,,,,,,,,FEW,4700,SCT,22000,,,,,VFR,,,,,,,,,,,,METAR,88.0
EDTY 211450Z 01005KT 350V060 CAVOK 03/M10 Q1026,EDTY,2018-03-21T14:50:00Z,49.12,9.78,3.0,-10.0,10,5,,6.21,30.295275,,,,,,,,,,,CAVOK,,,,,,,,VFR,,,,,,,,,,,,METAR,400.0
EDTL 211450Z 35011KT CAVOK 06/M07 Q1026,EDTL,2018-03-21T14:50:00Z,48.37,7.83,6.0,-7.0,350,11,,6.21,30.295275,,,,,,,,,,,CAVOK,,,,,,,,VFR,,,,,,,,,,,,METAR,156.0
EDMO 211450Z 21003KT 9999 SCT032 SCT063 M00/M06 Q1024,EDMO,2018-03-21T14:50:00Z,48.07,11.27,0.0,-6.0,210,3,,6.21,30.236221,,,,,,,,,,,SCT,3200,SCT,6300,,,,,VFR,,,,,,,,,,,,METAR,600.0
ENLE 211450Z 24025KT 9999 FEW015 BKN020 05/02 Q1018 W///S4,ENLE,2018-03-21T14:50:00Z,56.53,3.22,5.0,2.0,240,25,,6.21,30.059055,,,,,,,,,,,FEW,1500,BKN,2000,,,,,MVFR,,,,,,,,,,,,METAR,3.0
ENSF 211450Z AUTO 24027KT 2300NDV -SHRA BR OVC004/// 07/06 Q1004 W///S5,ENSF,2018-03-21T14:50:00Z,61.25,1.85,7.0,6.0,240,27,,,29.64567,,,TRUE,,,,,,,-SHRA BR,OVC,400,,,,,,,,,,,,,,,,,,,METAR,10.0
ENFB 211450Z AUTO 23028KT //// OVC005/// 06/06 Q1004 W///S5,ENFB,2018-03-21T14:50:00Z,61.2,1.83,6.0,6.0,230,28,,,29.64567,,,TRUE,,,,,,,,OVC,500,,,,,,,,,,,,,,,,,,,METAR,10.0
ENSL 211450Z 23032KT 5000 -RA BKN005 05/03 Q1012 W04/S4,ENSL,2018-03-21T14:50:00Z,58.37,1.9,5.0,3.0,230,32,,3.11,29.88189,,,,,,,,,,-RA,BKN,500,,,,,,,IFR,,,,,,,,,,,,METAR,50.0
ENOA 211450Z 22033KT 5000 RA BKN008 04/04 Q1006 W///S5,ENOA,2018-03-21T14:50:00Z,60.5,2.83,4.0,4.0,220,33,,3.11,29.704725,,,,,,,,,,RA,BKN,800,,,,,,,IFR,,,,,,,,,,,,METAR,5.0
ENHE 211450Z 31009KT 9999 FEW015 BKN025 04/02 Q1002 W///S5,ENHE,2018-03-21T14:50:00Z,65.33,2.33,4.0,2.0,310,9,,6.21,29.586615,,,,,,,,,,,FEW,1500,BKN,2500,,,,,MVFR,,,,,,,,,,,,METAR,1.0
ENGC 211450Z 25028KT 2000 -DZ BR OVC005 06/06 Q1005 W06/S6,ENGC,2018-03-21T14:50:00Z,61.02,2.02,6.0,6.0,250,28,,1.24,29.675198,,,,,,,,,,-DZ BR,OVC,500,,,,,,,IFR,,,,,,,,,,,,METAR,10.0
ENOV 211450Z VRB02KT 9999 RA FEW016 BKN021 02/01 Q1007 RMK WIND 2175FT 18020KT,ENOV,2018-03-21T14:50:00Z,62.17,6.07,2.0,1.0,0,2,,6.21,29.734253,,,,,,,,,,RA,FEW,1600,BKN,2100,,,,,MVFR,,,,,,,,,,,,METAR,74.0
ENSD 211450Z VRB04KT 9999 -RA FEW007 SCT016 VV024 03/02 Q1008 RMK WIND 1138FT 20008KT,ENSD,2018-03-21T14:50:00Z,61.82,6.12,3.0,2.0,0,4,,6.21,29.763779,,,,,,,,,,-RA,OVX,0,FEW,700,SCT,1600,,,LIFR,,,0.8,,,,,,,,2400,METAR,60.0
ENSG 211450Z 24007KT 4000 -SHSN VCFG FEW/// BKN020 01/M00 Q1008 RMK WIND 3806FT 21021KT,ENSG,2018-03-21T14:50:00Z,61.13,7.12,1.0,0.0,240,7,,2.49,29.763779,,,,,,,,,,-SHSN VCFG,BKN,2000,,,,,,,IFR,,,-2.1,,,,,,,,,METAR,497.0
EDGS 211450Z 27009KT 240V320 CAVOK 02/M11 Q1025,EDGS,2018-03-21T14:50:00Z,50.7,8.08,2.0,-11.0,270,9,,6.21,30.265747,,,,,,,,,,,CAVOK,,,,,,,,VFR,,,,,,,,,,,,METAR,602.0
ETNG 211450Z 28005KT 9999 FEW032 BKN044 06/M02 Q1028 NOSIG,ETNG,2018-03-21T14:50:00Z,50.97,6.03,6.0,-2.0,280,5,,6.21,30.35433,,,,,,TRUE,,,,,FEW,3200,BKN,4400,,,,,VFR,,,,,,,,,,,,SPECI,98.0
KCWF 211450Z 01005KT 10SM SKC 16/05 A3021,KCWF,2018-03-21T14:50:00Z,30.22,-93.15,16.0,5.0,10,5,,10.0,30.209646,,,,,,,,,,,SKC,,,,,,,,VFR,,,,,,,,,,,,METAR,4.0
EFKU 211450Z AUTO 17013KT 8000 -SN VCSH FEW015 OVC032 M08/M10 Q1005,EFKU,2018-03-21T14:50:00Z,63.02,27.8,-8.0,-10.0,170,13,,4.97,29.675198,,,TRUE,,,,,,,-SN VCSH,FEW,1500,OVC,3200,,,,,MVFR,,,,,,,,,,,,METAR,102.0
EFJY 211450Z AUTO 19009KT 9999 -SN OVC027 M05/M08 Q1004,EFJY,2018-03-21T14:50:00Z,62.4,25.68,-5.0,-8.0,190,9,,6.21,29.64567,,,TRUE,,,,,,,-SN,OVC,2700,,,,,,,MVFR,,,,,,,,,,,,METAR,145.0
EGNO 211450Z 26012KT 9999 FEW020 SCT033 07/03 Q1028,EGNO,2018-03-21T14:50:00Z,53.75,-2.88,7.0,3.0,260,12,,6.21,30.35433,,,,,,,,,,,FEW,2000,SCT,3300,,,,,VFR,,,,,,,,,,,,METAR,17.0
EFKT 211450Z AUTO 19006KT 9999 SCT020 BKN048 M05/M07 Q0994,EFKT,2018-03-21T14:50:00Z,67.7,24.85,-5.0,-7.0,190,6,,6.21,29.350393,,,TRUE,,,,,,,,SCT,2000,BKN,4800,,,,,VFR,,,,,,,,,,,,METAR,643.0
EFKS 211450Z AUTO 18009KT 5000 -SN OVC025 M09/M11 Q0998,EFKS,2018-03-21T14:50:00Z,66.0,29.23,-9.0,-11.0,180,9,,3.11,29.468504,,,TRUE,,,,,,,-SN,OVC,2500,,,,,,,MVFR,,,,,,,,,,,,METAR,263.0
EFKI 211450Z 18008KT 140V230 9999 -SN OVC026 M08/M11 Q1002,EFKI,2018-03-21T14:50:00Z,64.27,27.67,-8.0,-11.0,180,8,,6.21,29.586615,,,,,,,,,,-SN,OVC,2600,,,,,,,MVFR,,,,,,,,,,,,METAR,136.0
EFKE 211450Z AUTO 17008KT 9999 -SHSN OVC005 M02/M03 Q0997,EFKE,2018-03-21T14:50:00Z,65.77,24.57,-2.0,-3.0,170,8,,6.21,29.438976,,,TRUE,,,,,,,-SHSN,OVC,500,,,,,,,IFR,,,,,,,,,,,,METAR,15.0
EFET 211450Z AUTO 18003KT CAVOK M04/M07 Q0992,EFET,2018-03-21T14:50:00Z,68.37,23.43,-4.0,-7.0,180,3,,6.21,29.291338,,,TRUE,,,,,,,,CAVOK,,,,,,,,VFR,,,,,,,,,,,,METAR,306.0
EFUT 211450Z 18008KT 140V220 9999 -SHSN OVC035 M06/M11 Q1009,EFUT,2018-03-21T14:50:00Z,60.88,26.92,-6.0,-11.0,180,8,,6.21,29.793306,,,,,,,,,,-SHSN,OVC,3500,,,,,,,VFR,,,,,,,,,,,,METAR,100.0
EFSI 211450Z AUTO 19007KT 140V240 9999 BKN012 BKN060 M00/M03 Q1003,EFSI,2018-03-21T14:50:00Z,62.7,22.83,0.0,-3.0,190,7,,6.21,29.616142,,,TRUE,,,,,,,,BKN,1200,BKN,6000,,,,,MVFR,,,,,,,,,,,,METAR,91.0
EFSA 211450Z AUTO 17009KT 140V220 9000 -SN OVC029 M07/M12 Q1009,EFSA,2018-03-21T14:50:00Z,61.95,28.93,-7.0,-12.0,170,9,,5.59,29.793306,,,TRUE,,,,,,,-SN,OVC,2900,,,,,,,MVFR,,,,,,,,,,,,METAR,95.0
EFMI 211450Z AUTO VRB07KT 9999 -SHSN BKN032 OVC065 M06/M11 Q1008,EFMI,2018-03-21T14:50:00Z,61.68,27.2,-6.0,-11.0,0,7,,6.21,29.763779,,,TRUE,,,,,,,-SHSN,BKN,3200,OVC,6500,,,,,VFR,,,,,,,,,,,,METAR,138.0
EFLP 211450Z AUTO 17006KT 120V220 9999 OVC038 M06/M13 Q1010,EFLP,2018-03-21T14:50:00Z,61.07,28.13,-6.0,-13.0,170,6,,6.21,29.822834,,,TRUE,,,,,,,,OVC,3800,,,,,,,VFR,,,,,,,,,,,,METAR,106.0
EFJO 211450Z 17011KT 120V210 4900 -SHSN OVC024 M07/M12 Q1007,EFJO,2018-03-21T14:50:00Z,62.67,29.62,-7.0,-12.0,170,11,,3.04,29.734253,,,,,,,,,,-SHSN,OVC,2400,,,,,,,MVFR,,,,,,,,,,,,METAR,117.0
EFPO 211450Z AUTO 22008KT 180V250 9999 FEW043/// OVC054/// 01/M03 Q1006,EFPO,2018-03-21T14:50:00Z,61.47,21.8,1.0,-3.0,220,8,,6.21,29.704725,,,TRUE,,,,,,,,FEW,4300,OVC,5400,,,,,VFR,,,,,,,,,,,,METAR,17.0
EFKK 211450Z 17009KT CAVOK 02/M00 Q1000,EFKK,2018-03-21T14:50:00Z,63.72,23.13,2.0,0.0,170,9,,6.21,29.52756,,,,,,,,,,,CAVOK,,,,,,,,VFR,,,,,,,,,,,,METAR,25.0
EFHA 211450Z AUTO 18010KT 150V220 7000 -SN OVC024 M04/M07 Q1006,EFHA,2018-03-21T14:50:00Z,61.85,24.8,-4.0,-7.0,180,10,,4.35,29.704725,,,TRUE,,,,,,,-SN,OVC,2400,,,,,,,MVFR,,,,,,,,,,,,METAR,145.0
KEFD 211450Z 06009KT 10SM SCT250 14/07 A3022,KEFD,2018-03-21T14:50:00Z,29.6,-95.17,14.0,7.0,60,9,,10.0,30.221457,,,,,,,,,,,SCT,25000,,,,,,,VFR,,,,,,,,,,,,METAR,10.0
EDHL 211450Z 26010KT 9999 BKN021 05/01 Q1024,EDHL,2018-03-21T14:50:00Z,53.8,10.72,5.0,1.0,260,10,,6.21,30.236221,,,,,,,,,,,BKN,2100,,,,,,,MVFR,,,,,,,,,,,,METAR,16.0
EDLN 211450Z 26006KT 210V320 9999 BKN040 05/M01 Q1028,EDLN,2018-03-21T14:50:00Z,51.23,6.5,5.0,-1.0,260,6,,6.21,30.35433,,,,,,,,,,,BKN,4000,,,,,,,VFR,,,,,,,,,,,,METAR,38.0
EDDW 211450Z 24010KT 9999 FEW025 BKN068 06/01 Q1025 NOSIG,EDDW,2018-03-21T14:50:00Z,53.03,8.8,6.0,1.0,240,10,,6.21,30.265747,,,,,,TRUE,,,,,FEW,2500,BKN,6800,,,,,VFR,,,,,,,,,,,,METAR,5.0
EDQM 211450Z 02005KT 340V060 CAVOK 00/M12 Q1024,EDQM,2018-03-21T14:50:00Z,50.3,11.85,0.0,-12.0,20,5,,6.21,30.236221,,,,,,,,,,,CAVOK,,,,,,,,VFR,,,,,,,,,,,,METAR,568.0
EDNY 211450Z 03010KT 350V050 9999 BKN051 BKN061 03/M08 Q1025,EDNY,2018-03-21T14:50:00Z,47.67,9.52,3.0,-8.0,30,10,,6.21,30.265747,,,,,,,,,,,BKN,5100,BKN,6100,,,,,VFR,,,,,,,,,,,,METAR,424.0
EDMA 211450Z 32006KT 270V050 9999 BKN048 03/M07 Q1025,EDMA,2018-03-21T14:50:00Z,48.42,10.92,3.0,-7.0,320,6,,6.21,30.265747,,,,,,,,,,,BKN,4800,,,,,,,VFR,,,,,,,,,,,,METAR,463.0
EDLP 211450Z 25007KT 9999 BKN015 02/M02 Q1027,EDLP,2018-03-21T14:50:00Z,51.62,8.62,2.0,-2.0,250,7,,6.21,30.324802,,,,,,,,,,,BKN,1500,,,,,,,MVFR,,,,,,,,,,,,METAR,213.0
EDSB 211450Z 03009KT 350V060 CAVOK 06/M10 Q1027,EDSB,2018-03-21T14:50:00Z,48.78,8.08,6.0,-10.0,30,9,,6.21,30.324802,,,,,,,,,,,CAVOK,,,,,,,,VFR,,,,,,,,,,,,METAR,124.0
EDLW 211450Z 26005KT 210V340 9999 FEW023 BKN026 BKN030 04/M02 Q1028,EDLW,2018-03-21T14:50:00Z,51.52,7.62,4.0,-2.0,260,5,,6.21,30.35433,,,,,,,,,,,FEW,2300,BKN,2600,BKN,3000,,,MVFR,,,,,,,,,,,,METAR,127.0
EDFH 211450Z 36005KT 320V040 CAVOK 04/M10 Q1025,EDFH,2018-03-21T14:50:00Z,49.95,7.27,4.0,-10.0,360,5,,6.21,30.265747,,,,,,,,,,,CAVOK,,,,,,,,VFR,,,,,,,,,,,,METAR,498.0
ENUG 211450Z AUTO 10022KT 080V150 9999NDV BKN016/// BKN120/// M02/M06 Q0990 W///S4,ENUG,2018-03-21T14:50:00Z,,,-2.0,-6.0,100,22,,,29.232283,,,TRUE,,,,,,,,BKN,1600,BKN,12000,,,,,,,,,,,,,,,,,METAR,
ENLA 211450Z AUTO 24029KT 9999NDV BKN014/// BKN069/// 05/02 Q1016 W///S4,ENLA,2018-03-21T14:50:00Z,57.1,2.83,5.0,2.0,240,29,,,30.0,,,TRUE,,,,,,,,BKN,1400,BKN,6900,,,,,,,,,,,,,,,,,METAR,4.0
ENHM 211450Z 23031KT 2000 -RA BR SCT005 OVC010 05/05 Q1008 W06/S/,ENHM,2018-03-21T14:50:00Z,59.57,2.23,5.0,5.0,230,31,,1.24,29.763779,,,,,,,,,,-RA BR,SCT,500,OVC,1000,,,,,IFR,,,,,,,,,,,,METAR,10.0
ENQA 211450Z AUTO 20033KT 6000NDV -RA OVC008/// 03/02 Q1008 W02/S5,ENQA,2018-03-21T14:50:00Z,60.65,3.72,3.0,2.0,200,33,,,29.763779,,,TRUE,,,,,,,-RA,OVC,800,,,,,,,,,,,,,,,,,,,METAR,20.0
ENQC 211450Z AUTO 20031KT 2900NDV -RA BR OVC010/// 04/03 Q1006 W///S5,ENQC,2018-03-21T14:50:00Z,60.88,3.62,4.0,3.0,200,31,,,29.704725,,,TRUE,,,,,,,-RA BR,OVC,1000,,,,,,,,,,,,,,,,,,,METAR,20.0
ENSE 211450Z AUTO 24024KT 9999NDV BKN004/// OVC008/// 07/06 Q1004 W///S5,ENSE,2018-03-21T14:50:00Z,61.45,2.15,7.0,6.0,240,24,,,29.64567,,,TRUE,,,,,,,,BKN,400,OVC,800,,,,,,,,,,,,,,,,,METAR,10.0
ENQR 211450Z AUTO 23023KT 3700NDV OVC004/// 06/06 Q1003 W///S6,ENQR,2018-03-21T14:50:00Z,61.35,2.22,6.0,6.0,230,23,,,29.616142,,,TRUE,,,,,,,,OVC,400,,,,,,,,,,,,,,,,,,,METAR,10.0
ENNE 211450Z 28012KT 9999 VCSH FEW015 04/01 Q1002 W///S5,ENNE,2018-03-21T14:50:00Z,66.03,8.08,4.0,1.0,280,12,,6.21,29.586615,,,,,,,,,,VCSH,FEW,1500,,,,,,,VFR,,,,,,,,,,,,METAR,10.0
ENVR 211450Z VRB05 9999 -SHSN BKN018 OVC065 02/M03 Q0999,ENVR,2018-03-21T14:50:00Z,67.65,12.72,2.0,-3.0,0,5,,6.21,29.498032,,,,,,,,,,-SHSN,BKN,1800,OVC,6500,,,,,MVFR,,,,,,,,,,,,METAR,4.0
ENRA 211450Z 21009KT 9999 VCSH SCT022 BKN035 02/M01 Q1000,ENRA,2018-03-21T14:50:00Z,66.37,14.3,2.0,-1.0,210,9,,6.21,29.52756,,,,,,,,,,VCSH,SCT,2200,BKN,3500,,,,,VFR,,,,,,,,,,,,METAR,70.0
ENHF 211450Z VRB02KT 9999 5000SW VCSH SCT012 BKN050 M05/M08 Q0991 RMK WIND 1254FT 17008KT,ENHF,2018-03-21T14:50:00Z,70.67,23.67,-5.0,-8.0,0,2,,6.21,29.26181,,,,,,,,,,VCSH,SCT,1200,BKN,5000,,,,,VFR,,,,,,,,,,,,METAR,81.0
ENBV 211450Z 24011KT CAVOK M11/M15 Q0996,ENBV,2018-03-21T14:50:00Z,70.87,29.02,-11.0,-15.0,240,11,,6.21,29.409449,,,,,,,,,,,CAVOK,,,,,,,,VFR,,,,,,,,,,,,METAR,13.0
ENBN 211450Z 24009KT 220V280 9999 8000N -DZ FEW004 SCT010 BKN016 03/02 Q1002,ENBN,2018-03-21T14:50:00Z,65.47,12.22,3.0,2.0,240,9,,6.21,29.586615,,,,,,,,,,-DZ,FEW,400,SCT,1000,BKN,1600,,,MVFR,,,,,,,,,,,,METAR,9.0
ENZV 211450Z 20009KT 9000 -RA VV011 02/01 Q1015 TEMPO 4000 RADZ,ENZV,2018-03-21T14:50:00Z,58.87,5.62,2.0,1.0,200,9,,5.59,29.970472,,,,,,,,,,-RA,OVX,0,,,,,,,LIFR,,,,,,,,,,,1100,METAR,9.0
ENVA 211450Z VRB02KT 9999 -RA FEW007 SCT010 BKN014 03/01 Q1006 NOSIG RMK WIND 670FT 24009KT,ENVA,2018-03-21T14:50:00Z,63.47,10.92,3.0,1.0,0,2,,6.21,29.704725,,,,,,TRUE,,,,-RA,FEW,700,SCT,1000,BKN,1400,,,MVFR,,,,,,,,,,,,METAR,17.0
ENOL 211450Z 25011KT 9999 -RA FEW008 BKN010 03/02 Q1005 TEMPO 1200 RASN BR VV008,ENOL,2018-03-21T14:50:00Z,63.7,9.58,3.0,2.0,250,11,,6.21,29.675198,,,,,,,,,,-RA,FEW,800,BKN,1000,,,,,MVFR,,,,,,,,,,,,METAR,7.0
ENGM 211450Z 25005KT 210V320 CAVOK 05/M05 Q1009 NOSIG,ENGM,2018-03-21T14:50:00Z,60.2,11.1,5.0,-5.0,250,5,,6.21,29.793306,,,,,,TRUE,,,,,CAVOK,,,,,,,,VFR,,,,,,,,,,,,METAR,204.0
ENDU 211450Z 29006KT 9999 8000NE -SHSN FEW005 SCT020 BKN030 M01/M03 Q0994 RESHSN TEMPO 27015G25KT 1200 SHSN VV006 RMK WIND 1100FT 28016KT WIND 2200FT 28020G38KT,ENDU,2018-03-21T14:50:00Z,69.03,18.55,-1.0,-3.0,290,6,,6.21,29.350393,,,,,,,,,,-SHSN,FEW,500,SCT,2000,BKN,3000,,,MVFR,,,,,,,,,,,,METAR,79.0
ENBO 211450Z 28017KT 9999 6000E -SHSN FEW015TCU SCT025 BKN035 01/M01 Q0999 TEMPO 4000 -SHSNRA VV020,ENBO,2018-03-21T14:50:00Z,67.27,14.37,1.0,-1.0,280,17,,6.21,29.498032,,,,,,,,,,-SHSN,FEW,1500,SCT,2500,BKN,3500,,,VFR,,,,,,,,,,,,METAR,13.0
ENBR 211450Z 18013KT 2000 -SN SCT002 BKN004 00/00 Q1012 TEMPO 0800 SNRA VV002 RMK WIND 1200FT /////KT,ENBR,2018-03-21T14:50:00Z,60.28,5.22,0.0,0.0,180,13,,1.24,29.88189,,,,,,,,,,-SN,SCT,200,BKN,400,,,,,LIFR,,,,,,,,,,,,METAR,50.0
ENAN 211450Z 28016KT 9999 VCSH FEW009 SCT034 BKN049 M00/M05 Q0995,ENAN,2018-03-21T14:50:00Z,69.28,16.13,0.0,-5.0,280,16,,6.21,29.379921,,,,,,,,,,VCSH,FEW,900,SCT,3400,BKN,4900,,,VFR,,,,,,,,,,,,METAR,14.0
ENNA 211450Z 17007KT 2500 -SN VV014 M06/M09 Q0994 RMK WIND 1800FT 18007KT,ENNA,2018-03-21T14:50:00Z,70.07,24.97,-6.0,-9.0,170,7,,1.55,29.350393,,,,,,,,,,-SN,OVX,0,,,,,,,LIFR,,,,,,,,,,,1400,METAR,8.0
ENML 211450Z 27008KT 9999 FEW014 SCT018 BKN028 04/02 Q1005,ENML,2018-03-21T14:50:00Z,62.75,7.27,4.0,2.0,270,8,,6.21,29.675198,,,,,,,,,,,FEW,1400,SCT,1800,BKN,2800,,,MVFR,,,,,,,,,,,,METAR,3.0
ENKR 211450Z 17008KT 6000 -SN SCT004 BKN017 M08/M10 Q0995 RMK WIND 731FT 16010KT,ENKR,2018-03-21T14:50:00Z,69.72,29.88,-8.0,-10.0,170,8,,3.73,29.379921,,,,,,,,,,-SN,SCT,400,BKN,1700,,,,,MVFR,,,,,,,,,,,,METAR,91.0
ENKB 211450Z 22007KT 190V270 9999 -DZ FEW006 SCT015 BKN024 04/02 Q1005 RMK WIND 745FT 22013KT,ENKB,2018-03-21T14:50:00Z,63.12,7.82,4.0,2.0,220,7,,6.21,29.675198,,,,,,,,,,-DZ,FEW,600,SCT,1500,BKN,2400,,,MVFR,,,,,,,,,,,,METAR,62.0
ENFL 211450Z 17018KT 6000 -RASN FEW005 SCT007 BKN010 01/01 Q1009,ENFL,2018-03-21T14:50:00Z,61.57,5.02,1.0,1.0,170,18,,3.73,29.793306,,,,,,,,,,-RA -SN,FEW,500,SCT,700,BKN,1000,,,MVFR,,,,,,,,,,,,METAR,9.0
ENEV 211450Z 26009KT 230V290 9999 VCSH FEW008 BKN051 00/M02 Q0996 RMK WIND 1400FT 23020KT,ENEV,2018-03-21T14:50:00Z,68.52,16.67,0.0,-2.0,260,9,,6.21,29.409449,,,,,,,,,,VCSH,FEW,800,BKN,5100,,,,,VFR,,,,,,,,,,,,METAR,26.0
ENBL 211450Z 22006KT 180V260 0700 SN FG VV005 00/M00 Q1008,ENBL,2018-03-21T14:50:00Z,61.4,5.77,0.0,0.0,220,6,,0.43,29.763779,,,,,,,,,,SN FG,OVX,0,,,,,,,LIFR,,,,,,,,,,,500,METAR,150.0
ENAT 211450Z 10004KT 040V150 4000 -SN VV018 M05/M07 Q0993 RMK WIND 700FT 13008KT,ENAT,2018-03-21T14:50:00Z,69.97,23.37,-5.0,-7.0,100,4,,2.49,29.320866,,,,,,,,,,-SN,OVX,0,,,,,,,LIFR,,,,,,,,,,,1800,METAR,3.0
EDVK 211450Z 34011KT 300V010 CAVOK 04/M05 Q1026,EDVK,2018-03-21T14:50:00Z,51.38,9.37,4.0,-5.0,340,11,,6.21,30.295275,,,,,,,,,,,CAVOK,,,,,,,,VFR,,,,,,,,,,,,METAR,285.0
EDLV 211450Z 25007KT 220V290 CAVOK 07/M01 Q1028,EDLV,2018-03-21T14:50:00Z,51.6,6.15,7.0,-1.0,250,7,,6.21,30.35433,,,,,,,,,,,CAVOK,,,,,,,,VFR,,,,,,,,,,,,METAR,32.0
EDFM 211450Z 02004KT 320V110 CAVOK 06/M14 Q1027,EDFM,2018-03-21T14:50:00Z,49.47,8.52,6.0,-14.0,20,4,,6.21,30.324802,,,,,,,,,,,CAVOK,,,,,,,,VFR,,,,,,,,,,,,METAR,100.0
ENRO 211450Z 23012KT 9999 -SN SCT035 BKN056 03/M05 Q1004,ENRO,2018-03-21T14:50:00Z,62.57,11.33,3.0,-5.0,230,12,,6.21,29.64567,,,,,,,,,,-SN,SCT,3500,BKN,5600,,,,,VFR,,,,,,,,,,,,METAR,626.0
ENRY 211450Z 19007KT CAVOK 05/M02 Q1012,ENRY,2018-03-21T14:50:00Z,59.37,10.77,5.0,-2.0,190,7,,6.21,29.88189,,,,,,,,,,,CAVOK,,,,,,,,VFR,,,,,,,,,,,,METAR,53.0
ENSB 211450Z 13012KT 9999 FEW020 M16/M22 Q1007 RMK WIND 1400FT 12016KT,ENSB,2018-03-21T14:50:00Z,78.25,15.47,-16.0,-22.0,130,12,,6.21,29.734253,,,,,,,,,,,FEW,2000,,,,,,,VFR,,,,,,,,,,,,METAR,29.0
ENTC 211450Z 23010KT 9999 -SHSN FEW007 SCT018 BKN026 M02/M04 Q0994 TEMPO 1000 SHSN VV007 RMK WIND 2600FT 27013KT,ENTC,2018-03-21T14:50:00Z,69.68,18.92,-2.0,-4.0,230,10,,6.21,29.350393,,,,,,,,,,-SHSN,FEW,700,SCT,1800,BKN,2600,,,MVFR,,,,,,,,,,,,METAR,10.0
ENTO 211450Z 27004KT 220V320 CAVOK 07/M03 Q1011,ENTO,2018-03-21T14:50:00Z,59.2,10.27,7.0,-3.0,270,4,,6.21,29.852362,,,,,,,,,,,CAVOK,,,,,,,,VFR,,,,,,,,,,,,METAR,88.0
ENMS 211450Z VRB02KT 7000 -SHRASN FEW010 SCT015 BKN024 03/M00 Q1001 RMK WIND 412FT VRB04KT,ENMS,2018-03-21T14:50:00Z,65.78,13.22,3.0,0.0,0,2,,4.35,29.557087,,,,,,,,,,-SHRA -SHSN,FEW,1000,SCT,1500,BKN,2400,,,MVFR,,,,,,,,,,,,METAR,70.0
ENRS 211450Z 28018KT 9999 VCSH FEW015CB SCT020 BKN035 02/M01 Q0999,ENRS,2018-03-21T14:50:00Z,67.52,12.08,2.0,-1.0,280,18,,6.21,29.498032,,,,,,,,,,VCSH,FEW,1500,SCT,2000,BKN,3500,,,VFR,,,,,,,,,,,,METAR,4.0
ENSK 211450Z 28008KT 9999 5000S -SHSN FEW010 SCT025 BKN035 00/M03 Q0997,ENSK,2018-03-21T14:50:00Z,68.57,15.02,0.0,-3.0,280,8,,6.21,29.438976,,,,,,,,,,-SHSN,FEW,1000,SCT,2500,BKN,3500,,,VFR,,,,,,,,,,,,METAR,3.0
ENSO 211450Z 17009KT 1000 SN BKN005 00/M00 Q1013,ENSO,2018-03-21T14:50:00Z,59.78,5.33,0.0,0.0,170,9,,0.62,29.911417,,,,,,,,,,SN,BKN,500,,,,,,,LIFR,,,,,,,,,,,,METAR,49.0
ENVD 211450Z 20008KT 9999 FEW007 BKN012 M07/M10 Q0996,ENVD,2018-03-21T14:50:00Z,70.07,29.85,-7.0,-10.0,200,8,,6.21,29.409449,,,,,,,,,,,FEW,700,BKN,1200,,,,,MVFR,,,,,,,,,,,,METAR,39.0
LATI 211450Z 20006KT 150V230 9999 FEW060 BKN085 OVC180 15/08 Q1011 NOSIG,LATI,2018-03-21T14:50:00Z,41.42,19.72,15.0,8.0,200,6,,6.21,29.852362,,,,,,TRUE,,,,,FEW,6000,BKN,8500,OVC,18000,,,VFR,,,,,,,,,,,,METAR,90.0
KNQA 211450Z 32008KT 10SM SCT041 BKN055 06/01 A3011,KNQA,2018-03-21T14:50:00Z,35.35,-89.87,6.0,1.0,320,8,,10.0,30.109253,,,,,,,,,,,SCT,4100,BKN,5500,,,,,VFR,,,,,,,,,,,,METAR,86.0
ESNX 211450Z 28012KT 9999 FEW040 01/M06 Q0997,ESNX,2018-03-21T14:50:00Z,65.58,19.28,1.0,-6.0,280,12,,6.21,29.438976,,,,,,,,,,,FEW,4000,,,,,,,VFR,,,,,,,,,,,,METAR,379.0
LGAD 211450Z 17010KT 9999 FEW020 18/10 Q1012,LGAD,2018-03-21T14:50:00Z,37.92,21.27,18.0,10.0,170,10,,6.21,29.88189,,,,,,,,,,,FEW,2000,,,,,,,VFR,,,,,,,,,,,,METAR,12.0
ESNL 211450Z 30006KT 9999 BKN049 04/M05 Q0999,ESNL,2018-03-21T14:50:00Z,64.55,18.72,4.0,-5.0,300,6,,6.21,29.498032,,,,,,,,,,,BKN,4900,,,,,,,VFR,,,,,,,,,,,,METAR,214.0
OAKB 211450Z 11007KT 9999 FEW100 13/04 Q1017 NOSIG RMK A3004 BLU BLU,OAKB,2018-03-21T14:50:00Z,34.55,69.22,13.0,4.0,110,7,,6.21,30.029528,,,,,,TRUE,,,,,FEW,10000,,,,,,,VFR,,,,,,,,,,,,METAR,1791.0
KVQQ 211450Z 28014KT 10SM CLR 15/02 A2994,KVQQ,2018-03-21T14:50:00Z,30.22,-81.88,15.0,2.0,280,14,,10.0,29.940945,,,,,,,,,,,CLR,,,,,,,,VFR,,,,,,,,,,,,METAR,25.0
KHSA 211450Z 34007G14KT 10SM SKC 13/06 A3016,KHSA,2018-03-21T14:50:00Z,30.37,-89.45,13.0,6.0,340,7,14,10.0,30.159449,,,,,,,,,,,SKC,,,,,,,,VFR,,,,,,,,,,,,METAR,7.0
KLAL 211450Z 30018G24KT 10SM SCT036 17/07 A3000,KLAL,2018-03-21T14:50:00Z,27.97,-82.02,17.0,7.0,300,18,24,10.0,30.0,,,,,,,,,,,SCT,3600,,,,,,,VFR,,,,,,,,,,,,METAR,43.0
TJBQ 211450Z 09008KT 10SM FEW035 28/19 A3007,TJBQ,2018-03-21T14:50:00Z,18.5,-67.13,28.0,19.0,90,8,,10.0,30.070866,,,,,,,,,,,FEW,3500,,,,,,,VFR,,,,,,,,,,,,METAR,72.0
EYKA 211450Z 31006KT 250V010 CAVOK 00/M13 Q1017 R08/090095,EYKA,2018-03-21T14:50:00Z,54.97,24.08,0.0,-13.0,310,6,,6.21,30.029528,,,,,,,,,,,CAVOK,,,,,,,,VFR,,,,,,,,,,,,METAR,77.0
EKVG 211450Z AUTO 31004KT 280V350 9999NDV BKN018/// 07/07 Q1008 RMK FEW007/// BKN015/// WIND 850FT 31005KT 260V340,EKVG,2018-03-21T14:50:00Z,62.07,-7.3,7.0,7.0,310,4,,,29.763779,,,TRUE,,,,,,,,BKN,1800,,,,,,,,,,,,,,,,,,,METAR,85.0
EVRA 211450Z 23005KT 200V260 CAVOK 02/M11 Q1016 R18/190095 NOSIG,EVRA,2018-03-21T14:50:00Z,56.92,23.97,2.0,-11.0,230,5,,6.21,30.0,,,,,,TRUE,,,,,CAVOK,,,,,,,,VFR,,,,,,,,,,,,METAR,10.0
MSSS 211450Z 36004KT 8000 FEW030 26/22 Q1015 A3000,MSSS,2018-03-21T14:50:00Z,13.7,-89.12,26.0,22.0,360,4,,4.97,29.970472,,,,,,,,,,,FEW,3000,,,,,,,MVFR,,,,,,,,,,,,METAR,616.0
MSLP 211450Z 11004KT 070V160 9999 FEW076 30/22 Q1011 A2988 HZ NOSIG,MSLP,2018-03-21T14:50:00Z,13.43,-89.05,30.0,22.0,110,4,,6.21,29.852362,,,,,,TRUE,,,,HZ,FEW,7600,,,,,,,VFR,,,,,,,,,,,,METAR,25.0
KHOB 211450Z 19005KT 10SM SKC 11/M06 A3008,KHOB,2018-03-21T14:50:00Z,32.67,-103.22,11.0,-6.0,190,5,,10.0,30.079725,,,,,,,,,,,SKC,,,,,,,,VFR,,,,,,,,,,,,METAR,1115.0
EGEO 211450Z 22015KT 6000 RADZ FEW004 BKN018 OVC022 08/07 Q1021,EGEO,2018-03-21T14:50:00Z,56.47,-5.4,8.0,7.0,220,15,,3.73,30.147638,,,,,,,,,,RA DZ,FEW,400,BKN,1800,OVC,2200,,,MVFR,,,,,,,,,,,,METAR,6.0
EETN 211450Z 22014KT CAVOK M01/M11 Q1012 R08/000095 NOSIG,EETN,2018-03-21T14:50:00Z,59.4,24.82,-1.0,-11.0,220,14,,6.21,29.88189,,,,,,TRUE,,,,,CAVOK,,,,,,,,VFR,,,,,,,,,,,,METAR,40.0
YTRE 211450Z AUTO 11008KT //// // SCT009 BKN016 BKN021 20/20 Q1022,YTRE,2018-03-21T14:50:00Z,-31.88,152.52,20.0,20.0,110,8,,,30.177166,,,TRUE,,,,,,,,SCT,900,BKN,1600,BKN,2100,,,,,,,,,,,,,,,SPECI,12.0
EYSA 211450Z 30012KT CAVOK 01/M11 Q1017 R32R/29//95 R32L/29//95 BLU NOSIG,EYSA,2018-03-21T14:50:00Z,55.9,23.4,1.0,-11.0,300,12,,6.21,30.029528,,,,,,TRUE,,,,,CAVOK,,,,,,,,VFR,,,,,,,,,,,,METAR,135.0
KGEU 211450Z 36003KT 10SM SCT250 16/M03 A2998,KGEU,2018-03-21T14:50:00Z,33.53,-112.3,16.0,-3.0,360,3,,10.0,29.97933,,,,,,,,,,,SCT,25000,,,,,,,VFR,,,,,,,,,,,,METAR,325.0
TJIG 211450Z 09015KT 10SM SCT035 27/22 A3008,TJIG,2018-03-21T14:50:00Z,18.45,-66.1,27.0,22.0,90,15,,10.0,30.079725,,,,,,,,,,,SCT,3500,,,,,,,VFR,,,,,,,,,,,,METAR,3.0
KQEL 211450Z AUTO 34001KT 9999 OVC095 02/M04 A3007 RMK A02 TSNO,KQEL,2018-03-21T14:50:00Z,,,2.0,-4.0,340,1,,6.21,30.070866,,,TRUE,TRUE,,,TRUE,,,,OVC,9500,,,,,,,VFR,,,,,,,,,,,,METAR,
KQEN 211450Z AUTO 14001KT 9999 OVC070 M05/M06 A2984 RMK A02 TSNO,KQEN,2018-03-21T14:50:00Z,,,-5.0,-6.0,140,1,,6.21,29.840551,,,TRUE,TRUE,,,TRUE,,,,OVC,7000,,,,,,,VFR,,,,,,,,,,,,METAR,
ESUD 211450Z AUTO 33008KT 9999 VV000 03/M04 Q0999,ESUD,2018-03-21T14:50:00Z,64.97,17.7,3.0,-4.0,330,8,,6.21,29.498032,,,TRUE,,,,,,,,OVX,0,,,,,,,LIFR,,,,,,,,,,,0,METAR,279.0
ESUT 211450Z AUTO 30007KT 270V340 9999 -SN SCT017/// BKN020/// OVC026/// M00/M03 Q0998,ESUT,2018-03-21T14:50:00Z,65.8,15.08,0.0,-3.0,300,7,,6.21,29.468504,,,TRUE,,,,,,,-SN,SCT,1700,BKN,2000,OVC,2600,,,MVFR,,,,,,,,,,,,METAR,463.0
MMPE 211450Z 00000KT 10SM BKN200 13/M04 A2994 RMK 8/008 HZY,MMPE,2018-03-21T14:50:00Z,31.35,-113.52,13.0,-4.0,0,0,,10.0,29.940945,,,,,,,,,,,BKN,20000,,,,,,,VFR,,,,,,,,,,,,METAR,9.0
EFIV 211450Z AUTO 19004KT 160V220 3400 -SN OVC029 M07/M10 Q0994,EFIV,2018-03-21T14:50:00Z,68.62,27.42,-7.0,-10.0,190,4,,2.11,29.350393,,,TRUE,,,,,,,-SN,OVC,2900,,,,,,,IFR,,,,,,,,,,,,METAR,148.0
EFMA 211450Z 23007KT CAVOK 04/M03 Q1008,EFMA,2018-03-21T14:50:00Z,60.12,19.88,4.0,-3.0,230,7,,6.21,29.763779,,,,,,,,,,,CAVOK,,,,,,,,VFR,,,,,,,,,,,,METAR,6.0
EFRO 211450Z AUTO 18007KT 3800 -SN BKN007 BKN009 M06/M07 Q0995,EFRO,2018-03-21T14:50:00Z,66.57,25.82,-6.0,-7.0,180,7,,2.36,29.379921,,,TRUE,,,,,,,-SN,BKN,700,BKN,900,,,,,IFR,,,,,,,,,,,,METAR,201.0
EFOU 211450Z AUTO 18010KT 9999 OVC014/// M03/M06 Q0999,EFOU,2018-03-21T14:50:00Z,64.92,25.37,-3.0,-6.0,180,10,,6.21,29.498032,,,TRUE,,,,,,,,OVC,1400,,,,,,,MVFR,,,,,,,,,,,,METAR,15.0
EFVA 211450Z AUTO 23006KT CAVOK 03/M01 Q1002,EFVA,2018-03-21T14:50:00Z,63.03,21.77,3.0,-1.0,230,6,,6.21,29.586615,,,TRUE,,,,,,,,CAVOK,,,,,,,,VFR,,,,,,,,,,,,METAR,4.0
EFTU 211450Z AUTO 22006KT 180V250 9999 FEW018/// BKN044/// 01/M05 Q1008,EFTU,2018-03-21T14:50:00Z,60.52,22.27,1.0,-5.0,220,6,,6.21,29.763779,,,TRUE,,,,,,,,FEW,1800,BKN,4400,,,,,VFR,,,,,,,,,,,,METAR,59.0
EFTP 211450Z AUTO 19008KT 9999 -SHSN FEW013 SCT027 OVC031 M02/M04 Q1006,EFTP,2018-03-21T14:50:00Z,61.42,23.62,-2.0,-4.0,190,8,,6.21,29.704725,,,TRUE,,,,,,,-SHSN,FEW,1300,SCT,2700,OVC,3100,,,VFR,,,,,,,,,,,,METAR,112.0
EFHK 211450Z 20015KT 9999 BKN024 M02/M09 Q1010 NOSIG,EFHK,2018-03-21T14:50:00Z,60.32,24.97,-2.0,-9.0,200,15,,6.21,29.822834,,,,,,TRUE,,,,,BKN,2400,,,,,,,MVFR,,,,,,,,,,,,METAR,56.0
EYPA 211450Z 26005KT 210V310 CAVOK 03/M02 Q1019 R19/1///95,EYPA,2018-03-21T14:50:00Z,55.97,21.08,3.0,-2.0,260,5,,6.21,30.088583,,,,,,,,,,,CAVOK,,,,,,,,VFR,,,,,,,,,,,,METAR,10.0
EYVI 211450Z 31010KT 260V340 9999 BKN033 M02/M10 Q1016 R01/0///95 NOSIG,EYVI,2018-03-21T14:50:00Z,54.63,25.28,-2.0,-10.0,310,10,,6.21,30.0,,,,,,TRUE,,,,,BKN,3300,,,,,,,VFR,,,,,,,,,,,,METAR,197.0
KQFX 211450Z AUTO 00000KT 9999 OVC055 01/M01 A2996 RMK A02 TSNO,KQFX,2018-03-21T14:50:00Z,,,1.0,-1.0,0,0,,6.21,29.958662,,,TRUE,TRUE,,,TRUE,,,,OVC,5500,,,,,,,VFR,,,,,,,,,,,,METAR,
KQFW 211450Z AUTO 22001KT 9999 OVC075 01/M04 A2998 RMK A02 TSNO,KQFW,2018-03-21T14:50:00Z,,,1.0,-4.0,220,1,,6.21,29.97933,,,TRUE,TRUE,,,TRUE,,,,OVC,7500,,,,,,,VFR,,,,,,,,,,,,METAR,
KQFV 211450Z AUTO 07001KT 9999 OVC095 00/M06 A2998 RMK A02 TSNO,KQFV,2018-03-21T14:50:00Z,,,0.0,-6.0,70,1,,6.21,29.97933,,,TRUE,TRUE,,,TRUE,,,,OVC,9500,,,,,,,VFR,,,,,,,,,,,,METAR,
KQFT 211450Z AUTO 00000KT 9999 OVC085 01/M00 A2999 RMK A02 TSNO,KQFT,2018-03-21T14:50:00Z,,,1.0,0.0,0,0,,6.21,29.991142,,,TRUE,TRUE,,,TRUE,,,,OVC,8500,,,,,,,VFR,,,,,,,,,,,,METAR,
KQFB 211450Z AUTO 26003KT 9999 OVC020 02/M00 A2995 RMK A02 TSNO,KQFB,2018-03-21T14:50:00Z,,,2.0,0.0,260,3,,6.21,29.949802,,,TRUE,TRUE,,,TRUE,,,,OVC,2000,,,,,,,MVFR,,,,,,,,,,,,METAR,
KQEY 211450Z AUTO 28004KT 4800 -RASN OVC048 01/M01 A2966 RMK A02 TSNO,KQEY,2018-03-21T14:50:00Z,,,1.0,-1.0,280,4,,2.98,29.660433,,,TRUE,TRUE,,,TRUE,,,-RA -SN,OVC,4800,,,,,,,IFR,,,,,,,,,,,,METAR,
KQEW 211450Z AUTO 17002KT 9000 // OVC065 01/00 A2993 RMK A02 TSNO,KQEW,2018-03-21T14:50:00Z,,,1.0,0.0,170,2,,5.59,29.929134,,,TRUE,TRUE,,,TRUE,,,,OVC,6500,,,,,,,VFR,,,,,,,,,,,,METAR,
KQEV 211450Z AUTO 26002KT 3200 -RASN BKN006 OVC033 01/00 A2996 RMK A02 TSNO,KQEV,2018-03-21T14:50:00Z,,,1.0,0.0,260,2,,1.99,29.958662,,,TRUE,TRUE,,,TRUE,,,-RA -SN,BKN,600,OVC,3300,,,,,IFR,,,,,,,,,,,,METAR,
KQES 211450Z AUTO 34008G14KT 9000 -RA BKN004 BKN070 01/01 A3005 RMK A02 TSNO,KQES,2018-03-21T14:50:00Z,,,1.0,1.0,340,8,14,5.59,30.050198,,,TRUE,TRUE,,,TRUE,,,-RA,BKN,400,BKN,7000,,,,,LIFR,,,,,,,,,,,,METAR,
KQEP 211450Z AUTO 33002KT 9999 CLR M01/M10 / RMK A02 TSNO,KQEP,2018-03-21T14:50:00Z,,,-1.0,-10.0,330,2,,6.21,,,,TRUE,TRUE,,,TRUE,,,,CLR,,,,,,,,VFR,,,,,,,,,,,,METAR,
KDAG 211450Z AUTO 28010KT 10SM FEW050 BKN110 11/08 A3003 RMK AO2 SLP157 T01060078 53019,KDAG,2018-03-21T14:50:00Z,34.85,-116.78,10.6,7.8,280,10,,10.0,30.029528,1015.7,,TRUE,TRUE,,,,,,,FEW,5000,BKN,11000,,,,,VFR,1.9,,,,,,,,,,,METAR,587.0
KHQZ 211450Z VRB04KT 10SM CLR 13/03 A3022,KHQZ,2018-03-21T14:50:00Z,32.75,-96.53,13.0,3.0,0,4,,10.0,30.221457,,,,,,,,,,,CLR,,,,,,,,VFR,,,,,,,,,,,,METAR,136.0
KOQU 211450Z 06028KT 1SM -SNBR OVC023 02/M01 A2972,KOQU,2018-03-21T14:50:00Z,41.6,-71.42,2.0,-1.0,60,28,,1.0,29.719488,,,,,,,,,,-SN BR,OVC,2300,,,,,,,IFR,,,,,,,,,,,,METAR,6.0
LSZB 211450Z 07009KT 350V150 9999 SCT045 03/M07 Q1023 NOSIG,LSZB,2018-03-21T14:50:00Z,46.92,7.5,3.0,-7.0,70,9,,6.21,30.206694,,,,,,TRUE,,,,,SCT,4500,,,,,,,VFR,,,,,,,,,,,,METAR,505.0
LSGG 211450Z 04022KT 010V070 9999 FEW042 SCT050 05/M06 Q1022 NOSIG,LSGG,2018-03-21T14:50:00Z,46.25,6.12,5.0,-6.0,40,22,,6.21,30.177166,,,,,,TRUE,,,,,FEW,4200,SCT,5000,,,,,VFR,,,,,,,,,,,,METAR,416.0
LSZH 211450Z 09010KT 9999 SCT056 04/M09 Q1025 NOSIG,LSZH,2018-03-21T14:50:00Z,47.48,8.53,4.0,-9.0,90,10,,6.21,30.265747,,,,,,TRUE,,,,,SCT,5600,,,,,,,VFR,,,,,,,,,,,,METAR,432.0
LSZA 211450Z 02012KT 350V050 9999 FEW050 11/M11 Q1016 NOSIG,LSZA,2018-03-21T14:50:00Z,46.0,8.92,11.0,-11.0,20,12,,6.21,30.0,,,,,,TRUE,,,,,FEW,5000,,,,,,,VFR,,,,,,,,,,,,METAR,276.0
LSGS 211450Z 25015KT 9999 SCT090 07/M08 Q1018,LSGS,2018-03-21T14:50:00Z,46.22,7.32,7.0,-8.0,250,15,,6.21,30.059055,,,,,,,,,,,SCT,9000,,,,,,,VFR,,,,,,,,,,,,METAR,481.0
LSGC 211450Z 05009KT 010V130 9999 -SHSN FEW027 BKN034 M02/M09 Q1021,LSGC,2018-03-21T14:50:00Z,47.08,6.8,-2.0,-9.0,50,9,,6.21,30.147638,,,,,,,,,,-SHSN,FEW,2700,BKN,3400,,,,,VFR,,,,,,,,,,,,METAR,1027.0
LSZR 211450Z 04007KT 350V080 9999 BKN055 03/M08 Q1025 NOSIG RMK L,LSZR,2018-03-21T14:50:00Z,47.48,9.57,3.0,-8.0,40,7,,6.21,30.265747,,,,,,TRUE,,,,,BKN,5500,,,,,,,VFR,,,,,,,,,,,,METAR,398.0
LSZG 211450Z 05012KT 9999 FEW035 BKN059 04/M08 Q1024 NOSIG,LSZG,2018-03-21T14:50:00Z,47.17,7.42,4.0,-8.0,50,12,,6.21,30.236221,,,,,,TRUE,,,,,FEW,3500,BKN,5900,,,,,VFR,,,,,,,,,,,,METAR,430.0
LSZS 211450Z 31011KT 290V350 9999 FEW050 M05/M16 Q1014 RMK Q,LSZS,2018-03-21T14:50:00Z,46.53,9.88,-5.0,-16.0,310,11,,6.21,29.940945,,,,,,,,,,,FEW,5000,,,,,,,VFR,,,,,,,,,,,,METAR,1706.0
LSZC 211450Z AUTO 08006KT 050V120 9999 FEW039 OVC050 02/M06 Q1024,LSZC,2018-03-21T14:50:00Z,46.97,8.38,2.0,-6.0,80,6,,6.21,30.236221,,,TRUE,,,,,,,,FEW,3900,OVC,5000,,,,,VFR,,,,,,,,,,,,METAR,450.0
LSZL 211450Z 11012G25KT 070V150 CAVOK 11/M12 Q1016 RMK BLU,LSZL,2018-03-21T14:50:00Z,46.17,8.88,11.0,-12.0,110,12,25,6.21,30.0,,,,,,,,,,,CAVOK,,,,,,,,VFR,,,,,,,,,,,,METAR,600.0
KMUI 211450Z 00000KT 1/4SM +SN VV007 M01/M01 A2967 RMK AO2A SLP055,KMUI,2018-03-21T14:50:00Z,40.42,-76.57,-1.0,-1.0,0,0,,0.25,29.66929,1005.5,,,TRUE,,,,,,+SN,OVX,0,,,,,,,LIFR,,,,,,,,,,,700,METAR,149.0
KHEQ 211450Z AUTO 24006KT 10SM CLR 06/M03 A3005 RMK AO2,KHEQ,2018-03-21T14:50:00Z,40.57,-102.28,6.0,-3.0,240,6,,10.0,30.050198,,,TRUE,TRUE,,,,,,,CLR,,,,,,,,VFR,,,,,,,,,,,,METAR,1137.0
LLBG 211450Z 35009KT CAVOK 24/09 Q1017 NOSIG,LLBG,2018-03-21T14:50:00Z,32.0,34.88,24.0,9.0,350,9,,6.21,30.029528,,,,,,TRUE,,,,,CAVOK,,,,,,,,VFR,,,,,,,,,,,,METAR,49.0
CYYE 211450Z 02010KT 1/2SM SN BKN006 OVC020 M05/M07 A3004 RMK SN4SF1SC3 SLP199,CYYE,2018-03-21T14:50:00Z,58.82,-122.57,-5.0,-7.0,20,10,,0.5,30.041338,1019.9,,,,,,,,,SN,BKN,600,OVC,2000,,,,,LIFR,,,,,,,,,,,,SPECI,382.0
LLSD 211450Z 35012KT CAVOK 21/14 Q1018,LLSD,2018-03-21T14:50:00Z,32.12,34.78,21.0,14.0,350,12,,6.21,30.059055,,,,,,,,,,,CAVOK,,,,,,,,VFR,,,,,,,,,,,,METAR,14.0
LLIB 211450Z 32008KT CAVOK 24/02 Q1018,LLIB,2018-03-21T14:50:00Z,32.98,35.57,24.0,2.0,320,8,,6.21,30.059055,,,,,,,,,,,CAVOK,,,,,,,,VFR,,,,,,,,,,,,METAR,282.0
LLHA 211450Z 31006KT 280V350 CAVOK 20/15 Q1018,LLHA,2018-03-21T14:50:00Z,32.78,35.02,20.0,15.0,310,6,,6.21,30.059055,,,,,,,,,,,CAVOK,,,,,,,,VFR,,,,,,,,,,,,METAR,8.0
LLET 211450Z 02022KT 9000 NSC 30/M02 Q1013,LLET,2018-03-21T14:50:00Z,29.55,34.95,30.0,-2.0,20,22,,5.59,29.911417,,,,,,,,,,,CLR,,,,,,,,VFR,,,,,,,,,,,,METAR,13.0
KEKM 211450Z 36011G18KT 10SM CLR 01/M09 A2998 RMK AO2,KEKM,2018-03-21T14:50:00Z,41.72,-86.0,1.0,-9.0,360,11,18,10.0,29.97933,,,,TRUE,,,,,,,CLR,,,,,,,,VFR,,,,,,,,,,,,METAR,237.0
EVVA 211450Z AUTO 22010KT CAVOK 02/M01 Q1016,EVVA,2018-03-21T14:50:00Z,57.35,21.55,2.0,-1.0,220,10,,6.21,30.0,,,TRUE,,,,,,,,CAVOK,,,,,,,,VFR,,,,,,,,,,,,METAR,6.0
EKSP 211450Z 27015KT 9999 FEW014 BKN060 05/02 Q1021 NOSIG,EKSP,2018-03-21T14:50:00Z,55.22,9.27,5.0,2.0,270,15,,6.21,30.147638,,,,,,TRUE,,,,,FEW,1400,BKN,6000,,,,,VFR,,,,,,,,,,,,METAR,40.0
EKKA 211450Z AUTO 26014KT 9999NDV FEW024/// BKN063/// 05/00 Q1019 TEMPO 7000 -SHRA,EKKA,2018-03-21T14:50:00Z,56.3,9.12,5.0,0.0,260,14,,,30.088583,,,TRUE,,,,,,,,FEW,2400,BKN,6300,,,,,,,,,,,,,,,,,METAR,52.0
NSTU 211450Z VRB02KT 10SM SCT018 SCT040 BKN110 BKN210 26/25 A2973 RMK SLP068 60004 8/471 T02610249 56003,NSTU,2018-03-21T14:50:00Z,-14.33,-170.72,26.1,24.9,0,2,,10.0,29.731298,1006.8,,,,,,,,,,SCT,1800,SCT,4000,BKN,11000,BKN,21000,VFR,-0.3,,,,,,0.04,,,,,METAR,3.0
EVLA 211450Z AUTO 24012KT 9999 FEW130/// 03/M01 Q1017,EVLA,2018-03-21T14:50:00Z,56.52,21.1,3.0,-1.0,240,12,,6.21,30.029528,,,TRUE,,,,,,,,FEW,13000,,,,,,,VFR,,,,,,,,,,,,METAR,4.0
LSMA 211450Z 05009G20KT 350V080 9999 SCT051 03/M06 Q1024 RMK BLU+,LSMA,2018-03-21T14:50:00Z,46.95,8.28,3.0,-6.0,50,9,20,6.21,30.236221,,,,,,,,,,,SCT,5100,,,,,,,VFR,,,,,,,,,,,,METAR,444.0
LSMD 211450Z 10009KT 070V130 9999 BKN049 02/M08 Q1025 RMK BLU,LSMD,2018-03-21T14:50:00Z,47.4,8.65,2.0,-8.0,100,9,,6.21,30.265747,,,,,,,,,,,BKN,4900,,,,,,,VFR,,,,,,,,,,,,METAR,448.0
ESGT 211450Z 25009KT CAVOK 06/M01 Q1013,ESGT,2018-03-21T14:50:00Z,58.32,12.33,6.0,-1.0,250,9,,6.21,29.911417,,,,,,,,,,,CAVOK,,,,,,,,VFR,,,,,,,,,,,,METAR,41.0
ESGJ 211450Z 24011KT 9999 FEW032 04/M03 Q1013 R19//9//70,ESGJ,2018-03-21T14:50:00Z,57.77,14.07,4.0,-3.0,240,11,,6.21,29.911417,,,,,,,,,,,FEW,3200,,,,,,,VFR,,,,,,,,,,,,METAR,232.0
ESGG 211450Z 24011KT CAVOK 03/M01 Q1014 R21/19//95,ESGG,2018-03-21T14:50:00Z,57.67,12.3,3.0,-1.0,240,11,,6.21,29.940945,,,,,,,,,,,CAVOK,,,,,,,,VFR,,,,,,,,,,,,METAR,169.0
EDDV 211450Z 27009KT 9999 FEW022 BKN250 05/M02 Q1026 NOSIG,EDDV,2018-03-21T14:50:00Z,52.47,9.68,5.0,-2.0,270,9,,6.21,30.295275,,,,,,TRUE,,,,,FEW,2200,BKN,25000,,,,,VFR,,,,,,,,,,,,METAR,54.0
EDDT 211450Z 26012KT 230V300 CAVOK 06/M09 Q1024 NOSIG,EDDT,2018-03-21T14:50:00Z,52.57,13.32,6.0,-9.0,260,12,,6.21,30.236221,,,,,,TRUE,,,,,CAVOK,,,,,,,,VFR,,,,,,,,,,,,METAR,37.0
EDDS 211450Z 33009KT 310V010 CAVOK 04/M10 Q1025 NOSIG,EDDS,2018-03-21T14:50:00Z,48.67,9.22,4.0,-10.0,330,9,,6.21,30.265747,,,,,,TRUE,,,,,CAVOK,,,,,,,,VFR,,,,,,,,,,,,METAR,419.0
EDDN 211450Z 32008KT 280V020 CAVOK 05/M11 Q1025 R28/290195 NOSIG,EDDN,2018-03-21T14:50:00Z,49.5,11.08,5.0,-11.0,320,8,,6.21,30.265747,,,,,,TRUE,,,,,CAVOK,,,,,,,,VFR,,,,,,,,,,,,METAR,312.0
EDDM 211450Z 27004KT 210V310 9999 SCT040 03/M08 Q1024 NOSIG,EDDM,2018-03-21T14:50:00Z,48.35,11.82,3.0,-8.0,270,4,,6.21,30.236221,,,,,,TRUE,,,,,SCT,4000,,,,,,,VFR,,,,,,,,,,,,METAR,447.0
EDDL 211450Z 23006KT 200V290 9999 FEW028 BKN040 06/M01 Q1028 NOSIG,EDDL,2018-03-21T14:50:00Z,51.3,6.77,6.0,-1.0,230,6,,6.21,30.35433,,,,,,TRUE,,,,,FEW,2800,BKN,4000,,,,,VFR,,,,,,,,,,,,METAR,44.0
EDDK 211450Z 32007KT 300V360 9999 FEW024 SCT250 05/M03 Q1028 NOSIG,EDDK,2018-03-21T14:50:00Z,50.87,7.15,5.0,-3.0,320,7,,6.21,30.35433,,,,,,TRUE,,,,,FEW,2400,SCT,25000,,,,,VFR,,,,,,,,,,,,METAR,99.0
EDDH 211450Z 25006KT 210V270 9999 -SHRA SCT015 BKN019 04/01 Q1024 NOSIG,EDDH,2018-03-21T14:50:00Z,53.63,10.0,4.0,1.0,250,6,,6.21,30.236221,,,,,,TRUE,,,,-SHRA,SCT,1500,BKN,1900,,,,,MVFR,,,,,,,,,,,,METAR,16.0
EDDF 211450Z VRB02KT CAVOK 07/M06 Q1027 NOSIG,EDDF,2018-03-21T14:50:00Z,50.05,8.6,7.0,-6.0,0,2,,6.21,30.324802,,,,,,TRUE,,,,,CAVOK,,,,,,,,VFR,,,,,,,,,,,,METAR,113.0
LSMS 211450Z 25015KT 9999 SCT090 07/M08 Q1018 RMK BLU+,LSMS,2018-03-21T14:50:00Z,46.22,7.32,7.0,-8.0,250,15,,6.21,30.059055,,,,,,,,,,,SCT,9000,,,,,,,VFR,,,,,,,,,,,,METAR,481.0
LSMP 211450Z 05012KT 350V080 9999 BKN048 03/M06 Q1023 RMK BLU,LSMP,2018-03-21T14:50:00Z,46.82,6.92,3.0,-6.0,50,12,,6.21,30.206694,,,,,,,,,,,BKN,4800,,,,,,,VFR,,,,,,,,,,,,METAR,491.0
LSMM 211450Z VRB07G20KT 9999 -RASN SCT035 OVC063 01/M06 Q1023 RMK BLU,LSMM,2018-03-21T14:50:00Z,46.75,8.12,1.0,-6.0,0,7,20,6.21,30.206694,,,,,,,,,,-RA -SN,SCT,3500,OVC,6300,,,,,VFR,,,,,,,,,,,,METAR,577.0
LSME 211450Z 07007KT 020V110 9999 BKN041 BKN048 03/M05 Q1024 RMK BLU,LSME,2018-03-21T14:50:00Z,47.1,8.3,3.0,-5.0,70,7,,6.21,30.236221,,,,,,,,,,,BKN,4100,BKN,4800,,,,,VFR,,,,,,,,,,,,METAR,427.0
ESMK 211450Z 26009KT 9999 OVC012 04/01 Q1018,ESMK,2018-03-21T14:50:00Z,55.92,14.07,4.0,1.0,260,9,,6.21,30.059055,,,,,,,,,,,OVC,1200,,,,,,,MVFR,,,,,,,,,,,,METAR,23.0
EDDC 211450Z 27008KT 220V330 9999 FEW041 02/M07 Q1025 NOSIG,EDDC,2018-03-21T14:50:00Z,51.13,13.75,2.0,-7.0,270,8,,6.21,30.265747,,,,,,TRUE,,,,,FEW,4100,,,,,,,VFR,,,,,,,,,,,,METAR,226.0
EDDB 211450Z 26012KT CAVOK 06/M07 Q1024 NOSIG,EDDB,2018-03-21T14:50:00Z,52.38,13.53,6.0,-7.0,260,12,,6.21,30.236221,,,,,,TRUE,,,,,CAVOK,,,,,,,,VFR,,,,,,,,,,,,METAR,48.0
LXGB 211450Z 10008KT 9999 FEW050 15/M03 Q1021 NOSIG,LXGB,2018-03-21T14:50:00Z,36.13,-5.33,15.0,-3.0,100,8,,6.21,30.147638,,,,,,TRUE,,,,,FEW,5000,,,,,,,VFR,,,,,,,,,,,,METAR,5.0
ESTA 211450Z 24010KT 9999 BKN027 OVC072 04/01 Q1017,ESTA,2018-03-21T14:50:00Z,56.28,12.83,4.0,1.0,240,10,,6.21,30.029528,,,,,,,,,,,BKN,2700,OVC,7200,,,,,MVFR,,,,,,,,,,,,METAR,47.0
ESMX 211450Z 23010KT 9999 BKN021 03/M02 Q1016,ESMX,2018-03-21T14:50:00Z,56.92,14.72,3.0,-2.0,230,10,,6.21,30.0,,,,,,,,,,,BKN,2100,,,,,,,MVFR,,,,,,,,,,,,METAR,186.0
ESMT 211450Z 24012KT 9999 FEW022 SCT034 BKN040 03/01 Q1017,ESMT,2018-03-21T14:50:00Z,56.67,12.82,3.0,1.0,240,12,,6.21,30.029528,,,,,,,,,,,FEW,2200,SCT,3400,BKN,4000,,,VFR,,,,,,,,,,,,METAR,30.0
ESMS 211450Z 26010KT 9999 BKN007 BKN009 OVC030 04/02 Q1019 R17/19//95,ESMS,2018-03-21T14:50:00Z,55.53,13.37,4.0,2.0,260,10,,6.21,30.088583,,,,,,,,,,,BKN,700,BKN,900,OVC,3000,,,IFR,,,,,,,,,,,,METAR,106.0
ESMQ 211450Z 23012KT CAVOK 05/M06 Q1016,ESMQ,2018-03-21T14:50:00Z,56.68,16.3,5.0,-6.0,230,12,,6.21,30.0,,,,,,,,,,,CAVOK,,,,,,,,VFR,,,,,,,,,,,,METAR,16.0
EDDE 211450Z 28006KT 9999 FEW040 BKN300 03/M05 Q1025 R88/190095 NOSIG,EDDE,2018-03-21T14:50:00Z,50.98,10.97,3.0,-5.0,280,6,,6.21,30.265747,,,,,,TRUE,,,,,FEW,4000,BKN,30000,,,,,VFR,,,,,,,,,,,,METAR,323.0
EDDG 211450Z 22009KT 9999 FEW020 BKN060 05/M02 Q1027 NOSIG,EDDG,2018-03-21T14:50:00Z,52.13,7.7,5.0,-2.0,220,9,,6.21,30.324802,,,,,,TRUE,,,,,FEW,2000,BKN,6000,,,,,VFR,,,,,,,,,,,,METAR,52.0
EDDP 211450Z 23009KT 210V270 CAVOK 03/M06 Q1026 R88/19//95 NOSIG,EDDP,2018-03-21T14:50:00Z,51.43,12.23,3.0,-6.0,230,9,,6.21,30.295275,,,,,,TRUE,,,,,CAVOK,,,,,,,,VFR,,,,,,,,,,,,METAR,149.0
EDDR 211450Z 08006KT 050V140 CAVOK 06/M13 Q1026 NOSIG,EDDR,2018-03-21T14:50:00Z,49.22,7.1,6.0,-13.0,80,6,,6.21,30.295275,,,,,,TRUE,,,,,CAVOK,,,,,,,,VFR,,,,,,,,,,,,METAR,320.0
LGZA 211450Z 14012KT 9999 SCT015 SCT020 BKN070 16/13 Q1012,LGZA,2018-03-21T14:50:00Z,37.75,20.87,16.0,13.0,140,12,,6.21,29.88189,,,,,,,,,,,SCT,1500,SCT,2000,BKN,7000,,,VFR,,,,,,,,,,,,METAR,3.0
LGSR 211450Z 13012KT 9999 FEW025 15/10 Q1015,LGSR,2018-03-21T14:50:00Z,36.4,25.48,15.0,10.0,130,12,,6.21,29.970472,,,,,,,,,,,FEW,2500,,,,,,,VFR,,,,,,,,,,,,METAR,40.0
LGSK 211450Z 00000KT 9999 FEW030 19/07 Q1010,LGSK,2018-03-21T14:50:00Z,39.18,23.5,19.0,7.0,0,0,,6.21,29.822834,,,,,,,,,,,FEW,3000,,,,,,,VFR,,,,,,,,,,,,METAR,15.0
LGRX 211450Z 19006KT 9999 FEW025 20/08 Q1012,LGRX,2018-03-21T14:50:00Z,38.17,21.42,20.0,8.0,190,6,,6.21,29.88189,,,,,,,,,,,FEW,2500,,,,,,,VFR,,,,,,,,,,,,METAR,15.0
LGPZ 211450Z 16010KT 9999 FEW015 SCT025 BKN070 17/13 Q1013,LGPZ,2018-03-21T14:50:00Z,38.92,20.77,17.0,13.0,160,10,,6.21,29.911417,,,,,,,,,,,FEW,1500,SCT,2500,BKN,7000,,,VFR,,,,,,,,,,,,METAR,4.0
LGMT 211450Z 20011KT 130V240 9999 FEW020 19/09 Q1014,LGMT,2018-03-21T14:50:00Z,39.05,26.6,19.0,9.0,200,11,,6.21,29.940945,,,,,,,,,,,FEW,2000,,,,,,,VFR,,,,,,,,,,,,METAR,17.0
LGKV 211450Z 23004KT 9999 SCT025 BKN080 15/10 Q1012,LGKV,2018-03-21T14:50:00Z,40.92,24.62,15.0,10.0,230,4,,6.21,29.88189,,,,,,,,,,,SCT,2500,BKN,8000,,,,,VFR,,,,,,,,,,,,METAR,5.0
LGAL 211450Z 20016KT 9999 FEW018 16/11 Q1013,LGAL,2018-03-21T14:50:00Z,40.85,25.95,16.0,11.0,200,16,,6.21,29.911417,,,,,,,,,,,FEW,1800,,,,,,,VFR,,,,,,,,,,,,METAR,3.0
LOXZ 211450Z 33009KT 40KM FEW045SC SCT060CU BKN300CI 01/M12 Q1020 NOSIG,LOXZ,2018-03-21T14:50:00Z,47.2,14.75,1.0,-12.0,330,9,,24.86,30.11811,,,,,,TRUE,,,,,SCT,6000,,,,,,,VFR,,,,,,,,,,,,METAR,682.0
EETU 211450Z 26012KT CAVOK M02/M12 Q1014,EETU,2018-03-21T14:50:00Z,58.32,26.68,-2.0,-12.0,260,12,,6.21,29.940945,,,,,,,,,,,CAVOK,,,,,,,,VFR,,,,,,,,,,,,METAR,67.0
EEKE 211450Z 25010KT 210V280 CAVOK 01/M02 Q1014 R17/0///95,EEKE,2018-03-21T14:50:00Z,58.23,22.52,1.0,-2.0,250,10,,6.21,29.940945,,,,,,,,,,,CAVOK,,,,,,,,VFR,,,,,,,,,,,,METAR,4.0
EEKA 211450Z 22012KT 170V270 CAVOK 03/M02 Q1011,EEKA,2018-03-21T14:50:00Z,58.98,22.83,3.0,-2.0,220,12,,6.21,29.852362,,,,,,,,,,,CAVOK,,,,,,,,VFR,,,,,,,,,,,,METAR,4.0
LGSO 211450Z 17011KT 9999 FEW018 17/10 Q1014,LGSO,2018-03-21T14:50:00Z,37.42,24.95,17.0,10.0,170,11,,6.21,29.940945,,,,,,,,,,,FEW,1800,,,,,,,VFR,,,,,,,,,,,,METAR,72.0
LGPA 211450Z 14012KT CAVOK 17/09 Q1014 NOSIG,LGPA,2018-03-21T14:50:00Z,37.0,25.13,17.0,9.0,140,12,,6.21,29.940945,,,,,,TRUE,,,,,CAVOK,,,,,,,,VFR,,,,,,,,,,,,METAR,36.0
LGMK 211450Z /////KT 9999 FEW020 17/10 Q1015,LGMK,2018-03-21T14:50:00Z,37.43,25.35,17.0,10.0,,,,6.21,29.970472,,,,,,,,,,,FEW,2000,,,,,,,VFR,,,,,,,,,,,,METAR,123.0
LGKZ 211450Z 00000KT 7000 -RA SCT015 BKN020 OVC070 09/08 Q1013,LGKZ,2018-03-21T14:50:00Z,40.28,21.83,9.0,8.0,0,0,,4.35,29.911417,,,,,,,,,,-RA,SCT,1500,BKN,2000,OVC,7000,,,MVFR,,,,,,,,,,,,METAR,628.0
LGKP 211450Z 10008KT 9999 SCT020 18/13 Q1017,LGKP,2018-03-21T14:50:00Z,35.42,27.15,18.0,13.0,100,8,,6.21,30.029528,,,,,,,,,,,SCT,2000,,,,,,,VFR,,,,,,,,,,,,METAR,20.0
LGKF 211450Z 16013KT 9999 FEW016 18/14 Q1012,LGKF,2018-03-21T14:50:00Z,38.12,20.5,18.0,14.0,160,13,,6.21,29.88189,,,,,,,,,,,FEW,1600,,,,,,,VFR,,,,,,,,,,,,METAR,18.0
LGKC 211450Z 16008KT 9999 FEW025 16/10 Q1015,LGKC,2018-03-21T14:50:00Z,36.28,23.02,16.0,10.0,160,8,,6.21,29.970472,,,,,,,,,,,FEW,2500,,,,,,,VFR,,,,,,,,,,,,METAR,319.0
LGHI 211450Z 18011G21KT 9999 FEW025 18/11 Q1014,LGHI,2018-03-21T14:50:00Z,38.32,26.12,18.0,11.0,180,11,21,6.21,29.940945,,,,,,,,,,,FEW,2500,,,,,,,VFR,,,,,,,,,,,,METAR,4.0
LGBL 211450Z 10005KT 9999 FEW030 18/07 Q1011,LGBL,2018-03-21T14:50:00Z,39.22,22.8,18.0,7.0,100,5,,6.21,29.852362,,,,,,,,,,,FEW,3000,,,,,,,VFR,,,,,,,,,,,,METAR,26.0
LGTS 211450Z 31004KT 9999 -RA SCT025 14/07 Q1014 NOSIG,LGTS,2018-03-21T14:50:00Z,40.52,22.97,14.0,7.0,310,4,,6.21,29.940945,,,,,,TRUE,,,,-RA,SCT,2500,,,,,,,VFR,,,,,,,,,,,,METAR,7.0
LGSM 211450Z 20005KT 9999 FEW020 19/15 Q1017,LGSM,2018-03-21T14:50:00Z,37.68,26.92,19.0,15.0,200,5,,6.21,30.029528,,,,,,,,,,,FEW,2000,,,,,,,VFR,,,,,,,,,,,,METAR,6.0
LGSA 211450Z 10006KT 9999 FEW025 21/11 Q1013,LGSA,2018-03-21T14:50:00Z,35.53,24.13,21.0,11.0,100,6,,6.21,29.911417,,,,,,,,,,,FEW,2500,,,,,,,VFR,,,,,,,,,,,,METAR,135.0
LGLM 211450Z 18012G22KT 9999 FEW018 16/12 Q1012,LGLM,2018-03-21T14:50:00Z,39.92,25.23,16.0,12.0,180,12,22,6.21,29.88189,,,,,,,,,,,FEW,1800,,,,,,,VFR,,,,,,,,,,,,METAR,5.0
LGKO 211450Z 14010KT 9999 FEW018 17/10 Q1017,LGKO,2018-03-21T14:50:00Z,36.8,27.08,17.0,10.0,140,10,,6.21,30.029528,,,,,,,,,,,FEW,1800,,,,,,,VFR,,,,,,,,,,,,METAR,125.0
LGKL 211450Z 00000KT 9999 FEW025 SCT080 16/11 Q1013,LGKL,2018-03-21T14:50:00Z,37.07,22.02,16.0,11.0,0,0,,6.21,29.911417,,,,,,,,,,,FEW,2500,SCT,8000,,,,,VFR,,,,,,,,,,,,METAR,8.0
LIMW 211450Z AUTO 30011KT 190V350 9999 NCD 10/M15 Q1014,LIMW,2018-03-21T14:50:00Z,45.73,7.37,10.0,-15.0,300,11,,6.21,29.940945,,,TRUE,,,,,,,,CLR,,,,,,,,VFR,,,,,,,,,,,,METAR,546.0
LIPZ 211450Z 09012KT CAVOK 09/M03 Q1018 NOSIG,LIPZ,2018-03-21T14:50:00Z,45.5,12.35,9.0,-3.0,90,12,,6.21,30.059055,,,,,,TRUE,,,,,CAVOK,,,,,,,,VFR,,,,,,,,,,,,METAR,6.0
LIPX 211450Z VRB03KT 9999 FEW050 10/M05 Q1018,LIPX,2018-03-21T14:50:00Z,45.38,10.87,10.0,-5.0,0,3,,6.21,30.059055,,,,,,,,,,,FEW,5000,,,,,,,VFR,,,,,,,,,,,,METAR,68.0
LIPQ 211450Z 07012KT 020V100 CAVOK 10/M06 Q1018,LIPQ,2018-03-21T14:50:00Z,45.82,13.47,10.0,-6.0,70,12,,6.21,30.059055,,,,,,,,,,,CAVOK,,,,,,,,VFR,,,,,,,,,,,,METAR,12.0
LIPK 211450Z 07007KT 9999 FEW030 08/M07 Q1018,LIPK,2018-03-21T14:50:00Z,44.2,12.07,8.0,-7.0,70,7,,6.21,30.059055,,,,,,,,,,,FEW,3000,,,,,,,VFR,,,,,,,,,,,,METAR,32.0
LIPH 211450Z 07007KT 010V110 CAVOK 10/M05 Q1018,LIPH,2018-03-21T14:50:00Z,45.63,12.17,10.0,-5.0,70,7,,6.21,30.059055,,,,,,,,,,,CAVOK,,,,,,,,VFR,,,,,,,,,,,,METAR,23.0
LIPE 211450Z 07012KT 040V110 9999 FEW060 09/M05 Q1019,LIPE,2018-03-21T14:50:00Z,44.52,11.3,9.0,-5.0,70,12,,6.21,30.088583,,,,,,,,,,,FEW,6000,,,,,,,VFR,,,,,,,,,,,,METAR,42.0
LIPB 211450Z 35009KT 290V050 CAVOK 11/M15 Q1017,LIPB,2018-03-21T14:50:00Z,46.47,11.32,11.0,-15.0,350,9,,6.21,30.029528,,,,,,,,,,,CAVOK,,,,,,,,VFR,,,,,,,,,,,,METAR,241.0
LICJ 211450Z 29008KT 9999 SCT025 13/08 Q1009,LICJ,2018-03-21T14:50:00Z,38.17,13.08,13.0,8.0,290,8,,6.21,29.793306,,,,,,,,,,,SCT,2500,,,,,,,VFR,,,,,,,,,,,,METAR,34.0
LICC 211450Z 06015KT 9999 FEW050 16/07 Q1008,LICC,2018-03-21T14:50:00Z,37.47,15.05,16.0,7.0,60,15,,6.21,29.763779,,,,,,,,,,,FEW,5000,,,,,,,VFR,,,,,,,,,,,,METAR,17.0
LIBR 211450Z 32011KT 9999 SCT010 BKN025 11/08 Q1011,LIBR,2018-03-21T14:50:00Z,40.65,17.95,11.0,8.0,320,11,,6.21,29.852362,,,,,,,,,,,SCT,1000,BKN,2500,,,,,MVFR,,,,,,,,,,,,METAR,10.0
LIBD 211450Z 30013KT 9999 SCT040 08/04 Q1011,LIBD,2018-03-21T14:50:00Z,41.12,16.77,8.0,4.0,300,13,,6.21,29.852362,,,,,,,,,,,SCT,4000,,,,,,,VFR,,,,,,,,,,,,METAR,44.0
LOWK 211450Z 03013KT 350V060 9999 FEW050 BKN070 05/M11 Q1020 NOSIG,LOWK,2018-03-21T14:50:00Z,46.65,14.32,5.0,-11.0,30,13,,6.21,30.11811,,,,,,TRUE,,,,,FEW,5000,BKN,7000,,,,,VFR,,,,,,,,,,,,METAR,441.0
KOMN 211450Z 29016G27KT 10SM SKC 15/03 A2995 RMK PK WND 29033/45,KOMN,2018-03-21T14:50:00Z,29.3,-81.12,15.0,3.0,290,16,27,10.0,29.949802,,,,,,,,,,,SKC,,,,,,,,VFR,,,,,,,,,,,,METAR,9.0
KJQF 211450Z 00000KT 5SM BR BKN005 OVC009 03/02 A2971,KJQF,2018-03-21T14:50:00Z,35.38,-80.72,3.0,2.0,0,0,,5.0,29.71063,,,,,,,,,,BR,BKN,500,OVC,900,,,,,IFR,,,,,,,,,,,,METAR,210.0
KGPM 211450Z 08008KT 10SM SKC 13/01 A3023,KGPM,2018-03-21T14:50:00Z,32.7,-97.05,13.0,1.0,80,8,,10.0,30.230314,,,,,,,,,,,SKC,,,,,,,,VFR,,,,,,,,,,,,METAR,180.0
EGSS 211450Z AUTO 26009KT 9999 NCD 10/M04 Q1028,EGSS,2018-03-21T14:50:00Z,51.88,0.22,10.0,-4.0,260,9,,6.21,30.35433,,,TRUE,,,,,,,,CLR,,,,,,,,VFR,,,,,,,,,,,,METAR,106.0
ESUP 211450Z 18004KT 9999 SCT042 BKN053 M03/M05 Q0994,ESUP,2018-03-21T14:50:00Z,67.25,23.07,-3.0,-5.0,180,4,,6.21,29.350393,,,,,,,,,,,SCT,4200,BKN,5300,,,,,VFR,,,,,,,,,,,,METAR,165.0
ESND 211450Z AUTO 26006KT 220V290 9999 BKN037/// BKN220/// 04/M03 Q1005,ESND,2018-03-21T14:50:00Z,62.05,14.42,4.0,-3.0,260,6,,6.21,29.675198,,,TRUE,,,,,,,,BKN,3700,BKN,22000,,,,,VFR,,,,,,,,,,,,METAR,359.0
ESST 211450Z AUTO 25008KT 9999 BKN086/// 06/M03 Q1010,ESST,2018-03-21T14:50:00Z,60.15,12.98,6.0,-3.0,250,8,,6.21,29.822834,,,TRUE,,,,,,,,BKN,8600,,,,,,,VFR,,,,,,,,,,,,METAR,120.0
ESNV 211450Z 26011KT 9999 NSC 02/M04 Q1000,ESNV,2018-03-21T14:50:00Z,64.58,16.83,2.0,-4.0,260,11,,6.21,29.52756,,,,,,,,,,,CLR,,,,,,,,VFR,,,,,,,,,,,,METAR,348.0
ESKM 211450Z AUTO 25007KT 9999 OVC061/// 07/M05 Q1007,ESKM,2018-03-21T14:50:00Z,60.97,14.52,7.0,-5.0,250,7,,6.21,29.734253,,,TRUE,,,,,,,,OVC,6100,,,,,,,VFR,,,,,,,,,,,,METAR,193.0
ESGR 211450Z AUTO 24010KT 180V260 9999 FEW130/// SCT160/// 05/M06 Q1012,ESGR,2018-03-21T14:50:00Z,58.45,13.97,5.0,-6.0,240,10,,6.21,29.88189,,,TRUE,,,,,,,,FEW,13000,SCT,16000,,,,,VFR,,,,,,,,,,,,METAR,105.0
ESNZ 211450Z 29012KT 9999 BKN034 02/M02 Q1003,ESNZ,2018-03-21T14:50:00Z,63.17,14.5,2.0,-2.0,290,12,,6.21,29.616142,,,,,,,,,,,BKN,3400,,,,,,,VFR,,,,,,,,,,,,METAR,370.0
ESNU 211450Z 27009KT CAVOK 06/M04 Q1000 R14/72//45,ESNU,2018-03-21T14:50:00Z,63.78,20.27,6.0,-4.0,270,9,,6.21,29.52756,,,,,,,,,,,CAVOK,,,,,,,,VFR,,,,,,,,,,,,METAR,14.0
ESNS 211450Z 28008KT CAVOK 05/M04 Q0998,ESNS,2018-03-21T14:50:00Z,64.62,21.07,5.0,-4.0,280,8,,6.21,29.468504,,,,,,,,,,,CAVOK,,,,,,,,VFR,,,,,,,,,,,,METAR,49.0
ESNQ 211450Z 29006KT CAVOK M01/M07 Q0992,ESNQ,2018-03-21T14:50:00Z,67.82,20.32,-1.0,-7.0,290,6,,6.21,29.291338,,,,,,,,,,,CAVOK,,,,,,,,VFR,,,,,,,,,,,,METAR,452.0
ESNO 211450Z 28012KT 9999 BKN045 05/M02 Q1001,ESNO,2018-03-21T14:50:00Z,63.38,18.97,5.0,-2.0,280,12,,6.21,29.557087,,,,,,,,,,,BKN,4500,,,,,,,VFR,,,,,,,,,,,,METAR,103.0
ESNN 211450Z 27012KT 230V300 CAVOK 07/M05 Q1004 R16/09//95,ESNN,2018-03-21T14:50:00Z,62.52,17.43,7.0,-5.0,270,12,,6.21,29.64567,,,,,,,,,,,CAVOK,,,,,,,,VFR,,,,,,,,,,,,METAR,10.0
ESNK 211450Z AUTO 30008KT 280V340 9999 FEW046/// 06/M03 Q1003,ESNK,2018-03-21T14:50:00Z,63.03,17.77,6.0,-3.0,300,8,,6.21,29.616142,,,TRUE,,,,,,,,FEW,4600,,,,,,,VFR,,,,,,,,,,,,METAR,19.0
ESNG 211450Z 26008KT CAVOK M00/M06 Q0994,ESNG,2018-03-21T14:50:00Z,67.13,20.82,0.0,-6.0,260,8,,6.21,29.350393,,,,,,,,,,,CAVOK,,,,,,,,VFR,,,,,,,,,,,,METAR,310.0
ESSL 211450Z 26009KT 210V300 CAVOK 05/M03 Q1013 R29/09//95,ESSL,2018-03-21T14:50:00Z,58.38,15.67,5.0,-3.0,260,9,,6.21,29.911417,,,,,,,,,,,CAVOK,,,,,,,,VFR,,,,,,,,,,,,METAR,52.0
ESPE 211450Z 30014KT 9999 SCT049 BKN140 03/M05 Q0997,ESPE,2018-03-21T14:50:00Z,65.88,20.15,3.0,-5.0,300,14,,6.21,29.438976,,,,,,,,,,,SCT,4900,BKN,14000,,,,,VFR,,,,,,,,,,,,METAR,182.0
ESPA 211450Z 29015KT CAVOK 05/M05 Q0997,ESPA,2018-03-21T14:50:00Z,65.53,22.12,5.0,-5.0,290,15,,6.21,29.438976,,,,,,,,,,,CAVOK,,,,,,,,VFR,,,,,,,,,,,,METAR,34.0
ESIB 211450Z 24011KT CAVOK 05/M01 Q1013,ESIB,2018-03-21T14:50:00Z,58.42,12.68,5.0,-1.0,240,11,,6.21,29.911417,,,,,,,,,,,CAVOK,,,,,,,,VFR,,,,,,,,,,,,METAR,74.0
ESDF 211450Z 22007KT 190V250 9999 BKN036 03/M01 Q1017,ESDF,2018-03-21T14:50:00Z,56.27,15.27,3.0,-1.0,220,7,,6.21,30.029528,,,,,,,,,,,BKN,3600,,,,,,,VFR,,,,,,,,,,,,METAR,74.0
ESCF 211450Z 25012KT CAVOK 04/M03 Q1013,ESCF,2018-03-21T14:50:00Z,58.38,15.52,4.0,-3.0,250,12,,6.21,29.911417,,,,,,,,,,,CAVOK,,,,,,,,VFR,,,,,,,,,,,,METAR,117.0
ESSV 211450Z 22017KT CAVOK 04/M06 Q1014 R21/09//95,ESSV,2018-03-21T14:50:00Z,57.67,18.35,4.0,-6.0,220,17,,6.21,29.940945,,,,,,,,,,,CAVOK,,,,,,,,VFR,,,,,,,,,,,,METAR,47.0
ESSP 211450Z 25016KT CAVOK 04/M04 Q1012 R27/09//95,ESSP,2018-03-21T14:50:00Z,58.57,16.25,4.0,-4.0,250,16,,6.21,29.88189,,,,,,,,,,,CAVOK,,,,,,,,VFR,,,,,,,,,,,,METAR,8.0
ESSD 211450Z 25011KT CAVOK 05/M05 Q1008,ESSD,2018-03-21T14:50:00Z,60.42,15.5,5.0,-5.0,250,11,,6.21,29.763779,,,,,,,,,,,CAVOK,,,,,,,,VFR,,,,,,,,,,,,METAR,161.0
ESSB 211450Z 23009KT CAVOK 06/M05 Q1010 R30/19//59,ESSB,2018-03-21T14:50:00Z,59.35,17.93,6.0,-5.0,230,9,,6.21,29.822834,,,,,,,,,,,CAVOK,,,,,,,,VFR,,,,,,,,,,,,METAR,11.0
ESSA 211450Z 25014KT CAVOK 04/M05 Q1009 R01L/09//95 R01R/09//95 R08/09//95 NOSIG,ESSA,2018-03-21T14:50:00Z,59.63,17.93,4.0,-5.0,250,14,,6.21,29.793306,,,,,,TRUE,,,,,CAVOK,,,,,,,,VFR,,,,,,,,,,,,METAR,61.0
ESOW 211450Z 21010KT CAVOK 05/M04 Q1010 R19/09//95,ESOW,2018-03-21T14:50:00Z,59.57,16.62,5.0,-4.0,210,10,,6.21,29.822834,,,,,,,,,,,CAVOK,,,,,,,,VFR,,,,,,,,,,,,METAR,31.0
ESOK 211450Z 23007KT CAVOK 06/M04 Q1011,ESOK,2018-03-21T14:50:00Z,59.45,13.33,6.0,-4.0,230,7,,6.21,29.852362,,,,,,,,,,,CAVOK,,,,,,,,VFR,,,,,,,,,,,,METAR,107.0
ESOE 211450Z 23011KT CAVOK 04/M03 Q1011,ESOE,2018-03-21T14:50:00Z,59.22,15.05,4.0,-3.0,230,11,,6.21,29.852362,,,,,,,,,,,CAVOK,,,,,,,,VFR,,,,,,,,,,,,METAR,57.0
ESKN 211450Z 25012KT CAVOK 05/M04 Q1011 R08/09//95,ESKN,2018-03-21T14:50:00Z,58.78,16.9,5.0,-4.0,250,12,,6.21,29.852362,,,,,,,,,,,CAVOK,,,,,,,,VFR,,,,,,,,,,,,METAR,43.0
EGYP 211450Z 33035G46KT 9999 FEW025 BKN220 11/04 Q1003 BLU NOSIG,EGYP,2018-03-21T14:50:00Z,-51.82,-58.45,11.0,4.0,330,35,46,6.21,29.616142,,,,,,TRUE,,,,,FEW,2500,BKN,22000,,,,,VFR,,,,,,,,,,,,METAR,74.0
EGLL 211450Z AUTO 28009KT 240V310 9999 NCD 10/M02 Q1029 NOSIG,EGLL,2018-03-21T14:50:00Z,51.48,-0.45,10.0,-2.0,280,9,,6.21,30.383858,,,TRUE,,,TRUE,,,,,CLR,,,,,,,,VFR,,,,,,,,,,,,METAR,24.0
EGSH 211450Z 26010KT 220V310 CAVOK 09/M02 Q1027 NOSIG,EGSH,2018-03-21T14:50:00Z,52.68,1.28,9.0,-2.0,260,10,,6.21,30.324802,,,,,,TRUE,,,,,CAVOK,,,,,,,,VFR,,,,,,,,,,,,METAR,36.0
EGPK 211450Z 24013KT 8000 -SHRA SCT015 BKN025 06/05 Q1024,EGPK,2018-03-21T14:50:00Z,55.5,-4.57,6.0,5.0,240,13,,4.97,30.236221,,,,,,,,,,-SHRA,SCT,1500,BKN,2500,,,,,MVFR,,,,,,,,,,,,METAR,20.0
EGPH 211450Z 25017KT 9999 BKN015 08/05 Q1021,EGPH,2018-03-21T14:50:00Z,55.95,-3.35,8.0,5.0,250,17,,6.21,30.147638,,,,,,,,,,,BKN,1500,,,,,,,MVFR,,,,,,,,,,,,METAR,41.0
EGPF 211450Z AUTO 21007KT 7000 -RA BKN007 OVC019 06/05 Q1023,EGPF,2018-03-21T14:50:00Z,55.87,-4.42,6.0,5.0,210,7,,4.35,30.206694,,,TRUE,,,,,,,-RA,BKN,700,OVC,1900,,,,,IFR,,,,,,,,,,,,METAR,8.0
EGKK 211450Z 25010KT 220V290 9999 FEW046 10/M01 Q1029,EGKK,2018-03-21T14:50:00Z,51.13,-0.17,10.0,-1.0,250,10,,6.21,30.383858,,,,,,,,,,,FEW,4600,,,,,,,VFR,,,,,,,,,,,,METAR,62.0
EGCC 211450Z AUTO 27012KT 220V290 9999 OVC035 08/M01 Q1028,EGCC,2018-03-21T14:50:00Z,53.35,-2.27,8.0,-1.0,270,12,,6.21,30.35433,,,TRUE,,,,,,,,OVC,3500,,,,,,,VFR,,,,,,,,,,,,METAR,78.0
EGBB 211450Z 26009KT 9999 BKN044 08/M01 Q1028,EGBB,2018-03-21T14:50:00Z,52.47,-1.75,8.0,-1.0,260,9,,6.21,30.35433,,,,,,,,,,,BKN,4400,,,,,,,VFR,,,,,,,,,,,,METAR,99.0
EGSC 211450Z 28010KT CAVOK 10/M05 Q1028,EGSC,2018-03-21T14:50:00Z,52.2,0.17,10.0,-5.0,280,10,,6.21,30.35433,,,,,,,,,,,CAVOK,,,,,,,,VFR,,,,,,,,,,,,METAR,15.0
EGCN 211450Z 27015KT 9999 SCT036 08/01 Q1028,EGCN,2018-03-21T14:50:00Z,53.48,-1.0,8.0,1.0,270,15,,6.21,30.35433,,,,,,,,,,,SCT,3600,,,,,,,VFR,,,,,,,,,,,,METAR,17.0
EGCK 211450Z 22010KT 9999 BKN037 07/03 Q1030,EGCK,2018-03-21T14:50:00Z,53.1,4.33,7.0,3.0,220,10,,6.21,30.413385,,,,,,,,,,,BKN,3700,,,,,,,VFR,,,,,,,,,,,,METAR,0.0
EGBJ 211450Z 29008KT 9999 SCT038 09/00 Q1029,EGBJ,2018-03-21T14:50:00Z,51.9,-2.17,9.0,0.0,290,8,,6.21,30.383858,,,,,,,,,,,SCT,3800,,,,,,,VFR,,,,,,,,,,,,METAR,29.0
EGPO 211450Z 27015KT 9999 VCSH FEW004 BKN011 BKN021 10/09 Q1016,EGPO,2018-03-21T14:50:00Z,58.22,-6.32,10.0,9.0,270,15,,6.21,30.0,,,,,,,,,,VCSH,FEW,400,BKN,1100,BKN,2100,,,MVFR,,,,,,,,,,,,METAR,13.0
EGPM 211450Z 27014KT 2000 BR FEW002 BKN003 09/08 Q1007,EGPM,2018-03-21T14:50:00Z,60.42,-1.3,9.0,8.0,270,14,,1.24,29.734253,,,,,,,,,,BR,FEW,200,BKN,300,,,,,LIFR,,,,,,,,,,,,METAR,22.0
EGPL 211450Z 26016KT 2000 DZ BR BKN003 09/09 Q1018,EGPL,2018-03-21T14:50:00Z,57.47,-7.37,9.0,9.0,260,16,,1.24,30.059055,,,,,,,,,,DZ BR,BKN,300,,,,,,,LIFR,,,,,,,,,,,,METAR,6.0
EGPC 211450Z 30021KT 9999 BKN014 11/09 Q1013,EGPC,2018-03-21T14:50:00Z,58.45,-3.07,11.0,9.0,300,21,,6.21,29.911417,,,,,,,,,,,BKN,1400,,,,,,,MVFR,,,,,,,,,,,,METAR,39.0
EGPA 211450Z 27020KT 8000 SCT004 BKN008 BKN012 09/08 Q1012,EGPA,2018-03-21T14:50:00Z,58.95,-2.88,9.0,8.0,270,20,,4.97,29.88189,,,,,,,,,,,SCT,400,BKN,800,BKN,1200,,,IFR,,,,,,,,,,,,METAR,21.0
EGEC 211450Z 26023KT 7000 RA BKN013 08/07 Q1023,EGEC,2018-03-21T14:50:00Z,55.43,-5.68,8.0,7.0,260,23,,4.35,30.206694,,,,,,,,,,RA,BKN,1300,,,,,,,MVFR,,,,,,,,,,,,METAR,13.0
EGPN 211450Z 26022KT 9999 FEW020 08/05 Q1019,EGPN,2018-03-21T14:50:00Z,56.45,-3.02,8.0,5.0,260,22,,6.21,30.088583,,,,,,,,,,,FEW,2000,,,,,,,VFR,,,,,,,,,,,,METAR,4.0
EGPE 211450Z 24019KT 9999 FEW020 BKN030 11/07 Q1016,EGPE,2018-03-21T14:50:00Z,57.52,-4.03,11.0,7.0,240,19,,6.21,30.0,,,,,,,,,,,FEW,2000,BKN,3000,,,,,MVFR,,,,,,,,,,,,METAR,9.0
EGNR 211450Z 30009KT 240V340 9999 BKN041 10/00 Q1029,EGNR,2018-03-21T14:50:00Z,53.17,-2.97,10.0,0.0,300,9,,6.21,30.383858,,,,,,,,,,,BKN,4100,,,,,,,VFR,,,,,,,,,,,,METAR,10.0
EGNJ 211450Z 26015KT 9000 SCT035 08/M00 Q1026,EGNJ,2018-03-21T14:50:00Z,53.57,-0.35,8.0,0.0,260,15,,5.59,30.295275,,,,,,,,,,,SCT,3500,,,,,,,VFR,,,,,,,,,,,,METAR,31.0
EGNH 211450Z 25013KT 9999 SCT032 07/04 Q1028,EGNH,2018-03-21T14:50:00Z,53.77,-3.02,7.0,4.0,250,13,,6.21,30.35433,,,,,,,,,,,SCT,3200,,,,,,,VFR,,,,,,,,,,,,METAR,10.0
EGNC 211450Z 26015KT 9999 -DZ FEW012 BKN023 06/03 Q1025,EGNC,2018-03-21T14:50:00Z,54.93,-2.82,6.0,3.0,260,15,,6.21,30.265747,,,,,,,,,,-DZ,FEW,1200,BKN,2300,,,,,MVFR,,,,,,,,,,,,METAR,26.0
EGTK 211450Z 27010KT 240V320 9999 SCT047 09/M01 Q1029,EGTK,2018-03-21T14:50:00Z,51.83,-1.32,9.0,-1.0,270,10,,6.21,30.383858,,,,,,,,,,,SCT,4700,,,,,,,VFR,,,,,,,,,,,,METAR,82.0
EGTC 211450Z 29010KT CAVOK 09/M00 Q1028,EGTC,2018-03-21T14:50:00Z,52.07,-0.62,9.0,0.0,290,10,,6.21,30.35433,,,,,,,,,,,CAVOK,,,,,,,,VFR,,,,,,,,,,,,METAR,111.0
EGMD 211450Z 23015KT 9999 FEW048 09/03 Q1029,EGMD,2018-03-21T14:50:00Z,50.95,0.92,9.0,3.0,230,15,,6.21,30.383858,,,,,,,,,,,FEW,4800,,,,,,,VFR,,,,,,,,,,,,METAR,3.0
EGMC 211450Z 26011KT 9999 FEW044 10/M02 Q1028,EGMC,2018-03-21T14:50:00Z,51.57,0.7,10.0,-2.0,260,11,,6.21,30.35433,,,,,,,,,,,FEW,4400,,,,,,,VFR,,,,,,,,,,,,METAR,15.0
EGLF 211450Z 25012KT 220V280 9999 FEW048 10/M03 Q1029,EGLF,2018-03-21T14:50:00Z,51.28,-0.77,10.0,-3.0,250,12,,6.21,30.383858,,,,,,,,,,,FEW,4800,,,,,,,VFR,,,,,,,,,,,,METAR,65.0
EGKB 211450Z 27009KT 190V300 9999 FEW045 09/M02 Q1029,EGKB,2018-03-21T14:50:00Z,51.32,0.02,9.0,-2.0,270,9,,6.21,30.383858,,,,,,,,,,,FEW,4500,,,,,,,VFR,,,,,,,,,,,,METAR,183.0
EGKA 211450Z 23016KT 9999 FEW035 08/04 Q1030,EGKA,2018-03-21T14:50:00Z,50.83,-0.3,8.0,4.0,230,16,,6.21,30.413385,,,,,,,,,,,FEW,3500,,,,,,,VFR,,,,,,,,,,,,METAR,2.0
EGHH 211450Z 27011KT 220V300 9999 SCT040 10/01 Q1030,EGHH,2018-03-21T14:50:00Z,50.78,-1.83,10.0,1.0,270,11,,6.21,30.413385,,,,,,,,,,,SCT,4000,,,,,,,VFR,,,,,,,,,,,,METAR,11.0
EGTE 211450Z 27010KT 240V320 9999 BKN038 08/00 Q1032,EGTE,2018-03-21T14:50:00Z,50.72,-3.42,8.0,0.0,270,10,,6.21,30.47244,,,,,,,,,,,BKN,3800,,,,,,,VFR,,,,,,,,,,,,METAR,30.0
EGJJ 211450Z 25008KT 230V290 9999 FEW032 08/00 Q1032,EGJJ,2018-03-21T14:50:00Z,49.22,-2.2,8.0,0.0,250,8,,6.21,30.47244,,,,,,,,,,,FEW,3200,,,,,,,VFR,,,,,,,,,,,,METAR,84.0
EGJB 211450Z 32007KT 240V360 9999 FEW019 SCT028 07/02 Q1032,EGJB,2018-03-21T14:50:00Z,49.42,-2.6,7.0,2.0,320,7,,6.21,30.47244,,,,,,,,,,,FEW,1900,SCT,2800,,,,,VFR,,,,,,,,,,,,METAR,102.0
EGJA 211450Z 31008KT 9999 FEW024 08/// Q1032,EGJA,2018-03-21T14:50:00Z,49.72,-2.2,,,310,8,,6.21,30.47244,,,,,,,,,,,FEW,2400,,,,,,,VFR,,,,,,,,,,,,METAR,71.0
EGHQ 211450Z 28009KT 9999 FEW030 07/01 Q1033,EGHQ,2018-03-21T14:50:00Z,50.43,-5.0,7.0,1.0,280,9,,6.21,30.501968,,,,,,,,,,,FEW,3000,,,,,,,VFR,,,,,,,,,,,,METAR,119.0
EGHE 211450Z 27009KT 9999 FEW024 BKN039 08/01 Q1034,EGHE,2018-03-21T14:50:00Z,49.92,-6.28,8.0,1.0,270,9,,6.21,30.531496,,,,,,,,,,,FEW,2400,BKN,3900,,,,,VFR,,,,,,,,,,,,METAR,31.0
EGHC 211450Z 26008KT 9999 FEW020 78/01 Q1033,EGHC,2018-03-21T14:50:00Z,50.1,-5.67,0.0,1.0,260,8,,6.21,30.501968,,,,,,,,,,,FEW,2000,,,,,,,VFR,,,,,,,,,,,,METAR,122.0
EGPB 211450Z 28022KT 2000 BR FEW002 BKN003 08/08 Q1008 NOSIG,EGPB,2018-03-21T14:50:00Z,59.87,-1.3,8.0,8.0,280,22,,1.24,29.763779,,,,,,TRUE,,,,BR,FEW,200,BKN,300,,,,,LIFR,,,,,,,,,,,,METAR,5.0
EGPD 211450Z AUTO 27012KT 9999 NCD 11/05 Q1015,EGPD,2018-03-21T14:50:00Z,57.2,-2.22,11.0,5.0,270,12,,6.21,29.970472,,,TRUE,,,,,,,,CLR,,,,,,,,VFR,,,,,,,,,,,,METAR,65.0
EGNX 211450Z 29015KT 9999 BKN036 08/M00 Q1028,EGNX,2018-03-21T14:50:00Z,52.82,-1.32,8.0,0.0,290,15,,6.21,30.35433,,,,,,,,,,,BKN,3600,,,,,,,VFR,,,,,,,,,,,,METAR,94.0
EGNM 211450Z 27021G32KT 9999 FEW028 06/00 Q1025,EGNM,2018-03-21T14:50:00Z,53.87,-1.63,6.0,0.0,270,21,32,6.21,30.265747,,,,,,,,,,,FEW,2800,,,,,,,VFR,,,,,,,,,,,,METAR,208.0
EGLC 211450Z AUTO 25012KT 9999 NCD 11/M03 Q1029,EGLC,2018-03-21T14:50:00Z,51.5,0.05,11.0,-3.0,250,12,,6.21,30.383858,,,TRUE,,,,,,,,CLR,,,,,,,,VFR,,,,,,,,,,,,METAR,5.0
EGGW 211450Z AUTO 26013KT 9999 NCD 09/M03 Q1028,EGGW,2018-03-21T14:50:00Z,51.87,-0.37,9.0,-3.0,260,13,,6.21,30.35433,,,TRUE,,,,,,,,CLR,,,,,,,,VFR,,,,,,,,,,,,METAR,160.0
EGFF 211450Z AUTO 27014KT 9999 FEW042 07/04 Q1031,EGFF,2018-03-21T14:50:00Z,51.38,-3.35,7.0,4.0,270,14,,6.21,30.442913,,,TRUE,,,,,,,,FEW,4200,,,,,,,VFR,,,,,,,,,,,,METAR,67.0
EGAC 211450Z AUTO 22014KT 9999 BKN022/// OVC048/// 09/06 Q1025,EGAC,2018-03-21T14:50:00Z,54.62,-5.87,9.0,6.0,220,14,,6.21,30.265747,,,TRUE,,,,,,,,BKN,2200,OVC,4800,,,,,MVFR,,,,,,,,,,,,METAR,5.0
EGAA 211450Z 23009KT 9999 BKN018 08/06 Q1026,EGAA,2018-03-21T14:50:00Z,54.63,-6.22,8.0,6.0,230,9,,6.21,30.295275,,,,,,,,,,,BKN,1800,,,,,,,MVFR,,,,,,,,,,,,METAR,81.0
EGNV 211450Z 25016KT 9999 -SHRA FEW030 07/02 Q1025,EGNV,2018-03-21T14:50:00Z,54.52,-1.42,7.0,2.0,250,16,,6.21,30.265747,,,,,,,,,,-SHRA,FEW,3000,,,,,,,VFR,,,,,,,,,,,,METAR,37.0
EGNT 211450Z 26018KT 9999 VCSH FEW035 07/01 Q1022,EGNT,2018-03-21T14:50:00Z,55.02,-1.7,7.0,1.0,260,18,,6.21,30.177166,,,,,,,,,,VCSH,FEW,3500,,,,,,,VFR,,,,,,,,,,,,METAR,81.0
EGHI 211450Z 28008KT 230V320 9999 FEW042 09/M02 Q1030,EGHI,2018-03-21T14:50:00Z,50.95,-1.35,9.0,-2.0,280,8,,6.21,30.413385,,,,,,,,,,,FEW,4200,,,,,,,VFR,,,,,,,,,,,,METAR,14.0
EGGP 211450Z 28013KT 9999 OVC037 09/01 Q1028,EGGP,2018-03-21T14:50:00Z,53.32,-2.85,9.0,1.0,280,13,,6.21,30.35433,,,,,,,,,,,OVC,3700,,,,,,,VFR,,,,,,,,,,,,METAR,26.0
EGGD 211450Z 25014KT 9999 FEW018 SCT035 06/01 Q1030,EGGD,2018-03-21T14:50:00Z,51.37,-2.72,6.0,1.0,250,14,,6.21,30.413385,,,,,,,,,,,FEW,1800,SCT,3500,,,,,VFR,,,,,,,,,,,,METAR,189.0
VNKT 211450Z 23005KT 5000 HZ FEW020 20/10 Q1017 NOSIG,VNKT,2018-03-21T14:50:00Z,27.68,85.37,20.0,10.0,230,5,,3.11,30.029528,,,,,,TRUE,,,,HZ,FEW,2000,,,,,,,MVFR,,,,,,,,,,,,METAR,1337.0
KSUA 211450Z 30012G19KT 7SM SCT030 20/12 A2998,KSUA,2018-03-21T14:50:00Z,27.18,-80.22,20.0,12.0,300,12,19,7.0,29.97933,,,,,,,,,,,SCT,3000,,,,,,,VFR,,,,,,,,,,,,METAR,6.0
KSQL 211450Z 12004KT 10SM BKN024 OVC060 14/12 A2980,KSQL,2018-03-21T14:50:00Z,37.52,-122.25,14.0,12.0,120,4,,10.0,29.799213,,,,,,,,,,,BKN,2400,OVC,6000,,,,,MVFR,,,,,,,,,,,,METAR,1.0
ENHV 211450Z 13005KT 9999 FEW018 M06/M10 Q0994,ENHV,2018-03-21T14:50:00Z,71.02,25.97,-6.0,-10.0,130,5,,6.21,29.350393,,,,,,,,,,,FEW,1800,,,,,,,VFR,,,,,,,,,,,,METAR,14.0
ENHK 211450Z 12018 0650 +SN -BLSN VV002 M03/M03 Q0991,ENHK,2018-03-21T14:50:00Z,70.47,22.13,-3.0,-3.0,120,18,,0.4,29.26181,,,,,,,,,,+SN -BLSN,OVX,0,,,,,,,LIFR,,,,,,,,,,,200,METAR,10.0
ENBS 211450Z 21010KT CAVOK M11/M14 Q0994,ENBS,2018-03-21T14:50:00Z,70.62,29.72,-11.0,-14.0,210,10,,6.21,29.350393,,,,,,,,,,,CAVOK,,,,,,,,VFR,,,,,,,,,,,,METAR,10.0
EGNS 211450Z 24016KT 9999 -RA FEW016 OVC045 08/05 Q1027 TEMPO 8000,EGNS,2018-03-21T14:50:00Z,54.08,-4.63,8.0,5.0,240,16,,6.21,30.324802,,,,,,,,,,-RA,FEW,1600,OVC,4500,,,,,VFR,,,,,,,,,,,,METAR,17.0
EGPU 211450Z 25021KT 2800 -RADZ OVC002 09/09 Q1020,EGPU,2018-03-21T14:50:00Z,56.5,-6.87,9.0,9.0,250,21,,1.74,30.11811,,,,,,,,,,-RA -DZ,OVC,200,,,,,,,LIFR,,,,,,,,,,,,METAR,12.0
ELLX 211450Z 03007KT 340V090 CAVOK 06/M10 Q1026 NOSIG,ELLX,2018-03-21T14:50:00Z,49.63,6.2,6.0,-10.0,30,7,,6.21,30.295275,,,,,,TRUE,,,,,CAVOK,,,,,,,,VFR,,,,,,,,,,,,METAR,379.0
EBOS 211450Z 27010KT 9999 FEW015 06/02 Q1030 NOSIG,EBOS,2018-03-21T14:50:00Z,51.2,2.87,6.0,2.0,270,10,,6.21,30.413385,,,,,,TRUE,,,,,FEW,1500,,,,,,,VFR,,,,,,,,,,,,METAR,5.0
EBLG 211450Z VRB03G15KT 9999 SCT030 06/M02 Q1028 NOSIG,EBLG,2018-03-21T14:50:00Z,50.63,5.45,6.0,-2.0,0,3,15,6.21,30.35433,,,,,,TRUE,,,,,SCT,3000,,,,,,,VFR,,,,,,,,,,,,METAR,178.0
EBCI 211450Z 33005KT 290V010 9999 FEW024 BKN040 05/M02 Q1029 NOSIG,EBCI,2018-03-21T14:50:00Z,50.47,4.45,5.0,-2.0,330,5,,6.21,30.383858,,,,,,TRUE,,,,,FEW,2400,BKN,4000,,,,,VFR,,,,,,,,,,,,METAR,192.0
EBBR 211450Z VRB02KT 9999 SCT030 SCT046 06/M01 Q1029 NOSIG,EBBR,2018-03-21T14:50:00Z,50.9,4.5,6.0,-1.0,0,2,,6.21,30.383858,,,,,,TRUE,,,,,SCT,3000,SCT,4600,,,,,VFR,,,,,,,,,,,,METAR,58.0
EBAW 211450Z 33008KT 290V010 9999 SCT035 BKN044 08/M02 Q1029 NOSIG,EBAW,2018-03-21T14:50:00Z,51.2,4.47,8.0,-2.0,330,8,,6.21,30.383858,,,,,,TRUE,,,,,SCT,3500,BKN,4400,,,,,VFR,,,,,,,,,,,,METAR,14.0
EEEI 211450Z 18010KT CAVOK M02/M10 Q1012 R24/290095 NOSIG,EEEI,2018-03-21T14:50:00Z,59.27,24.2,-2.0,-10.0,180,10,,6.21,29.88189,,,,,,TRUE,,,,,CAVOK,,,,,,,,VFR,,,,,,,,,,,,METAR,20.0
BGKK 211450Z 09013KT 6000 -SHSN SCT012 OVC035 M02/M04 Q1001,BGKK,2018-03-21T14:50:00Z,65.57,-37.13,-2.0,-4.0,90,13,,3.73,29.557087,,,,,,,,,,-SHSN,SCT,1200,OVC,3500,,,,,MVFR,,,,,,,,,,,,METAR,34.0
BGJN 211450Z 32005KT 9999 -SN BKN015 M09/M12 Q1007,BGJN,2018-03-21T14:50:00Z,69.25,-51.07,-9.0,-12.0,320,5,,6.21,29.734253,,,,,,,,,,-SN,BKN,1500,,,,,,,MVFR,,,,,,,,,,,,METAR,25.0
BGBW 211450Z 00000KT 9999 FEW060 SCT070 BKN080 03/M03 Q1000,BGBW,2018-03-21T14:50:00Z,61.17,-45.42,3.0,-3.0,0,0,,6.21,29.52756,,,,,,,,,,,FEW,6000,SCT,7000,BKN,8000,,,VFR,,,,,,,,,,,,METAR,26.0
BGSF 211450Z AUTO 25004KT 9999NDV -SHSN BKN024/// M04/M06 Q1005,BGSF,2018-03-21T14:50:00Z,67.0,-50.72,-4.0,-6.0,250,4,,,29.675198,,,TRUE,,,,,,,-SHSN,BKN,2400,,,,,,,,,,,,,,,,,,,METAR,53.0
EKOD 211450Z 26012KT 9999 FEW011 SCT030 BKN050 06/04 Q1020,EKOD,2018-03-21T14:50:00Z,55.47,10.32,6.0,4.0,260,12,,6.21,30.11811,,,,,,,,,,,FEW,1100,SCT,3000,BKN,5000,,,VFR,,,,,,,,,,,,METAR,17.0
EKVD 211450Z 29008KT 9999 FEW012TCU BKN045 04/03 Q1021,EKVD,2018-03-21T14:50:00Z,55.42,9.32,4.0,3.0,290,8,,6.21,30.147638,,,,,,,,,,,FEW,1200,BKN,4500,,,,,VFR,,,,,,,,,,,,METAR,45.0
EKVJ 211450Z 26013KT 9999 FEW008 BKN100 05/03 Q1021,EKVJ,2018-03-21T14:50:00Z,55.97,8.33,5.0,3.0,260,13,,6.21,30.147638,,,,,,,,,,,FEW,800,BKN,10000,,,,,VFR,,,,,,,,,,,,METAR,5.0
EKRN 211450Z AUTO 25016KT 9999NDV OVC005/// 02/00 Q1020,EKRN,2018-03-21T14:50:00Z,55.07,14.75,2.0,0.0,250,16,,,30.11811,,,TRUE,,,,,,,,OVC,500,,,,,,,,,,,,,,,,,,,METAR,16.0
EKEB 211450Z AUTO 28015KT 9999NDV FEW025/// SCT065/// 05/00 Q1022,EKEB,2018-03-21T14:50:00Z,55.52,8.55,5.0,0.0,280,15,,,30.177166,,,TRUE,,,,,,,,FEW,2500,SCT,6500,,,,,,,,,,,,,,,,,METAR,29.0
EKAH 211450Z AUTO 27010KT 230V290 9999NDV OVC030/// 04/02 Q1019,EKAH,2018-03-21T14:50:00Z,56.28,10.62,4.0,2.0,270,10,,,30.088583,,,TRUE,,,,,,,,OVC,3000,,,,,,,,,,,,,,,,,,,METAR,25.0
EKRK 211450Z AUTO 27010KT 9999NDV -SHRA FEW021/// SCT025/// BKN030/// BKN041/// 05/02 Q1019,EKRK,2018-03-21T14:50:00Z,55.57,12.12,5.0,2.0,270,10,,,30.088583,,,TRUE,,,,,,,-SHRA,FEW,2100,SCT,2500,BKN,3000,BKN,4100,,,,,,,,,,,,,METAR,44.0
EKYT 211450Z AUTO 27014KT 9999NDV FEW018/// BKN065/// 06/01 Q1017 FU,EKYT,2018-03-21T14:50:00Z,57.1,9.87,6.0,1.0,270,14,,,30.029528,,,TRUE,,,,,,,FU,FEW,1800,BKN,6500,,,,,,,,,,,,,,,,,METAR,3.0
EKBI 211450Z AUTO 28015KT 9999NDV BKN060/// 05/M01 Q1021,EKBI,2018-03-21T14:50:00Z,55.72,9.15,5.0,-1.0,280,15,,,30.147638,,,TRUE,,,,,,,,BKN,6000,,,,,,,,,,,,,,,,,,,METAR,66.0
EKCH 211450Z 24009KT 9999 FEW022 BKN025 06/02 Q1019 NOSIG,EKCH,2018-03-21T14:50:00Z,55.62,12.67,6.0,2.0,240,9,,6.21,30.088583,,,,,,TRUE,,,,,FEW,2200,BKN,2500,,,,,MVFR,,,,,,,,,,,,METAR,5.0
ENNO 211450Z 29007KT 250V310 VCSH NSC 06/M02 Q1012,ENNO,2018-03-21T14:50:00Z,59.57,9.22,6.0,-2.0,290,7,,,29.88189,,,,,,,,,,VCSH,CLR,,,,,,,,,,,,,,,,,,,,METAR,19.0
ENLK 211450Z 27016KT 250V320 9000 4000NW -SN SCT020 BKN035 01/M03 Q0998,ENLK,2018-03-21T14:50:00Z,68.15,13.62,1.0,-3.0,270,16,,5.59,29.468504,,,,,,,,,,-SN,SCT,2000,BKN,3500,,,,,VFR,,,,,,,,,,,,METAR,26.0
KHXD 211450Z 27012G24KT 10SM SCT035 12/01 A2979,KHXD,2018-03-21T14:50:00Z,32.22,-80.7,12.0,1.0,270,12,24,10.0,29.790354,,,,,,,,,,,SCT,3500,,,,,,,VFR,,,,,,,,,,,,METAR,6.0
PAGB 211450Z 25003KT 7SM FEW015 SCT040 M25/ A3035,PAGB,2018-03-21T14:50:00Z,68.48,-149.48,-25.0,,250,3,,7.0,30.351377,,,,,,,,,,,FEW,1500,SCT,4000,,,,,VFR,,,,,,,,,,,,METAR,811.0
ENHD 211450Z 20015KT 4000 -SN VV008 02/00 Q1014,ENHD,2018-03-21T14:50:00Z,59.35,5.22,2.0,0.0,200,15,,2.49,29.940945,,,,,,,,,,-SN,OVX,0,,,,,,,LIFR,,,,,,,,,,,800,METAR,24.0
ENCN 211450Z 26010KT 9999 FEW035 BKN080 05/M02 Q1015,ENCN,2018-03-21T14:50:00Z,58.2,8.07,5.0,-2.0,260,10,,6.21,29.970472,,,,,,,,,,,FEW,3500,BKN,8000,,,,,VFR,,,,,,,,,,,,METAR,17.0
ENAL 211450Z 19013G24KT 9000 -RA SCT015 BKN025 03/02 Q1006,ENAL,2018-03-21T14:50:00Z,62.57,6.12,3.0,2.0,190,13,24,5.59,29.704725,,,,,,,,,,-RA,SCT,1500,BKN,2500,,,,,MVFR,,,,,,,,,,,,METAR,22.0
ENWV 211450Z AUTO 24025KT 9999NDV BKN015/// BKN076/// 05/02 Q1019 W///S4,ENWV,2018-03-21T14:50:00Z,,,5.0,2.0,240,25,,,30.088583,,,TRUE,,,,,,,,BKN,1500,BKN,7600,,,,,,,,,,,,,,,,,METAR,
EGWU 211450Z 29012KT 9999 FEW045 SCT250 11/01 Q1029 NOSIG,EGWU,2018-03-21T14:50:00Z,51.55,-0.42,11.0,1.0,290,12,,6.21,30.383858,,,,,,TRUE,,,,,FEW,4500,SCT,25000,,,,,VFR,,,,,,,,,,,,METAR,40.0
LCRA 211450Z 23014KT CAVOK 19/14 Q1018 NOSIG,LCRA,2018-03-21T14:50:00Z,34.57,32.97,19.0,14.0,230,14,,6.21,30.059055,,,,,,TRUE,,,,,CAVOK,,,,,,,,VFR,,,,,,,,,,,,METAR,23.0
KFIN 211450Z 29018G25KT 7SM SKC 15/02 A2996,KFIN,2018-03-21T14:50:00Z,29.47,-81.2,15.0,2.0,290,18,25,7.0,29.958662,,,,,,,,,,,SKC,,,,,,,,VFR,,,,,,,,,,,,METAR,10.0
EGDM 211450Z 29013KT 9999 FEW038 SCT250 08/M00 Q1030 BLU NOSIG,EGDM,2018-03-21T14:50:00Z,51.17,-1.75,8.0,0.0,290,13,,6.21,30.413385,,,,,,TRUE,,,,,FEW,3800,SCT,25000,,,,,VFR,,,,,,,,,,,,METAR,124.0
EGDX 211450Z 26014KT 9999 FEW018 SCT041 07/03 Q1031 BLU,EGDX,2018-03-21T14:50:00Z,51.4,-3.43,7.0,3.0,260,14,,6.21,30.442913,,,,,,,,,,,FEW,1800,SCT,4100,,,,,VFR,,,,,,,,,,,,METAR,50.0
EGDY 211450Z 29010KT 9999 FEW040 09/01 Q1031 BLU NOSIG,EGDY,2018-03-21T14:50:00Z,51.0,-2.62,9.0,1.0,290,10,,6.21,30.442913,,,,,,TRUE,,,,,FEW,4000,,,,,,,VFR,,,,,,,,,,,,METAR,23.0
EGOS 211450Z 28010KT 9999 BKN039 07/M01 Q1029 BLU NOSIG,EGOS,2018-03-21T14:50:00Z,52.8,-2.67,7.0,-1.0,280,10,,6.21,30.383858,,,,,,TRUE,,,,,BKN,3900,,,,,,,VFR,,,,,,,,,,,,METAR,76.0
EGOV 211450Z 23015KT 9999 BKN030 08/03 Q1029 BLACKBLU,EGOV,2018-03-21T14:50:00Z,53.25,-4.53,8.0,3.0,230,15,,6.21,30.383858,,,,,,,,,,,BKN,3000,,,,,,,MVFR,,,,,,,,,,,,METAR,11.0
EGOW 211450Z 25015KT 9999 BKN040 07/02 Q1028 BLU,EGOW,2018-03-21T14:50:00Z,53.58,-3.05,7.0,2.0,250,15,,6.21,30.35433,,,,,,,,,,,BKN,4000,,,,,,,VFR,,,,,,,,,,,,METAR,12.0
EGQL 211450Z 26026KT 9999 FEW023 BKN230 09/05 Q1018 BLU,EGQL,2018-03-21T14:50:00Z,56.38,-2.87,9.0,5.0,260,26,,6.21,30.059055,,,,,,,,,,,FEW,2300,BKN,23000,,,,,VFR,,,,,,,,,,,,METAR,12.0
EGQM 211450Z AUTO 22013KT 9999 // FEW033/// OVC070/// 08/03 Q1021,EGQM,2018-03-21T14:50:00Z,55.42,-1.6,8.0,3.0,220,13,,6.21,30.147638,,,TRUE,,,,,,,,FEW,3300,OVC,7000,,,,,VFR,,,,,,,,,,,,METAR,23.0
EGQS 211450Z 25019KT 9999 BKN027 11/06 Q1014 BLU TEMPO BKN024 WHT,EGQS,2018-03-21T14:50:00Z,57.72,-3.32,11.0,6.0,250,19,,6.21,29.940945,,,,,,,,,,,BKN,2700,,,,,,,MVFR,,,,,,,,,,,,METAR,13.0
EGUB 211450Z 25011KT 9999 FEW045 BKN250 10/M02 Q1029 BLU NOSIG,EGUB,2018-03-21T14:50:00Z,51.62,-1.07,10.0,-2.0,250,11,,6.21,30.383858,,,,,,TRUE,,,,,FEW,4500,BKN,25000,,,,,VFR,,,,,,,,,,,,METAR,63.0
EGUW 211450Z 29010KT CAVOK 09/M06 Q1027 BLU NOSIG,EGUW,2018-03-21T14:50:00Z,52.12,0.97,9.0,-6.0,290,10,,6.21,30.324802,,,,,,TRUE,,,,,CAVOK,,,,,,,,VFR,,,,,,,,,,,,METAR,87.0
EGVN 211450Z 30008KT 9999 SCT042 BKN250 09/M00 Q1029 BLU NOSIG,EGVN,2018-03-21T14:50:00Z,51.77,-1.58,9.0,0.0,300,8,,6.21,30.383858,,,,,,TRUE,,,,,SCT,4200,BKN,25000,,,,,VFR,,,,,,,,,,,,METAR,88.0
EGVO 211450Z 26013KT CAVOK 09/M05 Q1029 BLU NOSIG,EGVO,2018-03-21T14:50:00Z,51.23,-0.95,9.0,-5.0,260,13,,6.21,30.383858,,,,,,TRUE,,,,,CAVOK,,,,,,,,VFR,,,,,,,,,,,,METAR,123.0
EGXC 211450Z 27012KT 9999 SCT045 BKN220 09/M03 Q1027 BLU NOSIG,EGXC,2018-03-21T14:50:00Z,53.1,-0.17,9.0,-3.0,270,12,,6.21,30.324802,,,,,,TRUE,,,,,SCT,4500,BKN,22000,,,,,VFR,,,,,,,,,,,,METAR,7.0
EGVP 211450Z 29010KT 9999 FEW037 BKN250 08/M01 Q1030 BLU NOSIG,EGVP,2018-03-21T14:50:00Z,51.13,-1.57,8.0,-1.0,290,10,,6.21,30.413385,,,,,,TRUE,,,,,FEW,3700,BKN,25000,,,,,VFR,,,,,,,,,,,,METAR,91.0
EGXE 211450Z 26014G24KT 9999 -RA FEW030 BKN070 BKN200 07/02 Q1025 BLU TEMPO 27016G26KT BLU,EGXE,2018-03-21T14:50:00Z,54.28,-1.52,7.0,2.0,260,14,24,6.21,30.265747,,,,,,,,,,-RA,FEW,3000,BKN,7000,BKN,20000,,,VFR,,,,,,,,,,,,METAR,40.0
EGXW 211450Z 27012KT 9999 BKN040 BKN250 08/M02 Q1026 BLU NOSIG,EGXW,2018-03-21T14:50:00Z,53.18,-0.52,8.0,-2.0,270,12,,6.21,30.295275,,,,,,TRUE,,,,,BKN,4000,BKN,25000,,,,,VFR,,,,,,,,,,,,METAR,70.0
EGXV 211450Z AUTO 27013KT 9999 FEW036/// 08/00 Q1025,EGXV,2018-03-21T14:50:00Z,53.87,-0.45,8.0,0.0,270,13,,6.21,30.265747,,,TRUE,,,,,,,,FEW,3600,,,,,,,VFR,,,,,,,,,,,,METAR,6.0
EGYD 211450Z 25018KT 9999 SCT042 SCT250 08/M02 Q1027 BLU NOSIG,EGYD,2018-03-21T14:50:00Z,53.03,-0.5,8.0,-2.0,250,18,,6.21,30.324802,,,,,,TRUE,,,,,SCT,4200,SCT,25000,,,,,VFR,,,,,,,,,,,,METAR,67.0
EGYM 211450Z 27013KT 9999 FEW045 SCT200 10/M01 Q1027 BLU NOSIG,EGYM,2018-03-21T14:50:00Z,52.63,0.57,10.0,-1.0,270,13,,6.21,30.324802,,,,,,TRUE,,,,,FEW,4500,SCT,20000,,,,,VFR,,,,,,,,,,,,METAR,23.0
EDAC 211450Z 23009KT CAVOK 03/M07 Q1026,EDAC,2018-03-21T14:50:00Z,50.98,12.5,3.0,-7.0,230,9,,6.21,30.295275,,,,,,,,,,,CAVOK,,,,,,,,VFR,,,,,,,,,,,,METAR,195.0
EGXT 211450Z 27016KT 9999 BKN042 SCT250 08/M01 Q1027 BLU,EGXT,2018-03-21T14:50:00Z,52.62,-0.47,8.0,-1.0,270,16,,6.21,30.324802,,,,,,,,,,,BKN,4200,SCT,25000,,,,,VFR,,,,,,,,,,,,METAR,84.0
EGXS 211450Z 24014KT 9999 BKN043 09/00 Q1026 BLU,EGXS,2018-03-21T14:50:00Z,53.48,0.15,9.0,0.0,240,14,,6.21,30.295275,,,,,,,,,,,BKN,4300,,,,,,,VFR,,,,,,,,,,,,METAR,3.0
K6I2 211450Z AUTO 34010G19KT 1/2SM UP BKN029 M02/M03 A2987 RMK AO2,K6I2,2018-03-21T14:50:00Z,37.63,-85.25,-2.0,-3.0,340,10,19,0.5,29.870079,,,TRUE,TRUE,,,,,,UP,BKN,2900,,,,,,,LIFR,,,,,,,,,,,,METAR,264.0
LGRP 211450Z 13006KT 060V160 CAVOK 18/08 Q1017 NOSIG,LGRP,2018-03-21T14:50:00Z,36.4,28.08,18.0,8.0,130,6,,6.21,30.029528,,,,,,TRUE,,,,,CAVOK,,,,,,,,VFR,,,,,,,,,,,,METAR,5.0
LGKR 211450Z 12004KT 9999 SCT018 SCT040 BKN080 15/11 Q1012 NOSIG,LGKR,2018-03-21T14:50:00Z,39.62,19.92,15.0,11.0,120,4,,6.21,29.88189,,,,,,TRUE,,,,,SCT,1800,SCT,4000,BKN,8000,,,VFR,,,,,,,,,,,,METAR,2.0
LGIR 211450Z 17011KT CAVOK 24/06 Q1014 NOSIG,LGIR,2018-03-21T14:50:00Z,35.32,25.17,24.0,6.0,170,11,,6.21,29.940945,,,,,,TRUE,,,,,CAVOK,,,,,,,,VFR,,,,,,,,,,,,METAR,39.0
LGAV 211450Z 21013KT 9999 FEW025 17/09 Q1014 NOSIG,LGAV,2018-03-21T14:50:00Z,37.93,23.95,17.0,9.0,210,13,,6.21,29.940945,,,,,,TRUE,,,,,FEW,2500,,,,,,,VFR,,,,,,,,,,,,METAR,94.0
OAMS 211450Z 17002KT 9999 FEW120 SCT200 21/09 Q1012 BLU+BLU+,OAMS,2018-03-21T14:50:00Z,36.7,67.2,21.0,9.0,170,2,,6.21,29.88189,,,,,,,,,,,FEW,12000,SCT,20000,,,,,VFR,,,,,,,,,,,,METAR,378.0
BGGH 211450Z 33011KT 0600 FZFG VV003 M02/M03 Q1005,BGGH,2018-03-21T14:50:00Z,64.2,-51.68,-2.0,-3.0,330,11,,0.37,29.675198,,,,,,,,,,FZFG,OVX,0,,,,,,,LIFR,,,,,,,,,,,300,METAR,70.0
KCDD 211450Z AUTO 16004KT 10SM OVC070 M06/M12 A3020 RMK AO2,KCDD,2018-03-21T14:50:00Z,48.27,-92.48,-6.0,-12.0,160,4,,10.0,30.200787,,,TRUE,TRUE,,,,,,,OVC,7000,,,,,,,VFR,,,,,,,,,,,,METAR,341.0
LOWG 211450Z 36012KT 9999 SCT070 04/M08 Q1021 NOSIG,LOWG,2018-03-21T14:50:00Z,47.0,15.42,4.0,-8.0,360,12,,6.21,30.147638,,,,,,TRUE,,,,,SCT,7000,,,,,,,VFR,,,,,,,,,,,,METAR,347.0
LOWI 211450Z 04003KT 300V100 9999 -SHSN SCT030 BKN045 02/M06 Q1023 NOSIG,LOWI,2018-03-21T14:50:00Z,47.27,11.33,2.0,-6.0,40,3,,6.21,30.206694,,,,,,TRUE,,,,-SHSN,SCT,3000,BKN,4500,,,,,VFR,,,,,,,,,,,,METAR,581.0
LOWS 211450Z 27005KT 240V310 9999 FEW025 SCT035 01/M04 Q1024 R15/15//95 NOSIG,LOWS,2018-03-21T14:50:00Z,47.78,13.02,1.0,-4.0,270,5,,6.21,30.236221,,,,,,TRUE,,,,,FEW,2500,SCT,3500,,,,,VFR,,,,,,,,,,,,METAR,430.0
LOWL 211450Z 24007KT 210V270 9999 FEW026 03/M02 Q1024 NOSIG,LOWL,2018-03-21T14:50:00Z,48.22,14.18,3.0,-2.0,240,7,,6.21,30.236221,,,,,,TRUE,,,,,FEW,2600,,,,,,,VFR,,,,,,,,,,,,METAR,313.0
LOWW 211450Z 35012KT 9999 FEW035 SCT058 04/M09 Q1023 R88/19//95 NOSIG,LOWW,2018-03-21T14:50:00Z,48.12,16.57,4.0,-9.0,350,12,,6.21,30.206694,,,,,,TRUE,,,,,FEW,3500,SCT,5800,,,,,VFR,,,,,,,,,,,,METAR,190.0
LIRQ 211450Z 03015KT 350V060 9999 FEW050 08/M04 Q1016,LIRQ,2018-03-21T14:50:00Z,43.78,11.18,8.0,-4.0,30,15,,6.21,30.0,,,,,,,,,,,FEW,5000,,,,,,,VFR,,,,,,,,,,,,METAR,38.0
LIRN 211450Z 07014KT 9999 SCT020 BKN040 10/05 Q1009 NOSIG,LIRN,2018-03-21T14:50:00Z,40.88,14.3,10.0,5.0,70,14,,6.21,29.793306,,,,,,TRUE,,,,,SCT,2000,BKN,4000,,,,,VFR,,,,,,,,,,,,METAR,72.0
LIRF 211450Z 36012KT 9999 BKN050 12/03 Q1009 NOSIG,LIRF,2018-03-21T14:50:00Z,41.78,12.22,12.0,3.0,360,12,,6.21,29.793306,,,,,,TRUE,,,,,BKN,5000,,,,,,,VFR,,,,,,,,,,,,METAR,3.0
LIRA 211450Z 11004KT 070V160 9999 FEW025 BKN035 12/04 Q1008,LIRA,2018-03-21T14:50:00Z,41.8,12.58,12.0,4.0,110,4,,6.21,29.763779,,,,,,,,,,,FEW,2500,BKN,3500,,,,,VFR,,,,,,,,,,,,METAR,101.0
LIML 211450Z 18005KT 100V270 9999 FEW050 08/M02 Q1018 NOSIG,LIML,2018-03-21T14:50:00Z,45.47,9.27,8.0,-2.0,180,5,,6.21,30.059055,,,,,,TRUE,,,,,FEW,5000,,,,,,,VFR,,,,,,,,,,,,METAR,103.0
LIMJ 211450Z 35013G28KT CAVOK 10/M05 Q1016,LIMJ,2018-03-21T14:50:00Z,44.42,8.83,10.0,-5.0,350,13,28,6.21,30.0,,,,,,,,,,,CAVOK,,,,,,,,VFR,,,,,,,,,,,,METAR,3.0
LIMF 211450Z 11005KT 080V140 CAVOK 08/M03 Q1017,LIMF,2018-03-21T14:50:00Z,45.22,7.65,8.0,-3.0,110,5,,6.21,30.029528,,,,,,,,,,,CAVOK,,,,,,,,VFR,,,,,,,,,,,,METAR,287.0
LIME 211450Z VRB04KT 9999 SCT040 08/M02 Q1017 NOSIG,LIME,2018-03-21T14:50:00Z,45.67,9.68,8.0,-2.0,0,4,,6.21,30.029528,,,,,,TRUE,,,,,SCT,4000,,,,,,,VFR,,,,,,,,,,,,METAR,237.0
LIMC 211450Z 23007KT 200V260 CAVOK 09/M02 Q1017 NOSIG,LIMC,2018-03-21T14:50:00Z,45.62,8.72,9.0,-2.0,230,7,,6.21,30.029528,,,,,,TRUE,,,,,CAVOK,,,,,,,,VFR,,,,,,,,,,,,METAR,211.0
LIEO 211450Z 03017KT 9999 BKN030 10/03 Q1011,LIEO,2018-03-21T14:50:00Z,40.88,9.52,10.0,3.0,30,17,,6.21,29.852362,,,,,,,,,,,BKN,3000,,,,,,,MVFR,,,,,,,,,,,,METAR,13.0
LIEE 211450Z 28009KT 9999 FEW035 BKN045 11/04 Q1009,LIEE,2018-03-21T14:50:00Z,39.25,9.07,11.0,4.0,280,9,,6.21,29.793306,,,,,,,,,,,FEW,3500,BKN,4500,,,,,VFR,,,,,,,,,,,,METAR,4.0
LIEA 211450Z 08012KT 9999 SCT035 11/04 Q1009,LIEA,2018-03-21T14:50:00Z,40.62,8.27,11.0,4.0,80,12,,6.21,29.793306,,,,,,,,,,,SCT,3500,,,,,,,VFR,,,,,,,,,,,,METAR,23.0
KIPJ 211450Z AUTO 29004KT 10SM BKN080 04/00 A2968 RMK AO2 T00410000,KIPJ,2018-03-21T14:50:00Z,35.48,-81.17,4.1,0.0,290,4,,10.0,29.681103,,,TRUE,TRUE,,,,,,,BKN,8000,,,,,,,VFR,,,,,,,,,,,,SPECI,267.0
SCVD 211449Z VRB03KT 9999 FEW004 SCT007 13/12 Q1011,SCVD,2018-03-21T14:49:00Z,-39.65,-73.07,13.0,12.0,0,3,,6.21,29.852362,,,,,,,,,,,FEW,400,SCT,700,,,,,VFR,,,,,,,,,,,,SPECI,14.0
RJAA 211449Z 05011KT 4500 -RA BR FEW003 SCT005 BKN006 09/09 Q1006 RMK 1ST003 3ST005 7ST006 A2973,RJAA,2018-03-21T14:49:00Z,35.77,140.37,9.0,9.0,50,11,,2.8,29.704725,,,,,,,,,,-RA BR,FEW,300,SCT,500,BKN,600,,,IFR,,,,,,,,,,,,METAR,44.0
KMWN 211449Z 07028KT 115SM FEW080 SCT100 BKN120 BKN140 BKN180 OVC200 M07/M16 RMK BINOVC,KMWN,2018-03-21T14:49:00Z,44.27,-71.3,-7.0,-16.0,70,28,,15.0,,,,,,,,,,,,FEW,8000,SCT,10000,BKN,12000,BKN,14000,VFR,,,,,,,,,,,,METAR,1910.0
KVCV 211448Z 00000KT 10SM OVC060 08/07 A3004,KVCV,2018-03-21T14:48:00Z,34.58,-117.38,8.0,7.0,0,0,,10.0,30.041338,,,,,,,,,,,OVC,6000,,,,,,,VFR,,,,,,,,,,,,METAR,876.0
CYDN 211448Z AUTO 21003KT 9SM OVC030 M04/M05 A3005 RMK SLP198,CYDN,2018-03-21T14:48:00Z,51.1,-100.03,-4.0,-5.0,210,3,,9.0,30.050198,1019.8,,TRUE,,,,,,,,OVC,3000,,,,,,,MVFR,,,,,,,,,,,,SPECI,305.0
CYAT 211448Z AUTO /////KT 9SM -SN CLR M13/M17 A3040 RMK WND MISG SLP296,CYAT,2018-03-21T14:48:00Z,52.93,-82.43,-13.0,-17.0,,,,9.0,30.398623,1029.6,,TRUE,,,,,,,-SN,CLR,,,,,,,,VFR,,,,,,,,,,,,SPECI,9.0
KRYY 211448Z 29014G24KT 270V330 10SM OVC025 03/M02 A2990 RMK AO2 SLP848 T00331017 53025,KRYY,2018-03-21T14:48:00Z,34.02,-84.6,3.3,-1.7,290,14,24,10.0,29.899607,984.8,,,TRUE,,,,,,,OVC,2500,,,,,,,MVFR,2.5,,,,,,,,,,,METAR,317.0
PANI 211448Z AUTO 00000KT 2SM -SN BR OVC002 M04/M04 A3067 RMK AO2 VIS 1 3/4V3 SNB19 P0000 FZRANO,PANI,2018-03-21T14:48:00Z,61.58,-159.53,-4.0,-4.0,0,0,,2.0,30.670275,,,TRUE,TRUE,,,,TRUE,,-SN BR,OVC,200,,,,,,,LIFR,,,,,,0.005,,,,,,METAR,26.0
KJDN 211448Z AUTO 00000KT M07/M08 A2992 RMK AO1 SLP171 T10671083 51006,KJDN,2018-03-21T14:48:00Z,47.33,-106.95,-6.7,-8.3,0,0,,,29.920275,1017.1,,TRUE,TRUE,,,,,,,,,,,,,,,,0.6,,,,,,,,,,,METAR,801.0
LHPA 211448Z 35014G23KT 9999 SCT040 SCT200 04/M06 Q1022 RMK BLU,LHPA,2018-03-21T14:48:00Z,47.35,17.5,4.0,-6.0,350,14,23,6.21,30.177166,,,,,,,,,,,SCT,4000,SCT,20000,,,,,VFR,,,,,,,,,,,,SPECI,148.0
PASY 211448Z AUTO 14026G33KT 7SM -RA BKN006 OVC011 04/03 A2957 RMK AO2 SLP017,PASY,2018-03-21T14:48:00Z,52.72,174.12,4.0,3.0,140,26,33,7.0,29.568897,1001.7,,TRUE,TRUE,,,,,,-RA,BKN,600,OVC,1100,,,,,IFR,,,,,,,,,,,,METAR,31.0
KC07 211448Z AUTO 26006KT 10SM SCT011 SCT018 BKN023 M06/M07 A3008 RMK AO2,KC07,2018-03-21T14:48:00Z,40.35,-106.7,-6.0,-7.0,260,6,,10.0,30.079725,,,TRUE,TRUE,,,,,,,SCT,1100,SCT,1800,BKN,2300,,,MVFR,,,,,,,,,,,,METAR,3224.0
RJAH 211448Z 06010G21KT 8000 -RA FEW008 BKN015 OVC025 09/07 Q1008 RMK 1ST008 6SC015 8SC025 A2977,RJAH,2018-03-21T14:48:00Z,36.17,140.42,9.0,7.0,60,10,21,4.97,29.763779,,,,,,,,,,-RA,FEW,800,BKN,1500,OVC,2500,,,MVFR,,,,,,,,,,,,METAR,35.0
K7BM 211448Z AUTO 12008KT 10SM SCT110 01/M11 A3011 RMK AO2,K7BM,2018-03-21T14:48:00Z,38.78,-106.22,1.0,-11.0,120,8,,10.0,30.109253,,,TRUE,TRUE,,,,,,,SCT,11000,,,,,,,VFR,,,,,,,,,,,,METAR,2995.0
KPAO 211447Z 13010KT 10SM BKN030 15/12 A2979,KPAO,2018-03-21T14:47:00Z,37.47,-122.12,15.0,12.0,130,10,,10.0,29.790354,,,,,,,,,,,BKN,3000,,,,,,,MVFR,,,,,,,,,,,,METAR,2.0
CYVL 211447Z AUTO 00000KT 9SM -SN OVC029 M20/M22 A3043 RMK SLP340,CYVL,2018-03-21T14:47:00Z,67.02,-126.13,-20.0,-22.0,0,0,,9.0,30.431103,1034.0,,TRUE,,,,,,,-SN,OVC,2900,,,,,,,MVFR,,,,,,,,,,,,SPECI,259.0
KFFZ 211447Z 05004KT 40SM BKN250 15/M08 A2999,KFFZ,2018-03-21T14:47:00Z,33.47,-111.72,15.0,-8.0,50,4,,40.0,29.991142,,,,,,,,,,,BKN,25000,,,,,,,VFR,,,,,,,,,,,,METAR,424.0
KLBE 211447Z 02010KT 3/4SM -SN VV005 M02/M02 A2969,KLBE,2018-03-21T14:47:00Z,40.27,-79.4,-2.0,-2.0,20,10,,0.75,29.68996,,,,,,,,,,-SN,OVX,0,,,,,,,LIFR,,,,,,,,,,,500,METAR,361.0
KADS 211447Z 09009KT 10SM SKC 13/00 A3022,KADS,2018-03-21T14:47:00Z,32.97,-96.82,13.0,0.0,90,9,,10.0,30.221457,,,,,,,,,,,SKC,,,,,,,,VFR,,,,,,,,,,,,METAR,196.0
KBBG 211447Z 31011G16KT 10SM SCT023 05/00 A3017,KBBG,2018-03-21T14:47:00Z,36.53,-93.2,5.0,0.0,310,11,16,10.0,30.171259,,,,,,,,,,,SCT,2300,,,,,,,VFR,,,,,,,,,,,,METAR,397.0
KBJC 211447Z 30006KT 50SM FEW070 SCT100 04/M04 A3002,KBJC,2018-03-21T14:47:00Z,39.9,-105.1,4.0,-4.0,300,6,,50.0,30.02067,,,,,,,,,,,FEW,7000,SCT,10000,,,,,VFR,,,,,,,,,,,,METAR,1724.0
KTZR 211447Z 01011KT 2 1/2SM -SN OVC011 M01/M02 A2975,KTZR,2018-03-21T14:47:00Z,39.9,-83.13,-1.0,-2.0,10,11,,2.5,29.749016,,,,,,,,,,-SN,OVC,1100,,,,,,,IFR,,,,,,,,,,,,METAR,276.0
KFDK 211447Z 01007KT 1/2SM OVC004 00/00 A2970,KFDK,2018-03-21T14:47:00Z,39.42,-77.37,0.0,0.0,10,7,,0.5,29.698818,,,,,,,,,,,OVC,400,,,,,,,LIFR,,,,,,,,,,,,METAR,92.0
YBRK 211447Z AUTO 15009KT 6000 -SHRA SCT018 BKN024 OVC029 23/20 Q1012,YBRK,2018-03-21T14:47:00Z,-23.37,150.47,23.0,20.0,150,9,,3.73,29.88189,,,TRUE,,,,,,,-SHRA,SCT,1800,BKN,2400,OVC,2900,,,MVFR,,,,,,,,,,,,SPECI,14.0
KGYH 211447Z 25014G23KT 10SM SCT046 07/M04 A2972,KGYH,2018-03-21T14:47:00Z,34.75,-82.38,7.0,-4.0,250,14,23,10.0,29.719488,,,,,,,,,,,SCT,4600,,,,,,,VFR,,,,,,,,,,,,METAR,292.0
KGYR 211447Z 07006KT 10SM FEW150 SCT200 14/M06 A2997,KGYR,2018-03-21T14:47:00Z,33.42,-112.37,14.0,-6.0,70,6,,10.0,29.970472,,,,,,,,,,,FEW,15000,SCT,20000,,,,,VFR,,,,,,,,,,,,METAR,295.0
KSAW 211447Z 01005KT 10SM SCT120 M06/M15 A3015,KSAW,2018-03-21T14:47:00Z,46.35,-87.4,-6.0,-15.0,10,5,,10.0,30.15059,,,,,,,,,,,SCT,12000,,,,,,,VFR,,,,,,,,,,,,METAR,372.0
KTIX 211447Z 29012G23KT 7SM SCT032 18/08 A2994,KTIX,2018-03-21T14:47:00Z,28.5,-80.8,18.0,8.0,290,12,23,7.0,29.940945,,,,,,,,,,,SCT,3200,,,,,,,VFR,,,,,,,,,,,,METAR,11.0
KSUN 211447Z 29008KT 10SM BKN030 OVC070 00/M04 A2996,KSUN,2018-03-21T14:47:00Z,43.5,-114.28,0.0,-4.0,290,8,,10.0,29.958662,,,,,,,,,,,BKN,3000,OVC,7000,,,,,MVFR,,,,,,,,,,,,METAR,1620.0
KCQT 211447Z AUTO 03003KT 10SM BKN050 OVC095 16/09 A2998 RMK AO2 SLP152 T01610089 50010,KCQT,2018-03-21T14:47:00Z,34.02,-118.28,16.1,8.9,30,3,,10.0,29.97933,1015.2,,TRUE,TRUE,,,,,,,BKN,5000,OVC,9500,,,,,VFR,1.0,,,,,,,,,,,METAR,56.0
KWDG 211447Z 00000KT 10SM FEW250 07/05 A3021,KWDG,2018-03-21T14:47:00Z,36.37,-97.77,7.0,5.0,0,0,,10.0,30.209646,,,,,,,,,,,FEW,25000,,,,,,,VFR,,,,,,,,,,,,METAR,356.0
KAEG 211447Z 05007KT 10SM BKN150 08/M12 A3012,KAEG,2018-03-21T14:47:00Z,35.13,-106.8,8.0,-12.0,50,7,,10.0,30.121063,,,,,,,,,,,BKN,15000,,,,,,,VFR,,,,,,,,,,,,METAR,1779.0
KSXT 211447Z AUTO 14009KT 3/4SM BR VV001 03/03 A2970 RMK AO2 VIS 1/2V1 3/4 T00280028,KSXT,2018-03-21T14:47:00Z,42.6,-123.37,2.8,2.8,140,9,,0.75,29.698818,,,TRUE,TRUE,,,,,,BR,OVX,0,,,,,,,LIFR,,,,,,,,,,,100,METAR,1170.0
KIWA 211447Z 12004KT 35SM SCT250 13/M06 A3000,KIWA,2018-03-21T14:47:00Z,33.3,-111.65,13.0,-6.0,120,4,,35.0,30.0,,,,,,,,,,,SCT,25000,,,,,,,VFR,,,,,,,,,,,,METAR,412.0
KCHD 211447Z 00000KT 10SM 14/M05 A2998,KCHD,2018-03-21T14:47:00Z,33.27,-111.82,14.0,-5.0,0,0,,10.0,29.97933,,,,,,,,,,,,,,,,,,,,,,,,,,,,,,,METAR,379.0
KBVI 211447Z 03005KT 3/4SM -SN BKN007 OVC012 M02/M03 A2973,KBVI,2018-03-21T14:47:00Z,40.77,-80.4,-2.0,-3.0,30,5,,0.75,29.731298,,,,,,,,,,-SN,BKN,700,OVC,1200,,,,,LIFR,,,,,,,,,,,,METAR,382.0
KCPW 211447Z AUTO 22013G18KT 10SM OVC090 M06/M15 A3022 RMK AO2,KCPW,2018-03-21T14:47:00Z,37.45,-106.8,-6.0,-15.0,220,13,18,10.0,30.221457,,,TRUE,TRUE,,,,,,,OVC,9000,,,,,,,VFR,,,,,,,,,,,,METAR,3584.0
KEVB 211447Z 28014G22KT 10SM SKC 17/05 A2996,KEVB,2018-03-21T14:47:00Z,29.05,-80.95,17.0,5.0,280,14,22,10.0,29.958662,,,,,,,,,,,SKC,,,,,,,,VFR,,,,,,,,,,,,METAR,3.0
KHUM 211447Z 33009G17KT 7SM SKC 16/06 A3018,KHUM,2018-03-21T14:47:00Z,29.57,-90.67,16.0,6.0,330,9,17,7.0,30.180119,,,,,,,,,,,SKC,,,,,,,,VFR,,,,,,,,,,,,METAR,3.0
CYBU 211446Z AUTO 16004KT 8SM BKN024 OVC037 M04/M05 A2996 RMK SLP171,CYBU,2018-03-21T14:46:00Z,53.32,-104.0,-4.0,-5.0,160,4,,8.0,29.958662,1017.1,,TRUE,,,,,,,,BKN,2400,OVC,3700,,,,,MVFR,,,,,,,,,,,,SPECI,374.0
KFWS 211446Z 00000KT 10SM SKC 13/03 A3022,KFWS,2018-03-21T14:46:00Z,32.57,-97.3,13.0,3.0,0,0,,10.0,30.221457,,,,,,,,,,,SKC,,,,,,,,VFR,,,,,,,,,,,,METAR,208.0
KSCH 211446Z 04010G16KT 15SM CLR M02/M09 A2985,KSCH,2018-03-21T14:46:00Z,42.85,-73.92,-2.0,-9.0,40,10,16,15.0,29.84941,,,,,,,,,,,CLR,,,,,,,,VFR,,,,,,,,,,,,METAR,115.0
KSUU 211446Z AUTO 01005KT 9SM -RA OVC005 11/10 A2982 RMK AO2 RAE25RAB31E42RAB46 CIG 004 RWY03R CIG 003 RWY21L CIG 003 RWY21R SLP105 $,KSUU,2018-03-21T14:46:00Z,38.27,-121.92,11.0,10.0,10,5,,9.0,29.819881,1010.5,,TRUE,TRUE,TRUE,,,,,-RA,OVC,500,,,,,,,IFR,,,,,,,,,,,,METAR,19.0
RJFF 211446Z AUTO 35018KT 3700 -RA BR SCT017 BKN023 BKN026 08/06 Q1006 RMK A2972,RJFF,2018-03-21T14:46:00Z,33.57,130.43,8.0,6.0,350,18,,2.3,29.704725,,,TRUE,,,,,,,-RA BR,SCT,1700,BKN,2300,BKN,2600,,,IFR,,,,,,,,,,,,METAR,12.0
KBAK 211445Z 33014KT 2 1/2SM -SNBR OVC014 M01/ A2991,KBAK,2018-03-21T14:45:00Z,39.27,-85.9,-1.0,,330,14,,2.5,29.911417,,,,,,,,,,-SN BR,OVC,1400,,,,,,,IFR,,,,,,,,,,,,METAR,200.0
KCWA 211445Z 05004KT 10SM SCT120 M05/M11 A3014,KCWA,2018-03-21T14:45:00Z,44.78,-89.67,-5.0,-11.0,50,4,,10.0,30.138779,,,,,,,,,,,SCT,12000,,,,,,,VFR,,,,,,,,,,,,METAR,389.0
KMER 211445Z 15012KT 2 1/2SM -RABR OVC029 13/13 A2987,KMER,2018-03-21T14:45:00Z,37.38,-120.57,13.0,13.0,150,12,,2.5,29.870079,,,,,,,,,,-RA BR,OVC,2900,,,,,,,IFR,,,,,,,,,,,,METAR,57.0
KATW 211445Z 02006KT 10SM SCT120 M03/M12 A3011,KATW,2018-03-21T14:45:00Z,44.27,-88.52,-3.0,-12.0,20,6,,10.0,30.109253,,,,,,,,,,,SCT,12000,,,,,,,VFR,,,,,,,,,,,,METAR,280.0
KEMT 211445Z 08003KT 10SM SCT055 BKN090 15/08 A3000,KEMT,2018-03-21T14:45:00Z,34.07,-118.02,15.0,8.0,80,3,,10.0,30.0,,,,,,,,,,,SCT,5500,BKN,9000,,,,,VFR,,,,,,,,,,,,METAR,90.0
KMWA 211445Z 33013G21KT 20SM FEW200 03/M05 A3007,KMWA,2018-03-21T14:45:00Z,37.77,-89.02,3.0,-5.0,330,13,21,20.0,30.070866,,,,,,,,,,,FEW,20000,,,,,,,VFR,,,,,,,,,,,,METAR,144.0
KJVL 211445Z 02007KT 10SM BKN250 M01/M08 A3010,KJVL,2018-03-21T14:45:00Z,42.62,-89.05,-1.0,-8.0,20,7,,10.0,30.100393,,,,,,,,,,,BKN,25000,,,,,,,VFR,,,,,,,,,,,,METAR,246.0
PALP 211445Z 25012KT 10SM BKN060 M24/M28 A3071,PALP,2018-03-21T14:45:00Z,70.33,-150.93,-24.0,-28.0,250,12,,10.0,30.708662,,,,,,,,,,,BKN,6000,,,,,,,VFR,,,,,,,,,,,,METAR,5.0
CWPF 211445Z AUTO 34001KT 05/03 RMK AO1 T00520030,CWPF,2018-03-21T14:45:00Z,48.43,-123.43,5.2,3.0,340,1,,,,,,TRUE,TRUE,,,,,,,,,,,,,,,,,,,,,,,,,,,METAR,12.0
CWVF 211445Z AUTO 00000KT 05/ RMK AO1 T0050,CWVF,2018-03-21T14:45:00Z,49.1,-123.3,5.0,,0,0,,,,,,TRUE,TRUE,,,,,,,,,,,,,,,,,,,,,,,,,,,METAR,1.0
KUES 211445Z 36007KT 10SM SKC M02/M08 A3010,KUES,2018-03-21T14:45:00Z,43.05,-88.25,-2.0,-8.0,360,7,,10.0,30.100393,,,,,,,,,,,SKC,,,,,,,,VFR,,,,,,,,,,,,METAR,278.0
KCGF 211445Z 05016KT 10SM SCT040 OVC100 M01/M05 A2982,KCGF,2018-03-21T14:45:00Z,41.57,-81.47,-1.0,-5.0,50,16,,10.0,29.819881,,,,,,,,,,,SCT,4000,OVC,10000,,,,,VFR,,,,,,,,,,,,METAR,268.0
KGYY 211445Z 36015G25KT 15SM BKN020 BKN250 02/M05 A3003,KGYY,2018-03-21T14:45:00Z,41.62,-87.42,2.0,-5.0,360,15,25,15.0,30.029528,,,,,,,,,,,BKN,2000,BKN,25000,,,,,MVFR,,,,,,,,,,,,METAR,180.0
KMHR 211445Z 18004KT 2SM FEW010 SCT012 OVC023 12/12 A2983 -SHRABR,KMHR,2018-03-21T14:45:00Z,38.53,-121.28,12.0,12.0,180,4,,2.0,29.828741,,,,,,,,,,-SHRA BR,FEW,1000,SCT,1200,OVC,2300,,,IFR,,,,,,,,,,,,METAR,29.0
CMGB 211445Z AUTO 36002KT M05/M12 RMK AO1 SOG 19 7011 SLP142 T10491120,CMGB,2018-03-21T14:45:00Z,45.37,-72.77,-4.9,-12.0,360,2,,,,1014.2,,TRUE,TRUE,,,,,,,,,,,,,,,,,,,,,,,,,,,METAR,86.0
KMWC 211445Z 01011KT 10SM SCT026 M01/M09 A3010,KMWC,2018-03-21T14:45:00Z,43.12,-88.03,-1.0,-9.0,10,11,,10.0,30.100393,,,,,,,,,,,SCT,2600,,,,,,,VFR,,,,,,,,,,,,METAR,227.0
LMML 211445Z 03013KT 9999 FEW015 15/08 Q1008 NOSIG,LMML,2018-03-21T14:45:00Z,35.85,14.47,15.0,8.0,30,13,,6.21,29.763779,,,,,,TRUE,,,,,FEW,1500,,,,,,,VFR,,,,,,,,,,,,METAR,91.0
KMMU 211445Z 04010G17KT 1SM SN OVC008 M01/M02 A2969,KMMU,2018-03-21T14:45:00Z,40.78,-74.42,-1.0,-2.0,40,10,17,1.0,29.68996,,,,,,,,,,SN,OVC,800,,,,,,,IFR,,,,,,,,,,,,METAR,57.0
KANE 211445Z 00000KT 10SM BKN060 OVC100 M03/M06 A3016,KANE,2018-03-21T14:45:00Z,45.15,-93.22,-3.0,-6.0,0,0,,10.0,30.159449,,,,,,,,,,,BKN,6000,OVC,10000,,,,,VFR,,,,,,,,,,,,METAR,278.0
KMTN 211445Z 32003KT 1/2SM SN OVC008 01/01 A2967,KMTN,2018-03-21T14:45:00Z,39.32,-76.42,1.0,1.0,320,3,,0.5,29.66929,,,,,,,,,,SN,OVC,800,,,,,,,LIFR,,,,,,,,,,,,METAR,7.0
LIPR 211445Z 04012KT 9999 SCT050 08/M03 Q1017,LIPR,2018-03-21T14:45:00Z,44.02,12.62,8.0,-3.0,40,12,,6.21,30.029528,,,,,,,,,,,SCT,5000,,,,,,,VFR,,,,,,,,,,,,METAR,13.0
LHSN 211445Z 03002KT CAVOK 03/M05 Q1021 TEMPO -SHSN RMK BLU,LHSN,2018-03-21T14:45:00Z,47.12,20.23,3.0,-5.0,30,2,,6.21,30.147638,,,,,,,,,,,CAVOK,,,,,,,,VFR,,,,,,,,,,,,METAR,98.0
LHKE 211445Z 04004KT CAVOK 03/M05 Q1021 NOSIG RMK BLU,LHKE,2018-03-21T14:45:00Z,46.92,19.75,3.0,-5.0,40,4,,6.21,30.147638,,,,,,TRUE,,,,,CAVOK,,,,,,,,VFR,,,,,,,,,,,,METAR,115.0
K1V6 211445Z AUTO 28008KT 10SM CLR 05/M10 A3008 RMK AO2,K1V6,2018-03-21T14:45:00Z,38.43,-105.1,5.0,-10.0,280,8,,10.0,30.079725,,,TRUE,TRUE,,,,,,,CLR,,,,,,,,VFR,,,,,,,,,,,,METAR,1658.0
KSTK 211445Z AUTO 22004KT 10SM CLR 04/M05 A3004 RMK AO2,KSTK,2018-03-21T14:45:00Z,40.62,-103.27,4.0,-5.0,220,4,,10.0,30.041338,,,TRUE,TRUE,,,,,,,CLR,,,,,,,,VFR,,,,,,,,,,,,METAR,1231.0
LIRP 211445Z 08014KT 9999 FEW040 10/M04 Q1014 TEMPO 07015G30KT,LIRP,2018-03-21T14:45:00Z,43.67,10.37,10.0,-4.0,80,14,,6.21,29.940945,,,,,,,,,,,FEW,4000,,,,,,,VFR,,,,,,,,,,,,METAR,2.0
PAKU 211445Z 24013KT 10SM R24/P6000FT -SHSN OVC060 M24/M26 A3070,PAKU,2018-03-21T14:45:00Z,70.32,-149.58,-24.0,-26.0,240,13,,10.0,30.699802,,,,,,,,,,-SHSN,OVC,6000,,,,,,,VFR,,,,,,,,,,,,METAR,2.0
KUSE 211445Z AUTO 02015G21KT 10SM CLR 01/M09 A2990 RMK AO2,KUSE,2018-03-21T14:45:00Z,41.62,-84.13,1.0,-9.0,20,15,21,10.0,29.899607,,,TRUE,TRUE,,,,,,,CLR,,,,,,,,VFR,,,,,,,,,,,,SPECI,238.0
KALN 211445Z 35012KT 10SM SCT200 02/M05 A3010,KALN,2018-03-21T14:45:00Z,38.88,-90.03,2.0,-5.0,350,12,,10.0,30.100393,,,,,,,,,,,SCT,20000,,,,,,,VFR,,,,,,,,,,,,METAR,166.0
CYTH 211444Z 00000KT 15SM FEW040 M11/M16 A3008 RMK SC2 SLP207,CYTH,2018-03-21T14:44:00Z,55.78,-97.87,-11.0,-16.0,0,0,,15.0,30.079725,1020.7,,,,,,,,,,FEW,4000,,,,,,,VFR,,,,,,,,,,,,SPECI,218.0
KOYM 211444Z AUTO 06006KT 10SM SCT039 OVC046 M02/M11 A2969 RMK AO2,KOYM,2018-03-21T14:44:00Z,,,-2.0,-11.0,60,6,,10.0,29.68996,,,TRUE,TRUE,,,,,,,SCT,3900,OVC,4600,,,,,VFR,,,,,,,,,,,,METAR,
YWLM 211444Z AUTO 12019KT 3900 +SHRA SCT014 BKN020 BKN032 19/18 Q1024,YWLM,2018-03-21T14:44:00Z,-32.8,151.83,19.0,18.0,120,19,,2.42,30.236221,,,TRUE,,,,,,,+SHRA,SCT,1400,BKN,2000,BKN,3200,,,IFR,,,,,,,,,,,,SPECI,9.0
KBAB 211443Z AUTO 00000KT 2SM -RA BR BKN003 BKN008 OVC029 12/11 A2984 RMK AO2 VIS 1V2 DZE02RAB02E16DZB16E22RAB22 SLP108 $,KBAB,2018-03-21T14:43:00Z,39.12,-121.42,12.0,11.0,0,0,,2.0,29.840551,1010.8,,TRUE,TRUE,TRUE,,,,,-RA BR,BKN,300,BKN,800,OVC,2900,,,LIFR,,,,,,,,,,,,SPECI,34.0
CYEK 211443Z 36019G25KT 1/2SM BLSN FEW004 OVC013 M20/M23 A3031 RMK BLSN1ST1ST6 SLP268,CYEK,2018-03-21T14:43:00Z,61.1,-94.07,-20.0,-23.0,360,19,25,0.5,30.31004,1026.8,,,,,,,,,BLSN,FEW,400,OVC,1300,,,,,LIFR,,,,,,,,,,,,SPECI,10.0
MMCU 211443Z 22003KT 10SM SKC 11/M06 A3013 RMK SLP159 52020 957,MMCU,2018-03-21T14:43:00Z,28.7,-105.97,11.0,-6.0,220,3,,10.0,30.129921,1015.9,,,,,,,,,,SKC,,,,,,,,VFR,2.0,,,,,,,,,,,METAR,1372.0
KNEL 211443Z AUTO 05008G20KT 1SM -SN BR BKN012 OVC018 00/M01 A2962 RMK AO2 RAE1327FZRAB1327E1357SNB1357 SLP031 T00001011 PNO,KNEL,2018-03-21T14:43:00Z,40.02,-74.33,0.0,-1.1,50,8,20,1.0,29.619095,1003.1,,TRUE,TRUE,,,,,,-SN BR,BKN,1200,OVC,1800,,,,,IFR,,,,,,,,,,,,METAR,31.0
CYXE 211443Z VRB02KT 1 1/2SM BR FEW004 SCT320 M09/M10 A2994 RMK SF1CC3 SLP172,CYXE,2018-03-21T14:43:00Z,52.17,-106.7,-9.0,-10.0,0,2,,1.5,29.940945,1017.2,,,,,,,,,BR,FEW,400,SCT,32000,,,,,IFR,,,,,,,,,,,,SPECI,504.0
KRDR 211442Z AUTO 15007KT 8SM BKN006 OVC010 M A3007 RMK AO2 CIG 006V011 BKN V SCT SLPNO ALSTG ESTMD $,KRDR,2018-03-21T14:42:00Z,47.97,-97.4,,,150,7,,8.0,30.070866,,,TRUE,TRUE,TRUE,,,,,,BKN,600,OVC,1000,,,,,IFR,,,,,,,,,,,,METAR,278.0
KHST 211442Z AUTO 32013G18KT 10SM FEW028 24/ A2996 RMK AO2 WSHFT 40 SLP149 $,KHST,2018-03-21T14:42:00Z,25.47,-80.37,24.0,,320,13,18,10.0,29.958662,1014.9,,TRUE,TRUE,TRUE,,,,,,FEW,2800,,,,,,,VFR,,,,,,,,,,,,METAR,2.0
PHSF 211442Z AUTO M M M M M M RMK AO2 SLPNO WND DATA ESTMD PWINO PNO TSNO $,PHSF,2018-03-21T14:42:00Z,19.77,-155.55,,,,,,,,,,TRUE,TRUE,TRUE,,TRUE,,TRUE,,,,,,,,,,,,,,,,,,,,,,METAR,1887.0
CYDB 211442Z 31010G19KT 3SM -SN DRSN SCT030 OVC045 M09/M11 A3010 RMK SC4SC4 SLP253,CYDB,2018-03-21T14:42:00Z,61.37,-139.05,-9.0,-11.0,310,10,19,3.0,30.100393,1025.3,,,,,,,,,-SN DRSN,SCT,3000,OVC,4500,,,,,MVFR,,,,,,,,,,,,SPECI,801.0
FALA 211441Z 21009KT 9999 TS FEW040CB 23/16 Q1020 TEMPO 4500 TSRA,FALA,2018-03-21T14:41:00Z,-25.92,27.92,23.0,16.0,210,9,,6.21,30.11811,,,,,,,,,,TS,FEW,4000,,,,,,,VFR,,,,,,,,,,,,SPECI,1377.0
CYCP 211441Z 00000KT 3/4SM -SHSN BR OVC035 M00/M00 A2981 RMK FG7SC1 SN VRY LGT SLP123,CYCP,2018-03-21T14:41:00Z,52.13,-119.28,0.0,0.0,0,0,,0.75,29.811024,1012.3,,,,,,,,,-SHSN BR,OVC,3500,,,,,,,LIFR,,,,,,,,,,,,SPECI,683.0
CYXT 211441Z 36015KT 20SM FEW040 OVC075 01/M02 A2972 RMK SC1AC8 SC TR SLP075,CYXT,2018-03-21T14:41:00Z,54.47,-128.57,1.0,-2.0,360,15,,20.0,29.719488,1007.5,,,,,,,,,,FEW,4000,OVC,7500,,,,,VFR,,,,,,,,,,,,SPECI,217.0
KDVP 211441Z AUTO 22003KT 10SM OVC015 00/M02 A3012 RMK AO2 T00001023,KDVP,2018-03-21T14:41:00Z,43.98,-95.78,0.0,-2.3,220,3,,10.0,30.121063,,,TRUE,TRUE,,,,,,,OVC,1500,,,,,,,MVFR,,,,,,,,,,,,METAR,495.0
MMCB 211440Z RTD 15004KT 5SM SKC 24/11 A3015 RMK HZY RTS,MMCB,2018-03-21T14:40:00Z,18.83,-99.27,24.0,11.0,150,4,,5.0,30.15059,,,,,,,,,,,SKC,,,,,,,,MVFR,,,,,,,,,,,,SPECI,1560.0
MMIO 211440Z 03006KT 10SM SKC 14/05 A3020,MMIO,2018-03-21T14:40:00Z,25.55,-100.93,14.0,5.0,30,6,,10.0,30.200787,,,,,,,,,,,SKC,,,,,,,,VFR,,,,,,,,,,,,METAR,1790.0
KHSD 211440Z AUTO 13006KT 10SM CLR 11/02 A3019 RMK A01,KHSD,2018-03-21T14:40:00Z,35.6,-97.72,11.0,2.0,130,6,,10.0,30.188976,,,TRUE,TRUE,,,,,,,CLR,,,,,,,,VFR,,,,,,,,,,,,METAR,364.0
KOWI 211440Z AUTO 33006KT 8SM CLR 02/00 A3022 RMK AO2,KOWI,2018-03-21T14:40:00Z,38.53,-95.25,2.0,0.0,330,6,,8.0,30.221457,,,TRUE,TRUE,,,,,,,CLR,,,,,,,,VFR,,,,,,,,,,,,SPECI,292.0
KONX 211440Z AUTO 29007KT 7SM BKN007 OVC012 03/02 A2958 RMK AO2 T00280021,KONX,2018-03-21T14:40:00Z,36.4,-76.02,2.8,2.1,290,7,,7.0,29.58071,,,TRUE,TRUE,,,,,,,BKN,700,OVC,1200,,,,,IFR,,,,,,,,,,,,SPECI,5.0
KJNX 211440Z AUTO 00000KT 10SM RA BKN008 OVC013 02/02 A2966 RMK AO2,KJNX,2018-03-21T14:40:00Z,35.53,-78.38,2.0,2.0,0,0,,10.0,29.660433,,,TRUE,TRUE,,,,,,RA,BKN,800,OVC,1300,,,,,IFR,,,,,,,,,,,,METAR,50.0
KIXA 211440Z AUTO 32008KT 10SM BKN009 OVC014 01/01 A2963 RMK AO2 P0001,KIXA,2018-03-21T14:40:00Z,36.33,-77.63,1.0,1.0,320,8,,10.0,29.630905,,,TRUE,TRUE,,,,,,,BKN,900,OVC,1400,,,,,IFR,,,,,,0.01,,,,,,SPECI,44.0
KGEV 211440Z AUTO 31010G27KT 10SM -SN BKN019 BKN048 OVC065 M02/M06 A2956 RMK AO2 T10211056,KGEV,2018-03-21T14:40:00Z,36.43,-81.42,-2.1,-5.6,310,10,27,10.0,29.56004,,,TRUE,TRUE,,,,,,-SN,BKN,1900,BKN,4800,OVC,6500,,,MVFR,,,,,,,,,,,,METAR,969.0
KEHO 211440Z AUTO 29011KT 10SM OVC050 05/M02 A2969 RMK AO2 T00471024,KEHO,2018-03-21T14:40:00Z,35.25,-81.6,4.7,-2.4,290,11,,10.0,29.68996,,,TRUE,TRUE,,,,,,,OVC,5000,,,,,,,VFR,,,,,,,,,,,,METAR,258.0
KGWW 211440Z AUTO 32006KT 10SM DZ BKN009 OVC012 03/02 A2966 RMK AO2 T00250022,KGWW,2018-03-21T14:40:00Z,35.47,-77.97,2.5,2.2,320,6,,10.0,29.660433,,,TRUE,TRUE,,,,,,DZ,BKN,900,OVC,1200,,,,,IFR,,,,,,,,,,,,SPECI,41.0
KGOO 211440Z AUTO 16004KT 1 1/4SM OVC001 08/08 A2985 RMK AO1 P0003,KGOO,2018-03-21T14:40:00Z,39.22,-121.0,8.0,8.0,160,4,,1.25,29.84941,,,TRUE,TRUE,,,,,,,OVC,100,,,,,,,LIFR,,,,,,0.03,,,,,,METAR,962.0
CWZQ 211440Z AUTO 02002KT 01/M03 RMK AO1 T00051030,CWZQ,2018-03-21T14:40:00Z,46.53,-61.05,0.5,-3.0,20,2,,,,,,TRUE,TRUE,,,,,,,,,,,,,,,,,,,,,,,,,,,METAR,17.0
K4R5 211440Z AUTO 08005KT 10SM CLR M04/M11 A3020 RMK AO2 T10451111,K4R5,2018-03-21T14:40:00Z,46.78,-90.77,-4.5,-11.1,80,5,,10.0,30.200787,,,TRUE,TRUE,,,,,,,CLR,,,,,,,,VFR,,,,,,,,,,,,SPECI,198.0
K2G4 211440Z AUTO 09004KT 1 1/4SM OVC007 M04/M06 A2956 RMK AO1,K2G4,2018-03-21T14:40:00Z,39.58,-79.33,-4.0,-6.0,90,4,,1.25,29.56004,,,TRUE,TRUE,,,,,,,OVC,700,,,,,,,IFR,,,,,,,,,,,,SPECI,894.0
PKWA 211440Z AUTO 08011KT 10SM SCT018 SCT050 27/24 A2971 RMK AO2 T02660237,PKWA,2018-03-21T14:40:00Z,8.72,167.72,26.6,23.7,80,11,,10.0,29.71063,,,TRUE,TRUE,,,,,,,SCT,1800,SCT,5000,,,,,VFR,,,,,,,,,,,,SPECI,8.0
DAAJ 211439Z 23028KT 0500 BLSA NSC 34/// Q1008,DAAJ,2018-03-21T14:39:00Z,24.28,9.47,,,230,28,,0.31,29.763779,,,,,,,,,,BLSA,CLR,,,,,,,,LIFR,,,,,,,,,,,,SPECI,968.0
CYLJ 211439Z 00000KT 1/4SM FZFG SKC M09/M09 A2990 RMK SLP155,CYLJ,2018-03-21T14:39:00Z,54.12,-108.52,-9.0,-9.0,0,0,,0.25,29.899607,1015.5,,,,,,,,,FZFG,SKC,,,,,,,,LIFR,,,,,,,,,,,,SPECI,480.0
RKTU 211439Z 34003KT 4000 -SN BR BKN015 OVC030 01/00 Q1015 NOSIG,RKTU,2018-03-21T14:39:00Z,36.7,127.5,1.0,0.0,340,3,,2.49,29.970472,,,,,,TRUE,,,,-SN BR,BKN,1500,OVC,3000,,,,,IFR,,,,,,,,,,,,SPECI,66.0
KNLC 211438Z 13008KT 1 3/4SM -RA BR BKN041 OVC049 12/11 A2991 RMK AO2 RH/96 P0004 T01170111,KNLC,2018-03-21T14:38:00Z,36.32,-119.95,11.7,11.1,130,8,,1.75,29.911417,,,,TRUE,,,,,,-RA BR,BKN,4100,OVC,4900,,,,,IFR,,,,,,0.04,,,,,,METAR,72.0
KMEH 211438Z AUTO 00000KT 8SM -RA SCT024 OVC031 02/01 A2976 RMK AO2 P0003 T00220011,KMEH,2018-03-21T14:38:00Z,45.52,-118.42,2.2,1.1,0,0,,8.0,29.760826,,,TRUE,TRUE,,,,,,-RA,SCT,2400,OVC,3100,,,,,VFR,,,,,,0.03,,,,,,METAR,1136.0
KCGS 211438Z AUTO 34003KT 1/4SM OVC001 M01/M01 A2965 RMK AO1 T10071013,KCGS,2018-03-21T14:38:00Z,38.98,-76.92,-0.7,-1.3,340,3,,0.25,29.648623,,,TRUE,TRUE,,,,,,,OVC,100,,,,,,,LIFR,,,,,,,,,,,,SPECI,15.0
SLCO 211437Z 06004KT 6000 -RA BKN008 OVC070 25/24 Q1014,SLCO,2018-03-21T14:37:00Z,-11.03,-68.78,25.0,24.0,60,4,,3.73,29.940945,,,,,,,,,,-RA,BKN,800,OVC,7000,,,,,IFR,,,,,,,,,,,,METAR,272.0
SLTR 211437Z 12010KT 2500 -RA FEW020 FEW023CB OVC070 21/21 Q1016,SLTR,2018-03-21T14:37:00Z,-14.83,-64.92,21.0,21.0,120,10,,1.55,30.0,,,,,,,,,,-RA,FEW,2000,FEW,2300,OVC,7000,,,IFR,,,,,,,,,,,,METAR,157.0
KCVC 211437Z AUTO 29013G22KT 10SM OVC028 06/M01 A2986 RMK AO2,KCVC,2018-03-21T14:37:00Z,33.63,-83.85,6.0,-1.0,290,13,22,10.0,29.861221,,,TRUE,TRUE,,,,,,,OVC,2800,,,,,,,MVFR,,,,,,,,,,,,SPECI,247.0
KTTF 211437Z AUTO 03009G16KT 10SM BKN100 01/M11 A2990 RMK AO2 T00121115,KTTF,2018-03-21T14:37:00Z,41.93,-83.42,1.2,-11.5,30,9,16,10.0,29.899607,,,TRUE,TRUE,,,,,,,BKN,10000,,,,,,,VFR,,,,,,,,,,,,SPECI,188.0
KCBE 211437Z AUTO 00000KT 7SM BKN003 BKN006 OVC026 02/00 A2973 RMK AO1,KCBE,2018-03-21T14:37:00Z,39.62,-78.77,2.0,0.0,0,0,,7.0,29.731298,,,TRUE,TRUE,,,,,,,BKN,300,BKN,600,OVC,2600,,,LIFR,,,,,,,,,,,,METAR,236.0
K2W6 211437Z AUTO 35004KT 3/4SM OVC003 00/00 A2963 RMK AO1,K2W6,2018-03-21T14:37:00Z,38.32,-76.55,0.0,0.0,350,4,,0.75,29.630905,,,TRUE,TRUE,,,,,,,OVC,300,,,,,,,LIFR,,,,,,,,,,,,SPECI,44.0
RJTR 211437Z AUTO 33009G15KT 1 5/8SM BR BKN004 OVC017 03/03 A2976 RMK AO2 RAE21RAB25E37 BKN V OVC SLP083,RJTR,2018-03-21T14:37:00Z,35.52,139.4,3.0,3.0,330,9,15,1.63,29.760826,1008.3,,TRUE,TRUE,,,,,,BR,BKN,400,OVC,1700,,,,,LIFR,,,,,,,,,,,,METAR,109.0
CYIO 211436Z AUTO VRB02KT 6SM HZ SCT024 M31/M35 A3003 RMK SLP184,CYIO,2018-03-21T14:36:00Z,72.67,-77.97,-31.0,-35.0,0,2,,6.0,30.029528,1018.4,,TRUE,,,,,,,HZ,SCT,2400,,,,,,,VFR,,,,,,,,,,,,SPECI,57.0
RJNY 211436Z 05014G25KT 010V100 9999 -RA FEW015 BKN035 BKN050 10/05 Q1002 RMK 1CU015 7SC035 7SC050 A2961,RJNY,2018-03-21T14:36:00Z,34.82,138.3,10.0,5.0,50,14,25,6.21,29.586615,,,,,,,,,,-RA,FEW,1500,BKN,3500,BKN,5000,,,VFR,,,,,,,,,,,,METAR,10.0
CWFD 211436Z AUTO 01004KT 340V040 ////SM //// BKN010 OVC015 ///// A////,CWFD,2018-03-21T14:36:00Z,66.57,-61.58,,,10,4,,,,,,TRUE,,,,,,,,BKN,1000,OVC,1500,,,,,,,,,,,,,,,,,SPECI,393.0
KNY0 211436Z AUTO 10008KT 10SM CLR M02/M12 A2982 RMK AO2,KNY0,2018-03-21T14:36:00Z,42.98,-74.33,-2.0,-12.0,100,8,,10.0,29.819881,,,TRUE,TRUE,,,,,,,CLR,,,,,,,,VFR,,,,,,,,,,,,METAR,271.0
KFME 211436Z AUTO 02003KT 1/2SM OVC002 00/M01 A2966 RMK AO1,KFME,2018-03-21T14:36:00Z,39.08,-76.77,0.0,-1.0,20,3,,0.5,29.660433,,,TRUE,TRUE,,,,,,,OVC,200,,,,,,,LIFR,,,,,,,,,,,,METAR,46.0
KJES 211436Z AUTO 29013G29KT 10SM CLR 13/00 A2988 RMK AO2,KJES,2018-03-21T14:36:00Z,31.55,-81.88,13.0,0.0,290,13,29,10.0,29.878937,,,TRUE,TRUE,,,,,,,CLR,,,,,,,,VFR,,,,,,,,,,,,METAR,33.0
ETNT 211436Z 28016KT 9999 SCT016 BKN019 06/01 Q1026 WHT WHT BECMG BLU+,ETNT,2018-03-21T14:36:00Z,53.53,7.67,6.0,1.0,280,16,,6.21,30.295275,,,,,,,,,,,SCT,1600,BKN,1900,,,,,MVFR,,,,,,,,,,,,SPECI,12.0
KPPA 211435Z AUTO 14012KT 10SM CLR 09/M04 A3014 RMK AO2 T00921039,KPPA,2018-03-21T14:35:00Z,35.62,-101.0,9.2,-3.9,140,12,,10.0,30.138779,,,TRUE,TRUE,,,,,,,CLR,,,,,,,,VFR,,,,,,,,,,,,METAR,989.0
KMCC 211435Z AUTO 21004KT 3/4SM -RA 12/12 A2986 RMK AO2,KMCC,2018-03-21T14:35:00Z,38.67,-121.4,12.0,12.0,210,4,,0.75,29.861221,,,TRUE,TRUE,,,,,,-RA,,,,,,,,,,,,,,,,,,,,,METAR,23.0
KF45 211435Z AUTO 29016G20KT 10SM SCT035 22/12 A2997 RMK AO2,KF45,2018-03-21T14:35:00Z,,,22.0,12.0,290,16,20,10.0,29.970472,,,TRUE,TRUE,,,,,,,SCT,3500,,,,,,,VFR,,,,,,,,,,,,METAR,
KMNV 211435Z AUTO 30009KT 10SM OVC028 02/M02 A2985 RMK A01,KMNV,2018-03-21T14:35:00Z,35.55,-84.38,2.0,-2.0,300,9,,10.0,29.84941,,,TRUE,TRUE,,,,,,,OVC,2800,,,,,,,MVFR,,,,,,,,,,,,METAR,314.0
CYGH 211435Z VRB02KT 5SM -SN VV054 M17/M20 A3050 RMK SN8 SLP341,CYGH,2018-03-21T14:35:00Z,66.27,-128.62,-17.0,-20.0,0,2,,5.0,30.499016,1034.1,,,,,,,,,-SN,OVX,0,,,,,,,LIFR,,,,,,,,,,,5400,SPECI,66.0
YPMQ 211435Z AUTO 12010KT 7000 // SCT014 SCT040 BKN059 21/19 Q1021,YPMQ,2018-03-21T14:35:00Z,-31.43,152.87,21.0,19.0,120,10,,4.35,30.147638,,,TRUE,,,,,,,,SCT,1400,SCT,4000,BKN,5900,,,MVFR,,,,,,,,,,,,SPECI,4.0
KPTD 211435Z AUTO 04014KT 10SM CLR M05/M11 A2993 RMK AO2,KPTD,2018-03-21T14:35:00Z,44.68,-74.95,-5.0,-11.0,40,14,,10.0,29.929134,,,TRUE,TRUE,,,,,,,CLR,,,,,,,,VFR,,,,,,,,,,,,METAR,144.0
KS39 211435Z AUTO 00000KT 10SM SCT043 SCT090 BKN120 04/02 A2975 RMK AO2,KS39,2018-03-21T14:35:00Z,44.28,-120.9,4.0,2.0,0,0,,10.0,29.749016,,,TRUE,TRUE,,,,,,,SCT,4300,SCT,9000,BKN,12000,,,VFR,,,,,,,,,,,,METAR,991.0
KTVK 211435Z AUTO 00000KT 10SM 02/M03 A3017 RMK AO2,KTVK,2018-03-21T14:35:00Z,40.68,-92.9,2.0,-3.0,0,0,,10.0,30.171259,,,TRUE,TRUE,,,,,,,,,,,,,,,,,,,,,,,,,,,METAR,314.0
KHAE 211435Z AUTO 34007KT 10SM CLR 03/M05 A3013 RMK AO2,KHAE,2018-03-21T14:35:00Z,39.73,-91.45,3.0,-5.0,340,7,,10.0,30.129921,,,TRUE,TRUE,,,,,,,CLR,,,,,,,,VFR,,,,,,,,,,,,METAR,234.0
KEDJ 211435Z AUTO 03016G20KT 8SM OVC011 M02/M02 A2980 RMK AO1,KEDJ,2018-03-21T14:35:00Z,40.37,-83.82,-2.0,-2.0,30,16,20,8.0,29.799213,,,TRUE,TRUE,,,,,,,OVC,1100,,,,,,,MVFR,,,,,,,,,,,,METAR,342.0
KFYG 211435Z AUTO 00000KT 10SM FEW035 04/M04 A3012 RMK AO2,KFYG,2018-03-21T14:35:00Z,38.58,-91.0,4.0,-4.0,0,0,,10.0,30.121063,,,TRUE,TRUE,,,,,,,FEW,3500,,,,,,,VFR,,,,,,,,,,,,METAR,149.0
CBBC 211435Z AUTO 00000KT 3/8SM FG OVC003 03/02 A2971 RMK SLP062,CBBC,2018-03-21T14:35:00Z,52.18,-128.15,3.0,2.0,0,0,,0.38,29.71063,1006.2,,TRUE,,,,,,,FG,OVC,300,,,,,,,LIFR,,,,,,,,,,,,SPECI,43.0
KXPY 211435Z AUTO 34013KT 10SM CLR 16/04 A3017 RMK A01,KXPY,2018-03-21T14:35:00Z,29.12,-90.2,16.0,4.0,340,13,,10.0,30.171259,,,TRUE,TRUE,,,,,,,CLR,,,,,,,,VFR,,,,,,,,,,,,SPECI,2.0
KXIH 211435Z AUTO 10SM CLR 17/05 A3019 RMK A01,KXIH,2018-03-21T14:35:00Z,29.18,-94.52,17.0,5.0,,,,10.0,30.188976,,,TRUE,TRUE,,,,,,,CLR,,,,,,,,VFR,,,,,,,,,,,,SPECI,75.0
KVQT 211435Z AUTO 03014KT 10SM CLR 18/09 A3020 RMK A01,KVQT,2018-03-21T14:35:00Z,28.27,-92.27,18.0,9.0,30,14,,10.0,30.200787,,,TRUE,TRUE,,,,,,,CLR,,,,,,,,VFR,,,,,,,,,,,,SPECI,25.0
KVOA 211435Z AUTO 31026KT 9SM FEW042 15/07 A3009 RMK A01,KVOA,2018-03-21T14:35:00Z,29.23,-87.78,15.0,7.0,310,26,,9.0,30.088583,,,TRUE,TRUE,,,,,,,FEW,4200,,,,,,,VFR,,,,,,,,,,,,SPECI,53.0
KVKY 211435Z AUTO 32020KT 10SM CLR 15/04 A3013 RMK A01,KVKY,2018-03-21T14:35:00Z,29.25,-88.43,15.0,4.0,320,20,,10.0,30.129921,,,TRUE,TRUE,,,,,,,CLR,,,,,,,,VFR,,,,,,,,,,,,SPECI,32.0
KVAF 211435Z AUTO 08013KT 9SM CLR 20/09 A3017 RMK A01,KVAF,2018-03-21T14:35:00Z,27.35,-94.63,20.0,9.0,80,13,,9.0,30.171259,,,TRUE,TRUE,,,,,,,CLR,,,,,,,,VFR,,,,,,,,,,,,SPECI,46.0
KSPR 211435Z AUTO 01015KT 10SM CLR 17/06 A3017 RMK A01,KSPR,2018-03-21T14:35:00Z,28.6,-91.2,17.0,6.0,10,15,,10.0,30.171259,,,TRUE,TRUE,,,,,,,CLR,,,,,,,,VFR,,,,,,,,,,,,SPECI,31.0
KSCF 211435Z AUTO VRB05G12KT 10SM 17/05 A3021 RMK A01,KSCF,2018-03-21T14:35:00Z,29.12,-91.87,17.0,5.0,0,5,12,10.0,30.209646,,,TRUE,TRUE,,,,,,,,,,,,,,,,,,,,,,,,,,,SPECI,8.0
KMZG 211435Z AUTO 17009G16KT 10SM CLR 20/10 A3016 RMK A01,KMZG,2018-03-21T14:35:00Z,27.73,-96.18,20.0,10.0,170,9,16,10.0,30.159449,,,TRUE,TRUE,,,,,,,CLR,,,,,,,,VFR,,,,,,,,,,,,SPECI,29.0
KMIS 211435Z AUTO 33020KT 10SM CLR 15/05 A3014 RMK A01,KMIS,2018-03-21T14:35:00Z,29.3,-88.85,15.0,5.0,330,20,,10.0,30.138779,,,TRUE,TRUE,,,,,,,CLR,,,,,,,,VFR,,,,,,,,,,,,SPECI,32.0
KMDJ 211435Z AUTO 33018KT 10SM CLR 16/06 A3016 RMK A01,KMDJ,2018-03-21T14:35:00Z,28.65,-89.8,16.0,6.0,330,18,,10.0,30.159449,,,TRUE,TRUE,,,,,,,CLR,,,,,,,,VFR,,,,,,,,,,,,SPECI,31.0
KHQI 211435Z AUTO 04016KT 10SM CLR A3017 RMK A01,KHQI,2018-03-21T14:35:00Z,27.93,-93.67,,,40,16,,10.0,30.171259,,,TRUE,TRUE,,,,,,,CLR,,,,,,,,VFR,,,,,,,,,,,,SPECI,26.0
KGUL 211435Z AUTO 06016KT 10SM CLR 19/10 A3017 RMK A01,KGUL,2018-03-21T14:35:00Z,27.3,-93.53,19.0,10.0,60,16,,10.0,30.171259,,,TRUE,TRUE,,,,,,,CLR,,,,,,,,VFR,,,,,,,,,,,,SPECI,30.0
KGHB 211435Z AUTO 02014KT 10SM CLR 18/08 A3018 RMK A01,KGHB,2018-03-21T14:35:00Z,27.83,-91.98,18.0,8.0,20,14,,10.0,30.180119,,,TRUE,TRUE,,,,,,,CLR,,,,,,,,VFR,,,,,,,,,,,,SPECI,30.0
KGBK 211435Z AUTO 04010G15KT 300V060 10SM CLR 19/09 A3017 RMK A01,KGBK,2018-03-21T14:35:00Z,27.2,-92.2,19.0,9.0,40,10,15,10.0,30.171259,,,TRUE,TRUE,,,,,,,CLR,,,,,,,,VFR,,,,,,,,,,,,SPECI,59.0
KEMK 211435Z AUTO 04016KT 10SM CLR 21/09 A3017 RMK A01,KEMK,2018-03-21T14:35:00Z,27.82,-94.32,21.0,9.0,40,16,,10.0,30.171259,,,TRUE,TRUE,,,,,,,CLR,,,,,,,,VFR,,,,,,,,,,,,SPECI,26.0
KEIR 211435Z AUTO 04013KT 10SM 16/06 A3019 RMK A01,KEIR,2018-03-21T14:35:00Z,28.63,-91.48,16.0,6.0,40,13,,10.0,30.188976,,,TRUE,TRUE,,,,,,,,,,,,,,,,,,,,,,,,,,,SPECI,28.0
KEHC 211435Z AUTO 03016KT 9SM CLR A3018 RMK A01,KEHC,2018-03-21T14:35:00Z,28.43,-92.88,,,30,16,,9.0,30.180119,,,TRUE,TRUE,,,,,,,CLR,,,,,,,,VFR,,,,,,,,,,,,SPECI,31.0
KDSF 211435Z AUTO VRB06G14KT 10SM CLR 19/07 A3012 RMK A01,KDSF,2018-03-21T14:35:00Z,,,19.0,7.0,0,6,14,10.0,30.121063,,,TRUE,TRUE,,,,,,,CLR,,,,,,,,VFR,,,,,,,,,,,,METAR,
KDLP 211435Z AUTO 27016KT 220V290 10SM CLR 16/04 A3015 RMK A01,KDLP,2018-03-21T14:35:00Z,29.12,-89.55,16.0,4.0,270,16,,10.0,30.15059,,,TRUE,TRUE,,,,,,,CLR,,,,,,,,VFR,,,,,,,,,,,,SPECI,36.0
KCVW 211435Z AUTO 03009KT 10SM CLR 16/05 A3020 RMK A01,KCVW,2018-03-21T14:35:00Z,29.78,-93.3,16.0,5.0,30,9,,10.0,30.200787,,,TRUE,TRUE,,,,,,,CLR,,,,,,,,VFR,,,,,,,,,,,,SPECI,1.0
KBQX 211435Z AUTO 08013G21KT 10SM CLR 19/08 A3017 RMK A01,KBQX,2018-03-21T14:35:00Z,28.5,-95.72,19.0,8.0,80,13,21,10.0,30.171259,,,TRUE,TRUE,,,,,,,CLR,,,,,,,,VFR,,,,,,,,,,,,SPECI,34.0
KBBF 211435Z AUTO 12011G17KT 10SM CLR 20/09 A3016 RMK A01,KBBF,2018-03-21T14:35:00Z,27.83,-96.02,20.0,9.0,120,11,17,10.0,30.159449,,,TRUE,TRUE,,,,,,,CLR,,,,,,,,VFR,,,,,,,,,,,,SPECI,36.0
KATP 211435Z AUTO 35014KT 10SM CLR 19/09 A3015 RMK A01,KATP,2018-03-21T14:35:00Z,27.2,-90.03,19.0,9.0,350,14,,10.0,30.15059,,,TRUE,TRUE,,,,,,,CLR,,,,,,,,VFR,,,,,,,,,,,,SPECI,62.0
K18H 211435Z AUTO 04012G18KT 10SM CLR 22/10 A3014 RMK A01,K18H,2018-03-21T14:35:00Z,,,22.0,10.0,40,12,18,10.0,30.138779,,,TRUE,TRUE,,,,,,,CLR,,,,,,,,VFR,,,,,,,,,,,,METAR,
KKY8 211435Z AUTO 31009KT 10SM OVC016 00/M01 A2995 RMK A01,KKY8,2018-03-21T14:35:00Z,37.95,-86.87,0.0,-1.0,310,9,,10.0,29.949802,,,TRUE,TRUE,,,,,,,OVC,1600,,,,,,,MVFR,,,,,,,,,,,,METAR,126.0
KMRH 211435Z AUTO 30008KT 10SM BKN009 OVC015 07/05 A2962 RMK AO2 CIG 008V012 T00670050,KMRH,2018-03-21T14:35:00Z,34.73,-76.65,6.7,5.0,300,8,,10.0,29.619095,,,TRUE,TRUE,,,,,,,BKN,900,OVC,1500,,,,,IFR,,,,,,,,,,,,METAR,3.0
KDNS 211435Z AUTO VRB03KT 10SM OVC014 01/00 A3019 RMK AO2,KDNS,2018-03-21T14:35:00Z,41.97,-95.37,1.0,0.0,0,3,,10.0,30.188976,,,TRUE,TRUE,,,,,,,OVC,1400,,,,,,,MVFR,,,,,,,,,,,,METAR,388.0
KCKP 211435Z AUTO 00000KT 3SM BR SCT003 OVC008 M01/M01 A3016 RMK AO2 T10061006,KCKP,2018-03-21T14:35:00Z,42.73,-95.55,-0.6,-0.6,0,0,,3.0,30.159449,,,TRUE,TRUE,,,,,,BR,SCT,300,OVC,800,,,,,IFR,,,,,,,,,,,,METAR,374.0
KD39 211435Z AUTO 12004KT 10SM OVC008 M03/M05 A3014 RMK AO2 T10351050,KD39,2018-03-21T14:35:00Z,45.7,-94.93,-3.5,-5.0,120,4,,10.0,30.138779,,,TRUE,TRUE,,,,,,,OVC,800,,,,,,,IFR,,,,,,,,,,,,METAR,380.0
KMPZ 211435Z AUTO 36010KT 10SM CLR 00/M10 A3014 RMK AO2,KMPZ,2018-03-21T14:35:00Z,40.95,-91.52,0.0,-10.0,360,10,,10.0,30.138779,,,TRUE,TRUE,,,,,,,CLR,,,,,,,,VFR,,,,,,,,,,,,METAR,224.0
KOVL 211435Z AUTO 15006KT 7SM BKN005 OVC013 36/ A3014 RMK AO2,KOVL,2018-03-21T14:35:00Z,44.78,-95.03,36.0,,150,6,,7.0,30.138779,,,TRUE,TRUE,,,,,,,BKN,500,OVC,1300,,,,,IFR,,,,,,,,,,,,METAR,328.0
KPRS 211435Z AUTO 00000KT 10SM CLR 17/M05 A3008 RMK AO2 T01691055,KPRS,2018-03-21T14:35:00Z,29.63,-104.35,16.9,-5.5,0,0,,10.0,30.079725,,,TRUE,TRUE,,,,,,,CLR,,,,,,,,VFR,,,,,,,,,,,,METAR,896.0
MMMY 211435Z 12006KT 5SM BKN010 OVC015 16/13 A3012 RMK 8/5//,MMMY,2018-03-21T14:35:00Z,25.77,-100.08,16.0,13.0,120,6,,5.0,30.121063,,,,,,,,,,,BKN,1000,OVC,1500,,,,,MVFR,,,,,,,,,,,,SPECI,387.0
KTSP 211435Z AUTO 12007KT 4SM -RA FEW006 FEW050 OVC060 08/08 A3001 RMK AO2 P0001,KTSP,2018-03-21T14:35:00Z,35.13,-118.43,8.0,8.0,120,7,,4.0,30.008858,,,TRUE,TRUE,,,,,,-RA,FEW,600,FEW,5000,OVC,6000,,,MVFR,,,,,,0.01,,,,,,METAR,1220.0
KRCX 211435Z AUTO 10004KT 10SM CLR M04/M11 A3016 RMK AO2 T10421110,KRCX,2018-03-21T14:35:00Z,45.5,-91.0,-4.2,-11.0,100,4,,10.0,30.159449,,,TRUE,TRUE,,,,,,,CLR,,,,,,,,VFR,,,,,,,,,,,,METAR,377.0
KXSA 211435Z AUTO 33006KT 1 1/2SM -SN OVC004 01/01 A2962 RMK AO2 T00080006,KXSA,2018-03-21T14:35:00Z,37.87,-76.9,0.8,0.6,330,6,,1.5,29.619095,,,TRUE,TRUE,,,,,,-SN,OVC,400,,,,,,,LIFR,,,,,,,,,,,,METAR,42.0
K05U 211435Z AUTO 00000KT 10SM CLR 01/M03 A2995 RMK A01,K05U,2018-03-21T14:35:00Z,39.6,-116.0,1.0,-3.0,0,0,,10.0,29.949802,,,TRUE,TRUE,,,,,,,CLR,,,,,,,,VFR,,,,,,,,,,,,SPECI,1816.0
KIKW 211435Z AUTO 04010KT 10SM CLR 00/M07 A3003 RMK AO2 T00001067,KIKW,2018-03-21T14:35:00Z,43.67,-84.27,0.0,-6.7,40,10,,10.0,30.029528,,,TRUE,TRUE,,,,,,,CLR,,,,,,,,VFR,,,,,,,,,,,,METAR,194.0
KIFP 211435Z AUTO 12004KT 10SM CLR 14/M04 A2996 RMK AO2,KIFP,2018-03-21T14:35:00Z,35.15,-114.57,14.0,-4.0,120,4,,10.0,29.958662,,,TRUE,TRUE,,,,,,,CLR,,,,,,,,VFR,,,,,,,,,,,,SPECI,212.0
KHZD 211435Z AUTO 31006KT 10SM OVC075 04/M01 A3005 RMK A01,KHZD,2018-03-21T14:35:00Z,36.08,-88.47,4.0,-1.0,310,6,,10.0,30.050198,,,TRUE,TRUE,,,,,,,OVC,7500,,,,,,,VFR,,,,,,,,,,,,SPECI,151.0
KHTH 211435Z AUTO 34006KT 10SM CLR 09/00 A2988 RMK A01,KHTH,2018-03-21T14:35:00Z,,,9.0,0.0,340,6,,10.0,29.878937,,,TRUE,TRUE,,,,,,,CLR,,,,,,,,VFR,,,,,,,,,,,,METAR,
KMOR 211435Z AUTO 32007G14KT 1/2SM BR BKN003 BKN007 OVC013 M00/M00 A2978 RMK A01,KMOR,2018-03-21T14:35:00Z,36.18,-83.37,0.0,0.0,320,7,14,0.5,29.778543,,,TRUE,TRUE,,,,,,BR,BKN,300,BKN,700,OVC,1300,,,LIFR,,,,,,,,,,,,SPECI,400.0
KMEV 211435Z AUTO 14005KT 3SM -RA FEW020 SCT025 BKN037 05/05 A2989 RMK AO2 P0004,KMEV,2018-03-21T14:35:00Z,38.98,-119.75,5.0,5.0,140,5,,3.0,29.890747,,,TRUE,TRUE,,,,,,-RA,FEW,2000,SCT,2500,BKN,3700,,,MVFR,,,,,,0.04,,,,,,METAR,1439.0
KMVH 211435Z AUTO 29003KT 10SM CLR M04/M08 A2991 RMK AO2,KMVH,2018-03-21T14:35:00Z,46.83,-108.93,-4.0,-8.0,290,3,,10.0,29.911417,,,TRUE,TRUE,,,,,,,CLR,,,,,,,,VFR,,,,,,,,,,,,SPECI,1355.0
KMRC 211435Z AUTO 31006G13KT 10SM CLR 04/M01 A2999 RMK A01,KMRC,2018-03-21T14:35:00Z,35.55,-87.18,4.0,-1.0,310,6,13,10.0,29.991142,,,TRUE,TRUE,,,,,,,CLR,,,,,,,,VFR,,,,,,,,,,,,SPECI,208.0
KPCW 211435Z AUTO 04015G25KT 10SM BKN024 OVC028 00/M05 A2985 RMK AO2,KPCW,2018-03-21T14:35:00Z,41.52,-82.87,0.0,-5.0,40,15,25,10.0,29.84941,,,TRUE,TRUE,,,,,,,BKN,2400,OVC,2800,,,,,MVFR,,,,,,,,,,,,SPECI,178.0
KOCW 211435Z AUTO 30006KT 10SM -RA BKN009 OVC016 04/02 A2963 RMK AO2 T00350019,KOCW,2018-03-21T14:35:00Z,35.57,-77.05,3.5,1.9,300,6,,10.0,29.630905,,,TRUE,TRUE,,,,,,-RA,BKN,900,OVC,1600,,,,,IFR,,,,,,,,,,,,SPECI,12.0
KO69 211435Z AUTO 11004KT 2SM BR BKN013 BKN020 OVC026 12/12 A2980 RMK A01,KO69,2018-03-21T14:35:00Z,38.25,-122.6,12.0,12.0,110,4,,2.0,29.799213,,,TRUE,TRUE,,,,,,BR,BKN,1300,BKN,2000,OVC,2600,,,IFR,,,,,,,,,,,,SPECI,28.0
KN38 211435Z AUTO 01012KT 10SM OVC100 M03/M11 A2968 RMK AO2,KN38,2018-03-21T14:35:00Z,41.73,-77.4,-3.0,-11.0,10,12,,10.0,29.681103,,,TRUE,TRUE,,,,,,,OVC,10000,,,,,,,VFR,,,,,,,,,,,,SPECI,577.0
K28J 211435Z AUTO 31014G28KT 10SM CLR 15/03 A2996 RMK AO2,K28J,2018-03-21T14:35:00Z,29.65,-81.58,15.0,3.0,310,14,28,10.0,29.958662,,,TRUE,TRUE,,,,,,,CLR,,,,,,,,VFR,,,,,,,,,,,,METAR,15.0
KLVN 211435Z AUTO 00000KT 10SM M04/M06 A3016 RMK AO2,KLVN,2018-03-21T14:35:00Z,44.63,-93.23,-4.0,-6.0,0,0,,10.0,30.159449,,,TRUE,TRUE,,,,,,,,,,,,,,,,,,,,,,,,,,,METAR,293.0
KCVH 211435Z AUTO 15008KT 10SM OVC038 15/12 A2984 RMK A01,KCVH,2018-03-21T14:35:00Z,36.9,-121.42,15.0,12.0,150,8,,10.0,29.840551,,,TRUE,TRUE,,,,,,,OVC,3800,,,,,,,VFR,,,,,,,,,,,,SPECI,70.0
KSIF 211435Z AUTO 00000KT 1 1/4SM -SN OVC005 00/M01 A2968 RMK AO2 P0001 T00001006,KSIF,2018-03-21T14:35:00Z,36.43,-79.85,0.0,-0.6,0,0,,1.25,29.681103,,,TRUE,TRUE,,,,,,-SN,OVC,500,,,,,,,IFR,,,,,,0.01,,,,,,METAR,211.0
KSFY 211435Z AUTO 01010KT 10SM CLR M01/M08 A3013 RMK AO2 T10081083,KSFY,2018-03-21T14:35:00Z,42.05,-90.12,-0.8,-8.3,10,10,,10.0,30.129921,,,TRUE,TRUE,,,,,,,CLR,,,,,,,,VFR,,,,,,,,,,,,METAR,188.0
KSFQ 211435Z AUTO 31008KT 5SM BR OVC007 03/02 A2960 RMK AO2 T00270024,KSFQ,2018-03-21T14:35:00Z,36.68,-76.6,2.7,2.4,310,8,,5.0,29.601377,,,TRUE,TRUE,,,,,,BR,OVC,700,,,,,,,IFR,,,,,,,,,,,,METAR,22.0
KSEZ 211435Z AUTO 00000KT 10SM CLR 10/M07 A3007 RMK AO2,KSEZ,2018-03-21T14:35:00Z,34.85,-111.78,10.0,-7.0,0,0,,10.0,30.070866,,,TRUE,TRUE,,,,,,,CLR,,,,,,,,VFR,,,,,,,,,,,,SPECI,1473.0
KSCR 211435Z AUTO 32003KT 10SM -SN BKN007 OVC011 01/00 A2967 RMK AO2 T00100002,KSCR,2018-03-21T14:35:00Z,35.7,-79.5,1.0,0.2,320,3,,10.0,29.66929,,,TRUE,TRUE,,,,,,-SN,BKN,700,OVC,1100,,,,,IFR,,,,,,,,,,,,METAR,188.0
KSBO 211435Z AUTO 29013G22KT 10SM SCT035 09/01 A2987 RMK AO2,KSBO,2018-03-21T14:35:00Z,32.62,-82.37,9.0,1.0,290,13,22,10.0,29.870079,,,TRUE,TRUE,,,,,,,SCT,3500,,,,,,,VFR,,,,,,,,,,,,METAR,100.0
KRZN 211435Z AUTO 00000KT CLR M05/M08 A3017 RMK AO2 T10521080 PWINO,KRZN,2018-03-21T14:35:00Z,45.82,-92.37,-5.2,-8.0,0,0,,,30.171259,,,TRUE,TRUE,,,,,TRUE,,CLR,,,,,,,,,,,,,,,,,,,,METAR,301.0
KRWV 211435Z AUTO 18003KT 10SM CLR 12/06 A3022 RMK AO2 T01240059,KRWV,2018-03-21T14:35:00Z,30.52,-96.7,12.4,5.9,180,3,,10.0,30.221457,,,TRUE,TRUE,,,,,,,CLR,,,,,,,,VFR,,,,,,,,,,,,METAR,119.0
KRPJ 211435Z AUTO 02010KT 10SM CLR M01/M06 A3009 RMK AO2 T10061062,KRPJ,2018-03-21T14:35:00Z,41.88,-89.08,-0.6,-6.2,20,10,,10.0,30.088583,,,TRUE,TRUE,,,,,,,CLR,,,,,,,,VFR,,,,,,,,,,,,METAR,238.0
KRPH 211435Z AUTO 14005KT 14/M01 A3018 RMK AO2 T01371015 PWINO,KRPH,2018-03-21T14:35:00Z,33.12,-98.55,13.7,-1.5,140,5,,,30.180119,,,TRUE,TRUE,,,,,TRUE,,,,,,,,,,,,,,,,,,,,,,SPECI,342.0
KRNH 211435Z AUTO 00000KT 10SM OVC050 M05/M08 A3016 RMK AO2 T10511084,KRNH,2018-03-21T14:35:00Z,45.15,-92.53,-5.1,-8.4,0,0,,10.0,30.159449,,,TRUE,TRUE,,,,,,,OVC,5000,,,,,,,VFR,,,,,,,,,,,,METAR,304.0
KRKR 211435Z AUTO 00000KT 10SM CLR 07/01 A3022 RMK AO2,KRKR,2018-03-21T14:35:00Z,35.02,-94.62,7.0,1.0,0,0,,10.0,30.221457,,,TRUE,TRUE,,,,,,,CLR,,,,,,,,VFR,,,,,,,,,,,,METAR,138.0
KRCZ 211435Z AUTO 32007KT 10SM OVC009 03/03 A2968 RMK AO2 T00320032,KRCZ,2018-03-21T14:35:00Z,34.88,-79.77,3.2,3.2,320,7,,10.0,29.681103,,,TRUE,TRUE,,,,,,,OVC,900,,,,,,,IFR,,,,,,,,,,,,METAR,109.0
KRBO 211435Z AUTO 07004KT 10SM CLR 19/11 A3017 RMK AO2 T01850111,KRBO,2018-03-21T14:35:00Z,27.78,-97.68,18.5,11.1,70,4,,10.0,30.171259,,,TRUE,TRUE,,,,,,,CLR,,,,,,,,VFR,,,,,,,,,,,,SPECI,24.0
KPVW 211435Z AUTO 16009KT 10SM CLR 07/M05 A3008 RMK AO2 T00681050,KPVW,2018-03-21T14:35:00Z,34.17,-101.72,6.8,-5.0,160,9,,10.0,30.079725,,,TRUE,TRUE,,,,,,,CLR,,,,,,,,VFR,,,,,,,,,,,,METAR,1028.0
KPVB 211435Z AUTO 36010KT 10SM CLR M01/M08 A3013 RMK AO1 T10121079,KPVB,2018-03-21T14:35:00Z,42.68,-90.43,-1.2,-7.9,360,10,,10.0,30.129921,,,TRUE,TRUE,,,,,,,CLR,,,,,,,,VFR,,,,,,,,,,,,METAR,313.0
KPTT 211435Z AUTO 30003KT 10SM CLR 04/01 A3019 RMK AO2 T00350008,KPTT,2018-03-21T14:35:00Z,37.7,-98.75,3.5,0.8,300,3,,10.0,30.188976,,,TRUE,TRUE,,,,,,,CLR,,,,,,,,VFR,,,,,,,,,,,,METAR,595.0
KPRG 211435Z AUTO 34013G20KT 10SM SCT024 00/M04 A3000 RMK AO2 T00011045,KPRG,2018-03-21T14:35:00Z,39.7,-87.67,0.1,-4.5,340,13,20,10.0,30.0,,,TRUE,TRUE,,,,,,,SCT,2400,,,,,,,VFR,,,,,,,,,,,,METAR,199.0
KPOY 211435Z AUTO 17008KT 10SM CLR 00/M08 A2991 RMK AO2,KPOY,2018-03-21T14:35:00Z,44.87,-108.8,0.0,-8.0,170,8,,10.0,29.911417,,,TRUE,TRUE,,,,,,,CLR,,,,,,,,VFR,,,,,,,,,,,,METAR,1552.0
KPNT 211435Z AUTO 36014G20KT 10SM CLR 01/M04 A3006 RMK AO2 T00101040,KPNT,2018-03-21T14:35:00Z,40.92,-88.62,1.0,-4.0,360,14,20,10.0,30.059055,,,TRUE,TRUE,,,,,,,CLR,,,,,,,,VFR,,,,,,,,,,,,SPECI,201.0
KPNA 211435Z AUTO 28003KT 10SM OVC060 M02/M05 A3001 RMK AO2,KPNA,2018-03-21T14:35:00Z,42.8,-109.8,-2.0,-5.0,280,3,,10.0,30.008858,,,TRUE,TRUE,,,,,,,OVC,6000,,,,,,,VFR,,,,,,,,,,,,SPECI,2160.0
KPLU 211435Z AUTO 00000KT 5SM BR CLR M01/M01 A2975 RMK AO2,KPLU,2018-03-21T14:35:00Z,47.1,-122.28,-1.0,-1.0,0,0,,5.0,29.749016,,,TRUE,TRUE,,,,,,BR,CLR,,,,,,,,MVFR,,,,,,,,,,,,SPECI,164.0
KPIM 211435Z AUTO 32011G21KT 10SM OVC024 06/01 A2995 RMK AO2 T00600005 PWINO,KPIM,2018-03-21T14:35:00Z,32.83,-84.88,6.0,0.5,320,11,21,10.0,29.949802,,,TRUE,TRUE,,,,,TRUE,,OVC,2400,,,,,,,MVFR,,,,,,,,,,,,SPECI,275.0
KPGV 211435Z AUTO 32004KT 10SM OVC011 03/01 A2967 RMK AO2,KPGV,2018-03-21T14:35:00Z,35.62,-77.4,3.0,1.0,320,4,,10.0,29.66929,,,TRUE,TRUE,,,,,,,OVC,1100,,,,,,,MVFR,,,,,,,,,,,,SPECI,8.0
KPEQ 211435Z AUTO 32005KT 10SM CLR 08/M07 A3006 RMK AO2 T00781066,KPEQ,2018-03-21T14:35:00Z,31.38,-103.52,7.8,-6.6,320,5,,10.0,30.059055,,,TRUE,TRUE,,,,,,,CLR,,,,,,,,VFR,,,,,,,,,,,,METAR,797.0
KPDC 211435Z AUTO 00000KT 10SM CLR M01/M11 A3016 RMK AO2 T10081107,KPDC,2018-03-21T14:35:00Z,43.02,-91.12,-0.8,-10.7,0,0,,10.0,30.159449,,,TRUE,TRUE,,,,,,,CLR,,,,,,,,VFR,,,,,,,,,,,,SPECI,201.0
KOPL 211435Z AUTO 33003KT 10SM CLR 13/06 A3019 RMK AO2 T01250063,KOPL,2018-03-21T14:35:00Z,30.55,-92.1,12.5,6.3,330,3,,10.0,30.188976,,,TRUE,TRUE,,,,,,,CLR,,,,,,,,VFR,,,,,,,,,,,,SPECI,23.0
KO54 211435Z AUTO 00000KT 5SM BKN003 OVC024 05/05 A2981 RMK AO1,KO54,2018-03-21T14:35:00Z,40.75,-122.92,5.0,5.0,0,0,,5.0,29.811024,,,TRUE,TRUE,,,,,,,BKN,300,OVC,2400,,,,,LIFR,,,,,,,,,,,,SPECI,717.0
KNOW 211435Z AUTO 00000KT 10SM SCT012 OVC110 06/04 A2976 RMK AO2 T00560035,KNOW,2018-03-21T14:35:00Z,48.13,-123.4,5.6,3.5,0,0,,10.0,29.760826,,,TRUE,TRUE,,,,,,,SCT,1200,OVC,11000,,,,,VFR,,,,,,,,,,,,METAR,4.0
KMYZ 211435Z AUTO 00000KT 10SM CLR 01/00 A3021 RMK AO2,KMYZ,2018-03-21T14:35:00Z,39.85,-96.63,1.0,0.0,0,0,,10.0,30.209646,,,TRUE,TRUE,,,,,,,CLR,,,,,,,,VFR,,,,,,,,,,,,SPECI,319.0
KMWK 211435Z AUTO 16003KT 5SM -SN BKN005 OVC012 01/00 A2966 RMK AO2 T00131005,KMWK,2018-03-21T14:35:00Z,36.47,-80.55,1.3,-0.5,160,3,,5.0,29.660433,,,TRUE,TRUE,,,,,,-SN,BKN,500,OVC,1200,,,,,IFR,,,,,,,,,,,,SPECI,380.0
KMTV 211435Z AUTO 00000KT 2SM -SN OVC006 00/M01 A2968 RMK AO2 T10041015,KMTV,2018-03-21T14:35:00Z,36.63,-80.02,-0.4,-1.5,0,0,,2.0,29.681103,,,TRUE,TRUE,,,,,,-SN,OVC,600,,,,,,,IFR,,,,,,,,,,,,SPECI,287.0
KMRN 211435Z AUTO 28009G15KT 10SM OVC048 05/M03 A2970 RMK AO2 T00451028,KMRN,2018-03-21T14:35:00Z,35.82,-81.62,4.5,-2.8,280,9,15,10.0,29.698818,,,TRUE,TRUE,,,,,,,OVC,4800,,,,,,,VFR,,,,,,,,,,,,SPECI,387.0
KMQI 211435Z AUTO 30008G14KT 10SM OVC007 04/03 A2958 RMK AO2 T00420034,KMQI,2018-03-21T14:35:00Z,35.92,-75.7,4.2,3.4,300,8,14,10.0,29.58071,,,TRUE,TRUE,,,,,,,OVC,700,,,,,,,IFR,,,,,,,,,,,,SPECI,4.0
KEDE 211435Z AUTO 32008KT 10SM OVC009 04/03 A2962 RMK AO2 T00400026,KEDE,2018-03-21T14:35:00Z,36.02,-76.57,4.0,2.6,320,8,,10.0,29.619095,,,TRUE,TRUE,,,,,,,OVC,900,,,,,,,IFR,,,,,,,,,,,,SPECI,6.0
KEAN 211435Z AUTO 24004KT 10SM CLR 06/M03 A3000 RMK AO2 T00581029,KEAN,2018-03-21T14:35:00Z,42.05,-104.93,5.8,-2.9,240,4,,10.0,30.0,,,TRUE,TRUE,,,,,,,CLR,,,,,,,,VFR,,,,,,,,,,,,METAR,1456.0
KDTA 211435Z AUTO 17005KT 10SM BKN050 OVC060 07/M04 A2998 RMK AO1,KDTA,2018-03-21T14:35:00Z,39.38,-112.5,7.0,-4.0,170,5,,10.0,29.97933,,,TRUE,TRUE,,,,,,,BKN,5000,OVC,6000,,,,,VFR,,,,,,,,,,,,METAR,1402.0
KDPL 211435Z AUTO 33007KT 10SM OVC009 03/02 A2966 RMK AO2,KDPL,2018-03-21T14:35:00Z,35.0,-77.97,3.0,2.0,330,7,,10.0,29.660433,,,TRUE,TRUE,,,,,,,OVC,900,,,,,,,IFR,,,,,,,,,,,,SPECI,42.0
KDKR 211435Z AUTO 06003KT 10SM CLR 14/04 A3022 RMK AO2,KDKR,2018-03-21T14:35:00Z,31.3,-95.4,14.0,4.0,60,3,,10.0,30.221457,,,TRUE,TRUE,,,,,,,CLR,,,,,,,,VFR,,,,,,,,,,,,METAR,106.0
KD25 211435Z AUTO 00000KT 10SM SCT100 M06/M12 A3013 RMK AO2 T10611119,KD25,2018-03-21T14:35:00Z,46.12,-89.88,-6.1,-11.9,0,0,,10.0,30.129921,,,TRUE,TRUE,,,,,,,SCT,10000,,,,,,,VFR,,,,,,,,,,,,SPECI,491.0
KCVB 211435Z AUTO 12006KT 10SM CLR 15/02 A3020 RMK AO2 T01460022,KCVB,2018-03-21T14:35:00Z,29.35,-98.85,14.6,2.2,120,6,,10.0,30.200787,,,TRUE,TRUE,,,,,,,CLR,,,,,,,,VFR,,,,,,,,,,,,METAR,235.0
KCUH 211435Z AUTO 08003KT 10SM CLR 06/01 A3022 RMK AO2 T00590009,KCUH,2018-03-21T14:35:00Z,35.95,-96.77,5.9,0.9,80,3,,10.0,30.221457,,,TRUE,TRUE,,,,,,,CLR,,,,,,,,VFR,,,,,,,,,,,,SPECI,279.0
KCTZ 211435Z AUTO 34004KT 5SM OVC009 04/04 A2967 RMK AO2 T00370036,KCTZ,2018-03-21T14:35:00Z,34.98,-78.37,3.7,3.6,340,4,,5.0,29.66929,,,TRUE,TRUE,,,,,,,OVC,900,,,,,,,IFR,,,,,,,,,,,,SPECI,45.0
KCQM 211435Z AUTO 14006KT 10SM M06/M11 A3016 RMK AO2,KCQM,2018-03-21T14:35:00Z,47.82,-92.68,-6.0,-11.0,140,6,,10.0,30.159449,,,TRUE,TRUE,,,,,,,,,,,,,,,,,,,,,,,,,,,SPECI,404.0
KCPK 211435Z AUTO 30008KT 10SM OVC006 03/02 A2958 RMK AO2 T00270015,KCPK,2018-03-21T14:35:00Z,36.67,-76.32,2.7,1.5,300,8,,10.0,29.58071,,,TRUE,TRUE,,,,,,,OVC,600,,,,,,,IFR,,,,,,,,,,,,SPECI,6.0
KCPC 211435Z AUTO 00000KT 4SM BR SCT006 BKN013 OVC020 07/05 A2965 RMK AO2 T00660053,KCPC,2018-03-21T14:35:00Z,34.28,-78.72,6.6,5.3,0,0,,4.0,29.648623,,,TRUE,TRUE,,,,,,BR,SCT,600,BKN,1300,OVC,2000,,,MVFR,,,,,,,,,,,,SPECI,29.0
KCKZ 211435Z AUTO 04009G14KT 1/2SM SN BKN003 M02/M02 A2964 RMK AO2,KCKZ,2018-03-21T14:35:00Z,40.38,-75.28,-2.0,-2.0,40,9,14,0.5,29.639763,,,TRUE,TRUE,,,,,,SN,BKN,300,,,,,,,LIFR,,,,,,,,,,,,SPECI,173.0
KCCO 211435Z AUTO 31013G20KT 10SM OVC024 05/M02 A2992 RMK AO2 T00501020,KCCO,2018-03-21T14:35:00Z,33.32,-84.77,5.0,-2.0,310,13,20,10.0,29.920275,,,TRUE,TRUE,,,,,,,OVC,2400,,,,,,,MVFR,,,,,,,,,,,,SPECI,296.0
KC75 211435Z AUTO 01007KT 10SM CLR 00/M05 A3009 RMK AO2 T00001053,KC75,2018-03-21T14:35:00Z,41.02,-89.38,0.0,-5.3,10,7,,10.0,30.088583,,,TRUE,TRUE,,,,,,,CLR,,,,,,,,VFR,,,,,,,,,,,,SPECI,173.0
KBYL 211435Z AUTO 29006G15KT 2 1/2SM BKN015 OVC023 00/00 A2980 RMK AO1 P0001,KBYL,2018-03-21T14:35:00Z,36.8,-84.2,0.0,0.0,290,6,15,2.5,29.799213,,,TRUE,TRUE,,,,,,,BKN,1500,OVC,2300,,,,,IFR,,,,,,0.01,,,,,,SPECI,359.0
KBXK 211435Z AUTO 00000KT 6SM CLR 12/M05 A2996 RMK AO1,KBXK,2018-03-21T14:35:00Z,33.42,-112.68,12.0,-5.0,0,0,,6.0,29.958662,,,TRUE,TRUE,,,,,,,CLR,,,,,,,,VFR,,,,,,,,,,,,SPECI,315.0
KBWD 211435Z AUTO 16007KT 10SM CLR 13/00 A3019 RMK AO2,KBWD,2018-03-21T14:35:00Z,31.8,-98.95,13.0,0.0,160,7,,10.0,30.188976,,,TRUE,TRUE,,,,,,,CLR,,,,,,,,VFR,,,,,,,,,,,,SPECI,423.0
KBKD 211435Z AUTO 17004KT 10SM CLR 13/M01 A3019 RMK AO2 T01261013,KBKD,2018-03-21T14:35:00Z,32.72,-98.88,12.6,-1.3,170,4,,10.0,30.188976,,,TRUE,TRUE,,,,,,,CLR,,,,,,,,VFR,,,,,,,,,,,,METAR,392.0
KASJ 211435Z AUTO 00000KT 10SM DZ BKN008 OVC014 01/01 A2963 RMK AO2 T00120009,KASJ,2018-03-21T14:35:00Z,36.28,-77.17,1.2,0.9,0,0,,10.0,29.630905,,,TRUE,TRUE,,,,,,DZ,BKN,800,OVC,1400,,,,,IFR,,,,,,,,,,,,SPECI,21.0
KARV 211435Z AUTO 13003KT 10SM BKN100 M05/M10 A3012 RMK AO2 T10501104,KARV,2018-03-21T14:35:00Z,45.92,-89.72,-5.0,-10.4,130,3,,10.0,30.121063,,,TRUE,TRUE,,,,,,,BKN,10000,,,,,,,VFR,,,,,,,,,,,,SPECI,496.0
KAPY 211435Z AUTO 11009G15KT 10SM CLR 19/13 A3013 RMK AO2 T01930135,KAPY,2018-03-21T14:35:00Z,26.97,-99.25,19.3,13.5,110,9,15,10.0,30.129921,,,TRUE,TRUE,,,,,,,CLR,,,,,,,,VFR,,,,,,,,,,,,METAR,129.0
KAIG 211435Z AUTO 04005KT 10SM CLR M07/M11 A3011 RMK AO2 T10681107,KAIG,2018-03-21T14:35:00Z,45.15,-89.12,-6.8,-10.7,40,5,,10.0,30.109253,,,TRUE,TRUE,,,,,,,CLR,,,,,,,,VFR,,,,,,,,,,,,SPECI,464.0
KAFP 211435Z AUTO 00000KT 10SM OVC007 04/02 A2969 RMK AO2 T00380023,KAFP,2018-03-21T14:35:00Z,35.02,-80.08,3.8,2.3,0,0,,10.0,29.68996,,,TRUE,TRUE,,,,,,,OVC,700,,,,,,,IFR,,,,,,,,,,,,SPECI,92.0
KAAA 211435Z AUTO 34008KT 310V010 10SM CLR 01/M04 A3008 RMK AO2 T00141039,KAAA,2018-03-21T14:35:00Z,40.17,-89.33,1.4,-3.9,340,8,,10.0,30.079725,,,TRUE,TRUE,,,,,,,CLR,,,,,,,,VFR,,,,,,,,,,,,SPECI,182.0
K8A0 211435Z AUTO 32014G23KT 10SM CLR 04/00 A2996 RMK AO2,K8A0,2018-03-21T14:35:00Z,34.23,-86.25,4.0,0.0,320,14,23,10.0,29.958662,,,TRUE,TRUE,,,,,,,CLR,,,,,,,,VFR,,,,,,,,,,,,SPECI,315.0
K82C 211435Z AUTO 00000KT 10SM CLR M02/M08 A3014 RMK AO2 T10241084,K82C,2018-03-21T14:35:00Z,43.83,-90.13,-2.4,-8.4,0,0,,10.0,30.138779,,,TRUE,TRUE,,,,,,,CLR,,,,,,,,VFR,,,,,,,,,,,,SPECI,276.0
K7W6 211435Z AUTO 28009KT 10SM OVC008 05/04 A2959 RMK AO2 T00450035,K7W6,2018-03-21T14:35:00Z,35.55,-75.95,4.5,3.5,280,9,,10.0,29.589567,,,TRUE,TRUE,,,,,,,OVC,800,,,,,,,IFR,,,,,,,,,,,,SPECI,2.0
K6R3 211435Z AUTO 00000KT 7SM CLR 15/04 A3020 RMK AO2 T01480041,K6R3,2018-03-21T14:35:00Z,30.35,-95.0,14.8,4.1,0,0,,7.0,30.200787,,,TRUE,TRUE,,,,,,,CLR,,,,,,,,VFR,,,,,,,,,,,,METAR,46.0
K5M9 211435Z AUTO 32009G21KT 290V350 10SM SCT031 02/M04 A3001 RMK AO2 T00201039,K5M9,2018-03-21T14:35:00Z,37.33,-88.12,2.0,-3.9,320,9,21,10.0,30.008858,,,TRUE,TRUE,,,,,,,SCT,3100,,,,,,,VFR,,,,,,,,,,,,SPECI,199.0
K57C 211435Z AUTO 36011G15KT 10SM CLR M02/M07 A3008 RMK AO2 T10171075,K57C,2018-03-21T14:35:00Z,42.8,-88.37,-1.7,-7.5,360,11,15,10.0,30.079725,,,TRUE,TRUE,,,,,,,CLR,,,,,,,,VFR,,,,,,,,,,,,METAR,262.0
K3N8 211435Z AUTO 15006KT 2SM -SN SCT006 BKN022 OVC029 M02/M03 A3009 RMK AO2 T10211032,K3N8,2018-03-21T14:35:00Z,47.25,-95.88,-2.1,-3.2,150,6,,2.0,30.088583,,,TRUE,TRUE,,,,,,-SN,SCT,600,BKN,2200,OVC,2900,,,IFR,,,,,,,,,,,,METAR,383.0
K21D 211435Z AUTO 00000KT 10SM OVC060 M03/M06 A3017 RMK AO2,K21D,2018-03-21T14:35:00Z,45.0,-92.85,-3.0,-6.0,0,0,,10.0,30.171259,,,TRUE,TRUE,,,,,,,OVC,6000,,,,,,,VFR,,,,,,,,,,,,SPECI,285.0
K17J 211435Z AUTO 32009G15KT 10SM CLR 11/02 A3003 RMK AO2 T01130017,K17J,2018-03-21T14:35:00Z,31.07,-84.92,11.3,1.7,320,9,15,10.0,30.029528,,,TRUE,TRUE,,,,,,,CLR,,,,,,,,VFR,,,,,,,,,,,,SPECI,45.0
K11R 211435Z AUTO 00000KT 10SM CLR 13/06 A3022 RMK AO2 T01340064,K11R,2018-03-21T14:35:00Z,30.22,-96.37,13.4,6.4,0,0,,10.0,30.221457,,,TRUE,TRUE,,,,,,,CLR,,,,,,,,VFR,,,,,,,,,,,,METAR,94.0
K0V4 211435Z AUTO 35004KT 5SM BKN010 BKN016 OVC034 01/00 A2965 RMK AO1 T00060003,K0V4,2018-03-21T14:35:00Z,37.15,-79.02,0.6,0.3,350,4,,5.0,29.648623,,,TRUE,TRUE,,,,,,,BKN,1000,BKN,1600,OVC,3400,,,MVFR,,,,,,,,,,,,SPECI,182.0
KMKJ 211435Z AUTO 27010KT 3SM -SN OVC009 00/M02 A2962 RMK AO2 T10011023,KMKJ,2018-03-21T14:35:00Z,36.88,-81.33,-0.1,-2.3,270,10,,3.0,29.619095,,,TRUE,TRUE,,,,,,-SN,OVC,900,,,,,,,IFR,,,,,,,,,,,,SPECI,780.0
KMGR 211435Z AUTO 28012G19KT 10SM CLR 11/01 A2999 RMK AO2,KMGR,2018-03-21T14:35:00Z,31.08,-83.8,11.0,1.0,280,12,19,10.0,29.991142,,,TRUE,TRUE,,,,,,,CLR,,,,,,,,VFR,,,,,,,,,,,,SPECI,90.0
KMDD 211435Z AUTO 17010KT 10SM 13/M03 A3008 RMK AO2 T01271032,KMDD,2018-03-21T14:35:00Z,32.03,-102.1,12.7,-3.2,170,10,,10.0,30.079725,,,TRUE,TRUE,,,,,,,,,,,,,,,,,,,,,,,,,,,METAR,854.0
KM30 211435Z AUTO 32014G19KT 10SM CLR 04/M03 A3006 RMK AO2 T00411034,KM30,2018-03-21T14:35:00Z,37.18,-88.75,4.1,-3.4,320,14,19,10.0,30.059055,,,TRUE,TRUE,,,,,,,CLR,,,,,,,,VFR,,,,,,,,,,,,SPECI,117.0
KLWB 211435Z AUTO 00000KT 1/2SM SN OVC004 M01/M01 A2959 RMK AO2 P0010 T10071013,KLWB,2018-03-21T14:35:00Z,37.87,-80.4,-0.7,-1.3,0,0,,0.5,29.589567,,,TRUE,TRUE,,,,,,SN,OVC,400,,,,,,,LIFR,,,,,,0.1,,,,,,SPECI,702.0
KLNC 211435Z AUTO 00000KT 10SM CLR 12/02 A3023 RMK AO2 T01230021,KLNC,2018-03-21T14:35:00Z,32.58,-96.72,12.3,2.1,0,0,,10.0,30.230314,,,TRUE,TRUE,,,,,,,CLR,,,,,,,,VFR,,,,,,,,,,,,METAR,153.0
KLGC 211435Z AUTO 32013G16KT 10SM BKN024 OVC034 06/01 A2996 RMK AO2 T00630010,KLGC,2018-03-21T14:35:00Z,33.0,-85.07,6.3,1.0,320,13,16,10.0,29.958662,,,TRUE,TRUE,,,,,,,BKN,2400,OVC,3400,,,,,MVFR,,,,,,,,,,,,SPECI,211.0
KLCK 211435Z AUTO 01010KT 4SM -SN SCT007 OVC012 00/M01 A2973 RMK AO2 T10051011,KLCK,2018-03-21T14:35:00Z,39.82,-82.92,-0.5,-1.1,10,10,,4.0,29.731298,,,TRUE,TRUE,,,,,,-SN,SCT,700,OVC,1200,,,,,MVFR,,,,,,,,,,,,SPECI,227.0
KJZP 211435Z AUTO 30015G26KT 10SM BKN023 OVC027 02/M02 A2987 RMK AO2 T00221016 PNO,KJZP,2018-03-21T14:35:00Z,34.45,-84.47,2.2,-1.6,300,15,26,10.0,29.870079,,,TRUE,TRUE,,,,,,,BKN,2300,OVC,2700,,,,,MVFR,,,,,,,,,,,,SPECI,468.0
KINF 211435Z AUTO 32008G19KT 270V340 10SM CLR 16/03 A3001 RMK AO2,KINF,2018-03-21T14:35:00Z,28.8,-82.32,16.0,3.0,320,8,19,10.0,30.008858,,,TRUE,TRUE,,,,,,,CLR,,,,,,,,VFR,,,,,,,,,,,,METAR,15.0
KHTO 211435Z AUTO 05012G18KT 4SM -SN SCT008 BKN014 OVC019 01/00 A2968 RMK AO2 P0001 T00101003,KHTO,2018-03-21T14:35:00Z,40.95,-72.25,1.0,-0.3,50,12,18,4.0,29.681103,,,TRUE,TRUE,,,,,,-SN,SCT,800,BKN,1400,OVC,1900,,,MVFR,,,,,,0.01,,,,,,METAR,17.0
KHRJ 211435Z AUTO 33004KT 10SM SCT007 BKN012 OVC060 03/01 A2967 RMK AO2 T00260006,KHRJ,2018-03-21T14:35:00Z,35.38,-78.73,2.6,0.6,330,4,,10.0,29.66929,,,TRUE,TRUE,,,,,,,SCT,700,BKN,1200,OVC,6000,,,MVFR,,,,,,,,,,,,METAR,60.0
KHQG 211435Z AUTO 00000KT 10SM CLR 05/M05 A3015 RMK AO2 T00471048,KHQG,2018-03-21T14:35:00Z,37.17,-101.37,4.7,-4.8,0,0,,10.0,30.15059,,,TRUE,TRUE,,,,,,,CLR,,,,,,,,VFR,,,,,,,,,,,,METAR,956.0
KHQG 211435Z AUTO 00000KT 10SM CLR 05/M05 A3015 RMK AO2 T00471048,KHQG,2018-03-21T14:35:00Z,37.17,-101.37,4.7,-4.8,0,0,,10.0,30.15059,,,TRUE,TRUE,,,,,,,CLR,,,,,,,,VFR,,,,,,,,,,,,METAR,956.0
KHNZ 211435Z AUTO 00000KT 4SM -SN OVC009 M01/M02 A2965 RMK AO2 T10111022,KHNZ,2018-03-21T14:35:00Z,36.37,-78.53,-1.1,-2.2,0,0,,4.0,29.648623,,,TRUE,TRUE,,,,,,-SN,OVC,900,,,,,,,IFR,,,,,,,,,,,,METAR,161.0
KHHW 211435Z AUTO 36005KT 10SM CLR 11/01 A3021 RMK AO2 T01090013,KHHW,2018-03-21T14:35:00Z,34.03,-95.55,10.9,1.3,360,5,,10.0,30.209646,,,TRUE,TRUE,,,,,,,CLR,,,,,,,,VFR,,,,,,,,,,,,METAR,144.0
KHHG 211435Z AUTO 02010G16KT 10SM SCT026 BKN031 OVC050 M01/M06 A2992 RMK AO2 T10111065,KHHG,2018-03-21T14:35:00Z,40.85,-85.45,-1.1,-6.5,20,10,16,10.0,29.920275,,,TRUE,TRUE,,,,,,,SCT,2600,BKN,3100,OVC,5000,,,VFR,,,,,,,,,,,,METAR,246.0
KHBI 211435Z AUTO 00000KT 3SM -SN OVC004 01/01 A2969 RMK AO2 P0001 T00050005,KHBI,2018-03-21T14:35:00Z,35.65,-79.9,0.5,0.5,0,0,,3.0,29.68996,,,TRUE,TRUE,,,,,,-SN,OVC,400,,,,,,,LIFR,,,,,,0.01,,,,,,METAR,205.0
KGGP 211435Z AUTO 36013G19KT 10SM SCT100 M01/M06 A2996 RMK AO2,KGGP,2018-03-21T14:35:00Z,40.72,-86.37,-1.0,-6.0,360,13,19,10.0,29.958662,,,TRUE,TRUE,,,,,,,SCT,10000,,,,,,,VFR,,,,,,,,,,,,METAR,225.0
KGBG 211435Z AUTO 36009KT 10SM SCT021 02/M03 A3012 RMK AO2 T00221033,KGBG,2018-03-21T14:35:00Z,40.93,-90.43,2.2,-3.3,360,9,,10.0,30.121063,,,TRUE,TRUE,,,,,,,SCT,2100,,,,,,,VFR,,,,,,,,,,,,METAR,233.0
KFZG 211435Z AUTO 30015G23KT 10SM CLR 11/01 A2996 RMK AO2 T01070012,KFZG,2018-03-21T14:35:00Z,31.68,-83.27,10.7,1.2,300,15,23,10.0,29.958662,,,TRUE,TRUE,,,,,,,CLR,,,,,,,,VFR,,,,,,,,,,,,METAR,111.0
KFKN 211435Z AUTO 30007KT 7SM DZ OVC006 02/01 A2961 RMK AO2 T00150012,KFKN,2018-03-21T14:35:00Z,36.7,-76.9,1.5,1.2,300,7,,7.0,29.610237,,,TRUE,TRUE,,,,,,DZ,OVC,600,,,,,,,IFR,,,,,,,,,,,,METAR,12.0
KFHB 211435Z AUTO 30020G28KT 10SM CLR 15/01 A2987 RMK AO2 T01470009,KFHB,2018-03-21T14:35:00Z,30.62,-81.47,14.7,0.9,300,20,28,10.0,29.870079,,,TRUE,TRUE,,,,,,,CLR,,,,,,,,VFR,,,,,,,,,,,,METAR,5.0
KFFA 211435Z AUTO 28006KT 7SM OVC007 04/04 A2956 RMK AO2 T00410039,KFFA,2018-03-21T14:35:00Z,36.02,-75.67,4.1,3.9,280,6,,7.0,29.56004,,,TRUE,TRUE,,,,,,,OVC,700,,,,,,,IFR,,,,,,,,,,,,METAR,4.0
KEZF 211435Z AUTO 34006KT 1SM -SN OVC006 00/00 A2965 RMK AO2 T00000000,KEZF,2018-03-21T14:35:00Z,38.27,-77.45,0.0,0.0,340,6,,1.0,29.648623,,,TRUE,TRUE,,,,,,-SN,OVC,600,,,,,,,IFR,,,,,,,,,,,,METAR,26.0
KEXX 211435Z AUTO 00000KT 4SM -RA CLR 01/01 A2967 RMK AO2 P0001 T00100010,KEXX,2018-03-21T14:35:00Z,35.78,-80.3,1.0,1.0,0,0,,4.0,29.66929,,,TRUE,TRUE,,,,,,-RA,CLR,,,,,,,,MVFR,,,,,,0.01,,,,,,METAR,223.0
KEMV 211435Z AUTO 28007KT 7SM OVC008 00/00 A2964 RMK AO2,KEMV,2018-03-21T14:35:00Z,36.68,-77.48,0.0,0.0,280,7,,7.0,29.639763,,,TRUE,TRUE,,,,,,,OVC,800,,,,,,,IFR,,,,,,,,,,,,METAR,39.0
PAAD 211435Z AUTO 25019KT 4SM HZ OVC027 M22/M25 A3069 RMK AO2 T12231250,PAAD,2018-03-21T14:35:00Z,70.13,-146.28,-22.3,-25.0,250,19,,4.0,30.690945,,,TRUE,TRUE,,,,,,HZ,OVC,2700,,,,,,,MVFR,,,,,,,,,,,,METAR,8.0
KY49 211435Z AUTO 11004KT 10SM OVC022 M05/M08 A3012 RMK AO2 T10501076,KY49,2018-03-21T14:35:00Z,47.13,-94.65,-5.0,-7.6,110,4,,10.0,30.121063,,,TRUE,TRUE,,,,,,,OVC,2200,,,,,,,MVFR,,,,,,,,,,,,SPECI,416.0
KY23 211435Z AUTO 00000KT 10SM CLR M04/M09 A3015 RMK AO2 T10371091,KY23,2018-03-21T14:35:00Z,45.3,-91.63,-3.7,-9.1,0,0,,10.0,30.15059,,,TRUE,TRUE,,,,,,,CLR,,,,,,,,VFR,,,,,,,,,,,,METAR,322.0
KXLL 211435Z AUTO 04012G16KT 1 1/2SM -SN OVC008 M01/M02 A2968 RMK AO2,KXLL,2018-03-21T14:35:00Z,40.57,-75.48,-1.0,-2.0,40,12,16,1.5,29.681103,,,TRUE,TRUE,,,,,,-SN,OVC,800,,,,,,,IFR,,,,,,,,,,,,SPECI,122.0
KW81 211435Z AUTO 33006KT 1 3/4SM OVC006 00/00 A2963 RMK AO1 T10051005,KW81,2018-03-21T14:35:00Z,37.18,-78.1,-0.5,-0.5,330,6,,1.75,29.630905,,,TRUE,TRUE,,,,,,,OVC,600,,,,,,,IFR,,,,,,,,,,,,SPECI,129.0
KW63 211435Z AUTO 35004KT 2SM OVC006 00/00 A2965 RMK AO1 VIS 1V3,KW63,2018-03-21T14:35:00Z,36.6,-78.55,0.0,0.0,350,4,,2.0,29.648623,,,TRUE,TRUE,,,,,,,OVC,600,,,,,,,IFR,,,,,,,,,,,,SPECI,129.0
KW22 211435Z AUTO 00000KT 6SM -SN SCT006 SCT013 BKN018 M02/M02 A2960 RMK AO2,KW22,2018-03-21T14:35:00Z,39.0,-80.27,-2.0,-2.0,0,0,,6.0,29.601377,,,TRUE,TRUE,,,,,,-SN,SCT,600,SCT,1300,BKN,1800,,,MVFR,,,,,,,,,,,,SPECI,499.0
KW13 211435Z AUTO 00000KT 1/2SM BKN005 OVC010 M03/M03 A2964 RMK AO1 P0003 T10261030,KW13,2018-03-21T14:35:00Z,38.08,-78.95,-2.6,-3.0,0,0,,0.5,29.639763,,,TRUE,TRUE,,,,,,,BKN,500,OVC,1000,,,,,LIFR,,,,,,0.03,,,,,,SPECI,443.0
KVYS 211435Z AUTO 36013G16KT 10SM CLR 00/M06 A3009 RMK AO2 T10031059,KVYS,2018-03-21T14:35:00Z,41.35,-89.15,-0.3,-5.9,360,13,16,10.0,30.088583,,,TRUE,TRUE,,,,,,,CLR,,,,,,,,VFR,,,,,,,,,,,,SPECI,199.0
KVUJ 211435Z AUTO 00000KT 10SM -RA OVC008 02/01 A2972 RMK AO2 T00210014,KVUJ,2018-03-21T14:35:00Z,35.42,-80.15,2.1,1.4,0,0,,10.0,29.719488,,,TRUE,TRUE,,,,,,-RA,OVC,800,,,,,,,IFR,,,,,,,,,,,,SPECI,186.0
KVER 211435Z AUTO 32008KT 10SM SCT024 04/M02 A3016 RMK AO2 T00421019,KVER,2018-03-21T14:35:00Z,38.95,-92.68,4.2,-1.9,320,8,,10.0,30.159449,,,TRUE,TRUE,,,,,,,SCT,2400,,,,,,,VFR,,,,,,,,,,,,SPECI,218.0
KVDI 211435Z AUTO 29016G23KT 10SM CLR 10/01 A2988 RMK AO2,KVDI,2018-03-21T14:35:00Z,32.2,-82.37,10.0,1.0,290,16,23,10.0,29.878937,,,TRUE,TRUE,,,,,,,CLR,,,,,,,,VFR,,,,,,,,,,,,SPECI,84.0
KUXL 211435Z AUTO 01005KT 10SM CLR 16/05 A3021 RMK AO2 P0007 T01600051,KUXL,2018-03-21T14:35:00Z,30.13,-93.38,16.0,5.1,10,5,,10.0,30.209646,,,TRUE,TRUE,,,,,,,CLR,,,,,,,,VFR,,,,,,0.07,,,,,,SPECI,4.0
KUNU 211435Z AUTO 36010KT 10SM CLR M03/M08 A3012 RMK AO2 T10261083,KUNU,2018-03-21T14:35:00Z,43.42,-88.7,-2.6,-8.3,360,10,,10.0,30.121063,,,TRUE,TRUE,,,,,,,CLR,,,,,,,,VFR,,,,,,,,,,,,SPECI,285.0
KUBE 211435Z AUTO 00000KT 10SM CLR M06/M08 A3014 RMK AO2,KUBE,2018-03-21T14:35:00Z,45.5,-91.98,-6.0,-8.0,0,0,,10.0,30.138779,,,TRUE,TRUE,,,,,,,CLR,,,,,,,,VFR,,,,,,,,,,,,SPECI,379.0
KU68 211435Z AUTO 05007KT 10SM CLR 01/M03 A2996 RMK AO2,KU68,2018-03-21T14:35:00Z,44.92,-108.45,1.0,-3.0,50,7,,10.0,29.958662,,,TRUE,TRUE,,,,,,,CLR,,,,,,,,VFR,,,,,,,,,,,,SPECI,1247.0
KTVI 211435Z AUTO 32016G23KT 10SM CLR 12/00 A3000 RMK AO2,KTVI,2018-03-21T14:35:00Z,30.9,-83.88,12.0,0.0,320,16,23,10.0,30.0,,,TRUE,TRUE,,,,,,,CLR,,,,,,,,VFR,,,,,,,,,,,,SPECI,80.0
KTTA 211435Z AUTO 33006KT 10SM -DZ SCT006 OVC014 02/00 A2967 RMK AO2 T00170000,KTTA,2018-03-21T14:35:00Z,35.58,-79.1,1.7,0.0,330,6,,10.0,29.66929,,,TRUE,TRUE,,,,,,-DZ,SCT,600,OVC,1400,,,,,MVFR,,,,,,,,,,,,SPECI,75.0
KTOC 211435Z AUTO 31009G15KT 10SM SCT036 OVC043 07/M01 A2978 RMK AO2 T00671008,KTOC,2018-03-21T14:35:00Z,34.6,-83.3,6.7,-0.8,310,9,15,10.0,29.778543,,,TRUE,TRUE,,,,,,,SCT,3600,OVC,4300,,,,,VFR,,,,,,,,,,,,SPECI,304.0
KTMK 211435Z AUTO 00000KT 10SM CLR 01/01 A2976 RMK AO2,KTMK,2018-03-21T14:35:00Z,45.42,-123.82,1.0,1.0,0,0,,10.0,29.760826,,,TRUE,TRUE,,,,,,,CLR,,,,,,,,VFR,,,,,,,,,,,,SPECI,11.0
KTKV 211435Z AUTO 00000KT 10SM CLR M05/M11 A3013 RMK AO2 T10521112,KTKV,2018-03-21T14:35:00Z,45.47,-89.82,-5.2,-11.2,0,0,,10.0,30.129921,,,TRUE,TRUE,,,,,,,CLR,,,,,,,,VFR,,,,,,,,,,,,METAR,453.0
KTIP 211435Z AUTO 01014KT 10SM CLR 02/M04 A3002 RMK AO2 T00161037,KTIP,2018-03-21T14:35:00Z,40.28,-88.15,1.6,-3.7,10,14,,10.0,30.02067,,,TRUE,TRUE,,,,,,,CLR,,,,,,,,VFR,,,,,,,,,,,,SPECI,225.0
KTIF 211435Z AUTO 19004KT 10SM CLR 04/00 A3005 RMK AO2 T00390000,KTIF,2018-03-21T14:35:00Z,41.97,-100.57,3.9,0.0,190,4,,10.0,30.050198,,,TRUE,TRUE,,,,,,,CLR,,,,,,,,VFR,,,,,,,,,,,,SPECI,892.0
KTDF 211435Z AUTO 34004KT 7SM -SN OVC009 00/M01 A2968 RMK AO2,KTDF,2018-03-21T14:35:00Z,36.28,-78.98,0.0,-1.0,340,4,,7.0,29.681103,,,TRUE,TRUE,,,,,,-SN,OVC,900,,,,,,,IFR,,,,,,,,,,,,SPECI,186.0
KTAZ 211435Z AUTO 33014KT 10SM CLR 00/M04 A3007 RMK AO2 T00011042,KTAZ,2018-03-21T14:35:00Z,39.53,-89.33,0.1,-4.2,330,14,,10.0,30.070866,,,TRUE,TRUE,,,,,,,CLR,,,,,,,,VFR,,,,,,,,,,,,SPECI,190.0
KT82 211435Z AUTO 00000KT 10SM CLR 11/02 A3018 RMK AO2 T01140016,KT82,2018-03-21T14:35:00Z,30.25,-98.92,11.4,1.6,0,0,,10.0,30.180119,,,TRUE,TRUE,,,,,,,CLR,,,,,,,,VFR,,,,,,,,,,,,METAR,517.0
KT65 211435Z AUTO 13004KT 7SM 20/14 A3014 RMK AO2 T01950137,KT65,2018-03-21T14:35:00Z,26.18,-97.97,19.5,13.7,130,4,,7.0,30.138779,,,TRUE,TRUE,,,,,,,,,,,,,,,,,,,,,,,,,,,METAR,21.0
KT35 211435Z AUTO 00000KT 10SM CLR 12/04 A3022 RMK AO2 T01210036,KT35,2018-03-21T14:35:00Z,30.88,-96.97,12.1,3.6,0,0,,10.0,30.221457,,,TRUE,TRUE,,,,,,,CLR,,,,,,,,VFR,,,,,,,,,,,,METAR,123.0
KT20 211435Z AUTO 00000KT 10SM CLR 14/07 A3019 RMK AO2 T01380073,KT20,2018-03-21T14:35:00Z,29.52,-97.47,13.8,7.3,0,0,,10.0,30.188976,,,TRUE,TRUE,,,,,,,CLR,,,,,,,,VFR,,,,,,,,,,,,SPECI,108.0
KSVH 211435Z AUTO 24005KT 10SM SCT032 BKN047 OVC055 03/01 A2966 RMK AO2 T00250011,KSVH,2018-03-21T14:35:00Z,35.75,-80.95,2.5,1.1,240,5,,10.0,29.660433,,,TRUE,TRUE,,,,,,,SCT,3200,BKN,4700,OVC,5500,,,VFR,,,,,,,,,,,,SPECI,294.0
KSUT 211435Z AUTO 28010KT 10SM SCT029 SCT043 OVC050 12/06 A2963 RMK AO2 T01160064,KSUT,2018-03-21T14:35:00Z,33.93,-78.08,11.6,6.4,280,10,,10.0,29.630905,,,TRUE,TRUE,,,,,,,SCT,2900,SCT,4300,OVC,5000,,,VFR,,,,,,,,,,,,SPECI,8.0
KSTE 211435Z AUTO 05003KT 10SM CLR M04/M12 A3014 RMK AO2 T10451121,KSTE,2018-03-21T14:35:00Z,44.55,-89.53,-4.5,-12.1,50,3,,10.0,30.138779,,,TRUE,TRUE,,,,,,,CLR,,,,,,,,VFR,,,,,,,,,,,,SPECI,338.0
KSOA 211435Z AUTO 17016KT 10SM CLR 14/03 A3017 RMK AO2,KSOA,2018-03-21T14:35:00Z,30.58,-100.65,14.0,3.0,170,16,,10.0,30.171259,,,TRUE,TRUE,,,,,,,CLR,,,,,,,,VFR,,,,,,,,,,,,SPECI,652.0
KSNL 211435Z AUTO 11004KT 10SM CLR 09/01 A3022 RMK AO2 T00860012,KSNL,2018-03-21T14:35:00Z,35.35,-96.95,8.6,1.2,110,4,,10.0,30.221457,,,TRUE,TRUE,,,,,,,CLR,,,,,,,,VFR,,,,,,,,,,,,SPECI,327.0
KSME 211435Z AUTO 34007KT 270V360 1 1/2SM -SN BKN008 OVC013 00/M01 A2985 RMK AO2,KSME,2018-03-21T14:35:00Z,37.05,-84.62,0.0,-1.0,340,7,,1.5,29.84941,,,TRUE,TRUE,,,,,,-SN,BKN,800,OVC,1300,,,,,IFR,,,,,,,,,,,,SPECI,283.0
KSJS 211435Z AUTO 29005KT 10SM -SN OVC011 00/M01 A2971 RMK AO2 T10021010,KSJS,2018-03-21T14:35:00Z,37.75,-82.63,-0.2,-1.0,290,5,,10.0,29.71063,,,TRUE,TRUE,,,,,,-SN,OVC,1100,,,,,,,MVFR,,,,,,,,,,,,SPECI,372.0
KW75 211435Z AUTO 33009KT 4SM OVC004 01/01 A2958 RMK AO1 P0001 T00110010,KW75,2018-03-21T14:35:00Z,37.6,-76.45,1.1,1.0,330,9,,4.0,29.58071,,,TRUE,TRUE,,,,,,,OVC,400,,,,,,,LIFR,,,,,,0.01,,,,,,METAR,9.0
KUNI 211435Z AUTO 01010KT 1 1/2SM -SN OVC009 00/00 A2968 RMK AO2 T00000000,KUNI,2018-03-21T14:35:00Z,39.22,-82.23,0.0,0.0,10,10,,1.5,29.681103,,,TRUE,TRUE,,,,,,-SN,OVC,900,,,,,,,IFR,,,,,,,,,,,,METAR,193.0
KSWW 211435Z AUTO 15017G21KT 10SM CLR 13/M02 A3014 RMK AO2 T01321024,KSWW,2018-03-21T14:35:00Z,32.47,-100.47,13.2,-2.4,150,17,21,10.0,30.138779,,,TRUE,TRUE,,,,,,,CLR,,,,,,,,VFR,,,,,,,,,,,,METAR,727.0
KSLR 211435Z AUTO 00000KT 10SM CLR 12/07 A3024 RMK AO2 T01150068,KSLR,2018-03-21T14:35:00Z,33.17,-95.62,11.5,6.8,0,0,,10.0,30.239174,,,TRUE,TRUE,,,,,,,CLR,,,,,,,,VFR,,,,,,,,,,,,METAR,149.0
KSEP 211435Z AUTO 00000KT 10SM CLR 11/02 A3023 RMK AO2 T01120016,KSEP,2018-03-21T14:35:00Z,32.22,-98.17,11.2,1.6,0,0,,10.0,30.230314,,,TRUE,TRUE,,,,,,,CLR,,,,,,,,VFR,,,,,,,,,,,,METAR,402.0
KS52 211435Z AUTO 00000KT 10SM SCT110 M05/M05 A2982 RMK AO2 T10451052,KS52,2018-03-21T14:35:00Z,48.38,-120.15,-4.5,-5.2,0,0,,10.0,29.819881,,,TRUE,TRUE,,,,,,,SCT,11000,,,,,,,VFR,,,,,,,,,,,,METAR,520.0
KRYW 211435Z AUTO 14005KT 10SM CLR 15/02 A3020 RMK AO2 T01510020,KRYW,2018-03-21T14:35:00Z,30.5,-97.97,15.1,2.0,140,5,,10.0,30.200787,,,TRUE,TRUE,,,,,,,CLR,,,,,,,,VFR,,,,,,,,,,,,METAR,376.0
KRYV 211435Z AUTO 01008KT 10SM CLR M01/M07 A3010 RMK AO2 T10151074,KRYV,2018-03-21T14:35:00Z,43.17,-88.72,-1.5,-7.4,10,8,,10.0,30.100393,,,TRUE,TRUE,,,,,,,CLR,,,,,,,,VFR,,,,,,,,,,,,SPECI,254.0
KRPD 211435Z AUTO 00000KT 10SM CLR M05/M07 A3016 RMK AO2 T10551071,KRPD,2018-03-21T14:35:00Z,45.42,-91.77,-5.5,-7.1,0,0,,10.0,30.159449,,,TRUE,TRUE,,,,,,,CLR,,,,,,,,VFR,,,,,,,,,,,,SPECI,338.0
KRMN 211435Z AUTO 00000KT 1SM -SN OVC008 00/00 A2969 RMK AO2 P0002 T00000000,KRMN,2018-03-21T14:35:00Z,38.4,-77.45,0.0,0.0,0,0,,1.0,29.68996,,,TRUE,TRUE,,,,,,-SN,OVC,800,,,,,,,IFR,,,,,,0.02,,,,,,SPECI,65.0
KRLD 211435Z AUTO 00000KT 10SM OVC100 04/01 A2980 RMK AO2 T00350010,KRLD,2018-03-21T14:35:00Z,46.3,-119.3,3.5,1.0,0,0,,10.0,29.799213,,,TRUE,TRUE,,,,,,,OVC,10000,,,,,,,VFR,,,,,,,,,,,,METAR,120.0
KRGA 211435Z AUTO 31013G17KT 4SM OVC014 M01/M03 A2980 RMK AO2,KRGA,2018-03-21T14:35:00Z,37.63,-84.33,-1.0,-3.0,310,13,17,4.0,29.799213,,,TRUE,TRUE,,,,,,,OVC,1400,,,,,,,MVFR,,,,,,,,,,,,METAR,305.0
KREG 211435Z AUTO 31005KT 10SM CLR 15/06 A3017 RMK AO2 T01450056 TSNO,KREG,2018-03-21T14:35:00Z,30.17,-90.93,14.5,5.6,310,5,,10.0,30.171259,,,TRUE,TRUE,,,TRUE,,,,CLR,,,,,,,,VFR,,,,,,,,,,,,SPECI,4.0
KIKK 211435Z AUTO 02011KT 10SM CLR 01/M05 A3004 RMK AO2 T00101053,KIKK,2018-03-21T14:35:00Z,41.07,-87.85,1.0,-5.3,20,11,,10.0,30.041338,,,TRUE,TRUE,,,,,,,CLR,,,,,,,,VFR,,,,,,,,,,,,SPECI,192.0
KIJX 211435Z AUTO 33012KT 10SM CLR 01/M07 A3010 RMK AO2 T00061066,KIJX,2018-03-21T14:35:00Z,39.77,-90.25,0.6,-6.6,330,12,,10.0,30.100393,,,TRUE,TRUE,,,,,,,CLR,,,,,,,,VFR,,,,,,,,,,,,SPECI,190.0
KIBM 211435Z AUTO 23005KT 10SM OVC070 05/M05 A3003 RMK AO2 T00501051,KIBM,2018-03-21T14:35:00Z,41.18,-103.68,5.0,-5.1,230,5,,10.0,30.029528,,,TRUE,TRUE,,,,,,,OVC,7000,,,,,,,VFR,,,,,,,,,,,,SPECI,1501.0
KI63 211435Z AUTO 33011KT 10SM CLR 00/M07 A3011 RMK AO2 T00021069,KI63,2018-03-21T14:35:00Z,39.98,-90.8,0.2,-6.9,330,11,,10.0,30.109253,,,TRUE,TRUE,,,,,,,CLR,,,,,,,,VFR,,,,,,,,,,,,SPECI,223.0
KI35 211435Z AUTO 24009G15KT 3SM OVC020 00/M02 A2975 RMK AO1,KI35,2018-03-21T14:35:00Z,36.87,-83.37,0.0,-2.0,240,9,15,3.0,29.749016,,,TRUE,TRUE,,,,,,,OVC,2000,,,,,,,MVFR,,,,,,,,,,,,SPECI,473.0
KI16 211435Z AUTO 1 1/4SM -SN BKN009 OVC016 00/M01 A2969 RMK AO2 T00011006,KI16,2018-03-21T14:35:00Z,37.6,-81.57,0.1,-0.6,,,,1.25,29.68996,,,TRUE,TRUE,,,,,,-SN,BKN,900,OVC,1600,,,,,IFR,,,,,,,,,,,,SPECI,544.0
KHZR 211435Z AUTO 34007KT 10SM CLR 14/06 A3018 RMK AO2 T01410056,KHZR,2018-03-21T14:35:00Z,30.72,-91.48,14.1,5.6,340,7,,10.0,30.180119,,,TRUE,TRUE,,,,,,,CLR,,,,,,,,VFR,,,,,,,,,,,,SPECI,12.0
KHWY 211435Z AUTO 34006KT 4SM -SN OVC008 00/M02 A2965 RMK AO2 T00031017,KHWY,2018-03-21T14:35:00Z,38.58,-77.72,0.3,-1.7,340,6,,4.0,29.648623,,,TRUE,TRUE,,,,,,-SN,OVC,800,,,,,,,IFR,,,,,,,,,,,,SPECI,103.0
KHQU 211435Z AUTO 34018G25KT 10SM OVC035 06/M02 A2987 RMK AO2 T00631021,KHQU,2018-03-21T14:35:00Z,33.53,-82.52,6.3,-2.1,340,18,25,10.0,29.870079,,,TRUE,TRUE,,,,,,,OVC,3500,,,,,,,VFR,,,,,,,,,,,,SPECI,152.0
KHOE 211435Z AUTO 29016G24KT 10SM CLR 12/00 A2994 RMK AO2,KHOE,2018-03-21T14:35:00Z,31.05,-82.78,12.0,0.0,290,16,24,10.0,29.940945,,,TRUE,TRUE,,,,,,,CLR,,,,,,,,VFR,,,,,,,,,,,,SPECI,57.0
KHMZ 211435Z AUTO 01003KT 1SM -SN BKN007 BKN013 OVC020 M02/M04 A2968 RMK AO2 P0001 T10221037,KHMZ,2018-03-21T14:35:00Z,40.08,-78.52,-2.2,-3.7,10,3,,1.0,29.681103,,,TRUE,TRUE,,,,,,-SN,BKN,700,BKN,1300,OVC,2000,,,IFR,,,,,,0.01,,,,,,SPECI,354.0
KHLX 211435Z AUTO 30008KT 3SM -SN OVC009 M01/M02 A2957 RMK AO2 P0001 T10071020,KHLX,2018-03-21T14:35:00Z,36.77,-80.82,-0.7,-2.0,300,8,,3.0,29.568897,,,TRUE,TRUE,,,,,,-SN,OVC,900,,,,,,,IFR,,,,,,0.01,,,,,,SPECI,834.0
KHJH 211435Z AUTO 00000KT 4SM BR CLR 00/M01 A3019 RMK AO2 T10011007,KHJH,2018-03-21T14:35:00Z,40.15,-97.58,-0.1,-0.7,0,0,,4.0,30.188976,,,TRUE,TRUE,,,,,,BR,CLR,,,,,,,,MVFR,,,,,,,,,,,,SPECI,447.0
KHII 211435Z AUTO 00000KT 10SM CLR 16/M07 A2994 RMK AO2,KHII,2018-03-21T14:35:00Z,34.57,-114.37,16.0,-7.0,0,0,,10.0,29.940945,,,TRUE,TRUE,,,,,,,CLR,,,,,,,,VFR,,,,,,,,,,,,METAR,238.0
KHHF 211435Z AUTO 00000KT 10SM CLR 07/M02 A3015 RMK AO2 T00671023,KHHF,2018-03-21T14:35:00Z,35.9,-100.4,6.7,-2.3,0,0,,10.0,30.15059,,,TRUE,TRUE,,,,,,,CLR,,,,,,,,VFR,,,,,,,,,,,,METAR,712.0
KHDE 211435Z AUTO 26003KT 10SM CLR 02/00 A3013 RMK AO2 T00190002,KHDE,2018-03-21T14:35:00Z,40.45,-99.32,1.9,0.2,260,3,,10.0,30.129921,,,TRUE,TRUE,,,,,,,CLR,,,,,,,,VFR,,,,,,,,,,,,SPECI,705.0
KGYI 211435Z AUTO 07003KT 10SM CLR 12/02 A3023 RMK AO2 T01180017,KGYI,2018-03-21T14:35:00Z,33.72,-96.67,11.8,1.7,70,3,,10.0,30.230314,,,TRUE,TRUE,,,,,,,CLR,,,,,,,,VFR,,,,,,,,,,,,METAR,228.0
KGRN 211435Z AUTO 23004KT 10SM CLR 01/M01 A3001 RMK AO2 T00081014,KGRN,2018-03-21T14:35:00Z,42.8,-102.17,0.8,-1.4,230,4,,10.0,30.008858,,,TRUE,TRUE,,,,,,,CLR,,,,,,,,VFR,,,,,,,,,,,,SPECI,1086.0
KGOP 211435Z AUTO 00000KT 10SM CLR 11/03 A3023 RMK AO2,KGOP,2018-03-21T14:35:00Z,31.42,-97.8,11.0,3.0,0,0,,10.0,30.230314,,,TRUE,TRUE,,,,,,,CLR,,,,,,,,VFR,,,,,,,,,,,,METAR,276.0
KGNC 211435Z AUTO 07007KT 10SM CLR 08/M07 A3010 RMK AO2 T00771071,KGNC,2018-03-21T14:35:00Z,32.68,-102.65,7.7,-7.1,70,7,,10.0,30.100393,,,TRUE,TRUE,,,,,,,CLR,,,,,,,,VFR,,,,,,,,,,,,METAR,1010.0
KGHG 211435Z AUTO 05011G21KT 10SM OVC023 04/M01 A2979 RMK AO2,KGHG,2018-03-21T14:35:00Z,42.1,-70.67,4.0,-1.0,50,11,21,10.0,29.790354,,,TRUE,TRUE,,,,,,,OVC,2300,,,,,,,MVFR,,,,,,,,,,,,SPECI,4.0
KRCR 211435Z AUTO 36012G16KT 10SM CLR 00/M06 A2996 RMK AO2,KRCR,2018-03-21T14:35:00Z,41.07,-86.18,0.0,-6.0,360,12,16,10.0,29.958662,,,TRUE,TRUE,,,,,,,CLR,,,,,,,,VFR,,,,,,,,,,,,SPECI,241.0
KPXE 211435Z AUTO 31018G26KT 10SM SCT033 SCT040 08/00 A2993 RMK AO2 T00790000,KPXE,2018-03-21T14:35:00Z,32.52,-83.77,7.9,0.0,310,18,26,10.0,29.929134,,,TRUE,TRUE,,,,,,,SCT,3300,SCT,4000,,,,,VFR,,,,,,,,,,,,SPECI,127.0
KPPQ 211435Z AUTO 34009KT 10SM CLR 01/M05 A3012 RMK AO2 T00141050,KPPQ,2018-03-21T14:35:00Z,39.63,-90.78,1.4,-5.0,340,9,,10.0,30.121063,,,TRUE,TRUE,,,,,,,CLR,,,,,,,,VFR,,,,,,,,,,,,SPECI,216.0
KPPO 211435Z AUTO 36011KT 10SM CLR 00/M06 A3000 RMK AO2 T00001061,KPPO,2018-03-21T14:35:00Z,41.57,-86.73,0.0,-6.1,360,11,,10.0,30.0,,,TRUE,TRUE,,,,,,,CLR,,,,,,,,VFR,,,,,,,,,,,,SPECI,248.0
KPMV 211435Z AUTO 00000KT 3SM BR OVC006 01/00 A3020 RMK AO2 T00051005,KPMV,2018-03-21T14:35:00Z,40.95,-95.92,0.5,-0.5,0,0,,3.0,30.200787,,,TRUE,TRUE,,,,,,BR,OVC,600,,,,,,,IFR,,,,,,,,,,,,SPECI,367.0
KPBX 211435Z AUTO 23005KT 7SM -SN OVC008 M01/M01 A2969 RMK AO2 T10101010,KPBX,2018-03-21T14:35:00Z,37.57,-82.57,-1.0,-1.0,230,5,,7.0,29.68996,,,TRUE,TRUE,,,,,,-SN,OVC,800,,,,,,,IFR,,,,,,,,,,,,SPECI,449.0
KOZA 211435Z AUTO 17016G20KT 10SM CLR 14/02 A3014 RMK AO2,KOZA,2018-03-21T14:35:00Z,30.73,-101.2,14.0,2.0,170,16,20,10.0,30.138779,,,TRUE,TRUE,,,,,,,CLR,,,,,,,,VFR,,,,,,,,,,,,METAR,726.0
KOSA 211435Z AUTO 00000KT 10SM CLR 11/04 A3023 RMK AO1 T01090035,KOSA,2018-03-21T14:35:00Z,33.1,-94.97,10.9,3.5,0,0,,10.0,30.230314,,,TRUE,TRUE,,,,,,,CLR,,,,,,,,VFR,,,,,,,,,,,,METAR,111.0
KONP 211435Z AUTO 08004KT 10SM OVC065 05/04 A2975 RMK AO2,KONP,2018-03-21T14:35:00Z,44.57,-124.03,5.0,4.0,80,4,,10.0,29.749016,,,TRUE,TRUE,,,,,,,OVC,6500,,,,,,,VFR,,,,,,,,,,,,METAR,48.0
KONM 211435Z AUTO 35007KT 10SM CLR 05/M13 A3011 RMK AO2 T00491134,KONM,2018-03-21T14:35:00Z,34.02,-106.9,4.9,-13.4,350,7,,10.0,30.109253,,,TRUE,TRUE,,,,,,,CLR,,,,,,,,VFR,,,,,,,,,,,,METAR,1410.0
KONL 211435Z AUTO 22003KT 10SM CLR 02/00 A3009 RMK AO2 T00160003,KONL,2018-03-21T14:35:00Z,42.47,-98.67,1.6,0.3,220,3,,10.0,30.088583,,,TRUE,TRUE,,,,,,,CLR,,,,,,,,VFR,,,,,,,,,,,,SPECI,619.0
KOMH 211435Z AUTO 00000KT 1/2SM -SN OVC006 M01/M01 A2966 RMK AO2,KOMH,2018-03-21T14:35:00Z,38.25,-78.05,-1.0,-1.0,0,0,,0.5,29.660433,,,TRUE,TRUE,,,,,,-SN,OVC,600,,,,,,,LIFR,,,,,,,,,,,,SPECI,142.0
KOLY 211435Z AUTO 34016G21KT 10SM BKN021 00/M05 A3003 RMK AO2 T00011048,KOLY,2018-03-21T14:35:00Z,38.72,-88.18,0.1,-4.8,340,16,21,10.0,30.029528,,,TRUE,TRUE,,,,,,,BKN,2100,,,,,,,MVFR,,,,,,,,,,,,SPECI,147.0
KOLG 211435Z AUTO 00000KT 10SM SCT110 M06/M09 A3015 RMK AO1,KOLG,2018-03-21T14:35:00Z,46.3,-91.82,-6.0,-9.0,0,0,,10.0,30.15059,,,TRUE,TRUE,,,,,,,SCT,11000,,,,,,,VFR,,,,,,,,,,,,SPECI,336.0
KOKV 211435Z AUTO 35004KT 3/4SM -SN OVC007 M01/M02 A2969 RMK AO2,KOKV,2018-03-21T14:35:00Z,39.13,-78.15,-1.0,-2.0,350,4,,0.75,29.68996,,,TRUE,TRUE,,,,,,-SN,OVC,700,,,,,,,LIFR,,,,,,,,,,,,SPECI,222.0
KOKM 211435Z AUTO 06006KT 10SM CLR 07/00 A3023 RMK AO2 T00680001,KOKM,2018-03-21T14:35:00Z,35.67,-95.95,6.8,0.1,60,6,,10.0,30.230314,,,TRUE,TRUE,,,,,,,CLR,,,,,,,,VFR,,,,,,,,,,,,SPECI,220.0
KOGA 211435Z AUTO 00000KT 10SM CLR 00/M02 A3006 RMK AO2 T00031019,KOGA,2018-03-21T14:35:00Z,41.12,-101.77,0.3,-1.9,0,0,,10.0,30.059055,,,TRUE,TRUE,,,,,,,CLR,,,,,,,,VFR,,,,,,,,,,,,SPECI,999.0
KOEO 211435Z AUTO 00000KT 10SM OVC055 M04/M07 A3019 RMK AO2 T10411074,KOEO,2018-03-21T14:35:00Z,45.32,-92.7,-4.1,-7.4,0,0,,10.0,30.188976,,,TRUE,TRUE,,,,,,,OVC,5500,,,,,,,VFR,,,,,,,,,,,,SPECI,275.0
KOCQ 211435Z AUTO 35006KT 10SM CLR M02/M09 A3015 RMK AO1 T10251089,KOCQ,2018-03-21T14:35:00Z,44.87,-87.92,-2.5,-8.9,350,6,,10.0,30.15059,,,TRUE,TRUE,,,,,,,CLR,,,,,,,,VFR,,,,,,,,,,,,SPECI,183.0
KMZZ 211435Z AUTO 36012G16KT 2 1/2SM HZ BKN028 BKN034 OVC048 M02/M06 A2992 RMK AO2 T10171060,KMZZ,2018-03-21T14:35:00Z,40.48,-85.68,-1.7,-6.0,360,12,16,2.5,29.920275,,,TRUE,TRUE,,,,,,HZ,BKN,2800,BKN,3400,OVC,4800,,,IFR,,,,,,,,,,,,SPECI,262.0
KMWO 211435Z AUTO 35014G20KT 5SM -SN BR OVC016 M01/M04 A2982 RMK AO2 T10141038,KMWO,2018-03-21T14:35:00Z,39.53,-84.4,-1.4,-3.8,350,14,20,5.0,29.819881,,,TRUE,TRUE,,,,,,-SN BR,OVC,1600,,,,,,,MVFR,,,,,,,,,,,,SPECI,198.0
KMRJ 211435Z AUTO 01009KT 10SM CLR M01/M08 A3011 RMK AO2,KMRJ,2018-03-21T14:35:00Z,42.88,-90.23,-1.0,-8.0,10,9,,10.0,30.109253,,,TRUE,TRUE,,,,,,,CLR,,,,,,,,VFR,,,,,,,,,,,,SPECI,359.0
KMQS 211435Z AUTO 06005G12KT 3/4SM -SN OVC001 M02/M03 A2965 RMK AO2,KMQS,2018-03-21T14:35:00Z,39.98,-75.87,-2.0,-3.0,60,5,12,0.75,29.648623,,,TRUE,TRUE,,,,,,-SN,OVC,100,,,,,,,LIFR,,,,,,,,,,,,SPECI,201.0
KMQB 211435Z AUTO 35011KT 10SM CLR M01/M07 A3014 RMK AO2 T10061070,KMQB,2018-03-21T14:35:00Z,40.52,-90.65,-0.6,-7.0,350,11,,10.0,30.138779,,,TRUE,TRUE,,,,,,,CLR,,,,,,,,VFR,,,,,,,,,,,,SPECI,215.0
KMNZ 211435Z AUTO 14008KT 10SM CLR 14/02 A3021 RMK AO2 T01410023,KMNZ,2018-03-21T14:35:00Z,31.67,-98.15,14.1,2.3,140,8,,10.0,30.209646,,,TRUE,TRUE,,,,,,,CLR,,,,,,,,VFR,,,,,,,,,,,,METAR,396.0
KMLE 211435Z AUTO 00000KT 10SM OVC008 01/00 A3020 RMK AO2 T00111005,KMLE,2018-03-21T14:35:00Z,41.2,-96.12,1.1,-0.5,0,0,,10.0,30.200787,,,TRUE,TRUE,,,,,,,OVC,800,,,,,,,IFR,,,,,,,,,,,,SPECI,320.0
KMKN 211435Z AUTO 12005KT 10SM CLR 11/02 A3020 RMK AO2 T01130021,KMKN,2018-03-21T14:35:00Z,31.92,-98.6,11.3,2.1,120,5,,10.0,30.200787,,,TRUE,TRUE,,,,,,,CLR,,,,,,,,VFR,,,,,,,,,,,,METAR,423.0
KGDJ 211435Z AUTO 00000KT 10SM CLR 10/04 A3022 RMK AO2 T01010041,KGDJ,2018-03-21T14:35:00Z,32.45,-97.82,10.1,4.1,0,0,,10.0,30.221457,,,TRUE,TRUE,,,,,,,CLR,,,,,,,,VFR,,,,,,,,,,,,METAR,237.0
KFYJ 211435Z AUTO 32003KT 4SM SCT004 01/00 A2962 RMK AO2 P0004 T00080003,KFYJ,2018-03-21T14:35:00Z,37.52,-76.77,0.8,0.3,320,3,,4.0,29.619095,,,TRUE,TRUE,,,,,,,SCT,400,,,,,,,MVFR,,,,,,0.04,,,,,,METAR,7.0
KDVO 211435Z AUTO 00000KT 3SM -DZ OVC004 11/11 A2981 RMK AO2,KDVO,2018-03-21T14:35:00Z,38.15,-122.55,11.0,11.0,0,0,,3.0,29.811024,,,TRUE,TRUE,,,,,,-DZ,OVC,400,,,,,,,LIFR,,,,,,,,,,,,METAR,1.0
KDUC 211435Z AUTO 09007KT 10SM 10/02 A3021 RMK AO2 T01030016,KDUC,2018-03-21T14:35:00Z,34.47,-97.97,10.3,1.6,90,7,,10.0,30.209646,,,TRUE,TRUE,,,,,,,,,,,,,,,,,,,,,,,,,,,METAR,339.0
KDUB 211435Z AUTO 35012G18KT 10SM SCT055 SCT095 BKN110 M01/M07 A2992 RMK AO2,KDUB,2018-03-21T14:35:00Z,43.55,-109.68,-1.0,-7.0,350,12,18,10.0,29.920275,,,TRUE,TRUE,,,,,,,SCT,5500,SCT,9500,BKN,11000,,,VFR,,,,,,,,,,,,METAR,2224.0
KDUA 211435Z AUTO 00000KT 10SM CLR 10/02 A3022 RMK AO2,KDUA,2018-03-21T14:35:00Z,33.95,-96.4,10.0,2.0,0,0,,10.0,30.221457,,,TRUE,TRUE,,,,,,,CLR,,,,,,,,VFR,,,,,,,,,,,,METAR,213.0
KDQH 211435Z AUTO 30014G21KT 10SM CLR 11/00 A2994 RMK AO2,KDQH,2018-03-21T14:35:00Z,31.48,-82.87,11.0,0.0,300,14,21,10.0,29.940945,,,TRUE,TRUE,,,,,,,CLR,,,,,,,,VFR,,,,,,,,,,,,METAR,78.0
KDNV 211435Z AUTO 35016G23KT 10SM CLR 00/M05 A2997 RMK AO2 T00041053,KDNV,2018-03-21T14:35:00Z,40.2,-87.6,0.4,-5.3,350,16,23,10.0,29.970472,,,TRUE,TRUE,,,,,,,CLR,,,,,,,,VFR,,,,,,,,,,,,METAR,212.0
KDLL 211435Z AUTO 03006KT 10SM CLR M02/M09 A3013 RMK AO2 T10251086,KDLL,2018-03-21T14:35:00Z,43.52,-89.77,-2.5,-8.6,30,6,,10.0,30.129921,,,TRUE,TRUE,,,,,,,CLR,,,,,,,,VFR,,,,,,,,,,,,METAR,299.0
K6B0 211435Z AUTO 35008KT 10SM CLR M06/M12 A2987 RMK AO2 T10561121,K6B0,2018-03-21T14:35:00Z,43.98,-73.1,-5.6,-12.1,350,8,,10.0,29.870079,,,TRUE,TRUE,,,,,,,CLR,,,,,,,,VFR,,,,,,,,,,,,METAR,149.0
K6A1 211435Z AUTO 32012G21KT 10SM 07/M01 A2994 RMK AO2 T00731007,K6A1,2018-03-21T14:35:00Z,32.57,-84.25,7.3,-0.7,320,12,21,10.0,29.940945,,,TRUE,TRUE,,,,,,,,,,,,,,,,,,,,,,,,,,,METAR,203.0
K66R 211435Z AUTO 26005KT 10SM CLR 14/05 A3021 RMK AO2 T01440045,K66R,2018-03-21T14:35:00Z,29.65,-96.52,14.4,4.5,260,5,,10.0,30.209646,,,TRUE,TRUE,,,,,,,CLR,,,,,,,,VFR,,,,,,,,,,,,METAR,74.0
K5C1 211435Z AUTO 14008KT 10SM CLR 13/01 A3019 RMK AO1,K5C1,2018-03-21T14:35:00Z,29.72,-98.7,13.0,1.0,140,8,,10.0,30.188976,,,TRUE,TRUE,,,,,,,CLR,,,,,,,,VFR,,,,,,,,,,,,METAR,423.0
K5A6 211435Z AUTO 30007KT 10SM CLR 09/04 A3011 RMK AO2 T00860041,K5A6,2018-03-21T14:35:00Z,33.47,-89.73,8.6,4.1,300,7,,10.0,30.109253,,,TRUE,TRUE,,,,,,,CLR,,,,,,,,VFR,,,,,,,,,,,,METAR,111.0
K49A 211435Z AUTO 32011G22KT 280V340 10SM BKN022 BKN028 OVC036 02/M03 A2987 RMK AO2 T00241031,K49A,2018-03-21T14:35:00Z,34.63,-84.53,2.4,-3.1,320,11,22,10.0,29.870079,,,TRUE,TRUE,,,,,,,BKN,2200,BKN,2800,OVC,3600,,,MVFR,,,,,,,,,,,,METAR,453.0
K40J 211435Z AUTO 30018G22KT 10SM CLR 14/02 A3002 RMK AO2 T01380016,K40J,2018-03-21T14:35:00Z,30.07,-83.57,13.8,1.6,300,18,22,10.0,30.02067,,,TRUE,TRUE,,,,,,,CLR,,,,,,,,VFR,,,,,,,,,,,,METAR,13.0
K3LF 211435Z AUTO 33014KT 10SM CLR 00/M04 A3008 RMK AO2 T00021040,K3LF,2018-03-21T14:35:00Z,39.17,-89.67,0.2,-4.0,330,14,,10.0,30.079725,,,TRUE,TRUE,,,,,,,CLR,,,,,,,,VFR,,,,,,,,,,,,METAR,210.0
K3K3 211435Z AUTO 00000KT 10SM CLR 03/M03 A3014 RMK AO2,K3K3,2018-03-21T14:35:00Z,38.0,-101.75,3.0,-3.0,0,0,,10.0,30.138779,,,TRUE,TRUE,,,,,,,CLR,,,,,,,,VFR,,,,,,,,,,,,METAR,1013.0
K3F3 211435Z AUTO 01003KT 10SM CLR 13/06 A3024 RMK AO2 T01310056,K3F3,2018-03-21T14:35:00Z,32.07,-93.77,13.1,5.6,10,3,,10.0,30.239174,,,TRUE,TRUE,,,,,,,CLR,,,,,,,,VFR,,,,,,,,,,,,METAR,96.0
K3D2 211435Z AUTO 36009KT 10SM CLR M04/M07 A3012 RMK AO2 T10401072,K3D2,2018-03-21T14:35:00Z,45.13,-87.18,-4.0,-7.2,360,9,,10.0,30.121063,,,TRUE,TRUE,,,,,,,CLR,,,,,,,,VFR,,,,,,,,,,,,METAR,234.0
K3AU 211435Z AUTO 05003KT 10SM CLR 03/00 A3021 RMK AO2,K3AU,2018-03-21T14:35:00Z,37.67,-97.08,3.0,0.0,50,3,,10.0,30.209646,,,TRUE,TRUE,,,,,,,CLR,,,,,,,,VFR,,,,,,,,,,,,METAR,405.0
K2P2 211435Z AUTO 03009KT 10SM CLR M02/M07 A3014 RMK AO2 T10251067,K2P2,2018-03-21T14:35:00Z,45.38,-86.92,-2.5,-6.7,30,9,,10.0,30.138779,,,TRUE,TRUE,,,,,,,CLR,,,,,,,,VFR,,,,,,,,,,,,METAR,199.0
K2J3 211435Z AUTO 29016G26KT 10SM OVC034 07/M01 A2985 RMK AO2 T00721010,K2J3,2018-03-21T14:35:00Z,32.98,-82.38,7.2,-1.0,290,16,26,10.0,29.84941,,,TRUE,TRUE,,,,,,,OVC,3400,,,,,,,VFR,,,,,,,,,,,,METAR,100.0
K2G9 211435Z AUTO 05004KT 3/4SM -SN BKN007 OVC015 M03/M05 A2961 RMK AO2 P0001,K2G9,2018-03-21T14:35:00Z,40.03,-79.02,-3.0,-5.0,50,4,,0.75,29.610237,,,TRUE,TRUE,,,,,,-SN,BKN,700,OVC,1500,,,,,LIFR,,,,,,0.01,,,,,,METAR,693.0
K2F5 211435Z AUTO 14009KT 10SM OVC110 10/M04 A3010 RMK AO2,K2F5,2018-03-21T14:35:00Z,32.75,-101.92,10.0,-4.0,140,9,,10.0,30.100393,,,TRUE,TRUE,,,,,,,OVC,11000,,,,,,,VFR,,,,,,,,,,,,METAR,912.0
K1H2 211435Z AUTO 31014G19KT 10SM BKN021 01/M03 A3005 RMK AO2 T00061030,K1H2,2018-03-21T14:35:00Z,39.07,-88.53,0.6,-3.0,310,14,19,10.0,30.050198,,,TRUE,TRUE,,,,,,,BKN,2100,,,,,,,MVFR,,,,,,,,,,,,METAR,179.0
K1A6 211435Z AUTO 28007KT 2 1/2SM -SN BKN021 OVC026 01/M01 A2979 RMK AO2 T00051009,K1A6,2018-03-21T14:35:00Z,36.62,-83.73,0.5,-0.9,280,7,,2.5,29.790354,,,TRUE,TRUE,,,,,,-SN,BKN,2100,OVC,2600,,,,,IFR,,,,,,,,,,,,METAR,352.0
K19S 211435Z AUTO 00000KT 10SM CLR 04/00 A3017 RMK AO2 T00371004,K19S,2018-03-21T14:35:00Z,37.48,-100.83,3.7,-0.4,0,0,,10.0,30.171259,,,TRUE,TRUE,,,,,,,CLR,,,,,,,,VFR,,,,,,,,,,,,METAR,886.0
K0R4 211435Z AUTO 33009KT 10SM CLR 12/04 A3018 RMK AO2 T01240042,K0R4,2018-03-21T14:35:00Z,31.57,-91.5,12.4,4.2,330,9,,10.0,30.180119,,,TRUE,TRUE,,,,,,,CLR,,,,,,,,VFR,,,,,,,,,,,,METAR,17.0
K0F2 211435Z AUTO 13005KT 10SM CLR 11/01 A3020 RMK AO2 T01100009,K0F2,2018-03-21T14:35:00Z,33.6,-97.78,11.0,0.9,130,5,,10.0,30.200787,,,TRUE,TRUE,,,,,,,CLR,,,,,,,,VFR,,,,,,,,,,,,METAR,336.0
K0E0 211435Z AUTO 00000KT 10SM CLR 01/M13 A3015 RMK AO2 T00141132,K0E0,2018-03-21T14:35:00Z,34.98,-106.0,1.4,-13.2,0,0,,10.0,30.15059,,,TRUE,TRUE,,,,,,,CLR,,,,,,,,VFR,,,,,,,,,,,,METAR,1890.0
K06C 211435Z AUTO 36011G16KT 10SM BKN024 00/M07 A3005 RMK AO2 T00001071,K06C,2018-03-21T14:35:00Z,41.98,-88.1,0.0,-7.1,360,11,16,10.0,30.050198,,,TRUE,TRUE,,,,,,,BKN,2400,,,,,,,MVFR,,,,,,,,,,,,METAR,244.0
KDED 211435Z AUTO 29011G25KT 260V320 10SM CLR 15/05 A2994 RMK AO2,KDED,2018-03-21T14:35:00Z,29.07,-81.28,15.0,5.0,290,11,25,10.0,29.940945,,,TRUE,TRUE,,,,,,,CLR,,,,,,,,VFR,,,,,,,,,,,,SPECI,24.0
KDCY 211435Z AUTO 33013KT 10SM OVC018 00/M03 A2996 RMK AO2 T10031032,KDCY,2018-03-21T14:35:00Z,38.7,-87.13,-0.3,-3.2,330,13,,10.0,29.958662,,,TRUE,TRUE,,,,,,,OVC,1800,,,,,,,MVFR,,,,,,,,,,,,SPECI,144.0
KDBN 211435Z AUTO 30019G23KT 10SM CLR 08/00 A2991 RMK AO2,KDBN,2018-03-21T14:35:00Z,32.57,-82.98,8.0,0.0,300,19,23,10.0,29.911417,,,TRUE,TRUE,,,,,,,CLR,,,,,,,,VFR,,,,,,,,,,,,METAR,94.0
KCXE 211435Z AUTO 35006KT 3/4SM OVC009 00/00 A2965 RMK AO1 T10051005,KCXE,2018-03-21T14:35:00Z,36.78,-78.5,-0.5,-0.5,350,6,,0.75,29.648623,,,TRUE,TRUE,,,,,,,OVC,900,,,,,,,LIFR,,,,,,,,,,,,SPECI,153.0
KCTY 211435Z AUTO 32015G25KT 10SM CLR 14/01 A3002 RMK AO2 T01440013,KCTY,2018-03-21T14:35:00Z,29.63,-83.1,14.4,1.3,320,15,25,10.0,30.02067,,,TRUE,TRUE,,,,,,,CLR,,,,,,,,VFR,,,,,,,,,,,,METAR,13.0
KCQF 211435Z AUTO 30008KT 10SM CLR 12/06 A3010 RMK AO2,KCQF,2018-03-21T14:35:00Z,30.47,-87.88,12.0,6.0,300,8,,10.0,30.100393,,,TRUE,TRUE,,,,,,,CLR,,,,,,,,VFR,,,,,,,,,,,,SPECI,28.0
KCQB 211435Z AUTO 10004KT 10SM CLR 07/02 A3023 RMK AO2 T00710018,KCQB,2018-03-21T14:35:00Z,35.72,-96.82,7.1,1.8,100,4,,10.0,30.230314,,,TRUE,TRUE,,,,,,,CLR,,,,,,,,VFR,,,,,,,,,,,,SPECI,300.0
KCOM 211435Z AUTO 00000KT 10SM CLR 11/02 A3018 RMK AO2 T01100024,KCOM,2018-03-21T14:35:00Z,31.83,-99.4,11.0,2.4,0,0,,10.0,30.180119,,,TRUE,TRUE,,,,,,,CLR,,,,,,,,VFR,,,,,,,,,,,,METAR,517.0
KCNI 211435Z AUTO 31012G19KT 270V330 10SM OVC021 03/00 A2987 RMK AO2,KCNI,2018-03-21T14:35:00Z,34.32,-84.42,3.0,0.0,310,12,19,10.0,29.870079,,,TRUE,TRUE,,,,,,,OVC,2100,,,,,,,MVFR,,,,,,,,,,,,SPECI,372.0
KCMY 211435Z AUTO 00000KT 10SM CLR M02/M09 A3015 RMK AO2 T10161091,KCMY,2018-03-21T14:35:00Z,43.97,-90.73,-1.6,-9.1,0,0,,10.0,30.15059,,,TRUE,TRUE,,,,,,,CLR,,,,,,,,VFR,,,,,,,,,,,,SPECI,256.0
KCJR 211435Z AUTO 35009KT 4SM -SN SCT008 SCT015 OVC035 00/M01 A2967 RMK AO2 T00011015,KCJR,2018-03-21T14:35:00Z,38.53,-77.87,0.1,-1.5,350,9,,4.0,29.66929,,,TRUE,TRUE,,,,,,-SN,SCT,800,SCT,1500,OVC,3500,,,MVFR,,,,,,,,,,,,SPECI,97.0
KCFD 211435Z AUTO 00000KT 10SM CLR 13/05 A3023 RMK AO2 T01300050,KCFD,2018-03-21T14:35:00Z,30.72,-96.33,13.0,5.0,0,0,,10.0,30.230314,,,TRUE,TRUE,,,,,,,CLR,,,,,,,,VFR,,,,,,,,,,,,METAR,112.0
KCDA 211435Z AUTO 00000KT 10SM CLR M05/M12 A2985 RMK AO2 T10471120,KCDA,2018-03-21T14:35:00Z,44.57,-72.02,-4.7,-12.0,0,0,,10.0,29.84941,,,TRUE,TRUE,,,,,,,CLR,,,,,,,,VFR,,,,,,,,,,,,SPECI,363.0
KC29 211435Z AUTO 36008KT 10SM CLR M01/M07 A3012 RMK AO1 T10151074,KC29,2018-03-21T14:35:00Z,43.12,-89.53,-1.5,-7.4,360,8,,10.0,30.121063,,,TRUE,TRUE,,,,,,,CLR,,,,,,,,VFR,,,,,,,,,,,,SPECI,283.0
KC09 211435Z AUTO 02007KT 10SM CLR 00/M06 A3005 RMK AO2 T00021059,KC09,2018-03-21T14:35:00Z,41.43,-88.42,0.2,-5.9,20,7,,10.0,30.050198,,,TRUE,TRUE,,,,,,,CLR,,,,,,,,VFR,,,,,,,,,,,,SPECI,178.0
KBVS 211435Z AUTO 00000KT 10SM OVC100 03/02 A2977 RMK A01,KBVS,2018-03-21T14:35:00Z,48.47,-122.42,3.0,2.0,0,0,,10.0,29.769686,,,TRUE,TRUE,,,,,,,OVC,10000,,,,,,,VFR,,,,,,,,,,,,METAR,43.0
KBVN 211435Z AUTO 21007KT 7SM CLR 00/00 A3013 RMK AO2 T10011004,KBVN,2018-03-21T14:35:00Z,41.73,-98.05,-0.1,-0.4,210,7,,7.0,30.129921,,,TRUE,TRUE,,,,,,,CLR,,,,,,,,VFR,,,,,,,,,,,,SPECI,551.0
KBUU 211435Z AUTO 36011KT 10SM SCT030 M02/M08 A3009 RMK AO2 T10201080,KBUU,2018-03-21T14:35:00Z,42.68,-88.3,-2.0,-8.0,360,11,,10.0,30.088583,,,TRUE,TRUE,,,,,,,SCT,3000,,,,,,,VFR,,,,,,,,,,,,SPECI,237.0
KBTA 211435Z AUTO 24003KT 4SM BR OVC006 01/00 A3017 RMK AO2 T00061004,KBTA,2018-03-21T14:35:00Z,41.42,-96.12,0.6,-0.4,240,3,,4.0,30.171259,,,TRUE,TRUE,,,,,,BR,OVC,600,,,,,,,IFR,,,,,,,,,,,,SPECI,396.0
KBQP 211435Z AUTO 33005KT 10SM CLR 12/02 A3018 RMK AO2 T01220023,KBQP,2018-03-21T14:35:00Z,32.75,-91.88,12.2,2.3,330,5,,10.0,30.180119,,,TRUE,TRUE,,,,,,,CLR,,,,,,,,VFR,,,,,,,,,,,,SPECI,51.0
KHLB 211435Z AUTO 6SM BR BKN015 BKN019 M03/M03 A2985 RMK A01,KHLB,2018-03-21T14:35:00Z,,,-3.0,-3.0,,,,6.0,29.84941,,,TRUE,TRUE,,,,,,BR,BKN,1500,BKN,1900,,,,,MVFR,,,,,,,,,,,,SPECI,
KGZS 211435Z AUTO 32013KT 10SM OVC070 05/M01 A3000 RMK A01,KGZS,2018-03-21T14:35:00Z,35.15,-87.05,5.0,-1.0,320,13,,10.0,30.0,,,TRUE,TRUE,,,,,,,OVC,7000,,,,,,,VFR,,,,,,,,,,,,SPECI,209.0
KGKT 211435Z AUTO 25007G12KT 220V300 10SM SCT045 SCT050 02/00 A2981 RMK A01,KGKT,2018-03-21T14:35:00Z,35.85,-83.53,2.0,0.0,250,7,12,10.0,29.811024,,,TRUE,TRUE,,,,,,,SCT,4500,SCT,5000,,,,,VFR,,,,,,,,,,,,SPECI,309.0
KFYM 211435Z AUTO 32013G19KT 10SM FEW028 04/M02 A2996 RMK A01,KFYM,2018-03-21T14:35:00Z,35.07,-86.57,4.0,-2.0,320,13,19,10.0,29.958662,,,TRUE,TRUE,,,,,,,FEW,2800,,,,,,,VFR,,,,,,,,,,,,SPECI,300.0
KDKX 211435Z AUTO 27011KT 240V300 10SM BKN019 BKN031 BKN050 03/00 A2983 RMK A01,KDKX,2018-03-21T14:35:00Z,35.97,-83.87,3.0,0.0,270,11,,10.0,29.828741,,,TRUE,TRUE,,,,,,,BKN,1900,BKN,3100,BKN,5000,,,MVFR,,,,,,,,,,,,SPECI,254.0
KCRX 211435Z AUTO 33009KT 10SM SCT050 BKN065 OVC080 06/M01 A3007 RMK AO2,KCRX,2018-03-21T14:35:00Z,34.92,-88.6,6.0,-1.0,330,9,,10.0,30.070866,,,TRUE,TRUE,,,,,,,SCT,5000,BKN,6500,OVC,8000,,,VFR,,,,,,,,,,,,SPECI,130.0
KCCB 211435Z AUTO 30003KT 10SM OVC046 14/05 A3003 RMK AO2,KCCB,2018-03-21T14:35:00Z,34.12,-117.68,14.0,5.0,300,3,,10.0,30.029528,,,TRUE,TRUE,,,,,,,OVC,4600,,,,,,,VFR,,,,,,,,,,,,METAR,440.0
KC83 211435Z AUTO 00000KT 3SM BR OVC037 12/11 A2982 RMK AO2,KC83,2018-03-21T14:35:00Z,37.83,-121.67,12.0,11.0,0,0,,3.0,29.819881,,,TRUE,TRUE,,,,,,BR,OVC,3700,,,,,,,MVFR,,,,,,,,,,,,METAR,24.0
KC65 211435Z AUTO 35007KT 10SM CLR M02/M08 A2997 RMK A01,KC65,2018-03-21T14:35:00Z,41.37,-86.3,-2.0,-8.0,350,7,,10.0,29.970472,,,TRUE,TRUE,,,,,,,CLR,,,,,,,,VFR,,,,,,,,,,,,METAR,244.0
K65S 211435Z AUTO 00000KT 10SM SCT060 BKN120 00/M03 A2984 RMK AO2,K65S,2018-03-21T14:35:00Z,48.73,-116.3,0.0,-3.0,0,0,,10.0,29.840551,,,TRUE,TRUE,,,,,,,SCT,6000,BKN,12000,,,,,VFR,,,,,,,,,,,,METAR,713.0
K5T9 211435Z AUTO 11009G17KT 10SM CLR 16/07 A3013 RMK A01,K5T9,2018-03-21T14:35:00Z,28.85,-100.52,16.0,7.0,110,9,17,10.0,30.129921,,,TRUE,TRUE,,,,,,,CLR,,,,,,,,VFR,,,,,,,,,,,,SPECI,270.0
K54A 211435Z AUTO 31011G20KT 280V340 10SM BKN036 OVC045 19/12 A3002 RMK AO2,K54A,2018-03-21T14:35:00Z,,,19.0,12.0,310,11,20,10.0,30.02067,,,TRUE,TRUE,,,,,,,BKN,3600,OVC,4500,,,,,VFR,,,,,,,,,,,,METAR,
K3S8 211435Z AUTO 00000KT 1 1/4SM BR FEW002 OVC011 06/06 A2977 RMK AO2,K3S8,2018-03-21T14:35:00Z,42.5,-123.4,6.0,6.0,0,0,,1.25,29.769686,,,TRUE,TRUE,,,,,,BR,FEW,200,OVC,1100,,,,,IFR,,,,,,,,,,,,SPECI,343.0
K3L4 211435Z AUTO 02008KT 10SM CLR 17/06 A3020 RMK A01,K3L4,2018-03-21T14:35:00Z,29.8,-92.8,17.0,6.0,20,8,,10.0,30.200787,,,TRUE,TRUE,,,,,,,CLR,,,,,,,,VFR,,,,,,,,,,,,METAR,2.0
K2LS 211435Z AUTO 32008KT 10SM CLR 14/06 A3019 RMK AO2,K2LS,2018-03-21T14:35:00Z,,,14.0,6.0,320,8,,10.0,30.188976,,,TRUE,TRUE,,,,,,,CLR,,,,,,,,VFR,,,,,,,,,,,,METAR,
K2A0 211435Z AUTO 30011G17KT 10SM OVC023 03/M01 A2989 RMK A01,K2A0,2018-03-21T14:35:00Z,35.48,-84.93,3.0,-1.0,300,11,17,10.0,29.890747,,,TRUE,TRUE,,,,,,,OVC,2300,,,,,,,MVFR,,,,,,,,,,,,SPECI,219.0
K24A 211435Z AUTO 28012G17KT 260V330 4SM -SN BKN021 OVC030 M01/M05 A2970 RMK AO2 T10121049,K24A,2018-03-21T14:35:00Z,35.32,-83.2,-1.2,-4.9,280,12,17,4.0,29.698818,,,TRUE,TRUE,,,,,,-SN,BKN,2100,OVC,3000,,,,,MVFR,,,,,,,,,,,,SPECI,871.0
K1M5 211435Z AUTO 30010G16KT 10SM BKN018 BKN026 OVC070 01/M01 A2994 RMK A01,K1M5,2018-03-21T14:35:00Z,36.6,-86.48,1.0,-1.0,300,10,16,10.0,29.940945,,,TRUE,TRUE,,,,,,,BKN,1800,BKN,2600,OVC,7000,,,MVFR,,,,,,,,,,,,SPECI,250.0
K0A9 211435Z AUTO 28009G16KT 9SM -SN BKN017 BKN026 OVC046 01/M02 A2971 RMK AO2,K0A9,2018-03-21T14:35:00Z,36.37,-82.17,1.0,-2.0,280,9,16,9.0,29.71063,,,TRUE,TRUE,,,,,,-SN,BKN,1700,BKN,2600,OVC,4600,,,MVFR,,,,,,,,,,,,SPECI,486.0
KVWU 211435Z AUTO 14008KT 10SM SCT029 BKN049 OVC080 M03/M06 A3013 RMK AO2,KVWU,2018-03-21T14:35:00Z,48.15,-94.52,-3.0,-6.0,140,8,,10.0,30.129921,,,TRUE,TRUE,,,,,,,SCT,2900,BKN,4900,OVC,8000,,,VFR,,,,,,,,,,,,SPECI,360.0
KVKS 211435Z AUTO 32010KT 10SM CLR 12/03 A3018 RMK A01,KVKS,2018-03-21T14:35:00Z,32.23,-90.93,12.0,3.0,320,10,,10.0,30.180119,,,TRUE,TRUE,,,,,,,CLR,,,,,,,,VFR,,,,,,,,,,,,SPECI,32.0
KUKF 211435Z AUTO 00000KT 10SM SCT013 BKN036 OVC042 03/01 A2969 RMK AO2,KUKF,2018-03-21T14:35:00Z,36.22,-81.1,3.0,1.0,0,0,,10.0,29.68996,,,TRUE,TRUE,,,,,,,SCT,1300,BKN,3600,OVC,4200,,,VFR,,,,,,,,,,,,SPECI,396.0
KUCY 211435Z AUTO 32011G17KT 10SM BKN075 04/M01 A3007 RMK A01,KUCY,2018-03-21T14:35:00Z,36.38,-88.98,4.0,-1.0,320,11,17,10.0,30.070866,,,TRUE,TRUE,,,,,,,BKN,7500,,,,,,,VFR,,,,,,,,,,,,SPECI,104.0
KTHA 211435Z AUTO 32011G19KT 10SM SCT021 SCT026 OVC060 03/M01 A2994 RMK A01,KTHA,2018-03-21T14:35:00Z,35.38,-86.25,3.0,-1.0,320,11,19,10.0,29.940945,,,TRUE,TRUE,,,,,,,SCT,2100,SCT,2600,OVC,6000,,,VFR,,,,,,,,,,,,SPECI,331.0
KSZY 211435Z AUTO 00000G10KT 10SM SCT055 OVC080 04/M01 A3006 RMK A01,KSZY,2018-03-21T14:35:00Z,,,4.0,-1.0,0,0,10,10.0,30.059055,,,TRUE,TRUE,,,,,,,SCT,5500,OVC,8000,,,,,VFR,,,,,,,,,,,,SPECI,
KSYI 211435Z AUTO 31014G23KT 270V330 10SM SCT027 SCT032 BKN037 03/M02 A2996 RMK A01,KSYI,2018-03-21T14:35:00Z,35.57,-86.45,3.0,-2.0,310,14,23,10.0,29.958662,,,TRUE,TRUE,,,,,,,SCT,2700,SCT,3200,BKN,3700,,,VFR,,,,,,,,,,,,SPECI,245.0
KSRE 211435Z AUTO 06004KT 10SM CLR 08/02 A3022 RMK AO2,KSRE,2018-03-21T14:35:00Z,35.27,-96.68,8.0,2.0,60,4,,10.0,30.221457,,,TRUE,TRUE,,,,,,,CLR,,,,,,,,VFR,,,,,,,,,,,,SPECI,312.0
KSRB 211435Z AUTO 31008G13KT 280V340 9SM OVC015 01/M01 A2990 RMK A01,KSRB,2018-03-21T14:35:00Z,36.05,-85.53,1.0,-1.0,310,8,13,9.0,29.899607,,,TRUE,TRUE,,,,,,,OVC,1500,,,,,,,MVFR,,,,,,,,,,,,SPECI,313.0
KSNH 211435Z AUTO 32009G15KT 10SM SCT055 OVC080 05/M02 A3006 RMK A01,KSNH,2018-03-21T14:35:00Z,35.17,-88.22,5.0,-2.0,320,9,15,10.0,30.059055,,,TRUE,TRUE,,,,,,,SCT,5500,OVC,8000,,,,,VFR,,,,,,,,,,,,SPECI,144.0
KSCX 211435Z AUTO 29008G15KT 2SM BR BKN011 BKN017 M01/M02 A2980 RMK A01,KSCX,2018-03-21T14:35:00Z,36.45,-84.58,-1.0,-2.0,290,8,15,2.0,29.799213,,,TRUE,TRUE,,,,,,BR,BKN,1100,BKN,1700,,,,,IFR,,,,,,,,,,,,METAR,471.0
KRZR 211435Z AUTO 29011G20KT 10SM OVC028 03/M02 A2988 RMK A01,KRZR,2018-03-21T14:35:00Z,35.22,-84.8,3.0,-2.0,290,11,20,10.0,29.878937,,,TRUE,TRUE,,,,,,,OVC,2800,,,,,,,MVFR,,,,,,,,,,,,SPECI,263.0
KRTS 211435Z AUTO 11004KT 10SM -RA FEW025 BKN032 OVC042 04/04 A2990 RMK AO2 P0001,KRTS,2018-03-21T14:35:00Z,39.67,-119.88,4.0,4.0,110,4,,10.0,29.899607,,,TRUE,TRUE,,,,,,-RA,FEW,2500,BKN,3200,OVC,4200,,,VFR,,,,,,0.01,,,,,,SPECI,1540.0
KRNC 211435Z AUTO 30008G16KT 270V330 10SM BKN021 BKN028 OVC060 02/M02 A2992 RMK A01,KRNC,2018-03-21T14:35:00Z,35.7,-85.85,2.0,-2.0,300,8,16,10.0,29.920275,,,TRUE,TRUE,,,,,,,BKN,2100,BKN,2800,OVC,6000,,,MVFR,,,,,,,,,,,,SPECI,315.0
KRKW 211435Z AUTO 30012G19KT 270V330 2 1/2SM HZ BKN017 BKN024 OVC029 00/M03 A2981 RMK A01,KRKW,2018-03-21T14:35:00Z,35.92,-84.68,0.0,-3.0,300,12,19,2.5,29.811024,,,TRUE,TRUE,,,,,,HZ,BKN,1700,BKN,2400,OVC,2900,,,IFR,,,,,,,,,,,,METAR,508.0
KPVE 211435Z AUTO 31011G18KT 270V330 10SM OVC075 04/M02 A3005 RMK A01,KPVE,2018-03-21T14:35:00Z,35.65,-88.2,4.0,-2.0,310,11,18,10.0,30.050198,,,TRUE,TRUE,,,,,,,OVC,7500,,,,,,,VFR,,,,,,,,,,,,SPECI,149.0
KW99 211435Z AUTO 00000KT 1 1/2SM -SN SCT008 BKN013 OVC027 M02/M03 A2968 RMK AO2 T10201031,KW99,2018-03-21T14:35:00Z,39.0,-79.15,-2.0,-3.1,0,0,,1.5,29.681103,,,TRUE,TRUE,,,,,,-SN,SCT,800,BKN,1300,OVC,2700,,,IFR,,,,,,,,,,,,SPECI,293.0
KVBW 211435Z AUTO 1 1/4SM SCT010 SCT023 OVC028 M02/M03 A2965 RMK AO2 P0001 T10201032,KVBW,2018-03-21T14:35:00Z,38.37,-78.97,-2.0,-3.2,,,,1.25,29.648623,,,TRUE,TRUE,,,,,,,SCT,1000,SCT,2300,OVC,2800,,,IFR,,,,,,0.01,,,,,,SPECI,355.0
KSHD 211435Z AUTO 34004KT 1 1/4SM -SN BKN007 OVC010 M02/M03 A2967 RMK AO2 P0003 T10231032,KSHD,2018-03-21T14:35:00Z,38.27,-78.9,-2.3,-3.2,340,4,,1.25,29.66929,,,TRUE,TRUE,,,,,,-SN,BKN,700,OVC,1000,,,,,IFR,,,,,,0.03,,,,,,SPECI,366.0
KLNP 211435Z AUTO 29013G18KT 10SM -SN OVC013 M01/M03 A2966 RMK AO2,KLNP,2018-03-21T14:35:00Z,36.97,-82.52,-1.0,-3.0,290,13,18,10.0,29.660433,,,TRUE,TRUE,,,,,,-SN,OVC,1300,,,,,,,MVFR,,,,,,,,,,,,SPECI,817.0
KIYA 211435Z AUTO 33005KT 10SM CLR 14/08 A3020 RMK AO2 T01420084,KIYA,2018-03-21T14:35:00Z,29.98,-92.08,14.2,8.4,330,5,,10.0,30.200787,,,TRUE,TRUE,,,,,,,CLR,,,,,,,,VFR,,,,,,,,,,,,SPECI,5.0
KHBV 211435Z AUTO 14009KT 10SM CLR 17/13 A3016 RMK AO2 T01680128,KHBV,2018-03-21T14:35:00Z,27.35,-98.73,16.8,12.8,140,9,,10.0,30.159449,,,TRUE,TRUE,,,,,,,CLR,,,,,,,,VFR,,,,,,,,,,,,SPECI,202.0
KGVT 211435Z AUTO 00000KT 10SM CLR 13/05 A3023 RMK AO2,KGVT,2018-03-21T14:35:00Z,33.07,-96.07,13.0,5.0,0,0,,10.0,30.230314,,,TRUE,TRUE,,,,,,,CLR,,,,,,,,VFR,,,,,,,,,,,,SPECI,163.0
KCTJ 211435Z AUTO 30010G20KT 260V320 10SM OVC025 04/M02 A2995 RMK AO2 T00361016,KCTJ,2018-03-21T14:35:00Z,33.63,-85.15,3.6,-1.6,300,10,20,10.0,29.949802,,,TRUE,TRUE,,,,,,,OVC,2500,,,,,,,MVFR,,,,,,,,,,,,SPECI,354.0
KBWP 211435Z AUTO 16004KT 10SM OVC017 00/M01 A3010 RMK AO1,KBWP,2018-03-21T14:35:00Z,46.25,-96.62,0.0,-1.0,160,4,,10.0,30.100393,,,TRUE,TRUE,,,,,,,OVC,1700,,,,,,,MVFR,,,,,,,,,,,,SPECI,295.0
KAZE 211435Z AUTO 29010G18KT 260V320 10SM CLR 12/00 A2989 RMK AO2 T01181004,KAZE,2018-03-21T14:35:00Z,31.88,-82.65,11.8,-0.4,290,10,18,10.0,29.890747,,,TRUE,TRUE,,,,,,,CLR,,,,,,,,VFR,,,,,,,,,,,,SPECI,78.0
KACJ 211435Z AUTO 30016G22KT 10SM CLR 08/M03 A2996 RMK AO2,KACJ,2018-03-21T14:35:00Z,32.12,-84.18,8.0,-3.0,300,16,22,10.0,29.958662,,,TRUE,TRUE,,,,,,,CLR,,,,,,,,VFR,,,,,,,,,,,,SPECI,143.0
KW29 211435Z AUTO 1/4SM +SN FG OVC004 00/00 A2963 RMK AO2 P0004,KW29,2018-03-21T14:35:00Z,38.98,-76.33,0.0,0.0,,,,0.25,29.630905,,,TRUE,TRUE,,,,,,+SN FG,OVC,400,,,,,,,LIFR,,,,,,0.04,,,,,,SPECI,15.0
KDMW 211435Z AUTO 03005KT 1/2SM SN OVC004 M01/M01 A2964 RMK AO2,KDMW,2018-03-21T14:35:00Z,39.6,-77.0,-1.0,-1.0,30,5,,0.5,29.639763,,,TRUE,TRUE,,,,,,SN,OVC,400,,,,,,,LIFR,,,,,,,,,,,,SPECI,241.0
KCGE 211435Z AUTO 35008G15KT 310V020 2 1/2SM BR BKN007 BKN010 01/00 A2959 RMK A01,KCGE,2018-03-21T14:35:00Z,38.53,-76.03,1.0,0.0,350,8,15,2.5,29.589567,,,TRUE,TRUE,,,,,,BR,BKN,700,BKN,1000,,,,,IFR,,,,,,,,,,,,SPECI,6.0
KW43 211435Z AUTO 00000KT 10SM CLR 00/M06 A2997 RMK AO2,KW43,2018-03-21T14:35:00Z,44.67,-104.57,0.0,-6.0,0,0,,10.0,29.970472,,,TRUE,TRUE,,,,,,,CLR,,,,,,,,VFR,,,,,,,,,,,,SPECI,1300.0
KTMT 211435Z AUTO 00000KT 7SM SCT060 BKN070 BKN080 01/M01 A2993 RMK AO2 T00131015,KTMT,2018-03-21T14:35:00Z,39.47,-117.2,1.3,-1.5,0,0,,7.0,29.929134,,,TRUE,TRUE,,,,,,,SCT,6000,BKN,7000,BKN,8000,,,VFR,,,,,,,,,,,,METAR,1748.0
KSEF 211435Z AUTO 31015G19KT 10SM SCT031 BKN039 19/11 A2999 RMK AO2 T01890106,KSEF,2018-03-21T14:35:00Z,27.45,-81.35,18.9,10.6,310,15,19,10.0,29.991142,,,TRUE,TRUE,,,,,,,SCT,3100,BKN,3900,,,,,VFR,,,,,,,,,,,,METAR,19.0
KRQO 211435Z AUTO 14006KT 10SM CLR 10/02 A3021 RMK AO2 T00960022,KRQO,2018-03-21T14:35:00Z,35.47,-98.0,9.6,2.2,140,6,,10.0,30.209646,,,TRUE,TRUE,,,,,,,CLR,,,,,,,,VFR,,,,,,,,,,,,METAR,432.0
KOPN 211435Z AUTO 30014G23KT OVC025 05/M02 A2993 RMK AO2 PWINO,KOPN,2018-03-21T14:35:00Z,32.95,-84.27,5.0,-2.0,300,14,23,,29.929134,,,TRUE,TRUE,,,,,TRUE,,OVC,2500,,,,,,,,,,,,,,,,,,,METAR,243.0
KIDP 211435Z AUTO 01005KT 10SM CLR 05/01 A3024 RMK AO2 T00460009,KIDP,2018-03-21T14:35:00Z,37.17,-95.78,4.6,0.9,10,5,,10.0,30.239174,,,TRUE,TRUE,,,,,,,CLR,,,,,,,,VFR,,,,,,,,,,,,METAR,251.0
KHSP 211435Z AUTO 00000KT 1SM -SN SCT005 BKN018 OVC027 A2952 RMK AO2,KHSP,2018-03-21T14:35:00Z,37.95,-79.82,,,0,0,,1.0,29.518702,,,TRUE,TRUE,,,,,,-SN,SCT,500,BKN,1800,OVC,2700,,,IFR,,,,,,,,,,,,METAR,1156.0
KEHY 211435Z AUTO 27012KT 10SM SCT120 00/M05 A2996 RMK AO2,KEHY,2018-03-21T14:35:00Z,41.73,-106.47,0.0,-5.0,270,12,,10.0,29.958662,,,TRUE,TRUE,,,,,,,SCT,12000,,,,,,,VFR,,,,,,,,,,,,SPECI,2225.0
KDWX 211435Z AUTO 00000KT 10SM OVC075 00/M03 A3006 RMK AO2 T00041032,KDWX,2018-03-21T14:35:00Z,41.03,-107.5,0.4,-3.2,0,0,,10.0,30.059055,,,TRUE,TRUE,,,,,,,OVC,7500,,,,,,,VFR,,,,,,,,,,,,SPECI,1996.0
KCHK 211435Z AUTO 10003KT 10SM CLR 07/03 A3018 RMK AO2 T00710027,KCHK,2018-03-21T14:35:00Z,35.1,-97.97,7.1,2.7,100,3,,10.0,30.180119,,,TRUE,TRUE,,,,,,,CLR,,,,,,,,VFR,,,,,,,,,,,,METAR,351.0
KCBK 211435Z AUTO 20006KT 10SM CLR 03/00 A3012 RMK AO2,KCBK,2018-03-21T14:35:00Z,39.43,-101.05,3.0,0.0,200,6,,10.0,30.121063,,,TRUE,TRUE,,,,,,,CLR,,,,,,,,VFR,,,,,,,,,,,,METAR,971.0
K1K1 211435Z AUTO 00000KT 10SM CLR 03/00 A3021 RMK AO2 T00301003,K1K1,2018-03-21T14:35:00Z,37.77,-97.12,3.0,-0.3,0,0,,10.0,30.209646,,,TRUE,TRUE,,,,,,,CLR,,,,,,,,VFR,,,,,,,,,,,,METAR,416.0
K1F0 211435Z AUTO 00000KT 10SM CLR 10/00 A3022 RMK AO2,K1F0,2018-03-21T14:35:00Z,34.15,-97.12,10.0,0.0,0,0,,10.0,30.221457,,,TRUE,TRUE,,,,,,,CLR,,,,,,,,VFR,,,,,,,,,,,,METAR,257.0
KPRO 211435Z AUTO 34003KT 10SM OVC042 00/M01 A3018 RMK AO2 T00001015,KPRO,2018-03-21T14:35:00Z,41.83,-94.17,0.0,-1.5,340,3,,10.0,30.180119,,,TRUE,TRUE,,,,,,,OVC,4200,,,,,,,VFR,,,,,,,,,,,,METAR,308.0
KLRO 211435Z AUTO 24012G23KT 10SM SCT038 12/03 A2971 RMK AO2,KLRO,2018-03-21T14:35:00Z,32.9,-79.78,12.0,3.0,240,12,23,10.0,29.71063,,,TRUE,TRUE,,,,,,,SCT,3800,,,,,,,VFR,,,,,,,,,,,,METAR,4.0
KHVS 211435Z AUTO 30005KT 7SM SCT014 SCT018 OVC028 05/02 A2969 RMK AO2,KHVS,2018-03-21T14:35:00Z,34.4,-80.12,5.0,2.0,300,5,,7.0,29.68996,,,TRUE,TRUE,,,,,,,SCT,1400,SCT,1800,OVC,2800,,,MVFR,,,,,,,,,,,,METAR,111.0
YSDU 211434Z AUTO 10019G29KT 9999 // NCD 19/12 Q1022 RF00/0/000/0,YSDU,2018-03-21T14:34:00Z,-32.22,148.57,19.0,12.0,100,19,29,6.21,30.177166,,,TRUE,,,,,,,,CLR,,,,,,,,VFR,,,,,,,,,,,,SPECI,275.0
KGVE 211434Z AUTO 35004KT 3/4SM FZFG OVC011 M01/M01 A2965 RMK AO1 P0001,KGVE,2018-03-21T14:34:00Z,38.15,-78.17,-1.0,-1.0,350,4,,0.75,29.648623,,,TRUE,TRUE,,,,,,FZFG,OVC,1100,,,,,,,LIFR,,,,,,0.01,,,,,,SPECI,138.0
CZSJ 211433Z AUTO 14002KT 6SM HZ CLR M09/M20 A3013 RMK SLP227,CZSJ,2018-03-21T14:33:00Z,53.07,-93.35,-9.0,-20.0,140,2,,6.0,30.129921,1022.7,,TRUE,,,,,,,HZ,CLR,,,,,,,,VFR,,,,,,,,,,,,SPECI,290.0
YGFN 211433Z AUTO 19005KT 9999 // SCT014 19/19 Q1019,YGFN,2018-03-21T14:33:00Z,-29.77,153.03,19.0,19.0,190,5,,6.21,30.088583,,,TRUE,,,,,,,,SCT,1400,,,,,,,VFR,,,,,,,,,,,,SPECI,34.0
RJTL 211433Z 34007KT 300V030 2300 -RA BR BKN003 BKN007 04/04 Q1007 RMK 6ST003 7ST007 A2976,RJTL,2018-03-21T14:33:00Z,35.78,140.02,4.0,4.0,340,7,,1.43,29.734253,,,,,,,,,,-RA BR,BKN,300,BKN,700,,,,,LIFR,,,,,,,,,,,,METAR,33.0
CYFO 211432Z 17004KT 4SM -SN OVC032 M04/M06 A2999 RMK SC8 SLP177,CYFO,2018-03-21T14:32:00Z,54.67,-101.67,-4.0,-6.0,170,4,,4.0,29.991142,1017.7,,,,,,,,,-SN,OVC,3200,,,,,,,MVFR,,,,,,,,,,,,SPECI,304.0
CYSF 211432Z AUTO 06010KT 020V100 5SM -SN BKN028 OVC050 M17/M20 A3015 RMK SLP235,CYSF,2018-03-21T14:32:00Z,59.25,-105.82,-17.0,-20.0,60,10,,5.0,30.15059,1023.5,,TRUE,,,,,,,-SN,BKN,2800,OVC,5000,,,,,MVFR,,,,,,,,,,,,SPECI,250.0
ETNS 211432Z 29015KT 9999 FEW009 SCT013 BKN050 06/02 Q1023 BLU BLU TEMPO GRN,ETNS,2018-03-21T14:32:00Z,54.47,9.52,6.0,2.0,290,15,,6.21,30.206694,,,,,,,,,,,FEW,900,SCT,1300,BKN,5000,,,VFR,,,,,,,,,,,,SPECI,25.0
KMIB 211431Z AUTO 28003KT 9SM SCT009 OVC070 M03/M04 A2998 RMK AO2 SLP180 $,KMIB,2018-03-21T14:31:00Z,48.42,-101.33,-3.0,-4.0,280,3,,9.0,29.97933,1018.0,,TRUE,TRUE,TRUE,,,,,,SCT,900,OVC,7000,,,,,VFR,,,,,,,,,,,,SPECI,508.0
VTCC 211430Z 20003KT 8000 NSC 28/13 Q1010 NOSIG,VTCC,2018-03-21T14:30:00Z,18.77,98.97,28.0,13.0,200,3,,4.97,29.822834,,,,,,TRUE,,,,,CLR,,,,,,,,MVFR,,,,,,,,,,,,METAR,314.0
LYKV 211430Z 34007KT 300V020 8000 -SN BKN010 BKN023 01/M03 Q1020 NOSIG,LYKV,2018-03-21T14:30:00Z,43.82,20.58,1.0,-3.0,340,7,,4.97,30.11811,,,,,,TRUE,,,,-SN,BKN,1000,BKN,2300,,,,,MVFR,,,,,,,,,,,,METAR,209.0
UMMS 211430Z 32007G10MPS 9999 BKN043 M01/M08 Q1013 R31/CLRD// NOSIG,UMMS,2018-03-21T14:30:00Z,53.88,28.03,-1.0,-8.0,320,14,19,6.21,29.911417,,,,,,TRUE,,,,,BKN,4300,,,,,,,VFR,,,,,,,,,,,,SPECI,205.0
UMGG 211430Z 30005G08MPS 4300 -SHSN BLSN SCT008 OVC033CB M01/M02 Q1011 R28/520550 NOSIG,UMGG,2018-03-21T14:30:00Z,52.53,31.02,-1.0,-2.0,300,10,16,2.67,29.852362,,,,,,TRUE,,,,-SHSN BLSN,SCT,800,OVC,3300,,,,,IFR,,,,,,,,,,,,SPECI,144.0
LYNI 211430Z 32012KT 6000 -SN FEW007 SCT015 BKN033 01/M02 Q1019 R11/2///95 NOSIG,LYNI,2018-03-21T14:30:00Z,43.32,21.88,1.0,-2.0,320,12,,3.73,30.088583,,,,,,TRUE,,,,-SN,FEW,700,SCT,1500,BKN,3300,,,MVFR,,,,,,,,,,,,SPECI,202.0
LWOH 211430Z 20004KT 9999 FEW020 BKN040 BKN080 08/04 Q1012,LWOH,2018-03-21T14:30:00Z,41.18,20.75,8.0,4.0,200,4,,6.21,29.88189,,,,,,,,,,,FEW,2000,BKN,4000,BKN,8000,,,VFR,,,,,,,,,,,,METAR,761.0
LFQQ 211430Z AUTO 32008KT 9999 FEW032 OVC056 07/00 Q1029 NOSIG,LFQQ,2018-03-21T14:30:00Z,50.57,3.1,7.0,0.0,320,8,,6.21,30.383858,,,TRUE,,,TRUE,,,,,FEW,3200,OVC,5600,,,,,VFR,,,,,,,,,,,,METAR,52.0
LFPO 211430Z 02010KT 300V060 9999 FEW047 BKN250 08/M04 Q1029 NOSIG,LFPO,2018-03-21T14:30:00Z,48.72,2.38,8.0,-4.0,20,10,,6.21,30.383858,,,,,,TRUE,,,,,FEW,4700,BKN,25000,,,,,VFR,,,,,,,,,,,,METAR,96.0
LFPG 211430Z 01014KT 9999 BKN043 07/M01 Q1030 NOSIG,LFPG,2018-03-21T14:30:00Z,49.02,2.52,7.0,-1.0,10,14,,6.21,30.413385,,,,,,TRUE,,,,,BKN,4300,,,,,,,VFR,,,,,,,,,,,,METAR,109.0
LFMN 211430Z 10017KT 9999 SCT026 SCT130 BKN230 12/M03 Q1013 NOSIG,LFMN,2018-03-21T14:30:00Z,43.63,7.2,12.0,-3.0,100,17,,6.21,29.911417,,,,,,TRUE,,,,,SCT,2600,SCT,13000,BKN,23000,,,VFR,,,,,,,,,,,,METAR,10.0
LFLL 211430Z 36025KT CAVOK 07/M09 Q1022 TEMPO 35025G35KT,LFLL,2018-03-21T14:30:00Z,45.72,5.07,7.0,-9.0,360,25,,6.21,30.177166,,,,,,,,,,,CAVOK,,,,,,,,VFR,,,,,,,,,,,,SPECI,240.0
LFBH 211430Z AUTO 36015KT 330V030 9999 FEW042 08/M01 Q1030 NOSIG,LFBH,2018-03-21T14:30:00Z,46.18,-1.2,8.0,-1.0,360,15,,6.21,30.413385,,,TRUE,,,TRUE,,,,,FEW,4200,,,,,,,VFR,,,,,,,,,,,,METAR,10.0
LFBD 211430Z AUTO 35013KT 320V030 CAVOK 10/M03 Q1029 NOSIG,LFBD,2018-03-21T14:30:00Z,44.82,-0.7,10.0,-3.0,350,13,,6.21,30.383858,,,TRUE,,,TRUE,,,,,CAVOK,,,,,,,,VFR,,,,,,,,,,,,METAR,61.0
VABO 211430Z 32002KT 6000 NSC 30/10 Q1009 NOSIG,VABO,2018-03-21T14:30:00Z,22.33,73.22,30.0,10.0,320,2,,3.73,29.793306,,,,,,TRUE,,,,,CLR,,,,,,,,MVFR,,,,,,,,,,,,METAR,39.0
VEPT 211430Z 00000KT 4000 HZ NSC 27/15 Q1007 NOSIG,VEPT,2018-03-21T14:30:00Z,25.6,85.08,27.0,15.0,0,0,,2.49,29.734253,,,,,,TRUE,,,,HZ,CLR,,,,,,,,IFR,,,,,,,,,,,,METAR,60.0
VABB 211430Z 30009KT 4000 FU NSC 28/19 Q1011 NOSIG,VABB,2018-03-21T14:30:00Z,19.1,72.87,28.0,19.0,300,9,,2.49,29.852362,,,,,,TRUE,,,,FU,CLR,,,,,,,,IFR,,,,,,,,,,,,METAR,8.0
VOTP 211430Z 24005KT 6000 NSC 32/18 Q1008,VOTP,2018-03-21T14:30:00Z,13.63,79.55,32.0,18.0,240,5,,3.73,29.763779,,,,,,,,,,,CLR,,,,,,,,MVFR,,,,,,,,,,,,METAR,107.0
VASU 211430Z 24004KT 6000 NSC 27/14 Q1010,VASU,2018-03-21T14:30:00Z,21.12,72.73,27.0,14.0,240,4,,3.73,29.822834,,,,,,,,,,,CLR,,,,,,,,MVFR,,,,,,,,,,,,METAR,5.0
VOTV 211430Z 30006KT 4000 TSRA FEW010 SCT012 FEW025CB BKN080 30/27 Q1010 TEMPO 3000 TSRA,VOTV,2018-03-21T14:30:00Z,8.47,76.95,30.0,27.0,300,6,,2.49,29.822834,,,,,,,,,,TSRA,FEW,1000,SCT,1200,FEW,2500,BKN,8000,IFR,,,,,,,,,,,,METAR,8.0
VOML 211430Z 29007KT 6000 FEW015 29/23 Q1011 NOSIG,VOML,2018-03-21T14:30:00Z,12.97,74.88,29.0,23.0,290,7,,3.73,29.852362,,,,,,TRUE,,,,,FEW,1500,,,,,,,MVFR,,,,,,,,,,,,METAR,103.0
OIBP 211430Z 31006KT CAVOK 25/17 Q1009 A2980,OIBP,2018-03-21T14:30:00Z,27.38,52.73,25.0,17.0,310,6,,6.21,29.793306,,,,,,,,,,,CAVOK,,,,,,,,VFR,,,,,,,,,,,,METAR,9.0
OIBB 211430Z 27006KT CAVOK 23/16 Q1011 A2986,OIBB,2018-03-21T14:30:00Z,28.97,50.82,23.0,16.0,270,6,,6.21,29.852362,,,,,,,,,,,CAVOK,,,,,,,,VFR,,,,,,,,,,,,METAR,19.0
OIII 211430Z 30010KT 9999 FEW100 BKN190 24/M06 Q1013 A2992,OIII,2018-03-21T14:30:00Z,35.68,51.3,24.0,-6.0,300,10,,6.21,29.911417,,,,,,,,,,,FEW,10000,BKN,19000,,,,,VFR,,,,,,,,,,,,METAR,1191.0
OITT 211430Z 31012KT 9999 FEW015 FEW030CB 15/00 Q1017 A3003,OITT,2018-03-21T14:30:00Z,38.13,46.23,15.0,0.0,310,12,,6.21,30.029528,,,,,,,,,,,FEW,1500,FEW,3000,,,,,VFR,,,,,,,,,,,,METAR,1361.0
OISS 211430Z 27006KT CAVOK 24/M09 Q1016 A3003,OISS,2018-03-21T14:30:00Z,29.52,52.57,24.0,-9.0,270,6,,6.21,30.0,,,,,,,,,,,CAVOK,,,,,,,,VFR,,,,,,,,,,,,METAR,1491.0
OIMM 211430Z 19006KT CAVOK 22/02 Q1012 A2990,OIMM,2018-03-21T14:30:00Z,36.23,59.62,22.0,2.0,190,6,,6.21,29.88189,,,,,,,,,,,CAVOK,,,,,,,,VFR,,,,,,,,,,,,METAR,980.0
OIKB 211430Z 20010KT 6000 NSC 27/19 Q1010 A2983,OIKB,2018-03-21T14:30:00Z,27.22,56.37,27.0,19.0,200,10,,3.73,29.822834,,,,,,,,,,,CLR,,,,,,,,MVFR,,,,,,,,,,,,METAR,10.0
OIFM 211430Z 12004KT CAVOK 23/M14 Q1016 A3002,OIFM,2018-03-21T14:30:00Z,32.75,51.87,23.0,-14.0,120,4,,6.21,30.0,,,,,,,,,,,CAVOK,,,,,,,,VFR,,,,,,,,,,,,METAR,1542.0
OIAW 211430Z 01002KT CAVOK 31/03 Q1011,OIAW,2018-03-21T14:30:00Z,31.32,48.77,31.0,3.0,10,2,,6.21,29.852362,,,,,,,,,,,CAVOK,,,,,,,,VFR,,,,,,,,,,,,METAR,22.0
OIYY 211430Z 01002KT CAVOK 27/M15 Q1015,OIYY,2018-03-21T14:30:00Z,31.9,54.28,27.0,-15.0,10,2,,6.21,29.970472,,,,,,,,,,,CAVOK,,,,,,,,VFR,,,,,,,,,,,,METAR,1236.0
OITR 211430Z 25010KT 9999 FEW035TCU FEW040 18/M02 Q1015,OITR,2018-03-21T14:30:00Z,37.67,45.07,18.0,-2.0,250,10,,6.21,29.970472,,,,,,,,,,,FEW,3500,FEW,4000,,,,,VFR,,,,,,,,,,,,METAR,1312.0
OICC 211430Z 30012KT CAVOK 20/M03 Q1018 A3007 NOSIG,OICC,2018-03-21T14:30:00Z,34.35,47.17,20.0,-3.0,300,12,,6.21,30.059055,,,,,,TRUE,,,,,CAVOK,,,,,,,,VFR,,,,,,,,,,,,METAR,1322.0
VGHS 211430Z 00000KT 4000 HZ NSC 27/15 Q1009 NOSIG,VGHS,2018-03-21T14:30:00Z,23.85,90.4,27.0,15.0,0,0,,2.49,29.793306,,,,,,TRUE,,,,HZ,CLR,,,,,,,,IFR,,,,,,,,,,,,METAR,10.0
EIKN 211430Z 25014KT 9999 FEW018 BKN021 10/05 Q1028 NOSIG,EIKN,2018-03-21T14:30:00Z,53.92,-8.82,10.0,5.0,250,14,,6.21,30.35433,,,,,,TRUE,,,,,FEW,1800,BKN,2100,,,,,MVFR,,,,,,,,,,,,METAR,64.0
EICK 211430Z 25012KT 9999 SCT025 BKN032 09/04 Q1030 NOSIG,EICK,2018-03-21T14:30:00Z,51.85,-8.47,9.0,4.0,250,12,,6.21,30.413385,,,,,,TRUE,,,,,SCT,2500,BKN,3200,,,,,VFR,,,,,,,,,,,,METAR,162.0
EINN 211430Z 25016KT 9999 FEW028 SCT033 BKN045 12/04 Q1030 NOSIG,EINN,2018-03-21T14:30:00Z,52.7,-8.92,12.0,4.0,250,16,,6.21,30.413385,,,,,,TRUE,,,,,FEW,2800,SCT,3300,BKN,4500,,,VFR,,,,,,,,,,,,METAR,20.0
EIDW 211430Z 26020KT 9999 FEW022 SCT032 BKN110 09/03 Q1028,EIDW,2018-03-21T14:30:00Z,53.42,-6.25,9.0,3.0,260,20,,6.21,30.35433,,,,,,,,,,,FEW,2200,SCT,3200,BKN,11000,,,VFR,,,,,,,,,,,,METAR,85.0
LYVR 211430Z 32009KT 8000 BKN010 M00/M03 Q1020 R01/590593 NOSIG,LYVR,2018-03-21T14:30:00Z,45.13,21.32,0.0,-3.0,320,9,,4.97,30.11811,,,,,,TRUE,,,,,BKN,1000,,,,,,,MVFR,,,,,,,,,,,,METAR,85.0
LYUZ 211430Z 33005KT 240V040 1000 -SN BR OVC003 M05/M05 Q1015 R10///////,LYUZ,2018-03-21T14:30:00Z,43.9,19.7,-5.0,-5.0,330,5,,0.62,29.970472,,,,,,,,,,-SN BR,OVC,300,,,,,,,LIFR,,,,,,,,,,,,METAR,904.0
LYTV 211430Z 21006KT 160V240 9999 BKN030 15/08 Q1010 NOSIG,LYTV,2018-03-21T14:30:00Z,42.38,18.72,15.0,8.0,210,6,,6.21,29.822834,,,,,,TRUE,,,,,BKN,3000,,,,,,,MVFR,,,,,,,,,,,,METAR,5.0
LYPG 211430Z 36014KT 9999 -RA FEW010 FEW026TCU BKN040 07/04 Q1011 RERA NOSIG,LYPG,2018-03-21T14:30:00Z,42.37,19.25,7.0,4.0,360,14,,6.21,29.852362,,,,,,TRUE,,,,-RA,FEW,1000,FEW,2600,BKN,4000,,,VFR,,,,,,,,,,,,METAR,43.0
LYBT 211430Z 30006KT 260V330 9999 BKN020 M00/M03 Q1021 R12/////// NOSIG,LYBT,2018-03-21T14:30:00Z,44.93,20.25,0.0,-3.0,300,6,,6.21,30.147638,,,,,,TRUE,,,,,BKN,2000,,,,,,,MVFR,,,,,,,,,,,,METAR,80.0
LYBE 211430Z 34006KT 9999 SCT015 BKN033 M00/M03 Q1021 R12/2///95 NOSIG,LYBE,2018-03-21T14:30:00Z,44.82,20.28,0.0,-3.0,340,6,,6.21,30.147638,,,,,,TRUE,,,,,SCT,1500,BKN,3300,,,,,VFR,,,,,,,,,,,,SPECI,99.0
VHHH 211430Z 06009KT CAVOK 20/07 Q1018 NOSIG,VHHH,2018-03-21T14:30:00Z,22.32,113.92,20.0,7.0,60,9,,6.21,30.059055,,,,,,TRUE,,,,,CAVOK,,,,,,,,VFR,,,,,,,,,,,,METAR,9.0
OPRN 211430Z 00000KT CAVOK 20/12 Q1013 NOSIG RMK A2992,OPRN,2018-03-21T14:30:00Z,33.62,73.08,20.0,12.0,0,0,,6.21,29.911417,,,,,,TRUE,,,,,CAVOK,,,,,,,,VFR,,,,,,,,,,,,SPECI,508.0
OPKC 211430Z 22010KT 6000 NSC 26/10 Q1010 NOSIG,OPKC,2018-03-21T14:30:00Z,24.88,67.17,26.0,10.0,220,10,,3.73,29.822834,,,,,,TRUE,,,,,CLR,,,,,,,,MVFR,,,,,,,,,,,,METAR,22.0
LQTZ 211430Z 28004KT 3000 -SN BR FEW006 BKN012 OVC020 M01/M02 Q1021,LQTZ,2018-03-21T14:30:00Z,44.47,18.73,-1.0,-2.0,280,4,,1.86,30.147638,,,,,,,,,,-SN BR,FEW,600,BKN,1200,OVC,2000,,,IFR,,,,,,,,,,,,METAR,306.0
LQSA 211430Z 31006KT 3000 -SN FEW006 SCT015 BKN025 M02/M03 Q1018 NOSIG,LQSA,2018-03-21T14:30:00Z,43.82,18.32,-2.0,-3.0,310,6,,1.86,30.059055,,,,,,TRUE,,,,-SN,FEW,600,SCT,1500,BKN,2500,,,IFR,,,,,,,,,,,,METAR,511.0
LQBK 211430Z 33002KT 8000 SCT020 BKN037 03/M02 Q1022 R17/19//95 NOSIG,LQBK,2018-03-21T14:30:00Z,44.93,17.3,3.0,-2.0,330,2,,4.97,30.177166,,,,,,TRUE,,,,,SCT,2000,BKN,3700,,,,,MVFR,,,,,,,,,,,,METAR,122.0
LKTB 211430Z 34016KT CAVOK 04/M15 Q1023 NOSIG,LKTB,2018-03-21T14:30:00Z,49.13,16.68,4.0,-15.0,340,16,,6.21,30.206694,,,,,,TRUE,,,,,CAVOK,,,,,,,,VFR,,,,,,,,,,,,METAR,246.0
LKPR 211430Z 34007KT 300V020 CAVOK 02/M11 Q1024 NOSIG,LKPR,2018-03-21T14:30:00Z,50.1,14.27,2.0,-11.0,340,7,,6.21,30.236221,,,,,,TRUE,,,,,CAVOK,,,,,,,,VFR,,,,,,,,,,,,METAR,365.0
LKMT 211430Z 35008KT 9999 BKN046 00/M10 Q1023 NOSIG,LKMT,2018-03-21T14:30:00Z,49.67,18.12,0.0,-10.0,350,8,,6.21,30.206694,,,,,,TRUE,,,,,BKN,4600,,,,,,,VFR,,,,,,,,,,,,METAR,256.0
LKKV 211430Z 29005KT 220V330 CAVOK 02/M12 Q1023,LKKV,2018-03-21T14:30:00Z,50.2,12.92,2.0,-12.0,290,5,,6.21,30.206694,,,,,,,,,,,CAVOK,,,,,,,,VFR,,,,,,,,,,,,METAR,604.0
BIKF 211430Z 21018G28KT 5000 -SHRA FEW013 SCT029 BKN033 05/04 Q1002,BIKF,2018-03-21T14:30:00Z,63.98,-22.6,5.0,4.0,210,18,28,3.11,29.586615,,,,,,,,,,-SHRA,FEW,1300,SCT,2900,BKN,3300,,,MVFR,,,,,,,,,,,,METAR,54.0
LZZI 211430Z 03010KT 350V080 9999 BKN053 01/M11 Q1022,LZZI,2018-03-21T14:30:00Z,49.23,18.62,1.0,-11.0,30,10,,6.21,30.177166,,,,,,,,,,,BKN,5300,,,,,,,VFR,,,,,,,,,,,,METAR,311.0
LZSL 211430Z 02010G22KT 350V060 9999 FEW056 03/M12 Q1020,LZSL,2018-03-21T14:30:00Z,48.63,19.13,3.0,-12.0,20,10,22,6.21,30.11811,,,,,,,,,,,FEW,5600,,,,,,,VFR,,,,,,,,,,,,METAR,313.0
LZPP 211430Z 35017KT CAVOK 03/M11 Q1022,LZPP,2018-03-21T14:30:00Z,48.62,17.83,3.0,-11.0,350,17,,6.21,30.177166,,,,,,,,,,,CAVOK,,,,,,,,VFR,,,,,,,,,,,,METAR,161.0
UBBB 211430Z 34020KT 9999 -SHRA SCT050CB OVC100 12/06 Q1014 WS ALL RWY R88/D NOSIG,UBBB,2018-03-21T14:30:00Z,40.45,50.07,12.0,6.0,340,20,,6.21,29.940945,,,,,,TRUE,,,,-SHRA,SCT,5000,OVC,10000,,,,,VFR,,,,,,,,,,,,METAR,-6.0
HECA 211430Z 04016KT CAVOK 32/M05 Q1015 NOSIG,HECA,2018-03-21T14:30:00Z,30.12,31.38,32.0,-5.0,40,16,,6.21,29.970472,,,,,,TRUE,,,,,CAVOK,,,,,,,,VFR,,,,,,,,,,,,METAR,74.0
LCPH 211430Z 26007KT 240V300 CAVOK 21/13 Q1018,LCPH,2018-03-21T14:30:00Z,34.72,32.47,21.0,13.0,260,7,,6.21,30.059055,,,,,,,,,,,CAVOK,,,,,,,,VFR,,,,,,,,,,,,METAR,8.0
LCLK 211430Z 21015KT CAVOK 20/14 Q1017 NOSIG,LCLK,2018-03-21T14:30:00Z,34.87,33.62,20.0,14.0,210,15,,6.21,30.029528,,,,,,TRUE,,,,,CAVOK,,,,,,,,VFR,,,,,,,,,,,,METAR,2.0
UBBG 211430Z 31018KT 9999 SCT083 16/06 Q1013 R30/CLRD// NOSIG,UBBG,2018-03-21T14:30:00Z,40.73,46.32,16.0,6.0,310,18,,6.21,29.911417,,,,,,TRUE,,,,,SCT,8300,,,,,,,VFR,,,,,,,,,,,,SPECI,330.0
VERC 211430Z 16002KT 3500 HZ FEW100 27/08 Q1012 NOSIG,VERC,2018-03-21T14:30:00Z,23.32,85.32,27.0,8.0,160,2,,2.17,29.88189,,,,,,TRUE,,,,HZ,FEW,10000,,,,,,,IFR,,,,,,,,,,,,METAR,652.0
VOBZ 211430Z 00000KT 3500 HZ NSC 28/20 Q1008 NOSIG,VOBZ,2018-03-21T14:30:00Z,16.52,80.78,28.0,20.0,0,0,,2.17,29.763779,,,,,,TRUE,,,,HZ,CLR,,,,,,,,IFR,,,,,,,,,,,,METAR,24.0
VAAH 211430Z 28003KT 4000 FU NSC 31/06 Q1009 NOSIG,VAAH,2018-03-21T14:30:00Z,23.07,72.62,31.0,6.0,280,3,,2.49,29.793306,,,,,,TRUE,,,,FU,CLR,,,,,,,,IFR,,,,,,,,,,,,METAR,55.0
VORY 211430Z 19006KT 4000 HZ NSC 29/22 Q1009 NOSIG,VORY,2018-03-21T14:30:00Z,17.1,81.82,29.0,22.0,190,6,,2.49,29.793306,,,,,,TRUE,,,,HZ,CLR,,,,,,,,IFR,,,,,,,,,,,,METAR,46.0
VOCB 211430Z 25011KT 5000 HZ FEW015 29/21 Q1012 NOSIG,VOCB,2018-03-21T14:30:00Z,11.02,77.03,29.0,21.0,250,11,,3.11,29.88189,,,,,,TRUE,,,,HZ,FEW,1500,,,,,,,MVFR,,,,,,,,,,,,METAR,399.0
GLRB 211430Z 22013KT 9999 BKN020 33/25 Q1010 NOSIG,GLRB,2018-03-21T14:30:00Z,6.25,-10.33,33.0,25.0,220,13,,6.21,29.822834,,,,,,TRUE,,,,,BKN,2000,,,,,,,MVFR,,,,,,,,,,,,METAR,18.0
EPWA 211430Z 33011KT 290V350 CAVOK 03/M11 Q1021 NOSIG,EPWA,2018-03-21T14:30:00Z,52.17,20.97,3.0,-11.0,330,11,,6.21,30.147638,,,,,,TRUE,,,,,CAVOK,,,,,,,,VFR,,,,,,,,,,,,METAR,107.0
EPRZ 211430Z 32014KT 9999 BKN040 M01/M10 Q1021 R27/2///95,EPRZ,2018-03-21T14:30:00Z,50.1,22.05,-1.0,-10.0,320,14,,6.21,30.147638,,,,,,,,,,,BKN,4000,,,,,,,VFR,,,,,,,,,,,,SPECI,202.0
EPPO 211430Z 29009KT CAVOK 05/M07 Q1023 R10/09//95,EPPO,2018-03-21T14:30:00Z,52.42,16.82,5.0,-7.0,290,9,,6.21,30.206694,,,,,,,,,,,CAVOK,,,,,,,,VFR,,,,,,,,,,,,SPECI,92.0
EPLL 211430Z 30012KT 270V330 9999 SCT044 01/M09 Q1022,EPLL,2018-03-21T14:30:00Z,51.72,19.4,1.0,-9.0,300,12,,6.21,30.177166,,,,,,,,,,,SCT,4400,,,,,,,VFR,,,,,,,,,,,,METAR,184.0
EPKK 211430Z 33009KT 9999 FEW037 SCT046 00/M11 Q1022,EPKK,2018-03-21T14:30:00Z,50.07,19.8,0.0,-11.0,330,9,,6.21,30.177166,,,,,,,,,,,FEW,3700,SCT,4600,,,,,VFR,,,,,,,,,,,,METAR,237.0
EPGD 211430Z 28010G21KT 250V320 CAVOK 04/M08 Q1020 R11/290095,EPGD,2018-03-21T14:30:00Z,54.37,18.47,4.0,-8.0,280,10,21,6.21,30.11811,,,,,,,,,,,CAVOK,,,,,,,,VFR,,,,,,,,,,,,SPECI,138.0
EPWR 211430Z 32010KT 300V360 CAVOK 04/M09 Q1025,EPWR,2018-03-21T14:30:00Z,51.1,16.87,4.0,-9.0,320,10,,6.21,30.265747,,,,,,,,,,,CAVOK,,,,,,,,VFR,,,,,,,,,,,,METAR,121.0
EPSY 211430Z 32012KT 280V350 CAVOK 03/M11 Q1020,EPSY,2018-03-21T14:30:00Z,53.47,20.93,3.0,-11.0,320,12,,6.21,30.11811,,,,,,,,,,,CAVOK,,,,,,,,VFR,,,,,,,,,,,,METAR,141.0
EPSC 211430Z 24009KT 200V280 CAVOK 05/M06 Q1022,EPSC,2018-03-21T14:30:00Z,53.58,14.9,5.0,-6.0,240,9,,6.21,30.177166,,,,,,,,,,,CAVOK,,,,,,,,VFR,,,,,,,,,,,,METAR,47.0
EPRA 211430Z 31011KT CAVOK 00/M10 Q1021,EPRA,2018-03-21T14:30:00Z,51.38,21.22,0.0,-10.0,310,11,,6.21,30.147638,,,,,,,,,,,CAVOK,,,,,,,,VFR,,,,,,,,,,,,METAR,178.0
EPMO 211430Z 32012KT CAVOK 03/M12 Q1021,EPMO,2018-03-21T14:30:00Z,52.45,20.65,3.0,-12.0,320,12,,6.21,30.147638,,,,,,,,,,,CAVOK,,,,,,,,VFR,,,,,,,,,,,,METAR,104.0
EPLB 211430Z 31009KT 9999 FEW047 M00/M08 Q1019,EPLB,2018-03-21T14:30:00Z,51.23,22.72,0.0,-8.0,310,9,,6.21,30.088583,,,,,,,,,,,FEW,4700,,,,,,,VFR,,,,,,,,,,,,METAR,206.0
EPKT 211430Z 34011KT 290V360 CAVOK M00/M12 Q1022,EPKT,2018-03-21T14:30:00Z,50.47,19.08,0.0,-12.0,340,11,,6.21,30.177166,,,,,,,,,,,CAVOK,,,,,,,,VFR,,,,,,,,,,,,METAR,284.0
EPBY 211430Z 29013KT CAVOK 05/M10 Q1022,EPBY,2018-03-21T14:30:00Z,53.1,18.0,5.0,-10.0,290,13,,6.21,30.177166,,,,,,,,,,,CAVOK,,,,,,,,VFR,,,,,,,,,,,,METAR,71.0
NTAA 211430Z AUTO 12003KT 9999 NCD 25/21 Q1010,NTAA,2018-03-21T14:30:00Z,-17.55,-149.62,25.0,21.0,120,3,,6.21,29.822834,,,TRUE,,,,,,,,CLR,,,,,,,,VFR,,,,,,,,,,,,METAR,2.0
GMTT 211430Z 34013KT 9999 FEW016 13/01 Q1023 NOSIG,GMTT,2018-03-21T14:30:00Z,35.72,-5.9,13.0,1.0,340,13,,6.21,30.206694,,,,,,TRUE,,,,,FEW,1600,,,,,,,VFR,,,,,,,,,,,,METAR,21.0
GMMX 211430Z 05006KT 360V120 9999 SCT026 16/M05 Q1023 NOSIG,GMMX,2018-03-21T14:30:00Z,31.62,-8.02,16.0,-5.0,50,6,,6.21,30.206694,,,,,,TRUE,,,,,SCT,2600,,,,,,,VFR,,,,,,,,,,,,METAR,466.0
GMMN 211430Z 33012KT 9999 BKN020 15/08 Q1025 NOSIG,GMMN,2018-03-21T14:30:00Z,33.37,-7.57,15.0,8.0,330,12,,6.21,30.265747,,,,,,TRUE,,,,,BKN,2000,,,,,,,MVFR,,,,,,,,,,,,METAR,206.0
GMME 211430Z 30010KT 260V330 9999 SCT011 SCT015 16/04 Q1024 NOSIG,GMME,2018-03-21T14:30:00Z,34.03,-6.77,16.0,4.0,300,10,,6.21,30.236221,,,,,,TRUE,,,,,SCT,1100,SCT,1500,,,,,VFR,,,,,,,,,,,,METAR,75.0
GMFF 211430Z 26012KT 230V290 9999 BKN030 FEW033CB SCT080 13/05 Q1022 NOSIG,GMFF,2018-03-21T14:30:00Z,33.92,-4.97,13.0,5.0,260,12,,6.21,30.177166,,,,,,TRUE,,,,,BKN,3000,FEW,3300,SCT,8000,,,MVFR,,,,,,,,,,,,METAR,579.0
GMAD 211430Z VRB04KT CAVOK 23/02 Q1018 NOSIG,GMAD,2018-03-21T14:30:00Z,30.32,-9.42,23.0,2.0,0,4,,6.21,30.059055,,,,,,TRUE,,,,,CAVOK,,,,,,,,VFR,,,,,,,,,,,,METAR,74.0
DIAP 211430Z 22014KT 9999 FEW012 31/25 Q1010 NOSIG,DIAP,2018-03-21T14:30:00Z,5.25,-3.92,31.0,25.0,220,14,,6.21,29.822834,,,,,,TRUE,,,,,FEW,1200,,,,,,,VFR,,,,,,,,,,,,METAR,8.0
FMCZ 211430Z 20009KT 9999 FEW023 30/24 Q1012 NOSIG,FMCZ,2018-03-21T14:30:00Z,-12.8,45.27,30.0,24.0,200,9,,6.21,29.88189,,,,,,TRUE,,,,,FEW,2300,,,,,,,VFR,,,,,,,,,,,,METAR,7.0
UGSB 211430Z 04006KT 020V080 9999 FEW100 14/08 Q1020 R13/70D NOSIG,UGSB,2018-03-21T14:30:00Z,41.62,41.6,14.0,8.0,40,6,,6.21,30.11811,,,,,,TRUE,,,,,FEW,10000,,,,,,,VFR,,,,,,,,,,,,METAR,32.0
UGKO 211430Z 31004KT 270V360 9999 SCT039 16/07 Q1019 R25/09//70 NOSIG,UGKO,2018-03-21T14:30:00Z,42.18,42.48,16.0,7.0,310,4,,6.21,30.088583,,,,,,TRUE,,,,,SCT,3900,,,,,,,VFR,,,,,,,,,,,,METAR,68.0
UGTB 211430Z 32021KT CAVOK 13/03 Q1019 R31L/CLRD70 NOSIG,UGTB,2018-03-21T14:30:00Z,41.67,44.95,13.0,3.0,320,21,,6.21,30.088583,,,,,,TRUE,,,,,CAVOK,,,,,,,,VFR,,,,,,,,,,,,METAR,495.0
VOBL 211430Z 13006KT 6000 SCT012 29/12 Q1015 NOSIG,VOBL,2018-03-21T14:30:00Z,13.2,77.7,29.0,12.0,130,6,,3.73,29.970472,,,,,,TRUE,,,,,SCT,1200,,,,,,,MVFR,,,,,,,,,,,,METAR,915.0
LFSI 211430Z AUTO 04009KT 360V070 CAVOK 08/M07 Q1027,LFSI,2018-03-21T14:30:00Z,48.62,4.9,8.0,-7.0,40,9,,6.21,30.324802,,,TRUE,,,,,,,,CAVOK,,,,,,,,VFR,,,,,,,,,,,,METAR,140.0
LFSB 211430Z 36012KT 330V030 9999 FEW050 06/M07 Q1025 TEMPO 36015G25KT,LFSB,2018-03-21T14:30:00Z,47.6,7.52,6.0,-7.0,360,12,,6.21,30.265747,,,,,,,,,,,FEW,5000,,,,,,,VFR,,,,,,,,,,,,SPECI,271.0
LFRN 211430Z AUTO 03009KT 340V070 9999 FEW045 09/M01 Q1032 NOSIG,LFRN,2018-03-21T14:30:00Z,48.07,-1.72,9.0,-1.0,30,9,,6.21,30.47244,,,TRUE,,,TRUE,,,,,FEW,4500,,,,,,,VFR,,,,,,,,,,,,METAR,37.0
LFRD 211430Z AUTO 03008KT 360V060 CAVOK 08/M00 Q1032 NOSIG,LFRD,2018-03-21T14:30:00Z,48.58,-2.07,8.0,0.0,30,8,,6.21,30.47244,,,TRUE,,,TRUE,,,,,CAVOK,,,,,,,,VFR,,,,,,,,,,,,METAR,59.0
LFPB 211430Z AUTO 03011KT 350V050 9999 BKN044 BKN220 07/M02 Q1030 NOSIG,LFPB,2018-03-21T14:30:00Z,48.97,2.45,7.0,-2.0,30,11,,6.21,30.413385,,,TRUE,,,TRUE,,,,,BKN,4400,BKN,22000,,,,,VFR,,,,,,,,,,,,METAR,65.0
LFOK 211430Z AUTO 01013KT 9999 FEW042 06/M04 Q1028 NOSIG,LFOK,2018-03-21T14:30:00Z,48.78,4.18,6.0,-4.0,10,13,,6.21,30.35433,,,TRUE,,,TRUE,,,,,FEW,4200,,,,,,,VFR,,,,,,,,,,,,METAR,162.0
LFOB 211430Z AUTO 01008KT 350V060 9999 SCT032 BKN039 OVC047 07/M00 Q1030 NOSIG,LFOB,2018-03-21T14:30:00Z,49.47,2.12,7.0,0.0,10,8,,6.21,30.413385,,,TRUE,,,TRUE,,,,,SCT,3200,BKN,3900,OVC,4700,,,VFR,,,,,,,,,,,,METAR,111.0
LFMU 211430Z AUTO 33018KT 300V360 CAVOK 12/M12 Q1019 BECMG 32018G30KT,LFMU,2018-03-21T14:30:00Z,43.32,3.35,12.0,-12.0,330,18,,6.21,30.088583,,,TRUE,,,,,,,,CAVOK,,,,,,,,VFR,,,,,,,,,,,,SPECI,17.0
LFMT 211430Z AUTO 02019KT 350V050 CAVOK 12/M06 Q1018 BECMG 36015G30KT,LFMT,2018-03-21T14:30:00Z,43.57,3.97,12.0,-6.0,20,19,,6.21,30.059055,,,TRUE,,,,,,,,CAVOK,,,,,,,,VFR,,,,,,,,,,,,SPECI,6.0
LFMK 211430Z AUTO 30021G32KT 9999 FEW058 09/M02 Q1022 NOSIG,LFMK,2018-03-21T14:30:00Z,43.22,2.32,9.0,-2.0,300,21,32,6.21,30.177166,,,TRUE,,,TRUE,,,,,FEW,5800,,,,,,,VFR,,,,,,,,,,,,METAR,130.0
LFLY 211430Z AUTO 36023KT 350V050 CAVOK 08/M09 Q1022 TEMPO 36022G35KT,LFLY,2018-03-21T14:30:00Z,45.72,4.95,8.0,-9.0,360,23,,6.21,30.177166,,,TRUE,,,,,,,,CAVOK,,,,,,,,VFR,,,,,,,,,,,,SPECI,201.0
LJCE 211430Z 04011KT 350V080 9999 FEW045 BKN060 04/M06 Q1022 RMK BLU,LJCE,2018-03-21T14:30:00Z,45.9,15.52,4.0,-6.0,40,11,,6.21,30.177166,,,,,,,,,,,FEW,4500,BKN,6000,,,,,VFR,,,,,,,,,,,,METAR,155.0
LFRL 211430Z AUTO 35007KT 320V020 9999 OVC044/// 09/00 Q1033 NOSIG,LFRL,2018-03-21T14:30:00Z,48.27,-4.42,9.0,0.0,350,7,,6.21,30.501968,,,TRUE,,,TRUE,,,,,OVC,4400,,,,,,,VFR,,,,,,,,,,,,METAR,82.0
LFRJ 211430Z AUTO 01008KT 340V040 9999 FEW036/// OVC044/// 08/01 Q1033 NOSIG,LFRJ,2018-03-21T14:30:00Z,48.52,-4.15,8.0,1.0,10,8,,6.21,30.501968,,,TRUE,,,TRUE,,,,,FEW,3600,OVC,4400,,,,,VFR,,,,,,,,,,,,METAR,115.0
LFOJ 211430Z AUTO 03010KT 340V070 CAVOK 08/M03 Q1029 TEMPO 01015G25KT,LFOJ,2018-03-21T14:30:00Z,47.97,1.75,8.0,-3.0,30,10,,6.21,30.383858,,,TRUE,,,,,,,,CAVOK,,,,,,,,VFR,,,,,,,,,,,,SPECI,125.0
LFOE 211430Z AUTO 04006KT 340V080 9999 OVC043 07/M01 Q1030 NOSIG,LFOE,2018-03-21T14:30:00Z,49.02,1.22,7.0,-1.0,40,6,,6.21,30.413385,,,TRUE,,,TRUE,,,,,OVC,4300,,,,,,,VFR,,,,,,,,,,,,METAR,146.0
LFOC 211430Z AUTO VRB10KT 9999 SCT042 SCT180 08/M03 Q1029 NOSIG,LFOC,2018-03-21T14:30:00Z,48.03,1.37,8.0,-3.0,0,10,,6.21,30.383858,,,TRUE,,,TRUE,,,,,SCT,4200,SCT,18000,,,,,VFR,,,,,,,,,,,,METAR,127.0
LFPV 211430Z AUTO 01008KT 310V040 9999 SCT047 SCT200 07/M04 Q1029 NOSIG,LFPV,2018-03-21T14:30:00Z,48.77,2.2,7.0,-4.0,10,8,,6.21,30.383858,,,TRUE,,,TRUE,,,,,SCT,4700,SCT,20000,,,,,VFR,,,,,,,,,,,,METAR,179.0
RKSI 211430Z 28003KT 240V310 9999 FEW040 BKN090 02/M00 Q1017 NOSIG,RKSI,2018-03-21T14:30:00Z,37.47,126.45,2.0,0.0,280,3,,6.21,30.029528,,,,,,TRUE,,,,,FEW,4000,BKN,9000,,,,,VFR,,,,,,,,,,,,METAR,7.0
LFLN 211430Z AUTO 35015KT 320V050 CAVOK 08/M07 Q1024 TEMPO 35015G25KT,LFLN,2018-03-21T14:30:00Z,46.42,4.02,8.0,-7.0,350,15,,6.21,30.236221,,,TRUE,,,,,,,,CAVOK,,,,,,,,VFR,,,,,,,,,,,,METAR,244.0
LFPM 211430Z AUTO 36008KT 330V050 9999 FEW048 08/M02 Q1029,LFPM,2018-03-21T14:30:00Z,48.62,2.67,8.0,-2.0,360,8,,6.21,30.383858,,,TRUE,,,,,,,,FEW,4800,,,,,,,VFR,,,,,,,,,,,,METAR,92.0
LFPN 211430Z AUTO 02011KT 350V050 9999 SCT046 07/M03 Q1029 NOSIG,LFPN,2018-03-21T14:30:00Z,48.75,2.12,7.0,-3.0,20,11,,6.21,30.383858,,,TRUE,,,TRUE,,,,,SCT,4600,,,,,,,VFR,,,,,,,,,,,,METAR,164.0
LFRC 211430Z AUTO 30006KT 270V080 CAVOK 08/00 Q1032 NOSIG,LFRC,2018-03-21T14:30:00Z,49.63,-1.47,8.0,0.0,300,6,,6.21,30.47244,,,TRUE,,,TRUE,,,,,CAVOK,,,,,,,,VFR,,,,,,,,,,,,METAR,138.0
LFRH 211430Z AUTO 02006KT 350V060 9999 NCD 10/M00 Q1032 NOSIG,LFRH,2018-03-21T14:30:00Z,47.77,-3.45,10.0,0.0,20,6,,6.21,30.47244,,,TRUE,,,TRUE,,,,,CLR,,,,,,,,VFR,,,,,,,,,,,,METAR,44.0
LFRQ 211430Z AUTO 35009KT 9999 BKN046/// OVC052/// 10/00 Q1033 NOSIG,LFRQ,2018-03-21T14:30:00Z,47.97,-4.17,10.0,0.0,350,9,,6.21,30.501968,,,TRUE,,,TRUE,,,,,BKN,4600,OVC,5200,,,,,VFR,,,,,,,,,,,,METAR,94.0
GEML 211430Z 27014KT 240V320 9999 FEW030 14/03 Q1020,GEML,2018-03-21T14:30:00Z,35.27,-2.95,14.0,3.0,270,14,,6.21,30.11811,,,,,,,,,,,FEW,3000,,,,,,,VFR,,,,,,,,,,,,METAR,55.0
LEBG 211430Z 01018G32KT 330V040 9999 FEW037 SCT048 04/M06 Q1026,LEBG,2018-03-21T14:30:00Z,42.37,-3.62,4.0,-6.0,10,18,32,6.21,30.295275,,,,,,,,,,,FEW,3700,SCT,4800,,,,,VFR,,,,,,,,,,,,METAR,891.0
LEBA 211430Z 03013KT 350V080 CAVOK 15/M00 Q1022,LEBA,2018-03-21T14:30:00Z,37.85,-4.82,15.0,0.0,30,13,,6.21,30.177166,,,,,,,,,,,CAVOK,,,,,,,,VFR,,,,,,,,,,,,METAR,92.0
SPJR 211430Z 17003KT 9999 SCT023 SCT050 15/10 Q1028,SPJR,2018-03-21T14:30:00Z,-7.12,-78.47,15.0,10.0,170,3,,6.21,30.35433,,,,,,,,,,,SCT,2300,SCT,5000,,,,,VFR,,,,,,,,,,,,SPECI,2622.0
LEHC 211430Z 30015KT 260V330 CAVOK 10/M10 Q1019,LEHC,2018-03-21T14:30:00Z,42.08,-0.32,10.0,-10.0,300,15,,6.21,30.088583,,,,,,,,,,,CAVOK,,,,,,,,VFR,,,,,,,,,,,,METAR,539.0
ZGGG 211430Z 01005MPS CAVOK 18/06 Q1018 NOSIG,ZGGG,2018-03-21T14:30:00Z,23.4,113.3,18.0,6.0,10,10,,6.21,30.059055,,,,,,TRUE,,,,,CAVOK,,,,,,,,VFR,,,,,,,,,,,,METAR,15.0
ZBYN 211430Z 30003MPS CAVOK 10/M00 Q1016 NOSIG,ZBYN,2018-03-21T14:30:00Z,37.77,112.63,10.0,0.0,300,6,,6.21,30.0,,,,,,TRUE,,,,,CAVOK,,,,,,,,VFR,,,,,,,,,,,,METAR,779.0
ZBTJ 211430Z 19002MPS CAVOK 03/M03 Q1018 NOSIG,ZBTJ,2018-03-21T14:30:00Z,39.12,117.35,3.0,-3.0,190,4,,6.21,30.059055,,,,,,TRUE,,,,,CAVOK,,,,,,,,VFR,,,,,,,,,,,,METAR,3.0
ZBAA 211430Z 17002MPS 150V220 CAVOK 05/M08 Q1018 NOSIG,ZBAA,2018-03-21T14:30:00Z,40.07,116.58,5.0,-8.0,170,4,,6.21,30.059055,,,,,,TRUE,,,,,CAVOK,,,,,,,,VFR,,,,,,,,,,,,METAR,30.0
LECH 211430Z AUTO 35015G27KT 300V040 9999 NCD 12/M08 Q1018,LECH,2018-03-21T14:30:00Z,40.2,0.07,12.0,-8.0,350,15,27,6.21,30.059055,,,TRUE,,,,,,,,CLR,,,,,,,,VFR,,,,,,,,,,,,METAR,337.0
ZYTX 211430Z 15002MPS CAVOK M03/M08 Q1016 NOSIG,ZYTX,2018-03-21T14:30:00Z,41.63,123.48,-3.0,-8.0,150,4,,6.21,30.0,,,,,,TRUE,,,,,CAVOK,,,,,,,,VFR,,,,,,,,,,,,METAR,35.0
ZYTL 211430Z 28003MPS CAVOK M01/M06 Q1018 NOSIG,ZYTL,2018-03-21T14:30:00Z,38.97,121.53,-1.0,-6.0,280,6,,6.21,30.059055,,,,,,TRUE,,,,,CAVOK,,,,,,,,VFR,,,,,,,,,,,,METAR,97.0
ZWWW 211430Z VRB02MPS 6000 NSC 12/04 Q1018 NOSIG,ZWWW,2018-03-21T14:30:00Z,43.88,87.47,12.0,4.0,0,4,,3.73,30.059055,,,,,,TRUE,,,,,CLR,,,,,,,,MVFR,,,,,,,,,,,,METAR,654.0
ZSSS 211430Z 26003MPS 9999 BKN040 07/03 Q1021 NOSIG,ZSSS,2018-03-21T14:30:00Z,31.2,121.33,7.0,3.0,260,6,,6.21,30.147638,,,,,,TRUE,,,,,BKN,4000,,,,,,,VFR,,,,,,,,,,,,METAR,7.0
ZSPD 211430Z 31004MPS 8000 OVC033 07/03 Q1021 NOSIG,ZSPD,2018-03-21T14:30:00Z,31.15,121.8,7.0,3.0,310,8,,4.97,30.147638,,,,,,TRUE,,,,,OVC,3300,,,,,,,MVFR,,,,,,,,,,,,METAR,4.0
ZSHC 211430Z 25002MPS 7000 SCT033 06/04 Q1022 NOSIG,ZSHC,2018-03-21T14:30:00Z,30.22,120.43,6.0,4.0,250,4,,4.35,30.177166,,,,,,TRUE,,,,,SCT,3300,,,,,,,MVFR,,,,,,,,,,,,METAR,43.0
UTDL 211430Z 25004MPS 7000 NSC 18/11 Q1011 R26/CLRD70 NOSIG RMK QFE721/0961,UTDL,2018-03-21T14:30:00Z,40.22,69.7,18.0,11.0,250,8,,4.35,29.852362,,,,,,TRUE,,,,,CLR,,,,,,,,MVFR,,,,,,,,,,,,SPECI,442.0
UTDT 211430Z 00000MPS 9000 FEW130 19/11 Q1012 35////// RMK QFE719/0959,UTDT,2018-03-21T14:30:00Z,37.87,68.87,19.0,11.0,0,0,,5.59,29.88189,,,,,,,,,,,FEW,13000,,,,,,,VFR,,,,,,,,,,,,METAR,449.0
UTDK 211430Z 08001MPS 9999 NSC 18/12 Q1013 R01/09//70 RMK QFE703/0937,UTDK,2018-03-21T14:30:00Z,37.98,69.8,18.0,12.0,80,2,,6.21,29.911417,,,,,,,,,,,CLR,,,,,,,,VFR,,,,,,,,,,,,METAR,699.0
UTDD 211430Z 01002MPS 9999 NSC 19/09 Q1013 R09/D NOSIG RMK QFE692/0922,UTDD,2018-03-21T14:30:00Z,38.53,68.82,19.0,9.0,10,4,,6.21,29.911417,,,,,,TRUE,,,,,CLR,,,,,,,,VFR,,,,,,,,,,,,METAR,803.0
UCFO 211430Z 17001MPS 2000 FU NSC 15/08 Q1012 R12/CLRD70 NOSIG,UCFO,2018-03-21T14:30:00Z,40.6,72.8,15.0,8.0,170,2,,1.24,29.88189,,,,,,TRUE,,,,FU,CLR,,,,,,,,IFR,,,,,,,,,,,,METAR,884.0
UCFM 211430Z 28003MPS 9000 NSC 15/06 Q1012 R08/CLRD70 NOSIG,UCFM,2018-03-21T14:30:00Z,43.07,74.48,15.0,6.0,280,6,,5.59,29.88189,,,,,,TRUE,,,,,CLR,,,,,,,,VFR,,,,,,,,,,,,METAR,633.0
VECC 211430Z 00000KT 2800 HZ NSC 30/14 Q1007 NOSIG,VECC,2018-03-21T14:30:00Z,22.65,88.43,30.0,14.0,0,0,,1.74,29.734253,,,,,,TRUE,,,,HZ,CLR,,,,,,,,IFR,,,,,,,,,,,,METAR,6.0
UAKD 211430Z 36004MPS 9999 BKN100 02/01 Q1011 R04/0///65 NOSIG RMK QFE725/0966,UAKD,2018-03-21T14:30:00Z,47.7,67.73,2.0,1.0,360,8,,6.21,29.852362,,,,,,TRUE,,,,,BKN,10000,,,,,,,VFR,,,,,,,,,,,,SPECI,381.0
UAUU 211430Z 02003MPS CAVOK M10/M11 Q1014 R33/220050 NOSIG RMK QFE745/0993,UAUU,2018-03-21T14:30:00Z,53.2,63.55,-10.0,-11.0,20,6,,6.21,29.940945,,,,,,TRUE,,,,,CAVOK,,,,,,,,VFR,,,,,,,,,,,,SPECI,182.0
UATT 211430Z 13004MPS 8000 OVC005 00/M00 Q1010 R13/0///60 NOSIG RMK QBB170 QFE738/0984,UATT,2018-03-21T14:30:00Z,50.25,57.2,0.0,0.0,130,8,,4.97,29.822834,,,,,,TRUE,,,,,OVC,500,,,,,,,IFR,,,,,,,,,,,,METAR,227.0
UATG 211430Z 28005MPS 5000 BR BKN004 BKN025CB 02/02 Q1010 R32/19//60 TEMPO 2000 SHRA BR BKN002 BKN010CB RMK QBB140 QFE759/1013,UATG,2018-03-21T14:30:00Z,47.12,51.83,2.0,2.0,280,10,,3.11,29.822834,,,,,,,,,,BR,BKN,400,BKN,2500,,,,,LIFR,,,,,,,,,,,,SPECI,-22.0
UATE 211430Z 31006MPS 270V350 9999 BKN046 08/05 Q1012 R30/0///70 NOSIG RMK QFE758/1010,UATE,2018-03-21T14:30:00Z,43.87,51.1,8.0,5.0,310,12,,6.21,29.88189,,,,,,TRUE,,,,,BKN,4600,,,,,,,VFR,,,,,,,,,,,,METAR,22.0
UARR 211430Z 13003MPS 2800 SHSN BKN004 OVC023CB M01/M01 Q1008 R04/190050 TEMPO 1000 BR BKN003 RMK QBB140 QFE752/1003,UARR,2018-03-21T14:30:00Z,51.15,51.53,-1.0,-1.0,130,6,,1.74,29.763779,,,,,,,,,,SHSN,BKN,400,OVC,2300,,,,,LIFR,,,,,,,,,,,,SPECI,38.0
UASP 211430Z 27002MPS 9999 OVC007 01/01 Q1014 R21/1///55 NOSIG RMK OBST PT OBSC QFE749/0999,UASP,2018-03-21T14:30:00Z,52.2,77.07,1.0,1.0,270,4,,6.21,29.940945,,,,,,TRUE,,,,,OVC,700,,,,,,,IFR,,,,,,,,,,,,SPECI,125.0
UASK 211430Z 00000MPS 9999 BKN053 BKN074 03/M00 Q1016 R12/810150 NOSIG RMK QFE737/0983,UASK,2018-03-21T14:30:00Z,50.03,82.5,3.0,0.0,0,0,,6.21,30.0,,,,,,TRUE,,,,,BKN,5300,BKN,7400,,,,,VFR,,,,,,,,,,,,METAR,286.0
UAOO 211430Z 36002MPS CAVOK 17/07 Q1009 R05/CLRD70 NOSIG RMK QFE745/0994,UAOO,2018-03-21T14:30:00Z,44.7,65.6,17.0,7.0,360,4,,6.21,29.793306,,,,,,TRUE,,,,,CAVOK,,,,,,,,VFR,,,,,,,,,,,,SPECI,129.0
UAKK 211430Z 17005MPS CAVOK 02/00 Q1013 R23/910560 NOSIG RMK QFE713/0951,UAKK,2018-03-21T14:30:00Z,49.67,73.33,2.0,0.0,170,10,,6.21,29.911417,,,,,,TRUE,,,,,CAVOK,,,,,,,,VFR,,,,,,,,,,,,SPECI,538.0
UAII 211430Z VRB01MPS CAVOK 18/08 Q1011 R10/0///70 NOSIG RMK QFE723/0965,UAII,2018-03-21T14:30:00Z,42.37,69.48,18.0,8.0,0,2,,6.21,29.852362,,,,,,TRUE,,,,,CAVOK,,,,,,,,VFR,,,,,,,,,,,,SPECI,422.0
UACP 211430Z 00000MPS CAVOK M09/M11 Q1015 R23/1/0058 NOSIG RMK QFE748/0998,UACP,2018-03-21T14:30:00Z,54.78,69.18,-9.0,-11.0,0,0,,6.21,29.970472,,,,,,TRUE,,,,,CAVOK,,,,,,,,VFR,,,,,,,,,,,,SPECI,142.0
UACC 211430Z 18003MPS 0200 R22/0650N FG VV002 01/01 Q1013 R22/2///55 TEMPO 0500 FG VV002 RMK QBB070 QFE728/0971,UACC,2018-03-21T14:30:00Z,51.02,71.47,1.0,1.0,180,6,,0.12,29.911417,,,,,,,,,,FG,OVX,0,,,,,,,LIFR,,,,,,,,,,,200,METAR,355.0
UADD 211430Z VRB01MPS 9999 NSC 17/07 Q1011 R13/0///65 NOSIG RMK QFE702/0936,UADD,2018-03-21T14:30:00Z,42.85,71.3,17.0,7.0,0,2,,6.21,29.852362,,,,,,TRUE,,,,,CLR,,,,,,,,VFR,,,,,,,,,,,,SPECI,665.0
UAAA 211430Z 20003MPS 0900 R05L/P2000U R05R/P2000U FU BKN200 14/05 Q1013 R88/65D NOSIG,UAAA,2018-03-21T14:30:00Z,43.35,77.03,14.0,5.0,200,6,,0.56,29.911417,,,,,,TRUE,,,,FU,BKN,20000,,,,,,,LIFR,,,,,,,,,,,,METAR,681.0
UDSG 211430Z 03007KT 9999 NSC 09/M05 Q1018 R02/CLRD70 NOSIG,UDSG,2018-03-21T14:30:00Z,40.75,43.87,9.0,-5.0,30,7,,6.21,30.059055,,,,,,TRUE,,,,,CLR,,,,,,,,VFR,,,,,,,,,,,,METAR,1524.0
UDYZ 211430Z 29006KT 9999 NSC 17/M03 Q1015 R09/000070 NOSIG,UDYZ,2018-03-21T14:30:00Z,40.15,44.4,17.0,-3.0,290,6,,6.21,29.970472,,,,,,TRUE,,,,,CLR,,,,,,,,VFR,,,,,,,,,,,,SPECI,865.0
VVTS 211430Z 23004KT 170V270 9999 SCT017 28/24 Q1010 NOSIG,VVTS,2018-03-21T14:30:00Z,10.82,106.67,28.0,24.0,230,4,,6.21,29.822834,,,,,,TRUE,,,,,SCT,1700,,,,,,,VFR,,,,,,,,,,,,METAR,19.0
VVPQ 211430Z VRB01KT 9999 FEW017 26/24 Q1010 NOSIG,VVPQ,2018-03-21T14:30:00Z,10.23,103.97,26.0,24.0,0,1,,6.21,29.822834,,,,,,TRUE,,,,,FEW,1700,,,,,,,VFR,,,,,,,,,,,,METAR,4.0
VVPB 211430Z VRB02KT 3500 BR SCT013 BKN020 19/19 Q1017 NOSIG,VVPB,2018-03-21T14:30:00Z,16.38,107.7,19.0,19.0,0,2,,2.17,30.029528,,,,,,TRUE,,,,BR,SCT,1300,BKN,2000,,,,,IFR,,,,,,,,,,,,METAR,17.0
VVNB 211430Z 13011KT 6000 NSC 20/14 Q1017 NOSIG,VVNB,2018-03-21T14:30:00Z,21.22,105.8,20.0,14.0,130,11,,3.73,30.029528,,,,,,TRUE,,,,,CLR,,,,,,,,MVFR,,,,,,,,,,,,METAR,12.0
VVDN 211430Z 01012KT 8000 SCT013 BKN060 21/19 Q1016 NOSIG,VVDN,2018-03-21T14:30:00Z,16.02,108.2,21.0,19.0,10,12,,4.97,30.0,,,,,,TRUE,,,,,SCT,1300,BKN,6000,,,,,MVFR,,,,,,,,,,,,METAR,7.0
VVCT 211430Z VRB02KT 8000 SCT015 FEW017CB 26/24 Q1011 NOSIG,VVCT,2018-03-21T14:30:00Z,10.08,105.72,26.0,24.0,0,2,,4.97,29.852362,,,,,,TRUE,,,,,SCT,1500,FEW,1700,,,,,MVFR,,,,,,,,,,,,METAR,3.0
VVCR 211430Z 06012KT 9999 FEW015 SCT050 26/21 Q1013 NOSIG,VVCR,2018-03-21T14:30:00Z,12.0,109.22,26.0,21.0,60,12,,6.21,29.911417,,,,,,TRUE,,,,,FEW,1500,SCT,5000,,,,,VFR,,,,,,,,,,,,METAR,12.0
VYYY 211430Z 23006KT 7000 NSC 28/25 Q1009,VYYY,2018-03-21T14:30:00Z,16.9,96.13,28.0,25.0,230,6,,4.35,29.793306,,,,,,,,,,,CLR,,,,,,,,MVFR,,,,,,,,,,,,METAR,33.0
VYMD 211430Z CALM 6000 SCT025 FEW030CB 24/17 Q1006,VYMD,2018-03-21T14:30:00Z,21.7,95.98,24.0,17.0,,,,3.73,29.704725,,,,,,,,,,,SCT,2500,FEW,3000,,,,,MVFR,,,,,,,,,,,,METAR,91.0
VLVT 211430Z 09004KT 4000 BR BKN050 24/16 Q1012 NOSIG,VLVT,2018-03-21T14:30:00Z,17.98,102.57,24.0,16.0,90,4,,2.49,29.88189,,,,,,TRUE,,,,BR,BKN,5000,,,,,,,IFR,,,,,,,,,,,,METAR,171.0
VOTR 211430Z 00000KT 5000 HZ NSC 32/18 Q1008 NOSIG,VOTR,2018-03-21T14:30:00Z,10.77,78.72,32.0,18.0,0,0,,3.11,29.763779,,,,,,TRUE,,,,HZ,CLR,,,,,,,,MVFR,,,,,,,,,,,,METAR,88.0
VIJP 211430Z 29005KT 3000 HZ NSC 28/03 Q1010 NOSIG,VIJP,2018-03-21T14:30:00Z,26.82,75.78,28.0,3.0,290,5,,1.86,29.822834,,,,,,TRUE,,,,HZ,CLR,,,,,,,,IFR,,,,,,,,,,,,METAR,390.0
VOCL 211430Z 31003KT 6000 FEW015 SCT090 FEW025CB 29/24 Q1011 NOSIG,VOCL,2018-03-21T14:30:00Z,11.13,75.95,29.0,24.0,310,3,,3.73,29.852362,,,,,,TRUE,,,,,FEW,1500,SCT,9000,FEW,2500,,,MVFR,,,,,,,,,,,,METAR,104.0
VTSS 211430Z 27003KT 9999 FEW020 26/23 Q1010 NOSIG,VTSS,2018-03-21T14:30:00Z,6.92,100.38,26.0,23.0,270,3,,6.21,29.822834,,,,,,TRUE,,,,,FEW,2000,,,,,,,VFR,,,,,,,,,,,,METAR,35.0
VTSP 211430Z 33005KT 260V030 8000 FEW020 SCT100 28/23 Q1011 NOSIG,VTSP,2018-03-21T14:30:00Z,8.12,98.32,28.0,23.0,330,5,,4.97,29.852362,,,,,,TRUE,,,,,FEW,2000,SCT,10000,,,,,MVFR,,,,,,,,,,,,METAR,10.0
VTBS 211430Z 12010KT 9999 FEW025 28/22 Q1010 NOSIG,VTBS,2018-03-21T14:30:00Z,13.68,100.75,28.0,22.0,120,10,,6.21,29.822834,,,,,,TRUE,,,,,FEW,2500,,,,,,,VFR,,,,,,,,,,,,METAR,2.0
VTBD 211430Z 12008KT 090V150 9999 FEW030 28/24 Q1010 NOSIG,VTBD,2018-03-21T14:30:00Z,13.92,100.6,28.0,24.0,120,8,,6.21,29.822834,,,,,,TRUE,,,,,FEW,3000,,,,,,,VFR,,,,,,,,,,,,METAR,3.0
VILK 211430Z VRB02KT 3000 HZ FEW020 SCT100 31/17 Q1007 NOSIG,VILK,2018-03-21T14:30:00Z,26.75,80.87,31.0,17.0,0,2,,1.86,29.734253,,,,,,TRUE,,,,HZ,FEW,2000,SCT,10000,,,,,IFR,,,,,,,,,,,,METAR,128.0
LETU 211430Z AUTO 34020G33KT 300V010 9999 NCD 09/M07 Q1025,LETU,2018-03-21T14:30:00Z,,,9.0,-7.0,340,20,33,6.21,30.265747,,,TRUE,,,,,,,,CLR,,,,,,,,VFR,,,,,,,,,,,,METAR,
LEBR 211430Z AUTO 34025G35KT 9999 NCD 09/M06 Q1024,LEBR,2018-03-21T14:30:00Z,42.2,-1.43,9.0,-6.0,340,25,35,6.21,30.236221,,,TRUE,,,,,,,,CLR,,,,,,,,VFR,,,,,,,,,,,,METAR,295.0
VABP 211430Z 29008KT 6000 NSC 28/01 Q1011 NOSIG,VABP,2018-03-21T14:30:00Z,23.27,77.33,28.0,1.0,290,8,,3.73,29.852362,,,,,,TRUE,,,,,CLR,,,,,,,,MVFR,,,,,,,,,,,,METAR,523.0
VIAR 211430Z VRB02KT 4000 BR SCT035 SCT090 16/15 Q1012 NOSIG,VIAR,2018-03-21T14:30:00Z,31.7,74.8,16.0,15.0,0,2,,2.49,29.88189,,,,,,TRUE,,,,BR,SCT,3500,SCT,9000,,,,,IFR,,,,,,,,,,,,METAR,234.0
EIWF 211430Z 25012KT 210V280 9999 SCT033 BKN040 08/04 Q1031,EIWF,2018-03-21T14:30:00Z,52.18,-7.08,8.0,4.0,250,12,,6.21,30.442913,,,,,,,,,,,SCT,3300,BKN,4000,,,,,VFR,,,,,,,,,,,,METAR,36.0
EISG 211430Z 24014KT 9999 BKN025 OVC034 11/06 Q1027,EISG,2018-03-21T14:30:00Z,54.28,-8.6,11.0,6.0,240,14,,6.21,30.324802,,,,,,,,,,,BKN,2500,OVC,3400,,,,,MVFR,,,,,,,,,,,,METAR,3.0
EIME 211430Z 24013KT 9999 FEW022 SCT030 BKN055 09/04 Q1028,EIME,2018-03-21T14:30:00Z,53.3,-6.45,9.0,4.0,240,13,,6.21,30.35433,,,,,,,,,,,FEW,2200,SCT,3000,BKN,5500,,,VFR,,,,,,,,,,,,METAR,93.0
EIKY 211430Z 27010KT 240V310 9999 BKN040 11/02 Q1031,EIKY,2018-03-21T14:30:00Z,52.18,-9.52,11.0,2.0,270,10,,6.21,30.442913,,,,,,,,,,,BKN,4000,,,,,,,VFR,,,,,,,,,,,,METAR,34.0
EIDL 211430Z 23018KT 9999 OVC015 09/07 Q1026,EIDL,2018-03-21T14:30:00Z,55.05,-8.33,9.0,7.0,230,18,,6.21,30.295275,,,,,,,,,,,OVC,1500,,,,,,,MVFR,,,,,,,,,,,,METAR,9.0
LFSD 211430Z AUTO 01015KT CAVOK 07/M06 Q1025,LFSD,2018-03-21T14:30:00Z,47.27,5.07,7.0,-6.0,10,15,,6.21,30.265747,,,TRUE,,,,,,,,CAVOK,,,,,,,,VFR,,,,,,,,,,,,SPECI,227.0
LFRT 211430Z AUTO 02006KT 340V060 9999 FEW024/// BKN043/// 07/02 Q1032,LFRT,2018-03-21T14:30:00Z,48.52,-2.85,7.0,2.0,20,6,,6.21,30.47244,,,TRUE,,,,,,,,FEW,2400,BKN,4300,,,,,VFR,,,,,,,,,,,,SPECI,136.0
LFRK 211430Z AUTO 36005KT 330V040 9999 BKN030 07/01 Q1032 NOSIG,LFRK,2018-03-21T14:30:00Z,49.17,-0.45,7.0,1.0,360,5,,6.21,30.47244,,,TRUE,,,TRUE,,,,,BKN,3000,,,,,,,MVFR,,,,,,,,,,,,SPECI,67.0
LFAT 211430Z AUTO 28010KT 240V310 CAVOK 08/03 Q1031 NOSIG,LFAT,2018-03-21T14:30:00Z,50.52,1.62,8.0,3.0,280,10,,6.21,30.442913,,,TRUE,,,TRUE,,,,,CAVOK,,,,,,,,VFR,,,,,,,,,,,,SPECI,14.0
HLLB 211430Z 13040G50KT 0500 DS VV/// 31/M04 Q1004,HLLB,2018-03-21T14:30:00Z,32.07,20.27,31.0,-4.0,130,40,50,0.31,29.64567,,,,,,,,,,DS,OVX,0,,,,,,,LIFR,,,,,,,,,,,,METAR,132.0
VEBN 211430Z 08002KT 3000 HZ NSC 27/19 Q1006 NOSIG,VEBN,2018-03-21T14:30:00Z,25.45,82.85,27.0,19.0,80,2,,1.86,29.704725,,,,,,TRUE,,,,HZ,CLR,,,,,,,,IFR,,,,,,,,,,,,METAR,83.0
VEGT 211430Z 00000KT 3000 HZ FEW020 25/20 Q1009 NOSIG,VEGT,2018-03-21T14:30:00Z,26.1,91.58,25.0,20.0,0,0,,1.86,29.793306,,,,,,TRUE,,,,HZ,FEW,2000,,,,,,,IFR,,,,,,,,,,,,METAR,54.0
VOHS 211430Z 11003KT 6000 SCT020 32/25 Q1012 NOSIG,VOHS,2018-03-21T14:30:00Z,17.23,78.43,32.0,25.0,110,3,,3.73,29.88189,,,,,,TRUE,,,,,SCT,2000,,,,,,,MVFR,,,,,,,,,,,,METAR,1.0
FOOL 211430Z 24007KT 210V270 9999 FEW015 FEW020CB 30/24 Q1009 NOSIG,FOOL,2018-03-21T14:30:00Z,0.45,9.42,30.0,24.0,240,7,,6.21,29.793306,,,,,,TRUE,,,,,FEW,1500,FEW,2000,,,,,VFR,,,,,,,,,,,,SPECI,15.0
WAAA 211430Z 19003KT 8000 FEW019 26/24 Q1009 NOSIG,WAAA,2018-03-21T14:30:00Z,-5.07,119.53,26.0,24.0,190,3,,4.97,29.793306,,,,,,TRUE,,,,,FEW,1900,,,,,,,MVFR,,,,,,,,,,,,METAR,14.0
LWSK 211430Z 03017KT 9999 SCT033 BKN060 05/01 Q1014 WS R34 NOSIG,LWSK,2018-03-21T14:30:00Z,41.97,21.63,5.0,1.0,30,17,,6.21,29.940945,,,,,,TRUE,,,,,SCT,3300,BKN,6000,,,,,VFR,,,,,,,,,,,,SPECI,239.0
LFML 211430Z AUTO 31011KT 280V340 CAVOK 11/M02 Q1016 TEMPO 34015G25KT,LFML,2018-03-21T14:30:00Z,43.45,5.22,11.0,-2.0,310,11,,6.21,30.0,,,TRUE,,,,,,,,CAVOK,,,,,,,,VFR,,,,,,,,,,,,SPECI,36.0
LFLB 211430Z AUTO 36017KT 9999 FEW042 BKN050 OVC068 06/M04 Q1021 TEMPO 36017G27KT,LFLB,2018-03-21T14:30:00Z,45.63,5.87,6.0,-4.0,360,17,,6.21,30.147638,,,TRUE,,,,,,,,FEW,4200,BKN,5000,OVC,6800,,,VFR,,,,,,,,,,,,SPECI,239.0
LFKB 211430Z AUTO 36015KT 9999 BKN038 BKN046 OVC056 08/01 Q1014 BECMG 01012G22KT,LFKB,2018-03-21T14:30:00Z,42.53,9.47,8.0,1.0,360,15,,6.21,29.940945,,,TRUE,,,,,,,,BKN,3800,BKN,4600,OVC,5600,,,VFR,,,,,,,,,,,,SPECI,12.0
LFBZ 211430Z AUTO 34012KT 300V070 9999 SCT035 SCT044 BKN050 09/01 Q1030 TEMPO 34015G25KT,LFBZ,2018-03-21T14:30:00Z,43.47,-1.52,9.0,1.0,340,12,,6.21,30.413385,,,TRUE,,,,,,,,SCT,3500,SCT,4400,BKN,5000,,,VFR,,,,,,,,,,,,SPECI,71.0
LFBT 211430Z AUTO 29011KT 240V320 9999 SCT048 BKN054 BKN064 07/M03 Q1026 NOSIG,LFBT,2018-03-21T14:30:00Z,43.17,0.0,7.0,-3.0,290,11,,6.21,30.295275,,,TRUE,,,TRUE,,,,,SCT,4800,BKN,5400,BKN,6400,,,VFR,,,,,,,,,,,,METAR,363.0
LFBP 211430Z AUTO 32012KT 280V360 9999 FEW062 10/M03 Q1027 NOSIG,LFBP,2018-03-21T14:30:00Z,43.37,-0.42,10.0,-3.0,320,12,,6.21,30.324802,,,TRUE,,,TRUE,,,,,FEW,6200,,,,,,,VFR,,,,,,,,,,,,METAR,185.0
LFBO 211430Z AUTO 30018KT CAVOK 10/M04 Q1025 TEMPO 31018G28KT,LFBO,2018-03-21T14:30:00Z,43.62,1.37,10.0,-4.0,300,18,,6.21,30.265747,,,TRUE,,,,,,,,CAVOK,,,,,,,,VFR,,,,,,,,,,,,SPECI,153.0
LFBL 211430Z AUTO 03015KT 350V050 CAVOK 07/M08 Q1026 NOSIG,LFBL,2018-03-21T14:30:00Z,45.87,1.17,7.0,-8.0,30,15,,6.21,30.295275,,,TRUE,,,TRUE,,,,,CAVOK,,,,,,,,VFR,,,,,,,,,,,,METAR,402.0
LFBI 211430Z AUTO 01011KT 340V050 CAVOK 09/M05 Q1029 NOSIG,LFBI,2018-03-21T14:30:00Z,46.57,0.32,9.0,-5.0,10,11,,6.21,30.383858,,,TRUE,,,TRUE,,,,,CAVOK,,,,,,,,VFR,,,,,,,,,,,,METAR,120.0
LFMY 211430Z AUTO 33019KT CAVOK 10/M03 Q1016 BECMG 34020G30KT,LFMY,2018-03-21T14:30:00Z,43.6,5.08,10.0,-3.0,330,19,,6.21,30.0,,,TRUE,,,,,,,,CAVOK,,,,,,,,VFR,,,,,,,,,,,,METAR,60.0
LJPZ 211430Z 06015G26KT 020V100 CAVOK 09/M08 Q1018,LJPZ,2018-03-21T14:30:00Z,45.47,13.62,9.0,-8.0,60,15,26,6.21,30.059055,,,,,,,,,,,CAVOK,,,,,,,,VFR,,,,,,,,,,,,METAR,2.0
LJMB 211430Z 04008KT 360V070 CAVOK 05/M07 Q1021,LJMB,2018-03-21T14:30:00Z,46.47,15.67,5.0,-7.0,40,8,,6.21,30.147638,,,,,,,,,,,CAVOK,,,,,,,,VFR,,,,,,,,,,,,METAR,265.0
LJLJ 211430Z 09012KT 9999 SCT060 05/M07 Q1019 WS ALL RWY NOSIG,LJLJ,2018-03-21T14:30:00Z,46.22,14.47,5.0,-7.0,90,12,,6.21,30.088583,,,,,,TRUE,,,,,SCT,6000,,,,,,,VFR,,,,,,,,,,,,SPECI,385.0
LFSX 211430Z AUTO 04010KT CAVOK 07/M12 Q1025 NOSIG,LFSX,2018-03-21T14:30:00Z,47.77,6.33,7.0,-12.0,40,10,,6.21,30.265747,,,TRUE,,,TRUE,,,,,CAVOK,,,,,,,,VFR,,,,,,,,,,,,METAR,273.0
LFSO 211430Z AUTO 02008KT 320V070 CAVOK 06/M07 Q1026 NOSIG,LFSO,2018-03-21T14:30:00Z,48.57,5.97,6.0,-7.0,20,8,,6.21,30.295275,,,TRUE,,,TRUE,,,,,CAVOK,,,,,,,,VFR,,,,,,,,,,,,METAR,350.0
LFRO 211430Z AUTO 35006KT 300V030 9999 OVC043/// 09/M02 Q1033 NOSIG,LFRO,2018-03-21T14:30:00Z,48.75,-3.47,9.0,-2.0,350,6,,6.21,30.501968,,,TRUE,,,TRUE,,,,,OVC,4300,,,,,,,VFR,,,,,,,,,,,,METAR,89.0
LFRM 211430Z AUTO 36011KT 340V040 9999 BKN046 08/M03 Q1031 NOSIG,LFRM,2018-03-21T14:30:00Z,47.95,0.2,8.0,-3.0,360,11,,6.21,30.442913,,,TRUE,,,TRUE,,,,,BKN,4600,,,,,,,VFR,,,,,,,,,,,,METAR,52.0
LFRI 211430Z AUTO 01012KT 9999 OVC040 07/M01 Q1031 NOSIG,LFRI,2018-03-21T14:30:00Z,46.7,-1.37,7.0,-1.0,10,12,,6.21,30.442913,,,TRUE,,,TRUE,,,,,OVC,4000,,,,,,,VFR,,,,,,,,,,,,METAR,91.0
LFOV 211430Z AUTO 02007KT 350V050 9999 BKN045 08/M02 Q1031,LFOV,2018-03-21T14:30:00Z,48.03,-0.75,8.0,-2.0,20,7,,6.21,30.442913,,,TRUE,,,,,,,,BKN,4500,,,,,,,VFR,,,,,,,,,,,,METAR,101.0
LFMI 211430Z AUTO 34023KT CAVOK 10/M04 Q1016 BECMG 34020G30KT,LFMI,2018-03-21T14:30:00Z,43.52,4.92,10.0,-4.0,340,23,,6.21,30.0,,,TRUE,,,,,,,,CAVOK,,,,,,,,VFR,,,,,,,,,,,,METAR,24.0
LFBA 211430Z AUTO 33015KT 300V360 CAVOK 10/M04 Q1026 TEMPO 32015G25KT,LFBA,2018-03-21T14:30:00Z,44.17,0.6,10.0,-4.0,330,15,,6.21,30.295275,,,TRUE,,,,,,,,CAVOK,,,,,,,,VFR,,,,,,,,,,,,METAR,60.0
LPPT 211430Z 31008KT 270V350 CAVOK 14/02 Q1026,LPPT,2018-03-21T14:30:00Z,38.77,-9.12,14.0,2.0,310,8,,6.21,30.295275,,,,,,,,,,,CAVOK,,,,,,,,VFR,,,,,,,,,,,,METAR,123.0
LPPS 211430Z 02014KT 9999 FEW015 BKN030 16/08 Q1030,LPPS,2018-03-21T14:30:00Z,33.07,-16.35,16.0,8.0,20,14,,6.21,30.413385,,,,,,,,,,,FEW,1500,BKN,3000,,,,,MVFR,,,,,,,,,,,,METAR,82.0
LPPR 211430Z 31011KT CAVOK 13/03 Q1028,LPPR,2018-03-21T14:30:00Z,41.22,-8.67,13.0,3.0,310,11,,6.21,30.35433,,,,,,,,,,,CAVOK,,,,,,,,VFR,,,,,,,,,,,,METAR,73.0
LPMA 211430Z 02013KT 360V060 9999 SCT016 BKN030 17/09 Q1030,LPMA,2018-03-21T14:30:00Z,32.7,-16.77,17.0,9.0,20,13,,6.21,30.413385,,,,,,,,,,,SCT,1600,BKN,3000,,,,,MVFR,,,,,,,,,,,,METAR,55.0
LPFR 211430Z 24011KT CAVOK 13/02 Q1025,LPFR,2018-03-21T14:30:00Z,37.02,-7.97,13.0,2.0,240,11,,6.21,30.265747,,,,,,,,,,,CAVOK,,,,,,,,VFR,,,,,,,,,,,,METAR,4.0
LRTR 211430Z 35011KT 7000 -SN SCT018 BKN040 M00/M03 Q1019 R11/190095,LRTR,2018-03-21T14:30:00Z,45.82,21.33,0.0,-3.0,350,11,,4.35,30.088583,,,,,,,,,,-SN,SCT,1800,BKN,4000,,,,,MVFR,,,,,,,,,,,,SPECI,88.0
LRSB 211430Z 34007KT 6000 -SN FEW008 BKN012 OVC022 M02/M03 Q1016 R27/29//95 NOSIG,LRSB,2018-03-21T14:30:00Z,45.78,24.08,-2.0,-3.0,340,7,,3.73,30.0,,,,,,TRUE,,,,-SN,FEW,800,BKN,1200,OVC,2200,,,MVFR,,,,,,,,,,,,METAR,444.0
LROP 211430Z 04012KT 4000 -SG BR OVC007 M02/M03 Q1017 R08R/29//95 R08L/29//95 NOSIG,LROP,2018-03-21T14:30:00Z,44.57,26.1,-2.0,-3.0,40,12,,2.49,30.029528,,,,,,TRUE,,,,-SG BR,OVC,700,,,,,,,IFR,,,,,,,,,,,,SPECI,95.0
LRCK 211430Z 05015KT 1000 R18/1400D R36/1500D -SN BR BKN003 OVC012 M00/M01 Q1015 R36/690295 NOSIG,LRCK,2018-03-21T14:30:00Z,44.37,28.48,0.0,-1.0,50,15,,0.62,29.970472,,,,,,TRUE,,,,-SN BR,BKN,300,OVC,1200,,,,,LIFR,,,,,,,,,,,,SPECI,108.0
LRBS 211430Z 02009KT 330V050 4000 -FZDZ BR OVC006 M02/M02 Q1017 R07/590593 NOSIG,LRBS,2018-03-21T14:30:00Z,44.5,26.08,-2.0,-2.0,20,9,,2.49,30.029528,,,,,,TRUE,,,,-FZDZ BR,OVC,600,,,,,,,IFR,,,,,,,,,,,,SPECI,91.0
LRAR 211430Z 02011KT CAVOK 00/00 Q1020 R09/29//95,LRAR,2018-03-21T14:30:00Z,46.18,21.27,0.0,0.0,20,11,,6.21,30.11811,,,,,,,,,,,CAVOK,,,,,,,,VFR,,,,,,,,,,,,METAR,118.0
LRTM 211430Z 30007KT 2200 -SN BR SCT008 BKN013 OVC022 M01/M02 Q1016,LRTM,2018-03-21T14:30:00Z,46.47,24.42,-1.0,-2.0,300,7,,1.37,30.0,,,,,,,,,,-SN BR,SCT,800,BKN,1300,OVC,2200,,,IFR,,,,,,,,,,,,METAR,309.0
LRSM 211430Z 33014KT CAVOK 02/M03 Q1018,LRSM,2018-03-21T14:30:00Z,47.7,22.88,2.0,-3.0,330,14,,6.21,30.059055,,,,,,,,,,,CAVOK,,,,,,,,VFR,,,,,,,,,,,,METAR,124.0
LROD 211430Z 34006KT CAVOK 01/M05 Q1019,LROD,2018-03-21T14:30:00Z,47.03,21.92,1.0,-5.0,340,6,,6.21,30.088583,,,,,,,,,,,CAVOK,,,,,,,,VFR,,,,,,,,,,,,METAR,140.0
LRCL 211430Z 29007KT 2000 -SN BR SCT009 OVC015 M01/M03 Q1017 R07/29//95,LRCL,2018-03-21T14:30:00Z,46.78,23.68,-1.0,-3.0,290,7,,1.24,30.029528,,,,,,,,,,-SN BR,SCT,900,OVC,1500,,,,,IFR,,,,,,,,,,,,METAR,413.0
LRBM 211430Z KT CAVOK Q1017,LRBM,2018-03-21T14:30:00Z,47.67,23.47,,,,,,6.21,30.029528,,,,,,,,,,,CAVOK,,,,,,,,VFR,,,,,,,,,,,,METAR,185.0
LPPD 211430Z 22013KT 9999 FEW025 18/15 Q1032,LPPD,2018-03-21T14:30:00Z,37.72,-25.68,18.0,15.0,220,13,,6.21,30.47244,,,,,,,,,,,FEW,2500,,,,,,,VFR,,,,,,,,,,,,METAR,72.0
LPAZ 211430Z 28004KT 230V320 9999 FEW022 BKN040 19/14 Q1033,LPAZ,2018-03-21T14:30:00Z,36.97,-25.17,19.0,14.0,280,4,,6.21,30.501968,,,,,,,,,,,FEW,2200,BKN,4000,,,,,VFR,,,,,,,,,,,,METAR,100.0
LEXJ 211430Z 01010KT 340V040 9999 BKN045 10/01 Q1032,LEXJ,2018-03-21T14:30:00Z,43.42,-3.82,10.0,1.0,10,10,,6.21,30.47244,,,,,,,,,,,BKN,4500,,,,,,,VFR,,,,,,,,,,,,METAR,6.0
LEPP 211430Z 35022G33KT 320V020 9999 SCT045 07/M04 Q1026,LEPP,2018-03-21T14:30:00Z,42.77,-1.65,7.0,-4.0,350,22,33,6.21,30.295275,,,,,,,,,,,SCT,4500,,,,,,,VFR,,,,,,,,,,,,METAR,459.0
LELL 211430Z 13010KT 080V160 9999 FEW050 12/M04 Q1017,LELL,2018-03-21T14:30:00Z,41.52,2.1,12.0,-4.0,130,10,,6.21,30.029528,,,,,,,,,,,FEW,5000,,,,,,,VFR,,,,,,,,,,,,METAR,250.0
LEJR 211430Z 02014KT 350V050 CAVOK 15/01 Q1023,LEJR,2018-03-21T14:30:00Z,36.75,-6.07,15.0,1.0,20,14,,6.21,30.206694,,,,,,,,,,,CAVOK,,,,,,,,VFR,,,,,,,,,,,,METAR,30.0
LEDA 211430Z 31015KT 260V350 CAVOK 12/M13 Q1018,LEDA,2018-03-21T14:30:00Z,41.73,0.53,12.0,-13.0,310,15,,6.21,30.059055,,,,,,,,,,,CAVOK,,,,,,,,VFR,,,,,,,,,,,,METAR,350.0
GCXO 211430Z 02008KT 330V070 9999 SCT025 13/07 Q1027 NOSIG,GCXO,2018-03-21T14:30:00Z,28.48,-16.35,13.0,7.0,20,8,,6.21,30.324802,,,,,,TRUE,,,,,SCT,2500,,,,,,,VFR,,,,,,,,,,,,METAR,632.0
GCTS 211430Z 07029KT 9999 FEW040 21/08 Q1024 NOSIG,GCTS,2018-03-21T14:30:00Z,28.05,-16.57,21.0,8.0,70,29,,6.21,30.236221,,,,,,TRUE,,,,,FEW,4000,,,,,,,VFR,,,,,,,,,,,,METAR,72.0
GCRR 211430Z 03022KT 360V060 9999 FEW042 21/08 Q1024,GCRR,2018-03-21T14:30:00Z,28.93,-13.58,21.0,8.0,30,22,,6.21,30.236221,,,,,,,,,,,FEW,4200,,,,,,,VFR,,,,,,,,,,,,METAR,40.0
GCLP 211430Z 02026KT 350V050 9999 SCT040 20/10 Q1025 NOSIG,GCLP,2018-03-21T14:30:00Z,27.92,-15.37,20.0,10.0,20,26,,6.21,30.265747,,,,,,TRUE,,,,,SCT,4000,,,,,,,VFR,,,,,,,,,,,,METAR,25.0
GCLA 211430Z 03016KT 010V070 9999 SCT045 20/09 Q1027,GCLA,2018-03-21T14:30:00Z,28.62,-17.75,20.0,9.0,30,16,,6.21,30.324802,,,,,,,,,,,SCT,4500,,,,,,,VFR,,,,,,,,,,,,METAR,31.0
GCFV 211430Z 05021KT 9999 FEW038 19/10 Q1025,GCFV,2018-03-21T14:30:00Z,28.43,-13.87,19.0,10.0,50,21,,6.21,30.265747,,,,,,,,,,,FEW,3800,,,,,,,VFR,,,,,,,,,,,,METAR,23.0
LEZG 211430Z 32024G36KT 290V350 9999 FEW040 11/M06 Q1023,LEZG,2018-03-21T14:30:00Z,41.67,-1.02,11.0,-6.0,320,24,36,6.21,30.206694,,,,,,,,,,,FEW,4000,,,,,,,VFR,,,,,,,,,,,,METAR,258.0
LEVT 211430Z 01017KT 340V040 9999 FEW035 SCT046 07/M02 Q1028,LEVT,2018-03-21T14:30:00Z,42.87,-2.72,7.0,-2.0,10,17,,6.21,30.35433,,,,,,,,,,,FEW,3500,SCT,4600,,,,,VFR,,,,,,,,,,,,METAR,509.0
LEST 211430Z 04011KT 360V060 9999 SCT038 11/02 Q1031 NOSIG,LEST,2018-03-21T14:30:00Z,42.88,-8.42,11.0,2.0,40,11,,6.21,30.442913,,,,,,TRUE,,,,,SCT,3800,,,,,,,VFR,,,,,,,,,,,,METAR,367.0
LESO 211430Z 33006G16KT 270V040 9999 BKN042 10/00 Q1030,LESO,2018-03-21T14:30:00Z,43.35,-1.8,10.0,0.0,330,6,16,6.21,30.413385,,,,,,,,,,,BKN,4200,,,,,,,VFR,,,,,,,,,,,,METAR,8.0
LERS 211430Z 34017G32KT CAVOK 15/M12 Q1016,LERS,2018-03-21T14:30:00Z,41.13,1.17,15.0,-12.0,340,17,32,6.21,30.0,,,,,,,,,,,CAVOK,,,,,,,,VFR,,,,,,,,,,,,METAR,76.0
LEMH 211430Z 35027G42KT 320V020 9999 FEW018 SCT030 BKN040 08/M00 Q1014 WS R01,LEMH,2018-03-21T14:30:00Z,39.87,4.22,8.0,0.0,350,27,42,6.21,29.940945,,,,,,,,,,,FEW,1800,SCT,3000,BKN,4000,,,VFR,,,,,,,,,,,,SPECI,82.0
LEGR 211430Z 04010KT 010V080 9999 FEW040 10/M01 Q1020,LEGR,2018-03-21T14:30:00Z,37.17,-3.77,10.0,-1.0,40,10,,6.21,30.11811,,,,,,,,,,,FEW,4000,,,,,,,VFR,,,,,,,,,,,,METAR,559.0
LEGE 211430Z 03023G34KT 350V060 9999 FEW035 11/M09 Q1017,LEGE,2018-03-21T14:30:00Z,41.88,2.77,11.0,-9.0,30,23,34,6.21,30.029528,,,,,,,,,,,FEW,3500,,,,,,,VFR,,,,,,,,,,,,METAR,129.0
LECO 211430Z 01008KT 320V080 9999 SCT045 11/03 Q1032 NOSIG,LECO,2018-03-21T14:30:00Z,43.28,-8.37,11.0,3.0,10,8,,6.21,30.47244,,,,,,TRUE,,,,,SCT,4500,,,,,,,VFR,,,,,,,,,,,,METAR,103.0
LEBB 211430Z 01010KT 340V040 9999 SCT040 BKN050 09/02 Q1031 NOSIG,LEBB,2018-03-21T14:30:00Z,43.28,-2.92,9.0,2.0,10,10,,6.21,30.442913,,,,,,TRUE,,,,,SCT,4000,BKN,5000,,,,,VFR,,,,,,,,,,,,METAR,34.0
LEAM 211430Z 19008KT 160V220 9999 FEW010 13/03 Q1019,LEAM,2018-03-21T14:30:00Z,36.85,-2.37,13.0,3.0,190,8,,6.21,30.088583,,,,,,,,,,,FEW,1000,,,,,,,VFR,,,,,,,,,,,,METAR,21.0
LEVS 211430Z 02008KT 300V080 9999 FEW040 12/M05 Q1022,LEVS,2018-03-21T14:30:00Z,40.37,-3.77,12.0,-5.0,20,8,,6.21,30.177166,,,,,,,,,,,FEW,4000,,,,,,,VFR,,,,,,,,,,,,METAR,687.0
LEVD 211430Z 05014KT 020V080 9999 BKN044 07/M03 Q1026,LEVD,2018-03-21T14:30:00Z,41.72,-4.83,7.0,-3.0,50,14,,6.21,30.295275,,,,,,,,,,,BKN,4400,,,,,,,VFR,,,,,,,,,,,,METAR,854.0
LESA 211430Z 05017KT 020V090 9999 FEW043 07/M04 Q1027,LESA,2018-03-21T14:30:00Z,40.95,-5.5,7.0,-4.0,50,17,,6.21,30.324802,,,,,,,,,,,FEW,4300,,,,,,,VFR,,,,,,,,,,,,METAR,795.0
LETL 211430Z AUTO 35025KT 9999 NCD 06/M10 Q1020,LETL,2018-03-21T14:30:00Z,40.42,-1.22,6.0,-10.0,350,25,,6.21,30.11811,,,TRUE,,,,,,,,CLR,,,,,,,,VFR,,,,,,,,,,,,METAR,1013.0
LEAG 211430Z AUTO 02008KT 290V070 CAVOK 15/M02 Q1021,LEAG,2018-03-21T14:30:00Z,,,15.0,-2.0,20,8,,6.21,30.147638,,,TRUE,,,,,,,,CAVOK,,,,,,,,VFR,,,,,,,,,,,,METAR,
LEZL 211430Z 05012KT 020V080 CAVOK 16/M00 Q1023 NOSIG,LEZL,2018-03-21T14:30:00Z,37.42,-5.9,16.0,0.0,50,12,,6.21,30.206694,,,,,,TRUE,,,,,CAVOK,,,,,,,,VFR,,,,,,,,,,,,METAR,31.0
LEVX 211430Z 36011KT 320V070 CAVOK 14/02 Q1029 NOSIG,LEVX,2018-03-21T14:30:00Z,42.22,-8.62,14.0,2.0,360,11,,6.21,30.383858,,,,,,TRUE,,,,,CAVOK,,,,,,,,VFR,,,,,,,,,,,,METAR,256.0
LEVC 211430Z 08010KT 050V110 9999 FEW030 15/M07 Q1018 NOSIG,LEVC,2018-03-21T14:30:00Z,39.5,-0.47,15.0,-7.0,80,10,,6.21,30.059055,,,,,,TRUE,,,,,FEW,3000,,,,,,,VFR,,,,,,,,,,,,METAR,62.0
LEPA 211430Z 03014KT 9999 FEW050 12/M02 Q1017 NOSIG,LEPA,2018-03-21T14:30:00Z,39.53,2.72,12.0,-2.0,30,14,,6.21,30.029528,,,,,,TRUE,,,,,FEW,5000,,,,,,,VFR,,,,,,,,,,,,METAR,8.0
LEMG 211430Z 31013G23KT 9999 FEW030 15/01 Q1020 NOSIG,LEMG,2018-03-21T14:30:00Z,36.67,-4.5,15.0,1.0,310,13,23,6.21,30.11811,,,,,,TRUE,,,,,FEW,3000,,,,,,,VFR,,,,,,,,,,,,METAR,7.0
LEMD 211430Z 35019KT 9999 FEW050 11/M04 Q1022 NOSIG,LEMD,2018-03-21T14:30:00Z,40.48,-3.57,11.0,-4.0,350,19,,6.21,30.177166,,,,,,TRUE,,,,,FEW,5000,,,,,,,VFR,,,,,,,,,,,,METAR,582.0
LEIB 211430Z 35013KT 310V030 9999 FEW048 13/M01 Q1018 NOSIG,LEIB,2018-03-21T14:30:00Z,38.87,1.37,13.0,-1.0,350,13,,6.21,30.059055,,,,,,TRUE,,,,,FEW,4800,,,,,,,VFR,,,,,,,,,,,,METAR,12.0
LEBL 211430Z 13012KT 100V170 9999 FEW025 13/M03 Q1017 NOSIG,LEBL,2018-03-21T14:30:00Z,41.27,2.07,13.0,-3.0,130,12,,6.21,30.029528,,,,,,TRUE,,,,,FEW,2500,,,,,,,VFR,,,,,,,,,,,,METAR,6.0
LEAL 211430Z 17006KT 100V230 CAVOK 14/00 Q1018 NOSIG,LEAL,2018-03-21T14:30:00Z,38.27,-0.55,14.0,0.0,170,6,,6.21,30.059055,,,,,,TRUE,,,,,CAVOK,,,,,,,,VFR,,,,,,,,,,,,METAR,31.0
GCHI 211430Z 03020KT 9999 FEW030 20/11 Q1026,GCHI,2018-03-21T14:30:00Z,27.82,-17.87,20.0,11.0,30,20,,6.21,30.295275,,,,,,,,,,,FEW,3000,,,,,,,VFR,,,,,,,,,,,,METAR,30.0
GCGM 211430Z VRB07G20KT 9999 FEW030 20/09 Q1025 RMK R09/VRB07G17KT ARP/VRB07KT,GCGM,2018-03-21T14:30:00Z,28.03,-17.22,20.0,9.0,0,7,20,6.21,30.265747,,,,,,,,,,,FEW,3000,,,,,,,VFR,,,,,,,,,,,,METAR,219.0
VOMY 211430Z 25013KT 5000 HZ FEW01 SCT080 27/19 Q1015,VOMY,2018-03-21T14:30:00Z,12.23,76.65,27.0,19.0,250,13,,3.11,29.970472,,,,,,,,,,HZ,SCT,8000,,,,,,,MVFR,,,,,,,,,,,,METAR,722.0
VAPR 211430Z 32006KT 3000 HZ NSC 25/21 Q1011,VAPR,2018-03-21T14:30:00Z,21.63,69.67,25.0,21.0,320,6,,1.86,29.852362,,,,,,,,,,HZ,CLR,,,,,,,,IFR,,,,,,,,,,,,METAR,7.0
VANP 211430Z 28005KT 4000 HZ SCT100 33/09 Q1009 NOSIG,VANP,2018-03-21T14:30:00Z,21.08,79.05,33.0,9.0,280,5,,2.49,29.793306,,,,,,TRUE,,,,HZ,SCT,10000,,,,,,,IFR,,,,,,,,,,,,METAR,310.0
VOHY 211430Z VRB03KT 5000 HZ SCT020 32/17 Q1012 NOSIG,VOHY,2018-03-21T14:30:00Z,17.45,78.45,32.0,17.0,0,3,,3.11,29.88189,,,,,,TRUE,,,,HZ,SCT,2000,,,,,,,MVFR,,,,,,,,,,,,METAR,545.0
VOCI 211430Z 30004KT 4000 HZ FEW015 FEW025CB 30/25 Q1010 NOSIG,VOCI,2018-03-21T14:30:00Z,10.15,76.4,30.0,25.0,300,4,,2.49,29.822834,,,,,,TRUE,,,,HZ,FEW,1500,FEW,2500,,,,,IFR,,,,,,,,,,,,METAR,8.0
VOMM 211430Z 14006KT 6000 FEW020 29/24 Q1009 NOSIG,VOMM,2018-03-21T14:30:00Z,13.0,80.17,29.0,24.0,140,6,,3.73,29.793306,,,,,,TRUE,,,,,FEW,2000,,,,,,,MVFR,,,,,,,,,,,,METAR,16.0
LFSL 211430Z AUTO 34018KT 300V020 CAVOK 09/M07 Q1024 TEMPO 33017G27KT,LFSL,2018-03-21T14:30:00Z,45.03,1.48,9.0,-7.0,340,18,,6.21,30.236221,,,TRUE,,,,,,,,CAVOK,,,,,,,,VFR,,,,,,,,,,,,SPECI,310.0
LFMV 211430Z AUTO 35027KT CAVOK 09/M03 Q1016 BECMG 35025G37KT,LFMV,2018-03-21T14:30:00Z,43.9,4.9,9.0,-3.0,350,27,,6.21,30.0,,,TRUE,,,,,,,,CAVOK,,,,,,,,VFR,,,,,,,,,,,,SPECI,38.0
LFMP 211430Z AUTO 32023KT 9999 FEW096 11/M06 Q1020 BECMG 32030G45KT,LFMP,2018-03-21T14:30:00Z,42.72,2.87,11.0,-6.0,320,23,,6.21,30.11811,,,TRUE,,,,,,,,FEW,9600,,,,,,,VFR,,,,,,,,,,,,SPECI,48.0
LFLS 211430Z AUTO 36013KT 340V040 9999 BKN052 OVC062 04/M06 Q1020 TEMPO 36017G27KT,LFLS,2018-03-21T14:30:00Z,45.37,5.32,4.0,-6.0,360,13,,6.21,30.11811,,,TRUE,,,,,,,,BKN,5200,OVC,6200,,,,,VFR,,,,,,,,,,,,SPECI,386.0
LFLC 211430Z AUTO 02018KT 9999 FEW060 07/M07 Q1024 TEMPO 36018G30KT,LFLC,2018-03-21T14:30:00Z,45.77,3.17,7.0,-7.0,20,18,,6.21,30.236221,,,TRUE,,,,,,,,FEW,6000,,,,,,,VFR,,,,,,,,,,,,SPECI,330.0
LFKJ 211430Z AUTO 22005KT 170V240 9999 FEW072 OVC084 14/04 Q1010 TEMPO FEW030TCU,LFKJ,2018-03-21T14:30:00Z,41.92,8.8,14.0,4.0,220,5,,6.21,29.822834,,,TRUE,,,,,,,,FEW,7200,OVC,8400,,,,,VFR,,,,,,,,,,,,SPECI,9.0
LFKF 211430Z AUTO 06016KT 040V100 9999 OVC084 11/03 Q1010 TEMPO FEW030TCU BECMG 06015G25KT,LFKF,2018-03-21T14:30:00Z,41.5,9.08,11.0,3.0,60,16,,6.21,29.822834,,,TRUE,,,,,,,,OVC,8400,,,,,,,VFR,,,,,,,,,,,,SPECI,23.0
LFKC 211430Z AUTO 04018KT 9999 FEW060 10/M01 Q1012 BECMG 02017G27KT,LFKC,2018-03-21T14:30:00Z,42.52,8.8,10.0,-1.0,40,18,,6.21,29.88189,,,TRUE,,,,,,,,FEW,6000,,,,,,,VFR,,,,,,,,,,,,SPECI,58.0
LFJL 211430Z AUTO 01008KT 320V050 CAVOK 06/M10 Q1027 NOSIG,LFJL,2018-03-21T14:30:00Z,48.97,6.25,6.0,-10.0,10,8,,6.21,30.324802,,,TRUE,,,TRUE,,,,,CAVOK,,,,,,,,VFR,,,,,,,,,,,,METAR,264.0
LFCR 211430Z AUTO 01015KT 350V050 CAVOK 07/M13 Q1020 TEMPO 36016G26KT,LFCR,2018-03-21T14:30:00Z,44.38,2.47,7.0,-13.0,10,15,,6.21,30.11811,,,TRUE,,,,,,,,CAVOK,,,,,,,,VFR,,,,,,,,,,,,SPECI,580.0
LFTW 211430Z AUTO 01020G37KT CAVOK 10/M05 Q1017 NOSIG,LFTW,2018-03-21T14:30:00Z,43.75,4.42,10.0,-5.0,10,20,37,6.21,30.029528,,,TRUE,,,TRUE,,,,,CAVOK,,,,,,,,VFR,,,,,,,,,,,,METAR,96.0
LFTH 211430Z AUTO 34006KT 280V020 CAVOK 12/M02 Q1016 NOSIG,LFTH,2018-03-21T14:30:00Z,43.1,6.15,12.0,-2.0,340,6,,6.21,30.0,,,TRUE,,,TRUE,,,,,CAVOK,,,,,,,,VFR,,,,,,,,,,,,METAR,4.0
LFST 211430Z AUTO 01010KT 340V050 CAVOK 07/M09 Q1027 NOSIG,LFST,2018-03-21T14:30:00Z,48.53,7.62,7.0,-9.0,10,10,,6.21,30.324802,,,TRUE,,,TRUE,,,,,CAVOK,,,,,,,,VFR,,,,,,,,,,,,METAR,154.0
LFRG 211430Z AUTO 36006KT 300V040 9999 FEW034 SCT041 07/01 Q1031 NOSIG,LFRG,2018-03-21T14:30:00Z,49.37,0.15,7.0,1.0,360,6,,6.21,30.442913,,,TRUE,,,TRUE,,,,,FEW,3400,SCT,4100,,,,,VFR,,,,,,,,,,,,METAR,146.0
LFOT 211430Z AUTO 02007KT 340V070 9999 SCT047 08/M02 Q1029 NOSIG,LFOT,2018-03-21T14:30:00Z,47.43,0.72,8.0,-2.0,20,7,,6.21,30.383858,,,TRUE,,,TRUE,,,,,SCT,4700,,,,,,,VFR,,,,,,,,,,,,METAR,108.0
LFMH 211430Z AUTO 36016G28KT 330V030 CAVOK 07/M09 Q1022 NOSIG,LFMH,2018-03-21T14:30:00Z,45.52,4.28,7.0,-9.0,360,16,28,6.21,30.177166,,,TRUE,,,TRUE,,,,,CAVOK,,,,,,,,VFR,,,,,,,,,,,,METAR,402.0
LFMD 211430Z AUTO 25005KT 170V290 9999 OVC082 11/M01 Q1015 TEMPO 09010KT,LFMD,2018-03-21T14:30:00Z,43.53,6.95,11.0,-1.0,250,5,,6.21,29.970472,,,TRUE,,,,,,,,OVC,8200,,,,,,,VFR,,,,,,,,,,,,SPECI,9.0
LFGJ 211430Z AUTO 01015KT 330V040 CAVOK 07/M06 Q1024 TEMPO 03015G25KT,LFGJ,2018-03-21T14:30:00Z,47.05,5.43,7.0,-6.0,10,15,,6.21,30.236221,,,TRUE,,,,,,,,CAVOK,,,,,,,,VFR,,,,,,,,,,,,SPECI,196.0
LFBE 211430Z AUTO 36014KT 320V030 CAVOK 10/M06 Q1027 NOSIG,LFBE,2018-03-21T14:30:00Z,44.82,0.52,10.0,-6.0,360,14,,6.21,30.324802,,,TRUE,,,TRUE,,,,,CAVOK,,,,,,,,VFR,,,,,,,,,,,,METAR,52.0
LFSN 211430Z AUTO 01007KT 330V050 CAVOK 07/M09 Q1027,LFSN,2018-03-21T14:30:00Z,48.67,6.22,7.0,-9.0,10,7,,6.21,30.324802,,,TRUE,,,,,,,,CAVOK,,,,,,,,VFR,,,,,,,,,,,,METAR,217.0
LFQB 211430Z AUTO 36010KT 330V040 9999 FEW041 07/M03 Q1028,LFQB,2018-03-21T14:30:00Z,48.32,4.02,7.0,-3.0,360,10,,6.21,30.35433,,,TRUE,,,,,,,,FEW,4100,,,,,,,VFR,,,,,,,,,,,,METAR,118.0
LFQA 211430Z AUTO 34010KT 310V030 CAVOK 07/M02 Q1029,LFQA,2018-03-21T14:30:00Z,49.2,4.15,7.0,-2.0,340,10,,6.21,30.383858,,,TRUE,,,,,,,,CAVOK,,,,,,,,VFR,,,,,,,,,,,,METAR,95.0
LFOP 211430Z AUTO 36007KT 330V030 9999 SCT034 OVC044 06/// Q1030 NOSIG,LFOP,2018-03-21T14:30:00Z,49.37,1.17,,,360,7,,6.21,30.413385,,,TRUE,,,TRUE,,,,,SCT,3400,OVC,4400,,,,,VFR,,,,,,,,,,,,METAR,157.0
LFOH 211430Z AUTO 33008KT CAVOK 07/M00 Q1032 NOSIG,LFOH,2018-03-21T14:30:00Z,49.52,0.07,7.0,0.0,330,8,,6.21,30.47244,,,TRUE,,,TRUE,,,,,CAVOK,,,,,,,,VFR,,,,,,,,,,,,METAR,103.0
LFLX 211430Z AUTO 02011KT CAVOK 09/M07 Q1028 NOSIG,LFLX,2018-03-21T14:30:00Z,46.85,1.72,9.0,-7.0,20,11,,6.21,30.35433,,,TRUE,,,TRUE,,,,,CAVOK,,,,,,,,VFR,,,,,,,,,,,,METAR,157.0
LFLU 211430Z AUTO 36024KT 9999 BKN058 OVC068 06/M05 Q1020,LFLU,2018-03-21T14:30:00Z,44.92,4.98,6.0,-5.0,360,24,,6.21,30.11811,,,TRUE,,,,,,,,BKN,5800,OVC,6800,,,,,VFR,,,,,,,,,,,,METAR,160.0
LFLP 211430Z AUTO 02023KT 9999 ////// 04/M05 Q1021,LFLP,2018-03-21T14:30:00Z,45.92,6.08,4.0,-5.0,20,23,,6.21,30.147638,,,TRUE,,,,,,,,,,,,,,,,,,,,,,,,,,,,METAR,463.0
LFCK 211430Z AUTO 28023KT CAVOK 09/M07 Q1022 TEMPO 30022G32KT,LFCK,2018-03-21T14:30:00Z,43.55,2.28,9.0,-7.0,280,23,,6.21,30.177166,,,TRUE,,,,,,,,CAVOK,,,,,,,,VFR,,,,,,,,,,,,METAR,240.0
LRCV 211430Z 07006KT 4500 -SN BR FEW008 BKN014 OVC018 M01/M03 Q1016 R09/690194,LRCV,2018-03-21T14:30:00Z,44.32,23.88,-1.0,-3.0,70,6,,2.8,30.0,,,,,,,,,,-SN BR,FEW,800,BKN,1400,OVC,1800,,,IFR,,,,,,,,,,,,METAR,191.0
LRBC 211430Z 35008KT 1500 SN BR VV008 M01/M02 Q1018,LRBC,2018-03-21T14:30:00Z,46.52,26.92,-1.0,-2.0,350,8,,0.93,30.059055,,,,,,,,,,SN BR,OVX,0,,,,,,,LIFR,,,,,,,,,,,800,METAR,185.0
LFSG 211430Z AUTO 03012KT CAVOK 05/M08 Q1026,LFSG,2018-03-21T14:30:00Z,48.33,6.07,5.0,-8.0,30,12,,6.21,30.295275,,,TRUE,,,,,,,,CAVOK,,,,,,,,VFR,,,,,,,,,,,,METAR,330.0
LFRZ 211430Z AUTO 02010KT 340V060 9999 BKN044 10/01 Q1031 NOSIG,LFRZ,2018-03-21T14:30:00Z,47.32,-2.17,10.0,1.0,20,10,,6.21,30.442913,,,TRUE,,,TRUE,,,,,BKN,4400,,,,,,,VFR,,,,,,,,,,,,METAR,4.0
LFRV 211430Z AUTO 02009KT 340V050 9999 BKN042 09/00 Q1031,LFRV,2018-03-21T14:30:00Z,47.72,-2.72,9.0,0.0,20,9,,6.21,30.442913,,,TRUE,,,,,,,,BKN,4200,,,,,,,VFR,,,,,,,,,,,,METAR,133.0
LRTC 211430Z 36006KT 0800 R34/1100U SN BR VV007 M01/M01 Q1017 R16/795091,LRTC,2018-03-21T14:30:00Z,45.07,28.72,-1.0,-1.0,360,6,,0.5,30.029528,,,,,,,,,,SN BR,OVX,0,,,,,,,LIFR,,,,,,,,,,,700,SPECI,6.0
LRSV 211430Z 35011KT CAVOK M00/M08 Q1016 R16/810295,LRSV,2018-03-21T14:30:00Z,47.68,26.35,0.0,-8.0,350,11,,6.21,30.0,,,,,,,,,,,CAVOK,,,,,,,,VFR,,,,,,,,,,,,METAR,351.0
LRIA 211430Z 30006KT CAVOK 01/M07 Q1017 R14/19//95,LRIA,2018-03-21T14:30:00Z,47.17,27.62,1.0,-7.0,300,6,,6.21,30.029528,,,,,,,,,,,CAVOK,,,,,,,,VFR,,,,,,,,,,,,METAR,104.0
LFMO 211430Z AUTO 36031KT CAVOK 08/M04 Q1018 BECMG 35035G45KT,LFMO,2018-03-21T14:30:00Z,44.12,4.87,8.0,-4.0,360,31,,6.21,30.059055,,,TRUE,,,,,,,,CAVOK,,,,,,,,VFR,,,,,,,,,,,,SPECI,55.0
LFKS 211430Z AUTO 02018KT 9999 FEW060 10/02 Q1012,LFKS,2018-03-21T14:30:00Z,41.92,9.4,10.0,2.0,20,18,,6.21,29.88189,,,TRUE,,,,,,,,FEW,6000,,,,,,,VFR,,,,,,,,,,,,METAR,22.0
LFBM 211430Z AUTO 35011KT 300V020 CAVOK 10/M05 Q1028 NOSIG,LFBM,2018-03-21T14:30:00Z,43.92,-0.5,10.0,-5.0,350,11,,6.21,30.35433,,,TRUE,,,TRUE,,,,,CAVOK,,,,,,,,VFR,,,,,,,,,,,,METAR,63.0
LFBG 211430Z AUTO 35010KT 320V020 CAVOK 10/M04 Q1029 NOSIG,LFBG,2018-03-21T14:30:00Z,45.67,-0.32,10.0,-4.0,350,10,,6.21,30.383858,,,TRUE,,,TRUE,,,,,CAVOK,,,,,,,,VFR,,,,,,,,,,,,METAR,31.0
LFBC 211430Z AUTO 31017KT 280V340 CAVOK 09/M00 Q1029 TEMPO 32010G20KT,LFBC,2018-03-21T14:30:00Z,44.52,-1.12,9.0,0.0,310,17,,6.21,30.383858,,,TRUE,,,,,,,,CAVOK,,,,,,,,VFR,,,,,,,,,,,,SPECI,33.0
LFRS 211430Z AUTO 03007KT 350V070 9999 OVC044 08/M00 Q1031 NOSIG,LFRS,2018-03-21T14:30:00Z,47.17,-1.6,8.0,0.0,30,7,,6.21,30.442913,,,TRUE,,,TRUE,,,,,OVC,4400,,,,,,,VFR,,,,,,,,,,,,METAR,27.0
LFRB 211430Z AUTO 33009KT 290V010 9999 SCT034/// OVC041/// 08/01 Q1033 NOSIG,LFRB,2018-03-21T14:30:00Z,48.45,-4.42,8.0,1.0,330,9,,6.21,30.501968,,,TRUE,,,TRUE,,,,,SCT,3400,OVC,4100,,,,,VFR,,,,,,,,,,,,METAR,103.0
DTMB 211430Z 31015KT 8000 SCT020 SCT030 12/06 Q1011,DTMB,2018-03-21T14:30:00Z,35.77,10.75,12.0,6.0,310,15,,4.97,29.852362,,,,,,,,,,,SCT,2000,SCT,3000,,,,,MVFR,,,,,,,,,,,,METAR,2.0
DTNH 211430Z 31006KT 7000 RA BKN026 SCT030 09/07 Q1011,DTNH,2018-03-21T14:30:00Z,36.07,10.43,9.0,7.0,310,6,,4.35,29.852362,,,,,,,,,,RA,BKN,2600,SCT,3000,,,,,MVFR,,,,,,,,,,,,METAR,2.0
DTTA 211430Z 29008KT 260V330 8000 -RA SCT026 SCT040 11/05 Q1010,DTTA,2018-03-21T14:30:00Z,36.85,10.22,11.0,5.0,290,8,,4.97,29.822834,,,,,,,,,,-RA,SCT,2600,SCT,4000,,,,,MVFR,,,,,,,,,,,,METAR,4.0
DTTJ 211430Z 01017KT 8000 SCT020 SCT026 16/02 Q1008 NOSIG,DTTJ,2018-03-21T14:30:00Z,33.87,10.77,16.0,2.0,10,17,,4.97,29.763779,,,,,,TRUE,,,,,SCT,2000,SCT,2600,,,,,MVFR,,,,,,,,,,,,METAR,4.0
RJCC 211430Z 14004KT 9999 FEW020 BKN030 M02/M08 Q1017 RMK 1CU020 7CU030 A3005,RJCC,2018-03-21T14:30:00Z,42.77,141.67,-2.0,-8.0,140,4,,6.21,30.029528,,,,,,,,,,,FEW,2000,BKN,3000,,,,,MVFR,,,,,,,,,,,,METAR,30.0
RJTT 211430Z 33015KT 3200 -RA BR FEW003 SCT004 BKN006 05/04 Q1008 NOSIG RMK 1ST003 4ST004 6ST006 A2977,RJTT,2018-03-21T14:30:00Z,35.53,139.77,5.0,4.0,330,15,,1.99,29.763779,,,,,,TRUE,,,,-RA BR,FEW,300,SCT,400,BKN,600,,,IFR,,,,,,,,,,,,METAR,8.0
FMEE 211430Z AUTO 14004KT 100V200 4100 -RA BR FEW024/// SCT032/// BKN054/// ///CB 26/24 Q1014 BECMG 9999 NSW FEW023 BKN040,FMEE,2018-03-21T14:30:00Z,-20.87,55.52,26.0,24.0,140,4,,2.55,29.940945,,,TRUE,,,,,,,-RA BR,FEW,2400,SCT,3200,BKN,5400,,,IFR,,,,,,,,,,,,METAR,25.0
ROAH 211430Z 33021KT 9999 FEW035 BKN050 16/07 Q1013 RMK 2SC035 7SC050 A2993,ROAH,2018-03-21T14:30:00Z,26.17,127.65,16.0,7.0,330,21,,6.21,29.911417,,,,,,,,,,,FEW,3500,BKN,5000,,,,,VFR,,,,,,,,,,,,METAR,8.0
FMEP 211430Z AUTO 15010KT 9999 SCT013 BKN240 28/25 Q1013 NOSIG,FMEP,2018-03-21T14:30:00Z,-21.32,55.42,28.0,25.0,150,10,,6.21,29.911417,,,TRUE,,,TRUE,,,,,SCT,1300,BKN,24000,,,,,VFR,,,,,,,,,,,,METAR,18.0
UKLR 211430Z 29007MPS 9999 SCT018 M02/M08 Q1016 R29/////// NOSIG,UKLR,2018-03-21T14:30:00Z,50.6,26.13,-2.0,-8.0,290,14,,6.21,30.0,,,,,,TRUE,,,,,SCT,1800,,,,,,,VFR,,,,,,,,,,,,METAR,230.0
UKLU 211430Z 32007MPS 290V350 9999 SCT043 BKN200 02/M09 Q1020 R10/190065 NOSIG,UKLU,2018-03-21T14:30:00Z,48.63,22.27,2.0,-9.0,320,14,,6.21,30.11811,,,,,,TRUE,,,,,SCT,4300,BKN,20000,,,,,VFR,,,,,,,,,,,,METAR,117.0
UKLI 211430Z 30005MPS 250V340 9999 BKN030 M01/M08 Q1018 R28/810355 NOSIG,UKLI,2018-03-21T14:30:00Z,48.88,24.68,-1.0,-8.0,300,10,,6.21,30.059055,,,,,,TRUE,,,,,BKN,3000,,,,,,,MVFR,,,,,,,,,,,,METAR,280.0
UKKK 211430Z 32006MPS 9999 BKN025 M01/M07 Q1013 R26/810150 NOSIG,UKKK,2018-03-21T14:30:00Z,50.4,30.45,-1.0,-7.0,320,12,,6.21,29.911417,,,,,,TRUE,,,,,BKN,2500,,,,,,,MVFR,,,,,,,,,,,,METAR,179.0
UKLN 211430Z 31007MPS 280V340 9999 BKN041 M00/M05 Q1017 NOSIG,UKLN,2018-03-21T14:30:00Z,48.27,25.98,0.0,-5.0,310,14,,6.21,30.029528,,,,,,TRUE,,,,,BKN,4100,,,,,,,VFR,,,,,,,,,,,,METAR,252.0
UKKM 211430Z 31005MPS 9999 BKN032 00/M07 Q1013 R33/510250 NOSIG,UKKM,2018-03-21T14:30:00Z,50.6,30.2,0.0,-7.0,310,10,,6.21,29.911417,,,,,,TRUE,,,,,BKN,3200,,,,,,,VFR,,,,,,,,,,,,METAR,157.0
UKOH 211430Z 27003MPS 9999 BKN020 M01/M05 Q1016 R21/CLRD65 NOSIG,UKOH,2018-03-21T14:30:00Z,46.67,32.5,-1.0,-5.0,270,6,,6.21,30.0,,,,,,TRUE,,,,,BKN,2000,,,,,,,MVFR,,,,,,,,,,,,METAR,45.0
DAON 211430Z 00000KT 8000 BKN026 SCT100 09/05 Q1020,DAON,2018-03-21T14:30:00Z,35.02,-1.47,9.0,5.0,0,0,,4.97,30.11811,,,,,,,,,,,BKN,2600,SCT,10000,,,,,MVFR,,,,,,,,,,,,METAR,247.0
DABB 211430Z 31004KT 270V340 7000 -RA FEW020 FEW026CB BKN030 09/07 Q1012,DABB,2018-03-21T14:30:00Z,36.82,7.82,9.0,7.0,310,4,,4.35,29.88189,,,,,,,,,,-RA,FEW,2000,FEW,2600,BKN,3000,,,MVFR,,,,,,,,,,,,METAR,4.0
DAAT 211430Z 26018G29KT 220V280 CAVOK 28/// Q1013,DAAT,2018-03-21T14:30:00Z,22.82,5.47,,,260,18,29,6.21,29.911417,,,,,,,,,,,CAVOK,,,,,,,,VFR,,,,,,,,,,,,METAR,1377.0
DAAG 211430Z 36007KT 250V020 4000 RA FEW013 FEW020TCU FEW026CB BKN040 08/06 Q1018,DAAG,2018-03-21T14:30:00Z,36.72,3.22,8.0,6.0,360,7,,2.49,30.059055,,,,,,,,,,RA,FEW,1300,FEW,2000,FEW,2600,BKN,4000,IFR,,,,,,,,,,,,METAR,25.0
UKWW 211430Z 32007MPS 9999 SCT030 BKN100 M01/M07 Q1013 R31/0///65 NOSIG,UKWW,2018-03-21T14:30:00Z,49.25,28.6,-1.0,-7.0,320,14,,6.21,29.911417,,,,,,TRUE,,,,,SCT,3000,BKN,10000,,,,,VFR,,,,,,,,,,,,METAR,293.0
KVBS 211430Z AUTO 36010KT CLR 16/05 A3020 RMK A01,KVBS,2018-03-21T14:30:00Z,29.48,-93.63,16.0,5.0,360,10,,,30.200787,,,TRUE,TRUE,,,,,,,CLR,,,,,,,,,,,,,,,,,,,,SPECI,31.0
LFOA 211430Z AUTO 02015KT CAVOK 08/M07 Q1027 NOSIG,LFOA,2018-03-21T14:30:00Z,47.03,2.63,8.0,-7.0,20,15,,6.21,30.324802,,,TRUE,,,TRUE,,,,,CAVOK,,,,,,,,VFR,,,,,,,,,,,,METAR,179.0
DABC 211430Z 32009KT 290V350 7000 -RA FEW010 SCT013TCU BKN026 05/03 Q1012,DABC,2018-03-21T14:30:00Z,36.27,6.62,5.0,3.0,320,9,,4.35,29.88189,,,,,,,,,,-RA,FEW,1000,SCT,1300,BKN,2600,,,MVFR,,,,,,,,,,,,METAR,694.0
DAUH 211430Z 31024KT 5000 DRSA FEW040 SCT100 13/03 Q1012,DAUH,2018-03-21T14:30:00Z,31.67,6.15,13.0,3.0,310,24,,3.11,29.88189,,,,,,,,,,DRSA,FEW,4000,SCT,10000,,,,,MVFR,,,,,,,,,,,,METAR,142.0
DAOO 211430Z 33007KT 9999 FEW020 BKN026 11/07 Q1019,DAOO,2018-03-21T14:30:00Z,35.62,-0.6,11.0,7.0,330,7,,6.21,30.088583,,,,,,,,,,,FEW,2000,BKN,2600,,,,,MVFR,,,,,,,,,,,,METAR,90.0
NZCH 211430Z AUTO 24015KT 5000 -RA HZ BKN013/// 12/11 Q1021 NOSIG,NZCH,2018-03-21T14:30:00Z,-43.47,172.55,12.0,11.0,240,15,,3.11,30.147638,,,TRUE,,,TRUE,,,,-RA HZ,BKN,1300,,,,,,,MVFR,,,,,,,,,,,,METAR,34.0
NZWN 211430Z AUTO 18012KT 1700 +RA BCFG BKN007/// BKN012/// 15/15 Q1018 BECMG 9999 -RA TEMPO 5000 RA,NZWN,2018-03-21T14:30:00Z,-41.32,174.8,15.0,15.0,180,12,,1.06,30.059055,,,TRUE,,,,,,,+RA BCFG,BKN,700,BKN,1200,,,,,IFR,,,,,,,,,,,,METAR,7.0
NZAA 211430Z AUTO 07002KT 9999 NCD 15/14 Q1020 TEMPO 3000 BR,NZAA,2018-03-21T14:30:00Z,-37.02,174.8,15.0,14.0,70,2,,6.21,30.11811,,,TRUE,,,,,,,,CLR,,,,,,,,VFR,,,,,,,,,,,,METAR,6.0
VTBU 211430Z 13004KT 6000 FEW020 27/23 Q1010 NOSIG,VTBU,2018-03-21T14:30:00Z,12.68,101.0,27.0,23.0,130,4,,3.73,29.822834,,,,,,TRUE,,,,,FEW,2000,,,,,,,MVFR,,,,,,,,,,,,METAR,5.0
LEAS 211430Z 04005KT 340V090 9999 FEW034 SCT052 10/00 Q1033 NOSIG,LEAS,2018-03-21T14:30:00Z,43.53,-6.02,10.0,0.0,40,5,,6.21,30.501968,,,,,,TRUE,,,,,FEW,3400,SCT,5200,,,,,VFR,,,,,,,,,,,,METAR,134.0
WMKK 211430Z 04004KT 300V110 9000 FEW030 SCT140 BKN280 28/24 Q1008 NOSIG,WMKK,2018-03-21T14:30:00Z,2.75,101.72,28.0,24.0,40,4,,5.59,29.763779,,,,,,TRUE,,,,,FEW,3000,SCT,14000,BKN,28000,,,VFR,,,,,,,,,,,,METAR,22.0
WBSB 211430Z 06003KT 9999 FEW014 BKN140 27/24 Q1010 NOSIG,WBSB,2018-03-21T14:30:00Z,4.92,114.92,27.0,24.0,60,3,,6.21,29.822834,,,,,,TRUE,,,,,FEW,1400,BKN,14000,,,,,VFR,,,,,,,,,,,,METAR,15.0
WBKK 211430Z 12004KT 080V170 9999 FEW014 SCT140 BKN270 25/22 Q1009 NOSIG,WBKK,2018-03-21T14:30:00Z,5.92,116.03,25.0,22.0,120,4,,6.21,29.793306,,,,,,TRUE,,,,,FEW,1400,SCT,14000,BKN,27000,,,VFR,,,,,,,,,,,,METAR,3.0
WBGG 211430Z VRB03KT 8000 -RA FEW003 SCT020 BKN150 24/23 Q1010 NOSIG,WBGG,2018-03-21T14:30:00Z,1.47,110.35,24.0,23.0,0,3,,4.97,29.822834,,,,,,TRUE,,,,-RA,FEW,300,SCT,2000,BKN,15000,,,MVFR,,,,,,,,,,,,METAR,27.0
VEBS 211430Z 20009KT 3000 HZ FEW020 28/23 Q1008 NOSIG,VEBS,2018-03-21T14:30:00Z,20.25,85.82,28.0,23.0,200,9,,1.86,29.763779,,,,,,TRUE,,,,HZ,FEW,2000,,,,,,,IFR,,,,,,,,,,,,METAR,46.0
VOMD 211430Z 16008KT 6000 FEW020 31/21 Q1010 NOSIG,VOMD,2018-03-21T14:30:00Z,9.82,78.07,31.0,21.0,160,8,,3.73,29.822834,,,,,,TRUE,,,,,FEW,2000,,,,,,,MVFR,,,,,,,,,,,,METAR,131.0
KPHT 211430Z AUTO 31008KT 280V350 10SM SCT075 04/M01 A3003 RMK A01,KPHT,2018-03-21T14:30:00Z,36.33,-88.38,4.0,-1.0,310,8,,10.0,30.029528,,,TRUE,TRUE,,,,,,,SCT,7500,,,,,,,VFR,,,,,,,,,,,,SPECI,177.0
KO86 211430Z AUTO 00000KT 10SM OVC020 05/04 A2983 RMK AO1,KO86,2018-03-21T14:30:00Z,40.98,-122.7,5.0,4.0,0,0,,10.0,29.828741,,,TRUE,TRUE,,,,,,,OVC,2000,,,,,,,MVFR,,,,,,,,,,,,METAR,729.0
WSSS 211430Z 04005KT 350V060 9999 FEW018 BKN300 27/24 Q1009 NOSIG,WSSS,2018-03-21T14:30:00Z,1.37,103.97,27.0,24.0,40,5,,6.21,29.793306,,,,,,TRUE,,,,,FEW,1800,BKN,30000,,,,,VFR,,,,,,,,,,,,METAR,16.0
UKDR 211430Z 28007MPS 9999 DRSN OVC028 M02/M07 Q1014 R36/650342 NOSIG,UKDR,2018-03-21T14:30:00Z,48.05,33.22,-2.0,-7.0,280,14,,6.21,29.940945,,,,,,TRUE,,,,DRSN,OVC,2800,,,,,,,MVFR,,,,,,,,,,,,SPECI,124.0
UKLL 211430Z 34008MPS 9999 BKN042 M01/M12 Q1019 R31/810550 NOSIG,UKLL,2018-03-21T14:30:00Z,49.82,23.93,-1.0,-12.0,340,16,,6.21,30.088583,,,,,,TRUE,,,,,BKN,4200,,,,,,,VFR,,,,,,,,,,,,SPECI,325.0
UKDD 211430Z 27006MPS 9999 OVC028 M02/M07 Q1013 R26/711070 NOSIG,UKDD,2018-03-21T14:30:00Z,48.37,35.1,-2.0,-7.0,270,12,,6.21,29.911417,,,,,,TRUE,,,,,OVC,2800,,,,,,,MVFR,,,,,,,,,,,,SPECI,149.0
UKDE 211430Z 24005MPS 9999 BKN025 M02/M04 Q1014 R20/220365 NOSIG,UKDE,2018-03-21T14:30:00Z,47.87,35.32,-2.0,-4.0,240,10,,6.21,29.940945,,,,,,TRUE,,,,,BKN,2500,,,,,,,MVFR,,,,,,,,,,,,SPECI,113.0
UKOO 211430Z 30003MPS 9999 SCT020 BKN040 M00/M04 Q1016 R34/891030 NOSIG,UKOO,2018-03-21T14:30:00Z,46.42,30.68,0.0,-4.0,300,6,,6.21,30.0,,,,,,TRUE,,,,,SCT,2000,BKN,4000,,,,,VFR,,,,,,,,,,,,SPECI,35.0
UKHH 211430Z 28009MPS 5000 -SHSN DRSN BKN018CB BKN033 M04/M06 Q1009 R25/85//50 TEMPO 27009G16MPS,UKHH,2018-03-21T14:30:00Z,49.92,36.28,-4.0,-6.0,280,17,,3.11,29.793306,,,,,,,,,,-SHSN DRSN,BKN,1800,BKN,3300,,,,,MVFR,,,,,,,,,,,,SPECI,155.0
UKBB 211430Z 31004MPS 9999 SCT032 M02/M06 Q1013 R36R/821045 R36L///99// NOSIG,UKBB,2018-03-21T14:30:00Z,50.33,30.9,-2.0,-6.0,310,8,,6.21,29.911417,,,,,,TRUE,,,,,SCT,3200,,,,,,,VFR,,,,,,,,,,,,SPECI,119.0
LDZD 211430Z 05012KT 350V100 9999 FEW040 BKN065 07/M05 Q1014 TEMPO 05018G30KT,LDZD,2018-03-21T14:30:00Z,44.1,15.37,7.0,-5.0,50,12,,6.21,29.940945,,,,,,,,,,,FEW,4000,BKN,6500,,,,,VFR,,,,,,,,,,,,SPECI,84.0
LDZA 211430Z 05012KT 020V080 9999 SCT042 04/M06 Q1022 NOSIG,LDZA,2018-03-21T14:30:00Z,45.72,16.07,4.0,-6.0,50,12,,6.21,30.177166,,,,,,TRUE,,,,,SCT,4200,,,,,,,VFR,,,,,,,,,,,,METAR,107.0
LDSP 211430Z 05012KT 030V090 9999 BKN050 07/M02 Q1013 NOSIG,LDSP,2018-03-21T14:30:00Z,43.52,16.3,7.0,-2.0,50,12,,6.21,29.911417,,,,,,TRUE,,,,,BKN,5000,,,,,,,VFR,,,,,,,,,,,,METAR,21.0
LDRI 211430Z 04026G47KT 360V100 9999 FEW043 07/M07 Q1016,LDRI,2018-03-21T14:30:00Z,45.22,14.57,7.0,-7.0,40,26,47,6.21,30.0,,,,,,,,,,,FEW,4300,,,,,,,VFR,,,,,,,,,,,,METAR,85.0
LDPL 211430Z 07020KT CAVOK 07/M07 Q1016 TEMPO 07025G35KT,LDPL,2018-03-21T14:30:00Z,44.88,13.92,7.0,-7.0,70,20,,6.21,30.0,,,,,,,,,,,CAVOK,,,,,,,,VFR,,,,,,,,,,,,SPECI,63.0
LDOS 211430Z 04003KT 340V090 9999 SCT030 02/M04 Q1022 R11/CLRD//,LDOS,2018-03-21T14:30:00Z,45.47,18.82,2.0,-4.0,40,3,,6.21,30.177166,,,,,,,,,,,SCT,3000,,,,,,,VFR,,,,,,,,,,,,SPECI,89.0
LDDU 211430Z 02021KT 330V060 9999 FEW028 BKN050 07/02 Q1011 TEMPO TSRA FEW030CB,LDDU,2018-03-21T14:30:00Z,42.57,18.27,7.0,2.0,20,21,,6.21,29.852362,,,,,,,,,,,FEW,2800,BKN,5000,,,,,VFR,,,,,,,,,,,,SPECI,165.0
TFFR 211430Z AUTO 10013KT 9999 BKN030/// BKN070/// BKN090/// ///TCU 29/22 Q1018 TEMPO 10015G25KT 4000 SHRA,TFFR,2018-03-21T14:30:00Z,16.27,-61.53,29.0,22.0,100,13,,6.21,30.059055,,,TRUE,,,,,,,,BKN,3000,BKN,7000,BKN,9000,,,MVFR,,1.5,,,,,,,,,,METAR,11.0
LHBP 211430Z 27009KT 240V310 9999 FEW037TCU SCT048 BKN070 05/M05 Q1020 TEMPO -SHSN,LHBP,2018-03-21T14:30:00Z,47.42,19.27,5.0,-5.0,270,9,,6.21,30.11811,,,,,,,,,,,FEW,3700,SCT,4800,BKN,7000,,,VFR,,,,,,,,,,,,SPECI,185.0
LBGO 211430Z AUTO 32012KT 6000 OVC009/// 03/02 Q1016 R99/19//95 NOSIG,LBGO,2018-03-21T14:30:00Z,43.15,25.72,3.0,2.0,320,12,,3.73,30.0,,,TRUE,,,TRUE,,,,,OVC,900,,,,,,,IFR,,,,,,,,,,,,SPECI,86.0
LBPD 211430Z AUTO 07005KT 040V110 9999 BKN072/// 11/08 Q1012 NOSIG,LBPD,2018-03-21T14:30:00Z,42.13,24.8,11.0,8.0,70,5,,6.21,29.88189,,,TRUE,,,TRUE,,,,,BKN,7200,,,,,,,VFR,,,,,,,,,,,,METAR,185.0
LBBG 211430Z 02011KT 350V050 6000 -RA OVC009 07/06 Q1013 TEMPO 5000 RA,LBBG,2018-03-21T14:30:00Z,42.57,27.52,7.0,6.0,20,11,,3.73,29.911417,,,,,,,,,,-RA,OVC,900,,,,,,,IFR,,,,,,,,,,,,SPECI,28.0
LBWN 211430Z VRB07KT 8000 -RA BKN015 OVC022 05/04 Q1013 RERA R99/29//95 TEMPO 4000 RA,LBWN,2018-03-21T14:30:00Z,43.22,27.82,5.0,4.0,0,7,,4.97,29.911417,,,,,,,,,,-RA,BKN,1500,OVC,2200,,,,,MVFR,,,,,,,,,,,,SPECI,43.0
LBSF 211430Z 27016KT 9999 BKN022 BKN051 04/01 Q1012 R99/29//95 NOSIG,LBSF,2018-03-21T14:30:00Z,42.7,23.42,4.0,1.0,270,16,,6.21,29.88189,,,,,,TRUE,,,,,BKN,2200,BKN,5100,,,,,MVFR,,,,,,,,,,,,SPECI,530.0
LZTT 211430Z 08009KT 040V130 9999 FEW050 M01/M13 Q1017 NOSIG,LZTT,2018-03-21T14:30:00Z,49.07,20.25,-1.0,-13.0,80,9,,6.21,30.029528,,,,,,TRUE,,,,,FEW,5000,,,,,,,VFR,,,,,,,,,,,,METAR,707.0
LZKZ 211430Z 03019KT CAVOK 01/M10 Q1020 NOSIG,LZKZ,2018-03-21T14:30:00Z,48.67,21.23,1.0,-10.0,30,19,,6.21,30.11811,,,,,,TRUE,,,,,CAVOK,,,,,,,,VFR,,,,,,,,,,,,METAR,232.0
LZIB 211430Z 34017KT CAVOK 05/M12 Q1022 R88/CLRD// NOSIG,LZIB,2018-03-21T14:30:00Z,48.17,17.22,5.0,-12.0,340,17,,6.21,30.177166,,,,,,TRUE,,,,,CAVOK,,,,,,,,VFR,,,,,,,,,,,,SPECI,134.0
SOCA 211430Z AUTO 08016KT 9999 OVC027/// 29/22 Q1014 NOSIG,SOCA,2018-03-21T14:30:00Z,4.82,-52.37,29.0,22.0,80,16,,6.21,29.940945,,,TRUE,,,TRUE,,,,,OVC,2700,,,,,,,MVFR,,,,,,,,,,,,METAR,9.0
VTSM 211430Z 13003KT 9999 FEW020 28/24 Q1010,VTSM,2018-03-21T14:30:00Z,9.55,100.07,28.0,24.0,130,3,,6.21,29.822834,,,,,,,,,,,FEW,2000,,,,,,,VFR,,,,,,,,,,,,METAR,17.0
NWWW 211430Z AUTO 12004KT 070V140 9999 FEW049/// 23/21 Q1007 NOSIG,NWWW,2018-03-21T14:30:00Z,-22.02,166.22,23.0,21.0,120,4,,6.21,29.734253,,,TRUE,,,TRUE,,,,,FEW,4900,,,,,,,VFR,,,,,,,,,,,,METAR,16.0
WAMM 211430Z VRB02KT 7000 -RA SCT018 25/24 Q1009 TEMPO -RA,WAMM,2018-03-21T14:30:00Z,1.55,124.92,25.0,24.0,0,2,,4.35,29.793306,,,,,,,,,,-RA,SCT,1800,,,,,,,MVFR,,,,,,,,,,,,SPECI,80.0
CYOD 211430Z 05005KT 3SM -SHSN BR OVC030 M01/M02 A2990 RMK SC8 SLP150,CYOD,2018-03-21T14:30:00Z,54.4,-110.28,-1.0,-2.0,50,5,,3.0,29.899607,1015.0,,,,,,,,,-SHSN BR,OVC,3000,,,,,,,MVFR,,,,,,,,,,,,SPECI,544.0
TFFF 211430Z AUTO 11016KT 9999 BKN027 BKN033 30/22 Q1017 TEMPO 11017G27KT 4000 SHRA BKN018TCU BKN040,TFFF,2018-03-21T14:30:00Z,14.6,-61.0,30.0,22.0,110,16,,6.21,30.029528,,,TRUE,,,,,,,,BKN,2700,BKN,3300,,,,,MVFR,,-1.7,,,,,,,,,,METAR,5.0
YCOM 211430Z AUTO 00000KT 2600 // SCT008 BKN015 OVC021 08/08 Q1031,YCOM,2018-03-21T14:30:00Z,-36.3,148.97,8.0,8.0,0,0,,1.62,30.442913,,,TRUE,,,,,,,,SCT,800,BKN,1500,OVC,2100,,,IFR,,,,,,,,,,,,SPECI,941.0
UBBN 211430Z VRB02KT 9999 NSC 18/01 Q1014 R14R/CLRD// NOSIG RMK MT OP QFE686,UBBN,2018-03-21T14:30:00Z,39.18,45.45,18.0,1.0,0,2,,6.21,29.940945,,,,,,TRUE,,,,,CLR,,,,,,,,VFR,,,,,,,,,,,,SPECI,873.0
YKRY 211430Z AUTO 13011G21KT 9999 // BKN012 BKN018 OVC022 19/18 Q1017,YKRY,2018-03-21T14:30:00Z,-26.57,151.83,19.0,18.0,130,11,21,6.21,30.029528,,,TRUE,,,,,,,,BKN,1200,BKN,1800,OVC,2200,,,MVFR,,,,,,,,,,,,SPECI,434.0
LUKK 211430Z 30005KT 9999 BKN032 01/M06 Q1016 R26/150095 BECMG BKN015,LUKK,2018-03-21T14:30:00Z,46.93,28.93,1.0,-6.0,300,5,,6.21,30.0,,,,,,,,,,,BKN,3200,,,,,,,VFR,,,,,,,,,,,,METAR,122.0
HSSS 211430Z 09003KT CAVOK 40/M05 Q1007 NOSIG,HSSS,2018-03-21T14:30:00Z,15.58,32.53,40.0,-5.0,90,3,,6.21,29.734253,,,,,,TRUE,,,,,CAVOK,,,,,,,,VFR,,,,,,,,,,,,METAR,380.0
SPZO 211430Z VRB02KT 9999 VCSH FEW036 SCT043 OVC100 13/06 Q1033 NOSIG RMK BIRD HAZARD RWY 28,SPZO,2018-03-21T14:30:00Z,-13.55,-71.97,13.0,6.0,0,2,,6.21,30.501968,,,,,,TRUE,,,,VCSH,FEW,3600,SCT,4300,OVC,10000,,,VFR,,,,,,,,,,,,SPECI,3249.0
OIGG 211430Z 24003KT 9999 FEW015CB SCT020 BKN170 14/11 Q1019,OIGG,2018-03-21T14:30:00Z,37.33,49.6,14.0,11.0,240,3,,6.21,30.088583,,,,,,,,,,,FEW,1500,SCT,2000,BKN,17000,,,VFR,,,,,,,,,,,,METAR,-13.0
UTTT 211430Z VRB02KT CAVOK 21/10 Q1012 R08R/CLRD70 NOSIG,UTTT,2018-03-21T14:30:00Z,41.27,69.27,21.0,10.0,0,2,,6.21,29.88189,,,,,,TRUE,,,,,CAVOK,,,,,,,,VFR,,,,,,,,,,,,METAR,489.0
UTFA 211430Z 10002KT 4600 HZ NSC 16/07 Q1011 R99/09//70,UTFA,2018-03-21T14:30:00Z,40.73,72.3,16.0,7.0,100,2,,2.86,29.852362,,,,,,,,,,HZ,CLR,,,,,,,,IFR,,,,,,,,,,,,METAR,477.0
UTST 211430Z 00000KT CAVOK 21/06 Q1012 R88/CLRD70 NOSIG,UTST,2018-03-21T14:30:00Z,37.28,67.32,21.0,6.0,0,0,,6.21,29.88189,,,,,,TRUE,,,,,CAVOK,,,,,,,,VFR,,,,,,,,,,,,METAR,302.0
UTSS 211430Z 05004KT 010V080 6000 NSC 18/08 Q1012 R27/70D NOSIG,UTSS,2018-03-21T14:30:00Z,39.7,66.98,18.0,8.0,50,4,,3.73,29.88189,,,,,,TRUE,,,,,CLR,,,,,,,,MVFR,,,,,,,,,,,,METAR,724.0
UTSK 211430Z 14006KT CAVOK 21/07 Q1011 R16/CLRD70,UTSK,2018-03-21T14:30:00Z,38.83,65.77,21.0,7.0,140,6,,6.21,29.852362,,,,,,,,,,,CAVOK,,,,,,,,VFR,,,,,,,,,,,,METAR,1365.0
UTSB 211430Z 20004KT CAVOK 21/07 Q1009 R01/CLRD70 NOSIG,UTSB,2018-03-21T14:30:00Z,39.77,64.48,21.0,7.0,200,4,,6.21,29.793306,,,,,,TRUE,,,,,CAVOK,,,,,,,,VFR,,,,,,,,,,,,METAR,226.0
UTSA 211430Z 31002KT 9999 NSC 22/06 Q1010 R25/CLRD70 NOSIG,UTSA,2018-03-21T14:30:00Z,40.12,65.17,22.0,6.0,310,2,,6.21,29.822834,,,,,,TRUE,,,,,CLR,,,,,,,,VFR,,,,,,,,,,,,METAR,346.0
UTNU 211430Z 12002KT CAVOK 21/07 Q1007 R31/CLRD70 NOSIG,UTNU,2018-03-21T14:30:00Z,41.58,60.63,21.0,7.0,120,2,,6.21,29.734253,,,,,,TRUE,,,,,CAVOK,,,,,,,,VFR,,,,,,,,,,,,METAR,98.0
UTNN 211430Z 12004KT CAVOK 22/04 Q1006 R33/CLRD60 NOSIG,UTNN,2018-03-21T14:30:00Z,42.48,59.63,22.0,4.0,120,4,,6.21,29.704725,,,,,,TRUE,,,,,CAVOK,,,,,,,,VFR,,,,,,,,,,,,METAR,67.0
UTFN 211430Z 29004KT 6000 NSC 19/07 Q1010 R28/CLRD70 NOSIG,UTFN,2018-03-21T14:30:00Z,40.98,71.57,19.0,7.0,290,4,,3.73,29.822834,,,,,,TRUE,,,,,CLR,,,,,,,,MVFR,,,,,,,,,,,,METAR,490.0
RJGG 211430Z 35013KT 7000 -SHRA FEW003 BKN005 BKN030 08/08 Q1000 TEMPO 3000 TSRA BR,RJGG,2018-03-21T14:30:00Z,34.87,136.8,8.0,8.0,350,13,,4.35,29.52756,,,,,,,,,,-SHRA,FEW,300,BKN,500,BKN,3000,,,IFR,,,,,,,,,,,,METAR,5.0
RJBB 211430Z AUTO 03018KT 9999 -RA FEW012 BKN060 BKN070 10/08 Q0998 NOSIG,RJBB,2018-03-21T14:30:00Z,34.42,135.25,10.0,8.0,30,18,,6.21,29.468504,,,TRUE,,,TRUE,,,,-RA,FEW,1200,BKN,6000,BKN,7000,,,VFR,,,,,,,,,,,,METAR,8.0
VIDP 211430Z 34008KT 4500 HZ FEW040 SCT100 25/17 Q1009 NOSIG,VIDP,2018-03-21T14:30:00Z,28.57,77.12,25.0,17.0,340,8,,2.8,29.793306,,,,,,TRUE,,,,HZ,FEW,4000,SCT,10000,,,,,IFR,,,,,,,,,,,,METAR,233.0
YLHI 211430Z AUTO 10012KT 9999 // SCT028 23/17 Q1020,YLHI,2018-03-21T14:30:00Z,-31.53,159.07,23.0,17.0,100,12,,6.21,30.11811,,,TRUE,,,,,,,,SCT,2800,,,,,,,VFR,,,,,,,,,,,,METAR,2.0
YCFS 211430Z AUTO 23012KT 9999 // SCT077 SCT092 20/19 Q1020,YCFS,2018-03-21T14:30:00Z,-30.32,153.12,20.0,19.0,230,12,,6.21,30.11811,,,TRUE,,,,,,,,SCT,7700,SCT,9200,,,,,VFR,,,,,,,,,,,,METAR,5.0
YPPD 211430Z AUTO 28006KT //// // NCD 28/26 Q1009,YPPD,2018-03-21T14:30:00Z,-20.37,118.62,28.0,26.0,280,6,,,29.793306,,,TRUE,,,,,,,,CLR,,,,,,,,,,,,,,,,,,,,METAR,6.0
YSNF 211430Z AUTO /////KT //// // BKN020 BKN032 22/// Q1015,YSNF,2018-03-21T14:30:00Z,-29.02,167.92,,,,,,,29.970472,,,TRUE,,,,,,,,BKN,2000,BKN,3200,,,,,,,,,,,,,,,,,METAR,109.0
YMLT 211430Z AUTO 17009KT 9999 // SCT035 OVC056 10/05 Q1036,YMLT,2018-03-21T14:30:00Z,-41.52,147.18,10.0,5.0,170,9,,6.21,30.590551,,,TRUE,,,,,,,,SCT,3500,OVC,5600,,,,,VFR,,,,,,,,,,,,METAR,178.0
YMHB 211430Z 00000KT 9999 FEW040 SCT048 10/05 Q1038 RF00.0/000.0,YMHB,2018-03-21T14:30:00Z,-42.82,147.52,10.0,5.0,0,0,,6.21,30.649607,,,,,,,,,,,FEW,4000,SCT,4800,,,,,VFR,,,,,,,,,,,,METAR,27.0
YPCC 211430Z AUTO 07006KT 9999 // SCT041 27/23 Q1009,YPCC,2018-03-21T14:30:00Z,-12.17,96.82,27.0,23.0,70,6,,6.21,29.793306,,,TRUE,,,,,,,,SCT,4100,,,,,,,VFR,,,,,,,,,,,,METAR,3.0
YPXM 211430Z AUTO 26006KT 9999 // NCD 25/22 Q1008,YPXM,2018-03-21T14:30:00Z,-10.45,105.67,25.0,22.0,260,6,,6.21,29.763779,,,TRUE,,,,,,,,CLR,,,,,,,,VFR,,,,,,,,,,,,METAR,259.0
YBRM 211430Z AUTO 25008KT 9999 // NCD 30/27 Q1008 RF00.0/000.0,YBRM,2018-03-21T14:30:00Z,-17.93,122.22,30.0,27.0,250,8,,6.21,29.763779,,,TRUE,,,,,,,,CLR,,,,,,,,VFR,,,,,,,,,,,,METAR,9.0
YBTL 211430Z AUTO 15008KT 9999 // BKN077 BKN087 25/21 Q1009,YBTL,2018-03-21T14:30:00Z,-19.25,146.75,25.0,21.0,150,8,,6.21,29.793306,,,TRUE,,,,,,,,BKN,7700,BKN,8700,,,,,VFR,,,,,,,,,,,,METAR,6.0
YPTN 211430Z AUTO 12004KT 9999 // NCD 25/22 Q1006,YPTN,2018-03-21T14:30:00Z,-14.52,132.38,25.0,22.0,120,4,,6.21,29.704725,,,TRUE,,,,,,,,CLR,,,,,,,,VFR,,,,,,,,,,,,METAR,109.0
YPLM 211430Z AUTO 20007KT 9999 // BKN110 29/23 Q1009,YPLM,2018-03-21T14:30:00Z,-22.22,114.07,29.0,23.0,200,7,,6.21,29.793306,,,TRUE,,,,,,,,BKN,11000,,,,,,,VFR,,,,,,,,,,,,METAR,6.0
YPKG 211430Z AUTO 04012KT 9999 SHRA SCT060 SCT083 BKN100 23/14 Q1013,YPKG,2018-03-21T14:30:00Z,-30.77,121.45,23.0,14.0,40,12,,6.21,29.911417,,,TRUE,,,,,,,SHRA,SCT,6000,SCT,8300,BKN,10000,,,VFR,,,,,,,,,,,,METAR,360.0
YBCG 211430Z AUTO 15011KT 9999 // SCT029 24/18 Q1017 RF00.0/005.4,YBCG,2018-03-21T14:30:00Z,-28.17,153.5,24.0,18.0,150,11,,6.21,30.029528,,,TRUE,,,,,,,,SCT,2900,,,,,,,VFR,,,,,,,,,,,,METAR,6.0
YSCB 211430Z AUTO 15008KT 9999 // NCD 11/08 Q1030,YSCB,2018-03-21T14:30:00Z,-35.28,149.17,11.0,8.0,150,8,,6.21,30.413385,,,TRUE,,,,,,,,CLR,,,,,,,,VFR,,,,,,,,,,,,METAR,577.0
YBCS 211430Z 17009KT 9999 -SHRA FEW023 BKN300 26/22 Q1007 INTER 1430/1730 3000 SHRA FEW008 BKN018,YBCS,2018-03-21T14:30:00Z,-16.87,145.75,26.0,22.0,170,9,,6.21,29.734253,,,,,,,,,,-SHRA,FEW,2300,BKN,30000,,,,,VFR,,,,,,,,,,,,METAR,7.0
YMAV 211430Z AUTO 10017KT //// // NCD 17/12 Q1025 RF00.0/000.0 PRESENT WEATHER SENSOR US,YMAV,2018-03-21T14:30:00Z,-38.03,144.48,17.0,12.0,100,17,,,30.265747,,,TRUE,,,,,,,,CLR,,,,,,,,,,,,,,,,,,,,METAR,8.0
YBAS 211430Z AUTO 00000KT 9999 // NCD 23/09 Q1014 RF00.0/000.0,YBAS,2018-03-21T14:30:00Z,-23.8,133.9,23.0,9.0,0,0,,6.21,29.940945,,,TRUE,,,,,,,,CLR,,,,,,,,VFR,,,,,,,,,,,,METAR,541.0
YPKU 211430Z AUTO 00000KT 9000 // SCT115 27/24 Q1006 RF00.0/000.0,YPKU,2018-03-21T14:30:00Z,-15.77,128.68,27.0,24.0,0,0,,5.59,29.704725,,,TRUE,,,,,,,,SCT,11500,,,,,,,VFR,,,,,,,,,,,,METAR,45.0
YFRT 211430Z AUTO 11009KT //// // ////// 15/13 Q1018,YFRT,2018-03-21T14:30:00Z,-30.83,128.12,15.0,13.0,110,9,,,30.059055,,,TRUE,,,,,,,,,,,,,,,,,,,,,,,,,,,,METAR,156.0
YCIN 211430Z AUTO 24006KT 9999 // NCD 27/24 Q1007 RF00.0/000.0,YCIN,2018-03-21T14:30:00Z,-17.58,123.83,27.0,24.0,240,6,,6.21,29.734253,,,TRUE,,,,,,,,CLR,,,,,,,,VFR,,,,,,,,,,,,METAR,91.0
YBMA 211430Z AUTO 10006KT 9999 // NCD 29/18 Q1009 RF00.0/000.0,YBMA,2018-03-21T14:30:00Z,-20.67,139.47,29.0,18.0,100,6,,6.21,29.793306,,,TRUE,,,,,,,,CLR,,,,,,,,VFR,,,,,,,,,,,,METAR,344.0
YBHM 211430Z AUTO 13023KT 9999 // SCT028 SCT039 26/22 Q1009,YBHM,2018-03-21T14:30:00Z,-20.35,148.95,26.0,22.0,130,23,,6.21,29.793306,,,TRUE,,,,,,,,SCT,2800,SCT,3900,,,,,VFR,,,,,,,,,,,,METAR,5.0
VMMC 211430Z 36008KT CAVOK 19/12 Q1017 NOSIG,VMMC,2018-03-21T14:30:00Z,22.15,113.58,19.0,12.0,360,8,,6.21,30.029528,,,,,,TRUE,,,,,CAVOK,,,,,,,,VFR,,,,,,,,,,,,METAR,6.0
RCSS 211430Z 08002KT 9999 FEW035 13/08 Q1019 NOSIG RMK A3011,RCSS,2018-03-21T14:30:00Z,25.07,121.53,13.0,8.0,80,2,,6.21,30.088583,,,,,,TRUE,,,,,FEW,3500,,,,,,,VFR,,,,,,,,,,,,METAR,6.0
RCKH 211430Z 36008KT 330V030 8000 FEW020 BKN037 18/11 Q1015 NOSIG RMK A3000,RCKH,2018-03-21T14:30:00Z,22.57,120.33,18.0,11.0,360,8,,4.97,29.970472,,,,,,TRUE,,,,,FEW,2000,BKN,3700,,,,,MVFR,,,,,,,,,,,,METAR,9.0
RCTP 211430Z 09009KT 9999 FEW015 SCT040 13/08 Q1019 NOSIG RMK A3011,RCTP,2018-03-21T14:30:00Z,25.07,121.22,13.0,8.0,90,9,,6.21,30.088583,,,,,,TRUE,,,,,FEW,1500,SCT,4000,,,,,VFR,,,,,,,,,,,,METAR,33.0
YSSY 211430Z 13019KT 9999 FEW025 BKN037 19/15 Q1027 INTER 1430/1730 4000 SHRA BKN015,YSSY,2018-03-21T14:30:00Z,-33.95,151.17,19.0,15.0,130,19,,6.21,30.324802,,,,,,,,,,,FEW,2500,BKN,3700,,,,,VFR,,,,,,,,,,,,METAR,3.0
YPPH 211430Z 21003KT CAVOK 23/13 Q1007 NOSIG,YPPH,2018-03-21T14:30:00Z,-31.93,115.98,23.0,13.0,210,3,,6.21,29.734253,,,,,,TRUE,,,,,CAVOK,,,,,,,,VFR,,,,,,,,,,,,METAR,13.0
YMML 211430Z 33004KT CAVOK 12/08 Q1025 NOSIG,YMML,2018-03-21T14:30:00Z,-37.67,144.82,12.0,8.0,330,4,,6.21,30.265747,,,,,,TRUE,,,,,CAVOK,,,,,,,,VFR,,,,,,,,,,,,METAR,141.0
YPDN 211430Z 27004KT CAVOK 26/24 Q1005,YPDN,2018-03-21T14:30:00Z,-12.42,130.9,26.0,24.0,270,4,,6.21,29.675198,,,,,,,,,,,CAVOK,,,,,,,,VFR,,,,,,,,,,,,METAR,30.0
YBBN 211430Z 13009KT 9999 VCSH FEW020 SCT030 BKN060 23/19 Q1016 INTER 1430/1730 3000 SHRA BKN010,YBBN,2018-03-21T14:30:00Z,-27.38,153.13,23.0,19.0,130,9,,6.21,30.0,,,,,,,,,,VCSH,FEW,2000,SCT,3000,BKN,6000,,,VFR,,,,,,,,,,,,METAR,5.0
YPAD 211430Z 13005KT CAVOK 14/08 Q1018 NOSIG,YPAD,2018-03-21T14:30:00Z,-34.95,138.52,14.0,8.0,130,5,,6.21,30.059055,,,,,,TRUE,,,,,CAVOK,,,,,,,,VFR,,,,,,,,,,,,METAR,4.0
YGLA 211430Z AUTO 15008KT 9999 // SCT047 SCT057 BKN074 23/20 Q1012,YGLA,2018-03-21T14:30:00Z,-23.87,151.22,23.0,20.0,150,8,,6.21,29.88189,,,TRUE,,,,,,,,SCT,4700,SCT,5700,BKN,7400,,,VFR,,,,,,,,,,,,METAR,52.0
YAMB 211430Z AUTO 19005KT 9999 // NCD 20/17 Q1016,YAMB,2018-03-21T14:30:00Z,-27.63,152.72,20.0,17.0,190,5,,6.21,30.0,,,TRUE,,,,,,,,CLR,,,,,,,,VFR,,,,,,,,,,,,METAR,28.0
YGEL 211430Z AUTO 29004KT 9999 // NCD 20/19 Q1008 RF00.0/000.0,YGEL,2018-03-21T14:30:00Z,-28.8,114.7,20.0,19.0,290,4,,6.21,29.763779,,,TRUE,,,,,,,,CLR,,,,,,,,VFR,,,,,,,,,,,,METAR,37.0
YSTW 211430Z AUTO 15009KT 9999 // SCT120 20/12 Q1021 RF00.0/000.0,YSTW,2018-03-21T14:30:00Z,-31.07,150.85,20.0,12.0,150,9,,6.21,30.147638,,,TRUE,,,,,,,,SCT,12000,,,,,,,VFR,,,,,,,,,,,,METAR,410.0
YHID 211430Z AUTO 09009KT 9999 // SCT041 28/24 Q1004,YHID,2018-03-21T14:30:00Z,-10.58,142.3,28.0,24.0,90,9,,6.21,29.64567,,,TRUE,,,,,,,,SCT,4100,,,,,,,VFR,,,,,,,,,,,,METAR,13.0
YPJT 211430Z AUTO 16003KT 9999 // NCD 23/13 Q1007 RF00.0/000.0,YPJT,2018-03-21T14:30:00Z,-32.1,115.88,23.0,13.0,160,3,,6.21,29.734253,,,TRUE,,,,,,,,CLR,,,,,,,,VFR,,,,,,,,,,,,METAR,30.0
YSRI 211430Z AUTO 23010KT 9999 // OVC062 16/15 Q1027 RF00.0/009.4 PRESENT WEATHER SENSOR US,YSRI,2018-03-21T14:30:00Z,-33.6,150.77,16.0,15.0,230,10,,6.21,30.324802,,,TRUE,,,,,,,,OVC,6200,,,,,,,VFR,,,,,,,,,,,,METAR,21.0
YPEA 211430Z AUTO 00000KT 9999 // NCD 25/12 Q1007,YPEA,2018-03-21T14:30:00Z,-31.67,116.02,25.0,12.0,0,0,,6.21,29.734253,,,TRUE,,,,,,,,CLR,,,,,,,,VFR,,,,,,,,,,,,METAR,49.0
YPWR 211430Z AUTO 14008KT 9999 // NCD 19/05 Q1016 RF00.0/000.0,YPWR,2018-03-21T14:30:00Z,-31.12,136.82,19.0,5.0,140,8,,6.21,30.0,,,TRUE,,,,,,,,CLR,,,,,,,,VFR,,,,,,,,,,,,METAR,167.0
UMKK 211430Z 29007MPS 9999 FEW030 02/M04 Q1020 R24/60D NOSIG RMK QFE764/1019,UMKK,2018-03-21T14:30:00Z,54.88,20.6,2.0,-4.0,290,14,,6.21,30.11811,,,,,,TRUE,,,,,FEW,3000,,,,,,,VFR,,,,,,,,,,,,METAR,21.0
UUYY 211430Z 01002MPS CAVOK M14/M19 Q1013 R36/450241 NOSIG RMK QFE750/1001,UUYY,2018-03-21T14:30:00Z,61.65,50.82,-14.0,-19.0,10,4,,6.21,29.911417,,,,,,TRUE,,,,,CAVOK,,,,,,,,VFR,,,,,,,,,,,,METAR,119.0
UUOO 211430Z 30004MPS 1900 R30/1900D SN OVC007 M06/M07 Q1004 R30/490237 NOSIG RMK QFE739,UUOO,2018-03-21T14:30:00Z,51.82,39.23,-6.0,-7.0,300,8,,1.18,29.64567,,,,,,TRUE,,,,SN,OVC,700,,,,,,,IFR,,,,,,,,,,,,METAR,157.0
ULMM 211430Z 18005G11MPS 9999 DRSN NSC M08/M14 Q0998 R13/410170 NOSIG RMK QFE742,ULMM,2018-03-21T14:30:00Z,68.78,32.75,-8.0,-14.0,180,10,21,6.21,29.468504,,,,,,TRUE,,,,DRSN,CLR,,,,,,,,VFR,,,,,,,,,,,,METAR,51.0
ULAA 211430Z 21003MPS 150V290 9999 FEW030 M09/M20 Q1012 R26/950545 NOSIG RMK QFE758/1010,ULAA,2018-03-21T14:30:00Z,64.6,40.72,-9.0,-20.0,210,6,,6.21,29.88189,,,,,,TRUE,,,,,FEW,3000,,,,,,,VFR,,,,,,,,,,,,METAR,19.0
CYLC 211430Z VRB02KT 10SM -SN OVC013 M10/M13 A3012 RMK ST8 SLP207,CYLC,2018-03-21T14:30:00Z,62.85,-69.87,-10.0,-13.0,0,2,,10.0,30.121063,1020.7,,,,,,,,,-SN,OVC,1300,,,,,,,MVFR,,,,,,,,,,,,SPECI,53.0
WIII 211430Z 24010KT 8000 FEW020 25/23 Q1008 NOSIG,WIII,2018-03-21T14:30:00Z,-6.13,106.67,25.0,23.0,240,10,,4.97,29.763779,,,,,,TRUE,,,,,FEW,2000,,,,,,,MVFR,,,,,,,,,,,,METAR,8.0
UEEE 211430Z 33002MPS CAVOK M25/M28 Q1013 R23L/450150 NOSIG RMK QFE751,UEEE,2018-03-21T14:30:00Z,62.08,129.77,-25.0,-28.0,330,4,,6.21,29.911417,,,,,,TRUE,,,,,CAVOK,,,,,,,,VFR,,,,,,,,,,,,METAR,103.0
LFQG 211430Z AUTO 36011KT 320V030 CAVOK 09/M07 Q1027,LFQG,2018-03-21T14:30:00Z,47.0,3.1,9.0,-7.0,360,11,,6.21,30.324802,,,TRUE,,,,,,,,CAVOK,,,,,,,,VFR,,,,,,,,,,,,METAR,181.0
LFLW 211430Z AUTO 35013G24KT 320V020 CAVOK 06/M09 Q1021 NOSIG,LFLW,2018-03-21T14:30:00Z,44.88,2.42,6.0,-9.0,350,13,24,6.21,30.147638,,,TRUE,,,TRUE,,,,,CAVOK,,,,,,,,VFR,,,,,,,,,,,,METAR,639.0
GQNO 211430Z 04016KT 010V070 3500 BLSA NSC 32/04 Q1012 NOSIG,GQNO,2018-03-21T14:30:00Z,18.3,-15.97,32.0,4.0,40,16,,2.17,29.88189,,,,,,TRUE,,,,BLSA,CLR,,,,,,,,IFR,,,,,,,,,,,,METAR,4.0
GOBD 211430Z 36012KT 320V030 7000 NSC 32/13 Q1011 NOSIG,GOBD,2018-03-21T14:30:00Z,14.67,-17.07,32.0,13.0,360,12,,4.35,29.852362,,,,,,TRUE,,,,,CLR,,,,,,,,MVFR,,,,,,,,,,,,METAR,88.0
GABS 211430Z 33004KT CAVOK 38/M05 Q1011 NOSIG,GABS,2018-03-21T14:30:00Z,12.52,-7.95,38.0,-5.0,330,4,,6.21,29.852362,,,,,,TRUE,,,,,CAVOK,,,,,,,,VFR,,,,,,,,,,,,METAR,381.0
URWW 211430Z 26016MPS 9999 OVC014 M00/M02 Q1006 R24/290060 NOSIG,URWW,2018-03-21T14:30:00Z,48.78,44.33,0.0,-2.0,260,31,,6.21,29.704725,,,,,,TRUE,,,,,OVC,1400,,,,,,,MVFR,,,,,,,,,,,,METAR,147.0
URWI 211430Z 28013MPS CAVOK 09/02 Q1011 R27/010065 TEMPO 27016G21MPS,URWI,2018-03-21T14:30:00Z,46.37,44.33,9.0,2.0,280,25,,6.21,29.852362,,,,,,,,,,,CAVOK,,,,,,,,VFR,,,,,,,,,,,,METAR,150.0
URWA 211430Z 28006MPS CAVOK 12/03 Q1011 R27/290055 NOSIG RMK QFE760/1014,URWA,2018-03-21T14:30:00Z,46.28,48.02,12.0,3.0,280,12,,6.21,29.852362,,,,,,TRUE,,,,,CAVOK,,,,,,,,VFR,,,,,,,,,,,,METAR,-20.0
URSS 211430Z 17002MPS 9999 FEW040 13/05 Q1019 R06/090070 R02/////// NOSIG RMK R02/15002MPS MT OBSC QFE763,URSS,2018-03-21T14:30:00Z,43.45,39.95,13.0,5.0,170,4,,6.21,30.088583,,,,,,TRUE,,,,,FEW,4000,,,,,,,VFR,,,,,,,,,,,,METAR,16.0
URMT 211430Z 29014G21MPS CAVOK 10/01 Q1013 R25/010070 TEMPO 29017G24MPS RMK QFE721,URMT,2018-03-21T14:30:00Z,45.12,42.12,10.0,1.0,290,27,41,6.21,29.911417,,,,,,,,,,,CAVOK,,,,,,,,VFR,,,,,,,,,,,,METAR,453.0
URMO 211430Z 07004MPS 9999 BKN045 13/04 Q1014 R09/010070 NOSIG RMK QFE717/0956,URMO,2018-03-21T14:30:00Z,43.2,44.6,13.0,4.0,70,8,,6.21,29.940945,,,,,,TRUE,,,,,BKN,4500,,,,,,,VFR,,,,,,,,,,,,METAR,510.0
URMN 211430Z 11001MPS 9999 SCT/// 15/05 Q1013 R24/010070 NOSIG RMK QFE723,URMN,2018-03-21T14:30:00Z,43.52,43.63,15.0,5.0,110,2,,6.21,29.911417,,,,,,TRUE,,,,,,,,,,,,,,,,,,,,,,,,,METAR,445.0
URMM 211430Z 28006MPS 9999 NSC 16/M04 Q1014 R30/090070 NOSIG RMK QFE732/0976,URMM,2018-03-21T14:30:00Z,44.22,43.1,16.0,-4.0,280,12,,6.21,29.940945,,,,,,TRUE,,,,,CLR,,,,,,,,VFR,,,,,,,,,,,,METAR,314.0
URML 211430Z 32003MPS 290V350 9999 NSC 16/05 Q1014 R32/01//70 NOSIG RMK QFE760/1013,URML,2018-03-21T14:30:00Z,42.82,47.65,16.0,5.0,320,6,,6.21,29.940945,,,,,,TRUE,,,,,CLR,,,,,,,,VFR,,,,,,,,,,,,METAR,4.0
URMG 211430Z 33001MPS CAVOK 15/04 Q1014 R26/000070 NOSIG RMK QFE746/0994,URMG,2018-03-21T14:30:00Z,43.37,45.7,15.0,4.0,330,2,,6.21,29.940945,,,,,,TRUE,,,,,CAVOK,,,,,,,,VFR,,,,,,,,,,,,METAR,263.0
URKK 211430Z 22009MPS 9999 BKN035 10/04 Q1017 R23L/CLRD70 TEMPO 23011G18MPS RMK QFE759,URKK,2018-03-21T14:30:00Z,45.03,39.15,10.0,4.0,220,17,,6.21,30.029528,,,,,,,,,,,BKN,3500,,,,,,,VFR,,,,,,,,,,,,METAR,34.0
URKA 211430Z 23007MPS 9999 BKN020 08/05 Q1017 R22/010070 NOSIG RMK QFE758/1010,URKA,2018-03-21T14:30:00Z,45.0,37.35,8.0,5.0,230,14,,6.21,30.029528,,,,,,TRUE,,,,,BKN,2000,,,,,,,MVFR,,,,,,,,,,,,METAR,53.0
UWGG 211430Z 07003MPS 9000 BKN015 M01/M06 Q1008 R36L/810055 NOSIG RMK QFE749,UWGG,2018-03-21T14:30:00Z,56.23,43.78,-1.0,-6.0,70,6,,5.59,29.763779,,,,,,TRUE,,,,,BKN,1500,,,,,,,MVFR,,,,,,,,,,,,METAR,73.0
UUOK 211430Z 31007MPS 5000 -SN OVC013 M06/M07 Q1006 R30/494531 NOSIG RMK QFE736/0981,UUOK,2018-03-21T14:30:00Z,51.75,36.28,-6.0,-7.0,310,14,,3.11,29.704725,,,,,,TRUE,,,,-SN,OVC,1300,,,,,,,MVFR,,,,,,,,,,,,METAR,209.0
UUOB 211430Z 28007MPS 5000 -SN BLSN OVC005 M05/M08 Q1007 R29/820550 NOSIG,UUOB,2018-03-21T14:30:00Z,50.65,36.58,-5.0,-8.0,280,14,,3.11,29.734253,,,,,,TRUE,,,,-SN BLSN,OVC,500,,,,,,,IFR,,,,,,,,,,,,METAR,224.0
UUBP 211430Z 33005MPS 4000 -SN BR BKN009 OVC017 M02/M03 Q1006 R34/290155 NOSIG RMK QFE737/0983,UUBP,2018-03-21T14:30:00Z,53.22,34.18,-2.0,-3.0,330,10,,2.49,29.704725,,,,,,TRUE,,,,-SN BR,BKN,900,OVC,1700,,,,,IFR,,,,,,,,,,,,METAR,202.0
UUBC 211430Z 02003MPS 350V050 4300 -SN OVC033 M01/M03 Q1007 R31/190155 NOSIG RMK QFE738/0984,UUBC,2018-03-21T14:30:00Z,54.55,36.37,-1.0,-3.0,20,6,,2.67,29.734253,,,,,,TRUE,,,,-SN,OVC,3300,,,,,,,IFR,,,,,,,,,,,,METAR,199.0
ULWC 211430Z 03004MPS CAVOK M05/M13 Q1011 R03/710160 NOSIG RMK QFE748/0998,ULWC,2018-03-21T14:30:00Z,59.28,38.02,-5.0,-13.0,30,8,,6.21,29.852362,,,,,,TRUE,,,,,CAVOK,,,,,,,,VFR,,,,,,,,,,,,METAR,115.0
USCM 211430Z 16003MPS 9999 FEW020 M07/M11 Q1011 R18/090060 NOSIG RMK QFE721,USCM,2018-03-21T14:30:00Z,53.4,58.75,-7.0,-11.0,160,6,,6.21,29.852362,,,,,,TRUE,,,,,FEW,2000,,,,,,,VFR,,,,,,,,,,,,METAR,435.0
USHH 211430Z 27004MPS 5000 -SHSN BKN010CB M05/M06 Q1004 R24/491034 TEMPO 1000 SHSN BKN004CB RMK QFE749,USHH,2018-03-21T14:30:00Z,61.03,69.08,-5.0,-6.0,270,8,,3.11,29.64567,,,,,,,,,,-SHSN,BKN,1000,,,,,,,MVFR,,,,,,,,,,,,METAR,23.0
USTR 211430Z 24007MPS CAVOK M02/M11 Q1011 R21/CLRD65 NOSIG RMK QFE748/0998,USTR,2018-03-21T14:30:00Z,57.17,65.32,-2.0,-11.0,240,14,,6.21,29.852362,,,,,,TRUE,,,,,CAVOK,,,,,,,,VFR,,,,,,,,,,,,METAR,115.0
UNOO 211430Z 27002MPS CAVOK M09/M12 Q1015 R25/810555 NOSIG RMK QFE753,UNOO,2018-03-21T14:30:00Z,54.97,73.32,-9.0,-12.0,270,4,,6.21,29.970472,,,,,,TRUE,,,,,CAVOK,,,,,,,,VFR,,,,,,,,,,,,METAR,95.0
UNNT 211430Z 35002MPS 0150 0100S R25/0750D FZFG SCT004 M09/M10 Q1015 R25/690140 R16/690232 NOSIG RMK QBB120 QFE751/1001,UNNT,2018-03-21T14:30:00Z,55.02,82.63,-9.0,-10.0,350,4,,0.09,29.970472,,,,,,TRUE,,,,FZFG,SCT,400,,,,,,,LIFR,,,,,,,,,,,,METAR,111.0
UNKL 211430Z 00000MPS 0900 0650E R29/1500N +SHSN VV009 M01/M01 Q1010 R29/590235 NOSIG RMK QFE732,UNKL,2018-03-21T14:30:00Z,56.17,92.48,-1.0,-1.0,0,0,,0.56,29.822834,,,,,,TRUE,,,,+SHSN,OVX,0,,,,,,,LIFR,,,,,,,,,,,900,METAR,276.0
UNEE 211430Z 30003MPS 4400 -SHSN BR OVC006CB M04/M05 Q1013 R23/990332 NOSIG RMK QFE737,UNEE,2018-03-21T14:30:00Z,55.27,86.08,-4.0,-5.0,300,6,,2.73,29.911417,,,,,,TRUE,,,,-SHSN BR,OVC,600,,,,,,,IFR,,,,,,,,,,,,METAR,260.0
UNBB 211430Z 10002MPS 9999 SCT010 BKN030CB M00/M01 Q1013 R06/590833 NOSIG RMK QFE737,UNBB,2018-03-21T14:30:00Z,53.37,83.53,0.0,-1.0,100,4,,6.21,29.911417,,,,,,TRUE,,,,,SCT,1000,BKN,3000,,,,,MVFR,,,,,,,,,,,,METAR,255.0
UNAA 211430Z 09001MPS 6000 NSC 00/M05 Q1012 R02/090065 NOSIG RMK QFE736,UNAA,2018-03-21T14:30:00Z,53.75,91.4,0.0,-5.0,90,2,,3.73,29.88189,,,,,,TRUE,,,,,CLR,,,,,,,,MVFR,,,,,,,,,,,,METAR,245.0
USSS 211430Z 24003MPS CAVOK M03/M13 Q1010 R26R/820350 R26L/820360 NOSIG RMK QFE737/0983,USSS,2018-03-21T14:30:00Z,56.75,60.82,-3.0,-13.0,240,6,,6.21,29.822834,,,,,,TRUE,,,,,CAVOK,,,,,,,,VFR,,,,,,,,,,,,METAR,233.0
USRR 211430Z 23005MPS 1100 1000W R25/1900 SN OVC016 M04/M05 Q1004 R25/420250 TEMPO 0600 +SN BKN005 RMK OBST OBSC QFE748,USRR,2018-03-21T14:30:00Z,61.33,73.42,-4.0,-5.0,230,10,,0.68,29.64567,,,,,,,,,,SN,OVC,1600,,,,,,,LIFR,,,,,,,,,,,,METAR,44.0
USNN 211430Z 20006MPS CAVOK M03/M08 Q1007 R21/0///65 NOSIG RMK QFE750,USNN,2018-03-21T14:30:00Z,60.95,76.48,-3.0,-8.0,200,12,,6.21,29.734253,,,,,,TRUE,,,,,CAVOK,,,,,,,,VFR,,,,,,,,,,,,METAR,54.0
USCC 211430Z 14003MPS 9999 FEW020 M03/M09 Q1012 R27/000060 NOSIG RMK QFE739,USCC,2018-03-21T14:30:00Z,55.3,61.5,-3.0,-9.0,140,6,,6.21,29.88189,,,,,,TRUE,,,,,FEW,2000,,,,,,,VFR,,,,,,,,,,,,METAR,234.0
UWUU 211430Z 00000MPS CAVOK M04/M09 Q1011 R14R/0///60 NOSIG RMK QFE748/0997,UWUU,2018-03-21T14:30:00Z,54.57,55.87,-4.0,-9.0,0,0,,6.21,29.852362,,,,,,TRUE,,,,,CAVOK,,,,,,,,VFR,,,,,,,,,,,,METAR,137.0
UIUU 211430Z 31001MPS 9999 NSC M03/M09 Q1016 R26/811060 NOSIG RMK QFE718/0957,UIUU,2018-03-21T14:30:00Z,51.8,107.45,-3.0,-9.0,310,2,,6.21,30.0,,,,,,TRUE,,,,,CLR,,,,,,,,VFR,,,,,,,,,,,,METAR,515.0
UIII 211430Z 20002MPS CAVOK 01/M07 Q1013 R12/CLRD60 NOSIG RMK QFE718/0957,UIII,2018-03-21T14:30:00Z,52.27,104.4,1.0,-7.0,200,4,,6.21,29.911417,,,,,,TRUE,,,,,CAVOK,,,,,,,,VFR,,,,,,,,,,,,METAR,513.0
UIBB 211430Z AUTO 10004MPS 080V180 9999 // NSC M04/M14 Q1011 RMK QFE716/0954,UIBB,2018-03-21T14:30:00Z,56.37,101.7,-4.0,-14.0,100,8,,6.21,29.852362,,,TRUE,,,,,,,,CLR,,,,,,,,VFR,,,,,,,,,,,,METAR,490.0
UIAA 211430Z 35005MPS 9999 NSC 01/M16 Q1014 R29/CLRD70 NOSIG RMK QFE702/0936,UIAA,2018-03-21T14:30:00Z,52.02,113.32,1.0,-16.0,350,10,,6.21,29.940945,,,,,,TRUE,,,,,CLR,,,,,,,,VFR,,,,,,,,,,,,METAR,685.0
UUMO 211430Z 06003MPS 2200 -SN BKN018 OVC040 M01/M03 Q1008 R08/290050 NOSIG RMK QFE741/0989,UUMO,2018-03-21T14:30:00Z,55.52,37.5,-1.0,-3.0,60,6,,1.37,29.763779,,,,,,TRUE,,,,-SN,BKN,1800,OVC,4000,,,,,IFR,,,,,,,,,,,,METAR,174.0
UUWW 211430Z 02003MPS 2200 -SHSN BKN020CB M02/M03 Q1008 R06/510250 TEMPO 1200 SHSN OVC010 SCT015CB,UUWW,2018-03-21T14:30:00Z,55.6,37.27,-2.0,-3.0,20,6,,1.37,29.763779,,,,,,,,,,-SHSN,BKN,2000,,,,,,,IFR,,,,,,,,,,,,METAR,203.0
UUEE 211430Z 02003MPS 2600 -SN BR OVC018 M01/M02 Q1008 R06R/290045 NOSIG,UUEE,2018-03-21T14:30:00Z,55.97,37.42,-1.0,-2.0,20,6,,1.62,29.763779,,,,,,TRUE,,,,-SN BR,OVC,1800,,,,,,,IFR,,,,,,,,,,,,METAR,190.0
UUDL 211430Z 03003MPS CAVOK M02/M09 Q1010 R23/310055 NOSIG RMK QFE749,UUDL,2018-03-21T14:30:00Z,57.57,40.17,-2.0,-9.0,30,6,,6.21,29.822834,,,,,,TRUE,,,,,CAVOK,,,,,,,,VFR,,,,,,,,,,,,METAR,88.0
UUDD 211430Z 03004MPS 5000 -SN BKN007 M01/M04 Q1007 R88/290095 NOSIG,UUDD,2018-03-21T14:30:00Z,55.4,37.9,-1.0,-4.0,30,8,,3.11,29.734253,,,,,,TRUE,,,,-SN,BKN,700,,,,,,,IFR,,,,,,,,,,,,METAR,168.0
UUBW 211430Z 02004MPS 6000 -SN BKN020 M01/M03 Q1008 R30/820355 NOSIG,UUBW,2018-03-21T14:30:00Z,55.55,38.15,-1.0,-3.0,20,8,,3.73,29.763779,,,,,,TRUE,,,,-SN,BKN,2000,,,,,,,MVFR,,,,,,,,,,,,METAR,115.0
ULLI 211430Z 30003MPS 9999 FEW023 M05/M11 Q1013 R88/090060 NOSIG,ULLI,2018-03-21T14:30:00Z,59.8,30.27,-5.0,-11.0,300,6,,6.21,29.911417,,,,,,TRUE,,,,,FEW,2300,,,,,,,VFR,,,,,,,,,,,,METAR,4.0
UWWW 211430Z 07004MPS 060V130 9999 -SN SCT033 M05/M09 Q1007 R15/410245 NOSIG RMK QFE744/0992,UWWW,2018-03-21T14:30:00Z,53.5,50.17,-5.0,-9.0,70,8,,6.21,29.734253,,,,,,TRUE,,,,-SN,SCT,3300,,,,,,,VFR,,,,,,,,,,,,METAR,146.0
UWSS 211430Z 13005MPS 1300 R12/1300 SN FZDZ BR OVC005 M06/M06 Q1004 R12/320134 TEMPO 0500 SN FZDZ FZFG RMK QFE741,UWSS,2018-03-21T14:30:00Z,51.57,46.07,-6.0,-6.0,130,10,,0.81,29.64567,,,,,,,,,,FZDZ SN BR,OVC,500,,,,,,,LIFR,,,,,,,,,,,,METAR,166.0
UWOO 211430Z 14004MPS 9999 OVC010 M02/M04 Q1010 R08/850442 NOSIG RMK QFE747/0996 MOD ICE INC 0300M-0800M,UWOO,2018-03-21T14:30:00Z,51.8,55.47,-2.0,-4.0,140,8,,6.21,29.822834,,,,,,TRUE,,,,,OVC,1000,,,,,,,MVFR,,,,,,,,,,,,METAR,109.0
UWKS 211430Z 08002MPS CAVOK M05/M12 Q1008 R06/910555 NOSIG RMK QFE740,UWKS,2018-03-21T14:30:00Z,56.08,47.35,-5.0,-12.0,80,4,,6.21,29.763779,,,,,,TRUE,,,,,CAVOK,,,,,,,,VFR,,,,,,,,,,,,METAR,170.0
UWKE 211430Z 07003MPS CAVOK M04/M13 Q1010 R03/090070 NOSIG RMK QFE740/0987,UWKE,2018-03-21T14:30:00Z,55.57,52.08,-4.0,-13.0,70,6,,6.21,29.822834,,,,,,TRUE,,,,,CAVOK,,,,,,,,VFR,,,,,,,,,,,,METAR,196.0
UWKD 211430Z VRB01MPS CAVOK M05/M12 Q1009 R11/810050 NOSIG RMK QFE746/0995,UWKD,2018-03-21T14:30:00Z,55.62,49.28,-5.0,-12.0,0,2,,6.21,29.793306,,,,,,TRUE,,,,,CAVOK,,,,,,,,VFR,,,,,,,,,,,,METAR,126.0
USPP 211430Z 22003MPS CAVOK M03/M10 Q1010 R21/090060 NOSIG RMK QFE747,USPP,2018-03-21T14:30:00Z,57.92,56.02,-3.0,-10.0,220,6,,6.21,29.822834,,,,,,TRUE,,,,,CAVOK,,,,,,,,VFR,,,,,,,,,,,,METAR,123.0
UHWW 211430Z 35001MPS 9999 NSC M07/M11 Q1016 R25L/0///70 NOSIG RMK QFE761,UHWW,2018-03-21T14:30:00Z,43.4,132.15,-7.0,-11.0,350,2,,6.21,30.0,,,,,,TRUE,,,,,CLR,,,,,,,,VFR,,,,,,,,,,,,METAR,14.0
UHHH 211430Z 28007MPS 250V360 CAVOK M01/M09 Q1012 R23L/090060 NOSIG RMK QFE753/1004,UHHH,2018-03-21T14:30:00Z,48.52,135.18,-1.0,-9.0,280,14,,6.21,29.88189,,,,,,TRUE,,,,,CAVOK,,,,,,,,VFR,,,,,,,,,,,,METAR,72.0
KRHP 211430Z AUTO 27011G16KT 4SM -SN SCT020 BKN027 OVC032 01/M02 A2979 RMK AO2 T00101023,KRHP,2018-03-21T14:30:00Z,35.18,-83.85,1.0,-2.3,270,11,16,4.0,29.790354,,,TRUE,TRUE,,,,,,-SN,SCT,2000,BKN,2700,OVC,3200,,,MVFR,,,,,,,,,,,,SPECI,518.0
WMKP 211430Z VRB04KT 9000 FEW017CB SCT140 BKN270 30/25 Q1009 NOSIG,WMKP,2018-03-21T14:30:00Z,5.28,100.27,30.0,25.0,0,4,,5.59,29.793306,,,,,,TRUE,,,,,FEW,1700,SCT,14000,BKN,27000,,,VFR,,,,,,,,,,,,METAR,4.0
VVCI 211430Z 11003KT 9999 SCT038 17/11 Q1017 NOSIG,VVCI,2018-03-21T14:30:00Z,20.82,106.73,17.0,11.0,110,3,,6.21,30.029528,,,,,,TRUE,,,,,SCT,3800,,,,,,,VFR,,,,,,,,,,,,METAR,3.0
KW78 211430Z AUTO 36003KT 3SM BKN007 OVC013 00/00 A2967 RMK AO1 T00001005,KW78,2018-03-21T14:30:00Z,36.68,-78.85,0.0,-0.5,360,3,,3.0,29.66929,,,TRUE,TRUE,,,,,,,BKN,700,OVC,1300,,,,,IFR,,,,,,,,,,,,SPECI,129.0
KVES 211430Z AUTO 36020G24KT M02/M02 A2983 RMK AO2 PWINO,KVES,2018-03-21T14:30:00Z,40.2,-84.53,-2.0,-2.0,360,20,24,,29.828741,,,TRUE,TRUE,,,,,TRUE,,,,,,,,,,,,,,,,,,,,,,SPECI,307.0
KTMA 211430Z AUTO 30017G23KT 10SM CLR 10/01 A2995 RMK AO2 T00980006,KTMA,2018-03-21T14:30:00Z,31.43,-83.48,9.8,0.6,300,17,23,10.0,29.949802,,,TRUE,TRUE,,,,,,,CLR,,,,,,,,VFR,,,,,,,,,,,,SPECI,109.0
KMDQ 211430Z AUTO 29014KT 10SM SCT033 04/M02 A2999 RMK AO2 PWINO T00411015,KMDQ,2018-03-21T14:30:00Z,34.87,-86.55,4.1,-1.5,290,14,,10.0,29.991142,,,TRUE,TRUE,,,,,TRUE,,SCT,3300,,,,,,,VFR,,,,,,,,,,,,SPECI,230.0
KHSG 211430Z AUTO 05003KT 10SM CLR 00/M07 A2994 RMK AO2 T10021066,KHSG,2018-03-21T14:30:00Z,43.72,-108.38,-0.2,-6.6,50,3,,10.0,29.940945,,,TRUE,TRUE,,,,,,,CLR,,,,,,,,VFR,,,,,,,,,,,,SPECI,1494.0
KHFJ 211430Z AUTO 33008KT 10SM CLR 03/00 A3018 RMK AO2,KHFJ,2018-03-21T14:30:00Z,36.9,-94.02,3.0,0.0,330,8,,10.0,30.180119,,,TRUE,TRUE,,,,,,,CLR,,,,,,,,VFR,,,,,,,,,,,,SPECI,401.0
KGLW 211430Z AUTO 29011G15KT 7SM OVC011 00/00 A2991 RMK AO2 T00001001,KGLW,2018-03-21T14:30:00Z,37.03,-85.95,0.0,-0.1,290,11,15,7.0,29.911417,,,TRUE,TRUE,,,,,,,OVC,1100,,,,,,,MVFR,,,,,,,,,,,,SPECI,218.0
KDVK 211430Z AUTO 33008G17KT 1 1/2SM -SN OVC007 M01/M02 A2984 RMK AO2,KDVK,2018-03-21T14:30:00Z,37.58,-84.77,-1.0,-2.0,330,8,17,1.5,29.840551,,,TRUE,TRUE,,,,,,-SN,OVC,700,,,,,,,IFR,,,,,,,,,,,,SPECI,312.0
KD73 211430Z AUTO 30008KT 10SM OVC029 05/M02 A2985 RMK AO2 T00461015,KD73,2018-03-21T14:30:00Z,33.78,-83.7,4.6,-1.5,300,8,,10.0,29.84941,,,TRUE,TRUE,,,,,,,OVC,2900,,,,,,,MVFR,,,,,,,,,,,,SPECI,267.0
KAQO 211430Z AUTO 10004KT 10SM CLR 13/02 A3022 RMK AO2,KAQO,2018-03-21T14:30:00Z,30.78,-98.67,13.0,2.0,100,4,,10.0,30.221457,,,TRUE,TRUE,,,,,,,CLR,,,,,,,,VFR,,,,,,,,,,,,SPECI,336.0
K0VG 211430Z AUTO 26006KT 5SM -SN CLR 01/M02 A2977 RMK AO2,K0VG,2018-03-21T14:30:00Z,36.65,-83.22,1.0,-2.0,260,6,,5.0,29.769686,,,TRUE,TRUE,,,,,,-SN,CLR,,,,,,,,MVFR,,,,,,,,,,,,SPECI,430.0
HUEN 211430Z 20009KT FEW022 FEW024CB 24/19 Q1015.8 884.5 NOSI,HUEN,2018-03-21T14:30:00Z,0.03,32.45,24.0,19.0,200,9,,,29.994095,,,,,,,,,,,FEW,2200,FEW,2400,,,,,,,,,,,,,,,,,SPECI,1155.0
HKJK 211430Z 07014KT 9999 FEW030CB SCT028 23/15 Q1020,HKJK,2018-03-21T14:30:00Z,-1.32,36.92,23.0,15.0,70,14,,6.21,30.11811,,,,,,,,,,,FEW,3000,SCT,2800,,,,,VFR,,,,,,,,,,,,METAR,1624.0
HKEL 211430Z 06016KT 9999 SCT021 FEW022CB BKN280 21/09 Q1023,HKEL,2018-03-21T14:30:00Z,0.4,35.23,21.0,9.0,60,16,,6.21,30.206694,,,,,,,,,,,SCT,2100,FEW,2200,BKN,28000,,,VFR,,,,,,,,,,,,METAR,2133.0
KFHU 211429Z AUTO 00000KT 8SM CLR 13/M10 A3011 RMK AO2 SLP149,KFHU,2018-03-21T14:29:00Z,31.58,-110.35,13.0,-10.0,0,0,,8.0,30.109253,1014.9,,TRUE,TRUE,,,,,,,CLR,,,,,,,,VFR,,,,,,,,,,,,SPECI,1438.0
UTO8 M M M 258/-33/-37/2321+27/M/ PK WND 2528 1340Z SOG 31 3021 80MM,UTO8,2018-03-21T14:28:00Z,,,,,,,,1.88,,,,,,,,,,,,,,,,,,,,,,,,,,,,,,,,METAR,
SARC 211427Z 18007KT 6000 NSC 23/16 Q1016,SARC,2018-03-21T14:27:00Z,-27.43,-58.77,23.0,16.0,180,7,,3.73,30.0,,,,,,,,,,,CLR,,,,,,,,MVFR,,,,,,,,,,,,SPECI,62.0
CYYQ 211426Z 01014KT 15SM BKN008 M11/M13 A3018 RMK SC5 SLP225,CYYQ,2018-03-21T14:26:00Z,58.75,-94.07,-11.0,-13.0,10,14,,15.0,30.180119,1022.5,,,,,,,,,,BKN,800,,,,,,,IFR,,,,,,,,,,,,SPECI,29.0
EBCV 211425Z AUTO 25003KT 9999 FEW032/// BKN054/// 07/00 Q1030 BLU,EBCV,2018-03-21T14:25:00Z,50.57,3.82,7.0,0.0,250,3,,6.21,30.413385,,,TRUE,,,,,,,,FEW,3200,BKN,5400,,,,,VFR,,,,,,,,,,,,METAR,63.0
EBBL 211425Z 27005KT 9999 FEW030 BKN040 07/M02 Q1029 BLU BLU,EBBL,2018-03-21T14:25:00Z,51.17,5.47,7.0,-2.0,270,5,,6.21,30.383858,,,,,,,,,,,FEW,3000,BKN,4000,,,,,VFR,,,,,,,,,,,,METAR,64.0
EBBE 211425Z 30005KT 9999 SCT035 BKN039 06/M01 Q1029 BLU BLU,EBBE,2018-03-21T14:25:00Z,50.75,4.77,6.0,-1.0,300,5,,6.21,30.383858,,,,,,,,,,,SCT,3500,BKN,3900,,,,,VFR,,,,,,,,,,,,METAR,127.0
OPLA 211425Z 04005KT 4000 FU SCT040 BKN100 17/14 Q1011/A29.85,OPLA,2018-03-21T14:25:00Z,31.52,74.4,17.0,14.0,40,5,,2.49,,,,,,,,,,,FU,SCT,4000,BKN,10000,,,,,IFR,,,,,,,,,,,,SPECI,217.0
EHFS 211425Z AUTO 26010KT 240V300 9999 NSC 06/03 Q1029 W///H///,EHFS,2018-03-21T14:25:00Z,51.45,3.6,6.0,3.0,260,10,,6.21,30.383858,,,TRUE,,,,,,,,CLR,,,,,,,,VFR,,,,,,,,,,,,METAR,32.0
EBDT 211425Z 30006KT 9999 FEW030 BKN045 06/M01 Q1029 BLU BLU,EBDT,2018-03-21T14:25:00Z,51.02,5.07,6.0,-1.0,300,6,,6.21,30.383858,,,,,,,,,,,FEW,3000,BKN,4500,,,,,VFR,,,,,,,,,,,,METAR,54.0
EBFN 211425Z 29010KT 9999 FEW020 SCT220 08/01 Q1030 BLU BLU,EBFN,2018-03-21T14:25:00Z,51.07,2.63,8.0,1.0,290,10,,6.21,30.413385,,,,,,,,,,,FEW,2000,SCT,22000,,,,,VFR,,,,,,,,,,,,METAR,9.0
EBFS 211425Z 33005KT 9999 SCT035 04/M05 Q1028 BLU BLU,EBFS,2018-03-21T14:25:00Z,50.22,4.65,4.0,-5.0,330,5,,6.21,30.35433,,,,,,,,,,,SCT,3500,,,,,,,VFR,,,,,,,,,,,,METAR,299.0
EBLB 211425Z 34007KT 9999 FEW040 SCT230 03/M07 Q1026 BLU BLU,EBLB,2018-03-21T14:25:00Z,50.47,6.17,3.0,-7.0,340,7,,6.21,30.295275,,,,,,,,,,,FEW,4000,SCT,23000,,,,,VFR,,,,,,,,,,,,METAR,570.0
CYDL 211425Z AUTO 04002KT 9SM BKN007 BKN010 M10/M11 A2979 RMK ICG PAST HR SLP123,CYDL,2018-03-21T14:25:00Z,58.42,-130.02,-10.0,-11.0,40,2,,9.0,29.790354,1012.3,,TRUE,,,,,,,,BKN,700,BKN,1000,,,,,IFR,,,,,,,,,,,,SPECI,816.0
EHSC 211425Z AUTO 25009KT 9999 ///////// 05/02 Q1028 W04/H8,EHSC,2018-03-21T14:25:00Z,51.93,3.67,5.0,2.0,250,9,,6.21,30.35433,,,TRUE,,,,,,,,,,,,,,,,,,,,,,,,,,,,METAR,50.0
EHSA 211425Z AUTO 24009KT 9999 ///////// 05/02 Q1029 W04/H9,EHSA,2018-03-21T14:25:00Z,52.0,3.28,5.0,2.0,240,9,,6.21,30.383858,,,TRUE,,,,,,,,,,,,,,,,,,,,,,,,,,,,METAR,50.0
EHQE 211425Z AUTO 21014KT 9999 FEW011 04/01 Q1027 W///H///,EHQE,2018-03-21T14:25:00Z,52.92,4.15,4.0,1.0,210,14,,6.21,30.324802,,,TRUE,,,,,,,,FEW,1100,,,,,,,VFR,,,,,,,,,,,,METAR,50.0
EHPG 211425Z AUTO 24008KT 230V290 //// // FEW006 SCT013 04/02 Q1028 RE// W///H///,EHPG,2018-03-21T14:25:00Z,52.37,3.35,4.0,2.0,240,8,,,30.35433,,,TRUE,,,,,,,,FEW,600,SCT,1300,,,,,,,,,,,,,,,,,METAR,50.0
EHMG 211425Z AUTO 25016KT 9999 NCD 04/03 Q1026 W///H///,EHMG,2018-03-21T14:25:00Z,53.62,4.97,4.0,3.0,250,16,,6.21,30.295275,,,TRUE,,,,,,,,CLR,,,,,,,,VFR,,,,,,,,,,,,METAR,50.0
EHMA 211425Z AUTO 28014KT 9999 NCD 03/02 Q1026 W///H///,EHMA,2018-03-21T14:25:00Z,53.5,5.95,3.0,2.0,280,14,,6.21,30.295275,,,TRUE,,,,,,,,CLR,,,,,,,,VFR,,,,,,,,,,,,METAR,50.0
EHKV 211425Z AUTO 25018KT 9999 SCT005 BKN006 04/02 Q1027 W///H///,EHKV,2018-03-21T14:25:00Z,53.27,3.63,4.0,2.0,250,18,,6.21,30.324802,,,TRUE,,,,,,,,SCT,500,BKN,600,,,,,IFR,,,,,,,,,,,,METAR,50.0
EHJR 211425Z AUTO 24013KT //// // ///////// 04/02 Q1027 RE// W05/H10,EHJR,2018-03-21T14:25:00Z,53.22,3.22,4.0,2.0,240,13,,,30.324802,,,TRUE,,,,,,,,,,,,,,,,,,,,,,,,,,,,METAR,50.0
EHJA 211425Z AUTO 24017KT 9999 NSC 04/01 Q1026 W///H///,EHJA,2018-03-21T14:25:00Z,53.82,2.95,4.0,1.0,240,17,,6.21,30.295275,,,TRUE,,,,,,,,CLR,,,,,,,,VFR,,,,,,,,,,,,METAR,50.0
EHHW 211425Z AUTO 28009KT //// // ///////// 05/02 Q1025 W///H///,EHHW,2018-03-21T14:25:00Z,,,5.0,2.0,280,9,,,30.265747,,,TRUE,,,,,,,,,,,,,,,,,,,,,,,,,,,,METAR,
EHFZ 211425Z AUTO 24017KT 9999 FEW006 SCT007 04/03 Q1025 W///H///,EHFZ,2018-03-21T14:25:00Z,54.12,4.02,4.0,3.0,240,17,,6.21,30.265747,,,TRUE,,,,,,,,FEW,600,SCT,700,,,,,VFR,,,,,,,,,,,,METAR,50.0
EHFD 211425Z AUTO 25022KT 9999 FEW008/// 04/02 Q1023 W///H///,EHFD,2018-03-21T14:25:00Z,54.85,4.7,4.0,2.0,250,22,,6.21,30.206694,,,TRUE,,,,,,,,FEW,800,,,,,,,VFR,,,,,,,,,,,,METAR,50.0
EHDV 211425Z AUTO 25015KT 200V310 9999 NSC 05/01 Q1025 W///H///,EHDV,2018-03-21T14:25:00Z,54.32,2.93,5.0,1.0,250,15,,6.21,30.265747,,,TRUE,,,,,,,,CLR,,,,,,,,VFR,,,,,,,,,,,,METAR,50.0
EHAK 211425Z AUTO 24022KT 9999 NSC 04/02 Q1022 W///H///,EHAK,2018-03-21T14:25:00Z,55.42,3.82,4.0,2.0,240,22,,6.21,30.177166,,,TRUE,,,,,,,,CLR,,,,,,,,VFR,,,,,,,,,,,,METAR,50.0
KCIC 211425Z 13006KT 2SM RABR SCT003 BKN007 OVC013 11/11 A2986,KCIC,2018-03-21T14:25:00Z,39.78,-121.83,11.0,11.0,130,6,,2.0,29.861221,,,,,,,,,,RA BR,SCT,300,BKN,700,OVC,1300,,,IFR,,,,,,,,,,,,SPECI,73.0
KEVM 211423Z AUTO 00000KT 10SM BKN020 M07/M11 A3016 RMK AO2,KEVM,2018-03-21T14:23:00Z,47.42,-92.5,-7.0,-11.0,0,0,,10.0,30.159449,,,TRUE,TRUE,,,,,,,BKN,2000,,,,,,,MVFR,,,,,,,,,,,,SPECI,421.0
KDOV 211422Z VRB06KT 1/2SM R01/P6000FT SN BR BKN007 OVC013 00/00 A2960 RMK AO2A WND DATA ESTMD $,KDOV,2018-03-21T14:22:00Z,39.12,-75.47,0.0,0.0,0,6,,0.5,29.601377,,,,TRUE,TRUE,,,,,SN BR,BKN,700,OVC,1300,,,,,LIFR,,,,,,,,,,,,SPECI,9.0
MMMX 211422Z 07007KT 4SM SKC 15/08 A3035 NOSIG RMK HZY,MMMX,2018-03-21T14:22:00Z,19.42,-99.08,15.0,8.0,70,7,,4.0,30.351377,,,,,,TRUE,,,,,SKC,,,,,,,,MVFR,,,,,,,,,,,,SPECI,2238.0
KTGI 211421Z AUTO 35011KT 4SM BKN006 OVC012 04/04 A2956 RMK AO1 P0002,KTGI,2018-03-21T14:21:00Z,37.82,-75.98,4.0,4.0,350,11,,4.0,29.56004,,,TRUE,TRUE,,,,,,,BKN,600,OVC,1200,,,,,IFR,,,,,,0.02,,,,,,SPECI,2.0
MMMZ 211421Z 04004KT 6SM SCT006 15/14 A2989 RMK 8/600 HZY,MMMZ,2018-03-21T14:21:00Z,23.17,-106.27,15.0,14.0,40,4,,6.0,29.890747,,,,,,,,,,,SCT,600,,,,,,,VFR,,,,,,,,,,,,METAR,10.0
LTBR 211420Z 23004KT CAVOK 21/05 Q1012 NOSIG RMK RWY07 13004KT,LTBR,2018-03-21T14:20:00Z,40.25,29.57,21.0,5.0,230,4,,6.21,29.88189,,,,,,TRUE,,,,,CAVOK,,,,,,,,VFR,,,,,,,,,,,,SPECI,232.0
LTAU 211420Z 29006KT 9999 FEW040 SCT200 18/M02 Q1016 NOSIG RMK RWY07 28006KT 250V310,LTAU,2018-03-21T14:20:00Z,38.77,35.47,18.0,-2.0,290,6,,6.21,30.0,,,,,,TRUE,,,,,FEW,4000,SCT,20000,,,,,VFR,,,,,,,,,,,,SPECI,1054.0
CWUW 211420Z AUTO 29004KT ////SM //// BKN013 OVC039 M24/M27 A2980,CWUW,2018-03-21T14:20:00Z,68.65,-71.17,-24.0,-27.0,290,4,,,29.799213,,,TRUE,,,,,,,,BKN,1300,OVC,3900,,,,,,,,,,,,,,,,,SPECI,527.0
ENNM 211420Z 22009KT 9999 -SHRA FEW009 SCT013 BKN025 03/01 Q1004,ENNM,2018-03-21T14:20:00Z,64.47,11.57,3.0,1.0,220,9,,6.21,29.64567,,,,,,,,,,-SHRA,FEW,900,SCT,1300,BKN,2500,,,MVFR,,,,,,,,,,,,METAR,2.0
ETNN 211420Z 33008KT 9999 FEW020 BKN028 04/M03 Q1029 BLU BLU,ETNN,2018-03-21T14:20:00Z,50.82,6.67,4.0,-3.0,330,8,,6.21,30.383858,,,,,,,,,,,FEW,2000,BKN,2800,,,,,MVFR,,,,,,,,,,,,METAR,135.0
ETHL 211420Z 06005KT 9999 SCT050 02/M12 Q1024 BLU+BLU+,ETHL,2018-03-21T14:20:00Z,48.22,9.92,2.0,-12.0,60,5,,6.21,30.236221,,,,,,,,,,,SCT,5000,,,,,,,VFR,,,,,,,,,,,,METAR,549.0
ETHA 211420Z 05008KT 9999 FEW028 BKN050 M02/M07 Q1023 BLACKBLU BLU,ETHA,2018-03-21T14:20:00Z,47.82,10.87,-2.0,-7.0,50,8,,6.21,30.206694,,,,,,,,,,,FEW,2800,BKN,5000,,,,,VFR,,,,,,,,,,,,METAR,760.0
ETSA 211420Z AUTO 01004KT 9999 // ////// 00/M08 Q1024 ///,ETSA,2018-03-21T14:20:00Z,48.07,10.9,0.0,-8.0,10,4,,6.21,30.236221,,,TRUE,,,,,,,,,,,,,,,,,,,,,,,,,,,,SPECI,628.0
ETSB 211420Z 09006KT 9999 FEW050 BKN210 04/M08 Q1025 BLU+BLU+,ETSB,2018-03-21T14:20:00Z,50.17,7.07,4.0,-8.0,90,6,,6.21,30.265747,,,,,,,,,,,FEW,5000,BKN,21000,,,,,VFR,,,,,,,,,,,,METAR,486.0
ETSN 211420Z 04004KT 9999 FEW040 04/M09 Q1025 BLU+BLU+,ETSN,2018-03-21T14:20:00Z,48.72,11.22,4.0,-9.0,40,4,,6.21,30.265747,,,,,,,,,,,FEW,4000,,,,,,,VFR,,,,,,,,,,,,METAR,387.0
ETSL 211420Z 10001KT 9999 FEW035 SCT060 01/M09 Q1024 BLU+BLU+,ETSL,2018-03-21T14:20:00Z,48.17,10.87,1.0,-9.0,100,1,,6.21,30.236221,,,,,,,,,,,FEW,3500,SCT,6000,,,,,VFR,,,,,,,,,,,,METAR,562.0
ETSI 211420Z 03004KT 9999 FEW055 03/M11 Q1025 BLU+BLU+,ETSI,2018-03-21T14:20:00Z,48.72,11.52,3.0,-11.0,30,4,,6.21,30.265747,,,,,,,,,,,FEW,5500,,,,,,,VFR,,,,,,,,,,,,METAR,370.0
ETNH 211420Z 28014KT 9999 SCT010 BKN015 BKN190 06/02 Q1023 WHT GRN TEMPO BLU,ETNH,2018-03-21T14:20:00Z,54.32,9.55,6.0,2.0,280,14,,6.21,30.206694,,,,,,,,,,,SCT,1000,BKN,1500,BKN,19000,,,MVFR,,,,,,,,,,,,METAR,17.0
ETWM 211420Z 25006KT 9999 FEW023 BKN058 06/M00 Q1026 BLU,ETWM,2018-03-21T14:20:00Z,52.72,7.33,6.0,0.0,250,6,,6.21,30.295275,,,,,,,,,,,FEW,2300,BKN,5800,,,,,VFR,,,,,,,,,,,,METAR,21.0
ETSH 211420Z 25012KT 9999 FEW050 SCT230 04/M08 Q1026 BLU+BLU+,ETSH,2018-03-21T14:20:00Z,51.77,13.17,4.0,-8.0,250,12,,6.21,30.295275,,,,,,,,,,,FEW,5000,SCT,23000,,,,,VFR,,,,,,,,,,,,METAR,79.0
ETNW 211420Z 27009KT 9999 FEW023 SCT180 BKN200 05/M01 Q1026 BLU+BLU+,ETNW,2018-03-21T14:20:00Z,52.45,9.42,5.0,-1.0,270,9,,6.21,30.295275,,,,,,,,,,,FEW,2300,SCT,18000,BKN,20000,,,VFR,,,,,,,,,,,,METAR,70.0
ETNL 211420Z 27009KT 9999 -RA BKN020 04/M00 Q1023 WHT BLU TEMPO WHT,ETNL,2018-03-21T14:20:00Z,53.92,12.27,4.0,0.0,270,9,,6.21,30.206694,,,,,,,,,,-RA,BKN,2000,,,,,,,MVFR,,,,,,,,,,,,METAR,40.0
ETND 211420Z 25008KT 9999 SCT030 BKN060 06/M01 Q1026 BLU,ETND,2018-03-21T14:20:00Z,52.58,8.35,6.0,-1.0,250,8,,6.21,30.295275,,,,,,,,,,,SCT,3000,BKN,6000,,,,,VFR,,,,,,,,,,,,METAR,43.0
ETMN 211420Z 29015KT 9999 FEW015 BKN060 05/01 Q1025 BLU BLU,ETMN,2018-03-21T14:20:00Z,53.77,8.67,5.0,1.0,290,15,,6.21,30.265747,,,,,,,,,,,FEW,1500,BKN,6000,,,,,VFR,,,,,,,,,,,,METAR,31.0
ETML 211420Z AUTO 25015KT //// // ////// 05/02 Q1022 ///,ETML,2018-03-21T14:20:00Z,,,5.0,2.0,250,15,,,30.177166,,,TRUE,,,,,,,,,,,,,,,,,,,,,,,,,,,,METAR,
ETHS 211420Z 31010KT 9999 -RA FEW030 BKN050 04/M02 Q1026 BLU BLU TEMPO WHT,ETHS,2018-03-21T14:20:00Z,52.92,10.18,4.0,-2.0,310,10,,6.21,30.295275,,,,,,,,,,-RA,FEW,3000,BKN,5000,,,,,VFR,,,,,,,,,,,,METAR,88.0
ETHF 211420Z VRB02KT 9999 FEW050 BKN220 07/M10 Q1026 BLU+BLU+,ETHF,2018-03-21T14:20:00Z,51.12,9.27,7.0,-10.0,0,2,,6.21,30.295275,,,,,,,,,,,FEW,5000,BKN,22000,,,,,VFR,,,,,,,,,,,,METAR,181.0
ETHC 211420Z 24009KT 9999 FEW028 SCT060 BKN260 05/M02 Q1026 BLU+BLU+ TEMPO BLU,ETHC,2018-03-21T14:20:00Z,52.6,10.02,5.0,-2.0,240,9,,6.21,30.295275,,,,,,,,,,,FEW,2800,SCT,6000,BKN,26000,,,VFR,,,,,,,,,,,,METAR,52.0
ETHB 211420Z 27009KT 9999 FEW016 SCT023 BKN180 05/M01 Q1027 BLU BLU TEMPO GRN,ETHB,2018-03-21T14:20:00Z,52.27,9.07,5.0,-1.0,270,9,,6.21,30.324802,,,,,,,,,,,FEW,1600,SCT,2300,BKN,18000,,,VFR,,,,,,,,,,,,METAR,78.0
ETGG 211420Z 29018KT 9999 -SHRA SCT020 BKN050 05/01 Q1022 BLU,ETGG,2018-03-21T14:20:00Z,54.83,9.5,5.0,1.0,290,18,,6.21,30.177166,,,,,,,,,,-SHRA,SCT,2000,BKN,5000,,,,,VFR,,,,,,,,,,,,METAR,33.0
SBMQ 211420Z 08008KT 3000 RA BKN015 31/26 Q1013,SBMQ,2018-03-21T14:20:00Z,0.05,-51.07,31.0,26.0,80,8,,1.86,29.911417,,,,,,,,,,RA,BKN,1500,,,,,,,IFR,,,,,,,,,,,,SPECI,15.0
CYQU 211420Z 04007KT 1/4SM FZFG VV001 M01/M01 A2983 RMK FG8 SLP133,CYQU,2018-03-21T14:20:00Z,55.18,-118.88,-1.0,-1.0,40,7,,0.25,29.828741,1013.3,,,,,,,,,FZFG,OVX,0,,,,,,,LIFR,,,,,,,,,,,100,SPECI,669.0
ENSS 211420Z 25006KT 4000 -SN FEW007 BKN022 M08/M10 Q0996 RMK WIND 500FT 24010KT,ENSS,2018-03-21T14:20:00Z,70.33,31.05,-8.0,-10.0,250,6,,2.49,29.409449,,,,,,,,,,-SN,FEW,700,BKN,2200,,,,,IFR,,,,,,,,,,,,SPECI,12.0
ENSR 211420Z 26009KT 250V310 8000 -SHSN VV024 00/M04 Q0992 WIND 1119FT 26018KT,ENSR,2018-03-21T14:20:00Z,69.77,20.97,0.0,-4.0,260,9,,4.97,29.291338,,,,,,,,,,-SHSN,OVX,0,,,,,,,LIFR,,,,,,,,,,,2400,SPECI,6.0
LGEL 211420Z 14011KT 9999 FEW025 17/12 Q1014,LGEL,2018-03-21T14:20:00Z,38.07,23.55,17.0,12.0,140,11,,6.21,29.940945,,,,,,,,,,,FEW,2500,,,,,,,VFR,,,,,,,,,,,,METAR,31.0
ETHN 211420Z 02005KT 9999 FEW040 BKN220 02/M09 Q1026 BLU+BLU+,ETHN,2018-03-21T14:20:00Z,49.38,9.97,2.0,-9.0,20,5,,6.21,30.295275,,,,,,,,,,,FEW,4000,BKN,22000,,,,,VFR,,,,,,,,,,,,METAR,473.0
EGPI 211420Z AUTO 25021KT 7000 OVC009/// 08/07 Q1023,EGPI,2018-03-21T14:20:00Z,55.68,-6.25,8.0,7.0,250,21,,4.35,30.206694,,,TRUE,,,,,,,,OVC,900,,,,,,,IFR,,,,,,,,,,,,METAR,18.0
EDAH 211420Z 24008KT CAVOK 05/M05 Q1022,EDAH,2018-03-21T14:20:00Z,53.87,14.15,5.0,-5.0,240,8,,6.21,30.177166,,,,,,,,,,,CAVOK,,,,,,,,VFR,,,,,,,,,,,,METAR,28.0
KMHV 211420Z 8.04166708KT 4SM BR FEW010 BKN050 OVC100 09/09 A3001 RMK A01,KMHV,2018-03-21T14:20:00Z,35.07,-118.15,9.0,9.0,41,0,,4.0,30.008858,,,,TRUE,,,,,,BR,FEW,1000,BKN,5000,OVC,10000,,,MVFR,,,,,,,,,,,,SPECI,849.0
EGAE 211420Z 24019KT 7000 -DZ FEW009 SCT011 BKN018 10/08 Q1025,EGAE,2018-03-21T14:20:00Z,55.03,-7.15,10.0,8.0,240,19,,4.35,30.265747,,,,,,,,,,-DZ,FEW,900,SCT,1100,BKN,1800,,,MVFR,,,,,,,,,,,,METAR,9.0
ENDR 211420Z AUTO 23025KT 04/02 Q1003,ENDR,2018-03-21T14:20:00Z,64.35,7.8,4.0,2.0,230,25,,,29.616142,,,TRUE,,,,,,,,,,,,,,,,,,,,,,,,,,,,METAR,50.0
LCEN 211420Z 07009KT 040V100 9999 FEW025 BKN200 24/11 Q1017 NOSIG RMK RWY11 09008KT,LCEN,2018-03-21T14:20:00Z,35.13,33.5,24.0,11.0,70,9,,6.21,30.029528,,,,,,TRUE,,,,,FEW,2500,BKN,20000,,,,,VFR,,,,,,,,,,,,SPECI,91.0
LTCJ 211420Z 27006KT 9000 NSC 21/03 Q1016 RMK RWY20 27005KT,LTCJ,2018-03-21T14:20:00Z,37.93,41.12,21.0,3.0,270,6,,5.59,30.0,,,,,,,,,,,CLR,,,,,,,,VFR,,,,,,,,,,,,SPECI,540.0
LTCE 211420Z 25012KT CAVOK 11/M04 Q1019 NOSIG RMK RWY08R 20011KT RWY26R 24013KT RWY08L 21012KT,LTCE,2018-03-21T14:20:00Z,39.95,41.17,11.0,-4.0,250,12,,6.21,30.088583,,,,,,TRUE,,,,,CAVOK,,,,,,,,VFR,,,1.1,,,,,,,,,SPECI,1758.0
LTCC 211420Z 25004KT 210V330 CAVOK 21/01 Q1016 NOSIG RMK RWY16 27005KT 240V310,LTCC,2018-03-21T14:20:00Z,37.87,40.2,21.0,1.0,250,4,,6.21,30.0,,,,,,TRUE,,,,,CAVOK,,,,,,,,VFR,,,,,,,,,,,,SPECI,677.0
LTBU 211420Z 21010KT CAVOK 16/07 Q1012 RMK RWY23 24010KT,LTBU,2018-03-21T14:20:00Z,41.12,27.92,16.0,7.0,210,10,,6.21,29.88189,,,,,,,,,,,CAVOK,,,,,,,,VFR,,,,,,,,,,,,SPECI,173.0
LTAT 211420Z 06008KT 9999 FEW040 19/03 Q1016 NOSIG RMK RWY03 08007KT,LTAT,2018-03-21T14:20:00Z,38.42,38.07,19.0,3.0,60,8,,6.21,30.0,,,,,,TRUE,,,,,FEW,4000,,,,,,,VFR,,,,,,,,,,,,SPECI,849.0
LTAP 211420Z 25006KT 9999 SCT040 18/03 Q1013 NOSIG RMK RWY23 25007KT,LTAP,2018-03-21T14:20:00Z,40.83,35.52,18.0,3.0,250,6,,6.21,29.911417,,,,,,TRUE,,,,,SCT,4000,,,,,,,VFR,,,,,,,,,,,,SPECI,535.0
LTAG 211420Z 17006KT 9999 BKN035 21/13 Q1017 NOSIG,LTAG,2018-03-21T14:20:00Z,37.0,35.42,21.0,13.0,170,6,,6.21,30.029528,,,,,,TRUE,,,,,BKN,3500,,,,,,,VFR,,,,,,,,,,,,METAR,66.0
LTFJ 211420Z 25011KT 220V280 CAVOK 18/05 Q1013 NOSIG RMK RWY24 25010KT,LTFJ,2018-03-21T14:20:00Z,40.9,29.3,18.0,5.0,250,11,,6.21,29.911417,,,,,,TRUE,,,,,CAVOK,,,,,,,,VFR,,,,,,,,,,,,SPECI,98.0
LTFE 211420Z 10007KT 9999 FEW035 BKN200 21/06 Q1016 NOSIG RMK RWY10 16006KT 090V210,LTFE,2018-03-21T14:20:00Z,37.25,27.67,21.0,6.0,100,7,,6.21,30.0,,,,,,TRUE,,,,,FEW,3500,BKN,20000,,,,,VFR,,,,,,,,,,,,SPECI,6.0
LTFC 211420Z 23005KT 210V270 9999 FEW035 BKN200 19/M00 Q1016 RMK RWY23 24006KT,LTFC,2018-03-21T14:20:00Z,37.87,30.38,19.0,0.0,230,5,,6.21,30.0,,,,,,,,,,,FEW,3500,BKN,20000,,,,,VFR,,,,,,,,,,,,SPECI,864.0
LTCS 211420Z 22010KT CAVOK 19/03 Q1019 RMK RWY22 24007KT,LTCS,2018-03-21T14:20:00Z,37.45,38.9,19.0,3.0,220,10,,6.21,30.088583,,,,,,,,,,,CAVOK,,,,,,,,VFR,,,,,,,,,,,,METAR,825.0
LTCG 211420Z 10012KT CAVOK 14/07 Q1018 NOSIG RMK RWY29 09014KT,LTCG,2018-03-21T14:20:00Z,41.0,39.8,14.0,7.0,100,12,,6.21,30.059055,,,,,,TRUE,,,,,CAVOK,,,,,,,,VFR,,,,,,,,,,,,SPECI,30.0
LTBS 211420Z 23007KT CAVOK 18/06 Q1018 NOSIG RMK RWY19 21007KT,LTBS,2018-03-21T14:20:00Z,36.7,28.77,18.0,6.0,230,7,,6.21,30.059055,,,,,,TRUE,,,,,CAVOK,,,,,,,,VFR,,,-0.7,,,,,,,,,SPECI,2.0
LTBJ 211420Z 22009KT 9999 FEW030 BKN200 19/08 Q1015 NOSIG RMK RWY16 21011KT,LTBJ,2018-03-21T14:20:00Z,38.28,27.15,19.0,8.0,220,9,,6.21,29.970472,,,,,,TRUE,,,,,FEW,3000,BKN,20000,,,,,VFR,,,-1.1,,,,,,,,,SPECI,120.0
LTBA 211420Z 22005KT 190V260 CAVOK 18/05 Q1013 NOSIG RMK RWY17L 20008KT RWY05 19005KT RWY23 22007KT 190V250,LTBA,2018-03-21T14:20:00Z,40.97,28.82,18.0,5.0,220,5,,6.21,29.911417,,,,,,TRUE,,,,,CAVOK,,,,,,,,VFR,,,0.8,,,,,,,,,SPECI,37.0
LTAZ 211420Z 24010KT CAVOK 19/M03 Q1016 RMK RWY29 25008KT,LTAZ,2018-03-21T14:20:00Z,38.77,34.55,19.0,-3.0,240,10,,6.21,30.0,,,,,,,,,,,CAVOK,,,,,,,,VFR,,,,,,,,,,,,SPECI,945.0
LTAJ 211420Z 23010KT CAVOK 18/07 Q1018 NOSIG RMK RWY10 24008KT 190V270,LTAJ,2018-03-21T14:20:00Z,36.95,37.48,18.0,7.0,230,10,,6.21,30.059055,,,,,,TRUE,,,,,CAVOK,,,,,,,,VFR,,,,,,,,,,,,SPECI,855.0
LTAI 211420Z 16006KT 9999 SCT030 BKN200 18/14 Q1018 NOSIG RMK RWY18C 16006KT 130V190 RWY36R 15005KT 100V190 RWY18L 16006KT 130V190,LTAI,2018-03-21T14:20:00Z,36.9,30.8,18.0,14.0,160,6,,6.21,30.059055,,,,,,TRUE,,,,,SCT,3000,BKN,20000,,,,,VFR,,,,,,,,,,,,SPECI,54.0
LTAF 211420Z 20010KT 9999 SCT035 BKN100 20/13 Q1018 NOSIG RMK RWY23 21009KT 190V260,LTAF,2018-03-21T14:20:00Z,36.97,35.28,20.0,13.0,200,10,,6.21,30.059055,,,,,,TRUE,,,,,SCT,3500,BKN,10000,,,,,VFR,,,-0.9,,,,,,,,,SPECI,20.0
LTAC 211420Z 24010KT 9999 FEW040 BKN180 15/M03 Q1015 NOSIG RMK RWY21L 23012KT RWY03L 24010KT RWY21R 23013KT,LTAC,2018-03-21T14:20:00Z,40.12,32.97,15.0,-3.0,240,10,,6.21,29.970472,,,,,,TRUE,,,,,FEW,4000,BKN,18000,,,,,VFR,,,,,,,,,,,,SPECI,949.0
ENRM 211420Z 26008KT 9999 -RADZ SCT010 SCT020 03/02 Q1004,ENRM,2018-03-21T14:20:00Z,64.83,11.13,3.0,2.0,260,8,,6.21,29.64567,,,,,,,,,,-RA -DZ,SCT,1000,SCT,2000,,,,,VFR,,,,,,,,,,,,METAR,14.0
ENST 211420Z 15004KT 9999 -SHRASN SCT008 BKN015 02/01 Q1002 WIND 300FT 17003KT,ENST,2018-03-21T14:20:00Z,65.97,12.47,2.0,1.0,150,4,,6.21,29.586615,,,,,,,,,,-SHRA -SHSN,SCT,800,BKN,1500,,,,,MVFR,,,,,,,,,,,,METAR,17.0
KGZN 211420Z AUTO 15010KT 10SM CLR 12/M01 A3018 RMK AO2,KGZN,2018-03-21T14:20:00Z,32.37,-99.02,12.0,-1.0,150,10,,10.0,30.180119,,,TRUE,TRUE,,,,,,,CLR,,,,,,,,VFR,,,,,,,,,,,,SPECI,522.0
K46U 211420Z AUTO 11004KT 3SM BR FEW026 FEW034 M01/M02 A3000 RMK A01,K46U,2018-03-21T14:20:00Z,43.18,-111.05,-1.0,-2.0,110,4,,3.0,30.0,,,TRUE,TRUE,,,,,,BR,FEW,2600,FEW,3400,,,,,MVFR,,,,,,,,,,,,SPECI,1717.0
FAGG 211419Z 11009KT 9999 SCT008 BKN021 OVC035 18/16 Q1021,FAGG,2018-03-21T14:19:00Z,-34.0,22.37,18.0,16.0,110,9,,6.21,30.147638,,,,,,,,,,,SCT,800,BKN,2100,OVC,3500,,,MVFR,,,,,,,,,,,,SPECI,193.0
CYZS 211418Z 35011KT 15SM FEW027 SCT080 M23/M27 A3017 RMK SC1AC2 SLP229,CYZS,2018-03-21T14:18:00Z,64.2,-83.37,-23.0,-27.0,350,11,,15.0,30.171259,1022.9,,,,,,,,,,FEW,2700,SCT,8000,,,,,VFR,,,,,,,,,,,,SPECI,64.0
K5R8 211417Z AUTO 00000KT 10SM CLR 12/08 A3021 RMK AO2,K5R8,2018-03-21T14:17:00Z,30.43,-93.47,12.0,8.0,0,0,,10.0,30.209646,,,TRUE,TRUE,,,,,,,CLR,,,,,,,,VFR,,,,,,,,,,,,METAR,24.0
KGFA 211416Z 23010KT 10SM CLR M02/M05 A2987 RMK SLP151 $,KGFA,2018-03-21T14:16:00Z,47.5,-111.17,-2.0,-5.0,230,10,,10.0,29.870079,1015.1,,,,TRUE,,,,,,CLR,,,,,,,,VFR,,,,,,,,,,,,SPECI,1075.0
LHUD 211415Z 01015KT 9999 FEW030 BKN083 03/M04 Q1021,LHUD,2018-03-21T14:15:00Z,46.25,20.1,3.0,-4.0,10,15,,6.21,30.147638,,,,,,,,,,,FEW,3000,BKN,8300,,,,,VFR,,,,,,,,,,,,METAR,84.0
LHSM 211415Z 34017KT 9999 BKN035 04/M04 Q1023 NOSIG,LHSM,2018-03-21T14:15:00Z,46.68,17.17,4.0,-4.0,340,17,,6.21,30.206694,,,,,,TRUE,,,,,BKN,3500,,,,,,,VFR,,,,,,,,,,,,METAR,125.0
LHPR 211415Z 34019KT 9999 FEW040 BKN200 05/M07 Q1022 RMK BLU,LHPR,2018-03-21T14:15:00Z,47.63,17.82,5.0,-7.0,340,19,,6.21,30.177166,,,,,,,,,,,FEW,4000,BKN,20000,,,,,VFR,,,,,,,,,,,,METAR,129.0
LHPP 211415Z 01001KT 9999 FEW030 SCT033 03/M05 Q1021,LHPP,2018-03-21T14:15:00Z,45.98,18.23,3.0,-5.0,10,1,,6.21,30.147638,,,,,,,,,,,FEW,3000,SCT,3300,,,,,VFR,,,,,,,,,,,,METAR,305.0
LHDC 211415Z 02014KT 9999 FEW030 BKN083 01/M05 Q1020 NOSIG,LHDC,2018-03-21T14:15:00Z,47.47,21.62,1.0,-5.0,20,14,,6.21,30.11811,,,,,,TRUE,,,,,FEW,3000,BKN,8300,,,,,VFR,,,,,,,,,,,,METAR,112.0
K2I0 211415Z AUTO 32010G18KT 10SM OVC090 01/M01 A2998 RMK AO2 T00131015,K2I0,2018-03-21T14:15:00Z,37.35,-87.4,1.3,-1.5,320,10,18,10.0,29.97933,,,TRUE,TRUE,,,,,,,OVC,9000,,,,,,,VFR,,,,,,,,,,,,METAR,134.0
KO22 211415Z AUTO 12004KT 5SM FEW017 11/11 A2988 RMK AO1 P0001,KO22,2018-03-21T14:15:00Z,38.03,-120.42,11.0,11.0,120,4,,5.0,29.878937,,,TRUE,TRUE,,,,,,,FEW,1700,,,,,,,MVFR,,,,,,0.01,,,,,,METAR,646.0
KAFF 211414Z 01007KT 10SM CLR M03/M09 A3007 RMK AO2A SLP203,KAFF,2018-03-21T14:14:00Z,38.97,-104.82,-3.0,-9.0,10,7,,10.0,30.070866,1020.3,,,TRUE,,,,,,,CLR,,,,,,,,VFR,,,,,,,,,,,,SPECI,2003.0
KDPA 211414Z 36010KT 10SM BKN029 M01/M05 A3005 RMK AO2 T10061050 $,KDPA,2018-03-21T14:14:00Z,41.92,-88.25,-0.6,-5.0,360,10,,10.0,30.050198,,,,TRUE,TRUE,,,,,,BKN,2900,,,,,,,MVFR,,,,,,,,,,,,METAR,231.0
VCRI 211410Z VRB02KT 8000 -TSRA BKN016 SCT018CB OVC080 23/23 Q1010 TSRA NOSIG N/NW/NE/OH,VCRI,2018-03-21T14:10:00Z,6.28,81.13,23.0,23.0,0,2,,4.97,29.822834,,,,,,TRUE,,,,-TSRA TSRA,BKN,1600,SCT,1800,OVC,8000,,,MVFR,,,,,,,,,,,,METAR,7.0
VCBI 211410Z 27005KT 220V300 9000 SCT030 29/23 Q1010 NOSIG,VCBI,2018-03-21T14:10:00Z,7.17,79.87,29.0,23.0,270,5,,5.59,29.822834,,,,,,TRUE,,,,,SCT,3000,,,,,,,VFR,,,,,,,,,,,,METAR,8.0
KLGF 211410Z AUTO 00000KT 10SM CLR 15/M12 A2993,KLGF,2018-03-21T14:10:00Z,32.87,-114.4,15.0,-12.0,0,0,,10.0,29.929134,,,TRUE,,,,,,,,CLR,,,,,,,,VFR,,,,,,,,,,,,METAR,132.0
FAEL 211410Z 25020G30KT 9999 FEW040 21/17 Q1018,FAEL,2018-03-21T14:10:00Z,-33.02,27.82,21.0,17.0,250,20,30,6.21,30.059055,,,,,,,,,,,FEW,4000,,,,,,,VFR,,,,,,,,,,,,SPECI,125.0
CZUM 211410Z AUTO 31013KT 9SM -SN SCT022 OVC048 M11/M15 A3000 RMK SLP196,CZUM,2018-03-21T14:10:00Z,53.53,-64.08,-11.0,-15.0,310,13,,9.0,30.0,1019.6,,TRUE,,,,,,,-SN,SCT,2200,OVC,4800,,,,,VFR,,,,,,,,,,,,SPECI,440.0
CYQW 211409Z AUTO 00000KT 1/2SM FZFG VV001 M12/M14 A2992 RMK SLP172,CYQW,2018-03-21T14:09:00Z,52.77,-108.25,-12.0,-14.0,0,0,,0.5,29.920275,1017.2,,TRUE,,,,,,,FZFG,OVX,0,,,,,,,LIFR,,,,,,,,,,,100,SPECI,548.0
CYEN 211407Z VRB02KT 1SM BR FEW020 SCT220 M08/M09 A2997 RMK SC1CI4 SC TR SLP185,CYEN,2018-03-21T14:07:00Z,49.22,-102.97,-8.0,-9.0,0,2,,1.0,29.970472,1018.5,,,,,,,,,BR,FEW,2000,SCT,22000,,,,,IFR,,,,,,,,,,,,SPECI,581.0
RJFY 211407Z 28024G34KT 9999 FEW012 BKN025 10/06 Q1005 RMK 1CU012 5CU025 A2970,RJFY,2018-03-21T14:07:00Z,31.37,130.82,10.0,6.0,280,24,34,6.21,29.675198,,,,,,,,,,,FEW,1200,BKN,2500,,,,,MVFR,,,,,,,,,,,,METAR,68.0
FAPE 211406Z 19010KT 160V240 9000 BKN020 BKN035 19/16 Q1020 RERA TEMPO 5000,FAPE,2018-03-21T14:06:00Z,-33.97,25.6,19.0,16.0,190,10,,5.59,30.11811,,,,,,,,,,,BKN,2000,BKN,3500,,,,,MVFR,,,,,,,,,,,,SPECI,60.0
MMGM 211405Z RTD 00000KT 10SM SKC 19/03 A2983 RMK RTS,MMGM,2018-03-21T14:05:00Z,27.95,-110.92,19.0,3.0,0,0,,10.0,29.828741,,,,,,,,,,,SKC,,,,,,,,VFR,,,,,,,,,,,,METAR,20.0
LIRI 211405Z VRB03KT 7000 -RA FEW030 BKN040 12/09 Q1010,LIRI,2018-03-21T14:05:00Z,40.62,14.92,12.0,9.0,0,3,,4.35,29.822834,,,,,,,,,,-RA,FEW,3000,BKN,4000,,,,,MVFR,,,,,,,,,,,,SPECI,40.0
CYPH 211404Z AUTO 20008KT 7SM CLR M17/M19 A3037 RMK SLP290,CYPH,2018-03-21T14:04:00Z,58.45,-78.08,-17.0,-19.0,200,8,,7.0,30.369095,1029.0,,TRUE,,,,,,,,CLR,,,,,,,,VFR,,,,,,,,,,,,SPECI,3.0
RJOP 211404Z 29011KT 8000 -SHRA SCT007 BKN012 BKN020 08/08 Q0999 RMK 3ST007 5CU012 7CU020 A2951,RJOP,2018-03-21T14:04:00Z,34.0,134.62,8.0,8.0,290,11,,4.97,29.498032,,,,,,,,,,-SHRA,SCT,700,BKN,1200,BKN,2000,,,MVFR,,,,,,,,,,,,SPECI,6.0
MMCT 211404Z RTD 00000KT 8SM BKN020 25/22 A3002 RMK 8/400 HZ MSGTX MMMD,MMCT,2018-03-21T14:04:00Z,20.63,-88.45,25.0,22.0,0,0,,8.0,30.02067,,,,,,,,,,,BKN,2000,,,,,,,MVFR,,,,,,,,,,,,METAR,28.0
CYPY 211403Z AUTO 03006KT 9SM BKN020 M17/M20 A3018 RMK SLP244,CYPY,2018-03-21T14:03:00Z,58.77,-111.12,-17.0,-20.0,30,6,,9.0,30.180119,1024.4,,TRUE,,,,,,,,BKN,2000,,,,,,,MVFR,,,,,,,,,,,,SPECI,232.0
YCBA 211402Z AUTO 08017G27KT 9999 // NCD 23/12 Q////,YCBA,2018-03-21T14:02:00Z,-31.53,145.8,23.0,12.0,80,17,27,6.21,,,,TRUE,,,,,,,,CLR,,,,,,,,VFR,,,,,,,,,,,,SPECI,221.0
MUCL 211402Z 23003KT 9000 FEW020 27/23 Q1016,MUCL,2018-03-21T14:02:00Z,21.63,-81.55,27.0,23.0,230,3,,5.59,30.0,,,,,,,,,,,FEW,2000,,,,,,,VFR,,,,,,,,,,,,METAR,5.0
KLUF 211401Z 00000KT 10SM CLR 12/M03 A2995 RMK SLP136 T01161026 52012 $,KLUF,2018-03-21T14:01:00Z,33.52,-112.37,11.6,-2.6,0,0,,10.0,29.949802,1013.6,,,,TRUE,,,,,,CLR,,,,,,,,VFR,1.2,,,,,,,,,,,METAR,332.0
PAMO 211401Z AUTO 1/4SM FZFG OVC002 M08/M09 A3061 RMK AO2 SLP376 T10831089 FZRANO $,PAMO,2018-03-21T14:01:00Z,62.1,-163.68,-8.3,-8.9,,,,0.25,30.611221,1037.6,,TRUE,TRUE,TRUE,,,TRUE,,FZFG,OVC,200,,,,,,,LIFR,,,,,,,,,,,,SPECI,103.0
PAFS 211401Z AUTO 26005KT 9SM -SN OVC030 M07/M08 A3059 RMK AO2 SLP383 P0000 T10721078 FZRANO,PAFS,2018-03-21T14:01:00Z,63.02,-154.35,-7.2,-7.8,260,5,,9.0,30.590551,1038.3,,TRUE,TRUE,,,,TRUE,,-SN,OVC,3000,,,,,,,MVFR,,,,,,0.005,,,,,,SPECI,126.0
WMKN 211400Z 04004KT 350V100 9999 SCT022 BKN300 28/24 Q1009,WMKN,2018-03-21T14:00:00Z,5.37,103.08,28.0,24.0,40,4,,6.21,29.793306,,,,,,,,,,,SCT,2200,BKN,30000,,,,,VFR,,,,,,,,,,,,METAR,6.0
DRRT 211400Z 26012KT 9999 FEW040 40/08 Q1008,DRRT,2018-03-21T14:00:00Z,14.9,5.25,40.0,8.0,260,12,,6.21,29.763779,,,,,,,,,,,FEW,4000,,,,,,,VFR,,,,,,,,,,,,METAR,391.0
CYBB 211400Z 25018KT 4SM IC DRSN FEW230 M34/M38 A3038 RMK CI1 SLP291,CYBB,2018-03-21T14:00:00Z,68.52,-89.82,-34.0,-38.0,250,18,,4.0,30.380905,1029.1,,,,,,,,,IC DRSN,FEW,23000,,,,,,,MVFR,,,,,,,,,,,,SPECI,15.0
CYCB 211400Z 29009KT 12SM IC FEW002 FEW025 M36/M39 A3062 RMK SF1SC1 FROIN SLP378,CYCB,2018-03-21T14:00:00Z,69.08,-105.12,-36.0,-39.0,290,9,,12.0,30.620079,1037.8,,,,,,,,,IC,FEW,200,FEW,2500,,,,,VFR,,,,,,,,,,,,SPECI,27.0
LEEC 211400Z 03011KT 360V060 CAVOK 15/M03 Q1023,LEEC,2018-03-21T14:00:00Z,37.32,-6.0,15.0,-3.0,30,11,,6.21,30.206694,,,,,,,,,,,CAVOK,,,,,,,,VFR,,,,,,,,,,,,METAR,7.0
DTTL 211400Z 29005KT 220V350 9999 -RA SCT020 SCT033 10/10? Q1010,DTTL,2018-03-21T14:00:00Z,36.85,11.07,,,290,5,,6.21,29.822834,,,,,,,,,,-RA,SCT,2000,SCT,3300,,,,,VFR,,,,,,,,,,,,METAR,30.0
YESP 211400Z AUTO 05013KT 9999 // BKN125 20/15 Q1013,YESP,2018-03-21T14:00:00Z,-33.68,121.82,20.0,15.0,50,13,,6.21,29.911417,,,TRUE,,,,,,,,BKN,12500,,,,,,,VFR,,,,,,,,,,,,METAR,143.0
LFVP 211400Z 26012KT 9999 BKN019 01/M04 Q1016 NOSIG,LFVP,2018-03-21T14:00:00Z,46.77,-56.18,1.0,-4.0,260,12,,6.21,30.0,,,,,,TRUE,,,,,BKN,1900,,,,,,,MVFR,,,,,,,,,,,,METAR,8.0
MTPP 211400Z 12012KT 9000 FEW024 BKN060 28/20 Q1015 A3000,MTPP,2018-03-21T14:00:00Z,18.57,-72.28,28.0,20.0,120,12,,5.59,29.970472,,,,,,,,,,,FEW,2400,BKN,6000,,,,,VFR,,,,,,,,,,,,METAR,37.0
SBNT 211400Z 12012KT 9999 BKN030 32/22 Q1012,SBNT,2018-03-21T14:00:00Z,-5.92,-35.25,32.0,22.0,120,12,,6.21,29.88189,,,,,,,,,,,BKN,3000,,,,,,,MVFR,,,,,,,,,,,,METAR,49.0
SBRB 211400Z 03006KT 9999 -RA SCT007 BKN100 25/23 Q1014,SBRB,2018-03-21T14:00:00Z,-10.0,-67.78,25.0,23.0,30,6,,6.21,29.940945,,,,,,,,,,-RA,SCT,700,BKN,10000,,,,,VFR,,,,,,,,,,,,METAR,143.0
OJAI 211400Z 26010KT 7000 NSC 25/01 Q1020 NOSIG,OJAI,2018-03-21T14:00:00Z,31.72,36.0,25.0,1.0,260,10,,4.35,30.11811,,,,,,TRUE,,,,,CLR,,,,,,,,MVFR,,,,,,,,,,,,METAR,730.0
HAAB 211400Z 11010KT 9999 SCT026 24/06 Q1025,HAAB,2018-03-21T14:00:00Z,8.97,38.78,24.0,6.0,110,10,,6.21,30.265747,,,,,,,,,,,SCT,2600,,,,,,,VFR,,,,,,,,,,,,METAR,2355.0
MHAM 211400Z 04006KT 9999 FEW028 28/22,MHAM,2018-03-21T14:00:00Z,13.27,-87.65,28.0,22.0,40,6,,6.21,,,,,,,,,,,,FEW,2800,,,,,,,VFR,,,,,,,,,,,,METAR,5.0
MHTR 211400Z VRB02KT 9999 FEW026 SCT250 27/23 HZ,MHTR,2018-03-21T14:00:00Z,15.93,-85.93,27.0,23.0,0,2,,6.21,,,,,,,,,,,HZ,FEW,2600,SCT,25000,,,,,VFR,,,,,,,,,,,,METAR,3.0
MHTE 211400Z 02002KT 9999 FEW024TCU SCT250 26/22 Q1010 TCU SW HZ,MHTE,2018-03-21T14:00:00Z,15.78,-87.48,26.0,22.0,20,2,,6.21,29.822834,,,,,,,,,,HZ,FEW,2400,SCT,25000,,,,,VFR,,,,,,,,,,,,METAR,3.0
MHPL 211400Z 00000KT 9999 FEW026 BKN250 25/23 Q1013 FU HZ,MHPL,2018-03-21T14:00:00Z,15.27,-83.78,25.0,23.0,0,0,,6.21,29.911417,,,,,,,,,,FU HZ,FEW,2600,BKN,25000,,,,,VFR,,,,,,,,,,,,METAR,13.0
MHYR 211400Z 25003KT 9999 SCT023 21/19 HZ,MHYR,2018-03-21T14:00:00Z,15.13,-87.12,21.0,19.0,250,3,,6.21,,,,,,,,,,,HZ,SCT,2300,,,,,,,VFR,,,,,,,,,,,,METAR,670.0
MHCA 211400Z 05002KT 9999 SCT026 SCT070 24/22 Q1016,MHCA,2018-03-21T14:00:00Z,14.9,-85.78,24.0,22.0,50,2,,6.21,30.0,,,,,,,,,,,SCT,2600,SCT,7000,,,,,VFR,,,,,,,,,,,,METAR,442.0
MHSR 211400Z 36003KT 9999 BKN020 SCT080 20/19 HZ,MHSR,2018-03-21T14:00:00Z,14.78,-88.78,20.0,19.0,360,3,,6.21,,,,,,,,,,,HZ,BKN,2000,SCT,8000,,,,,MVFR,,,,,,,,,,,,METAR,1079.0
MHNO 211400Z 02004KT 9999 FEW040 25/17 FU,MHNO,2018-03-21T14:00:00Z,14.43,-89.18,25.0,17.0,20,4,,6.21,,,,,,,,,,,FU,FEW,4000,,,,,,,VFR,,,,,,,,,,,,METAR,2.0
MHLE 211400Z 01008KT 9999 SCT024 18/13,MHLE,2018-03-21T14:00:00Z,14.32,-88.15,18.0,13.0,10,8,,6.21,,,,,,,,,,,,SCT,2400,,,,,,,VFR,,,,,,,,,,,,METAR,1100.0
FMMI 211400Z VRB03KT 9999 SCT023CB 29/14 Q1019 NOSIG,FMMI,2018-03-21T14:00:00Z,-18.8,47.47,29.0,14.0,0,3,,6.21,30.088583,,,,,,TRUE,,,,,SCT,2300,,,,,,,VFR,,,,,,,,,,,,METAR,1276.0
MHCH 211400Z 02014KT 9999 FEW030 29/17 FEW070 NOSIG,MHCH,2018-03-21T14:00:00Z,13.32,-87.15,29.0,17.0,20,14,,6.21,,,,,,,TRUE,,,,,FEW,3000,FEW,7000,,,,,VFR,,,,,,,,,,,,METAR,48.0
NFNA 211400Z 00000KT 9999 -SHRA FEW020 SCT050 24/24 Q1006,NFNA,2018-03-21T14:00:00Z,-18.05,178.57,24.0,24.0,0,0,,6.21,29.704725,,,,,,,,,,-SHRA,FEW,2000,SCT,5000,,,,,VFR,,,,,,,,,,,,METAR,5.0
MRPV 211400Z 09013KT CAVOK 22/11 A3005 NOSIG,MRPV,2018-03-21T14:00:00Z,9.95,-84.15,22.0,11.0,90,13,,6.21,30.050198,,,,,,TRUE,,,,,CAVOK,,,,,,,,VFR,,,,,,,,,,,,METAR,994.0
OPST 211400Z 09004KT 4000 -RA SCT040 BKN100 17/14 Q1012 TEMPO 05010G25KT 2000 -TS FEW030CB RH84,OPST,2018-03-21T14:00:00Z,32.53,74.37,17.0,14.0,90,4,,2.49,29.88189,,,,,,,,,,-RA,SCT,4000,BKN,10000,,,,,IFR,,,,,,,,,,,,METAR,247.0
SBCF 211400Z 31005KT 9999 FEW040 BKN100 25/18 Q1018,SBCF,2018-03-21T14:00:00Z,-19.63,-43.97,25.0,18.0,310,5,,6.21,30.059055,,,,,,,,,,,FEW,4000,BKN,10000,,,,,VFR,,,,,,,,,,,,METAR,828.0
VOBM 211400Z 26006KT 8000 NSC 27/17 Q1014,VOBM,2018-03-21T14:00:00Z,15.85,74.62,27.0,17.0,260,6,,4.97,29.940945,,,,,,,,,,,CLR,,,,,,,,MVFR,,,,,,,,,,,,METAR,758.0
LELO 211400Z 32009G19KT 240V030 9999 FEW035 SCT055 08/M04 Q1027,LELO,2018-03-21T14:00:00Z,42.45,-2.32,8.0,-4.0,320,9,19,6.21,30.324802,,,,,,,,,,,FEW,3500,SCT,5500,,,,,VFR,,,,,,,,,,,,METAR,363.0
LECV 211400Z 36020G31KT 9999 FEW030 08/M05 Q1022,LECV,2018-03-21T14:00:00Z,40.63,-3.72,8.0,-5.0,360,20,31,6.21,30.177166,,,,,,,,,,,FEW,3000,,,,,,,VFR,,,,,,,,,,,,METAR,710.0
LEBT 211400Z AUTO 11011KT 060V150 9999 // NCD 14/M05 Q1018,LEBT,2018-03-21T14:00:00Z,39.58,-0.45,14.0,-5.0,110,11,,6.21,30.059055,,,TRUE,,,,,,,,CLR,,,,,,,,VFR,,,,,,,,,,,,METAR,50.0
LEAO 211400Z 03011KT 340V080 CAVOK 12/M05 Q1021,LEAO,2018-03-21T14:00:00Z,38.95,-3.73,12.0,-5.0,30,11,,6.21,30.147638,,,,,,,,,,,CAVOK,,,,,,,,VFR,,,,,,,,,,,,METAR,629.0
SLVR 211400Z 16010G22KT 9999 FEW020 SCT023 BKN070 25/17 Q1017,SLVR,2018-03-21T14:00:00Z,-17.63,-63.12,25.0,17.0,160,10,22,6.21,30.029528,,,,,,,,,,,FEW,2000,SCT,2300,BKN,7000,,,VFR,,,,,,,,,,,,SPECI,373.0
SLTJ 211400Z 00000KT 9999 BKN025 OVC070 19/13 Q1023,SLTJ,2018-03-21T14:00:00Z,-21.55,-64.72,19.0,13.0,0,0,,6.21,30.206694,,,,,,,,,,,BKN,2500,OVC,7000,,,,,MVFR,,,,,,,,,,,,SPECI,1858.0
SLLP 211400Z 08009KT 050V110 9999 FEW014 BKN200 12/05 Q1038,SLLP,2018-03-21T14:00:00Z,-16.52,-68.17,12.0,5.0,80,9,,6.21,30.649607,,,,,,,,,,,FEW,1400,BKN,20000,,,,,VFR,,,,,,,,,,,,SPECI,4014.0
SLCB 211400Z 13003KT 9999 SCT025 BKN070 BKN200 20/12 Q1027,SLCB,2018-03-21T14:00:00Z,-17.42,-66.18,20.0,12.0,130,3,,6.21,30.324802,,,,,,,,,,,SCT,2500,BKN,7000,BKN,20000,,,VFR,,,,,,,,,,,,SPECI,2548.0
SGES 211400Z 16005KT 9999 SCT020 SCT080 24/21 Q1015,SGES,2018-03-21T14:00:00Z,-25.45,-54.85,24.0,21.0,160,5,,6.21,29.970472,,,,,,,,,,,SCT,2000,SCT,8000,,,,,VFR,,,,,,,,,,,,SPECI,849.0
SGAS 211400Z VRB03KT 9999 SCT030 BKN070 22/19 Q1015 RERA,SGAS,2018-03-21T14:00:00Z,-25.25,-57.52,22.0,19.0,0,3,,6.21,29.970472,,,,,,,,,,,SCT,3000,BKN,7000,,,,,VFR,,,,,,,,,,,,SPECI,101.0
SBTF 211400Z 00000KT 9999 FEW008 SCT080 27/25 Q1012,SBTF,2018-03-21T14:00:00Z,-3.37,-64.72,27.0,25.0,0,0,,6.21,29.88189,,,,,,,,,,,FEW,800,SCT,8000,,,,,VFR,,,,,,,,,,,,METAR,47.0
SBPP 211400Z 00000KT 9999 FEW015 BKN070 26/23 Q1016,SBPP,2018-03-21T14:00:00Z,-22.55,-55.7,26.0,23.0,0,0,,6.21,30.0,,,,,,,,,,,FEW,1500,BKN,7000,,,,,VFR,,,,,,,,,,,,METAR,660.0
FMSD 211400Z 08014KT 9999 FEW020 SCT033 27/23 Q1013,FMSD,2018-03-21T14:00:00Z,-25.02,46.95,27.0,23.0,80,14,,6.21,29.911417,,,,,,,,,,,FEW,2000,SCT,3300,,,,,VFR,,,,,,,,,,,,METAR,9.0
FMNM 211400Z 30006KT 9999 FEW020 30/24 Q1011 NOSIG,FMNM,2018-03-21T14:00:00Z,-15.67,46.35,30.0,24.0,300,6,,6.21,29.852362,,,,,,TRUE,,,,,FEW,2000,,,,,,,VFR,,,,,,,,,,,,METAR,18.0
FMMT 211400Z 20008KT 9999 BKN017TCU 29/25 Q1012 NOSIG,FMMT,2018-03-21T14:00:00Z,-18.12,49.38,29.0,25.0,200,8,,6.21,29.88189,,,,,,TRUE,,,,,BKN,1700,,,,,,,MVFR,,,,,,,,,,,,METAR,6.0
FMCH 211400Z 22005KT 9999 FEW020TCU 32/25 Q1012 NOSIG,FMCH,2018-03-21T14:00:00Z,-11.52,43.27,32.0,25.0,220,5,,6.21,29.88189,,,,,,TRUE,,,,,FEW,2000,,,,,,,VFR,,,,,,,,,,,,METAR,29.0
SBBG 211400Z 17007KT 9999 SCT023 20/11 Q1019,SBBG,2018-03-21T14:00:00Z,-31.38,-54.12,20.0,11.0,170,7,,6.21,30.088583,,,,,,,,,,,SCT,2300,,,,,,,VFR,,,,,,,,,,,,METAR,180.0
SBTT 211400Z 10003KT 9999 FEW010 28/24 Q1012,SBTT,2018-03-21T14:00:00Z,-4.25,-69.93,28.0,24.0,100,3,,6.21,29.88189,,,,,,,,,,,FEW,1000,,,,,,,VFR,,,,,,,,,,,,METAR,85.0
SBBE 211400Z 06008KT 9999 BKN025 30/23 Q1012,SBBE,2018-03-21T14:00:00Z,-1.37,-48.47,30.0,23.0,60,8,,6.21,29.88189,,,,,,,,,,,BKN,2500,,,,,,,MVFR,,,,,,,,,,,,METAR,16.0
SLPS 211400Z 21008KT 9999 BKN015 BKN070 27/23 Q1013,SLPS,2018-03-21T14:00:00Z,-18.98,-57.82,27.0,23.0,210,8,,6.21,29.911417,,,,,,,,,,,BKN,1500,BKN,7000,,,,,MVFR,,,,,,,,,,,,METAR,135.0
FOON 211400Z VRB02KT 9999 BKN016 SCT020CB 32/23 Q1011,FOON,2018-03-21T14:00:00Z,-1.63,13.42,32.0,23.0,0,2,,6.21,29.852362,,,,,,,,,,,BKN,1600,SCT,2000,,,,,MVFR,,,,,,,,,,,,METAR,441.0
FOOG 211400Z 23005KT 9999 SCT010 FEW020CB 30/25 Q1010,FOOG,2018-03-21T14:00:00Z,-0.7,8.75,30.0,25.0,230,5,,6.21,29.822834,,,,,,,,,,,SCT,1000,FEW,2000,,,,,VFR,,,,,,,,,,,,METAR,4.0
SAZN 211400Z 02014G26KT CAVOK 15/02 Q1015,SAZN,2018-03-21T14:00:00Z,-38.95,-68.15,15.0,2.0,20,14,26,6.21,29.970472,,,,,,,,,,,CAVOK,,,,,,,,VFR,,,,,,,,,,,,METAR,271.0
SAWH 211400Z 32016KT 9999 BKN040 SCT100 12/01 Q0984,SAWH,2018-03-21T14:00:00Z,-54.85,-68.3,12.0,1.0,320,16,,6.21,29.055119,,,,,,,,,,,BKN,4000,SCT,10000,,,,,VFR,,,,,,,,,,,,METAR,14.0
SAVC 211400Z 36008KT 340V060 CAVOK 15/M00 Q1005,SAVC,2018-03-21T14:00:00Z,-45.77,-67.47,15.0,0.0,360,8,,6.21,29.675198,,,,,,,,,,,CAVOK,,,,,,,,VFR,,,,,,,,,,,,METAR,46.0
SAOC 211400Z 36018KT CAVOK 15/05 Q1019,SAOC,2018-03-21T14:00:00Z,-33.12,-64.27,15.0,5.0,360,18,,6.21,30.088583,,,,,,,,,,,CAVOK,,,,,,,,VFR,,,,,,,,,,,,METAR,421.0
MKJS 211400Z 04005KT 9999 FEW022 29/22 Q1015,MKJS,2018-03-21T14:00:00Z,18.5,-77.92,29.0,22.0,40,5,,6.21,29.970472,,,,,,,,,,,FEW,2200,,,,,,,VFR,,,,,,,,,,,,METAR,1.0
UCFL 211400Z 01002MPS 9999 NSC 08/M02 Q1018 R07/CLRD70 RMK G/O,UCFL,2018-03-21T14:00:00Z,42.58,76.7,8.0,-2.0,10,4,,6.21,30.059055,,,,,,,,,,,CLR,,,,,,,,VFR,,,,,,,,,,,,METAR,1648.0
VTCT 211400Z 00000KT 8000 FEW028 23/21 Q1009,VTCT,2018-03-21T14:00:00Z,19.95,99.88,23.0,21.0,0,0,,4.97,29.793306,,,,,,,,,,,FEW,2800,,,,,,,MVFR,,,,,,,,,,,,METAR,390.0
FAOB 211400Z AUTO 19012KT //// // ////// 21/12 Q1021,FAOB,2018-03-21T14:00:00Z,-34.6,20.27,21.0,12.0,190,12,,,30.147638,,,TRUE,,,,,,,,,,,,,,,,,,,,,,,,,,,,METAR,75.0
FALW 211400Z AUTO 21022KT //// // ////// 25/10 Q1015,FALW,2018-03-21T14:00:00Z,-32.97,18.17,25.0,10.0,210,22,,,29.970472,,,TRUE,,,,,,,,,,,,,,,,,,,,,,,,,,,,METAR,0.0
FABL 211400Z 35008KT 310V010 9999 SCT035 OVC080 19/12 Q1021 NOSIG,FABL,2018-03-21T14:00:00Z,-29.1,26.3,19.0,12.0,350,8,,6.21,30.147638,,,,,,TRUE,,,,,SCT,3500,OVC,8000,,,,,VFR,,,,,,,,,,,,METAR,1348.0
CYCO 211400Z 00000KT 15SM IC FEW005 FEW050 SCT090 SCT150 BKN220 M34/M37 A3068 RMK ST1SC1AC2AS1CI2 ST TR SLP395,CYCO,2018-03-21T14:00:00Z,67.82,-115.15,-34.0,-37.0,0,0,,15.0,30.679134,1039.5,,,,,,,,,IC,FEW,500,FEW,5000,SCT,9000,SCT,15000,VFR,,,,,,,,,,,,SPECI,22.0
CYCS 211400Z 35012KT 15SM IC DRSN FEW040 FEW130 M27/M31 A3034 RMK SC1AC1 SC TR AC TR SLP279,CYCS,2018-03-21T14:00:00Z,63.35,-90.72,-27.0,-31.0,350,12,,15.0,30.339567,1027.9,,,,,,,,,IC DRSN,FEW,4000,FEW,13000,,,,,VFR,,,,,,,,,,,,SPECI,11.0
CYFS 211400Z 09003KT 030V120 15SM -SN SCT040 OVC065 M14/M17 A3038 RMK SC4SC4 SLP306,CYFS,2018-03-21T14:00:00Z,61.75,-121.22,-14.0,-17.0,90,3,,15.0,30.380905,1030.6,,,,,,,,,-SN,SCT,4000,OVC,6500,,,,,VFR,,,,,,,,,,,,SPECI,169.0
CYGT 211400Z 31015KT 15SM FEW059 FEW250 M33/M37 A3016 RMK SC1CI1 SC TR SLP226,CYGT,2018-03-21T14:00:00Z,69.37,-81.82,-33.0,-37.0,310,15,,15.0,30.159449,1022.6,,,,,,,,,,FEW,5900,FEW,25000,,,,,VFR,,,,,,,,,,,,SPECI,51.0
CYJF 211400Z CCA 04013G25KT 5/8SM -SN DRSN BKN030 OVC240 M09/M11 A3023 RMK SN2SC5CI1 -1.5/-8.9/7.4/75/SNW CVR MUCH LOOSE SLP253,CYJF,2018-03-21T14:00:00Z,60.22,-123.47,-9.0,-11.0,40,13,25,0.63,30.230314,1025.3,,,,,,,,,DRSN -SN,BKN,3000,OVC,24000,,,,,LIFR,,,,,,,,,,,,METAR,215.0
CYKD 211400Z 31003KT 290V030 15SM FEW090 M24/M26 A3065 RMK AC2 SLP381,CYKD,2018-03-21T14:00:00Z,68.22,-135.0,-24.0,-26.0,310,3,,15.0,30.649607,1038.1,,,,,,,,,,FEW,9000,,,,,,,VFR,,,,,,,,,,,,SPECI,7.0
CYLK 211400Z 07012G17KT 15SM FEW050 M28/M32 A3047 RMK SC1 SC TR -16.6/-27.6/0.1/35/SNW CVR TRACE LOOSE SLP348,CYLK,2018-03-21T14:00:00Z,62.42,-110.67,-28.0,-32.0,70,12,17,15.0,30.469488,1034.8,,,,,,,,,,FEW,5000,,,,,,,VFR,,,,,,,,,,,,SPECI,179.0
CYPC 211400Z 20013KT 15SM FEW025 FEW080 FEW120 M21/M25 A3055 RMK SC1AC1AC1 SC TR SLP347,CYPC,2018-03-21T14:00:00Z,69.37,-124.07,-21.0,-25.0,200,13,,15.0,30.549213,1034.7,,,,,,,,,,FEW,2500,FEW,8000,FEW,12000,,,VFR,,,,,,,,,,,,METAR,6.0
CYRA 211400Z 10006KT 15SM FEW100 M29/M33 A3052 RMK AC1 AC TR -13.4/ -28.7/ 0.0/ SNW CVR/ MUCH LOOSE SLP366,CYRA,2018-03-21T14:00:00Z,64.12,-117.32,-29.0,-33.0,100,6,,15.0,30.519686,1036.6,,,,,,,,,,FEW,10000,,,,,,,VFR,,,,,,,,,,,,SPECI,213.0
CYRT 211400Z 36015KT 15SM IC DRSN FEW070 SCT270 M28/M32 A3032 RMK AC1CI2 SLP274,CYRT,2018-03-21T14:00:00Z,62.82,-92.12,-28.0,-32.0,360,15,,15.0,30.318897,1027.4,,,,,,,,,IC DRSN,FEW,7000,SCT,27000,,,,,VFR,,,,,,,,,,,,SPECI,32.0
CYSY 211400Z 14012KT 15SM IC FEW010 FEW210 M26/M30 A3051 RMK SC1CI1 SC TR SLP347,CYSY,2018-03-21T14:00:00Z,72.0,-125.27,-26.0,-30.0,140,12,,15.0,30.510826,1034.7,,,,,,,,,IC,FEW,1000,FEW,21000,,,,,VFR,,,,,,,,,,,,SPECI,86.0
CYTE 211400Z 03005KT 10SM -SN VCFG FEW003 SCT025 BKN260 M15/M18 A3011 RMK SF1SC3CI3 VIS VRB 9 3/4-14 SLP202,CYTE,2018-03-21T14:00:00Z,64.22,-76.52,-15.0,-18.0,30,5,,10.0,30.109253,1020.2,,,,,,,,,-SN VCFG,FEW,300,SCT,2500,BKN,26000,,,VFR,,,,,,,,,,,,SPECI,47.0
CYVM 211400Z 00000KT 4SM IC SCT030 SCT040 BKN200 M22/M24 A2999 RMK SC3SC1CS2 VIS SW-W HIER SLP157,CYVM,2018-03-21T14:00:00Z,67.53,-64.02,-22.0,-24.0,0,0,,4.0,29.991142,1015.7,,,,,,,,,IC,SCT,3000,SCT,4000,BKN,20000,,,MVFR,,,,,,,,,,,,SPECI,6.0
CYWE 211400Z AUTO 06010KT 9SM CLR M31/M34 A3045 RMK SLP374,CYWE,2018-03-21T14:00:00Z,64.18,-114.08,-31.0,-34.0,60,10,,9.0,30.448818,1037.4,,TRUE,,,,,,,,CLR,,,,,,,,VFR,,,,,,,,,,,,METAR,371.0
CYWJ 211400Z 23003KT 10SM IC OVC038 M17/M20 A3042 RMK SC8 CIG RAG SLP332,CYWJ,2018-03-21T14:00:00Z,65.22,-123.43,-17.0,-20.0,230,3,,10.0,30.41929,1033.2,,,,,,,,,IC,OVC,3800,,,,,,,VFR,,,,,,,,,,,,SPECI,176.0
CYXN 211400Z 36019KT 2 1/2SM IC BLSN FEW100 SCT240 M26/M30 A3031 RMK AC1CI2 SLP267,CYXN,2018-03-21T14:00:00Z,62.22,-92.58,-26.0,-30.0,360,19,,2.5,30.31004,1026.7,,,,,,,,,IC BLSN,FEW,10000,SCT,24000,,,,,IFR,,,,,,,,,,,,SPECI,20.0
CYWY 211400Z 31004KT 5SM -SN OVC050 M13/M15 A3041 RMK SC8 -2.3/-13.6/2.8/53 SNW CVR/MUCH LOOSE SLP316,CYWY,2018-03-21T14:00:00Z,63.22,-123.42,-13.0,-15.0,310,4,,5.0,30.410433,1031.6,,,,,,,,,-SN,OVC,5000,,,,,,,MVFR,,,,,,,,,,,,SPECI,150.0
CYAY 211400Z AUTO 26014KT 9SM CLR M03/M08 A2985 RMK ICG PAST HR SLP113,CYAY,2018-03-21T14:00:00Z,51.38,-56.07,-3.0,-8.0,260,14,,9.0,29.84941,1011.3,,TRUE,,,,,,,,CLR,,,,,,,,VFR,,,,,,,,,,,,SPECI,28.0
CYCX 211400Z 07008KT 15SM FEW220 M02/M10 A2994 RMK CI2 DA-1920FT SLP143,CYCX,2018-03-21T14:00:00Z,45.82,-66.42,-2.0,-10.0,70,8,,15.0,29.940945,1014.3,,,,,,,,,,FEW,22000,,,,,,,VFR,,,,,,,,,,,,SPECI,51.0
CYDF 211400Z 26006G15KT 220V290 15SM OVC023 M01/M06 A2993 RMK SC8 SLP137,CYDF,2018-03-21T14:00:00Z,49.22,-57.4,-1.0,-6.0,260,6,15,15.0,29.929134,1013.7,,,,,,,,,,OVC,2300,,,,,,,MVFR,,,,,,,,,,,,SPECI,22.0
CYDP 211400Z 31021G26KT 15SM FEW023 SCT100 M04/M09 A2997 RMK SC1AC3 SLP150,CYDP,2018-03-21T14:00:00Z,56.53,-61.67,-4.0,-9.0,310,21,26,15.0,29.970472,1015.0,,,,,,,,,,FEW,2300,SCT,10000,,,,,VFR,,,,,,,,,,,,SPECI,7.0
CYGW 211400Z AUTO 30002KT 9SM SCT016 M19/M21 A3041 RMK SLP302,CYGW,2018-03-21T14:00:00Z,55.27,-77.77,-19.0,-21.0,300,2,,9.0,30.410433,1030.2,,TRUE,,,,,,,,SCT,1600,,,,,,,VFR,,,,,,,,,,,,SPECI,12.0
CYMA 211400Z 36013G21KT 20SM OVC070 M07/M18 A3007 RMK AC8 SLP222,CYMA,2018-03-21T14:00:00Z,63.62,-135.87,-7.0,-18.0,360,13,21,20.0,30.070866,1022.2,,,,,,,,,,OVC,7000,,,,,,,VFR,,,,,,,,,,,,SPECI,504.0
CYLW 211400Z AUTO 01003KT 9SM BKN070 OVC082 01/M01 A2980 RMK SLP105,CYLW,2018-03-21T14:00:00Z,49.95,-119.37,1.0,-1.0,10,3,,9.0,29.799213,1010.5,,TRUE,,,,,,,,BKN,7000,OVC,8200,,,,,VFR,,,,,,,,,,,,SPECI,430.0
CYKA 211400Z 07007KT 40SM FEW080 BKN260 02/M02 A2979 RMK AC2CI3 SLP099,CYKA,2018-03-21T14:00:00Z,50.7,-120.45,2.0,-2.0,70,7,,40.0,29.790354,1009.9,,,,,,,,,,FEW,8000,BKN,26000,,,,,VFR,,,,,,,,,,,,SPECI,346.0
CYIN 211400Z AUTO 11006KT 9SM OVC085 M02/M04 A2967 RMK SLP078,CYIN,2018-03-21T14:00:00Z,51.27,-121.68,-2.0,-4.0,110,6,,9.0,29.66929,1007.8,,TRUE,,,,,,,,OVC,8500,,,,,,,VFR,,,,,,,,,,,,METAR,1128.0
CYDA 211400Z 00000KT 20SM FEW150 M09/M16 A3023 RMK AC1 CLIMAT -1.2/-10.6/0.0 47049 SLP267,CYDA,2018-03-21T14:00:00Z,64.03,-139.12,-9.0,-16.0,0,0,,20.0,30.230314,1026.7,,,,,,,,,,FEW,15000,,,,,,,VFR,,,,,,,,,,,,SPECI,369.0
CYCG 211400Z VRB02KT 15SM BKN100 BKN200 00/M02 A2985 RMK AC5CI2 SLP123,CYCG,2018-03-21T14:00:00Z,49.28,-117.62,0.0,-2.0,0,2,,15.0,29.84941,1012.3,,,,,,,,,,BKN,10000,BKN,20000,,,,,VFR,,,,,,,,,,,,SPECI,495.0
CYCD 211400Z 00000KT 15SM FEW010 SCT150 BKN240 01/01 A2977 RMK SC1AC2CI4 SLP083,CYCD,2018-03-21T14:00:00Z,49.05,-123.87,1.0,1.0,0,0,,15.0,29.769686,1008.3,,,,,,,,,,FEW,1000,SCT,15000,BKN,24000,,,VFR,,,,,,,,,,,,SPECI,30.0
CYBD 211400Z VRB02KT 15SM FEW028 FEW035 SCT060 BKN085 BKN100 03/01 A2974 RMK SC1SC1SC1AC2AC2 SLP074,CYBD,2018-03-21T14:00:00Z,52.37,-126.57,3.0,1.0,0,2,,15.0,29.740158,1007.4,,,,,,,,,,FEW,2800,FEW,3500,SCT,6000,BKN,8500,VFR,,,,,,,,,,,,SPECI,35.0
FDMS 211400Z 01005KT 9999 BKN035 28/20 Q1013 NOSIG,FDMS,2018-03-21T14:00:00Z,-26.52,31.3,28.0,20.0,10,5,,6.21,29.911417,,,,,,TRUE,,,,,BKN,3500,,,,,,,VFR,,,,,,,,,,,,METAR,641.0
OTHH 211400Z AUTO 10006KT CAVOK 26/04 Q1011 NOSIG,OTHH,2018-03-21T14:00:00Z,25.25,51.6,26.0,4.0,100,6,,6.21,29.852362,,,TRUE,,,TRUE,,,,,CAVOK,,,,,,,,VFR,,,,,,,,,,,,METAR,0.0
OTBD 211400Z 10006KT CAVOK 26/13 Q1012 NOSIG,OTBD,2018-03-21T14:00:00Z,25.25,51.57,26.0,13.0,100,6,,6.21,29.88189,,,,,,TRUE,,,,,CAVOK,,,,,,,,VFR,,,,,,,,,,,,METAR,10.0
VTSB 211400Z 36005KT 8000 FEW020 28/24 Q1009,VTSB,2018-03-21T14:00:00Z,9.12,99.13,28.0,24.0,360,5,,4.97,29.793306,,,,,,,,,,,FEW,2000,,,,,,,MVFR,,,,,,,,,,,,METAR,11.0
FBMN 211400Z 31010KT 9999 BKN030 FEW035CB 29/19 Q1014,FBMN,2018-03-21T14:00:00Z,-19.97,23.42,29.0,19.0,310,10,,6.21,29.940945,,,,,,,,,,,BKN,3000,FEW,3500,,,,,MVFR,,,,,,,,,,,,METAR,900.0
VTPP 211400Z 10007KT 5000 HZ FEW030 SCT100 29/18 Q1008,VTPP,2018-03-21T14:00:00Z,16.78,100.28,29.0,18.0,100,7,,3.11,29.763779,,,,,,,,,,HZ,FEW,3000,SCT,10000,,,,,MVFR,,,,,,,,,,,,METAR,44.0
VTUW 211400Z 13005KT 7000 FEW035 SCT050 22/16 Q1013 NOSIG,VTUW,2018-03-21T14:00:00Z,17.38,104.63,22.0,16.0,130,5,,4.35,29.911417,,,,,,TRUE,,,,,FEW,3500,SCT,5000,,,,,MVFR,,,,,,,,,,,,METAR,184.0
VTUV 211400Z 34002KT 6000 FEW030 20/17 Q1012 NOSIG,VTUV,2018-03-21T14:00:00Z,16.12,103.78,20.0,17.0,340,2,,3.73,29.88189,,,,,,TRUE,,,,,FEW,3000,,,,,,,MVFR,,,,,,,,,,,,METAR,138.0
VTUU 211400Z 01005KT 6000 SCT025 BKN100 23/19 Q1012 NOSIG,VTUU,2018-03-21T14:00:00Z,15.25,104.87,23.0,19.0,10,5,,3.73,29.88189,,,,,,TRUE,,,,,SCT,2500,BKN,10000,,,,,MVFR,,,,,,,,,,,,METAR,127.0
VTUK 211400Z 09004KT 040V150 8000 FEW030 23/19 Q1012 NOSIG,VTUK,2018-03-21T14:00:00Z,16.47,102.78,23.0,19.0,90,4,,4.97,29.88189,,,,,,TRUE,,,,,FEW,3000,,,,,,,MVFR,,,,,,,,,,,,METAR,204.0
VTUI 211400Z 11007KT 080V140 9999 SCT040 BKN100 23/16 Q1013 A2992 NOSIG,VTUI,2018-03-21T14:00:00Z,17.2,104.12,23.0,16.0,110,7,,6.21,29.911417,,,,,,TRUE,,,,,SCT,4000,BKN,10000,,,,,VFR,,,,,,,,,,,,METAR,172.0
VTUD 211400Z 10007KT 8000 NSC 24/16 Q1012 NOSIG,VTUD,2018-03-21T14:00:00Z,17.37,102.78,24.0,16.0,100,7,,4.97,29.88189,,,,,,TRUE,,,,,CLR,,,,,,,,MVFR,,,,,,,,,,,,METAR,182.0
FIMR 211400Z 10011KT 9999 SCT017 27/25 Q1013,FIMR,2018-03-21T14:00:00Z,-19.75,63.37,27.0,25.0,100,11,,6.21,29.911417,,,,,,,,,,,SCT,1700,,,,,,,VFR,,,,,,,,,,,,METAR,31.0
CYLU 211400Z 25003KT 190V280 6SM -SN BCFG OVC004 M12/M13 A3018 RMK ST8 SLP228,CYLU,2018-03-21T14:00:00Z,58.72,-65.97,-12.0,-13.0,250,3,,6.0,30.180119,1022.8,,,,,,,,,-SN BCFG,OVC,400,,,,,,,LIFR,,,,,,,,,,,,SPECI,60.0
CYNC 211400Z 36005KT 15SM OVC018 M11/M15 A3036 RMK SC8 SLP283,CYNC,2018-03-21T14:00:00Z,53.02,-78.82,-11.0,-15.0,360,5,,15.0,30.360237,1028.3,,,,,,,,,,OVC,1800,,,,,,,MVFR,,,,,,,,,,,,SPECI,14.0
CYSJ 211400Z 08013KT 15SM FEW020 FEW160 BKN270 00/M09 A2990 RMK SC1AC1CI4 SLP132,CYSJ,2018-03-21T14:00:00Z,45.32,-65.87,0.0,-9.0,80,13,,15.0,29.899607,1013.2,,,,,,,,,,FEW,2000,FEW,16000,BKN,27000,,,VFR,,,,,,,,,,,,SPECI,109.0
CYTQ 211400Z 30014G22KT 15SM DRSN FEW050 FEW100 FEW240 M14/M19 A3025 RMK SC1AC1CI1 SC TR PRESRR SLP248,CYTQ,2018-03-21T14:00:00Z,58.67,-69.95,-14.0,-19.0,300,14,22,15.0,30.250984,1024.8,,,,,,,,,DRSN,FEW,5000,FEW,10000,FEW,24000,,,VFR,,,,,,,,,,,,SPECI,31.0
CYYG 211400Z 04011KT 15SM FEW280 02/M06 A2998 RMK CI2 SLP155,CYYG,2018-03-21T14:00:00Z,46.27,-63.12,2.0,-6.0,40,11,,15.0,29.97933,1015.5,,,,,,,,,,FEW,28000,,,,,,,VFR,,,,,,,,,,,,SPECI,54.0
CWAE 211400Z 00000KT 15SM FEW130 M02/M03 A2974 RMK AC1 WND ESTD SLP089,CWAE,2018-03-21T14:00:00Z,50.13,-122.95,-2.0,-3.0,0,0,,15.0,29.740158,1008.9,,,,,,,,,,FEW,13000,,,,,,,VFR,,,,,,,,,,,,METAR,658.0
CWCA 211400Z 31011G16KT 15SM OVC018 M02/M04 A2981 RMK SC8 SLP097,CWCA,2018-03-21T14:00:00Z,53.7,-57.02,-2.0,-4.0,310,11,16,15.0,29.811024,1009.7,,,,,,,,,,OVC,1800,,,,,,,MVFR,,,,,,,,,,,,SPECI,14.0
CWKM 211400Z AUTO 26022G27KT M21/ A3068 RMK SLP397,CWKM,2018-03-21T14:00:00Z,69.6,-140.17,-21.0,,260,22,27,,30.679134,1039.7,,TRUE,,,,,,,,,,,,,,,,,,,,,,,,,,,,SPECI,13.0
CWIL 211400Z AUTO 29015KT ////SM NCD ///// A////,CWIL,2018-03-21T14:00:00Z,68.32,-100.07,,,290,15,,,,,,TRUE,,,,,,,,CLR,,,,,,,,,,,,,,,,,,,,SPECI,36.0
SBPV 211400Z 22001KT 5000 RA BKN010 BKN025 24/23 Q1013,SBPV,2018-03-21T14:00:00Z,-8.72,-63.9,24.0,23.0,220,1,,3.11,29.911417,,,,,,,,,,RA,BKN,1000,BKN,2500,,,,,MVFR,,,,,,,,,,,,METAR,88.0
CWLI 211400Z AUTO 31015KT ////SM //// NCD M22/M24 A3049,CWLI,2018-03-21T14:00:00Z,69.58,-130.9,-22.0,-24.0,310,15,,,30.490158,,,TRUE,,,,,,,,CLR,,,,,,,,,,,,,,,,,,,,SPECI,102.0
CWKW 211400Z AUTO ///// A2990,CWKW,2018-03-21T14:00:00Z,59.97,-64.17,,,,,,,29.899607,,,TRUE,,,,,,,,,,,,,,,,,,,,,,,,,,,,SPECI,551.0
CWLY 211400Z AUTO 17003KT 9SM SCT085 01/M01 A2980 RMK SLP098,CWLY,2018-03-21T14:00:00Z,50.22,-121.58,1.0,-1.0,170,3,,9.0,29.799213,1009.8,,TRUE,,,,,,,,SCT,8500,,,,,,,VFR,,,,,,,,,,,,SPECI,229.0
CWOB 211400Z AUTO 23009KT ////SM //// NCD M15/M19 A2986,CWOB,2018-03-21T14:00:00Z,63.32,-64.15,-15.0,-19.0,230,9,,,29.861221,,,TRUE,,,,,,,,CLR,,,,,,,,,,,,,,,,,,,,SPECI,367.0
CWRX 211400Z AUTO 31012KT ////SM //// ////// M29/M32 A3016,CWRX,2018-03-21T14:00:00Z,69.07,-79.02,-29.0,-32.0,310,12,,,30.159449,,,TRUE,,,,,,,,,,,,,,,,,,,,,,,,,,,,SPECI,41.0
CWPX 211400Z AUTO ///// ////SM //// FEW002 M32/M37 A3053,CWPX,2018-03-21T14:00:00Z,69.02,-107.82,-32.0,-37.0,,,,,30.528543,,,TRUE,,,,,,,,FEW,200,,,,,,,,,,,,,,,,,,,METAR,165.0
CWSW 211400Z 36004KT 20SM BKN057 BKN220 M02/M05 A2991 RMK CU5CC2 FROIN SLP165,CWSW,2018-03-21T14:00:00Z,49.75,-114.87,-2.0,-5.0,360,4,,20.0,29.911417,1016.5,,,,,,,,,,BKN,5700,BKN,22000,,,,,VFR,,,,,,,,,,,,SPECI,1138.0
CWUP 211400Z AUTO ///// M23/ A2980 RMK SLP144,CWUP,2018-03-21T14:00:00Z,68.47,-66.82,-23.0,,,,,,29.799213,1014.4,,TRUE,,,,,,,,,,,,,,,,,,,,,,,,,,,,SPECI,390.0
CWVH 211400Z AUTO 28015KT M21/ A3050 RMK SLP367,CWVH,2018-03-21T14:00:00Z,68.9,-133.93,-21.0,,280,15,,,30.499016,1036.7,,TRUE,,,,,,,,,,,,,,,,,,,,,,,,,,,,SPECI,261.0
CWZZ 211400Z AUTO ///// ////SM //// OVC020 M10/M11 A2985,CWZZ,2018-03-21T14:00:00Z,58.32,-62.57,-10.0,-11.0,,,,,29.84941,,,TRUE,,,,,,,,OVC,2000,,,,,,,,,,,,,,,,,,,SPECI,483.0
CZBF 211400Z 08005KT 020V090 15SM FEW140 FEW220 M01/M09 A3002 RMK AC1CI1 AC TR CI TR SLP171,CZBF,2018-03-21T14:00:00Z,47.62,-65.75,-1.0,-9.0,80,5,,15.0,30.02067,1017.1,,,,,,,,,,FEW,14000,FEW,22000,,,,,VFR,,,,,,,,,,,,SPECI,59.0
CZCP 211400Z AUTO 13003KT ////SM //// NCD M22/M25 A3049,CZCP,2018-03-21T14:00:00Z,70.17,-124.72,-22.0,-25.0,130,3,,,30.490158,,,TRUE,,,,,,,,CLR,,,,,,,,,,,,,,,,,,,,SPECI,93.0
CZST 211400Z VRB02KT 15SM SCT090 BKN200 M03/M03 A2985 RMK AS4CI2 FROIN SLP108,CZST,2018-03-21T14:00:00Z,55.93,-129.98,-3.0,-3.0,0,2,,15.0,29.84941,1010.8,,,,,,,,,,SCT,9000,BKN,20000,,,,,VFR,,,,,,,,,,,,SPECI,7.0
CWVD 211400Z AUTO 35005KT M21/ A2972 RMK SLP141,CWVD,2018-03-21T14:00:00Z,67.52,-63.77,-21.0,,350,5,,,29.719488,1014.1,,TRUE,,,,,,,,,,,,,,,,,,,,,,,,,,,,SPECI,573.0
CYBW 211400Z AUTO 30005KT 9SM OVC085 M03/M07 A2977 RMK SLP131,CYBW,2018-03-21T14:00:00Z,51.1,-114.37,-3.0,-7.0,300,5,,9.0,29.769686,1013.1,,TRUE,,,,,,,,OVC,8500,,,,,,,VFR,,,,,,,,,,,,SPECI,1200.0
CYCY 211400Z 27002KT 25SM FEW030 FEW180 M32/M35 A3000 RMK SC1AC1 SC TR AC TR SLP164,CYCY,2018-03-21T14:00:00Z,70.47,-68.52,-32.0,-35.0,270,2,,25.0,30.0,1016.4,,,,,,,,,,FEW,3000,FEW,18000,,,,,VFR,,,,,,,,,,,,SPECI,26.0
CYED 211400Z AUTO 00000KT 9SM BKN022 M02/M05 A2984 RMK SLP133,CYED,2018-03-21T14:00:00Z,53.67,-113.47,-2.0,-5.0,0,0,,9.0,29.840551,1013.3,,TRUE,,,,,,,,BKN,2200,,,,,,,MVFR,,,,,,,,,,,,SPECI,688.0
CYLT 211400Z 34021KT 1/8SM -SN +BLSN VV002 M28/M33 A3009 RMK SN8 SLP196,CYLT,2018-03-21T14:00:00Z,82.52,-62.27,-28.0,-33.0,340,21,,0.13,30.088583,1019.6,,,,,,,,,-SN +BLSN,OVX,0,,,,,,,LIFR,,,,,,,,,,,200,SPECI,31.0
CYMJ 211400Z 15002KT 10SM SKC M08/M09 A2993 RMK SLP166,CYMJ,2018-03-21T14:00:00Z,50.32,-105.53,-8.0,-9.0,150,2,,10.0,29.929134,1016.6,,,,,,,,,,SKC,,,,,,,,VFR,,,,,,,,,,,,SPECI,577.0
CYSM 211400Z 36006KT 15SM FEW022 M20/M24 A3025 RMK SC1 SC TR SLP269,CYSM,2018-03-21T14:00:00Z,60.03,-111.97,-20.0,-24.0,360,6,,15.0,30.250984,1026.9,,,,,,,,,,FEW,2200,,,,,,,VFR,,,,,,,,,,,,SPECI,203.0
CYUB 211400Z 25006KT 15SM SKC M29/M32 A3061 RMK SLP367,CYUB,2018-03-21T14:00:00Z,69.45,-133.02,-29.0,-32.0,250,6,,15.0,30.611221,1036.7,,,,,,,,,,SKC,,,,,,,,VFR,,,,,,,,,,,,SPECI,5.0
RJNK 211400Z VRB02KT 2500 RA BR SCT003 BKN010 BKN020 05/05 Q1003,RJNK,2018-03-21T14:00:00Z,36.37,136.42,5.0,5.0,0,2,,1.55,29.616142,,,,,,,,,,RA BR,SCT,300,BKN,1000,BKN,2000,,,IFR,,,,,,,,,,,,METAR,9.0
RJOH 211400Z 08013KT 9999 -SHRA FEW006 SCT008 BKN015 08/05 Q1002,RJOH,2018-03-21T14:00:00Z,35.47,133.25,8.0,5.0,80,13,,6.21,29.586615,,,,,,,,,,-SHRA,FEW,600,SCT,800,BKN,1500,,,MVFR,,,,,,,,,,,,METAR,9.0
RJFR 211400Z 32020KT 9999 FEW010 SCT030 BKN080 09/06 Q1003,RJFR,2018-03-21T14:00:00Z,33.82,131.03,9.0,6.0,320,20,,6.21,29.616142,,,,,,,,,,,FEW,1000,SCT,3000,BKN,8000,,,VFR,,,,,,,,,,,,METAR,6.0
ZYHB 211400Z 17003MPS CAVOK M00/M08 Q1015 NOSIG,ZYHB,2018-03-21T14:00:00Z,45.62,126.25,0.0,-8.0,170,6,,6.21,29.970472,,,,,,TRUE,,,,,CAVOK,,,,,,,,VFR,,,,,,,,,,,,METAR,140.0
ZYCC 211400Z 00000MPS 6000 NSC M03/M10 Q1016 NOSIG,ZYCC,2018-03-21T14:00:00Z,43.98,125.68,-3.0,-10.0,0,0,,3.73,30.0,,,,,,TRUE,,,,,CLR,,,,,,,,MVFR,,,,,,,,,,,,METAR,238.0
ZUCK 211400Z VRB01MPS CAVOK 17/09 Q1019 NOSIG,ZUCK,2018-03-21T14:00:00Z,29.72,106.63,17.0,9.0,0,2,,6.21,30.088583,,,,,,TRUE,,,,,CAVOK,,,,,,,,VFR,,,,,,,,,,,,METAR,416.0
ZSOF 211400Z 00000MPS CAVOK 08/02 Q1021 NOSIG,ZSOF,2018-03-21T14:00:00Z,31.98,116.97,8.0,2.0,0,0,,6.21,30.147638,,,,,,TRUE,,,,,CAVOK,,,,,,,,VFR,,,,,,,,,,,,METAR,63.0
ZSNJ 211400Z VRB01MPS 5000 BR BKN040 05/05 Q1021 NOSIG,ZSNJ,2018-03-21T14:00:00Z,31.75,118.87,5.0,5.0,0,2,,3.11,30.147638,,,,,,TRUE,,,,BR,BKN,4000,,,,,,,MVFR,,,,,,,,,,,,METAR,33.0
ZLLL 211400Z 34003MPS CAVOK 02/M06 Q1021 NOSIG,ZLLL,2018-03-21T14:00:00Z,36.52,103.62,2.0,-6.0,340,6,,6.21,30.147638,,,,,,TRUE,,,,,CAVOK,,,,,,,,VFR,,,,,,,,,,,,METAR,1947.0
ZJSY 211400Z 09003MPS 9999 SCT017 BKN033 22/17 Q1016 NOSIG,ZJSY,2018-03-21T14:00:00Z,18.3,109.42,22.0,17.0,90,6,,6.21,30.0,,,,,,TRUE,,,,,SCT,1700,BKN,3300,,,,,VFR,,,,,,,,,,,,METAR,27.0
ZJHK 211400Z 18001MPS CAVOK 14/13 Q1017 NOSIG,ZJHK,2018-03-21T14:00:00Z,19.93,110.47,14.0,13.0,180,2,,6.21,30.029528,,,,,,TRUE,,,,,CAVOK,,,,,,,,VFR,,,,,,,,,,,,METAR,23.0
ZHHH 211400Z 24001MPS CAVOK 10/05 Q1021 NOSIG,ZHHH,2018-03-21T14:00:00Z,30.78,114.22,10.0,5.0,240,2,,6.21,30.147638,,,,,,TRUE,,,,,CAVOK,,,,,,,,VFR,,,,,,,,,,,,METAR,33.0
ZHCC 211400Z 19002MPS 160V220 CAVOK 08/M04 Q1019 NOSIG,ZHCC,2018-03-21T14:00:00Z,34.52,113.83,8.0,-4.0,190,4,,6.21,30.088583,,,,,,TRUE,,,,,CAVOK,,,,,,,,VFR,,,,,,,,,,,,METAR,151.0
ZGHA 211400Z VRB01MPS 5000 BR NSC 08/06 Q1022 NOSIG,ZGHA,2018-03-21T14:00:00Z,28.18,113.22,8.0,6.0,0,2,,3.11,30.177166,,,,,,TRUE,,,,BR,CLR,,,,,,,,MVFR,,,,,,,,,,,,METAR,66.0
ZBHH 211400Z 08002MPS 6000 FEW040 02/01 Q1017 NOSIG,ZBHH,2018-03-21T14:00:00Z,40.85,111.82,2.0,1.0,80,4,,3.73,30.029528,,,,,,TRUE,,,,,FEW,4000,,,,,,,MVFR,,,,,,,,,,,,METAR,1065.0
DTTZ 211400Z 33010KT 9999 SCT030 SCT033 13/03 Q1010 NOSIG,DTTZ,2018-03-21T14:00:00Z,33.92,8.08,13.0,3.0,330,10,,6.21,29.822834,,,,,,TRUE,,,,,SCT,3000,SCT,3300,,,,,VFR,,,,,,,,,,,,METAR,93.0
DTTX 211400Z 34013G23KT 310V040 9999 FEW020 16/02 Q1009,DTTX,2018-03-21T14:00:00Z,34.72,10.67,16.0,2.0,340,13,23,6.21,29.793306,,,,,,,,,,,FEW,2000,,,,,,,VFR,,,,,,,,,,,,METAR,23.0
DTTF 211400Z 32016KT 9999 SCT026 BKN030 10/03 Q1010 NOSIG,DTTF,2018-03-21T14:00:00Z,34.42,8.82,10.0,3.0,320,16,,6.21,29.822834,,,,,,TRUE,,,,,SCT,2600,BKN,3000,,,,,MVFR,,,,,,,,,,,,METAR,314.0
DTKA 211400Z 27012KT 9999 SCT020 BKN030 11/05 Q1011 NOSIG,DTKA,2018-03-21T14:00:00Z,36.98,8.88,11.0,5.0,270,12,,6.21,29.852362,,,,,,TRUE,,,,,SCT,2000,BKN,3000,,,,,MVFR,,,,,,,,,,,,METAR,21.0
BIBD 211400Z 09011KT 9999 SCT020 OVC025 03/00 Q1001,BIBD,2018-03-21T14:00:00Z,65.63,-23.55,3.0,0.0,90,11,,6.21,29.557087,,,,,,,,,,,SCT,2000,OVC,2500,,,,,MVFR,,,,,,,,,,,,METAR,6.0
DTTG 211400Z 05014KT 8000 FEW020 BKN030 16/M01 Q1009 NOSIG,DTTG,2018-03-21T14:00:00Z,33.73,9.92,16.0,-1.0,50,14,,4.97,29.793306,,,,,,TRUE,,,,,FEW,2000,BKN,3000,,,,,MVFR,,,,,,,,,,,,METAR,5.0
DTTR 211400Z 01017KT 6000 SCT030 23/07 Q1005,DTTR,2018-03-21T14:00:00Z,31.7,9.27,23.0,7.0,10,17,,3.73,29.675198,,,,,,,,,,,SCT,3000,,,,,,,MVFR,,,,,,,,,,,,METAR,259.0
DTTN 211400Z VRB02KT 9999 SCT020 SCT030 10/05 Q1011,DTTN,2018-03-21T14:00:00Z,36.47,8.8,10.0,5.0,0,2,,6.21,29.852362,,,,,,,,,,,SCT,2000,SCT,3000,,,,,VFR,,,,,,,,,,,,METAR,144.0
DTTK 211400Z 33006KT 9999 SCT023 BKN030 11/07 Q1011,DTTK,2018-03-21T14:00:00Z,35.67,10.08,11.0,7.0,330,6,,6.21,29.852362,,,,,,,,,,,SCT,2300,BKN,3000,,,,,MVFR,,,,,,,,,,,,METAR,68.0
DTTD 211400Z 08014KT 030V130 5000 BKN026 16/07 Q1006,DTTD,2018-03-21T14:00:00Z,32.32,10.4,16.0,7.0,80,14,,3.11,29.704725,,,,,,,,,,,BKN,2600,,,,,,,MVFR,,,,,,,,,,,,METAR,301.0
DTTB 211400Z 29009KT 260V320 6000 SCT016TCU FEW023CB BKN030 10/07 Q1011,DTTB,2018-03-21T14:00:00Z,37.25,9.8,10.0,7.0,290,9,,3.73,29.852362,,,,,,,,,,,SCT,1600,FEW,2300,BKN,3000,,,MVFR,,,,,,,,,,,,METAR,3.0
SLET 211400Z 15015KT 9999 SCT025 BKN070 BKN200 26/17 Q1017,SLET,2018-03-21T14:00:00Z,-17.8,-63.17,26.0,17.0,150,15,,6.21,30.029528,,,,,,,,,,,SCT,2500,BKN,7000,BKN,20000,,,VFR,,,,,,,,,,,,METAR,414.0
FAVV 211400Z AUTO /////KT //// // ////// 20/15 Q1020,FAVV,2018-03-21T14:00:00Z,-26.57,27.97,20.0,15.0,,,,,30.11811,,,TRUE,,,,,,,,,,,,,,,,,,,,,,,,,,,,METAR,1483.0
FAJB 211400Z AUTO 26003KT //// // ////// 25/14 Q1020,FAJB,2018-03-21T14:00:00Z,-26.15,28.0,25.0,14.0,260,3,,,30.11811,,,TRUE,,,,,,,,,,,,,,,,,,,,,,,,,,,,METAR,1626.0
TTCP 211400Z 09017KT 9999 FEW020 29/23 Q1015 NOSIG,TTCP,2018-03-21T14:00:00Z,11.15,-60.85,29.0,23.0,90,17,,6.21,29.970472,,,,,,TRUE,,,,,FEW,2000,,,,,,,VFR,,,,,,,,,,,,METAR,8.0
TTPP 211400Z 11016KT 9999 4000NW SHRA SCT018 27/24 Q1015 NOSIG,TTPP,2018-03-21T14:00:00Z,10.58,-61.35,27.0,24.0,110,16,,6.21,29.970472,,,,,,TRUE,,,,SHRA,SCT,1800,,,,,,,VFR,,,,,,,,,,,,METAR,15.0
KSBD 211400Z 00000KT 7SM SCT080 BKN150 10/04 A3001,KSBD,2018-03-21T14:00:00Z,34.08,-117.25,10.0,4.0,0,0,,7.0,30.008858,,,,,,,,,,,SCT,8000,BKN,15000,,,,,VFR,,,,,,,,,,,,METAR,353.0
FDSK 211400Z 05015KT 9999 SCT035 FEW040TCU 32/18 Q1010 RMK CB TO N,FDSK,2018-03-21T14:00:00Z,-26.35,31.72,32.0,18.0,50,15,,6.21,29.822834,,,,,,,,,,,SCT,3500,FEW,4000,,,,,VFR,,,,,,,,,,,,METAR,324.0
FQIN 211400Z 05010KT 9999 FEW025 30/23 Q1012,FQIN,2018-03-21T14:00:00Z,-23.87,35.37,30.0,23.0,50,10,,6.21,29.88189,,,,,,,,,,,FEW,2500,,,,,,,VFR,,,,,,,,,,,,METAR,15.0
GOSS 211400Z 06004KT CAVOK 35/08 Q1012,GOSS,2018-03-21T14:00:00Z,16.05,-16.43,35.0,8.0,60,4,,6.21,29.88189,,,,,,,,,,,CAVOK,,,,,,,,VFR,,,,,,,,,,,,METAR,4.0
GOOY 211400Z 36012KT 7000 NSC 23/16 Q1013,GOOY,2018-03-21T14:00:00Z,14.72,-17.5,23.0,16.0,360,12,,4.35,29.911417,,,,,,,,,,,CLR,,,,,,,,MVFR,,,,,,,,,,,,METAR,24.0
MPTO 211400Z 00000KT 9000 FEW018 30/21 Q1011 NOSIG,MPTO,2018-03-21T14:00:00Z,9.05,-79.37,30.0,21.0,0,0,,5.59,29.852362,,,,,,TRUE,,,,,FEW,1800,,,,,,,VFR,,,,,,,,,,,,METAR,45.0
TKPN 211400Z 09010KT 9999 SCT022 29/21 Q1018,TKPN,2018-03-21T14:00:00Z,17.18,-62.57,29.0,21.0,90,10,,6.21,30.059055,,,,,,,,,,,SCT,2200,,,,,,,VFR,,,,,,,,,,,,METAR,17.0
OLBA 211400Z 32005KT 280V340 8000 FEW200 22/13 Q1020 NOSIG,OLBA,2018-03-21T14:00:00Z,33.82,35.47,22.0,13.0,320,5,,4.97,30.11811,,,,,,TRUE,,,,,FEW,20000,,,,,,,MVFR,,,,,,,,,,,,METAR,19.0
SBPA 211400Z 26004KT 200V310 9999 BKN019 22/17 Q1017,SBPA,2018-03-21T14:00:00Z,-30.0,-51.17,22.0,17.0,260,4,,6.21,30.029528,,,,,,,,,,,BKN,1900,,,,,,,MVFR,,,,,,,,,,,,METAR,3.0
TQPF 211400Z 11017KT 9999 SCT018 26/21 Q1019,TQPF,2018-03-21T14:00:00Z,18.18,-63.03,26.0,21.0,110,17,,6.21,30.088583,,,,,,,,,,,SCT,1800,,,,,,,VFR,,,,,,,,,,,,METAR,31.0
RPLL 211400Z 11007KT 070V150 9000 FEW023 SCT100 28/24 Q1010 NOSIG RMK A2983,RPLL,2018-03-21T14:00:00Z,14.52,121.0,28.0,24.0,110,7,,5.59,29.822834,,,,,,TRUE,,,,,FEW,2300,SCT,10000,,,,,VFR,,,,,,,,,,,,METAR,21.0
RPLB 211400Z 08008KT 9999 FEW020 BKN080 27/21 Q1009 RMK A2980,RPLB,2018-03-21T14:00:00Z,14.8,120.27,27.0,21.0,80,8,,6.21,29.793306,,,,,,,,,,,FEW,2000,BKN,8000,,,,,VFR,,,,,,,,,,,,METAR,17.0
RPMD 211400Z 02003KT 9999 FEW016 BKN290 27/21 Q1009 RMK A2980,RPMD,2018-03-21T14:00:00Z,7.12,125.65,27.0,21.0,20,3,,6.21,29.793306,,,,,,,,,,,FEW,1600,BKN,29000,,,,,VFR,,,,,,,,,,,,METAR,18.0
RPVM 211400Z VRB02KT8000 -SHRA SCT020 OVC090 26/23 Q1010 RMK A2983,RPVM,2018-03-21T14:00:00Z,10.32,123.98,26.0,23.0,,,,4.97,29.822834,,,,,,,,,,-SHRA,SCT,2000,OVC,9000,,,,,MVFR,,,,,,,,,,,,METAR,10.0
ORBI 211400Z 32016KT CAVOK 28/02 Q1015 NOSIG,ORBI,2018-03-21T14:00:00Z,33.27,44.23,28.0,2.0,320,16,,6.21,29.970472,,,,,,TRUE,,,,,CAVOK,,,,,,,,VFR,,,,,,,,,,,,METAR,35.0
SBMA 211400Z 05005KT 9999 SCT017 34/25 Q1013,SBMA,2018-03-21T14:00:00Z,-5.37,-49.13,34.0,25.0,50,5,,6.21,29.911417,,,,,,,,,,,SCT,1700,,,,,,,VFR,,,,,,,,,,,,METAR,102.0
TKPK 211400Z 09008KT 9999 FEW019 29/22 Q1018,TKPK,2018-03-21T14:00:00Z,17.3,-62.72,29.0,22.0,90,8,,6.21,30.059055,,,,,,,,,,,FEW,1900,,,,,,,VFR,,,,,,,,,,,,METAR,48.0
SBFI 211400Z 12003KT 9999 SCT014 SCT100 25/21 Q1015,SBFI,2018-03-21T14:00:00Z,-25.6,-54.48,25.0,21.0,120,3,,6.21,29.970472,,,,,,,,,,,SCT,1400,SCT,10000,,,,,VFR,,,,,,,,,,,,METAR,243.0
CYUS 211400Z AUTO VRB07KT ////SM //// NCD M37/M42 A3037,CYUS,2018-03-21T14:00:00Z,68.82,-93.42,-37.0,-42.0,0,7,,,30.369095,,,TRUE,,,,,,,,CLR,,,,,,,,,,,,,,,,,,,,SPECI,42.0
CYVT 211400Z 02005KT 350V060 15SM FEW008 OVC030 M03/M05 A2995 RMK SF1SC8 SF TR SLP169,CYVT,2018-03-21T14:00:00Z,55.82,-108.42,-3.0,-5.0,20,5,,15.0,29.949802,1016.9,,,,,,,,,,FEW,800,OVC,3000,,,,,MVFR,,,,,,,,,,,,SPECI,434.0
CYUX 211400Z 31010KT 15SM SKC M34/M38 A3021 RMK SLP233,CYUX,2018-03-21T14:00:00Z,68.77,-81.25,-34.0,-38.0,310,10,,15.0,30.209646,1023.3,,,,,,,,,,SKC,,,,,,,,VFR,,,,,,,,,,,,SPECI,8.0
CYZU 211400Z 00000KT 1/8SM FZFG VV001 M02/M02 A2983 RMK FG8 ICE ON INDICATOR SLP136,CYZU,2018-03-21T14:00:00Z,54.15,-115.78,-2.0,-2.0,0,0,,0.13,29.828741,1013.6,,,,,,,,,FZFG,OVX,0,,,,,,,LIFR,,,,,,,,,,,100,SPECI,785.0
CYXH 211400Z 23006KT 30SM SCT270 M02/M05 A2982 RMK CI3 SLP128,CYXH,2018-03-21T14:00:00Z,50.02,-110.72,-2.0,-5.0,230,6,,30.0,29.819881,1012.8,,,,,,,,,,SCT,27000,,,,,,,VFR,,,,,,,,,,,,SPECI,716.0
CYBK 211400Z 33018KT 4SM IC DRSN SKC M33/M37 A3051 RMK SLP337,CYBK,2018-03-21T14:00:00Z,64.28,-96.07,-33.0,-37.0,330,18,,4.0,30.510826,1033.7,,,,,,,,,IC DRSN,SKC,,,,,,,,MVFR,,,,,,,,,,,,SPECI,18.0
CYBQ 211400Z AUTO 06009KT 9SM -SN BKN044 OVC055 M13/M15 A3010 RMK SLP221,CYBQ,2018-03-21T14:00:00Z,58.7,-98.5,-13.0,-15.0,60,9,,9.0,30.100393,1022.1,,TRUE,,,,,,,-SN,BKN,4400,OVC,5500,,,,,VFR,,,,,,,,,,,,METAR,262.0
CYBR 211400Z 07006KT 2SM -SN BR OVC003 M04/M04 A3003 RMK ST8 SLP197,CYBR,2018-03-21T14:00:00Z,49.92,-99.95,-4.0,-4.0,70,6,,2.0,30.029528,1019.7,,,,,,,,,-SN BR,OVC,300,,,,,,,LIFR,,,,,,,,,,,,METAR,409.0
SCVM 211400Z 35006KT 7000 OVC011 13/12 Q1014,SCVM,2018-03-21T14:00:00Z,-32.95,-71.48,13.0,12.0,350,6,,4.35,29.940945,,,,,,,,,,,OVC,1100,,,,,,,MVFR,,,,,,,,,,,,METAR,141.0
SBCJ 211400Z 06004KT 7000 SCT009 SCT020 26/21 Q1017,SBCJ,2018-03-21T14:00:00Z,-6.12,-50.0,26.0,21.0,60,4,,4.35,30.029528,,,,,,,,,,,SCT,900,SCT,2000,,,,,MVFR,,,,,,,,,,,,METAR,621.0
OEDR 211400Z 07011KT CAVOK 27/09 Q1010 NOSIG,OEDR,2018-03-21T14:00:00Z,26.27,50.17,27.0,9.0,70,11,,6.21,29.822834,,,,,,TRUE,,,,,CAVOK,,,,,,,,VFR,,,,,,,,,,,,METAR,17.0
OEDF 211400Z 07013KT CAVOK 29/05 Q1011 NOSIG,OEDF,2018-03-21T14:00:00Z,26.47,49.8,29.0,5.0,70,13,,6.21,29.852362,,,,,,TRUE,,,,,CAVOK,,,,,,,,VFR,,,,,,,,,,,,METAR,22.0
OEJN 211400Z 28008KT CAVOK 30/19 Q1009 NOSIG,OEJN,2018-03-21T14:00:00Z,21.68,39.15,30.0,19.0,280,8,,6.21,29.793306,,,,,,TRUE,,,,,CAVOK,,,,,,,,VFR,,,,,,,,,,,,METAR,15.0
OEMA 211400Z 30007KT CAVOK 36/M06 Q1015 NOSIG,OEMA,2018-03-21T14:00:00Z,24.55,39.7,36.0,-6.0,300,7,,6.21,29.970472,,,,,,TRUE,,,,,CAVOK,,,,,,,,VFR,,,,,,,,,,,,METAR,631.0
OERK 211400Z 34011KT 9000 NSC 36/M02 Q1014 NOSIG,OERK,2018-03-21T14:00:00Z,24.95,46.72,36.0,-2.0,340,11,,5.59,29.940945,,,,,,TRUE,,,,,CLR,,,,,,,,VFR,,,,,,,,,,,,METAR,612.0
UBBY 211400Z 32008KT 9999 BKN100 15/05 Q1016 R33/////// NOSIG RMK MT OP,UBBY,2018-03-21T14:00:00Z,41.57,46.67,15.0,5.0,320,8,,6.21,30.0,,,,,,TRUE,,,,,BKN,10000,,,,,,,VFR,,,,,,,,,,,,METAR,390.0
RPLC 211400Z 34004KT 9999 FEW020 BKN300 26/22 Q1012 NOSIG RMK A2988,RPLC,2018-03-21T14:00:00Z,15.17,120.58,26.0,22.0,340,4,,6.21,29.88189,,,,,,TRUE,,,,,FEW,2000,BKN,30000,,,,,VFR,,,,,,,,,,,,METAR,196.0
SBUG 211400Z 12011KT CAVOK 22/12 Q1018,SBUG,2018-03-21T14:00:00Z,-29.77,-57.02,22.0,12.0,120,11,,6.21,30.059055,,,,,,,,,,,CAVOK,,,,,,,,VFR,,,,,,,,,,,,METAR,74.0
MWCB 211400Z 05003KT 9999 FEW022 27/23 Q1016,MWCB,2018-03-21T14:00:00Z,19.68,-79.88,27.0,23.0,50,3,,6.21,30.0,,,,,,,,,,,FEW,2200,,,,,,,VFR,,,,,,,,,,,,METAR,2.0
MWCR 211400Z 03007KT 9999 SCT020 28/24 Q1016,MWCR,2018-03-21T14:00:00Z,19.3,-81.37,28.0,24.0,30,7,,6.21,30.0,,,,,,,,,,,SCT,2000,,,,,,,VFR,,,,,,,,,,,,METAR,3.0
SPHI 211400Z 18007KT 9999 FEW025 BKN040 22/19 Q1011 RMK BIRD HAZARD RWY 19/01 PP000,SPHI,2018-03-21T14:00:00Z,-6.77,-79.82,22.0,19.0,180,7,,6.21,29.852362,,,,,,,,,,,FEW,2500,BKN,4000,,,,,VFR,,,,,,,,,,,,METAR,34.0
SBJP 211400Z 09009KT 050V140 9999 BKN032 31/21 Q1013,SBJP,2018-03-21T14:00:00Z,-7.15,-34.95,31.0,21.0,90,9,,6.21,29.911417,,,,,,,,,,,BKN,3200,,,,,,,VFR,,,,,,,,,,,,METAR,66.0
CYET 211400Z AUTO 00000KT 3/8SM FZFG VV003 M01/M01 A2981 RMK SLP129,CYET,2018-03-21T14:00:00Z,53.57,-116.47,-1.0,-1.0,0,0,,0.38,29.811024,1012.9,,TRUE,,,,,,,FZFG,OVX,0,,,,,,,LIFR,,,,,,,,,,,300,SPECI,925.0
CYKJ 211400Z AUTO 31006KT 2 1/2SM -SN BKN013 OVC032 M08/M09 A2992 RMK VIS VRB 2 1/4-3 SLP168,CYKJ,2018-03-21T14:00:00Z,57.25,-105.62,-8.0,-9.0,310,6,,2.5,29.920275,1016.8,,TRUE,,,,,,,-SN,BKN,1300,OVC,3200,,,,,IFR,,,,,,,,,,,,SPECI,509.0
CYLL 211400Z 16004KT 8SM SCT070 BKN090 OVC240 M05/M06 A2985 RMK AC3AC3CI2 BR SLP146,CYLL,2018-03-21T14:00:00Z,53.32,-110.07,-5.0,-6.0,160,4,,8.0,29.84941,1014.6,,,,,,,,,,SCT,7000,BKN,9000,OVC,24000,,,VFR,,,,,,,,,,,,SPECI,669.0
CYMM 211400Z AUTO 02007KT 9SM OVC015 M03/M06 A3002 RMK SLP189,CYMM,2018-03-21T14:00:00Z,56.65,-111.22,-3.0,-6.0,20,7,,9.0,30.02067,1018.9,,TRUE,,,,,,,,OVC,1500,,,,,,,MVFR,,,,,,,,,,,,SPECI,369.0
CYOJ 211400Z 36012G17KT 15SM SCT025 M15/M18 A3012 RMK SC3 SLP228,CYOJ,2018-03-21T14:00:00Z,58.62,-117.17,-15.0,-18.0,360,12,17,15.0,30.121063,1022.8,,,,,,,,,,SCT,2500,,,,,,,VFR,,,,,,,,,,,,SPECI,338.0
CYPA 211400Z 06002KT 0SM R08/0800FT/N FZFG VV001 M08/M10 A2996 RMK FG8 SLP175,CYPA,2018-03-21T14:00:00Z,53.22,-105.67,-8.0,-10.0,60,2,,0.0,29.958662,1017.5,,,,,,,,,FZFG,OVX,0,,,,,,,LIFR,,,,,,,,,,,100,SPECI,428.0
CYPG 211400Z 11005KT 6SM BR BKN004 OVC029 M04/M04 A3007 RMK SF5SC3 SLP200,CYPG,2018-03-21T14:00:00Z,49.88,-98.27,-4.0,-4.0,110,5,,6.0,30.070866,1020.0,,,,,,,,,BR,BKN,400,OVC,2900,,,,,LIFR,,,,,,,,,,,,SPECI,269.0
CYQL 211400Z 22007KT 60SM FEW190 BKN270 M01/M05 A2980 RMK AC2CI4 SLP127,CYQL,2018-03-21T14:00:00Z,49.63,-112.8,-1.0,-5.0,220,7,,60.0,29.799213,1012.7,,,,,,,,,,FEW,19000,BKN,27000,,,,,VFR,,,,,,,,,,,,SPECI,929.0
CYQR 211400Z 13007KT 4SM BR SCT002 M09/M10 A2994 RMK SF3 SLP177,CYQR,2018-03-21T14:00:00Z,50.43,-104.67,-9.0,-10.0,130,7,,4.0,29.940945,1017.7,,,,,,,,,BR,SCT,200,,,,,,,MVFR,,,,,,,,,,,,SPECI,577.0
CYVC 211400Z 26005KT 12SM SCT033 M03/M04 A2994 RMK SC3 BR SLP162,CYVC,2018-03-21T14:00:00Z,55.15,-105.27,-3.0,-4.0,260,5,,12.0,29.940945,1016.2,,,,,,,,,,SCT,3300,,,,,,,VFR,,,,,,,,,,,,SPECI,379.0
CYGX 211400Z 00000KT 15SM FEW120 M13/M21 A3012 RMK AS1 AS TR SLP216,CYGX,2018-03-21T14:00:00Z,56.35,-94.7,-13.0,-21.0,0,0,,15.0,30.121063,1021.6,,,,,,,,,,FEW,12000,,,,,,,VFR,,,,,,,,,,,,SPECI,145.0
CYYL 211400Z AUTO 11005KT 9SM -SN SCT022 BKN027 OVC036 M04/M06 A2998 RMK SLP178,CYYL,2018-03-21T14:00:00Z,56.87,-101.07,-4.0,-6.0,110,5,,9.0,29.97933,1017.8,,TRUE,,,,,,,-SN,SCT,2200,BKN,2700,OVC,3600,,,MVFR,,,,,,,,,,,,SPECI,357.0
CYYN 211400Z AUTO 19007KT 9SM CLR M08/M10 A2984 RMK SLP148,CYYN,2018-03-21T14:00:00Z,50.27,-107.67,-8.0,-10.0,190,7,,9.0,29.840551,1014.8,,TRUE,,,,,,,,CLR,,,,,,,,VFR,,,,,,,,,,,,SPECI,818.0
CYZH 211400Z AUTO 07003KT 040V110 9SM -SN OVC013 M00/M01 A2988 RMK SLP147,CYZH,2018-03-21T14:00:00Z,55.28,-114.77,0.0,-1.0,70,3,,9.0,29.878937,1014.7,,TRUE,,,,,,,-SN,OVC,1300,,,,,,,MVFR,,,,,,,,,,,,SPECI,581.0
CZVL 211400Z AUTO 34005KT 9SM OVC015 01/M00 A2984 RMK SLP133,CZVL,2018-03-21T14:00:00Z,53.67,-113.85,1.0,0.0,340,5,,9.0,29.840551,1013.3,,TRUE,,,,,,,,OVC,1500,,,,,,,MVFR,,,,,,,,,,,,METAR,686.0
CYAH 211400Z AUTO 10003KT 030V120 9SM CLR M15/M19 A3024 RMK SLP271,CYAH,2018-03-21T14:00:00Z,53.75,-73.67,-15.0,-19.0,100,3,,9.0,30.239174,1027.1,,TRUE,,,,,,,,CLR,,,,,,,,VFR,,,,,,,,,,,,SPECI,306.0
SPSO 211400Z 27003KT 8000 NSC 21/18 Q1011 RMK BR FU BIRD HAZARD RWY 22/04 PP000,SPSO,2018-03-21T14:00:00Z,-13.73,-76.22,21.0,18.0,270,3,,4.97,29.852362,,,,,,,,,,,CLR,,,,,,,,MVFR,,,,,,,,,,,,SPECI,10.0
SPRU 211400Z 14006KT 8000 FEW010 OVC130 20/18 Q1011 RMK BR PP000,SPRU,2018-03-21T14:00:00Z,-8.08,-79.12,20.0,18.0,140,6,,4.97,29.852362,,,,,,,,,,,FEW,1000,OVC,13000,,,,,MVFR,,,,,,,,,,,,METAR,30.0
SPQU 211400Z 23004KT 200V300 CAVOK 18/07 Q1024 NOSIG RMK PP000,SPQU,2018-03-21T14:00:00Z,-16.33,-71.57,18.0,7.0,230,4,,6.21,30.236221,,,,,,TRUE,,,,,CAVOK,,,,,,,,VFR,,,,,,,,,,,,SPECI,2554.0
SPQT 211400Z VRB03KT 9999 SCT010 SCT100 28/24 Q1012 NOSIG RMK BIRD HAZARD RWY 06/24 PP000,SPQT,2018-03-21T14:00:00Z,-3.78,-73.32,28.0,24.0,0,3,,6.21,29.88189,,,,,,TRUE,,,,,SCT,1000,SCT,10000,,,,,VFR,,,,,,,,,,,,SPECI,126.0
SPTN 211400Z 19004KT 140V230 CAVOK 22/15 Q1012 RMK BKN300 PP000,SPTN,2018-03-21T14:00:00Z,-18.07,-70.28,22.0,15.0,190,4,,6.21,29.88189,,,,,,,,,,,CAVOK,,,,,,,,VFR,,,,,,,,,,,,SPECI,458.0
SEQM 211400Z 20002KT 9999 SCT026 SCT090 18/13 Q1026 NOSIG RMK A3030,SEQM,2018-03-21T14:00:00Z,-0.12,-78.35,18.0,13.0,200,2,,6.21,30.295275,,,,,,TRUE,,,,,SCT,2600,SCT,9000,,,,,VFR,,,,,,,,,,,,SPECI,2400.0
SEMT 211400Z 00000KT 9999 FEW020 BKN026 25/23 Q1011 RMK A2987,SEMT,2018-03-21T14:00:00Z,-0.95,-80.67,25.0,23.0,0,0,,6.21,29.852362,,,,,,,,,,,FEW,2000,BKN,2600,,,,,MVFR,,,,,,,,,,,,SPECI,14.0
MZBZ 211400Z 34004KT 9999 SCT021 25/23 A2997 Q1015 NOSIG,MZBZ,2018-03-21T14:00:00Z,17.52,-88.3,25.0,23.0,340,4,,6.21,29.970472,,,,,,TRUE,,,,,SCT,2100,,,,,,,VFR,,,,,,,,,,,,METAR,5.0
SBCP 211400Z 00000KT 4000 -TSRA BKN004 FEW030CB OVC070 24/23 Q1 013 RERA,SBCP,2018-03-21T14:00:00Z,-21.7,-41.3,24.0,23.0,0,0,,2.49,,,,,,,,,,,-TSRA,BKN,400,FEW,3000,OVC,7000,,,LIFR,,,,,,,,,,,,METAR,11.0
SPYL 211400Z /////KT CAVOK 25/19 Q1011 RMK BIRD HAZARD RWY 17/35 PP000,SPYL,2018-03-21T14:00:00Z,-4.57,-81.25,25.0,19.0,,,,6.21,29.852362,,,,,,,,,,,CAVOK,,,,,,,,VFR,,,,,,,,,,,,SPECI,90.0
SPTU 211400Z VRB01KT 4000 -RA BR BKN008 OVC150 23/23 Q1013 RMK BIRD HAZARD RWY 01/19 PP030,SPTU,2018-03-21T14:00:00Z,-12.62,-69.2,23.0,23.0,0,1,,2.49,29.911417,,,,,,,,,,-RA BR,BKN,800,OVC,15000,,,,,IFR,,,,,,,,,,,,METAR,266.0
SPST 211400Z 00000KT 9000 SCT015 BKN070 25/24 Q1014 RMK BIRD HAZARD RWY 17/35 PP000,SPST,2018-03-21T14:00:00Z,-6.52,-76.37,25.0,24.0,0,0,,5.59,29.940945,,,,,,,,,,,SCT,1500,BKN,7000,,,,,VFR,,,,,,,,,,,,METAR,282.0
SPMS 211400Z 27003KT 9999 SCT012 BKN100 25/24 Q1014 RMK BIRD HAZARD RWY 09/27 PP000,SPMS,2018-03-21T14:00:00Z,-5.9,-76.12,25.0,24.0,270,3,,6.21,29.940945,,,,,,,,,,,SCT,1200,BKN,10000,,,,,VFR,,,,,,,,,,,,METAR,179.0
SPME 211400Z 07006KT 9999 BKN014 26/21 Q1010 RMK BIRD HAZARD RWY 32/14 PP000,SPME,2018-03-21T14:00:00Z,-3.53,-80.4,26.0,21.0,70,6,,6.21,29.822834,,,,,,,,,,,BKN,1400,,,,,,,MVFR,,,,,,,,,,,,METAR,27.0
SPLO 211400Z 11011KT CAVOK 24/17 Q1011 RMK PP000,SPLO,2018-03-21T14:00:00Z,-17.7,-71.35,24.0,17.0,110,11,,6.21,29.852362,,,,,,,,,,,CAVOK,,,,,,,,VFR,,,,,,,,,,,,METAR,9.0
SPJL 211400Z 05003KT 9999 SCT012 SCT080 12/05 Q1036 RMK PPO0O,SPJL,2018-03-21T14:00:00Z,-15.47,-70.15,12.0,5.0,50,3,,6.21,30.590551,,,,,,,,,,,SCT,1200,SCT,8000,,,,,VFR,,,,,,,,,,,,METAR,3827.0
SPJI 211400Z 00000KT 9999 OVC030 24/23 Q1023 RMK PP000,SPJI,2018-03-21T14:00:00Z,-7.17,-76.72,24.0,23.0,0,0,,6.21,30.206694,,,,,,,,,,,OVC,3000,,,,,,,MVFR,,,,,,,,,,,,METAR,363.0
SPHY 211400Z 34004KT 7000 1000NE -DZ BCFG SCT011 OVC040 09/08 Q1035 RMK BIRD HAZARD RWY03/21 PP005,SPHY,2018-03-21T14:00:00Z,-13.7,-73.35,9.0,8.0,340,4,,4.35,30.561024,,,,,,,,,,BCFG -DZ,SCT,1100,OVC,4000,,,,,MVFR,,,,,,,,,,,,METAR,3548.0
SPHO 211400Z 02003KT 330V080 8000 -RA SCT025 OVC070 14/13 Q1028 RMK PP002,SPHO,2018-03-21T14:00:00Z,-13.17,-74.22,14.0,13.0,20,3,,4.97,30.35433,,,,,,,,,,-RA,SCT,2500,OVC,7000,,,,,MVFR,,,,,,,,,,,,METAR,2749.0
SPGM 211400Z /////KT 8000 SCT020 BKN100 23/21 Q1017 RMK BR BIRD HAZARD RWY19 PP000,SPGM,2018-03-21T14:00:00Z,-9.28,-76.0,23.0,21.0,,,,4.97,30.029528,,,,,,,,,,,SCT,2000,BKN,10000,,,,,MVFR,,,,,,,,,,,,METAR,665.0
SPCL 211400Z VRB02KT 9999 SCT017 BKN070 25/24 Q1014 RMK BIRD HAZARD RWY 02/20 PP020,SPCL,2018-03-21T14:00:00Z,-8.38,-74.58,25.0,24.0,0,2,,6.21,29.940945,,,,,,,,,,,SCT,1700,BKN,7000,,,,,VFR,,,,,,,,,,,,METAR,149.0
SEGS 211400Z 11012KT 9999 BKN020 28/23 Q1010 A2984,SEGS,2018-03-21T14:00:00Z,-0.45,-90.27,28.0,23.0,110,12,,6.21,29.822834,,,,,,,,,,,BKN,2000,,,,,,,MVFR,,,,,,,,,,,,METAR,16.0
SEMC 211400Z 12003KT 1000 BR OVC003 18/18 Q1019,SEMC,2018-03-21T14:00:00Z,-2.3,-78.12,18.0,18.0,120,3,,0.62,30.088583,,,,,,,,,,BR,OVC,300,,,,,,,LIFR,,,,,,,,,,,,METAR,1052.0
SESM 211400Z 33005KT 9999 SCT030 OVC100 20/17 Q1018 A3007,SESM,2018-03-21T14:00:00Z,-1.5,-78.07,20.0,17.0,330,5,,6.21,30.059055,,,,,,,,,,,SCT,3000,OVC,10000,,,,,VFR,,,,,,,,,,,,METAR,1056.0
SEST 211400Z 10007KT 9999 FEW016 SCT300 27/23 Q1009 RMK A2981,SEST,2018-03-21T14:00:00Z,-0.9,-89.58,27.0,23.0,100,7,,6.21,29.793306,,,,,,,,,,,FEW,1600,SCT,30000,,,,,VFR,,,,,,,,,,,,METAR,6.0
SENL 211400Z 27004KT 9999 -RA FEW013 BKN100 22/22 Q1014,SENL,2018-03-21T14:00:00Z,0.1,-76.87,22.0,22.0,270,4,,6.21,29.940945,,,,,,,,,,-RA,FEW,1300,BKN,10000,,,,,VFR,,,,,,,,,,,,METAR,293.0
SEJD 211400Z 04001KT 4000 BCFG FEW003 SCT013 BKN100 23/23 Q1016,SEJD,2018-03-21T14:00:00Z,-1.07,-77.58,23.0,23.0,40,1,,2.49,30.0,,,,,,,,,,BCFG,FEW,300,SCT,1300,BKN,10000,,,IFR,,,,,,,,,,,,METAR,375.0
SECA 211400Z VRB02KT 9999 FEW010 SCT040 20/20 Q1018,SECA,2018-03-21T14:00:00Z,-4.0,-79.37,20.0,20.0,0,2,,6.21,30.059055,,,,,,,,,,,FEW,1000,SCT,4000,,,,,VFR,,,,,,,,,,,,METAR,1121.0
SECU 211400Z 08002KT 9999 BKN020 BKN033 15/12 Q1026,SECU,2018-03-21T14:00:00Z,-2.87,-78.97,15.0,12.0,80,2,,6.21,30.295275,,,,,,,,,,,BKN,2000,BKN,3300,,,,,MVFR,,,,,,,,,,,,METAR,2531.0
SERB 211400Z 00000KT 9999 FEW010 BKN023 12/11 Q1030,SERB,2018-03-21T14:00:00Z,-1.62,-78.67,12.0,11.0,0,0,,6.21,30.413385,,,,,,,,,,,FEW,1000,BKN,2300,,,,,MVFR,,,,,,,,,,,,METAR,2796.0
SETU 211400Z 04005KT 9999 BKN020 BKN100 12/10 Q1032,SETU,2018-03-21T14:00:00Z,0.82,-77.7,12.0,10.0,40,5,,6.21,30.47244,,,,,,,,,,,BKN,2000,BKN,10000,,,,,MVFR,,,,,,,,,,,,METAR,2940.0
SERO 211400Z 06004KT 9999 FEW013 SCT033 BKN080 26/23 Q1010,SERO,2018-03-21T14:00:00Z,-3.43,-79.98,26.0,23.0,60,4,,6.21,29.822834,,,,,,,,,,,FEW,1300,SCT,3300,BKN,8000,,,VFR,,,,,,,,,,,,METAR,51.0
SESA 211400Z 01004KT CAVOK 25/21 Q1011,SESA,2018-03-21T14:00:00Z,-2.2,-80.97,25.0,21.0,10,4,,6.21,29.852362,,,,,,,,,,,CAVOK,,,,,,,,VFR,,,,,,,,,,,,METAR,8.0
SEGU 211400Z 15003KT 080V190 9999 FEW020 BKN100 27/23 Q1010 NOSIG RMK A2983,SEGU,2018-03-21T14:00:00Z,-2.13,-79.87,27.0,23.0,150,3,,6.21,29.822834,,,,,,TRUE,,,,,FEW,2000,BKN,10000,,,,,VFR,,,,,,,,,,,,SPECI,9.0
SELT 211400Z 19012KT 9999 FEW007 BKN030 14/10 Q1030,SELT,2018-03-21T14:00:00Z,-0.92,-78.62,14.0,10.0,190,12,,6.21,30.413385,,,,,,,,,,,FEW,700,BKN,3000,,,,,MVFR,,,,,,,,,,,,METAR,2785.0
BIRK 211400Z 20012KT 9999 VCSH FEW013 BKN017 BKN033 06/03 Q1003 RESHRA,BIRK,2018-03-21T14:00:00Z,64.13,-21.93,6.0,3.0,200,12,,6.21,29.616142,,,,,,,,,,VCSH,FEW,1300,BKN,1700,BKN,3300,,,MVFR,,,,,,,,,,,,METAR,61.0
BIEG 211400Z 19012KT 9999 SCT027 BKN110 05/01 Q1006,BIEG,2018-03-21T14:00:00Z,65.27,-14.4,5.0,1.0,190,12,,6.21,29.704725,,,,,,,,,,,SCT,2700,BKN,11000,,,,,VFR,,,,,,,,,,,,METAR,38.0
BIAR 211400Z 18011KT 9999 BKN050 05/00 Q1003,BIAR,2018-03-21T14:00:00Z,65.67,-18.07,5.0,0.0,180,11,,6.21,29.616142,,,,,,,,,,,BKN,5000,,,,,,,VFR,,,,,,,,,,,,METAR,27.0
TLPC 211400Z 11011G22KT 9999 SCT023 29/22 Q1017 NOSIG,TLPC,2018-03-21T14:00:00Z,14.02,-61.0,29.0,22.0,110,11,22,6.21,30.029528,,,,,,TRUE,,,,,SCT,2300,,,,,,,VFR,,,,,,,,,,,,METAR,2.0
GMMB 211400Z 30010KT 260V340 9999 BKN020 17/07 Q1025 NOSIG,GMMB,2018-03-21T14:00:00Z,33.65,-7.22,17.0,7.0,300,10,,6.21,30.265747,,,,,,TRUE,,,,,BKN,2000,,,,,,,MVFR,,,,,,,,,,,,METAR,191.0
TAPA 211400Z 11012KT 9999 BKN018 28/22 Q1018 NOSIG,TAPA,2018-03-21T14:00:00Z,17.12,-61.78,28.0,22.0,110,12,,6.21,30.059055,,,,,,TRUE,,,,,BKN,1800,,,,,,,MVFR,,,,,,,,,,,,METAR,14.0
UKON 211400Z 29004MPS 9999 FEW026CB OVC100 M00/M04 Q1016 NOSIG,UKON,2018-03-21T14:00:00Z,47.05,31.92,0.0,-4.0,290,8,,6.21,30.0,,,,,,TRUE,,,,,FEW,2600,OVC,10000,,,,,VFR,,,,,,,,,,,,METAR,56.0
VGEG 211400Z 27005KT 3500 HZ SCT018 27/24 Q1008 NOSIG,VGEG,2018-03-21T14:00:00Z,22.27,91.82,27.0,24.0,270,5,,2.17,29.763779,,,,,,TRUE,,,,HZ,SCT,1800,,,,,,,IFR,,,,,,,,,,,,METAR,6.0
YBDV 211400Z AUTO 08010KT //// // ////// 28/12 Q1013,YBDV,2018-03-21T14:00:00Z,-25.9,139.35,28.0,12.0,80,10,,,29.911417,,,TRUE,,,,,,,,,,,,,,,,,,,,,,,,,,,,METAR,47.0
YBCV 211400Z AUTO 10004KT 9999 // NCD 24/13 Q1014,YBCV,2018-03-21T14:00:00Z,-26.38,146.27,24.0,13.0,100,4,,6.21,29.940945,,,TRUE,,,,,,,,CLR,,,,,,,,VFR,,,,,,,,,,,,METAR,304.0
YAYE 211400Z AUTO 11009KT 9999 // NCD 26/07 Q1014,YAYE,2018-03-21T14:00:00Z,-25.18,130.98,26.0,7.0,110,9,,6.21,29.940945,,,TRUE,,,,,,,,CLR,,,,,,,,VFR,,,,,,,,,,,,METAR,496.0
YARG 211400Z AUTO 24003KT 9999 // NCD 31/15 Q1007,YARG,2018-03-21T14:00:00Z,-16.63,128.45,31.0,15.0,240,3,,6.21,29.734253,,,TRUE,,,,,,,,CLR,,,,,,,,VFR,,,,,,,,,,,,METAR,165.0
YABA 211400Z AUTO 07012KT 9999 // SCT100 SCT125 20/// Q1009,YABA,2018-03-21T14:00:00Z,-34.93,117.8,,,70,12,,6.21,29.793306,,,TRUE,,,,,,,,SCT,10000,SCT,12500,,,,,VFR,,,,,,,,,,,,METAR,69.0
CYBX 211400Z 27010KT 15SM FEW150 00/M02 A2987 RMK AC2 WND ESTD SLP121,CYBX,2018-03-21T14:00:00Z,51.45,-57.17,0.0,-2.0,270,10,,15.0,29.870079,1012.1,,,,,,,,,,FEW,15000,,,,,,,VFR,,,,,,,,,,,,SPECI,35.0
CYAS 211400Z 27008KT 15SM FEW090 M13/M16 A3017 RMK AC2 SLP232,CYAS,2018-03-21T14:00:00Z,60.02,-70.0,-13.0,-16.0,270,8,,15.0,30.171259,1023.2,,,,,,,,,,FEW,9000,,,,,,,VFR,,,,,,,,,,,,SPECI,117.0
CYGV 211400Z AUTO 02010KT 9SM FEW034 SCT240 M02/M09 A3001 RMK SLP165,CYGV,2018-03-21T14:00:00Z,50.27,-63.62,-2.0,-9.0,20,10,,9.0,30.008858,1016.5,,TRUE,,,,,,,,FEW,3400,SCT,24000,,,,,VFR,,,,,,,,,,,,SPECI,33.0
SAZM 211400Z 16010KT 130V190 9999 FEW035 SCT042 16/07 Q1022,SAZM,2018-03-21T14:00:00Z,-37.92,-57.57,16.0,7.0,160,10,,6.21,30.177166,,,,,,,,,,,FEW,3500,SCT,4200,,,,,VFR,,,,,,,,,,,,METAR,21.0
SAWG 211400Z 32010KT 9999 NSC RERA 13/M06 Q0989,SAWG,2018-03-21T14:00:00Z,-51.62,-69.32,13.0,-6.0,320,10,,6.21,29.202755,,,,,,,,,,,CLR,,,,,,,,VFR,,,,,,,,,,,,METAR,19.0
SAWE 211400Z 32009KT 9999 -RA BKN020 OVC050 09/06 Q0989,SAWE,2018-03-21T14:00:00Z,-53.78,-67.75,9.0,6.0,320,9,,6.21,29.202755,,,,,,,,,,-RA,BKN,2000,OVC,5000,,,,,MVFR,,,,,,,,,,,,METAR,22.0
SASJ 211400Z 23006KT CAVOK 20/06 Q1021,SASJ,2018-03-21T14:00:00Z,-24.37,-65.1,20.0,6.0,230,6,,6.21,30.147638,,,,,,,,,,,CAVOK,,,,,,,,VFR,,,,,,,,,,,,METAR,1167.0
SASA 211400Z 36008KT CAVOK 19/06 Q1021,SASA,2018-03-21T14:00:00Z,-24.85,-65.47,19.0,6.0,360,8,,6.21,30.147638,,,,,,,,,,,CAVOK,,,,,,,,VFR,,,,,,,,,,,,METAR,1216.0
SARP 211400Z 14010KT CAVOK 25/16 Q1016,SARP,2018-03-21T14:00:00Z,-27.38,-55.97,25.0,16.0,140,10,,6.21,30.0,,,,,,,,,,,CAVOK,,,,,,,,VFR,,,,,,,,,,,,METAR,125.0
SARL 211400Z 14013KT CAVOK 22/13 Q1018,SARL,2018-03-21T14:00:00Z,-29.67,-57.13,22.0,13.0,140,13,,6.21,30.059055,,,,,,,,,,,CAVOK,,,,,,,,VFR,,,,,,,,,,,,METAR,70.0
SARI 211400Z 18004KT 9999 SCT020 BKN100 24/20 Q1015,SARI,2018-03-21T14:00:00Z,-25.72,-54.47,24.0,20.0,180,4,,6.21,29.970472,,,,,,,,,,,SCT,2000,BKN,10000,,,,,VFR,,,,,,,,,,,,METAR,270.0
SARF 211400Z 16009KT 9999 SCT025 25/17 Q1015,SARF,2018-03-21T14:00:00Z,-26.22,-58.22,25.0,17.0,160,9,,6.21,29.970472,,,,,,,,,,,SCT,2500,,,,,,,VFR,,,,,,,,,,,,METAR,60.0
SARE 211400Z 006KT 3000 FU NSC 22/15 Q1016,SARE,2018-03-21T14:00:00Z,-27.43,-59.03,22.0,15.0,,,,1.86,30.0,,,,,,,,,,FU,CLR,,,,,,,,IFR,,,,,,,,,,,,SPECI,52.0
SANT 211400Z 00000KT 9999 FEW030 20/14 Q1019,SANT,2018-03-21T14:00:00Z,-26.85,-65.08,20.0,14.0,0,0,,6.21,30.088583,,,,,,,,,,,FEW,3000,,,,,,,VFR,,,,,,,,,,,,METAR,450.0
SAME 211400Z 09004KT CAVOK 17/02 Q1017,SAME,2018-03-21T14:00:00Z,-32.82,-68.77,17.0,2.0,90,4,,6.21,30.029528,,,,,,,,,,,CAVOK,,,,,,,,VFR,,,,,,,,,,,,METAR,704.0
SAEZ 211400Z 13008KT CAVOK 18/08 Q1021,SAEZ,2018-03-21T14:00:00Z,-34.82,-58.52,18.0,8.0,130,8,,6.21,30.147638,,,,,,,,,,,CAVOK,,,,,,,,VFR,,,,,,,,,,,,METAR,20.0
SADF 211400Z 11003KT CAVOK 18/07 Q1022,SADF,2018-03-21T14:00:00Z,-34.45,-58.58,18.0,7.0,110,3,,6.21,30.177166,,,,,,,,,,,CAVOK,,,,,,,,VFR,,,,,,,,,,,,METAR,4.0
SACO 211400Z 34003KT CAVOK 20/04 Q1020,SACO,2018-03-21T14:00:00Z,-31.32,-64.22,20.0,4.0,340,3,,6.21,30.11811,,,,,,,,,,,CAVOK,,,,,,,,VFR,,,,,,,,,,,,METAR,474.0
SABE 211400Z 13009KT CAVOK 17/08 Q1021,SABE,2018-03-21T14:00:00Z,-34.57,-58.42,17.0,8.0,130,9,,6.21,30.147638,,,,,,,,,,,CAVOK,,,,,,,,VFR,,,,,,,,,,,,METAR,6.0
SAAR 211400Z 07008KT 9999 FEW017 19/11 Q1021,SAAR,2018-03-21T14:00:00Z,-32.92,-60.77,19.0,11.0,70,8,,6.21,30.147638,,,,,,,,,,,FEW,1700,,,,,,,VFR,,,,,,,,,,,,METAR,25.0
TLPL 211400Z 09021KT 9999 FEW026 29/23 Q1017 NOSIG,TLPL,2018-03-21T14:00:00Z,13.75,-60.95,29.0,23.0,90,21,,6.21,30.029528,,,,,,TRUE,,,,,FEW,2600,,,,,,,VFR,,,,,,,,,,,,METAR,3.0
TNCA 211400Z 09021KT 9999 FEW023 29/23 Q1014 NOSIG,TNCA,2018-03-21T14:00:00Z,12.5,-70.0,29.0,23.0,90,21,,6.21,29.940945,,,,,,TRUE,,,,,FEW,2300,,,,,,,VFR,,,,,,,,,,,,METAR,18.0
YMOR 211400Z AUTO 11008KT 9999 // NCD 20/16 Q1018,YMOR,2018-03-21T14:00:00Z,-29.5,149.85,20.0,16.0,110,8,,6.21,30.059055,,,TRUE,,,,,,,,CLR,,,,,,,,VFR,,,,,,,,,,,,METAR,214.0
YMIA 211400Z AUTO 09011KT 9999 // NCD 25/11 Q1017,YMIA,2018-03-21T14:00:00Z,-34.23,142.08,25.0,11.0,90,11,,6.21,30.029528,,,TRUE,,,,,,,,CLR,,,,,,,,VFR,,,,,,,,,,,,METAR,51.0
YMER 211400Z AUTO 11009KT 9999 // OVC066 17/12 Q1031,YMER,2018-03-21T14:00:00Z,-36.92,149.9,17.0,12.0,110,9,,6.21,30.442913,,,TRUE,,,,,,,,OVC,6600,,,,,,,VFR,,,,,,,,,,,,METAR,2.0
YMEN 211400Z AUTO 17002KT 9999 // NCD 15/08 Q1024,YMEN,2018-03-21T14:00:00Z,-37.72,144.9,15.0,8.0,170,2,,6.21,30.236221,,,TRUE,,,,,,,,CLR,,,,,,,,VFR,,,,,,,,,,,,METAR,86.0
YMEK 211400Z AUTO 13011KT 9999 // BKN120 31/10 Q1013,YMEK,2018-03-21T14:00:00Z,-26.62,118.55,31.0,10.0,130,11,,6.21,29.911417,,,TRUE,,,,,,,,BKN,12000,,,,,,,VFR,,,,,,,,,,,,METAR,522.0
YMAY 211400Z AUTO 12010KT 9999 // NCD 18/07 Q1025,YMAY,2018-03-21T14:00:00Z,-36.07,146.93,18.0,7.0,120,10,,6.21,30.265747,,,TRUE,,,,,,,,CLR,,,,,,,,VFR,,,,,,,,,,,,METAR,171.0
YLRE 211400Z AUTO 10009KT 9999 // NCD 27/12 Q1011,YLRE,2018-03-21T14:00:00Z,-23.43,144.28,27.0,12.0,100,9,,6.21,29.852362,,,TRUE,,,,,,,,CLR,,,,,,,,VFR,,,,,,,,,,,,METAR,193.0
SAZS 211400Z 01009KT 330V030 CAVOK 11/M04 Q1012,SAZS,2018-03-21T14:00:00Z,-41.13,-71.17,11.0,-4.0,10,9,,6.21,29.88189,,,,,,,,,,,CAVOK,,,,,,,,VFR,,,,,,,,,,,,METAR,840.0
OIKK 211400Z 35006KT CAVOK 24/M18 Q1018 A3006,OIKK,2018-03-21T14:00:00Z,30.25,56.97,24.0,-18.0,350,6,,6.21,30.059055,,,,,,,,,,,CAVOK,,,,,,,,VFR,,,,,,,,,,,,METAR,1754.0
OITL 211400Z 24012KT 9999 VCFG SCT002 SCT035CB SCT040 13/06 Q1014,OITL,2018-03-21T14:00:00Z,38.33,48.42,13.0,6.0,240,12,,6.21,29.940945,,,,,,,,,,VCFG,SCT,200,SCT,3500,SCT,4000,,,VFR,,,,,,,,,,,,METAR,1316.0
OICS 211400Z 21017KT 9000 NSC 21/M06 Q1016,OICS,2018-03-21T14:00:00Z,35.25,47.02,21.0,-6.0,210,17,,5.59,30.0,,,,,,,,,,,CLR,,,,,,,,VFR,,,,,,,,,,,,METAR,1373.0
OICK 211400Z 24008KT CAVOK 24/M03 Q1017,OICK,2018-03-21T14:00:00Z,33.43,48.28,24.0,-3.0,240,8,,6.21,30.029528,,,,,,,,,,,CAVOK,,,,,,,,VFR,,,,,,,,,,,,METAR,1155.0
OIZH 211400Z 36004KT CAVOK 23/M05 Q1016 A3002 NOSIG,OIZH,2018-03-21T14:00:00Z,29.47,60.92,23.0,-5.0,360,4,,6.21,30.0,,,,,,TRUE,,,,,CAVOK,,,,,,,,VFR,,,,,,,,,,,,METAR,1370.0
TDCF 211400Z 28004KT 9999 FEW016 28/21 Q1016,TDCF,2018-03-21T14:00:00Z,15.33,-61.4,28.0,21.0,280,4,,6.21,30.0,,,,,,,,,,,FEW,1600,,,,,,,VFR,,,,,,,,,,,,METAR,5.0
GOTT 211400Z VRB04KT CAVOK 39/08 Q1010,GOTT,2018-03-21T14:00:00Z,13.73,-13.65,39.0,8.0,0,4,,6.21,29.822834,,,,,,,,,,,CAVOK,,,,,,,,VFR,,,,,,,,,,,,METAR,50.0
GOGG 211400Z 04004KT CAVOK 36/12 Q1011,GOGG,2018-03-21T14:00:00Z,12.55,-16.27,36.0,12.0,40,4,,6.21,29.852362,,,,,,,,,,,CAVOK,,,,,,,,VFR,,,,,,,,,,,,METAR,23.0
CYOA 211400Z 10014KT 12SM SKC M31/M34 A3046,CYOA,2018-03-21T14:00:00Z,64.7,-110.62,-31.0,-34.0,100,14,,12.0,30.46063,,,,,,,,,,,SKC,,,,,,,,VFR,,,,,,,,,,,,METAR,469.0
LPAR 211400Z /////KT CAVOK 16/M01 Q1027,LPAR,2018-03-21T14:00:00Z,38.88,-9.03,16.0,-1.0,,,,6.21,30.324802,,,,,,,,,,,CAVOK,,,,,,,,VFR,,,,,,,,,,,,METAR,3.0
LPST 211400Z 33013KT CAVOK 13/04 Q1027,LPST,2018-03-21T14:00:00Z,38.82,-9.32,13.0,4.0,330,13,,6.21,30.324802,,,,,,,,,,,CAVOK,,,,,,,,VFR,,,,,,,,,,,,METAR,130.0
LPMT 211400Z 03010KT CAVOK 15/00 Q1027,LPMT,2018-03-21T14:00:00Z,38.7,-9.05,15.0,0.0,30,10,,6.21,30.324802,,,,,,,,,,,CAVOK,,,,,,,,VFR,,,,,,,,,,,,METAR,11.0
LPMR 211400Z 34016KT 210V010 CAVOK 13/04 Q1028,LPMR,2018-03-21T14:00:00Z,39.82,-8.87,13.0,4.0,340,16,,6.21,30.35433,,,,,,,,,,,CAVOK,,,,,,,,VFR,,,,,,,,,,,,METAR,54.0
LPOV 211400Z 35019KT CAVOK 13/04 Q1028,LPOV,2018-03-21T14:00:00Z,40.92,-8.65,13.0,4.0,350,19,,6.21,30.35433,,,,,,,,,,,CAVOK,,,,,,,,VFR,,,,,,,,,,,,METAR,17.0
LFBY 211400Z 34009KT 310V010 CAVOK 10/M02 Q1029,LFBY,2018-03-21T14:00:00Z,43.67,-1.07,10.0,-2.0,340,9,,6.21,30.383858,,,,,,,,,,,CAVOK,,,,,,,,VFR,,,,,,,,,,,,METAR,32.0
LFMC 211400Z 29013KT 9999 FEW040TCU SCT070 BKN110 10/01 Q1015,LFMC,2018-03-21T14:00:00Z,43.37,6.37,10.0,1.0,290,13,,6.21,29.970472,,,,,,,,,,,FEW,4000,SCT,7000,BKN,11000,,,VFR,,,,,,,,,,,,METAR,78.0
OIZJ 211400Z 28012KT 5000 HZ NSC 26/20 Q1009,OIZJ,2018-03-21T14:00:00Z,25.65,57.8,26.0,20.0,280,12,,3.11,29.793306,,,,,,,,,,HZ,CLR,,,,,,,,MVFR,,,,,,,,,,,,METAR,4.0
OIMN 211400Z 26004KT CAVOK 22/03 Q1013,OIMN,2018-03-21T14:00:00Z,37.48,57.3,22.0,3.0,260,4,,6.21,29.911417,,,,,,,,,,,CAVOK,,,,,,,,VFR,,,,,,,,,,,,METAR,1074.0
OIMB 211400Z 33006KT CAVOK 20/M04 Q1017,OIMB,2018-03-21T14:00:00Z,32.9,59.28,20.0,-4.0,330,6,,6.21,30.029528,,,,,,,,,,,CAVOK,,,,,,,,VFR,,,,,,,,,,,,METAR,1491.0
OIIP 211400Z 32006KT 8000 FEW040 BKN200 23/M06 Q1013,OIIP,2018-03-21T14:00:00Z,35.78,50.83,23.0,-6.0,320,6,,4.97,29.911417,,,,,,,,,,,FEW,4000,BKN,20000,,,,,MVFR,,,,,,,,,,,,METAR,1271.0
OIFS 211400Z 25016KT CAVOK 21/M18 Q1020,OIFS,2018-03-21T14:00:00Z,32.32,50.85,21.0,-18.0,250,16,,6.21,30.11811,,,,,,,,,,,CAVOK,,,,,,,,VFR,,,,,,,,,,,,METAR,2078.0
OIBV 211400Z 25010KT CAVOK 26/18 Q1011,OIBV,2018-03-21T14:00:00Z,26.82,53.35,26.0,18.0,250,10,,6.21,29.852362,,,,,,,,,,,CAVOK,,,,,,,,VFR,,,,,,,,,,,,METAR,24.0
OIBA 211400Z 28004KT CAVOK 25/18 Q1011,OIBA,2018-03-21T14:00:00Z,25.88,55.03,25.0,18.0,280,4,,6.21,29.852362,,,,,,,,,,,CAVOK,,,,,,,,VFR,,,,,,,,,,,,METAR,7.0
OITP 211400Z 00000KT 9999 SCT035CB BKN040 BKN080 16/08 Q1012,OITP,2018-03-21T14:00:00Z,39.6,47.88,16.0,8.0,0,0,,6.21,29.88189,,,,,,,,,,,SCT,3500,BKN,4000,BKN,8000,,,VFR,,,,,,,,,,,,METAR,77.0
OISR 211400Z 26004KT CAVOK 31/03 Q1012,OISR,2018-03-21T14:00:00Z,27.37,53.2,31.0,3.0,260,4,,6.21,29.88189,,,,,,,,,,,CAVOK,,,,,,,,VFR,,,,,,,,,,,,METAR,408.0
OISF 211400Z 20008KT CAVOK 26/M05 Q1014,OISF,2018-03-21T14:00:00Z,28.9,53.72,26.0,-5.0,200,8,,6.21,29.940945,,,,,,,,,,,CAVOK,,,,,,,,VFR,,,,,,,,,,,,METAR,1383.0
OIIS 211400Z 00000KT 9999 FEW040 BKN180 24/M04 Q1016,OIIS,2018-03-21T14:00:00Z,35.38,53.67,24.0,-4.0,0,0,,6.21,30.0,,,,,,,,,,,FEW,4000,BKN,18000,,,,,VFR,,,,,,,,,,,,METAR,1115.0
OIAH 211400Z 28010KT CAVOK 28/M05 Q1015,OIAH,2018-03-21T14:00:00Z,30.33,50.83,28.0,-5.0,280,10,,6.21,29.970472,,,,,,,,,,,CAVOK,,,,,,,,VFR,,,,,,,,,,,,METAR,738.0
OINZ 211400Z 07004KT CAVOK 24/12 Q1007,OINZ,2018-03-21T14:00:00Z,36.63,53.2,24.0,12.0,70,4,,6.21,29.734253,,,,,,,,,,,CAVOK,,,,,,,,VFR,,,,,,,,,,,,METAR,11.0
OIIE 211400Z 33010KT CAVOK 26/M03 Q1012 TEMPO 33020KT,OIIE,2018-03-21T14:00:00Z,35.42,51.15,26.0,-3.0,330,10,,6.21,29.88189,,,,,,,,,,,CAVOK,,,,,,,,VFR,,,,,,,,,,,,SPECI,1008.0
OIBK 211400Z 25008KT CAVOK 25/19 Q1011,OIBK,2018-03-21T14:00:00Z,26.53,53.98,25.0,19.0,250,8,,6.21,29.852362,,,,,,,,,,,CAVOK,,,,,,,,VFR,,,,,,,,,,,,METAR,30.0
OIAA 211400Z 36006KT CAVOK 34/03 Q1011,OIAA,2018-03-21T14:00:00Z,30.37,48.25,34.0,3.0,360,6,,6.21,29.852362,,,,,,,,,,,CAVOK,,,,,,,,VFR,,,,,,,,,,,,METAR,11.0
OITM 211400Z 27014KT 9999 FEW038TCU 19/M05 Q1015,OITM,2018-03-21T14:00:00Z,37.35,46.15,19.0,-5.0,270,14,,6.21,29.970472,,,,,,,,,,,FEW,3800,,,,,,,VFR,,,,,,,,,,,,METAR,1340.0
OINE 211400Z 00000KT CAVOK 27/16 Q1006,OINE,2018-03-21T14:00:00Z,37.38,55.45,27.0,16.0,0,0,,6.21,29.704725,,,,,,,,,,,CAVOK,,,,,,,,VFR,,,,,,,,,,,,METAR,130.0
OIMQ 211400Z 25006KT CAVOK 22/M02 Q1014,OIMQ,2018-03-21T14:00:00Z,35.23,58.47,22.0,-2.0,250,6,,6.21,29.940945,,,,,,,,,,,CAVOK,,,,,,,,VFR,,,,,,,,,,,,METAR,1140.0
OIMD 211400Z 35006KT CAVOK 23/00 Q1011,OIMD,2018-03-21T14:00:00Z,34.38,58.63,23.0,0.0,350,6,,6.21,29.852362,,,,,,,,,,,CAVOK,,,,,,,,VFR,,,,,,,,,,,,METAR,1100.0
OIMC 211400Z 03004KT CAVOK 27/06 Q1010,OIMC,2018-03-21T14:00:00Z,36.5,61.07,27.0,6.0,30,4,,6.21,29.822834,,,,,,,,,,,CAVOK,,,,,,,,VFR,,,,,,,,,,,,METAR,288.0
OIIK 211400Z 11006KT 9999 SCT035 BKN190 21/04 Q1013,OIIK,2018-03-21T14:00:00Z,36.25,50.05,21.0,4.0,110,6,,6.21,29.911417,,,,,,,,,,,SCT,3500,BKN,19000,,,,,VFR,,,,,,,,,,,,METAR,1278.0
OIBQ 211400Z 27008KT CAVOK 25/18 Q1011,OIBQ,2018-03-21T14:00:00Z,29.27,50.32,25.0,18.0,270,8,,6.21,29.852362,,,,,,,,,,,CAVOK,,,,,,,,VFR,,,,,,,,,,,,METAR,6.0
OIBL 211400Z 25012KT CAVOK 26/18 Q1010,OIBL,2018-03-21T14:00:00Z,26.53,54.82,26.0,18.0,250,12,,6.21,29.822834,,,,,,,,,,,CAVOK,,,,,,,,VFR,,,,,,,,,,,,METAR,14.0
OITZ 211400Z 24017KT 9000 FEW035 SCT170 19/M04 Q1015,OITZ,2018-03-21T14:00:00Z,36.77,48.37,19.0,-4.0,240,17,,5.59,29.970472,,,,,,,,,,,FEW,3500,SCT,17000,,,,,VFR,,,,,,,,,,,,METAR,1663.0
OISY 211400Z 13012KT CAVOK 21/M05 Q1021,OISY,2018-03-21T14:00:00Z,30.7,51.55,21.0,-5.0,130,12,,6.21,30.147638,,,,,,,,,,,CAVOK,,,,,,,,VFR,,,,,,,,,,,,METAR,1811.0
OISL 211400Z 00000KT CAVOK 29/01 Q1012,OISL,2018-03-21T14:00:00Z,27.67,54.37,29.0,1.0,0,0,,6.21,29.88189,,,,,,,,,,,CAVOK,,,,,,,,VFR,,,,,,,,,,,,METAR,805.0
OINR 211400Z 33029KT 9999 SCT030CB SCT035 SCT100 16/12 Q1012,OINR,2018-03-21T14:00:00Z,36.88,50.67,16.0,12.0,330,29,,6.21,29.88189,,,,,,,,,,,SCT,3000,SCT,3500,SCT,10000,,,VFR,,,,,,,,,,,,METAR,-20.0
OINN 211400Z 32035KT 9999 SCT027 BKN200 18/09 Q1008,OINN,2018-03-21T14:00:00Z,36.67,51.47,18.0,9.0,320,35,,6.21,29.763779,,,,,,,,,,,SCT,2700,BKN,20000,,,,,VFR,,,,,,,,,,,,METAR,-19.0
OIKQ 211400Z 26014KT 6000 NSC 24/20 Q1010,OIKQ,2018-03-21T14:00:00Z,26.75,55.9,24.0,20.0,260,14,,3.73,29.822834,,,,,,,,,,,CLR,,,,,,,,MVFR,,,,,,,,,,,,METAR,12.0
OICI 211400Z 28006KT 8000 NSC 20/01 Q1021 A3017,OICI,2018-03-21T14:00:00Z,33.58,46.4,20.0,1.0,280,6,,4.97,30.147638,,,,,,,,,,,CLR,,,,,,,,MVFR,,,,,,,,,,,,METAR,1343.0
OIAM 211400Z 33014KT CAVOK 33/02 Q1011,OIAM,2018-03-21T14:00:00Z,30.55,49.15,33.0,2.0,330,14,,6.21,29.852362,,,,,,,,,,,CAVOK,,,,,,,,VFR,,,,,,,,,,,,METAR,4.0
OIAG 211400Z 33017KT CAVOK 33/M00 Q1012,OIAG,2018-03-21T14:00:00Z,30.77,49.67,33.0,0.0,330,17,,6.21,29.88189,,,,,,,,,,,CAVOK,,,,,,,,VFR,,,,,,,,,,,,METAR,29.0
OIZI 211400Z 23006KT CAVOK 29/M04 Q1012,OIZI,2018-03-21T14:00:00Z,27.23,60.72,29.0,-4.0,230,6,,6.21,29.88189,,,,,,,,,,,CAVOK,,,,,,,,VFR,,,,,,,,,,,,METAR,591.0
OIZB 211400Z 12006KT CAVOK 27/02 Q1010,OIZB,2018-03-21T14:00:00Z,31.1,61.55,27.0,2.0,120,6,,6.21,29.822834,,,,,,,,,,,CAVOK,,,,,,,,VFR,,,,,,,,,,,,METAR,489.0
OING 211400Z 00000KT CAVOK 26/19 Q1008,OING,2018-03-21T14:00:00Z,36.9,54.4,26.0,19.0,0,0,,6.21,29.763779,,,,,,,,,,,CAVOK,,,,,,,,VFR,,,,,,,,,,,,METAR,155.0
OIBS 211400Z 21008KT CAVOK 25/16 Q1011,OIBS,2018-03-21T14:00:00Z,25.9,54.55,25.0,16.0,210,8,,6.21,29.852362,,,,,,,,,,,CAVOK,,,,,,,,VFR,,,,,,,,,,,,METAR,14.0
OIBJ 211400Z 27006KT CAVOK 28/07 Q1014,OIBJ,2018-03-21T14:00:00Z,27.82,52.35,28.0,7.0,270,6,,6.21,29.940945,,,,,,,,,,,CAVOK,,,,,,,,VFR,,,,,,,,,,,,METAR,663.0
OINB 211400Z 00000KT CAVOK 25/12 Q1006,OINB,2018-03-21T14:00:00Z,36.72,52.65,25.0,12.0,0,0,,6.21,29.704725,,,,,,,,,,,CAVOK,,,,,,,,VFR,,,,,,,,,,,,METAR,-15.0
CYYD 211400Z VRB02KT 25SM BKN060 M02/M04 A2974 RMK SC7 SLP089,CYYD,2018-03-21T14:00:00Z,54.82,-127.18,-2.0,-4.0,0,2,,25.0,29.740158,1008.9,,,,,,,,,,BKN,6000,,,,,,,VFR,,,,,,,,,,,,SPECI,523.0
CYXY 211400Z 35006KT 2 1/2SM -SN DRSN FEW012 OVC025 M08/M10 A2992 RMK SF2SC6 SLP184,CYXY,2018-03-21T14:00:00Z,60.72,-135.07,-8.0,-10.0,350,6,,2.5,29.920275,1018.4,,,,,,,,,-SN DRSN,FEW,1200,OVC,2500,,,,,IFR,,,,,,,,,,,,SPECI,703.0
CYXJ 211400Z 10011KT 15SM OVC004 M00/M01 A2981 RMK ST8 SLP128,CYXJ,2018-03-21T14:00:00Z,56.25,-120.73,0.0,-1.0,100,11,,15.0,29.811024,1012.8,,,,,,,,,,OVC,400,,,,,,,LIFR,,,,,,,,,,,,SPECI,695.0
CYWL 211400Z 10006KT 5SM -SN SCT004 BKN035 OVC070 M00/M01 A2970 RMK SF4SC3AC1 SLP089,CYWL,2018-03-21T14:00:00Z,52.18,-122.07,0.0,-1.0,100,6,,5.0,29.698818,1008.9,,,,,,,,,-SN,SCT,400,BKN,3500,OVC,7000,,,MVFR,,,,,,,,,,,,SPECI,940.0
CYQH 211400Z 08013G19KT 5SM -SN FEW018 BKN025 OVC029 M05/M07 A2984 RMK SC2SC3SC3 SLP146,CYQH,2018-03-21T14:00:00Z,60.12,-128.82,-5.0,-7.0,80,13,19,5.0,29.840551,1014.6,,,,,,,,,-SN,FEW,1800,BKN,2500,OVC,2900,,,MVFR,,,,,,,,,,,,SPECI,690.0
CYPW 211400Z 05003KT 15SM BKN049 BKN140 OVC190 01/01 A2975 RMK SC5AC2AC1 SLP081,CYPW,2018-03-21T14:00:00Z,49.82,-124.5,1.0,1.0,50,3,,15.0,29.749016,1008.1,,,,,,,,,,BKN,4900,BKN,14000,OVC,19000,,,VFR,,,,,,,,,,,,SPECI,130.0
CYOC 211400Z 22005KT 20SM -SN FEW005 FEW018 BKN034 OVC060 M15/M17 A3045 RMK ST1ST1SC5SC2 ST TR SLP341,CYOC,2018-03-21T14:00:00Z,67.57,-139.82,-15.0,-17.0,220,5,,20.0,30.448818,1034.1,,,,,,,,,-SN,FEW,500,FEW,1800,BKN,3400,OVC,6000,VFR,,,,,,,,,,,,SPECI,251.0
CYYT 211400Z 25017G23KT 15SM BKN022 01/M04 A2994 RMK SC5 CU ASOCTD SLP148,CYYT,2018-03-21T14:00:00Z,47.62,-52.72,1.0,-4.0,250,17,23,15.0,29.940945,1014.8,,,,,,,,,,BKN,2200,,,,,,,MVFR,,,,,,,,,,,,SPECI,140.0
CYYZ 211400Z 02013KT 15SM BKN200 OVC270 M02/M12 A2993 RMK CS5CI3 SLP146,CYYZ,2018-03-21T14:00:00Z,43.67,-79.62,-2.0,-12.0,20,13,,15.0,29.929134,1014.6,,,,,,,,,,BKN,20000,OVC,27000,,,,,VFR,,,,,,,,,,,,SPECI,173.0
CYZF 211400Z 06012KT 15SM FEW160 FEW240 M25/M29 A3042 RMK AC1CI1 AC TR CI TR SLP332,CYZF,2018-03-21T14:00:00Z,62.47,-114.45,-25.0,-29.0,60,12,,15.0,30.41929,1033.2,,,,,,,,,,FEW,16000,FEW,24000,,,,,VFR,,,,,,,,,,,,SPECI,206.0
CYKG 211400Z 25005KT 220V290 15SM SCT091 OVC240 M08/M15 A3010 RMK AC3CS5 SLP212,CYKG,2018-03-21T14:00:00Z,61.57,-71.92,-8.0,-15.0,250,5,,15.0,30.100393,1021.2,,,,,,,,,,SCT,9100,OVC,24000,,,,,VFR,,,,,,,,,,,,SPECI,151.0
CYIK 211400Z 17016G22KT 15SM DRSN FEW007 FEW080 M14/M16 A3016 RMK ST1AS1 ST TR SLP220,CYIK,2018-03-21T14:00:00Z,62.42,-77.93,-14.0,-16.0,170,16,22,15.0,30.159449,1022.0,,,,,,,,,DRSN,FEW,700,FEW,8000,,,,,VFR,,,,,,,,,,,,SPECI,42.0
CYHA 211400Z 28003KT 15SM BKN100 BKN210 M12/M16 A3016 RMK AC5CS1 SLP220,CYHA,2018-03-21T14:00:00Z,61.03,-69.62,-12.0,-16.0,280,3,,15.0,30.159449,1022.0,,,,,,,,,,BKN,10000,BKN,21000,,,,,VFR,,,,,,,,,,,,SPECI,30.0
CYMH 211400Z AUTO 31008KT 9SM CLR M02/M07 A2982 RMK SLP100,CYMH,2018-03-21T14:00:00Z,52.28,-55.85,-2.0,-7.0,310,8,,9.0,29.819881,1010.0,,TRUE,,,,,,,,CLR,,,,,,,,VFR,,,,,,,,,,,,SPECI,11.0
CYLA 211400Z 32010KT 15SM FEW230 M13/M18 A3021 RMK CI2 SLP235,CYLA,2018-03-21T14:00:00Z,59.28,-69.58,-13.0,-18.0,320,10,,15.0,30.209646,1023.5,,,,,,,,,,FEW,23000,,,,,,,VFR,,,,,,,,,,,,METAR,35.0
CYOW 211400Z 01007KT 15SM FEW100 FEW210 BKN240 M05/M13 A2998 RMK AC1CI1CI4 AC TR SLP162,CYOW,2018-03-21T14:00:00Z,45.32,-75.67,-5.0,-13.0,10,7,,15.0,29.97933,1016.2,,,,,,,,,,FEW,10000,FEW,21000,BKN,24000,,,VFR,,,,,,,,,,,,SPECI,114.0
CYHZ 211400Z 07009KT 15SM FEW210 FEW230 BKN270 00/M06 A2989 RMK CC1CI1CI4 SLP130,CYHZ,2018-03-21T14:00:00Z,44.87,-63.5,0.0,-6.0,70,9,,15.0,29.890747,1013.0,,,,,,,,,,FEW,21000,FEW,23000,BKN,27000,,,VFR,,,,,,,,,,,,SPECI,145.0
CYGL 211400Z 03004KT 010V080 15SM -SN BKN011 M13/M16 A3031 RMK SC7 SLP285,CYGL,2018-03-21T14:00:00Z,53.62,-77.7,-13.0,-16.0,30,4,,15.0,30.31004,1028.5,,,,,,,,,-SN,BKN,1100,,,,,,,MVFR,,,,,,,,,,,,SPECI,195.0
CYFC 211400Z AUTO 08004KT 9SM CLR M03/M10 A2995 RMK SLP146,CYFC,2018-03-21T14:00:00Z,45.87,-66.52,-3.0,-10.0,80,4,,9.0,29.949802,1014.6,,TRUE,,,,,,,,CLR,,,,,,,,VFR,,,,,,,,,,,,SPECI,20.0
CYFB 211400Z 14002KT 30SM -SN BKN021 M15/M18 A3008 RMK SC7 SLP193,CYFB,2018-03-21T14:00:00Z,63.75,-68.55,-15.0,-18.0,140,2,,30.0,30.079725,1019.3,,,,,,,,,-SN,BKN,2100,,,,,,,MVFR,,,,,,,,,,,,SPECI,34.0
CYBG 211400Z 31004KT 25SM SKC M10/M14 A3008 RMK SLP199,CYBG,2018-03-21T14:00:00Z,48.33,-70.98,-10.0,-14.0,310,4,,25.0,30.079725,1019.9,,,,,,,,,,SKC,,,,,,,,VFR,,,,,,,,,,,,SPECI,159.0
CYAW 211400Z 06011KT 15SM FEW015 BKN180 BKN230 01/M03 A2992 RMK SC1AC5CI2 DA-1532FT SLP133,CYAW,2018-03-21T14:00:00Z,44.63,-63.5,1.0,-3.0,60,11,,15.0,29.920275,1013.3,,,,,,,,,,FEW,1500,BKN,18000,BKN,23000,,,VFR,,,,,,,,,,,,METAR,51.0
CYWH 211400Z 00000KT 15SM FEW010 FEW040 OVC085 05/03 A2976 RMK SC1SC1AC6 SLP080,CYWH,2018-03-21T14:00:00Z,48.42,-123.38,5.0,3.0,0,0,,15.0,29.760826,1008.0,,,,,,,,,,FEW,1000,FEW,4000,OVC,8500,,,VFR,,,,,,,,,,,,SPECI,10.0
CZMT 211400Z CCA 02004KT 15SM FEW008 FEW040 SCT075 BKN180 03/M03 A2977 RMK CF1SC2AS2CI2 CF TR FROIN SLP082,CZMT,2018-03-21T14:00:00Z,54.03,-132.13,3.0,-3.0,20,4,,15.0,29.769686,1008.2,,,,,,,,,,FEW,800,FEW,4000,SCT,7500,BKN,18000,VFR,,,,,,,,,,,,METAR,8.0
CYYF 211400Z 29002KT 15SM SCT075 BKN110 01/M01 A2981 RMK AC3AC3 SLP108,CYYF,2018-03-21T14:00:00Z,49.47,-119.58,1.0,-1.0,290,2,,15.0,29.811024,1010.8,,,,,,,,,,SCT,7500,BKN,11000,,,,,VFR,,,,,,,,,,,,SPECI,344.0
CYMT 211400Z AUTO 36008KT 9SM OVC080 M13/M16 A3007 RMK SLP217,CYMT,2018-03-21T14:00:00Z,49.77,-74.52,-13.0,-16.0,360,8,,9.0,30.070866,1021.7,,TRUE,,,,,,,,OVC,8000,,,,,,,VFR,,,,,,,,,,,,SPECI,387.0
CYOY 211400Z 00000KT 15SM FEW220 M03/M12 A2997 RMK CI2 DA-1607FT SLP161,CYOY,2018-03-21T14:00:00Z,46.88,-71.5,-3.0,-12.0,0,0,,15.0,29.970472,1016.1,,,,,,,,,,FEW,22000,,,,,,,VFR,,,,,,,,,,,,SPECI,168.0
CYPX 211400Z AUTO 18010KT 9SM FEW250 M20/M22 A3031 RMK SLP269,CYPX,2018-03-21T14:00:00Z,60.03,-77.27,-20.0,-22.0,180,10,,9.0,30.31004,1026.9,,TRUE,,,,,,,,FEW,25000,,,,,,,VFR,,,,,,,,,,,,SPECI,23.0
CYQI 211400Z 06015KT 15SM SCT090 BKN210 01/M05 A2979 RMK AC4CS3 SLP093,CYQI,2018-03-21T14:00:00Z,43.83,-66.08,1.0,-5.0,60,15,,15.0,29.790354,1009.3,,,,,,,,,,SCT,9000,BKN,21000,,,,,VFR,,,,,,,,,,,,SPECI,43.0
CYSK 211400Z 18004KT 15SM SCT200 M20/M22 A3041 RMK CS3 SLP305,CYSK,2018-03-21T14:00:00Z,56.53,-79.25,-20.0,-22.0,180,4,,15.0,30.410433,1030.5,,,,,,,,,,SCT,20000,,,,,,,VFR,,,,,,,,,,,,SPECI,26.0
CYUY 211400Z 04004KT 340V060 15SM FEW100 FEW230 M14/M20 A3014 RMK AC1CI1 AC TR CI TR SLP235,CYUY,2018-03-21T14:00:00Z,48.2,-78.82,-14.0,-20.0,40,4,,15.0,30.138779,1023.5,,,,,,,,,,FEW,10000,FEW,23000,,,,,VFR,,,,,,,,,,,,SPECI,301.0
CYWK 211400Z 01009KT 15SM FEW013 M09/M14 A3002 RMK CU2 SLP209,CYWK,2018-03-21T14:00:00Z,52.92,-66.87,-9.0,-14.0,10,9,,15.0,30.02067,1020.9,,,,,,,,,,FEW,1300,,,,,,,VFR,,,,,,,,,,,,SPECI,551.0
CWEU 211400Z 10004KT 12SM IC FEW060 BKN190 M38/M42 A3011 RMK SC1AC5 VIS S-W 3 BR SLP199,CWEU,2018-03-21T14:00:00Z,80.0,-85.92,-38.0,-42.0,100,4,,12.0,30.109253,1019.9,,,,,,,,,IC,FEW,6000,BKN,19000,,,,,VFR,,,,,,,,,,,,SPECI,10.0
ROYN 211400Z AUTO 36024KT 9999 SCT037 BKN048 17/08 Q1017,ROYN,2018-03-21T14:00:00Z,24.47,122.97,17.0,8.0,360,24,,6.21,30.029528,,,TRUE,,,,,,,,SCT,3700,BKN,4800,,,,,VFR,,,,,,,,,,,,METAR,17.0
RORY 211400Z AUTO 33023KT 9999 FEW025 BKN033 BKN047 16/10 Q1013,RORY,2018-03-21T14:00:00Z,27.05,128.4,16.0,10.0,330,23,,6.21,29.911417,,,TRUE,,,,,,,,FEW,2500,BKN,3300,BKN,4700,,,VFR,,,,,,,,,,,,METAR,16.0
CYZG 211400Z 21019G24KT 15SM DRSN FEW050 BKN081 OVC100 M13/M17 A3010 RMK SC1AC5AS2 SLP221,CYZG,2018-03-21T14:00:00Z,62.17,-75.67,-13.0,-17.0,210,19,24,15.0,30.100393,1022.1,,,,,,,,,DRSN,FEW,5000,BKN,8100,OVC,10000,,,VFR,,,,,,,,,,,,SPECI,226.0
AGGH 211400Z 05002KT 9999 FEW014 FEW015CB SCT029 25/24 Q1003,AGGH,2018-03-21T14:00:00Z,-9.42,160.05,25.0,24.0,50,2,,6.21,29.616142,,,,,,,,,,,FEW,1400,FEW,1500,SCT,2900,,,VFR,,,,,,,,,,,,METAR,9.0
SBTE 211400Z 10005KT 9999 SCT020 32/23 Q1012,SBTE,2018-03-21T14:00:00Z,-5.03,-42.82,32.0,23.0,100,5,,6.21,29.88189,,,,,,,,,,,SCT,2000,,,,,,,VFR,,,,,,,,,,,,METAR,69.0
SBLO 211400Z 00000KT 9999 FEW015 26/22 Q1015,SBLO,2018-03-21T14:00:00Z,-23.32,-51.12,26.0,22.0,0,0,,6.21,29.970472,,,,,,,,,,,FEW,1500,,,,,,,VFR,,,,,,,,,,,,METAR,570.0
SBPK 211400Z 22010KT 9999 BKN030 22/13 Q1018,SBPK,2018-03-21T14:00:00Z,-31.72,-52.33,22.0,13.0,220,10,,6.21,30.059055,,,,,,,,,,,BKN,3000,,,,,,,MVFR,,,,,,,,,,,,METAR,13.0
SBCY 211400Z 21005KT 9999 SCT020 BKN100 27/23 Q1014,SBCY,2018-03-21T14:00:00Z,-15.65,-56.12,27.0,23.0,210,5,,6.21,29.940945,,,,,,,,,,,SCT,2000,BKN,10000,,,,,VFR,,,,,,,,,,,,METAR,182.0
GQPP 211400Z 04018KT 4000 DRSA NSC 26/08 Q1017 NOSIG,GQPP,2018-03-21T14:00:00Z,20.92,-17.02,26.0,8.0,40,18,,2.49,30.029528,,,,,,TRUE,,,,DRSA,CLR,,,,,,,,IFR,,,,,,,,,,,,METAR,3.0
SCCY 211400Z VRB02KT 5000 VCFG SCT003 SCT100 06/03 Q1002,SCCY,2018-03-21T14:00:00Z,-45.57,-72.1,6.0,3.0,0,2,,3.11,29.586615,,,,,,,,,,VCFG,SCT,300,SCT,10000,,,,,MVFR,,,,,,,,,,,,METAR,311.0
SCIC 211400Z VRB02KT CAVOK 19/11 Q1012,SCIC,2018-03-21T14:00:00Z,-34.97,-71.22,19.0,11.0,0,2,,6.21,29.88189,,,,,,,,,,,CAVOK,,,,,,,,VFR,,,,,,,,,,,,METAR,242.0
SCGE 211400Z 00000KT 2000 BR SCT007 12/11 Q1013,SCGE,2018-03-21T14:00:00Z,-37.38,-72.42,12.0,11.0,0,0,,1.24,29.911417,,,,,,,,,,BR,SCT,700,,,,,,,IFR,,,,,,,,,,,,METAR,114.0
SCRM 211400Z 31020KT 3000 BR OVC005 02/02 Q0974,SCRM,2018-03-21T14:00:00Z,-62.18,-58.98,2.0,2.0,310,20,,1.86,28.759842,,,,,,,,,,BR,OVC,500,,,,,,,IFR,,,,,,,,,,,,METAR,45.0
SCCH 211400Z 07004KT 3000 FU NSC 15/12 Q1012,SCCH,2018-03-21T14:00:00Z,-36.57,-72.02,15.0,12.0,70,4,,1.86,29.88189,,,,,,,,,,FU,CLR,,,,,,,,IFR,,,,,,,,,,,,METAR,148.0
SCTN 211400Z 33013KT CAVOK 13/11 Q1007,SCTN,2018-03-21T14:00:00Z,-42.92,-72.7,13.0,11.0,330,13,,6.21,29.734253,,,,,,,,,,,CAVOK,,,,,,,,VFR,,,,,,,,,,,,METAR,4.0
SCPQ 211400Z 35011KT 9999 FEW002 BKN005 OVC074 10/09 Q1006,SCPQ,2018-03-21T14:00:00Z,-42.33,-73.72,10.0,9.0,350,11,,6.21,29.704725,,,,,,,,,,,FEW,200,BKN,500,OVC,7400,,,IFR,,,,,,,,,,,,METAR,5.0
SCIP 211400Z 11003KT 9999 FEW025 SCT050 20/15 Q1021 NOSIG,SCIP,2018-03-21T14:00:00Z,-27.17,-109.43,20.0,15.0,110,3,,6.21,30.147638,,,,,,TRUE,,,,,FEW,2500,SCT,5000,,,,,VFR,,,,,,,,,,,,METAR,69.0
SCCI 211400Z 32007KT 9999 SCT043 SCT090 OVC130 09/02 Q0987 NOSIG,SCCI,2018-03-21T14:00:00Z,-53.0,-70.83,9.0,2.0,320,7,,6.21,29.143702,,,,,,TRUE,,,,,SCT,4300,SCT,9000,OVC,13000,,,VFR,,,,,,,,,,,,METAR,37.0
SCNT 211400Z 27003KT 160V330 9999 VCSH BKN060 OVC100 08/04 Q0988,SCNT,2018-03-21T14:00:00Z,-51.67,-72.53,8.0,4.0,270,3,,6.21,29.17323,,,,,,,,,,VCSH,BKN,6000,OVC,10000,,,,,VFR,,,,,,,,,,,,METAR,67.0
SCTE 211400Z 36008KT CAVOK 13/10 Q1008 NOSIG,SCTE,2018-03-21T14:00:00Z,-41.42,-73.07,13.0,10.0,360,8,,6.21,29.763779,,,,,,TRUE,,,,,CAVOK,,,,,,,,VFR,,,,,,,,,,,,METAR,86.0
SCQP 211400Z VRB02KT 1600 BR OVC002 10/10 Q1012,SCQP,2018-03-21T14:00:00Z,-38.92,-72.65,10.0,10.0,0,2,,0.99,29.88189,,,,,,,,,,BR,OVC,200,,,,,,,LIFR,,,,,,,,,,,,METAR,97.0
SCJO 211400Z 34005KT 9999 SCT002 BKN040 11/11 Q1010,SCJO,2018-03-21T14:00:00Z,-40.6,-73.03,11.0,11.0,340,5,,6.21,29.822834,,,,,,,,,,,SCT,200,BKN,4000,,,,,VFR,,,,,,,,,,,,METAR,65.0
SCSE 211400Z 34004KT 9999 OVC013 14/12 Q1014,SCSE,2018-03-21T14:00:00Z,-29.92,-71.2,14.0,12.0,340,4,,6.21,29.940945,,,,,,,,,,,OVC,1300,,,,,,,MVFR,,,,,,,,,,,,METAR,146.0
SCDA 211400Z 22010KT CAVOK 20/15 Q1011,SCDA,2018-03-21T14:00:00Z,-20.52,-70.17,20.0,15.0,220,10,,6.21,29.852362,,,,,,,,,,,CAVOK,,,,,,,,VFR,,,,,,,,,,,,METAR,52.0
SCAT 211400Z VRB02KT 9999 OVC009 14/11 Q1014,SCAT,2018-03-21T14:00:00Z,-27.27,-70.77,14.0,11.0,0,2,,6.21,29.940945,,,,,,,,,,,OVC,900,,,,,,,IFR,,,,,,,,,,,,METAR,204.0
SCIE 211400Z VRB02KT 8000 3000N BKN005 13/12 Q1013,SCIE,2018-03-21T14:00:00Z,-36.77,-73.07,13.0,12.0,0,2,,4.97,29.911417,,,,,,,,,,,BKN,500,,,,,,,IFR,,,,,,,,,,,,SPECI,16.0
SCCF 211400Z 07006KT CAVOK 20/M04 Q1023,SCCF,2018-03-21T14:00:00Z,-22.5,-68.9,20.0,-4.0,70,6,,6.21,30.206694,,,,,,,,,,,CAVOK,,,,,,,,VFR,,,,,,,,,,,,METAR,2312.0
SCBA 211400Z VRB02KT CAVOK 03/01 Q1003,SCBA,2018-03-21T14:00:00Z,-45.92,-71.67,3.0,1.0,0,2,,6.21,29.616142,,,,,,,,,,,CAVOK,,,,,,,,VFR,,,,,,,,,,,,METAR,524.0
SCAR 211400Z 29004KT 250V030 CAVOK 23/14 Q1011,SCAR,2018-03-21T14:00:00Z,-18.35,-70.32,23.0,14.0,290,4,,6.21,29.852362,,,,,,,,,,,CAVOK,,,,,,,,VFR,,,,,,,,,,,,METAR,59.0
SCFA 211400Z 21007KT 9999 FEW025 17/12 Q1012 NOSIG,SCFA,2018-03-21T14:00:00Z,-23.42,-70.42,17.0,12.0,210,7,,6.21,29.88189,,,,,,TRUE,,,,,FEW,2500,,,,,,,VFR,,,,,,,,,,,,METAR,120.0
SBVT 211400Z 35004KT CAVOK 29/24 Q1013,SBVT,2018-03-21T14:00:00Z,-20.27,-40.27,29.0,24.0,350,4,,6.21,29.911417,,,,,,,,,,,CAVOK,,,,,,,,VFR,,,,,,,,,,,,METAR,4.0
OPNH 211400Z 04506KT 6000 NSC 29/10 Q1009 NOSIG,OPNH,2018-03-21T14:00:00Z,26.22,68.37,29.0,10.0,45,6,,3.73,29.793306,,,,,,TRUE,,,,,CLR,,,,,,,,MVFR,,,,,,,,,,,,METAR,38.0
SBCR 211400Z 23007KT 9999 FEW015 SCT025 28/23 Q1014,SBCR,2018-03-21T14:00:00Z,-19.0,-57.67,28.0,23.0,230,7,,6.21,29.940945,,,,,,,,,,,FEW,1500,SCT,2500,,,,,VFR,,,,,,,,,,,,METAR,141.0
SBSN 211400Z 09015KT 9999 SCT020 FEW030TCU 30/25 Q1012,SBSN,2018-03-21T14:00:00Z,-2.42,-54.78,30.0,25.0,90,15,,6.21,29.88189,,,,,,,,,,,SCT,2000,FEW,3000,,,,,VFR,,,,,,,,,,,,METAR,72.0
TNCM 211400Z 11010KT 060V150 9999 FEW018 27/21 Q1019 A3009 NOSIG RMK SHRA N/SW/NW,TNCM,2018-03-21T14:00:00Z,18.05,-63.12,27.0,21.0,110,10,,6.21,30.088583,,,,,,TRUE,,,,,FEW,1800,,,,,,,VFR,,,,,,,,,,,,METAR,4.0
RKSM 211400Z 32001KT 9999 SCT030 OVC060 02/00 A3002,RKSM,2018-03-21T14:00:00Z,37.42,127.12,2.0,0.0,320,1,,6.21,30.02067,,,,,,,,,,,SCT,3000,OVC,6000,,,,,VFR,,,,,,,,,,,,METAR,20.0
SCEL 211400Z VRB02KT 7000 NSC 19/08 Q1013 NOSIG,SCEL,2018-03-21T14:00:00Z,-33.37,-70.77,19.0,8.0,0,2,,4.35,29.911417,,,,,,TRUE,,,,,CLR,,,,,,,,MVFR,,,,,,,,,,,,METAR,476.0
SBPL 211400Z 10008KT 9999 BKN033 32/20 Q1015,SBPL,2018-03-21T14:00:00Z,-9.37,-40.57,32.0,20.0,100,8,,6.21,29.970472,,,,,,,,,,,BKN,3300,,,,,,,VFR,,,,,,,,,,,,METAR,375.0
ZLXY 211400Z 01002MPS 340V050 5000 HZ NSC 11/04 Q1017 NOSIG,ZLXY,2018-03-21T14:00:00Z,34.43,108.75,11.0,4.0,10,4,,3.11,30.029528,,,,,,TRUE,,,,HZ,CLR,,,,,,,,MVFR,,,,,,,,,,,,METAR,479.0
ZGSZ 211400Z 05003MPS CAVOK 19/08 Q1018 NOSIG,ZGSZ,2018-03-21T14:00:00Z,22.63,113.8,19.0,8.0,50,6,,6.21,30.059055,,,,,,TRUE,,,,,CAVOK,,,,,,,,VFR,,,,,,,,,,,,METAR,18.0
ZGOW 211400Z 02002MPS CAVOK 16/06 Q1018 NOSIG,ZGOW,2018-03-21T14:00:00Z,23.55,116.5,16.0,6.0,20,4,,6.21,30.059055,,,,,,TRUE,,,,,CAVOK,,,,,,,,VFR,,,,,,,,,,,,METAR,3.0
ZGNN 211400Z 09003MPS 080V160 CAVOK 17/08 Q1019 NOSIG,ZGNN,2018-03-21T14:00:00Z,22.62,108.17,17.0,8.0,90,6,,6.21,30.088583,,,,,,TRUE,,,,,CAVOK,,,,,,,,VFR,,,,,,,,,,,,METAR,73.0
ZGKL 211400Z VRB02MPS CAVOK 15/06 Q1020 NOSIG,ZGKL,2018-03-21T14:00:00Z,25.22,110.03,15.0,6.0,0,4,,6.21,30.11811,,,,,,TRUE,,,,,CAVOK,,,,,,,,VFR,,,,,,,,,,,,METAR,166.0
FBKE 211400Z 09008KT 9999 BKN030 30/21 Q1015,FBKE,2018-03-21T14:00:00Z,-17.82,25.17,30.0,21.0,90,8,,6.21,29.970472,,,,,,,,,,,BKN,3000,,,,,,,MVFR,,,,,,,,,,,,METAR,1000.0
FBFT 211400Z 34003KT 310V010 9999 SCT030 FEW035CB 32/15 Q1015,FBFT,2018-03-21T14:00:00Z,-21.17,27.48,32.0,15.0,340,3,,6.21,29.970472,,,,,,,,,,,SCT,3000,FEW,3500,,,,,VFR,,,,,,,,,,,,METAR,1000.0
FAWB 211400Z AUTO 21006KT //// 28/16 Q1017,FAWB,2018-03-21T14:00:00Z,-25.63,28.22,28.0,16.0,210,6,,,30.029528,,,TRUE,,,,,,,,,,,,,,,,,,,,,,,,,,,,METAR,1248.0
FAUP 211400Z 35011KT 9999 FEW050 BKN100 28/03 Q1015 NOSIG,FAUP,2018-03-21T14:00:00Z,-28.38,21.27,28.0,3.0,350,11,,6.21,29.970472,,,,,,TRUE,,,,,FEW,5000,BKN,10000,,,,,VFR,,,,,,,,,,,,METAR,836.0
ZWSH 211400Z 19001MPS 5000 DU NSC 17/M12 Q1017 NOSIG,ZWSH,2018-03-21T14:00:00Z,39.55,76.02,17.0,-12.0,190,2,,3.11,30.029528,,,,,,TRUE,,,,DU,CLR,,,,,,,,MVFR,,,,,,,,,,,,METAR,1380.0
ZBSJ 211400Z 10001MPS 8000 NSC 04/M06 Q1018 NOSIG,ZBSJ,2018-03-21T14:00:00Z,38.28,114.7,4.0,-6.0,100,2,,4.97,30.059055,,,,,,TRUE,,,,,CLR,,,,,,,,MVFR,,,,,,,,,,,,METAR,71.0
TDPD 211400Z 12005KT 7000 -RA BKN017 BKN032 24/22 Q1019,TDPD,2018-03-21T14:00:00Z,15.55,-61.3,24.0,22.0,120,5,,4.35,30.088583,,,,,,,,,,-RA,BKN,1700,BKN,3200,,,,,MVFR,,,,,,,,,,,,METAR,14.0
FAOR 211400Z 24010KT 220V280 9999 FEW042TCU SCT045 24/13 Q1021 NOSIG,FAOR,2018-03-21T14:00:00Z,-26.12,28.22,24.0,13.0,240,10,,6.21,30.147638,,,,,,TRUE,,,,,FEW,4200,SCT,4500,,,,,VFR,,,,,,,,,,,,METAR,1700.0
FAKN 211400Z 36003KT 9999 SCT020 FEW035TCU 25/17 Q1016 NOSIG,FAKN,2018-03-21T14:00:00Z,-25.38,31.1,25.0,17.0,360,3,,6.21,30.0,,,,,,TRUE,,,,,SCT,2000,FEW,3500,,,,,VFR,,,,,,,,,,,,METAR,862.0
FAKM 211400Z 35009KT CAVOK 19/13 Q1021,FAKM,2018-03-21T14:00:00Z,-28.8,24.77,19.0,13.0,350,9,,6.21,30.147638,,,,,,,,,,,CAVOK,,,,,,,,VFR,,,,,,,,,,,,METAR,1192.0
FAHS 211400Z AUTO 02006KT //// ///// Q1013,FAHS,2018-03-21T14:00:00Z,-24.37,31.02,,,20,6,,,29.911417,,,TRUE,,,,,,,,,,,,,,,,,,,,,,,,,,,,METAR,500.0
FAUT 211400Z AUTO 17009KT //// 18/15 Q1019,FAUT,2018-03-21T14:00:00Z,-31.52,28.67,18.0,15.0,170,9,,,30.088583,,,TRUE,,,,,,,,,,,,,,,,,,,,,,,,,,,,METAR,732.0
FAPP 211400Z 29007KT 9999 FEW050TCU 29/16 Q1017 NOSIG,FAPP,2018-03-21T14:00:00Z,-23.83,29.45,29.0,16.0,290,7,,6.21,30.029528,,,,,,TRUE,,,,,FEW,5000,,,,,,,VFR,,,,,,,,,,,,METAR,1242.0
FAMM 211400Z AUTO 16009KT //// // ////// 20/16 Q1019,FAMM,2018-03-21T14:00:00Z,-25.8,25.52,20.0,16.0,160,9,,,30.088583,,,TRUE,,,,,,,,,,,,,,,,,,,,,,,,,,,,SPECI,1277.0
FVHA 211400Z 00000KT 9999 FEW045CB BKN050TCU BKN100 26/14 Q1021 NOSIG,FVHA,2018-03-21T14:00:00Z,-17.92,31.12,26.0,14.0,0,0,,6.21,30.147638,,,,,,TRUE,,,,,FEW,4500,BKN,5000,BKN,10000,,,VFR,,,,,,,,,,,,METAR,1503.0
FBSP 211400Z 13005KT 9999 SCT030 34/19 Q1014,FBSP,2018-03-21T14:00:00Z,-22.05,27.82,34.0,19.0,130,5,,6.21,29.940945,,,,,,,,,,,SCT,3000,,,,,,,VFR,,,,,,,,,,,,METAR,892.0
FQQL 211400Z 14008KT 9999 SCT020 31/23 Q1011,FQQL,2018-03-21T14:00:00Z,-17.87,36.87,31.0,23.0,140,8,,6.21,29.852362,,,,,,,,,,,SCT,2000,,,,,,,VFR,,,,,,,,,,,,METAR,16.0
LKPD 211400Z 32006KT 260V030 CAVOK 03/M11 Q1024 NOSIG RMK BLU BLU,LKPD,2018-03-21T14:00:00Z,50.02,15.73,3.0,-11.0,320,6,,6.21,30.236221,,,,,,TRUE,,,,,CAVOK,,,,,,,,VFR,,,,,,,,,,,,METAR,226.0
LKNA 211400Z 33013KT CAVOK 01/M13 Q1022 NOSIG RMK BLU BLU,LKNA,2018-03-21T14:00:00Z,49.17,16.12,1.0,-13.0,330,13,,6.21,30.177166,,,,,,TRUE,,,,,CAVOK,,,,,,,,VFR,,,,,,,,,,,,METAR,472.0
LKLN 211400Z AUTO VRB04KT 9999 FEW060 04/M11 Q1025,LKLN,2018-03-21T14:00:00Z,49.68,13.27,4.0,-11.0,0,4,,6.21,30.265747,,,TRUE,,,,,,,,FEW,6000,,,,,,,VFR,,,,,,,,,,,,METAR,362.0
LKKB 211400Z VRB05KT CAVOK 03/M12 Q1025 NOSIG,LKKB,2018-03-21T14:00:00Z,50.12,14.53,3.0,-12.0,0,5,,6.21,30.265747,,,,,,TRUE,,,,,CAVOK,,,,,,,,VFR,,,,,,,,,,,,METAR,286.0
LKCV 211400Z 29005KT 250V330 CAVOK 03/M10 Q1024 NOSIG RMK BLU+ BLU,LKCV,2018-03-21T14:00:00Z,49.93,15.38,3.0,-10.0,290,5,,6.21,30.236221,,,,,,TRUE,,,,,CAVOK,,,,,,,,VFR,,,,,,,,,,,,METAR,242.0
FACT 211400Z 16025G35KT 9999 FEW040 22/12 Q1018 NOSIG,FACT,2018-03-21T14:00:00Z,-33.97,18.6,22.0,12.0,160,25,35,6.21,30.059055,,,,,,TRUE,,,,,FEW,4000,,,,,,,VFR,,,,,,,,,,,,SPECI,42.0
FWKI 211400Z 08005KT 9999 FEW033CB 25/18 Q1017 NOSIG,FWKI,2018-03-21T14:00:00Z,-13.77,33.77,25.0,18.0,80,5,,6.21,30.029528,,,,,,TRUE,,,,,FEW,3300,,,,,,,VFR,,,,,,,,,,,,METAR,1229.0
RKNY 211400Z AUTO 29005KT 9999 NCD 02/M04 Q1015,RKNY,2018-03-21T14:00:00Z,38.07,128.67,2.0,-4.0,290,5,,6.21,29.970472,,,TRUE,,,,,,,,CLR,,,,,,,,VFR,,,,,,,,,,,,METAR,74.0
RKJB 211400Z 02007KT 9000 BKN040 OVC130 02/01 Q1015 NOSIG,RKJB,2018-03-21T14:00:00Z,34.98,126.38,2.0,1.0,20,7,,5.59,29.970472,,,,,,TRUE,,,,,BKN,4000,OVC,13000,,,,,VFR,,,,,,,,,,,,METAR,2.0
RKTN 211400Z 31007KT 4800 -RA BR BKN020 OVC030 02/01 Q1013 NOSIG,RKTN,2018-03-21T14:00:00Z,35.88,128.65,2.0,1.0,310,7,,2.98,29.911417,,,,,,TRUE,,,,-RA BR,BKN,2000,OVC,3000,,,,,IFR,,,,,,,,,,,,METAR,35.0
RKPK 211400Z 34011KT 9999 FEW015 BKN030 BKN070 04/00 Q1012 NOSIG,RKPK,2018-03-21T14:00:00Z,35.17,128.92,4.0,0.0,340,11,,6.21,29.88189,,,,,,TRUE,,,,,FEW,1500,BKN,3000,BKN,7000,,,MVFR,,,,,,,,,,,,METAR,15.0
RKPC 211400Z 33011KT 300V360 9999 -RA FEW015 BKN025 OVC100 06/01 Q1014 NOSIG,RKPC,2018-03-21T14:00:00Z,33.5,126.48,6.0,1.0,330,11,,6.21,29.940945,,,,,,TRUE,,,,-RA,FEW,1500,BKN,2500,OVC,10000,,,MVFR,,,,,,,,,,,,METAR,27.0
RKSS 211400Z 29004KT 9999 BKN030 OVC100 02/M02 Q1016 NOSIG,RKSS,2018-03-21T14:00:00Z,37.53,126.78,2.0,-2.0,290,4,,6.21,30.0,,,,,,TRUE,,,,,BKN,3000,OVC,10000,,,,,MVFR,,,,,,,,,,,,METAR,19.0
TVSM 211400Z 10011KT 9999 SCT020 30/22 Q1015 ,TVSM,2018-03-21T14:00:00Z,12.88,-61.18,30.0,22.0,100,11,,6.21,29.970472,,,,,,,,,,,SCT,2000,,,,,,,VFR,,,,,,,,,,,,METAR,2.0
TVSA 211400Z 08010KT 040V110 9999 FEW020 28/23 Q1016 NOSIG ,TVSA,2018-03-21T14:00:00Z,13.15,-61.15,28.0,23.0,80,10,,6.21,30.0,,,,,,TRUE,,,,,FEW,2000,,,,,,,VFR,,,,,,,,,,,,METAR,17.0
VAID 211400Z 30006KT 6000 NSC 28/04 Q1012 NOSIG,VAID,2018-03-21T14:00:00Z,22.72,75.78,28.0,4.0,300,6,,3.73,29.88189,,,,,,TRUE,,,,,CLR,,,,,,,,MVFR,,,,,,,,,,,,METAR,567.0
UMMM 211400Z 32006G09MPS 9999 BKN029CB BKN100 M01/M03 Q1013 RMK QFE741,UMMM,2018-03-21T14:00:00Z,53.87,27.52,-1.0,-3.0,320,12,17,6.21,29.911417,,,,,,,,,,,BKN,2900,BKN,10000,,,,,MVFR,,,,,,,,,,,,METAR,234.0
UMII 211400Z 32004MPS 9999 BKN033 M00/M05 Q1011 R05/CLRD// TEMPO 2100 -SHSN BKN005 BKN010CB,UMII,2018-03-21T14:00:00Z,55.13,30.35,0.0,-5.0,320,8,,6.21,29.852362,,,,,,,,,,,BKN,3300,,,,,,,VFR,,,,,,,,,,,,METAR,208.0
BIVM 211400Z 20012KT 9999 SHRA VCSH FEW010 BKN025 06/05 Q1005,BIVM,2018-03-21T14:00:00Z,63.42,-20.27,6.0,5.0,200,12,,6.21,29.675198,,,,,,,,,,SHRA VCSH,FEW,1000,BKN,2500,,,,,MVFR,,,,,,,,,,,,METAR,124.0
LETO 211400Z 34020KT 9999 FEW050 11/M03 Q1022 NOSIG,LETO,2018-03-21T14:00:00Z,40.47,-3.47,11.0,-3.0,340,20,,6.21,30.177166,,,,,,TRUE,,,,,FEW,5000,,,,,,,VFR,,,,,,,,,,,,METAR,608.0
LELN 211400Z 34011KT 290V020 CAVOK 06/M05 Q1027,LELN,2018-03-21T14:00:00Z,42.57,-5.65,6.0,-5.0,340,11,,6.21,30.324802,,,,,,,,,,,CAVOK,,,,,,,,VFR,,,,,,,,,,,,METAR,914.0
LELC 211400Z 10008KT 070V150 CAVOK 13/02 Q1019 NOSIG,LELC,2018-03-21T14:00:00Z,37.77,-0.8,13.0,2.0,100,8,,6.21,30.088583,,,,,,TRUE,,,,,CAVOK,,,,,,,,VFR,,,,,,,,,,,,METAR,3.0
LEBZ 211400Z 34007KT 290V030 CAVOK 15/03 Q1025,LEBZ,2018-03-21T14:00:00Z,38.87,-6.82,15.0,3.0,340,7,,6.21,30.265747,,,,,,,,,,,CAVOK,,,,,,,,VFR,,,,,,,,,,,,METAR,192.0
LEAB 211400Z 34013KT 320V030 CAVOK 10/M09 Q1019 NOSIG,LEAB,2018-03-21T14:00:00Z,38.95,-1.85,10.0,-9.0,340,13,,6.21,30.088583,,,,,,TRUE,,,,,CAVOK,,,,,,,,VFR,,,,,,,,,,,,METAR,704.0
CYQB 211400Z 06008KT 15SM FEW100 FEW200 M05/M10 A3001 RMK AC1CI2 AC TR SLP167,CYQB,2018-03-21T14:00:00Z,46.78,-71.37,-5.0,-10.0,60,8,,15.0,30.008858,1016.7,,,,,,,,,,FEW,10000,FEW,20000,,,,,VFR,,,,,,,,,,,,SPECI,73.0
CWKP 211400Z AUTO 24004KT M19/ A3039 RMK SLP345,CWKP,2018-03-21T14:00:00Z,69.67,-121.67,-19.0,,240,4,,,30.389763,1034.5,,TRUE,,,,,,,,,,,,,,,,,,,,,,,,,,,,METAR,330.0
CWSA 211400Z AUTO 08013G19KT 9SM SCT070 OVC082 03/M01 A2992 RMK SLP133,CWSA,2018-03-21T14:00:00Z,43.93,-60.0,3.0,-1.0,80,13,19,9.0,29.920275,1013.3,,TRUE,,,,,,,,SCT,7000,OVC,8200,,,,,VFR,,,,,,,,,,,,SPECI,4.0
CWRH 211400Z AUTO ///// M12/ A2994 RMK SLP183,CWRH,2018-03-21T14:00:00Z,61.57,-64.65,-12.0,,,,,,29.940945,1018.3,,TRUE,,,,,,,,,,,,,,,,,,,,,,,,,,,,SPECI,369.0
CWTU 211400Z AUTO ///// A2969,CWTU,2018-03-21T14:00:00Z,54.72,-58.35,,,,,,,29.68996,,,TRUE,,,,,,,,,,,,,,,,,,,,,,,,,,,,SPECI,683.0
CWWU 211400Z 25013G21KT 15SM BKN028 BKN038 02/M03 A2998 RMK SC5SC1 SLP152,CWWU,2018-03-21T14:00:00Z,47.52,-52.98,2.0,-3.0,250,13,21,15.0,29.97933,1015.2,,,,,,,,,,BKN,2800,BKN,3800,,,,,MVFR,,,,,,,,,,,,SPECI,13.0
CWXR 211400Z AUTO 16009KT M20/ A3051 RMK SLP347,CWXR,2018-03-21T14:00:00Z,69.27,-119.22,-20.0,,160,9,,,30.510826,1034.7,,TRUE,,,,,,,,,,,,,,,,,,,,,,,,,,,,SPECI,69.0
CYPD 211400Z AUTO 09004KT 020V110 9SM CLR 02/M08 A2996 RMK SLP152,CYPD,2018-03-21T14:00:00Z,45.67,-61.37,2.0,-8.0,90,4,,9.0,29.958662,1015.2,,TRUE,,,,,,,,CLR,,,,,,,,VFR,,,,,,,,,,,,METAR,114.0
CWYM 211400Z AUTO ///// M17/ A2972 RMK SLP129,CWYM,2018-03-21T14:00:00Z,64.95,-63.57,-17.0,,,,,,29.719488,1012.9,,TRUE,,,,,,,,,,,,,,,,,,,,,,,,,,,,SPECI,583.0
CTNK 211400Z AUTO 02003KT M07/M16 RMK AO1 SOG 23 0005 SLP170 T10651159,CTNK,2018-03-21T14:00:00Z,45.53,-78.27,-6.5,-15.9,20,3,,,,1017.0,,TRUE,TRUE,,,,,,,,,,,,,,,,,,,,,,,,,,,METAR,410.0
CYXP 211400Z 26005KT 15SM BKN027 BKN040 M19/M21 A3000 RMK SC5CU1 CU TR CIG ESTD SLP163,CYXP,2018-03-21T14:00:00Z,66.15,-65.72,-19.0,-21.0,260,5,,15.0,30.0,1016.3,,,,,,,,,,BKN,2700,BKN,4000,,,,,MVFR,,,,,,,,,,,,SPECI,23.0
CZEM 211400Z 00000KT 15SM OVC020 M12/M16 A3033 RMK SC8 SLP274,CZEM,2018-03-21T14:00:00Z,52.22,-78.52,-12.0,-16.0,0,0,,15.0,30.33071,1027.4,,,,,,,,,,OVC,2000,,,,,,,MVFR,,,,,,,,,,,,SPECI,7.0
CZFM 211400Z 30003KT 15SM SCT028 BKN083 M19/M21 A3063 RMK SC3AC4 SLP378,CZFM,2018-03-21T14:00:00Z,67.4,-134.87,-19.0,-21.0,300,3,,15.0,30.628937,1037.8,,,,,,,,,,SCT,2800,BKN,8300,,,,,VFR,,,,,,,,,,,,SPECI,43.0
CZPC 211400Z AUTO 23013KT 9SM BKN130 OVC150 00/M04 A2980 RMK SLP126,CZPC,2018-03-21T14:00:00Z,49.52,-114.0,0.0,-4.0,230,13,,9.0,29.799213,1012.6,,TRUE,,,,,,,,BKN,13000,OVC,15000,,,,,VFR,,,,,,,,,,,,SPECI,1190.0
CYAM 211400Z 29005KT 15SM FEW210 SCT260 M12/M18 A3017 RMK CI1CI3 SLP234,CYAM,2018-03-21T14:00:00Z,46.47,-84.52,-12.0,-18.0,290,5,,15.0,30.171259,1023.4,,,,,,,,,,FEW,21000,SCT,26000,,,,,VFR,,,,,,,,,,,,SPECI,192.0
OJAQ 211400Z 35022KT 5000 BLDU 31/03 Q1014 NOSIG,OJAQ,2018-03-21T14:00:00Z,29.62,35.02,31.0,3.0,350,22,,3.11,29.940945,,,,,,TRUE,,,,BLDU,,,,,,,,,,,,,,,,,,,,,METAR,51.0
OIFK 211400Z 00000KT CAVOK 29/M12 Q1012,OIFK,2018-03-21T14:00:00Z,33.9,51.58,29.0,-12.0,0,0,,6.21,29.88189,,,,,,,,,,,CAVOK,,,,,,,,VFR,,,,,,,,,,,,METAR,982.0
OIAI 211400Z 31006KT CAVOK 30/04 Q1012,OIAI,2018-03-21T14:00:00Z,32.0,49.27,30.0,4.0,310,6,,6.21,29.88189,,,,,,,,,,,CAVOK,,,,,,,,VFR,,,,,,,,,,,,METAR,372.0
SESG 211400Z 28023KT CAVOK 27/M08 Q1012,SESG,2018-03-21T14:00:00Z,,,27.0,-8.0,280,23,,6.21,29.88189,,,,,,,,,,,CAVOK,,,,,,,,VFR,,,,,,,,,,,,METAR,
OISA 211400Z 36010KT CAVOK 22/M13 Q1020,OISA,2018-03-21T14:00:00Z,31.03,52.78,22.0,-13.0,360,10,,6.21,30.11811,,,,,,,,,,,CAVOK,,,,,,,,VFR,,,,,,,,,,,,METAR,2004.0
OINK 211400Z 00000KT CAVOK 26/19 Q1005,OINK,2018-03-21T14:00:00Z,37.25,55.1,26.0,19.0,0,0,,6.21,29.675198,,,,,,,,,,,CAVOK,,,,,,,,VFR,,,,,,,,,,,,METAR,33.0
CYFT 211400Z 30019G25KT 3SM -FZDZ OVC007 M06/M07 A2989 RMK ST8 SLP129,CYFT,2018-03-21T14:00:00Z,55.07,-59.17,-6.0,-7.0,300,19,25,3.0,29.890747,1012.9,,,,,,,,,-FZDZ,OVC,700,,,,,,,IFR,,,,,,,,,,,,SPECI,71.0
MNBL 211400Z 08004KT 9999 SCT019 28/22 Q1013,MNBL,2018-03-21T14:00:00Z,12.0,-83.77,28.0,22.0,80,4,,6.21,29.911417,,,,,,,,,,,SCT,1900,,,,,,,VFR,,,,,,,,,,,,METAR,5.0
MNCH 211400Z 00000KT 6000 FEW025 SCT300 27/19 Q1012 FU,MNCH,2018-03-21T14:00:00Z,12.62,-87.12,27.0,19.0,0,0,,3.73,29.88189,,,,,,,,,,FU,FEW,2500,SCT,30000,,,,,MVFR,,,,,,,,,,,,METAR,53.0
MNJU 211400Z 09004KT 9999 FEW020 27/22 Q1013,MNJU,2018-03-21T14:00:00Z,12.08,-85.37,27.0,22.0,90,4,,6.21,29.911417,,,,,,,,,,,FEW,2000,,,,,,,VFR,,,,,,,,,,,,METAR,90.0
MNJG 211400Z 36008KT 9999 FEW018 20/17 Q1015,MNJG,2018-03-21T14:00:00Z,13.08,-86.02,20.0,17.0,360,8,,6.21,29.970472,,,,,,,,,,,FEW,1800,,,,,,,VFR,,,,,,,,,,,,METAR,985.0
MNRS 211400Z 36006KT 9999 FEW016 27/22 Q1012,MNRS,2018-03-21T14:00:00Z,11.42,-85.82,27.0,22.0,360,6,,6.21,29.88189,,,,,,,,,,,FEW,1600,,,,,,,VFR,,,,,,,,,,,,METAR,53.0
MNPC 211400Z 07006KT 7000 BKN016 29/23 Q1013 HZ,MNPC,2018-03-21T14:00:00Z,14.05,-83.38,29.0,23.0,70,6,,4.35,29.911417,,,,,,,,,,HZ,BKN,1600,,,,,,,MVFR,,,,,,,,,,,,METAR,16.0
CYYR 211400Z 34012KT 15SM SCT029 BKN041 BKN071 M03/M07 A2995 RMK SC3SC2AC2 SLP147,CYYR,2018-03-21T14:00:00Z,53.32,-60.42,-3.0,-7.0,340,12,,15.0,29.949802,1014.7,,,,,,,,,,SCT,2900,BKN,4100,BKN,7100,,,VFR,,,,,,,,,,,,SPECI,49.0
CYYJ 211400Z 25005KT 30SM FEW035 BKN086 BKN120 BKN180 03/02 A2976 RMK SC1AC5AC2AC1 SC TR AC TR SLP081,CYYJ,2018-03-21T14:00:00Z,48.63,-123.42,3.0,2.0,250,5,,30.0,29.760826,1008.1,,,,,,,,,,FEW,3500,BKN,8600,BKN,12000,BKN,18000,VFR,,,,,,,,,,,,SPECI,19.0
CYYC 211400Z 00000KT 40SM BKN087 BKN180 M02/M07 A2977 RMK AC5AC2 SLP124,CYYC,2018-03-21T14:00:00Z,51.12,-114.02,-2.0,-7.0,0,0,,40.0,29.769686,1012.4,,,,,,,,,,BKN,8700,BKN,18000,,,,,VFR,,,,,,,,,,,,SPECI,1084.0
CYXX 211400Z VRB02KT 30SM BKN080 04/02 A2977 RMK AC7 SLP083,CYXX,2018-03-21T14:00:00Z,49.03,-122.38,4.0,2.0,0,2,,30.0,29.769686,1008.3,,,,,,,,,,BKN,8000,,,,,,,VFR,,,,,,,,,,,,SPECI,58.0
CYWG 211400Z 14006KT 15SM SCT017 OVC039 M02/M03 A3008 RMK SC3SC5 SLP202,CYWG,2018-03-21T14:00:00Z,49.88,-97.22,-2.0,-3.0,140,6,,15.0,30.079725,1020.2,,,,,,,,,,SCT,1700,OVC,3900,,,,,VFR,,,,,,,,,,,,SPECI,239.0
CYVR 211400Z 00000KT 30SM SCT052 OVC150 02/01 A2977 RMK SC4AS4 SLP082,CYVR,2018-03-21T14:00:00Z,49.17,-123.17,2.0,1.0,0,0,,30.0,29.769686,1008.2,,,,,,,,,,SCT,5200,OVC,15000,,,,,VFR,,,,,,,,,,,,SPECI,2.0
CYUL 211400Z 04012G17KT 15SM BKN240 M05/M11 A2997 RMK CI7 SLP152,CYUL,2018-03-21T14:00:00Z,45.47,-73.73,-5.0,-11.0,40,12,17,15.0,29.970472,1015.2,,,,,,,,,,BKN,24000,,,,,,,VFR,,,,,,,,,,,,SPECI,36.0
CYTR 211400Z 03012G19KT 15SM OVC220 M02/M11 A2994 RMK CI8 SLP145,CYTR,2018-03-21T14:00:00Z,44.12,-77.52,-2.0,-11.0,30,12,19,15.0,29.940945,1014.5,,,,,,,,,,OVC,22000,,,,,,,VFR,,,,,,,,,,,,SPECI,86.0
CYQY 211400Z 31003KT 280V360 15SM FEW230 03/M08 A2999 RMK CI2 SLP158,CYQY,2018-03-21T14:00:00Z,46.17,-60.03,3.0,-8.0,310,3,,15.0,29.991142,1015.8,,,,,,,,,,FEW,23000,,,,,,,VFR,,,,,,,,,,,,SPECI,62.0
CYQX 211400Z 25012KT 20SM OVC025 00/M05 A2988 RMK SC8 SLP129,CYQX,2018-03-21T14:00:00Z,48.95,-54.58,0.0,-5.0,250,12,,20.0,29.878937,1012.9,,,,,,,,,,OVC,2500,,,,,,,MVFR,,,,,,,,,,,,SPECI,151.0
CYQQ 211400Z 16005KT 20SM FEW012 FEW036 SCT047 OVC071 06/05 A2975 RMK SC1SC2SC2AC5 SLP076,CYQQ,2018-03-21T14:00:00Z,49.72,-124.9,6.0,5.0,160,5,,20.0,29.749016,1007.6,,,,,,,,,,FEW,1200,FEW,3600,SCT,4700,OVC,7100,VFR,,,,,,,,,,,,SPECI,24.0
CYQM 211400Z CCA 06009G16KT 15SM FEW140 SCT260 00/M06 A2996 RMK AC1CI2 SLP149,CYQM,2018-03-21T14:00:00Z,46.12,-64.67,0.0,-6.0,60,9,16,15.0,29.958662,1014.9,,,,,,,,,,FEW,14000,SCT,26000,,,,,VFR,,,,,,,,,,,,SPECI,71.0
CYQG 211400Z 03015G23KT 15SM BKN120 OVC240 00/M09 A2990 RMK AS6CS2 SLP134,CYQG,2018-03-21T14:00:00Z,42.27,-82.97,0.0,-9.0,30,15,23,15.0,29.899607,1013.4,,,,,,,,,,BKN,12000,OVC,24000,,,,,VFR,,,,,,,,,,,,SPECI,190.0
CYZV 211400Z 35007G16KT 280V030 30SM FEW060 FEW260 M02/M11 A3005 RMK CU1CI1 CU TR SLP180,CYZV,2018-03-21T14:00:00Z,50.22,-66.27,-2.0,-11.0,350,7,16,30.0,30.050198,1018.0,,,,,,,,,,FEW,6000,FEW,26000,,,,,VFR,,,,,,,,,,,,SPECI,55.0
CYZX 211400Z 06014KT 15SM SCT240 M01/M06 A2992 RMK CI4 SLP133,CYZX,2018-03-21T14:00:00Z,44.98,-64.92,-1.0,-6.0,60,14,,15.0,29.920275,1013.3,,,,,,,,,,SCT,24000,,,,,,,VFR,,,,,,,,,,,,SPECI,28.0
CYGP 211400Z 30008KT 280V050 15SM BKN030 M00/M08 A3002 RMK CU5 SLP169,CYGP,2018-03-21T14:00:00Z,48.77,-64.47,0.0,-8.0,300,8,,15.0,30.02067,1016.9,,,,,,,,,,BKN,3000,,,,,,,MVFR,,,,,,,,,,,,SPECI,33.0
CYGR 211400Z 36007KT 20SM SKC M01/M06 A3002 RMK SLP168,CYGR,2018-03-21T14:00:00Z,47.42,-61.77,-1.0,-6.0,360,7,,20.0,30.02067,1016.8,,,,,,,,,,SKC,,,,,,,,VFR,,,,,,,,,,,,SPECI,10.0
CYHD 211400Z AUTO 17004KT 9SM SCT080 M08/M12 A3013 RMK SLP236,CYHD,2018-03-21T14:00:00Z,49.82,-92.75,-8.0,-12.0,170,4,,9.0,30.129921,1023.6,,TRUE,,,,,,,,SCT,8000,,,,,,,VFR,,,,,,,,,,,,SPECI,413.0
CYHU 211400Z AUTO 02014KT 9SM CLR M06/M12 A2997 RMK SLP151,CYHU,2018-03-21T14:00:00Z,45.52,-73.42,-6.0,-12.0,20,14,,9.0,29.970472,1015.1,,TRUE,,,,,,,,CLR,,,,,,,,VFR,,,,,,,,,,,,SPECI,27.0
CYKO 211400Z 18009KT 15SM FEW080 FEW220 M16/M20 A3027 RMK AC1CI1 SLP255,CYKO,2018-03-21T14:00:00Z,60.82,-78.15,-16.0,-20.0,180,9,,15.0,30.268702,1025.5,,,,,,,,,,FEW,8000,FEW,22000,,,,,VFR,,,,,,,,,,,,SPECI,9.0
CYMO 211400Z AUTO 02006KT 330V040 9SM OVC022 M12/M14 A3035 RMK SLP281,CYMO,2018-03-21T14:00:00Z,51.28,-80.62,-12.0,-14.0,20,6,,9.0,30.351377,1028.1,,TRUE,,,,,,,,OVC,2200,,,,,,,MVFR,,,,,,,,,,,,SPECI,10.0
CYNA 211400Z AUTO 36012KT 9SM CLR M03/M11 A2999 RMK SLP157,CYNA,2018-03-21T14:00:00Z,50.17,-61.82,-3.0,-11.0,360,12,,9.0,29.991142,1015.7,,TRUE,,,,,,,,CLR,,,,,,,,VFR,,,,,,,,,,,,SPECI,11.0
CYND 211400Z 01005KT 15SM BKN220 M04/M13 A2999 RMK CI6 SLP162,CYND,2018-03-21T14:00:00Z,45.52,-75.57,-4.0,-13.0,10,5,,15.0,29.991142,1016.2,,,,,,,,,,BKN,22000,,,,,,,VFR,,,,,,,,,,,,SPECI,64.0
CYTS 211400Z 01006KT 15SM SKC M14/M25 A3019 RMK SLP251,CYTS,2018-03-21T14:00:00Z,48.57,-81.37,-14.0,-25.0,10,6,,15.0,30.188976,1025.1,,,,,,,,,,SKC,,,,,,,,VFR,,,,,,,,,,,,SPECI,295.0
CYTL 211400Z AUTO 15006KT 9SM CLR M15/M26 A3021 RMK SLP256,CYTL,2018-03-21T14:00:00Z,53.82,-89.88,-15.0,-26.0,150,6,,9.0,30.209646,1025.6,,TRUE,,,,,,,,CLR,,,,,,,,VFR,,,,,,,,,,,,SPECI,224.0
CYRL 211400Z 15005KT 15SM SCT080 SCT220 M08/M17 A3012 RMK AC3CI1 SLP227,CYRL,2018-03-21T14:00:00Z,51.07,-93.78,-8.0,-17.0,150,5,,15.0,30.121063,1022.7,,,,,,,,,,SCT,8000,SCT,22000,,,,,VFR,,,,,,,,,,,,SPECI,383.0
CYRJ 211400Z 31011KT 40SM SKC M10/M16 A3006 RMK SLP196,CYRJ,2018-03-21T14:00:00Z,48.52,-72.27,-10.0,-16.0,310,11,,40.0,30.059055,1019.6,,,,,,,,,,SKC,,,,,,,,VFR,,,,,,,,,,,,SPECI,179.0
CYQT 211400Z 22002KT 20SM SCT110 OVC260 M11/M16 A3024 RMK AC3CS5 SLP260,CYQT,2018-03-21T14:00:00Z,48.37,-89.32,-11.0,-16.0,220,2,,20.0,30.239174,1026.0,,,,,,,,,,SCT,11000,OVC,26000,,,,,VFR,,,,,,,,,,,,SPECI,199.0
CYPQ 211400Z AUTO 03009G15KT 9SM CLR M03/M11 A2995 RMK SLP152,CYPQ,2018-03-21T14:00:00Z,44.22,-78.37,-3.0,-11.0,30,9,15,9.0,29.949802,1015.2,,TRUE,,,,,,,,CLR,,,,,,,,VFR,,,,,,,,,,,,SPECI,191.0
CYYY 211400Z 03011KT 30SM FEW030 M03/M08 A3005 RMK SC1 SLP182,CYYY,2018-03-21T14:00:00Z,48.6,-68.22,-3.0,-8.0,30,11,,30.0,30.050198,1018.2,,,,,,,,,,FEW,3000,,,,,,,VFR,,,,,,,,,,,,SPECI,52.0
CYXR 211400Z AUTO 31004KT 9SM CLR M14/M21 A3016 RMK ICG SLP238,CYXR,2018-03-21T14:00:00Z,47.7,-79.83,-14.0,-21.0,310,4,,9.0,30.159449,1023.8,,TRUE,,,,,,,,CLR,,,,,,,,VFR,,,,,,,,,,,,SPECI,243.0
CYWA 211400Z 34006KT 15SM SCT240 M07/M15 A3005 RMK CI4 DA-2353FT FST STFD OBS SLP186,CYWA,2018-03-21T14:00:00Z,45.95,-77.32,-7.0,-15.0,340,6,,15.0,30.050198,1018.6,,,,,,,,,,SCT,24000,,,,,,,VFR,,,,,,,,,,,,SPECI,130.0
CYVV 211400Z 05013G21KT 15SM BKN300 M05/M10 A3001 RMK CI6 SLP176,CYVV,2018-03-21T14:00:00Z,44.75,-81.08,-5.0,-10.0,50,13,21,15.0,30.008858,1017.6,,,,,,,,,,BKN,30000,,,,,,,VFR,,,,,,,,,,,,SPECI,222.0
CYVP 211400Z 29006KT 15SM -SN SCT008 BKN011 BKN026 M11/M14 A3024 RMK SF3SC3SC1 SLP245,CYVP,2018-03-21T14:00:00Z,58.12,-68.42,-11.0,-14.0,290,6,,15.0,30.239174,1024.5,,,,,,,,,-SN,SCT,800,BKN,1100,BKN,2600,,,MVFR,,,,,,,,,,,,SPECI,60.0
CYTZ 211400Z AUTO 03009G16KT 360V070 9SM CLR M01/M12 A2994 RMK SLP145,CYTZ,2018-03-21T14:00:00Z,43.63,-79.4,-1.0,-12.0,30,9,16,9.0,29.940945,1014.5,,TRUE,,,,,,,,CLR,,,,,,,,VFR,,,,,,,,,,,,SPECI,77.0
CYZE 211400Z AUTO 04011G16KT 9SM CLR M09/M18 A3011 RMK SLP212,CYZE,2018-03-21T14:00:00Z,45.87,-82.57,-9.0,-18.0,40,11,16,9.0,30.109253,1021.2,,TRUE,,,,,,,,CLR,,,,,,,,VFR,,,,,,,,,,,,SPECI,193.0
CYZR 211400Z AUTO 03014G21KT 9SM CLR M01/M08 A2993 RMK SLP145,CYZR,2018-03-21T14:00:00Z,43.0,-82.3,-1.0,-8.0,30,14,21,9.0,29.929134,1014.5,,TRUE,,,,,,,,CLR,,,,,,,,VFR,,,,,,,,,,,,SPECI,181.0
CYBN 211400Z AUTO 00000KT 9SM CLR M05/M12 A2997 RMK SLP162,CYBN,2018-03-21T14:00:00Z,44.27,-79.92,-5.0,-12.0,0,0,,9.0,29.970472,1016.2,,TRUE,,,,,,,,CLR,,,,,,,,VFR,,,,,,,,,,,,SPECI,223.0
CYBC 211400Z AUTO 36006KT 9SM CLR M03/M12 A3006 RMK SLP183,CYBC,2018-03-21T14:00:00Z,49.12,-68.2,-3.0,-12.0,360,6,,9.0,30.059055,1018.3,,TRUE,,,,,,,,CLR,,,,,,,,VFR,,,,,,,,,,,,SPECI,22.0
CYCK 211400Z AUTO 05013G20KT 9SM CLR M00/M09 A2987 RMK SLP125,CYCK,2018-03-21T14:00:00Z,42.3,-82.08,0.0,-9.0,50,13,20,9.0,29.870079,1012.5,,TRUE,,,,,,,,CLR,,,,,,,,VFR,,,,,,,,,,,,METAR,198.0
CYFR 211400Z 03006KT 15SM OVC030 M22/M26 A3035 RMK SC8 /0/65/ SNW CVR/MEDIUM PACK SLP300,CYFR,2018-03-21T14:00:00Z,61.17,-113.67,-22.0,-26.0,30,6,,15.0,30.351377,1030.0,,,,,,,,,,OVC,3000,,,,,,,MVFR,,,,,,,,,,,,SPECI,164.0
CYER 211400Z AUTO 20007KT 9SM CLR M17/M25 A3029 RMK SLP259,CYER,2018-03-21T14:00:00Z,56.02,-87.68,-17.0,-25.0,200,7,,9.0,30.28937,1025.9,,TRUE,,,,,,,,CLR,,,,,,,,VFR,,,,,,,,,,,,METAR,16.0
CYKP 211400Z AUTO 21003KT 9SM CLR M16/M26 A3032 RMK SLP295,CYKP,2018-03-21T14:00:00Z,51.67,-85.9,-16.0,-26.0,210,3,,9.0,30.318897,1029.5,,TRUE,,,,,,,,CLR,,,,,,,,VFR,,,,,,,,,,,,METAR,179.0
CYKL 211400Z AUTO 34012G17KT 9SM CLR M14/M18 A3004 RMK SLP221,CYKL,2018-03-21T14:00:00Z,54.78,-66.82,-14.0,-18.0,340,12,17,9.0,30.041338,1022.1,,TRUE,,,,,,,,CLR,,,,,,,,VFR,,,,,,,,,,,,SPECI,521.0
CYKF 211400Z AUTO 03008G15KT 9SM FEW180 M02/M12 A2989 RMK SLP138,CYKF,2018-03-21T14:00:00Z,43.47,-80.38,-2.0,-12.0,30,8,15,9.0,29.890747,1013.8,,TRUE,,,,,,,,FEW,18000,,,,,,,VFR,,,,,,,,,,,,SPECI,317.0
CYHM 211400Z 03016KT 15SM FEW030 SCT210 OVC240 M02/M11 A2988 RMK SC1CI3CI5 SC TR SLP132,CYHM,2018-03-21T14:00:00Z,43.17,-79.93,-2.0,-11.0,30,16,,15.0,29.878937,1013.2,,,,,,,,,,FEW,3000,SCT,21000,OVC,24000,,,VFR,,,,,,,,,,,,SPECI,238.0
CYGQ 211400Z 00000KT 15SM FEW140 BKN200 OVC250 M17/M27 A3024 RMK AC1CS5CI2 HALO SLP275,CYGQ,2018-03-21T14:00:00Z,49.77,-86.92,-17.0,-27.0,0,0,,15.0,30.239174,1027.5,,,,,,,,,,FEW,14000,BKN,20000,OVC,25000,,,VFR,,,,,,,,,,,,SPECI,351.0
CYGK 211400Z 03012G18KT 15SM FEW180 BKN210 M04/M12 A2994 RMK AC1CS6 SLP144,CYGK,2018-03-21T14:00:00Z,44.22,-76.58,-4.0,-12.0,30,12,18,15.0,29.940945,1014.4,,,,,,,,,,FEW,18000,BKN,21000,,,,,VFR,,,,,,,,,,,,SPECI,93.0
CYKZ 211400Z 03010KT 15SM FEW180 BKN200 BKN260 M02/M12 A2993 RMK AS2CS3CS2 HALO CONTRAILS SLP147,CYKZ,2018-03-21T14:00:00Z,43.87,-79.37,-2.0,-12.0,30,10,,15.0,29.929134,1014.7,,,,,,,,,,FEW,18000,BKN,20000,BKN,26000,,,VFR,,,,,,,,,,,,SPECI,198.0
CYQK 211400Z 16006KT 15SM FEW088 SCT130 M05/M09 A3011 RMK AC2AC1 SLP222,CYQK,2018-03-21T14:00:00Z,49.77,-94.37,-5.0,-9.0,160,6,,15.0,30.109253,1022.2,,,,,,,,,,FEW,8800,SCT,13000,,,,,VFR,,,,,,,,,,,,SPECI,411.0
CYQA 211400Z AUTO 34005KT 320V050 9SM CLR M05/M15 A2996 RMK SLP163,CYQA,2018-03-21T14:00:00Z,44.97,-79.28,-5.0,-15.0,340,5,,9.0,29.958662,1016.3,,TRUE,,,,,,,,CLR,,,,,,,,VFR,,,,,,,,,,,,SPECI,282.0
CYPO 211400Z AUTO 18007KT 9SM CLR M15/M22 A3034 RMK SLP284,CYPO,2018-03-21T14:00:00Z,54.98,-85.43,-15.0,-22.0,180,7,,9.0,30.339567,1028.4,,TRUE,,,,,,,,CLR,,,,,,,,VFR,,,,,,,,,,,,METAR,53.0
CYPL 211400Z 17006KT 15SM FEW150 BKN220 M12/M25 A3018 RMK AC2CI4 SLP256,CYPL,2018-03-21T14:00:00Z,51.47,-90.2,-12.0,-25.0,170,6,,15.0,30.180119,1025.6,,,,,,,,,,FEW,15000,BKN,22000,,,,,VFR,,,,,,,,,,,,SPECI,373.0
CYOO 211400Z AUTO 03013KT 9SM CLR M02/M12 A2994 RMK SLP146,CYOO,2018-03-21T14:00:00Z,43.92,-78.9,-2.0,-12.0,30,13,,9.0,29.940945,1014.6,,TRUE,,,,,,,,CLR,,,,,,,,VFR,,,,,,,,,,,,METAR,139.0
CYLH 211400Z AUTO 05002KT 9SM CLR M20/M27 A3027 RMK SLP282,CYLH,2018-03-21T14:00:00Z,52.2,-87.93,-20.0,-27.0,50,2,,9.0,30.268702,1028.2,,TRUE,,,,,,,,CLR,,,,,,,,VFR,,,,,,,,,,,,METAR,254.0
CYLD 211400Z 06004KT 15SM SCT260 M14/M24 A3015 RMK CI4 SLP252,CYLD,2018-03-21T14:00:00Z,47.82,-83.33,-14.0,-24.0,60,4,,15.0,30.15059,1025.2,,,,,,,,,,SCT,26000,,,,,,,VFR,,,,,,,,,,,,SPECI,447.0
CYRB 211400Z 33026G33KT 4SM R35/5500VP6000FT/U IC BLSN FEW003 M29/M33 A3019 RMK ST1 ST TR OVC TPG HILLS E SLP239,CYRB,2018-03-21T14:00:00Z,74.72,-94.97,-29.0,-33.0,330,26,33,4.0,30.188976,1023.9,,,,,,,,,BLSN IC,FEW,300,,,,,,,MVFR,,,,,,,,,,,,SPECI,67.0
CYRQ 211400Z AUTO 05011G16KT 9SM CLR M04/M11 A2998 RMK SLP159,CYRQ,2018-03-21T14:00:00Z,46.35,-72.68,-4.0,-11.0,50,11,16,9.0,29.97933,1015.9,,TRUE,,,,,,,,CLR,,,,,,,,VFR,,,,,,,,,,,,METAR,61.0
CYSB 211400Z 04012KT 20SM SCT200 M12/M21 A3008 RMK CI4 SLP216,CYSB,2018-03-21T14:00:00Z,46.63,-80.8,-12.0,-21.0,40,12,,20.0,30.079725,1021.6,,,,,,,,,,SCT,20000,,,,,,,VFR,,,,,,,,,,,,SPECI,348.0
CYSC 211400Z AUTO 04007KT 9SM FEW250 M08/M14 A2990 RMK SLP142,CYSC,2018-03-21T14:00:00Z,45.43,-71.68,-8.0,-14.0,40,7,,9.0,29.899607,1014.2,,TRUE,,,,,,,,FEW,25000,,,,,,,VFR,,,,,,,,,,,,SPECI,241.0
CYSN 211400Z 05016KT 15SM FEW025 SCT160 OVC180 M00/M07 A2990 RMK SC2AC1CI5 SLP132,CYSN,2018-03-21T14:00:00Z,43.2,-79.17,0.0,-7.0,50,16,,15.0,29.899607,1013.2,,,,,,,,,,FEW,2500,SCT,16000,OVC,18000,,,VFR,,,,,,,,,,,,SPECI,98.0
CYSP 211400Z 05005KT 15SM SCT130 BKN240 OVC260 M12/M24 A3021 RMK AS3CI2CI3 SLP260,CYSP,2018-03-21T14:00:00Z,48.75,-86.35,-12.0,-24.0,50,5,,15.0,30.209646,1026.0,,,,,,,,,,SCT,13000,BKN,24000,OVC,26000,,,VFR,,,,,,,,,,,,METAR,315.0
CYVO 211400Z 34005KT 15SM FEW100 FEW230 M15/M18 A3010 RMK AC1CI1 CI TR SLP227,CYVO,2018-03-21T14:00:00Z,48.07,-77.77,-15.0,-18.0,340,5,,15.0,30.100393,1022.7,,,,,,,,,,FEW,10000,FEW,23000,,,,,VFR,,,,,,,,,,,,SPECI,337.0
CZMD 211400Z AUTO VRB02KT 9SM CLR M14/M24 A3016 RMK SLP239,CZMD,2018-03-21T14:00:00Z,53.43,-91.77,-14.0,-24.0,0,2,,9.0,30.159449,1023.9,,TRUE,,,,,,,,CLR,,,,,,,,VFR,,,,,,,,,,,,METAR,278.0
CYYW 211400Z AUTO 00000KT 9SM CLR M20/M26 A3025 RMK SLP292,CYYW,2018-03-21T14:00:00Z,50.3,-88.9,-20.0,-26.0,0,0,,9.0,30.250984,1029.2,,TRUE,,,,,,,,CLR,,,,,,,,VFR,,,,,,,,,,,,METAR,351.0
CYYU 211400Z 02003KT 330V070 15SM SCT021 BKN075 BKN250 M16/M22 A3027 RMK SC4AC2CI1 SLP274,CYYU,2018-03-21T14:00:00Z,49.42,-82.47,-16.0,-22.0,20,3,,15.0,30.268702,1027.4,,,,,,,,,,SCT,2100,BKN,7500,BKN,25000,,,VFR,,,,,,,,,,,,SPECI,227.0
CYYH 211400Z 31014KT 10SM DRSN VCBLSN SKC M33/M37 A3032 RMK VIS SW TO W 3 SLP275,CYYH,2018-03-21T14:00:00Z,69.53,-93.57,-33.0,-37.0,310,14,,10.0,30.318897,1027.5,,,,,,,,,DRSN VCBLSN,SKC,,,,,,,,VFR,,,,,,,,,,,,SPECI,28.0
CYYB 211400Z 04006KT 300V080 30SM BKN300 M09/M17 A3004 RMK CI6 SLP200,CYYB,2018-03-21T14:00:00Z,46.35,-79.42,-9.0,-17.0,40,6,,30.0,30.041338,1020.0,,,,,,,,,,BKN,30000,,,,,,,VFR,,,,,,,,,,,,SPECI,371.0
CYXZ 211400Z 01006KT 340V040 15SM BKN230 M13/M22 A3020 RMK CS7 SLP253,CYXZ,2018-03-21T14:00:00Z,47.97,-84.77,-13.0,-22.0,10,6,,15.0,30.200787,1025.3,,,,,,,,,,BKN,23000,,,,,,,VFR,,,,,,,,,,,,SPECI,287.0
CYXL 211400Z 17005KT 130V190 15SM SCT100 OVC200 M09/M18 A3016 RMK AC4CS4 SLP243,CYXL,2018-03-21T14:00:00Z,50.12,-91.9,-9.0,-18.0,170,5,,15.0,30.159449,1024.3,,,,,,,,,,SCT,10000,OVC,20000,,,,,VFR,,,,,,,,,,,,SPECI,390.0
CYVQ 211400Z 08003KT 10SM -SN FEW038 BKN067 BKN100 BKN240 M15/M18 A3049 RMK SC1AC5AC2CI1 SC TR CI TR SLP335,CYVQ,2018-03-21T14:00:00Z,65.27,-126.78,-15.0,-18.0,80,3,,10.0,30.490158,1033.5,,,,,,,,,-SN,FEW,3800,BKN,6700,BKN,10000,BKN,24000,VFR,,,,,,,,,,,,SPECI,74.0
CYAZ 211400Z 08004KT 15SM FEW015 BKN046 OVC140 04/04 A2974 RMK CU1SC4AC3 SLP073,CYAZ,2018-03-21T14:00:00Z,49.08,-125.77,4.0,4.0,80,4,,15.0,29.740158,1007.3,,,,,,,,,,FEW,1500,BKN,4600,OVC,14000,,,VFR,,,,,,,,,,,,SPECI,24.0
CYBL 211400Z 12006KT 15SM FEW010 BKN050 OVC120 05/04 A2974 RMK SC1SC5AC2 SLP073,CYBL,2018-03-21T14:00:00Z,49.95,-125.27,5.0,4.0,120,6,,15.0,29.740158,1007.3,,,,,,,,,,FEW,1000,BKN,5000,OVC,12000,,,VFR,,,,,,,,,,,,SPECI,106.0
CYBV 211400Z VRB02KT 12SM -SN OVC007 M02/M03 A3009 RMK ST8 SLP205,CYBV,2018-03-21T14:00:00Z,52.35,-97.03,-2.0,-3.0,0,2,,12.0,30.088583,1020.5,,,,,,,,,-SN,OVC,700,,,,,,,IFR,,,,,,,,,,,,SPECI,222.0
CYCQ 211400Z 00000KT 35SM FEW050 SCT077 BKN110 M03/M04 A2979 RMK SC1AC2AC2 FROIN SLP118,CYCQ,2018-03-21T14:00:00Z,55.7,-121.62,-3.0,-4.0,0,0,,35.0,29.790354,1011.8,,,,,,,,,,FEW,5000,SCT,7700,BKN,11000,,,VFR,,,,,,,,,,,,SPECI,609.0
CYDC 211400Z 00000KT 25SM BKN075 OVC100 M02/M03 A2978 RMK AC6AC2 SLP103,CYDC,2018-03-21T14:00:00Z,49.47,-120.52,-2.0,-3.0,0,0,,25.0,29.778543,1010.3,,,,,,,,,,BKN,7500,OVC,10000,,,,,VFR,,,,,,,,,,,,SPECI,700.0
ZUUU 211400Z 00000MPS 8000 NSC 11/11 Q1020 NOSIG,ZUUU,2018-03-21T14:00:00Z,30.58,103.95,11.0,11.0,0,0,,4.97,30.11811,,,,,,TRUE,,,,,CLR,,,,,,,,MVFR,,,,,,,,,,,,METAR,508.0
ZUGY 211400Z 03003MPS CAVOK 08/04 Q1022 NOSIG,ZUGY,2018-03-21T14:00:00Z,26.53,106.8,8.0,4.0,30,6,,6.21,30.177166,,,,,,TRUE,,,,,CAVOK,,,,,,,,VFR,,,,,,,,,,,,METAR,1074.0
ZSQD 211400Z 34002MPS CAVOK 00/M08 Q1020 NOSIG,ZSQD,2018-03-21T14:00:00Z,36.27,120.38,0.0,-8.0,340,4,,6.21,30.11811,,,,,,TRUE,,,,,CAVOK,,,,,,,,VFR,,,,,,,,,,,,METAR,77.0
ZSNB 211400Z 34002MPS 7000 SCT033 06/03 Q1022 NOSIG,ZSNB,2018-03-21T14:00:00Z,29.83,121.47,6.0,3.0,340,4,,4.35,30.177166,,,,,,TRUE,,,,,SCT,3300,,,,,,,MVFR,,,,,,,,,,,,METAR,4.0
ZSFZ 211400Z 03003MPS CAVOK 11/08 Q1020 NOSIG,ZSFZ,2018-03-21T14:00:00Z,25.93,119.67,11.0,8.0,30,6,,6.21,30.11811,,,,,,TRUE,,,,,CAVOK,,,,,,,,VFR,,,,,,,,,,,,METAR,85.0
ZSAM 211400Z 07005MPS CAVOK 15/10 Q1018 NOSIG,ZSAM,2018-03-21T14:00:00Z,24.53,118.13,15.0,10.0,70,10,,6.21,30.059055,,,,,,TRUE,,,,,CAVOK,,,,,,,,VFR,,,,,,,,,,,,METAR,18.0
ZPPP 211400Z 03005MPS CAVOK 09/07 Q1021 NOSIG,ZPPP,2018-03-21T14:00:00Z,25.0,102.75,9.0,7.0,30,10,,6.21,30.147638,,,,,,TRUE,,,,,CAVOK,,,,,,,,VFR,,,,,,,,,,,,METAR,1892.0
SBGO 211400Z 36004KT 270V080 9999 FEW020 29/19 Q1017,SBGO,2018-03-21T14:00:00Z,-16.62,-49.22,29.0,19.0,360,4,,6.21,30.029528,,,,,,,,,,,FEW,2000,,,,,,,VFR,,,,,,,,,,,,METAR,747.0
UBBQ 211400Z 29019KT 9999 BKN150 17/05 Q1011 R34/CLRD// NOSIG RMK MT PT OBSC,UBBQ,2018-03-21T14:00:00Z,40.82,47.72,17.0,5.0,290,19,,6.21,29.852362,,,,,,TRUE,,,,,BKN,15000,,,,,,,VFR,,,,,,,,,,,,METAR,338.0
FIMP 211400Z 15003KT 9999 FEW016 OVC250 28/24 Q1014,FIMP,2018-03-21T14:00:00Z,-20.42,57.67,28.0,24.0,150,3,,6.21,29.940945,,,,,,,,,,,FEW,1600,OVC,25000,,,,,VFR,,,,,,,,,,,,METAR,57.0
SBRP 211400Z 09004KT CAVOK 27/20 Q1015,SBRP,2018-03-21T14:00:00Z,-21.12,-47.77,27.0,20.0,90,4,,6.21,29.970472,,,,,,,,,,,CAVOK,,,,,,,,VFR,,,,,,,,,,,,METAR,549.0
SBFL 211400Z 20009KT 9999 FEW035 25/17 Q1014,SBFL,2018-03-21T14:00:00Z,-27.67,-48.53,25.0,17.0,200,9,,6.21,29.940945,,,,,,,,,,,FEW,3500,,,,,,,VFR,,,,,,,,,,,,METAR,5.0
MYNN 211400Z 20009KT 9999 FEW020 BKN220 29/22 A2994 RMK PKWND 16KTS,MYNN,2018-03-21T14:00:00Z,25.03,-77.47,29.0,22.0,200,9,,6.21,29.940945,,,,,,,,,,,FEW,2000,BKN,22000,,,,,VFR,,,,,,,,,,,,METAR,3.0
SLVM 211400Z 00000KT 9999 BKN023 BKN070 23/18 Q1019,SLVM,2018-03-21T14:00:00Z,-21.25,-63.4,23.0,18.0,0,0,,6.21,30.088583,,,,,,,,,,,BKN,2300,BKN,7000,,,,,MVFR,,,,,,,,,,,,SPECI,400.0
SLSI 211400Z 19006KT 5000 -RA OVC008 22/21 Q1016,SLSI,2018-03-21T14:00:00Z,-16.37,-60.95,22.0,21.0,190,6,,3.11,30.0,,,,,,,,,,-RA,OVC,800,,,,,,,IFR,,,,,,,,,,,,SPECI,413.0
SLSA 211400Z 14010KT 6000 -RA SCT008 FEW023CB OVC070 24/23 Q1014,SLSA,2018-03-21T14:00:00Z,-13.77,-65.43,24.0,23.0,140,10,,3.73,29.940945,,,,,,,,,,-RA,SCT,800,FEW,2300,OVC,7000,,,MVFR,,,,,,,,,,,,SPECI,144.0
SLRY 211400Z 18003KT 9999 FEW010 BKN023 OVC070 24/23 Q1012,SLRY,2018-03-21T14:00:00Z,-14.3,-67.37,24.0,23.0,180,3,,6.21,29.88189,,,,,,,,,,,FEW,1000,BKN,2300,OVC,7000,,,MVFR,,,,,,,,,,,,SPECI,280.0
SLRQ 211400Z 00000KT 8000 VCSH BKN020 OVC070 25/24 Q1013,SLRQ,2018-03-21T14:00:00Z,-14.42,-67.5,25.0,24.0,0,0,,4.97,29.911417,,,,,,,,,,VCSH,BKN,2000,OVC,7000,,,,,MVFR,,,,,,,,,,,,SPECI,203.0
SLRI 211400Z 20008KT 4000 VCSH SCT004 BKN015 FEW020CB OVC070 25/24 Q1014,SLRI,2018-03-21T14:00:00Z,-11.02,-66.08,25.0,24.0,200,8,,2.49,29.940945,,,,,,,,,,VCSH,SCT,400,BKN,1500,FEW,2000,OVC,7000,IFR,,,,,,,,,,,,SPECI,135.0
SLRB 211400Z 00000KT 9999 OVC010 23/22 Q1018,SLRB,2018-03-21T14:00:00Z,-18.32,-59.75,23.0,22.0,0,0,,6.21,30.059055,,,,,,,,,,,OVC,1000,,,,,,,MVFR,,,,,,,,,,,,SPECI,284.0
SLPO 211400Z 06005KT 9999 BKN015 13/08 Q1039,SLPO,2018-03-21T14:00:00Z,-19.52,-65.72,13.0,8.0,60,5,,6.21,30.679134,,,,,,,,,,,BKN,1500,,,,,,,MVFR,,,,,,,,,,,,SPECI,3934.0
SLOR 211400Z 34005KT 9999 SCT015 13/06 Q1036,SLOR,2018-03-21T14:00:00Z,-17.97,-67.08,13.0,6.0,340,5,,6.21,30.590551,,,,,,,,,,,SCT,1500,,,,,,,VFR,,,,,,,,,,,,SPECI,3702.0
SLMG 211400Z 00000KT 8000 -RA SCT010 OVC070 24/24 Q1012,SLMG,2018-03-21T14:00:00Z,-13.27,-64.07,24.0,24.0,0,0,,4.97,29.88189,,,,,,,,,,-RA,SCT,1000,OVC,7000,,,,,MVFR,,,,,,,,,,,,SPECI,141.0
SLJO 211400Z 00000KT 4000 -RA BKN010 FEW023CB OVC070 24/24 Q1012,SLJO,2018-03-21T14:00:00Z,-13.07,-64.67,24.0,24.0,0,0,,2.49,29.88189,,,,,,,,,,-RA,BKN,1000,FEW,2300,OVC,7000,,,IFR,,,,,,,,,,,,SPECI,140.0
SLJE 211400Z 17005KT 9999 BKN015 OVC070 25/21 Q1019,SLJE,2018-03-21T14:00:00Z,-17.82,-60.75,25.0,21.0,170,5,,6.21,30.088583,,,,,,,,,,,BKN,1500,OVC,7000,,,,,MVFR,,,,,,,,,,,,SPECI,284.0
SLCP 211400Z 17010KT 9000 -RA BKN023 OVC070 19/19 Q1018,SLCP,2018-03-21T14:00:00Z,-16.15,-62.02,19.0,19.0,170,10,,5.59,30.059055,,,,,,,,,,-RA,BKN,2300,OVC,7000,,,,,MVFR,,,,,,,,,,,,SPECI,497.0
SLCA 211400Z 00000KT 9999 BKN027 BKN080 21/17 Q1021,SLCA,2018-03-21T14:00:00Z,-20.0,-63.53,21.0,17.0,0,0,,6.21,30.147638,,,,,,,,,,,BKN,2700,BKN,8000,,,,,MVFR,,,,,,,,,,,,SPECI,798.0
DAUL 211400Z 36020KT 8000 FEW023TCU SCT026 10/M03 Q1013,DAUL,2018-03-21T14:00:00Z,33.77,2.92,10.0,-3.0,360,20,,4.97,29.911417,,,,,,,,,,,FEW,2300,SCT,2600,,,,,MVFR,,,,,,,,,,,,METAR,765.0
DAOI 211400Z 31010KT 9999 SCT023 SCT026 FEW030CB 12/04 Q1018,DAOI,2018-03-21T14:00:00Z,36.22,1.32,12.0,4.0,310,10,,6.21,30.059055,,,,,,,,,,,SCT,2300,SCT,2600,FEW,3000,,,VFR,,,,,,,,,,,,METAR,143.0
DAAY 211400Z 36020KT 8000 SCT013 FEW023TCU SCT026 06/M00 Q1019,DAAY,2018-03-21T14:00:00Z,33.53,-0.25,6.0,0.0,360,20,,4.97,30.088583,,,,,,,,,,,SCT,1300,FEW,2300,SCT,2600,,,MVFR,,,,,,,,,,,,METAR,1149.0
DAOL 211400Z 25018KT 8000 FEW023CB BKN026 10/08 Q1020,DAOL,2018-03-21T14:00:00Z,35.53,-0.52,10.0,8.0,250,18,,4.97,30.11811,,,,,,,,,,,FEW,2300,BKN,2600,,,,,MVFR,,,,,,,,,,,,METAR,112.0
DAUZ 211400Z 25024G34KT 1500 BLSA NSC 32/M15 Q1003,DAUZ,2018-03-21T14:00:00Z,28.05,9.62,32.0,-15.0,250,24,34,0.93,29.616142,,,,,,,,,,BLSA,CLR,,,,,,,,LIFR,,,,,,,,,,,,METAR,562.0
DAUU 211400Z 32017KT 8000 BKN030 SCT100 10/02 Q1012,DAUU,2018-03-21T14:00:00Z,31.92,5.4,10.0,2.0,320,17,,4.97,29.88189,,,,,,,,,,,BKN,3000,SCT,10000,,,,,MVFR,,,,,,,,,,,,METAR,141.0
DAUG 211400Z 33018KT 9999 FEW030TCU BKN033 12/M01 Q1013,DAUG,2018-03-21T14:00:00Z,32.37,3.82,12.0,-1.0,330,18,,6.21,29.911417,,,,,,,,,,,FEW,3000,BKN,3300,,,,,VFR,,,,,,,,,,,,METAR,450.0
DAUB 211400Z 00000KT 9999 BKN030 SCT040 11/03 Q1013,DAUB,2018-03-21T14:00:00Z,34.78,5.72,11.0,3.0,0,0,,6.21,29.911417,,,,,,,,,,,BKN,3000,SCT,4000,,,,,MVFR,,,,,,,,,,,,METAR,87.0
DAUA 211400Z 35021KT 5000 DRSA NSC 18/M05 Q1013,DAUA,2018-03-21T14:00:00Z,27.83,-0.18,18.0,-5.0,350,21,,3.11,29.911417,,,,,,,,,,DRSA,CLR,,,,,,,,MVFR,,,,,,,,,,,,METAR,263.0
DAOR 211400Z 36018KT 6000 FEW033 14/M03 Q1018,DAOR,2018-03-21T14:00:00Z,31.65,-2.27,14.0,-3.0,360,18,,3.73,30.059055,,,,,,,,,,,FEW,3300,,,,,,,MVFR,,,,,,,,,,,,METAR,773.0
DAOF 211400Z 06009KT 5000 NSC 23/M11 Q1017,DAOF,2018-03-21T14:00:00Z,27.7,-8.17,23.0,-11.0,60,9,,3.11,30.029528,,,,,,,,,,,CLR,,,,,,,,MVFR,,,,,,,,,,,,METAR,431.0
DAOB 211400Z 35021G38KT 3000 SN SCT013 BKN020 FEW023CB 01/M00 Q1016,DAOB,2018-03-21T14:00:00Z,35.33,1.47,1.0,0.0,350,21,38,1.86,30.0,,,,,,,,,,SN,SCT,1300,BKN,2000,FEW,2300,,,IFR,,,,,,,,,,,,METAR,989.0
DABS 211400Z 29006KT 5000 -RA SCT020 BKN033 02/02 Q1012,DABS,2018-03-21T14:00:00Z,35.43,8.12,2.0,2.0,290,6,,3.11,29.88189,,,,,,,,,,-RA,SCT,2000,BKN,3300,,,,,MVFR,,,,,,,,,,,,METAR,813.0
DAAS 211400Z 34012KT 9999 FEW010 SCT026 03/M00 Q1012,DAAS,2018-03-21T14:00:00Z,36.18,5.33,3.0,0.0,340,12,,6.21,29.88189,,,,,,,,,,,FEW,1000,SCT,2600,,,,,VFR,,,,,,,,,,,,METAR,1038.0
TNCC 211400Z 10015KT 9999 SCT020 28/22 Q1015 NOSIG,TNCC,2018-03-21T14:00:00Z,12.2,-68.97,28.0,22.0,100,15,,6.21,29.970472,,,,,,TRUE,,,,,SCT,2000,,,,,,,VFR,,,,,,,,,,,,METAR,9.0
CYZT 211400Z 19003KT 12SM BCFG FEW005 BKN023 OVC080 03/03 A2972 RMK SF2SC4AC2 SLP066,CYZT,2018-03-21T14:00:00Z,50.67,-127.37,3.0,3.0,190,3,,12.0,29.719488,1006.6,,,,,,,,,BCFG,FEW,500,BKN,2300,OVC,8000,,,MVFR,,,,,,,,,,,,SPECI,22.0
CYZP 211400Z AUTO 33012KT 9SM BKN170 03/M01 A2975 RMK SLP078,CYZP,2018-03-21T14:00:00Z,53.25,-131.82,3.0,-1.0,330,12,,9.0,29.749016,1007.8,,TRUE,,,,,,,,BKN,17000,,,,,,,VFR,,,,,,,,,,,,SPECI,6.0
CYXC 211400Z 23002KT 25SM BKN062 BKN088 M00/M03 A2983 RMK SC5AC2 SLP129,CYXC,2018-03-21T14:00:00Z,49.6,-115.77,0.0,-3.0,230,2,,25.0,29.828741,1012.9,,,,,,,,,,BKN,6200,BKN,8800,,,,,VFR,,,,,,,,,,,,SPECI,939.0
CYUA 211400Z AUTO 28009KT ////SM //// FEW022 SCT040 BKN050 M18/M21 A3065,CYUA,2018-03-21T14:00:00Z,68.95,-137.28,-18.0,-21.0,280,9,,,30.649607,,,TRUE,,,,,,,,FEW,2200,SCT,4000,BKN,5000,,,,,,,,,,,,,,,SPECI,38.0
CYRV 211400Z AUTO 00000KT 9SM BKN055 OVC078 01/M00 A2984 RMK SLP123,CYRV,2018-03-21T14:00:00Z,50.97,-118.17,1.0,0.0,0,0,,9.0,29.840551,1012.3,,TRUE,,,,,,,,BKN,5500,OVC,7800,,,,,VFR,,,,,,,,,,,,SPECI,443.0
CYQD 211400Z 15006KT 15SM FEW050 SCT070 BKN080 OVC200 M07/M09 A3001 RMK SC1AS3AC4CS1 SC TR SLP182,CYQD,2018-03-21T14:00:00Z,53.97,-101.08,-7.0,-9.0,150,6,,15.0,30.008858,1018.2,,,,,,,,,,FEW,5000,SCT,7000,BKN,8000,OVC,20000,VFR,,,,,,,,,,,,SPECI,271.0
CYPR 211400Z AUTO 05004KT 9SM BKN065 BKN180 BKN200 M01/M01 A2974 RMK SLP072,CYPR,2018-03-21T14:00:00Z,54.28,-130.42,-1.0,-1.0,50,4,,9.0,29.740158,1007.2,,TRUE,,,,,,,,BKN,6500,BKN,18000,BKN,20000,,,VFR,,,,,,,,,,,,SPECI,34.0
CYKY 211400Z 25006KT 4SM BR FEW020 SCT130 BKN240 M14/M16 A2985 RMK SC1AC2CI4 SLP155,CYKY,2018-03-21T14:00:00Z,51.52,-109.17,-14.0,-16.0,250,6,,4.0,29.84941,1015.5,,,,,,,,,BR,FEW,2000,SCT,13000,BKN,24000,,,MVFR,,,,,,,,,,,,SPECI,694.0
CYIV 211400Z 13005KT 15SM FEW040 OVC080 M08/M16 A3011 RMK SC2AC6 SLP218,CYIV,2018-03-21T14:00:00Z,53.85,-94.65,-8.0,-16.0,130,5,,15.0,30.109253,1021.8,,,,,,,,,,FEW,4000,OVC,8000,,,,,VFR,,,,,,,,,,,,SPECI,237.0
CYHE 211400Z AUTO 11009KT 9SM OVC095 03/01 A2981 RMK SLP096,CYHE,2018-03-21T14:00:00Z,49.37,-121.5,3.0,1.0,110,9,,9.0,29.811024,1009.6,,TRUE,,,,,,,,OVC,9500,,,,,,,VFR,,,,,,,,,,,,SPECI,39.0
CYEV 211400Z 00000KT 15SM BKN018 M23/M26 A3061 RMK SC6 SLP377,CYEV,2018-03-21T14:00:00Z,68.32,-133.5,-23.0,-26.0,0,0,,15.0,30.611221,1037.7,,,,,,,,,,BKN,1800,,,,,,,MVFR,,,,,,,,,,,,SPECI,68.0
CYDQ 211400Z AUTO 05003KT 9SM OVC008 M02/M02 A2981 RMK SLP127,CYDQ,2018-03-21T14:00:00Z,55.75,-120.17,-2.0,-2.0,50,3,,9.0,29.811024,1012.7,,TRUE,,,,,,,,OVC,800,,,,,,,IFR,,,,,,,,,,,,SPECI,655.0
VEGY 211400Z 03007KT 4000 HZ SCT100 26/16 Q1008,VEGY,2018-03-21T14:00:00Z,24.75,84.95,26.0,16.0,30,7,,2.49,29.763779,,,,,,,,,,HZ,SCT,10000,,,,,,,IFR,,,,,,,,,,,,METAR,116.0
SVSA 211400Z /////KT 6000 VCFG SCT020 27/// Q1014,SVSA,2018-03-21T14:00:00Z,7.83,-72.45,,,,,,3.73,29.940945,,,,,,,,,,VCFG,SCT,2000,,,,,,,MVFR,,,,,,,,,,,,SPECI,378.0
SVGU 211400Z /////KT 9999 SCT017 30/19 Q1013,SVGU,2018-03-21T14:00:00Z,9.03,-69.75,30.0,19.0,,,,6.21,29.911417,,,,,,,,,,,SCT,1700,,,,,,,VFR,,,,,,,,,,,,METAR,163.0
YPBO 211400Z AUTO 08006KT 9999 // NCD 30/08 Q1011,YPBO,2018-03-21T14:00:00Z,-23.2,117.75,30.0,8.0,80,6,,6.21,29.852362,,,TRUE,,,,,,,,CLR,,,,,,,,VFR,,,,,,,,,,,,METAR,1292.0
YOLD 211400Z AUTO 17007KT 9999 // NCD 22/04 Q1015,YOLD,2018-03-21T14:00:00Z,-30.48,136.88,22.0,4.0,170,7,,6.21,29.970472,,,TRUE,,,,,,,,CLR,,,,,,,,VFR,,,,,,,,,,,,METAR,105.0
YNWN 211400Z AUTO 01004KT 9999 // NCD 32/05 Q1012,YNWN,2018-03-21T14:00:00Z,-23.42,119.8,32.0,5.0,10,4,,6.21,29.88189,,,TRUE,,,,,,,,CLR,,,,,,,,VFR,,,,,,,,,,,,METAR,525.0
YNTN 211400Z AUTO 14005KT 9999 // SCT087 28/24 Q1006,YNTN,2018-03-21T14:00:00Z,-17.68,141.07,28.0,24.0,140,5,,6.21,29.704725,,,TRUE,,,,,,,,SCT,8700,,,,,,,VFR,,,,,,,,,,,,METAR,22.0
YNBR 211400Z AUTO 16012KT 9999 // NCD 20/14 Q1020,YNBR,2018-03-21T14:00:00Z,-30.32,149.83,20.0,14.0,160,12,,6.21,30.11811,,,TRUE,,,,,,,,CLR,,,,,,,,VFR,,,,,,,,,,,,METAR,240.0
YNAR 211400Z AUTO 09015KT //// // ////// 17/07 Q1024,YNAR,2018-03-21T14:00:00Z,-34.7,146.52,17.0,7.0,90,15,,,30.236221,,,TRUE,,,,,,,,,,,,,,,,,,,,,,,,,,,,METAR,145.0
YMTG 211400Z AUTO 11011KT 9999 // NCD 16/10 Q1022,YMTG,2018-03-21T14:00:00Z,-37.75,140.78,16.0,10.0,110,11,,6.21,30.177166,,,TRUE,,,,,,,,CLR,,,,,,,,VFR,,,,,,,,,,,,METAR,65.0
YLIS 211400Z AUTO 15004KT 050V160 9999 // NCD 19/18 Q1018,YLIS,2018-03-21T14:00:00Z,-28.83,153.27,19.0,18.0,150,4,,6.21,30.059055,,,TRUE,,,,,,,,CLR,,,,,,,,VFR,,,,,,,,,,,,METAR,11.0
YLEC 211400Z AUTO 11007KT //// // ////// 20/06 Q1016,YLEC,2018-03-21T14:00:00Z,-30.6,138.43,20.0,6.0,110,7,,,30.0,,,TRUE,,,,,,,,,,,,,,,,,,,,,,,,,,,,METAR,262.0
YHUG 211400Z AUTO 09010KT 040V100 9999 // OVC086 24/18 Q1011,YHUG,2018-03-21T14:00:00Z,-20.82,144.23,24.0,18.0,90,10,,6.21,29.852362,,,TRUE,,,,,,,,OVC,8600,,,,,,,VFR,,,,,,,,,,,,METAR,318.0
YGTH 211400Z AUTO 08019KT 9999 // NCD 18/08 Q1023,YGTH,2018-03-21T14:00:00Z,-34.25,146.07,18.0,8.0,80,19,,6.21,30.206694,,,TRUE,,,,,,,,CLR,,,,,,,,VFR,,,,,,,,,,,,METAR,134.0
YGTE 211400Z AUTO 13004KT 9999 // SCT027 27/24 Q1004,YGTE,2018-03-21T14:00:00Z,-13.97,136.45,27.0,24.0,130,4,,6.21,29.64567,,,TRUE,,,,,,,,SCT,2700,,,,,,,VFR,,,,,,,,,,,,METAR,14.0
YEML 211400Z AUTO 13005KT 9999 // SCT041 SCT089 23/17 Q1013,YEML,2018-03-21T14:00:00Z,-23.57,148.18,23.0,17.0,130,5,,6.21,29.911417,,,TRUE,,,,,,,,SCT,4100,SCT,8900,,,,,VFR,,,,,,,,,,,,METAR,190.0
YCAS 211400Z AUTO 11007KT 040V180 //// // ////// 20/19 Q1019,YCAS,2018-03-21T14:00:00Z,-28.88,153.07,20.0,19.0,110,7,,,30.088583,,,TRUE,,,,,,,,,,,,,,,,,,,,,,,,,,,,METAR,26.0
YCAR 211400Z AUTO 21007KT 9999 // NCD 26/22 Q1009,YCAR,2018-03-21T14:00:00Z,-24.88,113.67,26.0,22.0,210,7,,6.21,29.793306,,,TRUE,,,,,,,,CLR,,,,,,,,VFR,,,,,,,,,,,,METAR,8.0
YBWX 211400Z AUTO 36001KT //// // ////// 29/25 Q1008,YBWX,2018-03-21T14:00:00Z,-20.88,115.4,29.0,25.0,360,1,,,29.763779,,,TRUE,,,,,,,,,,,,,,,,,,,,,,,,,,,,METAR,6.0
YBWP 211400Z AUTO 12005KT 9999 // NCD 25/23 Q1006,YBWP,2018-03-21T14:00:00Z,-12.68,141.92,25.0,23.0,120,5,,6.21,29.704725,,,TRUE,,,,,,,,CLR,,,,,,,,VFR,,,,,,,,,,,,METAR,12.0
YBUD 211400Z AUTO 17008KT 9999 // SCT008 SCT029 SCT035 22/21 Q1013,YBUD,2018-03-21T14:00:00Z,-24.9,152.32,22.0,21.0,170,8,,6.21,29.911417,,,TRUE,,,,,,,,SCT,800,SCT,2900,SCT,3500,,,VFR,,,,,,,,,,,,METAR,82.0
YWHA 211400Z AUTO 22006KT 9999 // NCD 16/12 Q1017,YWHA,2018-03-21T14:00:00Z,-33.07,137.52,16.0,12.0,220,6,,6.21,30.029528,,,TRUE,,,,,,,,CLR,,,,,,,,VFR,,,,,,,,,,,,METAR,13.0
YWGT 211400Z AUTO 12007KT 9999 // NCD 16/07 Q1025,YWGT,2018-03-21T14:00:00Z,-36.42,146.3,16.0,7.0,120,7,,6.21,30.265747,,,TRUE,,,,,,,,CLR,,,,,,,,VFR,,,,,,,,,,,,METAR,153.0
YTNK 211400Z AUTO 13010KT 9999 // SCT100 30/12 Q1009,YTNK,2018-03-21T14:00:00Z,-19.63,134.18,30.0,12.0,130,10,,6.21,29.793306,,,TRUE,,,,,,,,SCT,10000,,,,,,,VFR,,,,,,,,,,,,METAR,377.0
YTEF 211400Z AUTO 16006KT 9999 // NCD 30/12 Q1010,YTEF,2018-03-21T14:00:00Z,-21.72,122.23,30.0,12.0,160,6,,6.21,29.822834,,,TRUE,,,,,,,,CLR,,,,,,,,VFR,,,,,,,,,,,,METAR,296.0
YSWG 211400Z AUTO 09017KT 9999 // NCD 17/06 Q1025,YSWG,2018-03-21T14:00:00Z,-35.13,147.47,17.0,6.0,90,17,,6.21,30.265747,,,TRUE,,,,,,,,CLR,,,,,,,,VFR,,,,,,,,,,,,METAR,213.0
YDBY 211400Z AUTO 19006KT 9999 // NCD 27/23 Q1007,YDBY,2018-03-21T14:00:00Z,-17.37,123.67,27.0,23.0,190,6,,6.21,29.734253,,,TRUE,,,,,,,,CLR,,,,,,,,VFR,,,,,,,,,,,,METAR,7.0
FDJR 211400Z AUTO 02006KT //// // ////// ///// Q1014,FDJR,2018-03-21T14:00:00Z,-27.17,31.43,,,20,6,,,29.940945,,,TRUE,,,,,,,,,,,,,,,,,,,,,,,,,,,,METAR,701.0
HEIS 211400Z 04012KT CAVOK 30/01 Q1016,HEIS,2018-03-21T14:00:00Z,30.58,32.25,30.0,1.0,40,12,,6.21,30.0,,,,,,,,,,,CAVOK,,,,,,,,VFR,,,,,,,,,,,,METAR,3.0
HETR 211400Z 31010KT CAVOK 27/16 Q1013,HETR,2018-03-21T14:00:00Z,28.22,33.65,27.0,16.0,310,10,,6.21,29.911417,,,,,,,,,,,CAVOK,,,,,,,,VFR,,,,,,,,,,,,METAR,35.0
VOGO 211400Z 30009KT 6000 FEW100 29/21 Q1010 NOSIG,VOGO,2018-03-21T14:00:00Z,15.38,73.83,29.0,21.0,300,9,,3.73,29.822834,,,,,,TRUE,,,,,FEW,10000,,,,,,,MVFR,,,,,,,,,,,,METAR,52.0
VOGO 211400Z 30009KT 6000 FEW100 29/21 Q1010 NOSIG,VOGO,2018-03-21T14:00:00Z,15.38,73.83,29.0,21.0,300,9,,3.73,29.822834,,,,,,TRUE,,,,,FEW,10000,,,,,,,MVFR,,,,,,,,,,,,METAR,52.0
FDMY 211400Z AUTO 26012G27KT //// // ////// 21/16 Q1023,FDMY,2018-03-21T14:00:00Z,-25.87,31.52,21.0,16.0,260,12,27,,30.206694,,,TRUE,,,,,,,,,,,,,,,,,,,,,,,,,,,,METAR,480.0
TRPG 211400Z 13015KT 9999 FEW021 28/23 Q1018,TRPG,2018-03-21T14:00:00Z,16.78,-62.2,28.0,23.0,130,15,,6.21,30.059055,,,,,,,,,,,FEW,2100,,,,,,,VFR,,,,,,,,,,,,METAR,168.0
SETN 211400Z 21003KT 180V240 9999 FEW016 BKN100 26/25 Q1011 A2985,SETN,2018-03-21T14:00:00Z,0.98,-79.63,26.0,25.0,210,3,,6.21,29.852362,,,,,,,,,,,FEW,1600,BKN,10000,,,,,VFR,,,,,,,,,,,,METAR,10.0
TBPB 211400Z 10020KT 9999 FEW020 29/23 Q1016 NOSIG,TBPB,2018-03-21T14:00:00Z,13.07,-59.48,29.0,23.0,100,20,,6.21,30.0,,,,,,TRUE,,,,,FEW,2000,,,,,,,VFR,,,,,,,,,,,,METAR,52.0
SUAA 211400Z 18010KT 9999 BKN026 18/09 Q1020,SUAA,2018-03-21T14:00:00Z,-34.77,-56.25,18.0,9.0,180,10,,6.21,30.11811,,,,,,,,,,,BKN,2600,,,,,,,MVFR,,,,,,,,,,,,METAR,54.0
SUCA 211400Z 15015KT 9999 SCT015 17/11 Q1019,SUCA,2018-03-21T14:00:00Z,-34.45,-57.77,17.0,11.0,150,15,,6.21,30.088583,,,,,,,,,,,SCT,1500,,,,,,,VFR,,,,,,,,,,,,METAR,23.0
SULS 211400Z 18015KT 9999 SCT023 19/09 Q1020,SULS,2018-03-21T14:00:00Z,-34.87,-55.1,19.0,9.0,180,15,,6.21,30.11811,,,,,,,,,,,SCT,2300,,,,,,,VFR,,,,,,,,,,,,METAR,30.0
SUDU 211400Z 15014KT 9999 BKN020 19/11 Q1020,SUDU,2018-03-21T14:00:00Z,-33.35,-56.5,19.0,11.0,150,14,,6.21,30.11811,,,,,,,,,,,BKN,2000,,,,,,,MVFR,,,,,,,,,,,,METAR,93.0
SUSO 211400Z 12014KT CAVOK 19/11 Q1019,SUSO,2018-03-21T14:00:00Z,-31.43,-57.98,19.0,11.0,120,14,,6.21,30.088583,,,,,,,,,,,CAVOK,,,,,,,,VFR,,,,,,,,,,,,METAR,34.0
SBCT 211400Z 12005KT 9999 SCT005 BKN010 21/19 Q1018,SBCT,2018-03-21T14:00:00Z,-25.52,-49.17,21.0,19.0,120,5,,6.21,30.059055,,,,,,,,,,,SCT,500,BKN,1000,,,,,MVFR,,,,,,,,,,,,METAR,908.0
LBWB 211400Z 06010KT 3000 -RA BKN005 OVC017 04/03 Q1013,LBWB,2018-03-21T14:00:00Z,43.42,28.18,4.0,3.0,60,10,,1.86,29.911417,,,,,,,,,,-RA,BKN,500,OVC,1700,,,,,IFR,,,,,,,,,,,,METAR,201.0
LBPL 211400Z 33010KT 2500 BR BKN07 OVC018 02/01 Q1017,LBPL,2018-03-21T14:00:00Z,43.45,24.5,2.0,1.0,330,10,,1.55,30.029528,,,,,,,,,,BR,OVC,1800,,,,,,,IFR,,,,,,,,,,,,METAR,101.0
LBIA 211400Z 07006KT 9999 BKN009 OVC034 09/07 Q1013,LBIA,2018-03-21T14:00:00Z,42.45,26.35,9.0,7.0,70,6,,6.21,29.911417,,,,,,,,,,,BKN,900,OVC,3400,,,,,IFR,,,,,,,,,,,,METAR,155.0
LBPG 211400Z 07004KT 5000 BR SCT012 BKN100 OVC200 10/07 Q1012,LBPG,2018-03-21T14:00:00Z,42.28,24.72,10.0,7.0,70,4,,3.11,29.88189,,,,,,,,,,BR,SCT,1200,BKN,10000,OVC,20000,,,MVFR,,,,,,,,,,,,METAR,58.0
SBNF 211400Z 12004KT 9999 SCT015 BKN035 24/19 Q1014,SBNF,2018-03-21T14:00:00Z,-26.88,-48.65,24.0,19.0,120,4,,6.21,29.940945,,,,,,,,,,,SCT,1500,BKN,3500,,,,,VFR,,,,,,,,,,,,METAR,5.0
SBCG 211400Z VRB03KT 9999 SCT030 FEW040TCU 30/22 Q1015,SBCG,2018-03-21T14:00:00Z,-20.47,-54.67,30.0,22.0,0,3,,6.21,29.970472,,,,,,,,,,,SCT,3000,FEW,4000,,,,,VFR,,,,,,,,,,,,METAR,567.0
SYCJ 211400Z 07006KT 040V100 9999 BKN014 SCT034 OVC080 26/25 Q1014 NOISG RERA,SYCJ,2018-03-21T14:00:00Z,6.5,-58.25,26.0,25.0,70,6,,6.21,29.940945,,,,,,,,,,SG,BKN,1400,SCT,3400,OVC,8000,,,MVFR,,,,,,,,,,,,SPECI,30.0
OMSJ 211400Z 30007KT CAVOK 27/11 Q1012,OMSJ,2018-03-21T14:00:00Z,25.32,55.52,27.0,11.0,300,7,,6.21,29.88189,,,,,,,,,,,CAVOK,,,,,,,,VFR,,,,,,,,,,,,METAR,33.0
OMRK 211400Z 32007KT CAVOK 27/12 Q1012 A2989,OMRK,2018-03-21T14:00:00Z,25.62,55.92,27.0,12.0,320,7,,6.21,29.88189,,,,,,,,,,,CAVOK,,,,,,,,VFR,,,,,,,,,,,,METAR,31.0
OMFJ 211400Z 08004KT CAVOK 28/16 Q1011 A2986,OMFJ,2018-03-21T14:00:00Z,25.1,56.32,28.0,16.0,80,4,,6.21,29.852362,,,,,,,,,,,CAVOK,,,,,,,,VFR,,,,,,,,,,,,METAR,28.0
OMDW 211400Z 33010KT CAVOK 26/13 Q1013 NOSIG,OMDW,2018-03-21T14:00:00Z,24.9,55.17,26.0,13.0,330,10,,6.21,29.911417,,,,,,TRUE,,,,,CAVOK,,,,,,,,VFR,,,,,,,,,,,,METAR,25.0
OMDB 211400Z 32009KT CAVOK 26/12 Q1012 NOSIG,OMDB,2018-03-21T14:00:00Z,25.25,55.37,26.0,12.0,320,9,,6.21,29.88189,,,,,,TRUE,,,,,CAVOK,,,,,,,,VFR,,,,,,,,,,,,METAR,5.0
OMAL 211400Z 33013KT CAVOK 31/01 Q1012 NOSIG,OMAL,2018-03-21T14:00:00Z,24.25,55.6,31.0,1.0,330,13,,6.21,29.88189,,,,,,TRUE,,,,,CAVOK,,,,,,,,VFR,,,,,,,,,,,,METAR,262.0
OMAD 211400Z 33008KT 310V010 CAVOK 26/13 Q1012 NOSIG,OMAD,2018-03-21T14:00:00Z,24.42,54.47,26.0,13.0,330,8,,6.21,29.88189,,,,,,TRUE,,,,,CAVOK,,,,,,,,VFR,,,,,,,,,,,,METAR,3.0
OMAA 211400Z 32010KT CAVOK 26/16 Q1011 NOSIG,OMAA,2018-03-21T14:00:00Z,24.42,54.63,26.0,16.0,320,10,,6.21,29.852362,,,,,,TRUE,,,,,CAVOK,,,,,,,,VFR,,,,,,,,,,,,METAR,27.0
FSIA 211400Z 15004KT 110V180 CAVOK 28/22 Q1011 NOSIG,FSIA,2018-03-21T14:00:00Z,-4.67,55.52,28.0,22.0,150,4,,6.21,29.852362,,,,,,TRUE,,,,,CAVOK,,,,,,,,VFR,,,,,,,,,,,,METAR,3.0
YCCY 211400Z AUTO 13009KT //// // ////// 30/18 Q1009,YCCY,2018-03-21T14:00:00Z,-20.67,140.5,30.0,18.0,130,9,,,29.793306,,,TRUE,,,,,,,,,,,,,,,,,,,,,,,,,,,,METAR,570.0
YCBP 211400Z AUTO 13011KT 9999 // NCD 24/04 Q1016,YCBP,2018-03-21T14:00:00Z,-29.03,134.72,24.0,4.0,130,11,,6.21,30.0,,,TRUE,,,,,,,,CLR,,,,,,,,VFR,,,,,,,,,,,,METAR,226.0
YCBB 211400Z AUTO 16008KT //// // ////// 15/12 Q1023,YCBB,2018-03-21T14:00:00Z,-31.33,149.27,15.0,12.0,160,8,,,30.206694,,,TRUE,,,,,,,,,,,,,,,,,,,,,,,,,,,,METAR,645.0
HDAM 211400Z 05006KT CAVOK 29/21 Q1011,HDAM,2018-03-21T14:00:00Z,11.55,43.17,29.0,21.0,50,6,,6.21,29.852362,,,,,,,,,,,CAVOK,,,,,,,,VFR,,,,,,,,,,,,SPECI,49.0
LERT 211400Z 01012KT 330V040 CAVOK 14/00 Q1024 NOSIG,LERT,2018-03-21T14:00:00Z,36.63,-6.33,14.0,0.0,10,12,,6.21,30.236221,,,,,,TRUE,,,,,CAVOK,,,,,,,,VFR,,,,,,,,,,,,SPECI,26.0
LERI 211400Z 32008KT CAVOK 15/M05 Q1019 NOSIG,LERI,2018-03-21T14:00:00Z,37.95,-1.22,15.0,-5.0,320,8,,6.21,30.088583,,,,,,TRUE,,,,,CAVOK,,,,,,,,VFR,,,,,,,,,,,,SPECI,75.0
LEGT 211400Z 02013KT 330V060 CAVOK 12/M03 Q1022,LEGT,2018-03-21T14:00:00Z,40.28,-3.72,12.0,-3.0,20,13,,6.21,30.177166,,,,,,,,,,,CAVOK,,,,,,,,VFR,,,,,,,,,,,,SPECI,612.0
LEGA 211400Z 33017KT 9999 FEW040 09/M02 Q1019,LEGA,2018-03-21T14:00:00Z,37.12,-3.62,9.0,-2.0,330,17,,6.21,30.088583,,,,,,,,,,,FEW,4000,,,,,,,VFR,,,,,,,,,,,,SPECI,686.0
CTRA 211400Z AUTO 17003KT M06/M11 RMK AO1 SOG 40 1013 SLP230 T10551110,CTRA,2018-03-21T14:00:00Z,49.67,-93.73,-5.5,-11.0,170,3,,,,1023.0,,TRUE,TRUE,,,,,,,,,,,,,,,,,,,,,,,,,,,METAR,435.0
CWJD 211400Z AUTO 00000KT M11/M12 RMK AO1 SOG 49 1013 SLP203 T11121115,CWJD,2018-03-21T14:00:00Z,53.17,-99.27,-11.2,-11.5,0,0,,,,1020.3,,TRUE,TRUE,,,,,,,,,,,,,,,,,,,,,,,,,,,METAR,223.0
CWEQ 211400Z AUTO 21004KT M06/M07 RMK AO1 SOG 31 2009 SLP191 T10591071,CWEQ,2018-03-21T14:00:00Z,52.12,-101.22,-5.9,-7.1,210,4,,,,1019.1,,TRUE,TRUE,,,,,,,,,,,,,,,,,,,,,,,,,,,METAR,335.0
CWLB 211400Z AUTO 04003KT M00/M00 RMK AO1 6PAST HR SOG 09 3013 SLP138 P0002 T10021003 50009,CWLB,2018-03-21T14:00:00Z,54.77,-112.02,-0.2,-0.3,40,3,,,,1013.8,,TRUE,TRUE,,,,,,,,,,,,,,,,0.9,,,,,0.02,,,,,,METAR,567.0
CWCT 211400Z AUTO 16002KT M08/M09 RMK AO1 SOG 17 1009 SLP144 T10801088,CWCT,2018-03-21T14:00:00Z,52.07,-111.47,-8.0,-8.8,160,2,,,,1014.4,,TRUE,TRUE,,,,,,,,,,,,,,,,,,,,,,,,,,,METAR,791.0
CWOY 211400Z AUTO 15004KT M06/M08 RMK AO1 SOG 20 2008 SLP172 T10561080,CWOY,2018-03-21T14:00:00Z,51.77,-104.2,-5.6,-8.0,150,4,,,,1017.2,,TRUE,TRUE,,,,,,,,,,,,,,,,,,,,,,,,,,,METAR,560.0
CWKO 211400Z AUTO 24003KT M06/M07 RMK AO1 SOG 15 8001 SLP166 T10611069,CWKO,2018-03-21T14:00:00Z,49.17,-105.97,-6.1,-6.9,240,3,,,,1016.6,,TRUE,TRUE,,,,,,,,,,,,,,,,,,,,,,,,,,,METAR,917.0
CWEH 211400Z AUTO 27005KT M06/M06 RMK AO1 SOG 87 3001 SLP152 T10561063,CWEH,2018-03-21T14:00:00Z,49.42,-108.97,-5.6,-6.3,270,5,,,,1015.2,,TRUE,TRUE,,,,,,,,,,,,,,,,,,,,,,,,,,,METAR,1078.0
CWDC 211400Z AUTO 05011KT M19/M23 RMK AO1 SOG 53 1027 SLP249 T11861228,CWDC,2018-03-21T14:00:00Z,59.57,-108.47,-18.6,-22.8,50,11,,,,1024.9,,TRUE,TRUE,,,,,,,,,,,,,,,,,,,,,,,,,,,METAR,318.0
CWWZ 211400Z AUTO 06019KT M01/M06 RMK AO1 PK WND 05024/1344 SLP134 T10091059 51012,CWWZ,2018-03-21T14:00:00Z,43.25,-79.22,-0.9,-5.9,60,19,,,,1013.4,,TRUE,TRUE,,,,,,,,,,,,,,,,1.2,,,,,,,,,,,METAR,79.0
CWPO 211400Z AUTO 09004KT M03/M03 RMK AO1 SOG 11 1010 SLP193 T10271034,CWPO,2018-03-21T14:00:00Z,49.2,-98.9,-2.7,-3.4,90,4,,,,1019.3,,TRUE,TRUE,,,,,,,,,,,,,,,,,,,,,,,,,,,METAR,470.0
CTCK 211400Z AUTO 03002KT M06/M12 RMK AO1 SOG 19 7001 SLP158 T10641120,CTCK,2018-03-21T14:00:00Z,45.25,-74.97,-6.4,-12.0,30,2,,,,1015.8,,TRUE,TRUE,,,,,,,,,,,,,,,,,,,,,,,,,,,METAR,85.0
CWDV 211400Z AUTO 12002KT M10/M22 RMK AO1 SOG 45 2012 SLP249 T11021217,CWDV,2018-03-21T14:00:00Z,49.02,-90.47,-10.2,-21.7,120,2,,,,1024.9,,TRUE,TRUE,,,,,,,,,,,,,,,,,,,,,,,,,,,METAR,489.0
CWPE 211400Z AUTO 06009G18KT 01/M04 RMK AO1 18 SOG 03 6009 SLP128 T00091037,CWPE,2018-03-21T14:00:00Z,45.07,-66.47,0.9,-3.7,60,9,18,,,1012.8,,TRUE,TRUE,,,,,,,,,,,,,,,,,,,,,,,,,,,METAR,1.0
CWPD 211400Z AUTO 36003KT M06/M11 RMK AO1 SLP154 T10611109 51004,CWPD,2018-03-21T14:00:00Z,47.57,-71.22,-6.1,-10.9,360,3,,,,1015.4,,TRUE,TRUE,,,,,,,,,,,,,,,,0.4,,,,,,,,,,,METAR,803.0
CWOD 211400Z AUTO 32005KT M10/M16 RMK AO1 SOG 27 0002 SLP184 T11001158,CWOD,2018-03-21T14:00:00Z,48.85,-72.55,-10.0,-15.8,320,5,,,,1018.4,,TRUE,TRUE,,,,,,,,,,,,,,,,,,,,,,,,,,,METAR,137.0
CWNQ 211400Z AUTO 05009G15KT M05/M11 RMK AO1 SLP154 T10531111,CWNQ,2018-03-21T14:00:00Z,46.22,-72.65,-5.3,-11.1,50,9,15,,,1015.4,,TRUE,TRUE,,,,,,,,,,,,,,,,,,,,,,,,,,,METAR,10.0
CWNP 211400Z AUTO 00000KT 01/M01 RMK AO1 SOG 46 2002 SLP118 T00081007,CWNP,2018-03-21T14:00:00Z,50.27,-117.82,0.8,-0.7,0,0,,,,1011.8,,TRUE,TRUE,,,,,,,,,,,,,,,,,,,,,,,,,,,METAR,524.0
CWNM 211400Z AUTO 05002KT 02/01 RMK AO1 SOG 00 3001 SLP123 T00210005,CWNM,2018-03-21T14:00:00Z,49.5,-117.28,2.1,0.5,50,2,,,,1012.3,,TRUE,TRUE,,,,,,,,,,,,,,,,,,,,,,,,,,,METAR,535.0
CWNK 211400Z AUTO 11005KT M05/M05 RMK AO1 2PAST HR M P0001 T10451051 50002,CWNK,2018-03-21T14:00:00Z,49.5,-98.03,-4.5,-5.1,110,5,,,,,,TRUE,TRUE,,,,,,,,,,,,,,,,0.2,,,,,0.01,,,,,,METAR,268.0
CWNE 211400Z AUTO 04007KT 01/M02 RMK AO1 SLP158 T00121019 51011,CWNE,2018-03-21T14:00:00Z,47.07,-64.0,1.2,-1.9,40,7,,,,1015.8,,TRUE,TRUE,,,,,,,,,,,,,,,,1.1,,,,,,,,,,,METAR,15.0
CWPZ 211400Z AUTO 10002KT M04/M05 RMK AO1 SOG 60 6007 SLP085 T10401048,CWPZ,2018-03-21T14:00:00Z,54.38,-125.97,-4.0,-4.8,100,2,,,,1008.5,,TRUE,TRUE,,,,,,,,,,,,,,,,,,,,,,,,,,,METAR,713.0
CWPR 211400Z AUTO 34001KT M02/M03 RMK AO1 SOG 31 8005 SLP099 T10221033,CWPR,2018-03-21T14:00:00Z,49.47,-120.52,-2.2,-3.3,340,1,,,,1009.9,,TRUE,TRUE,,,,,,,,,,,,,,,,,,,,,,,,,,,METAR,700.0
CMFM 211400Z AUTO 07004KT M02/M11 RMK AO1 SOG 99 6005 SLP142 T10151114,CMFM,2018-03-21T14:00:00Z,47.32,-71.15,-1.5,-11.4,70,4,,,,1014.2,,TRUE,TRUE,,,,,,,,,,,,,,,,,,,,,,,,,,,METAR,672.0
CXKE 211400Z AUTO 02004KT M05/M13 RMK AO1 SOG 10 3005 SLP156 T10531128,CXKE,2018-03-21T14:00:00Z,45.0,-75.63,-5.3,-12.8,20,4,,,,1015.6,,TRUE,TRUE,,,,,,,,,,,,,,,,,,,,,,,,,,,METAR,99.0
CXKA 211400Z AUTO 31001KT M17/M23 RMK AO1 SOG 70 3011 SLP275 T11731228,CXKA,2018-03-21T14:00:00Z,49.4,-82.45,-17.3,-22.8,310,1,,,,1027.5,,TRUE,TRUE,,,,,,,,,,,,,,,,,,,,,,,,,,,METAR,218.0
CXHM 211400Z AUTO 05008KT M02/ RMK AO1 SLP134 T1019 51011,CXHM,2018-03-21T14:00:00Z,43.28,-79.9,-1.9,,50,8,,,,1013.4,,TRUE,TRUE,,,,,,,,,,,,,,,,1.1,,,,,,,,,,,METAR,107.0
CWZS 211400Z AUTO 33001KT M07/M11 RMK AO1 SLP170 T10661108 50003,CWZS,2018-03-21T14:00:00Z,48.47,-67.43,-6.6,-10.8,330,1,,,,1017.0,,TRUE,TRUE,,,,,,,,,,,,,,,,0.3,,,,,,,,,,,METAR,166.0
CWZO 211400Z AUTO 00036KT RMK AO1,CWZO,2018-03-21T14:00:00Z,48.55,-123.23,,,0,36,,,,,,TRUE,TRUE,,,,,,,,,,,,,,,,,,,,,,,,,,,METAR,1.0
CWZA 211400Z AUTO 35003KT 05/01 RMK AO1 SLP085 T00540012 58008,CWZA,2018-03-21T14:00:00Z,49.25,-121.77,5.4,1.2,350,3,,,,1008.5,,TRUE,TRUE,,,,,,,,,,,,,,,,-0.8,,,,,,,,,,,METAR,15.0
CWYY 211400Z AUTO 08001KT 02/M02 RMK AO1 SLP103 T00191017 58001,CWYY,2018-03-21T14:00:00Z,49.03,-119.43,1.9,-1.7,80,1,,,,1010.3,,TRUE,TRUE,,,,,,,,,,,,,,,,-0.1,,,,,,,,,,,METAR,283.0
CWYL 211400Z AUTO 09002KT M05/M06 RMK AO1 SOG 128 5000 SLP115 T10481056,CWYL,2018-03-21T14:00:00Z,51.45,-116.32,-4.8,-5.6,90,2,,,,1011.5,,TRUE,TRUE,,,,,,,,,,,,,,,,,,,,,,,,,,,METAR,1615.0
CWYJ 211400Z AUTO 33002KT 05/03 RMK AO1 SLP079 T00510030 56010,CWYJ,2018-03-21T14:00:00Z,48.45,-123.3,5.1,3.0,330,2,,,,1007.9,,TRUE,TRUE,,,,,,,,,,,,,,,,-1.0,,,,,,,,,,,METAR,39.0
CWXL 211400Z AUTO 18007KT M04/M08 RMK AO1 T10391079,CWXL,2018-03-21T14:00:00Z,49.73,-111.45,-3.9,-7.9,180,7,,,,,,TRUE,TRUE,,,,,,,,,,,,,,,,,,,,,,,,,,,METAR,817.0
CWWB 211400Z AUTO M02/M11 RMK AO1 19 1012 SLP140 T10211113,CWWB,2018-03-21T14:00:00Z,43.3,-79.78,-2.1,-11.3,,,,,,1014.0,,TRUE,TRUE,,,,,,,,,,,,,,,,,,,,,,,,,,,METAR,76.0
CWNZ 211400Z AUTO 01002KT M14/M24 RMK AO1 SOG 71 1011 SLP278 T11421236,CWNZ,2018-03-21T14:00:00Z,49.75,-84.17,-14.2,-23.6,10,2,,,,1027.8,,TRUE,TRUE,,,,,,,,,,,,,,,,,,,,,,,,,,,METAR,256.0
CWNC 211400Z AUTO 05005KT M01/M13 RMK AO1 SOG 01 1009 PK WND 05017/1302 SLP135 T10121126,CWNC,2018-03-21T14:00:00Z,43.95,-78.17,-1.2,-12.6,50,5,,,,1013.5,,TRUE,TRUE,,,,,,,,,,,,,,,,,,,,,,,,,,,METAR,78.0
CWLS 211400Z AUTO 06008KT M04/M12 RMK AO1 SOG 00 1009 SLP150 T10411115,CWLS,2018-03-21T14:00:00Z,43.97,-80.75,-4.1,-11.5,60,8,,,,1015.0,,TRUE,TRUE,,,,,,,,,,,,,,,,,,,,,,,,,,,METAR,415.0
CWBE 211400Z AUTO 06006KT M06/M21 RMK AO1 SLP218 T10631208 51012,CWBE,2018-03-21T14:00:00Z,45.98,-81.48,-6.3,-20.8,60,6,,,,1021.8,,TRUE,TRUE,,,,,,,,,,,,,,,,1.2,,,,,,,,,,,METAR,196.0
CWPC 211400Z AUTO 05019KT M02/M08 RMK AO1 PK WND 05024/1344 SLP120 T10211083 51007,CWPC,2018-03-21T14:00:00Z,42.87,-79.25,-2.1,-8.3,50,19,,,,1012.0,,TRUE,TRUE,,,,,,,,,,,,,,,,0.7,,,,,,,,,,,METAR,184.0
CXZC 211400Z AUTO 01006KT M12/M15 RMK AO1 SOG 52 2006 SLP282 T11181147,CXZC,2018-03-21T14:00:00Z,51.3,-80.62,-11.8,-14.7,10,6,,,,1028.2,,TRUE,TRUE,,,,,,,,,,,,,,,,,,,,,,,,,,,METAR,9.0
CXBI 211400Z AUTO 02009KT M04/M12 RMK AO1 SOG 05 1008 SLP157 T10441123,CXBI,2018-03-21T14:00:00Z,44.48,-79.55,-4.4,-12.3,20,9,,,,1015.7,,TRUE,TRUE,,,,,,,,,,,,,,,,,,,,,,,,,,,METAR,289.0
CWRY 211400Z AUTO 27006KT M06/M09 RMK AO1 SOG 26 3004 SLP135 T10631093,CWRY,2018-03-21T14:00:00Z,49.12,-112.03,-6.3,-9.3,270,6,,,,1013.5,,TRUE,TRUE,,,,,,,,,,,,,,,,,,,,,,,,,,,METAR,1050.0
CWXC 211400Z AUTO 34002KT M08/M14 RMK AO1 SLP176 T10831135 50000,CWXC,2018-03-21T14:00:00Z,48.88,-71.03,-8.3,-13.5,340,2,,,,1017.6,,TRUE,TRUE,,,,,,,,,,,,,,,,0.0,,,,,,,,,,,METAR,300.0
CWFF 211400Z AUTO 22005KT M04/M05 RMK AO1 SOG 27 3014 SLP171 T10371052,CWFF,2018-03-21T14:00:00Z,52.82,-104.58,-3.7,-5.2,220,5,,,,1017.1,,TRUE,TRUE,,,,,,,,,,,,,,,,,,,,,,,,,,,METAR,490.0
CWER 211400Z AUTO 07021KT RMK AO1 PK WND 06024/1355,CWER,2018-03-21T14:00:00Z,47.0,-70.82,,,70,21,,,,,,TRUE,TRUE,,,,,,,,,,,,,,,,,,,,,,,,,,,METAR,5.0
CWDM 211400Z AUTO 35010KT M03/M08 RMK AO1 SOG 51 1017 SLP140 T10301075,CWDM,2018-03-21T14:00:00Z,50.47,-59.62,-3.0,-7.5,350,10,,,,1014.0,,TRUE,TRUE,,,,,,,,,,,,,,,,,,,,,,,,,,,METAR,6.0
CWQS 211400Z AUTO 03001KT 04/00 RMK AO1 SLP079 T00360000 56018,CWQS,2018-03-21T14:00:00Z,53.32,-132.77,3.6,0.0,30,1,,,,1007.9,,TRUE,TRUE,,,,,,,,,,,,,,,,-1.8,,,,,,,,,,,METAR,14.0
CWME 211400Z AUTO 31001KT 03/02 RMK AO1 6021 SLP070 T00250020 50004,CWME,2018-03-21T14:00:00Z,52.18,-127.47,2.5,2.0,310,1,,,,1007.0,,TRUE,TRUE,,,,,,,,,,,,,,,,0.4,,,,,,,,,,,METAR,32.0
CWEK 211400Z AUTO 03016KT 03/M00 RMK AO1 PK WND 01023/1346 SLP073 T00271002 58021,CWEK,2018-03-21T14:00:00Z,54.58,-130.7,2.7,-0.2,30,16,,,,1007.3,,TRUE,TRUE,,,,,,,,,,,,,,,,-2.1,,,,,,,,,,,METAR,8.0
CXTN 211400Z AUTO 24013KT M21/M24 RMK AO1 SLP343 T12141242 53013,CXTN,2018-03-21T14:00:00Z,69.2,-122.35,-21.4,-24.2,240,13,,,,1034.3,,TRUE,TRUE,,,,,,,,,,,,,,,,1.3,,,,,,,,,,,METAR,552.0
CXSR 211400Z AUTO 10003KT M02/M02 RMK AO1 SOG 64 3010 SLP117 T10181021 50002,CXSR,2018-03-21T14:00:00Z,55.7,-119.23,-1.8,-2.1,100,3,,,,1011.7,,TRUE,TRUE,,,,,,,,,,,,,,,,0.2,,,,,,,,,,,METAR,1015.0
CXMM 211400Z AUTO 02008KT M03/M06 RMK AO1 SOG 33 1020 SLP180 T10321061,CXMM,2018-03-21T14:00:00Z,56.65,-111.22,-3.2,-6.1,20,8,,,,1018.0,,TRUE,TRUE,,,,,,,,,,,,,,,,,,,,,,,,,,,METAR,369.0
DFOO 211400Z 18008KT 9999 FEW020 35/20 Q1011,DFOO,2018-03-21T14:00:00Z,11.17,-4.32,35.0,20.0,180,8,,6.21,29.852362,,,,,,,,,,,FEW,2000,,,,,,,VFR,,,,,,,,,,,,METAR,460.0
CXCS 211400Z AUTO 08004KT M09/M10 RMK AO1 T10921102,CXCS,2018-03-21T14:00:00Z,51.93,-110.72,-9.2,-10.2,80,4,,,,,,TRUE,TRUE,,,,,,,,,,,,,,,,,,,,,,,,,,,METAR,772.0
CXCD 211400Z AUTO 06006KT M01/M02 RMK AO1 T10061023,CXCD,2018-03-21T14:00:00Z,56.32,-119.75,-0.6,-2.3,60,6,,,,,,TRUE,TRUE,,,,,,,,,,,,,,,,,,,,,,,,,,,METAR,630.0
CXBA 211400Z AUTO 14005KT M07/M07 RMK AO1 T10711072,CXBA,2018-03-21T14:00:00Z,52.12,-110.1,-7.1,-7.2,140,5,,,,,,TRUE,TRUE,,,,,,,,,,,,,,,,,,,,,,,,,,,METAR,687.0
CXAJ 211400Z AUTO 05006KT M00/M01 RMK AO1 SOG 39 T10031008,CXAJ,2018-03-21T14:00:00Z,54.77,-112.82,-0.3,-0.8,50,6,,,,,,TRUE,TRUE,,,,,,,,,,,,,,,,,,,,,,,,,,,METAR,574.0
CXAG 211400Z AUTO 36004KT M04/M05 RMK AO1 T10371047,CXAG,2018-03-21T14:00:00Z,53.92,-112.28,-3.7,-4.7,360,4,,,,,,TRUE,TRUE,,,,,,,,,,,,,,,,,,,,,,,,,,,METAR,625.0
CZPS 211400Z AUTO 09003KT M01/M05 RMK AO1 T10051053,CZPS,2018-03-21T14:00:00Z,52.43,-113.6,-0.5,-5.3,90,3,,,,,,TRUE,TRUE,,,,,,,,,,,,,,,,,,,,,,,,,,,METAR,965.0
CZOL 211400Z AUTO 00000KT M02/M03 RMK AO1 T10241027,CZOL,2018-03-21T14:00:00Z,53.65,-113.35,-2.4,-2.7,0,0,,,,,,TRUE,TRUE,,,,,,,,,,,,,,,,,,,,,,,,,,,METAR,665.0
CXVM 211400Z AUTO 00000KT M08/M09 RMK AO1 T10821091,CXVM,2018-03-21T14:00:00Z,53.35,-110.88,-8.2,-9.1,0,0,,,,,,TRUE,TRUE,,,,,,,,,,,,,,,,,,,,,,,,,,,METAR,623.0
CXPL 211400Z AUTO 06002KT M11/M12 RMK AO1 T11091115,CXPL,2018-03-21T14:00:00Z,51.13,-111.7,-10.9,-11.5,60,2,,,,,,TRUE,TRUE,,,,,,,,,,,,,,,,,,,,,,,,,,,METAR,750.0
CXOL 211400Z AUTO 31006KT M06/M08 RMK AO1 T10581076,CXOL,2018-03-21T14:00:00Z,51.77,-114.08,-5.8,-7.6,310,6,,,,,,TRUE,TRUE,,,,,,,,,,,,,,,,,,,,,,,,,,,METAR,1046.0
CXMO 211400Z AUTO 05005KT M12/M13 RMK AO1 T11231131,CXMO,2018-03-21T14:00:00Z,51.67,-112.68,-12.3,-13.1,50,5,,,,,,TRUE,TRUE,,,,,,,,,,,,,,,,,,,,,,,,,,,METAR,836.0
CPRY 211400Z AUTO 23008KT M00/M06 RMK AO1 T10041057,CPRY,2018-03-21T14:00:00Z,49.48,-112.68,-0.4,-5.7,230,8,,,,,,TRUE,TRUE,,,,,,,,,,,,,,,,,,,,,,,,,,,METAR,937.0
FYWW 211400Z AUTO 34002KT //// // ////// 25/15 Q1019,FYWW,2018-03-21T14:00:00Z,-22.57,17.1,25.0,15.0,340,2,,,30.088583,,,TRUE,,,,,,,,,,,,,,,,,,,,,,,,,,,,SPECI,1725.0
FYOW 211400Z AUTO 27004KT //// // ////// 26/18 Q1016,FYOW,2018-03-21T14:00:00Z,-20.43,16.67,26.0,18.0,270,4,,,30.0,,,TRUE,,,,,,,,,,,,,,,,,,,,,,,,,,,,SPECI,1481.0
FYML 211400Z AUTO 26005KT //// // ////// 33/11 Q1017,FYML,2018-03-21T14:00:00Z,-24.6,17.93,33.0,11.0,260,5,,,30.029528,,,TRUE,,,,,,,,,,,,,,,,,,,,,,,,,,,,SPECI,1113.0
FYGB 211400Z AUTO 11002KT //// // ////// 26/18 Q1019,FYGB,2018-03-21T14:00:00Z,-22.5,18.97,26.0,18.0,110,2,,,30.088583,,,TRUE,,,,,,,,,,,,,,,,,,,,,,,,,,,,METAR,1442.0
FQLC 211400Z 00000KT 9999 FEW010 BKN014 FEW020CB 19/18 Q1020 RMK CB TO ALL/D,FQLC,2018-03-21T14:00:00Z,-13.27,35.25,19.0,18.0,0,0,,6.21,30.11811,,,,,,,,,,,FEW,1000,BKN,1400,FEW,2000,,,MVFR,,,,,,,,,,,,SPECI,1365.0
HTZA 211400Z 15006KT 9999 FEW022 30/25 Q1010 NOSIG,HTZA,2018-03-21T14:00:00Z,-6.22,39.22,30.0,25.0,150,6,,6.21,29.822834,,,,,,TRUE,,,,,FEW,2200,,,,,,,VFR,,,,,,,,,,,,METAR,15.0
HTMW 211400Z 28008KT 9999 FEW026 FEW027CB BKN280 26/19 Q1014 NOSIG,HTMW,2018-03-21T14:00:00Z,-2.47,32.92,26.0,19.0,280,8,,6.21,29.940945,,,,,,TRUE,,,,,FEW,2600,FEW,2700,BKN,28000,,,VFR,,,,,,,,,,,,METAR,1140.0
HTKJ 211400Z 08005KT 9999 FEW032CB BKN033 28/20 Q1013 NOSIG,HTKJ,2018-03-21T14:00:00Z,-3.42,37.07,28.0,20.0,80,5,,6.21,29.911417,,,,,,TRUE,,,,,FEW,3200,BKN,3300,,,,,VFR,,,,,,,,,,,,METAR,896.0
HTDA 211400Z 06008KT 9999 FEW020 31/25 1011 NOSIG,HTDA,2018-03-21T14:00:00Z,-6.88,39.2,31.0,25.0,60,8,,6.21,,,,,,,TRUE,,,,,FEW,2000,,,,,,,VFR,,,,,,,,,,,,SPECI,55.0
CWVN 211400Z AUTO 06001KT M11/M12 RMK AO1 SOG 12 2003 SLP172 T11071122,CWVN,2018-03-21T14:00:00Z,49.07,-107.57,-10.7,-12.2,60,1,,,,1017.2,,TRUE,TRUE,,,,,,,,,,,,,,,,,,,,,,,,,,,METAR,785.0
CWVI 211400Z AUTO 18004KT M05/M06 RMK AO1 SLP135 T10521064 51014,CWVI,2018-03-21T14:00:00Z,53.52,-112.1,-5.2,-6.4,180,4,,,,1013.5,,TRUE,TRUE,,,,,,,,,,,,,,,,1.4,,,,,,,,,,,METAR,639.0
CWUX 211400Z AUTO 26002KT M09/M16 RMK AO1 SLP191 T10901164 51003,CWUX,2018-03-21T14:00:00Z,48.3,-70.93,-9.0,-16.4,260,2,,,,1019.1,,TRUE,TRUE,,,,,,,,,,,,,,,,0.3,,,,,,,,,,,METAR,135.0
CWUS 211400Z AUTO 24001KT 02/M02 RMK AO1 SLP103 T00181018 58001,CWUS,2018-03-21T14:00:00Z,49.57,-119.65,1.8,-1.8,240,1,,,,1010.3,,TRUE,TRUE,,,,,,,,,,,,,,,,-0.1,,,,,,,,,,,METAR,454.0
CWTY 211400Z AUTO 04005KT M05/M10 RMK AO1 SLP158 T10491102 58002,CWTY,2018-03-21T14:00:00Z,46.35,-72.52,-4.9,-10.2,40,5,,,,1015.8,,TRUE,TRUE,,,,,,,,,,,,,,,,-0.2,,,,,,,,,,,METAR,6.0
CWTN 211400Z AUTO 09015G23KT M03/M08 RMK AO1 PK WND 10023/1354 SLP168 T10291077 58004,CWTN,2018-03-21T14:00:00Z,47.07,-70.78,-2.9,-7.7,90,15,23,,,1016.8,,TRUE,TRUE,,,,,,,,,,,,,,,,-0.4,,,,,,,,,,,METAR,6.0
CWTG 211400Z AUTO 05014G19KT M03/M08 RMK AO1 PK WND 05019/1359 SLP181 T10251078 53002,CWTG,2018-03-21T14:00:00Z,49.32,-67.37,-2.5,-7.8,50,14,19,,,1018.1,,TRUE,TRUE,,,,,,,,,,,,,,,,0.2,,,,,,,,,,,METAR,5.0
CWTA 211400Z AUTO 04005KT M05/M12 RMK AO1 SOG 73 8009 SLP149 T10501115,CWTA,2018-03-21T14:00:00Z,45.5,-73.58,-5.0,-11.5,40,5,,,,1014.9,,TRUE,TRUE,,,,,,,,,,,,,,,,,,,,,,,,,,,METAR,63.0
CWRM 211400Z AUTO 00000KT M08/M09 RMK AO1 SOG 40 1008 SLP130 T10811088,CWRM,2018-03-21T14:00:00Z,52.42,-114.92,-8.1,-8.8,0,0,,,,1013.0,,TRUE,TRUE,,,,,,,,,,,,,,,,,,,,,,,,,,,METAR,988.0
CWZW 211400Z AUTO 28008KT M07/M08 RMK AO1 SOG 50 1012 SLP155 T10711084,CWZW,2018-03-21T14:00:00Z,60.17,-132.73,-7.1,-8.4,280,8,,,,1015.5,,TRUE,TRUE,,,,,,,,,,,,,,,,,,,,,,,,,,,METAR,705.0
CWZG 211400Z AUTO 26001KT M02/M06 RMK AO1 SOG 24 1004 SLP123 T10241058,CWZG,2018-03-21T14:00:00Z,51.2,-115.53,-2.4,-5.8,260,1,,,,1012.3,,TRUE,TRUE,,,,,,,,,,,,,,,,,,,,,,,,,,,METAR,1397.0
CWLP 211400Z AUTO M01/ A3000 RMK AO1 T1012 56020,CWLP,2018-03-21T14:00:00Z,50.93,-127.63,-1.2,,,,,,30.0,,,TRUE,TRUE,,,,,,,,,,,,,,,,-2.0,,,,,,,,,,,METAR,17.0
VRMM 211400Z 27004KT 9999 FEW018TCU SCT110 BKN270 29/24 Q1011 NOSIG,VRMM,2018-03-21T14:00:00Z,4.2,73.52,29.0,24.0,270,4,,6.21,29.852362,,,,,,TRUE,,,,,FEW,1800,SCT,11000,BKN,27000,,,VFR,,,,,,,,,,,,METAR,2.0
WSSL 211400Z 04007KT 9999 FEW018 BKN300 28/23 Q1009 RMK 1330Z Q1009,WSSL,2018-03-21T14:00:00Z,1.42,103.87,28.0,23.0,40,7,,6.21,29.793306,,,,,,,,,,,FEW,1800,BKN,30000,,,,,VFR,,,,,,,,,,,,METAR,14.0
WSAP 211400Z 04005KT 9999 FEW018 BKN300 28/22 Q1009,WSAP,2018-03-21T14:00:00Z,1.37,103.92,28.0,22.0,40,5,,6.21,29.793306,,,,,,,,,,,FEW,1800,BKN,30000,,,,,VFR,,,,,,,,,,,,METAR,32.0
VOVZ 211400Z 23010KT 4000 BR NSC 29/24 Q1008 NOSIG,VOVZ,2018-03-21T14:00:00Z,17.75,83.22,29.0,24.0,230,10,,2.49,29.763779,,,,,,TRUE,,,,BR,CLR,,,,,,,,IFR,,,,,,,,,,,,METAR,5.0
VAUD 211400Z 25005KT 5000 HZ NSC 27/06 Q1011 NOSIG,VAUD,2018-03-21T14:00:00Z,24.6,73.9,27.0,6.0,250,5,,3.11,29.852362,,,,,,TRUE,,,,HZ,CLR,,,,,,,,MVFR,,,,,,,,,,,,METAR,514.0
FBSK 211400Z 06004KT 010V130 9999 SCT030 FEW035CB 29/16 Q1015 NOSIG,FBSK,2018-03-21T14:00:00Z,-24.55,25.92,29.0,16.0,60,4,,6.21,29.970472,,,,,,TRUE,,,,,SCT,3000,FEW,3500,,,,,VFR,,,,,,,,,,,,METAR,1005.0
VEAT 211400Z 00000KT 5000 HZ NSC 25/19 Q1008 NOSIG,VEAT,2018-03-21T14:00:00Z,23.87,91.25,25.0,19.0,0,0,,3.11,29.763779,,,,,,TRUE,,,,HZ,CLR,,,,,,,,MVFR,,,,,,,,,,,,METAR,16.0
EPZG 211400Z 27007KT 220V320 CAVOK 06/M08 Q1024,EPZG,2018-03-21T14:00:00Z,52.13,15.8,6.0,-8.0,270,7,,6.21,30.236221,,,,,,,,,,,CAVOK,,,,,,,,VFR,,,,,,,,,,,,METAR,59.0
MYGF 211400Z 31018KT 9999 FEW018 BKN040 24/18 A2993,MYGF,2018-03-21T14:00:00Z,26.55,-78.7,24.0,18.0,310,18,,6.21,29.929134,,,,,,,,,,,FEW,1800,BKN,4000,,,,,VFR,,,,,,,,,,,,METAR,2.0
CWJH 211400Z AUTO 00000KT M03/ RMK AO1 SOG 59 1012 SLP162 T1025,CWJH,2018-03-21T14:00:00Z,56.32,-103.27,-2.5,,0,0,,,,1016.2,,TRUE,TRUE,,,,,,,,,,,,,,,,,,,,,,,,,,,METAR,344.0
CWZV 211400Z AUTO 11003KT 01/ RMK AO1 SLP068 T0006 56022,CWZV,2018-03-21T14:00:00Z,51.93,-131.02,0.6,,110,3,,,,1006.8,,TRUE,TRUE,,,,,,,,,,,,,,,,-2.2,,,,,,,,,,,METAR,92.0
CWZL 211400Z AUTO 32008KT 03/M02 RMK AO1 SLP079 T00311015 58024,CWZL,2018-03-21T14:00:00Z,53.03,-131.6,3.1,-1.5,320,8,,,,1007.9,,TRUE,TRUE,,,,,,,,,,,,,,,,-2.4,,,,,,,,,,,METAR,17.0
CXTV 211400Z AUTO 27005KT M25/M28 RMK AO1 SOG 34 3023 SLP365 T12491275,CXTV,2018-03-21T14:00:00Z,68.75,-133.5,-24.9,-27.5,270,5,,,,1036.5,,TRUE,TRUE,,,,,,,,,,,,,,,,,,,,,,,,,,,METAR,85.0
CXYH 211400Z AUTO M07/M10 RMK AO1 SOG 34 3027 SLP251 T10721102,CXYH,2018-03-21T14:00:00Z,61.25,-123.75,-7.2,-10.2,,,,,,1025.1,,TRUE,TRUE,,,,,,,,,,,,,,,,,,,,,,,,,,,METAR,204.0
CXPA 211400Z AUTO 06005KT M00/M00 RMK AO1 T10031001,CXPA,2018-03-21T14:00:00Z,55.62,-118.3,-0.3,-0.1,60,5,,,,,,TRUE,TRUE,,,,,,,,,,,,,,,,,,,,,,,,,,,METAR,621.0
CXOY 211400Z AUTO 05001KT M08/M08 RMK AO1 T10771075,CXOY,2018-03-21T14:00:00Z,51.38,-110.35,-7.7,-7.5,50,1,,,,,,TRUE,TRUE,,,,,,,,,,,,,,,,,,,,,,,,,,,METAR,767.0
CXHR 211400Z AUTO 33004KT M07/M10 RMK AO1 T10651097,CXHR,2018-03-21T14:00:00Z,51.18,-112.5,-6.5,-9.7,330,4,,,,,,TRUE,TRUE,,,,,,,,,,,,,,,,,,,,,,,,,,,METAR,971.0
CXDP 211400Z AUTO 02004KT M00/M00 RMK AO1 T10031003,CXDP,2018-03-21T14:00:00Z,54.32,-113.95,-0.3,-0.3,20,4,,,,,,TRUE,TRUE,,,,,,,,,,,,,,,,,,,,,,,,,,,METAR,614.0
CXBR 211400Z AUTO 27008KT M00/M04 RMK AO1 T10021042,CXBR,2018-03-21T14:00:00Z,49.62,-113.82,-0.2,-4.2,270,8,,,,,,TRUE,TRUE,,,,,,,,,,,,,,,,,,,,,,,,,,,METAR,1073.0
CXAF 211400Z AUTO 01002KT M01/M01 RMK AO1 T10061012,CXAF,2018-03-21T14:00:00Z,54.28,-112.97,-0.6,-1.2,10,2,,,,,,TRUE,TRUE,,,,,,,,,,,,,,,,,,,,,,,,,,,METAR,664.0
CXSC 211400Z AUTO 10001KT M05/M06 RMK AO1 T10531056,CXSC,2018-03-21T14:00:00Z,50.3,-110.08,-5.3,-5.6,100,1,,,,,,TRUE,TRUE,,,,,,,,,,,,,,,,,,,,,,,,,,,METAR,800.0
CWND 211400Z AUTO 27010KT M24/M26 RMK AO1 SLP334 T12371261 52023,CWND,2018-03-21T14:00:00Z,69.63,-135.43,-23.7,-26.1,270,10,,,,1033.4,,TRUE,TRUE,,,,,,,,,,,,,,,,2.3,,,,,,,,,,,METAR,12.0
CWRU 211400Z AUTO 18003KT 05/02 RMK AO1 SLP052 T00510024 56017,CWRU,2018-03-21T14:00:00Z,50.12,-127.93,5.1,2.4,180,3,,,,1005.2,,TRUE,TRUE,,,,,,,,,,,,,,,,-1.7,,,,,,,,,,,METAR,98.0
CWWL 211400Z AUTO 01013KT 04/ RMK AO1 T0042,CWWL,2018-03-21T14:00:00Z,53.5,-130.63,4.2,,10,13,,,,,,TRUE,TRUE,,,,,,,,,,,,,,,,,,,,,,,,,,,METAR,17.0
CWJO 211400Z AUTO 32004KT M10/M15 RMK AO1 SLP204 T10961149 53004,CWJO,2018-03-21T14:00:00Z,48.43,-71.15,-9.6,-14.9,320,4,,,,1020.4,,TRUE,TRUE,,,,,,,,,,,,,,,,0.4,,,,,,,,,,,METAR,133.0
CWWX 211400Z AUTO 09020G25KT M05/M09 RMK AO1 PK WND 09026/1340 SLP184 T10491089 51012,CWWX,2018-03-21T14:00:00Z,45.32,-81.73,-4.9,-8.9,90,20,25,,,1018.4,,TRUE,TRUE,,,,,,,,,,,,,,,,1.2,,,,,,,,,,,METAR,181.0
CWHP 211400Z AUTO 01013KT M02/M08 RMK AO1 PK WND 00018/1315 SLP162 T10231079 53018,CWHP,2018-03-21T14:00:00Z,49.07,-61.7,-2.3,-7.9,10,13,,,,1016.2,,TRUE,TRUE,,,,,,,,,,,,,,,,1.8,,,,,,,,,,,METAR,4.0
FQCH 211400Z 09004KT 9999 SCT015 28/21 Q1017,FQCH,2018-03-21T14:00:00Z,-19.15,33.43,28.0,21.0,90,4,,6.21,30.029528,,,,,,,,,,,SCT,1500,,,,,,,VFR,,,,,,,,,,,,SPECI,732.0
DIBK 211400Z 22006KT 9999 BKN013 32/22 Q1012 NOSIG,DIBK,2018-03-21T14:00:00Z,7.72,-5.07,32.0,22.0,220,6,,6.21,29.88189,,,,,,TRUE,,,,,BKN,1300,,,,,,,MVFR,,,,,,,,,,,,SPECI,376.0
CWVP 211400Z AUTO 19003KT M03/M07 RMK AO1 SOG 39 2002 SLP128 T10281070,CWVP,2018-03-21T14:00:00Z,49.63,-109.52,-2.8,-7.0,190,3,,,,1012.8,,TRUE,TRUE,,,,,,,,,,,,,,,,,,,,,,,,,,,METAR,1271.0
CYHK 211400Z AUTO 30010KT 9SM CLR M36/M40 A3043 RMK SLP318,CYHK,2018-03-21T14:00:00Z,68.62,-95.83,-36.0,-40.0,300,10,,9.0,30.431103,1031.8,,TRUE,,,,,,,,CLR,,,,,,,,VFR,,,,,,,,,,,,METAR,46.0
CYMX 211400Z 06006KT 360V090 45SM BKN260 M04/M13 A2997 RMK CI5 SLP156,CYMX,2018-03-21T14:00:00Z,45.67,-74.02,-4.0,-13.0,60,6,,45.0,29.970472,1015.6,,,,,,,,,,BKN,26000,,,,,,,VFR,,,,,,,,,,,,METAR,82.0
CXLC 211400Z AUTO 05008KT M30/M33 RMK AO1 SOG 26 1026 SLP351 T12981331,CXLC,2018-03-21T14:00:00Z,63.6,-113.85,-29.8,-33.1,50,8,,,,1035.1,,TRUE,TRUE,,,,,,,,,,,,,,,,,,,,,,,,,,,METAR,373.0
CXNP 211400Z AUTO 03009KT M00/M07 RMK AO1 SOG 09 8007 SLP146 T10011068 50002,CXNP,2018-03-21T14:00:00Z,45.75,-64.23,-0.1,-6.8,30,9,,,,1014.6,,TRUE,TRUE,,,,,,,,,,,,,,,,0.2,,,,,,,,,,,METAR,20.0
CWXA 211400Z AUTO 24006KT M02/M06 RMK AO1 SLP105 T10151064 51005,CWXA,2018-03-21T14:00:00Z,51.07,-115.07,-1.5,-6.4,240,6,,,,1010.5,,TRUE,TRUE,,,,,,,,,,,,,,,,0.5,,,,,,,,,,,METAR,1298.0
CWWF 211400Z AUTO 15005KT M09/M11 RMK AO1 SOG 14 1011 SLP180 T10931106,CWWF,2018-03-21T14:00:00Z,49.7,-103.8,-9.3,-10.6,150,5,,,,1018.0,,TRUE,TRUE,,,,,,,,,,,,,,,,,,,,,,,,,,,METAR,589.0
CWWA 211400Z AUTO 02002KT 04/M01 RMK AO1 SLP077 T00371011 58009,CWWA,2018-03-21T14:00:00Z,49.35,-123.17,3.7,-1.1,20,2,,,,1007.7,,TRUE,TRUE,,,,,,,,,,,,,,,,-0.9,,,,,,,,,,,METAR,178.0
CWVQ 211400Z AUTO 04008KT M05/M12 RMK AO1 SOG 16 8010 SLP151 T10471115,CWVQ,2018-03-21T14:00:00Z,45.42,-73.92,-4.7,-11.5,40,8,,,,1015.1,,TRUE,TRUE,,,,,,,,,,,,,,,,,,,,,,,,,,,METAR,39.0
CXKI 211400Z AUTO M13/M22 RMK AO1 SOG 34 0006 SLP237 T11291218,CXKI,2018-03-21T14:00:00Z,48.22,-80.0,-12.9,-21.8,,,,,,1023.7,,TRUE,TRUE,,,,,,,,,,,,,,,,,,,,,,,,,,,METAR,324.0
CXFR 211400Z AUTO 06012KT M02/M03 RMK AO1 PK WND 06017/1303 T10181027,CXFR,2018-03-21T14:00:00Z,56.08,-118.43,-1.8,-2.7,60,12,,,,,,TRUE,TRUE,,,,,,,,,,,,,,,,,,,,,,,,,,,METAR,655.0
CZCR 211400Z AUTO 23002KT M02/M09 RMK AO1 SOG 101 1006 SLP172 T10151094,CZCR,2018-03-21T14:00:00Z,47.97,-66.32,-1.5,-9.4,230,2,,,,1017.2,,TRUE,TRUE,,,,,,,,,,,,,,,,,,,,,,,,,,,METAR,38.0
CWJC 211400Z AUTO 04022KT M25/M28 RMK AO1 2PAST HR SOG 28 1027 PK WND 04028/1328 SLP295 P0001 T12481280 50005,CWJC,2018-03-21T14:00:00Z,61.13,-100.9,-24.8,-28.0,40,22,,,,1029.5,,TRUE,TRUE,,,,,,,,,,,,,,,,0.5,,,,,0.01,,,,,,METAR,357.0
CWJB 211400Z AUTO 07008G15KT M04/ RMK AO1 SOG 63 T1035,CWJB,2018-03-21T14:00:00Z,46.78,-71.27,-3.5,,70,8,15,,,,,TRUE,TRUE,,,,,,,,,,,,,,,,,,,,,,,,,,,METAR,91.0
CWIZ 211400Z AUTO 02005KT M07/M12 RMK AO1 SOG 12 T10681120,CWIZ,2018-03-21T14:00:00Z,45.28,-73.33,-6.8,-12.0,20,5,,,,,,TRUE,TRUE,,,,,,,,,,,,,,,,,,,,,,,,,,,METAR,45.0
CWIW 211400Z AUTO 00000KT M11/M12 RMK AO1 2PAST HR SOG 14 3011 SLP176 P0001 T11131124 50002,CWIW,2018-03-21T14:00:00Z,51.67,-105.4,-11.3,-12.4,0,0,,,,1017.6,,TRUE,TRUE,,,,,,,,,,,,,,,,0.2,,,,,0.01,,,,,,METAR,526.0
CWIT 211400Z AUTO 04006KT M06/M13 RMK AO1 SOG 10 7005 SLP143 T10591126 50009,CWIT,2018-03-21T14:00:00Z,45.17,-73.67,-5.9,-12.6,40,6,,,,1014.3,,TRUE,TRUE,,,,,,,,,,,,,,,,0.9,,,,,,,,,,,METAR,52.0
CWIS 211400Z AUTO 04009G15KT M07/M11 RMK AO1 SOG 109 3001 SLP152 T10701114,CWIS,2018-03-21T14:00:00Z,47.28,-70.63,-7.0,-11.4,40,9,15,,,1015.2,,TRUE,TRUE,,,,,,,,,,,,,,,,,,,,,,,,,,,METAR,719.0
CWIP 211400Z AUTO 36002KT M01/ RMK AO1 T1013,CWIP,2018-03-21T14:00:00Z,50.17,-66.43,-1.3,,360,2,,,,,,TRUE,TRUE,,,,,,,,,,,,,,,,,,,,,,,,,,,METAR,25.0
CWIJ 211400Z AUTO 00000KT M35/M38 RMK AO1 SOG 47 2022 SLP405 T13471381,CWIJ,2018-03-21T14:00:00Z,65.77,-111.23,-34.7,-38.1,0,0,,,,1040.5,,TRUE,TRUE,,,,,,,,,,,,,,,,,,,,,,,,,,,METAR,500.0
CWII 211400Z AUTO 10004KT M02/M03 RMK AO1 T10161031,CWII,2018-03-21T14:00:00Z,50.7,-96.57,-1.6,-3.1,100,4,,,,,,TRUE,TRUE,,,,,,,,,,,,,,,,,,,,,,,,,,,METAR,220.0
CWIG 211400Z AUTO 05014KT RMK AO1 PK WND 05018/1359,CWIG,2018-03-21T14:00:00Z,47.07,-70.53,,,50,14,,,,,,TRUE,TRUE,,,,,,,,,,,,,,,,,,,,,,,,,,,METAR,18.0
CWID 211400Z AUTO 06001KT M22/M26 RMK AO1 SLP319 T12221262 52028,CWID,2018-03-21T14:00:00Z,61.32,-117.6,-22.2,-26.2,60,1,,,,1031.9,,TRUE,TRUE,,,,,,,,,,,,,,,,2.8,,,,,,,,,,,METAR,161.0
CWHV 211400Z AUTO 15001KT M08/M14 RMK AO1 SLP149 T10771143 58007,CWHV,2018-03-21T14:00:00Z,46.2,-70.77,-7.7,-14.3,150,1,,,,1014.9,,TRUE,TRUE,,,,,,,,,,,,,,,,-0.7,,,,,,,,,,,METAR,229.0
CWHT 211400Z AUTO 30007KT M07/M12 RMK AO1 SOG 24 1011 PK WND 33017/1301 SLP221 T10711118,CWHT,2018-03-21T14:00:00Z,60.77,-137.58,-7.1,-11.8,300,7,,,,1022.1,,TRUE,TRUE,,,,,,,,,,,,,,,,,,,,,,,,,,,METAR,599.0
CWHQ 211400Z AUTO 18002KT M02/M11 RMK AO1 T10191114,CWHQ,2018-03-21T14:00:00Z,46.68,-71.97,-1.9,-11.4,180,2,,,,,,TRUE,TRUE,,,,,,,,,,,,,,,,,,,,,,,,,,,METAR,55.0
CWHL 211400Z AUTO 05004KT 02/01 RMK AO1 SLP068 T00230013 57021,CWHL,2018-03-21T14:00:00Z,54.17,-130.35,2.3,1.3,50,4,,,,1006.8,,TRUE,TRUE,,,,,,,,,,,,,,,,-2.1,,,,,,,,,,,METAR,5.0
CWHI 211400Z AUTO 25003KT M12/M13 RMK AO1 T11191132,CWHI,2018-03-21T14:00:00Z,51.7,-113.22,-11.9,-13.2,250,3,,,,,,TRUE,TRUE,,,,,,,,,,,,,,,,,,,,,,,,,,,METAR,907.0
CWGY 211400Z AUTO 05002KT M11/M13 RMK AO1 SLP152 T11081127 53006,CWGY,2018-03-21T14:00:00Z,51.67,-110.2,-10.8,-12.7,50,2,,,,1015.2,,TRUE,TRUE,,,,,,,,,,,,,,,,0.6,,,,,,,,,,,METAR,707.0
CWGX 211400Z AUTO 15001KT M13/M20 RMK AO1 SOG 32 1012 SLP215 T11261197,CWGX,2018-03-21T14:00:00Z,56.35,-94.7,-12.6,-19.7,150,1,,,,1021.5,,TRUE,TRUE,,,,,,,,,,,,,,,,,,,,,,,,,,,METAR,145.0
CWGW 211400Z AUTO 36004KT M02/M04 RMK AO1 SOG 33 3003 SLP142 T10241036,CWGW,2018-03-21T14:00:00Z,49.75,-114.9,-2.4,-3.6,360,4,,,,1014.2,,TRUE,TRUE,,,,,,,,,,,,,,,,,,,,,,,,,,,METAR,1137.0
CWGT 211400Z AUTO 15008KT 06/03 RMK AO1 SLP072 T00590032 58013,CWGT,2018-03-21T14:00:00Z,49.48,-124.43,5.9,3.2,150,8,,,,1007.2,,TRUE,TRUE,,,,,,,,,,,,,,,,-1.3,,,,,,,,,,,METAR,5.0
CWGR 211400Z AUTO 35006KT M01/M06 RMK AO1 SLP165 T10101064 52018,CWGR,2018-03-21T14:00:00Z,47.42,-61.8,-1.0,-6.4,350,6,,,,1016.5,,TRUE,TRUE,,,,,,,,,,,,,,,,1.8,,,,,,,,,,,METAR,60.0
CWGM 211400Z AUTO 21006KT 01/M06 RMK AO1 T00051062,CWGM,2018-03-21T14:00:00Z,49.13,-113.78,0.5,-6.2,210,6,,,,,,TRUE,TRUE,,,,,,,,,,,,,,,,,,,,,,,,,,,METAR,1296.0
CWGL 211400Z AUTO 04008KT M04/M13 RMK AO1 SLP150 T10351129 51009,CWGL,2018-03-21T14:00:00Z,44.52,-79.22,-3.5,-12.9,40,8,,,,1015.0,,TRUE,TRUE,,,,,,,,,,,,,,,,0.9,,,,,,,,,,,METAR,221.0
CWGD 211400Z AUTO 05012KT M03/M10 RMK AO1 SLP151 T10321102 51011,CWGD,2018-03-21T14:00:00Z,43.77,-81.72,-3.2,-10.2,50,12,,,,1015.1,,TRUE,TRUE,,,,,,,,,,,,,,,,1.1,,,,,,,,,,,METAR,214.0
CWGB 211400Z AUTO 12013KT 07/05 RMK AO1 SLP071 T00670049 58012,CWGB,2018-03-21T14:00:00Z,49.35,-124.17,6.7,4.9,120,13,,,,1007.1,,TRUE,TRUE,,,,,,,,,,,,,,,,-1.2,,,,,,,,,,,METAR,5.0
CWFQ 211400Z AUTO 01004KT M05/M13 RMK AO1 SOG 34 6008 SLP129 T10521134,CWFQ,2018-03-21T14:00:00Z,45.03,-72.82,-5.2,-13.4,10,4,,,,1012.9,,TRUE,TRUE,,,,,,,,,,,,,,,,,,,,,,,,,,,METAR,152.0
CWFJ 211400Z AUTO 22008KT M01/M07 RMK AO1 T10081071,CWFJ,2018-03-21T14:00:00Z,49.2,-113.27,-0.8,-7.1,220,8,,,,,,TRUE,TRUE,,,,,,,,,,,,,,,,,,,,,,,,,,,METAR,1136.0
CWEZ 211400Z AUTO 05002KT 06/05 RMK AO1 SLP076 T00570046 58011,CWEZ,2018-03-21T14:00:00Z,48.78,-123.05,5.7,4.6,50,2,,,,1007.6,,TRUE,TRUE,,,,,,,,,,,,,,,,-1.1,,,,,,,,,,,METAR,7.0
CWEW 211400Z AUTO 02005KT M05/M13 RMK AO1 SOG 16 8004 SLP163 T10461132,CWEW,2018-03-21T14:00:00Z,45.82,-73.43,-4.6,-13.2,20,5,,,,1016.3,,TRUE,TRUE,,,,,,,,,,,,,,,,,,,,,,,,,,,METAR,21.0
CWEL 211400Z AUTO 18003KT 05/04 RMK AO1 SLP078 T00540038 58011,CWEL,2018-03-21T14:00:00Z,49.22,-123.78,5.4,3.8,180,3,,,,1007.8,,TRUE,TRUE,,,,,,,,,,,,,,,,-1.1,,,,,,,,,,,METAR,5.0
CWEB 211400Z AUTO 13004KT 05/04 RMK AO1 SLP074 T00540042 57017,CWEB,2018-03-21T14:00:00Z,49.38,-126.55,5.4,4.2,130,4,,,,1007.4,,TRUE,TRUE,,,,,,,,,,,,,,,,-1.7,,,,,,,,,,,METAR,7.0
CWEP 211400Z AUTO 34004KT M01/M05 RMK AO1 SOG 03 1011 SLP162 T10131052,CWEP,2018-03-21T14:00:00Z,46.45,-61.97,-1.3,-5.2,340,4,,,,1016.2,,TRUE,TRUE,,,,,,,,,,,,,,,,,,,,,,,,,,,METAR,11.0
CWWE 211400Z AUTO 06011G18KT 02/M01 RMK AO1 PK WND 06019/1329 SLP109 T00151014 56014,CWWE,2018-03-21T14:00:00Z,43.97,-64.67,1.5,-1.4,60,11,18,,,1010.9,,TRUE,TRUE,,,,,,,,,,,,,,,,-1.4,,,,,,,,,,,METAR,9.0
CWPK 211400Z AUTO 05003KT M09/M16 RMK AO1 SOG 59 6003 SLP186 T10931159,CWPK,2018-03-21T14:00:00Z,47.92,-74.62,-9.3,-15.9,50,3,,,,1018.6,,TRUE,TRUE,,,,,,,,,,,,,,,,,,,,,,,,,,,METAR,442.0
CWBY 211400Z AUTO 02011G17KT M02/M10 RMK AO1 SOG 78 3012 PK WND 01018/1332 SLP167 T10231104,CWBY,2018-03-21T14:00:00Z,49.82,-64.28,-2.3,-10.4,20,11,17,,,1016.7,,TRUE,TRUE,,,,,,,,,,,,,,,,,,,,,,,,,,,METAR,53.0
CWBK 211400Z AUTO 02003KT M01/M05 RMK AO1 SOG 03 8002 SLP149 T10121051,CWBK,2018-03-21T14:00:00Z,45.77,-62.67,-1.2,-5.1,20,3,,,,1014.9,,TRUE,TRUE,,,,,,,,,,,,,,,,,,,,,,,,,,,METAR,2.0
CERM 211400Z AUTO 28003KT M04/M11 RMK AO1 SOG 81 8002 SLP166 T10361112,CERM,2018-03-21T14:00:00Z,47.42,-68.32,-3.6,-11.2,280,3,,,,1016.6,,TRUE,TRUE,,,,,,,,,,,,,,,,,,,,,,,,,,,METAR,154.0
CZSM 211400Z AUTO 32002KT M20/M23 RMK AO1 SOG 58 1029 SLP268 T11961233,CZSM,2018-03-21T14:00:00Z,60.03,-111.93,-19.6,-23.3,320,2,,,,1026.8,,TRUE,TRUE,,,,,,,,,,,,,,,,,,,,,,,,,,,METAR,203.0
CZHY 211400Z AUTO 03008KT M22/M25 RMK AO1 SOG 22 2028 SLP306 T12241250,CZHY,2018-03-21T14:00:00Z,60.83,-115.78,-22.4,-25.0,30,8,,,,1030.6,,TRUE,TRUE,,,,,,,,,,,,,,,,,,,,,,,,,,,METAR,164.0
CWMT 211400Z AUTO 06003KT M28/M31 RMK AO1 SLP340 T12841314 51022,CWMT,2018-03-21T14:00:00Z,63.13,-117.25,-28.4,-31.4,60,3,,,,1034.0,,TRUE,TRUE,,,,,,,,,,,,,,,,2.2,,,,,,,,,,,METAR,271.0
CWST 211400Z AUTO 03008KT M04/M10 RMK AO1 SOG 30 1003 SLP171 T10411103,CWST,2018-03-21T14:00:00Z,47.35,-70.02,-4.1,-10.3,30,8,,,,1017.1,,TRUE,TRUE,,,,,,,,,,,,,,,,,,,,,,,,,,,METAR,31.0
CWSR 211400Z AUTO 15003KT M14/M16 RMK AO1 SOG 20 3006 SLP153 T11351164,CWSR,2018-03-21T14:00:00Z,53.37,-107.53,-13.5,-16.4,150,3,,,,1015.3,,TRUE,TRUE,,,,,,,,,,,,,,,,,,,,,,,,,,,METAR,584.0
CWSP 211400Z AUTO 11001KT 04/02 RMK AO1 SLP079 T00430021 58011,CWSP,2018-03-21T14:00:00Z,48.38,-123.92,4.3,2.1,110,1,,,,1007.9,,TRUE,TRUE,,,,,,,,,,,,,,,,-1.1,,,,,,,,,,,METAR,21.0
CWSL 211400Z AUTO 11001KT M00/M00 RMK AO1 SOG 21 6002 SLP108 T10011003,CWSL,2018-03-21T14:00:00Z,50.7,-119.27,-0.1,-0.3,110,1,,,,1010.8,,TRUE,TRUE,,,,,,,,,,,,,,,,,,,,,,,,,,,METAR,351.0
CWSK 211400Z AUTO 04002KT M00/M00 RMK AO1 SLP086 T10041004 56009,CWSK,2018-03-21T14:00:00Z,49.78,-123.17,-0.4,-0.4,40,2,,,,1008.6,,TRUE,TRUE,,,,,,,,,,,,,,,,-0.9,,,,,,,,,,,METAR,60.0
CWSG 211400Z AUTO 09002KT M02/M07 RMK AO1 SLP181 T10241066 51006,CWSG,2018-03-21T14:00:00Z,49.12,-66.65,-2.4,-6.6,90,2,,,,1018.1,,TRUE,TRUE,,,,,,,,,,,,,,,,0.6,,,,,,,,,,,METAR,5.0
CWSD 211400Z AUTO 04010KT M01/M04 RMK AO1 SOG 25 0007 SLP154 T10091037,CWSD,2018-03-21T14:00:00Z,46.42,-63.85,-0.9,-3.7,40,10,,,,1015.4,,TRUE,TRUE,,,,,,,,,,,,,,,,,,,,,,,,,,,METAR,24.0
CWRZ 211400Z AUTO 04009KT M01/M07 RMK AO1 SLP161 T10061067 51011,CWRZ,2018-03-21T14:00:00Z,48.42,-64.32,-0.6,-6.7,40,9,,,,1016.1,,TRUE,TRUE,,,,,,,,,,,,,,,,1.1,,,,,,,,,,,METAR,16.0
CWRT 211400Z AUTO 23002KT M03/M05 RMK AO1 T10261047,CWRT,2018-03-21T14:00:00Z,49.62,-114.47,-2.6,-4.7,230,2,,,,,,TRUE,TRUE,,,,,,,,,,,,,,,,,,,,,,,,,,,METAR,1303.0
CWRK 211400Z AUTO 02005KT M07/M15 RMK AO1 SOG 09 1005 SLP164 T10731150,CWRK,2018-03-21T14:00:00Z,45.07,-77.87,-7.3,-15.0,20,5,,,,1016.4,,TRUE,TRUE,,,,,,,,,,,,,,,,,,,,,,,,,,,METAR,331.0
CWRJ 211400Z AUTO 00000KT M13/M14 RMK AO1 SOG 16 1005 SLP164 T11301143,CWRJ,2018-03-21T14:00:00Z,51.57,-107.92,-13.0,-14.3,0,0,,,,1016.4,,TRUE,TRUE,,,,,,,,,,,,,,,,,,,,,,,,,,,METAR,586.0
CWQR 211400Z AUTO 02016KT M02/ RMK AO1 PK WND 01021/1343 T1016,CWQR,2018-03-21T14:00:00Z,50.22,-64.22,-1.6,,20,16,,,,,,TRUE,TRUE,,,,,,,,,,,,,,,,,,,,,,,,,,,METAR,9.0
CWQP 211400Z AUTO 04017G23KT M02/M11 RMK AO1 SOG 02 3007 PK WND 05024/1310 SLP136 T10231109,CWQP,2018-03-21T14:00:00Z,43.83,-77.15,-2.3,-10.9,40,17,23,,,1013.6,,TRUE,TRUE,,,,,,,,,,,,,,,,,,,,,,,,,,,METAR,79.0
CWQK 211400Z AUTO 00000KT 06/04 RMK AO1 SLP080 T00600038 57010,CWQK,2018-03-21T14:00:00Z,48.3,-123.53,6.0,3.8,0,0,,,,1008.0,,TRUE,TRUE,,,,,,,,,,,,,,,,-1.0,,,,,,,,,,,METAR,5.0
CWQH 211400Z AUTO 01003KT M09/M14 RMK AO1 SOG 22 T10921137,CWQH,2018-03-21T14:00:00Z,45.37,-71.82,-9.2,-13.7,10,3,,,,,,TRUE,TRUE,,,,,,,,,,,,,,,,,,,,,,,,,,,METAR,181.0
CWSF 211400Z AUTO 31007KT M02/M08 RMK AO1 SOG 31 2011 SLP177 T10181076,CWSF,2018-03-21T14:00:00Z,49.25,-65.32,-1.8,-7.6,310,7,,,,1017.7,,TRUE,TRUE,,,,,,,,,,,,,,,,,,,,,,,,,,,METAR,29.0
CWRA 211400Z AUTO 25020G25KT RMK AO1 PK WND 24026/1305 53027,CWRA,2018-03-21T14:00:00Z,46.63,-53.07,,,250,20,25,,,,,TRUE,TRUE,,,,,,,,,,,,,,,,2.7,,,,,,,,,,,METAR,28.0
CWHO 211400Z AUTO 34021G28KT M05/M06 RMK AO1 PK WND 34034/1323 SLP145 T10481061 51034,CWHO,2018-03-21T14:00:00Z,55.45,-60.22,-4.8,-6.1,340,21,28,,,1014.5,,TRUE,TRUE,,,,,,,,,,,,,,,,3.4,,,,,,,,,,,METAR,8.0
CWNH 211400Z AUTO 02008KT M05/M10 RMK AO1 SOG 53 1004 SLP180 T10501097,CWNH,2018-03-21T14:00:00Z,47.78,-69.53,-5.0,-9.7,20,8,,,,1018.0,,TRUE,TRUE,,,,,,,,,,,,,,,,,,,,,,,,,,,METAR,148.0
CWSS 211400Z AUTO 04006KT M00/M10 RMK AO1 SOG 26 8014 SLP126 T10031095,CWSS,2018-03-21T14:00:00Z,45.2,-67.25,-0.3,-9.5,40,6,,,,1012.6,,TRUE,TRUE,,,,,,,,,,,,,,,,,,,,,,,,,,,METAR,26.0
CWRN 211400Z AUTO 04007KT M00/M05 RMK AO1 SLP154 T10041046 58002,CWRN,2018-03-21T14:00:00Z,45.35,-60.98,-0.4,-4.6,40,7,,,,1015.4,,TRUE,TRUE,,,,,,,,,,,,,,,,-0.2,,,,,,,,,,,METAR,8.0
CXVW 211400Z AUTO 00000KT M01/M02 RMK AO1 T10141016,CXVW,2018-03-21T14:00:00Z,55.1,-117.2,-1.4,-1.6,0,0,,,,,,TRUE,TRUE,,,,,,,,,,,,,,,,,,,,,,,,,,,METAR,698.0
CXSP 211400Z AUTO 07002KT M04/M05 RMK AO1 4PAST HR M P0002 T10391050 50004,CXSP,2018-03-21T14:00:00Z,54.02,-111.27,-3.9,-5.0,70,2,,,,,,TRUE,TRUE,,,,,,,,,,,,,,,,0.4,,,,,0.02,,,,,,METAR,649.0
CXSL 211400Z AUTO 00000KT M01/M01 RMK AO1 T10091014,CXSL,2018-03-21T14:00:00Z,54.28,-112.5,-0.9,-1.4,0,0,,,,,,TRUE,TRUE,,,,,,,,,,,,,,,,,,,,,,,,,,,METAR,680.0
CXHD 211400Z AUTO 22005KT M07/M08 RMK AO1 T10651075,CXHD,2018-03-21T14:00:00Z,53.18,-112.25,-6.5,-7.5,220,5,,,,,,TRUE,TRUE,,,,,,,,,,,,,,,,,,,,,,,,,,,METAR,688.0
CPXL 211400Z AUTO 17005KT M04/M08 RMK AO1 T10441077,CPXL,2018-03-21T14:00:00Z,49.87,-111.38,-4.4,-7.7,170,5,,,,,,TRUE,TRUE,,,,,,,,,,,,,,,,,,,,,,,,,,,METAR,799.0
CPSV 211400Z AUTO 22011KT M04/M07 RMK AO1 T10361067,CPSV,2018-03-21T14:00:00Z,49.92,-110.92,-3.6,-6.7,220,11,,,,,,TRUE,TRUE,,,,,,,,,,,,,,,,,,,,,,,,,,,METAR,766.0
CPST 211400Z AUTO 36004KT M05/M08 RMK AO1 T10511083,CPST,2018-03-21T14:00:00Z,51.03,-113.28,-5.1,-8.3,360,4,,,,,,TRUE,TRUE,,,,,,,,,,,,,,,,,,,,,,,,,,,METAR,967.0
CPRO 211400Z AUTO 31003KT M11/M12 RMK AO1 T11141115,CPRO,2018-03-21T14:00:00Z,50.83,-112.05,-11.4,-11.5,310,3,,,,,,TRUE,TRUE,,,,,,,,,,,,,,,,,,,,,,,,,,,METAR,714.0
CPFI 211400Z AUTO 24007KT M01/M04 RMK AO1 T10101041,CPFI,2018-03-21T14:00:00Z,49.8,-112.03,-1.0,-4.1,240,7,,,,,,TRUE,TRUE,,,,,,,,,,,,,,,,,,,,,,,,,,,METAR,833.0
CWIK 211400Z AUTO 19001KT M05/M06 RMK AO1 SOG 18 1011 SLP180 T10451055,CWIK,2018-03-21T14:00:00Z,50.37,-102.58,-4.5,-5.5,190,1,,,,1018.0,,TRUE,TRUE,,,,,,,,,,,,,,,,,,,,,,,,,,,METAR,602.0
CWBU 211400Z AUTO 19005KT M05/M06 RMK AO1 SOG 24 1010 SLP166 T10471064,CWBU,2018-03-21T14:00:00Z,53.33,-104.02,-4.7,-6.4,190,5,,,,1016.6,,TRUE,TRUE,,,,,,,,,,,,,,,,,,,,,,,,,,,METAR,373.0
CWMQ 211400Z AUTO 22003KT M01/M05 RMK AO1 SLP137 T10081050 53003,CWMQ,2018-03-21T14:00:00Z,49.9,-109.47,-0.8,-5.0,220,3,,,,1013.7,,TRUE,TRUE,,,,,,,,,,,,,,,,0.3,,,,,,,,,,,METAR,767.0
CWMM 211400Z AUTO 19002KT 02/02 RMK AO1 SLP084 T00150018 58008,CWMM,2018-03-21T14:00:00Z,49.22,-122.68,1.5,1.8,190,2,,,,1008.4,,TRUE,TRUE,,,,,,,,,,,,,,,,-0.8,,,,,,,,,,,METAR,5.0
CWMJ 211400Z AUTO 36004KT M08/M15 RMK AO1 SOG 36 0000 SLP173 T10811150,CWMJ,2018-03-21T14:00:00Z,46.27,-76.0,-8.1,-15.0,360,4,,,,1017.3,,TRUE,TRUE,,,,,,,,,,,,,,,,,,,,,,,,,,,METAR,200.0
CWLM 211400Z AUTO 36005KT 05/03 RMK AO1 SLP079 T00480031 56010,CWLM,2018-03-21T14:00:00Z,48.42,-123.32,4.8,3.1,360,5,,,,1007.9,,TRUE,TRUE,,,,,,,,,,,,,,,,-1.0,,,,,,,,,,,METAR,70.0
CWLE 211400Z AUTO 21003KT M10/M11 RMK AO1 SLP158 T11021111 50001,CWLE,2018-03-21T14:00:00Z,50.95,-107.15,-10.2,-11.1,210,3,,,,1015.8,,TRUE,TRUE,,,,,,,,,,,,,,,,0.1,,,,,,,,,,,METAR,665.0
CWLC 211400Z AUTO 36013KT 03/M00 RMK AO1 PK WND 34018/1338 T00301001,CWLC,2018-03-21T14:00:00Z,54.3,-130.62,3.0,-0.1,360,13,,,,,,TRUE,TRUE,,,,,,,,,,,,,,,,,,,,,,,,,,,METAR,27.0
CWKX 211400Z AUTO 00000KT M08/M09 RMK AO1 SOG 30 1007 SLP135 T10811088,CWKX,2018-03-21T14:00:00Z,58.43,-130.02,-8.1,-8.8,0,0,,,,1013.5,,TRUE,TRUE,,,,,,,,,,,,,,,,,,,,,,,,,,,METAR,793.0
CWKH 211400Z AUTO 03/M00 RMK AO1 SLP064 T00301001 57011,CWKH,2018-03-21T14:00:00Z,48.57,-123.55,3.0,-0.1,,,,,,1006.4,,TRUE,TRUE,,,,,,,,,,,,,,,,-1.1,,,,,,,,,,,METAR,366.0
CWKG 211400Z AUTO 08006KT 01/M06 RMK AO1 SOG 16 6016 SLP113 T00091059,CWKG,2018-03-21T14:00:00Z,44.43,-65.2,0.9,-5.9,80,6,,,,1011.3,,TRUE,TRUE,,,,,,,,,,,,,,,,,,,,,,,,,,,METAR,165.0
CWJX 211400Z AUTO 09004KT M11/M13 RMK AO1 SOG 11 3003 SLP144 T11101128,CWJX,2018-03-21T14:00:00Z,50.88,-109.5,-11.0,-12.8,90,4,,,,1014.4,,TRUE,TRUE,,,,,,,,,,,,,,,,,,,,,,,,,,,METAR,672.0
CWJW 211400Z AUTO 32001KT M05/M06 RMK AO1 SLP120 T10521059 52006,CWJW,2018-03-21T14:00:00Z,52.93,-118.03,-5.2,-5.9,320,1,,,,1012.0,,TRUE,TRUE,,,,,,,,,,,,,,,,0.6,,,,,,,,,,,METAR,1020.0
CWJV 211400Z AUTO 09004KT 02/M01 RMK AO1 SLP103 T00191011 54000,CWJV,2018-03-21T14:00:00Z,50.22,-119.18,1.9,-1.1,90,4,,,,1010.3,,TRUE,TRUE,,,,,,,,,,,,,,,,,,,,,,,,,,,METAR,556.0
CWJT 211400Z AUTO 31002KT M06/M12 RMK AO1 SLP164 T10571122 58008,CWJT,2018-03-21T14:00:00Z,46.07,-74.57,-5.7,-12.2,310,2,,,,1016.4,,TRUE,TRUE,,,,,,,,,,,,,,,,-0.8,,,,,,,,,,,METAR,239.0
CWJR 211400Z AUTO 08003KT 03/M02 RMK AO1 SLP130 T00271021 52003,CWJR,2018-03-21T14:00:00Z,49.07,-116.5,2.7,-2.1,80,3,,,,1013.0,,TRUE,TRUE,,,,,,,,,,,,,,,,0.3,,,,,,,,,,,METAR,646.0
CWJI 211400Z AUTO 16002KT M06/M09 RMK AO1 SOG 02 1003 SLP162 T10601086,CWJI,2018-03-21T14:00:00Z,49.72,-105.92,-6.0,-8.6,160,2,,,,1016.2,,TRUE,TRUE,,,,,,,,,,,,,,,,,,,,,,,,,,,METAR,724.0
CWDZ 211400Z AUTO 27003KT M11/M12 RMK AO1 T11101121,CWDZ,2018-03-21T14:00:00Z,51.42,-112.67,-11.0,-12.1,270,3,,,,,,TRUE,TRUE,,,,,,,,,,,,,,,,,,,,,,,,,,,METAR,678.0
CWDK 211400Z AUTO 03003KT M05/M08 RMK AO1 SOG 08 3007 SLP127 T10481081,CWDK,2018-03-21T14:00:00Z,50.02,-113.62,-4.8,-8.1,30,3,,,,1012.7,,TRUE,TRUE,,,,,,,,,,,,,,,,,,,,,,,,,,,METAR,1012.0
CWDJ 211400Z AUTO 13007KT M08/M10 RMK AO1 SOG 09 1006 SLP173 T10841101,CWDJ,2018-03-21T14:00:00Z,50.4,-104.58,-8.4,-10.1,130,7,,,,1017.3,,TRUE,TRUE,,,,,,,,,,,,,,,,,,,,,,,,,,,METAR,573.0
CWCJ 211400Z AUTO 05005KT M13/M24 RMK AO1 SOG 51 1009 SLP254 T11261235,CWCJ,2018-03-21T14:00:00Z,48.6,-86.28,-12.6,-23.5,50,5,,,,1025.4,,TRUE,TRUE,,,,,,,,,,,,,,,,,,,,,,,,,,,METAR,206.0
CWCF 211400Z AUTO 15002KT M02/M04 RMK AO1 SOG 13 2012 SLP203 T10241035,CWCF,2018-03-21T14:00:00Z,52.35,-97.03,-2.4,-3.5,150,2,,,,1020.3,,TRUE,TRUE,,,,,,,,,,,,,,,,,,,,,,,,,,,METAR,222.0
CWBS 211400Z AUTO 03012KT M04/M11 RMK AO1 T10351113,CWBS,2018-03-21T14:00:00Z,46.18,-72.92,-3.5,-11.3,30,12,,,,,,TRUE,TRUE,,,,,,,,,,,,,,,,,,,,,,,,,,,METAR,16.0
CWBO 211400Z AUTO 36004KT M10/M11 RMK AO1 SOG 15 1005 SLP125 T11001106,CWBO,2018-03-21T14:00:00Z,50.53,-111.83,-10.0,-10.6,360,4,,,,1012.5,,TRUE,TRUE,,,,,,,,,,,,,,,,,,,,,,,,,,,METAR,747.0
CWBA 211400Z AUTO 33007KT M11/M17 RMK AO1 SOG 49 T11141172,CWBA,2018-03-21T14:00:00Z,46.72,-79.1,-11.4,-17.2,330,7,,,,,,TRUE,TRUE,,,,,,,,,,,,,,,,,,,,,,,,,,,METAR,181.0
CWAV 211400Z AUTO 06001KT M10/M11 RMK AO1 SOG 41 2008 SLP132 T10971111,CWAV,2018-03-21T14:00:00Z,51.77,-114.67,-9.7,-11.1,60,1,,,,1013.2,,TRUE,TRUE,,,,,,,,,,,,,,,,,,,,,,,,,,,METAR,1114.0
CWAQ 211400Z AUTO 13003KT M08/M09 RMK AO1 SLP163 T10811090 50000,CWAQ,2018-03-21T14:00:00Z,49.05,-105.48,-8.1,-9.0,130,3,,,,1016.3,,TRUE,TRUE,,,,,,,,,,,,,,,,0.0,,,,,,,,,,,METAR,756.0
CWAF 211400Z AUTO 03010KT M03/M09 RMK AO1 T10311088,CWAF,2018-03-21T14:00:00Z,48.07,-69.53,-3.1,-8.8,30,10,,,,,,TRUE,TRUE,,,,,,,,,,,,,,,,,,,,,,,,,,,METAR,5.0
CXWN 211400Z AUTO 09001KT M02/M04 RMK AO1 SLP201 T10171035 52011,CXWN,2018-03-21T14:00:00Z,49.88,-97.13,-1.7,-3.5,90,1,,,,1020.1,,TRUE,TRUE,,,,,,,,,,,,,,,,1.1,,,,,,,,,,,METAR,230.0
CXTP 211400Z AUTO 26007KT 01/M05 RMK AO1 SOG 34 3026 SLP128 T00091048,CXTP,2018-03-21T14:00:00Z,48.55,-53.97,0.9,-4.8,260,7,,,,1012.8,,TRUE,TRUE,,,,,,,,,,,,,,,,,,,,,,,,,,,METAR,107.0
CXSH 211400Z AUTO 36006KT M04/M13 RMK AO1 SLP160 T10411129 50000,CXSH,2018-03-21T14:00:00Z,46.58,-72.73,-4.1,-12.9,360,6,,,,1016.0,,TRUE,TRUE,,,,,,,,,,,,,,,,0.0,,,,,,,,,,,METAR,110.0
CXRH 211400Z AUTO 26006KT 01/ RMK AO1 T0012,CXRH,2018-03-21T14:00:00Z,49.57,-57.88,1.2,,260,6,,,,,,TRUE,TRUE,,,,,,,,,,,,,,,,,,,,,,,,,,,METAR,68.0
CXOX 211400Z AUTO 26003KT M02/M04 RMK AO1 SOG 58 3014 SLP156 T10201036,CXOX,2018-03-21T14:00:00Z,55.15,-105.27,-2.0,-3.6,260,3,,,,1015.6,,TRUE,TRUE,,,,,,,,,,,,,,,,,,,,,,,,,,,METAR,379.0
CXNM 211400Z AUTO 10001KT M02/M02 RMK AO1 SOG 100 T10171019,CXNM,2018-03-21T14:00:00Z,46.82,-60.67,-1.7,-1.9,100,1,,,,,,TRUE,TRUE,,,,,,,,,,,,,,,,,,,,,,,,,,,METAR,439.0
CXMY 211400Z AUTO 02/M04 RMK AO1 T00161035,CXMY,2018-03-21T14:00:00Z,44.98,-62.48,1.6,-3.5,,,,,,,,TRUE,TRUE,,,,,,,,,,,,,,,,,,,,,,,,,,,METAR,40.0
CXMD 211400Z AUTO 13003KT M04/M05 RMK AO1 2PAST HR SOG 05 1012 SLP195 P0001 T10381048 50002,CXMD,2018-03-21T14:00:00Z,49.22,-98.08,-3.8,-4.8,130,3,,,,1019.5,,TRUE,TRUE,,,,,,,,,,,,,,,,0.2,,,,,0.01,,,,,,METAR,301.0
CXIB 211400Z AUTO 09004KT 01/M06 RMK AO1 SOG 14 1012 SLP159 T00091055,CXIB,2018-03-21T14:00:00Z,46.67,-60.38,0.9,-5.5,90,4,,,,1015.9,,TRUE,TRUE,,,,,,,,,,,,,,,,,,,,,,,,,,,METAR,8.0
CXHA 211400Z AUTO 03011G18KT M00/M08 RMK AO1 PK WND 03020/1325 SLP126 T10041082 51021,CXHA,2018-03-21T14:00:00Z,42.03,-82.9,-0.4,-8.2,30,11,18,,,1012.6,,TRUE,TRUE,,,,,,,,,,,,,,,,2.1,,,,,,,,,,,METAR,191.0
CXGH 211400Z AUTO 15005KT M02/M03 RMK AO1 T10151031,CXGH,2018-03-21T14:00:00Z,50.63,-97.0,-1.5,-3.1,150,5,,,,,,TRUE,TRUE,,,,,,,,,,,,,,,,,,,,,,,,,,,METAR,217.0
CXET 211400Z AUTO 03006KT M05/M13 RMK AO1 SOG 05 1014 SLP156 T10451133,CXET,2018-03-21T14:00:00Z,44.23,-79.78,-4.5,-13.3,30,6,,,,1015.6,,TRUE,TRUE,,,,,,,,,,,,,,,,,,,,,,,,,,,METAR,251.0
CXEC 211400Z AUTO 26001KT M00/M01 RMK AO1 SOG 26 1012 SLP131 T10041009,CXEC,2018-03-21T14:00:00Z,53.57,-113.52,-0.4,-0.9,260,1,,,,1013.1,,TRUE,TRUE,,,,,,,,,,,,,,,,,,,,,,,,,,,METAR,671.0
CXEA 211400Z AUTO 05002KT M10/M18 RMK AO1 SOG 49 2012 SLP235 T11021184,CXEA,2018-03-21T14:00:00Z,50.63,-93.22,-10.2,-18.4,50,2,,,,1023.5,,TRUE,TRUE,,,,,,,,,,,,,,,,,,,,,,,,,,,METAR,355.0
CXDW 211400Z AUTO 02015G23KT M04/M06 RMK AO1 2PAST HR SOG 10 2013 PK WND 02023/1326 SLP199 P0001 T10431055 50005,CXDW,2018-03-21T14:00:00Z,49.4,-98.32,-4.3,-5.5,20,15,23,,,1019.9,,TRUE,TRUE,,,,,,,,,,,,,,,,0.5,,,,,0.01,,,,,,METAR,341.0
CXDI 211400Z AUTO 03006KT RMK AO1 51011,CXDI,2018-03-21T14:00:00Z,42.87,-80.55,,,30,6,,,,,,TRUE,TRUE,,,,,,,,,,,,,,,,1.1,,,,,,,,,,,METAR,232.0
CXCK 211400Z AUTO 32009G15KT M08/M10 RMK AO1 2PAST HR SOG 54 1012 PK WND 32020/1349 SLP202 P0001 T10791103 50002,CXCK,2018-03-21T14:00:00Z,62.12,-136.2,-7.9,-10.3,320,9,15,,,1020.2,,TRUE,TRUE,,,,,,,,,,,,,,,,0.2,,,,,0.01,,,,,,METAR,540.0
CXCH 211400Z AUTO 02/M06 RMK AO1 SOG 16 T00151056,CXCH,2018-03-21T14:00:00Z,46.63,-60.95,1.5,-5.6,,,,,,,,TRUE,TRUE,,,,,,,,,,,,,,,,,,,,,,,,,,,METAR,44.0
CXCA 211400Z AUTO 28001KT M12/M19 RMK AO1 SOG 32 1010 SLP269 T11171190,CXCA,2018-03-21T14:00:00Z,49.15,-88.35,-11.7,-19.0,280,1,,,,1026.9,,TRUE,TRUE,,,,,,,,,,,,,,,,,,,,,,,,,,,METAR,228.0
CXBO 211400Z AUTO 06002KT RMK AO1,CXBO,2018-03-21T14:00:00Z,46.83,-71.2,,,60,2,,,,,,TRUE,TRUE,,,,,,,,,,,,,,,,,,,,,,,,,,,METAR,100.0
CXBK 211400Z AUTO 12004KT M13/M14 RMK AO1 SOG 16 1007 SLP162 T11311135,CXBK,2018-03-21T14:00:00Z,50.2,-104.7,-13.1,-13.5,120,4,,,,1016.2,,TRUE,TRUE,,,,,,,,,,,,,,,,,,,,,,,,,,,METAR,580.0
CZZJ 211400Z AUTO 00000KT M01/M01 RMK AO1 SOG 29 2008 SLP131 T10071009,CZZJ,2018-03-21T14:00:00Z,53.58,-116.47,-0.7,-0.9,0,0,,,,1013.1,,TRUE,TRUE,,,,,,,,,,,,,,,,,,,,,,,,,,,METAR,927.0
CZTB 211400Z AUTO 23002KT M10/M16 RMK AO1 SOG 27 1012 SLP257 T11041164,CZTB,2018-03-21T14:00:00Z,48.37,-89.32,-10.4,-16.4,230,2,,,,1025.7,,TRUE,TRUE,,,,,,,,,,,,,,,,,,,,,,,,,,,METAR,199.0
CZMJ 211400Z AUTO 13005KT M09/M10 RMK AO1 2PAST HR SOG 12 1007 SLP175 P0001 T10931095 50002,CZMJ,2018-03-21T14:00:00Z,50.33,-105.57,-9.3,-9.5,130,5,,,,1017.5,,TRUE,TRUE,,,,,,,,,,,,,,,,0.2,,,,,0.01,,,,,,METAR,577.0
CZKD 211400Z AUTO 12002KT M12/M18 RMK AO1 SOG 55 1012 SLP200 T11231179,CZKD,2018-03-21T14:00:00Z,56.03,-96.52,-12.3,-17.9,120,2,,,,1020.0,,TRUE,TRUE,,,,,,,,,,,,,,,,,,,,,,,,,,,METAR,183.0
CXZV 211400Z AUTO 31003KT M01/M10 RMK AO1 SOG 112 0005 SLP177 T10111100,CXZV,2018-03-21T14:00:00Z,50.22,-66.25,-1.1,-10.0,310,3,,,,1017.7,,TRUE,TRUE,,,,,,,,,,,,,,,,,,,,,,,,,,,METAR,52.0
CXVN 211400Z AUTO 04013G18KT M01/M06 RMK AO1 SOG 00 1012 PK WND 05020/1306 SLP128 T10061061,CXVN,2018-03-21T14:00:00Z,43.18,-79.4,-0.6,-6.1,40,13,18,,,1012.8,,TRUE,TRUE,,,,,,,,,,,,,,,,,,,,,,,,,,,METAR,79.0
CXTO 211400Z AUTO M01/M13 RMK AO1 SLP140 T10111129 51009,CXTO,2018-03-21T14:00:00Z,43.67,-79.4,-1.1,-12.9,,,,,,1014.0,,TRUE,TRUE,,,,,,,,,,,,,,,,0.9,,,,,,,,,,,METAR,113.0
CXTD 211400Z AUTO 36005KT M01/M06 RMK AO1 SOG 00 0000 SLP159 T10081062,CXTD,2018-03-21T14:00:00Z,45.62,-61.68,-0.8,-6.2,360,5,,,,1015.9,,TRUE,TRUE,,,,,,,,,,,,,,,,,,,,,,,,,,,METAR,68.0
CXRL 211400Z AUTO 12004KT M02/ RMK AO1 T1020 50007,CXRL,2018-03-21T14:00:00Z,54.5,-111.7,-2.0,,120,4,,,,,,TRUE,TRUE,,,,,,,,,,,,,,,,0.7,,,,,,,,,,,METAR,585.0
CXRB 211400Z AUTO M29/M32 RMK AO1 SOG 03 3023 SLP226 T12881317,CXRB,2018-03-21T14:00:00Z,74.72,-94.98,-28.8,-31.7,,,,,,1022.6,,TRUE,TRUE,,,,,,,,,,,,,,,,,,,,,,,,,,,METAR,68.0
CXLB 211400Z AUTO 03012G17KT M00/M02 RMK AO1 PK WND 02017/1358 SLP110 T10021023 56015,CXLB,2018-03-21T14:00:00Z,44.37,-64.3,-0.2,-2.3,30,12,17,,,1011.0,,TRUE,TRUE,,,,,,,,,,,,,,,,-1.5,,,,,,,,,,,METAR,4.0
CXKM 211400Z AUTO 15002KT M06/M07 RMK AO1 T10561067,CXKM,2018-03-21T14:00:00Z,52.82,-111.85,-5.6,-6.7,150,2,,,,,,TRUE,TRUE,,,,,,,,,,,,,,,,,,,,,,,,,,,METAR,675.0
CWXI 211400Z AUTO 30013KT M03/M07 RMK AO1 SOG 27 1026 PK WND 29017/1319 SLP111 T10261071,CWXI,2018-03-21T14:00:00Z,51.02,-57.1,-2.6,-7.1,300,13,,,,1011.1,,TRUE,TRUE,,,,,,,,,,,,,,,,,,,,,,,,,,,METAR,6.0
CZSP 211400Z AUTO 04008KT 01/M06 RMK AO1 SOG 01 1008 SLP164 T00081056,CZSP,2018-03-21T14:00:00Z,46.45,-62.58,0.8,-5.6,40,8,,,,1016.4,,TRUE,TRUE,,,,,,,,,,,,,,,,,,,,,,,,,,,METAR,30.0
CXCP 211400Z AUTO 30003KT M08/M10 RMK AO1 T10831104,CXCP,2018-03-21T14:00:00Z,50.28,-113.35,-8.3,-10.4,300,3,,,,,,TRUE,TRUE,,,,,,,,,,,,,,,,,,,,,,,,,,,METAR,1006.0
MPMG 211400Z 36011KT 9000 FEW020 29/23 Q1012 NOSIG,MPMG,2018-03-21T14:00:00Z,8.98,-79.57,29.0,23.0,360,11,,5.59,29.88189,,,,,,TRUE,,,,,FEW,2000,,,,,,,VFR,,,,,,,,,,,,METAR,13.0
MKJP 211400Z 13009KT 9999 FEW022 29/21 Q1015,MKJP,2018-03-21T14:00:00Z,17.92,-76.78,29.0,21.0,130,9,,6.21,29.970472,,,,,,,,,,,FEW,2200,,,,,,,VFR,,,,,,,,,,,,METAR,3.0
MGTU 211400Z 05004KT 9000 SKC 25/21 HZ,MGTU,2018-03-21T14:00:00Z,,,25.0,21.0,50,4,,5.59,,,,,,,,,,,HZ,SKC,,,,,,,,VFR,,,,,,,,,,,,METAR,
MGMT 211400Z 00000KT CAVOK 29/23 QFE1009.2,MGMT,2018-03-21T14:00:00Z,,,29.0,23.0,0,0,,6.21,,,,,,,,,,,,CAVOK,,,,,,,,VFR,,,,,,,,,,,,METAR,
MGES 211400Z 03006KT 8000 BKN015 22/18 QFE909.5 HZ,MGES,2018-03-21T14:00:00Z,14.57,-89.32,22.0,18.0,30,6,,4.97,,,,,,,,,,,HZ,BKN,1500,,,,,,,MVFR,,,,,,,,,,,,METAR,965.0
MGZA 211400Z 00000KT 9999 FEW030 27/21 QFE988/2,MGZA,2018-03-21T14:00:00Z,14.97,-89.52,27.0,21.0,0,0,,6.21,,,,,,,,,,,,FEW,3000,,,,,,,VFR,,,,,,,,,,,,METAR,490.0
MGCB 211400Z 02006KT 9999 SCT016 19/16 QFE871.9 MTN W CUB/CL,MGCB,2018-03-21T14:00:00Z,15.48,-90.42,19.0,16.0,20,6,,6.21,,,,,,,,,,,,SCT,1600,,,,,,,VFR,,,,,,,,,,,,METAR,1316.0
MGQZ 211400Z 00000KT 9999 FEW020 15/07 QFE773/7,MGQZ,2018-03-21T14:00:00Z,14.87,-91.5,15.0,7.0,0,0,,6.21,,,,,,,,,,,,FEW,2000,,,,,,,VFR,,,,,,,,,,,,METAR,2371.0
MGRT 211400Z 00000KT CAVOK 26/21 Q1014 A2994 VOL. STA. MARIA Y SANTIAGUITO EN ACTIVIDAD,MGRT,2018-03-21T14:00:00Z,14.53,-91.7,26.0,21.0,0,0,,6.21,29.940945,,,,,,,,,,SA,CAVOK,,,,,,,,VFR,,,,,,,,,,,,METAR,200.0
MGSJ 211400Z 00000KT 8000 SKC 27/23 Q1012 A2988 FU,MGSJ,2018-03-21T14:00:00Z,13.92,-90.83,27.0,23.0,0,0,,4.97,29.88189,,,,,,,,,,FU,SKC,,,,,,,,MVFR,,,,,,,,,,,,METAR,9.0
MGPB 211400Z 00000KT 9999 SCT018TCU 26/25 Q1014 A2994 TCU SSW,MGPB,2018-03-21T14:00:00Z,15.72,-88.58,26.0,25.0,0,0,,6.21,29.940945,,,,,,,,,,SS,SCT,1800,,,,,,,VFR,,,,,,,,,,,,METAR,10.0
MGHT 211400Z 00000KT 9000 SKC 15/10 QFE821.0 HZ,MGHT,2018-03-21T14:00:00Z,15.32,-91.5,15.0,10.0,0,0,,5.59,,,,,,,,,,,HZ,SKC,,,,,,,,VFR,,,,,,,,,,,,METAR,1901.0
MGMM 211400Z 33004KT 9999 BKN014 25/22 Q1017 A3003,MGMM,2018-03-21T14:00:00Z,16.97,-89.87,25.0,22.0,330,4,,6.21,30.029528,,,,,,,,,,,BKN,1400,,,,,,,MVFR,,,,,,,,,,,,METAR,123.0
UTAV 211400Z 22004KT CAVOK 25/06 Q1009 R13/CLRD70 NOSIG,UTAV,2018-03-21T14:00:00Z,39.08,63.62,25.0,6.0,220,4,,6.21,29.793306,,,,,,TRUE,,,,,CAVOK,,,,,,,,VFR,,,,,,,,,,,,METAR,192.0
UTAT 211400Z 20004KT CAVOK 24/06 Q1006 R26/CLRD70 NOSIG,UTAT,2018-03-21T14:00:00Z,41.77,59.83,24.0,6.0,200,4,,6.21,29.704725,,,,,,TRUE,,,,,CAVOK,,,,,,,,VFR,,,,,,,,,,,,METAR,83.0
UTAM 211400Z 00000KT CAVOK 27/08 Q1009 NOSIG,UTAM,2018-03-21T14:00:00Z,37.62,61.9,27.0,8.0,0,0,,6.21,29.793306,,,,,,TRUE,,,,,CAVOK,,,,,,,,VFR,,,,,,,,,,,,METAR,222.0
UTAK 211400Z 33020KT 9999 OVC004 09/07 Q1010 R34L/CLRD70 TEMPO OVC003,UTAK,2018-03-21T14:00:00Z,40.05,53.0,9.0,7.0,330,20,,6.21,29.822834,,,,,,,,,,,OVC,400,,,,,,,LIFR,,,,,,,,,,,,METAR,85.0
UTAA 211400Z 13008KT 9999 BKN230 26/05 Q1007 R88/CLRD70 NOSIG,UTAA,2018-03-21T14:00:00Z,37.98,58.37,26.0,5.0,130,8,,6.21,29.734253,,,,,,TRUE,,,,,BKN,23000,,,,,,,VFR,,,,,,,,,,,,METAR,210.0
SBRJ 211400Z 14005KT 9000 FEW010 SCT018 BKN090 29/25 Q1012,SBRJ,2018-03-21T14:00:00Z,-22.88,-43.17,29.0,25.0,140,5,,5.59,29.88189,,,,,,,,,,,FEW,1000,SCT,1800,BKN,9000,,,VFR,,,,,,,,,,,,METAR,3.0
SEAM 211400Z 00000KT 9999 BKN020 BKN100 14/12 Q1028,SEAM,2018-03-21T14:00:00Z,-1.18,-78.57,14.0,12.0,0,0,,6.21,30.35433,,,,,,,,,,,BKN,2000,BKN,10000,,,,,MVFR,,,,,,,,,,,,METAR,2520.0
GMTN 211400Z 26018KT CAVOK 15/M01 Q1021 NOSIG,GMTN,2018-03-21T14:00:00Z,35.57,-5.32,15.0,-1.0,260,18,,6.21,30.147638,,,,,,TRUE,,,,,CAVOK,,,,,,,,VFR,,,,,,,,,,,,METAR,10.0
GMTA 211400Z 32012KT 9999 FEW020 SCT030 15/03 Q1021 NOSIG,GMTA,2018-03-21T14:00:00Z,35.17,-3.85,15.0,3.0,320,12,,6.21,30.147638,,,,,,TRUE,,,,,FEW,2000,SCT,3000,,,,,VFR,,,,,,,,,,,,METAR,14.0
GMMZ 211400Z 30014KT CAVOK 16/M17 Q1018 NOSIG,GMMZ,2018-03-21T14:00:00Z,30.92,-6.9,16.0,-17.0,300,14,,6.21,30.059055,,,,,,TRUE,,,,,CAVOK,,,,,,,,VFR,,,,,,,,,,,,METAR,1140.0
GMMW 211400Z 33015KT 280V350 9999 FEW023 14/02 Q1020 NOSIG,GMMW,2018-03-21T14:00:00Z,34.98,-3.02,14.0,2.0,330,15,,6.21,30.11811,,,,,,TRUE,,,,,FEW,2300,,,,,,,VFR,,,,,,,,,,,,METAR,175.0
GMML 211400Z 03026KTG36 4000 SA NSC 22/06 Q1022 NOSIG,GMML,2018-03-21T14:00:00Z,27.13,-13.23,22.0,6.0,,,,2.49,30.177166,,,,,,TRUE,,,,SA,CLR,,,,,,,,IFR,,,,,,,,,,,,METAR,6.0
GMMI 211400Z AUTO 07015KT 040V120 9999NDV ////// 19/06 Q1023 NOSIG,GMMI,2018-03-21T14:00:00Z,31.4,-9.68,19.0,6.0,70,15,,,30.206694,,,TRUE,,,TRUE,,,,,,,,,,,,,,,,,,,,,,,,,METAR,8.0
GMMH 211400Z 02026KT 5000 NSC 21/10 Q1020 TEMPO 06030G40KT 3000 SA,GMMH,2018-03-21T14:00:00Z,23.72,-15.93,21.0,10.0,20,26,,3.11,30.11811,,,,,,,,,,,CLR,,,,,,,,MVFR,,,,,,,,,,,,METAR,11.0
GMMD 211400Z 32004KT 9999 BKN026 13/M01 Q1024 NOSIG,GMMD,2018-03-21T14:00:00Z,32.4,-6.32,13.0,-1.0,320,4,,6.21,30.236221,,,,,,TRUE,,,,,BKN,2600,,,,,,,MVFR,,,,,,,,,,,,METAR,509.0
GMMC 211400Z 02014KT 9999 BKN016TCU 17/07 Q1023,GMMC,2018-03-21T14:00:00Z,33.57,-7.67,17.0,7.0,20,14,,6.21,30.206694,,,,,,,,,,,BKN,1600,,,,,,,MVFR,,,,,,,,,,,,METAR,62.0
GMFO 211400Z 33009KT 9999 SCT023 SCT033 09/05 Q1019 NOSIG,GMFO,2018-03-21T14:00:00Z,34.77,-1.92,9.0,5.0,330,9,,6.21,30.088583,,,,,,TRUE,,,,,SCT,2300,SCT,3300,,,,,VFR,,,,,,,,,,,,METAR,470.0
GMFM 211400Z 28007KT 9999 FEW013 SCT016TCU SCT020 11/07 Q1022 RESHRA,GMFM,2018-03-21T14:00:00Z,33.87,-5.52,11.0,7.0,280,7,,6.21,30.177166,,,,,,,,,,,FEW,1300,SCT,1600,SCT,2000,,,VFR,,,,,,,,,,,,METAR,549.0
GMFK 211400Z VRB05KT 9999 FEW026 14/M11 Q1018 NOSIG,GMFK,2018-03-21T14:00:00Z,31.95,-4.4,14.0,-11.0,0,5,,6.21,30.059055,,,,,,TRUE,,,,,FEW,2600,,,,,,,VFR,,,,,,,,,,,,METAR,1045.0
GMAT 211400Z 36027KT 4000 SA FEW016 17/03 Q1021 NOSIG,GMAT,2018-03-21T14:00:00Z,28.43,-11.15,17.0,3.0,360,27,,2.49,30.147638,,,,,,TRUE,,,,SA,FEW,1600,,,,,,,IFR,,,,,,,,,,,,METAR,200.0
GMAG 211400Z 35020KT CAVOK 18/03 Q1019 NOSIG,GMAG,2018-03-21T14:00:00Z,29.03,-10.05,18.0,3.0,350,20,,6.21,30.088583,,,,,,TRUE,,,,,CAVOK,,,,,,,,VFR,,,,,,,,,,,,METAR,333.0
SECO 211400Z 36004KT 9999 SCT020 BKN100 23/23 Q1015 RMK A2997,SECO,2018-03-21T14:00:00Z,-0.45,-76.98,23.0,23.0,360,4,,6.21,29.970472,,,,,,,,,,,SCT,2000,BKN,10000,,,,,VFR,,,,,,,,,,,,METAR,220.0
SBPB 211400Z 11014KT 9999 SCT020 32/24 Q1011,SBPB,2018-03-21T14:00:00Z,-2.92,-41.75,32.0,24.0,110,14,,6.21,29.852362,,,,,,,,,,,SCT,2000,,,,,,,VFR,,,,,,,,,,,,METAR,5.0
MNMG 211400Z 07010KT 9999 FEW022 27/20 Q1012 A2990 NOSIG,MNMG,2018-03-21T14:00:00Z,12.15,-86.17,27.0,20.0,70,10,,6.21,29.88189,,,,,,TRUE,,,,,FEW,2200,,,,,,,VFR,,,,,,,,,,,,METAR,59.0
FYWH 211400Z 03003KT 9999 VCSH FEW020 FEW035CB SCT090 21/15 Q1020,FYWH,2018-03-21T14:00:00Z,-22.47,17.47,21.0,15.0,30,3,,6.21,30.11811,,,,,,,,,,VCSH,FEW,2000,FEW,3500,SCT,9000,,,VFR,,,,,,,,,,,,METAR,1700.0
FYWE 211400Z VRB02KT 9999 FEW040CB SCT045TCU 24/13 Q1020,FYWE,2018-03-21T14:00:00Z,-22.62,17.08,24.0,13.0,0,2,,6.21,30.11811,,,,,,,,,,,FEW,4000,SCT,4500,,,,,VFR,,,,,,,,,,,,METAR,1700.0
FYWB 211400Z 26009KT CAVOK 24/12 Q1012,FYWB,2018-03-21T14:00:00Z,-22.98,14.65,24.0,12.0,260,9,,6.21,29.88189,,,,,,,,,,,CAVOK,,,,,,,,VFR,,,,,,,,,,,,METAR,46.0
FYOA 211400Z 00000KT 9999 BKN050CB 29/20 Q1015,FYOA,2018-03-21T14:00:00Z,-17.88,15.97,29.0,20.0,0,0,,6.21,29.970472,,,,,,,,,,,BKN,5000,,,,,,,VFR,,,,,,,,,,,,METAR,1095.0
FYKT 211400Z 00000KT 9999 FEW040TCU 31/13 Q1015,FYKT,2018-03-21T14:00:00Z,-26.52,18.12,31.0,13.0,0,0,,6.21,29.970472,,,,,,,,,,,FEW,4000,,,,,,,VFR,,,,,,,,,,,,METAR,1061.0
FYGF 211400Z 35005KT 9999 SCT020 SCT025TCU 25/18 Q////,FYGF,2018-03-21T14:00:00Z,-19.6,18.12,25.0,18.0,350,5,,6.21,,,,,,,,,,,,SCT,2000,SCT,2500,,,,,VFR,,,,,,,,,,,,METAR,1400.0
HESG 211400Z 02004KT CAVOK 35/M03 Q1012 NOSIG,HESG,2018-03-21T14:00:00Z,26.33,31.75,35.0,-3.0,20,4,,6.21,29.88189,,,,,,TRUE,,,,,CAVOK,,,,,,,,VFR,,,,,,,,,,,,METAR,70.0
CXWM 211400Z AUTO 23009KT M03/M07 RMK AO1 T10311068,CXWM,2018-03-21T14:00:00Z,49.5,-112.12,-3.1,-6.8,230,9,,,,,,TRUE,TRUE,,,,,,,,,,,,,,,,,,,,,,,,,,,METAR,944.0
CXTH 211400Z AUTO 28003KT M03/M05 RMK AO1 T10251047,CXTH,2018-03-21T14:00:00Z,53.63,-111.68,-2.5,-4.7,280,3,,,,,,TRUE,TRUE,,,,,,,,,,,,,,,,,,,,,,,,,,,METAR,678.0
CXFM 211400Z AUTO 20016KT M05/M08 RMK AO1 PK WND 20019/1345 T10491082,CXFM,2018-03-21T14:00:00Z,49.48,-111.48,-4.9,-8.2,200,16,,,,,,TRUE,TRUE,,,,,,,,,,,,,,,,,,,,,,,,,,,METAR,881.0
CXDB 211400Z AUTO 22009KT M06/M09 RMK AO1 T10561094,CXDB,2018-03-21T14:00:00Z,49.05,-112.82,-5.6,-9.4,220,9,,,,,,TRUE,TRUE,,,,,,,,,,,,,,,,,,,,,,,,,,,METAR,1310.0
CXAK 211400Z AUTO 08002KT M06/M07 RMK AO1 T10591066,CXAK,2018-03-21T14:00:00Z,52.35,-112.6,-5.9,-6.6,80,2,,,,,,TRUE,TRUE,,,,,,,,,,,,,,,,,,,,,,,,,,,METAR,795.0
HESH 211400Z 36015KT CAVOK 31/05 Q1012 NOSIG,HESH,2018-03-21T14:00:00Z,27.97,34.38,31.0,5.0,360,15,,6.21,29.88189,,,,,,TRUE,,,,,CAVOK,,,,,,,,VFR,,,,,,,,,,,,SPECI,50.0
HEAT 211400Z 02005KT CAVOK 34/07 Q1015 NOSIG,HEAT,2018-03-21T14:00:00Z,27.05,31.02,34.0,7.0,20,5,,6.21,29.970472,,,,,,TRUE,,,,,CAVOK,,,,,,,,VFR,,,,,,,,,,,,SPECI,70.0
HESN 211400Z 36009KT CAVOK 37/M01 Q1010 NOSIG,HESN,2018-03-21T14:00:00Z,23.97,32.82,37.0,-1.0,360,9,,6.21,29.822834,,,,,,TRUE,,,,,CAVOK,,,,,,,,VFR,,,,,,,,,,,,SPECI,194.0
HESC 211400Z 04007KT CAVOK 24/M03 Q1024 NOSIG,HESC,2018-03-21T14:00:00Z,28.68,34.07,24.0,-3.0,40,7,,6.21,30.236221,,,,,,TRUE,,,,,CAVOK,,,,,,,,VFR,,,,,,,,,,,,SPECI,1332.0
HEPS 211400Z 03016KT CAVOK 22/16 Q1017 NOSIG,HEPS,2018-03-21T14:00:00Z,31.28,32.25,22.0,16.0,30,16,,6.21,30.029528,,,,,,TRUE,,,,,CAVOK,,,,,,,,VFR,,,,,,,,,,,,SPECI,6.0
HEMM 211400Z 10014KT 8000 NSC 24/11 Q1016 NOSIG,HEMM,2018-03-21T14:00:00Z,31.32,27.22,24.0,11.0,100,14,,4.97,30.0,,,,,,TRUE,,,,,CLR,,,,,,,,MVFR,,,,,,,,,,,,SPECI,30.0
HELX 211400Z 02006KT CAVOK 36/07 Q1011 NOSIG,HELX,2018-03-21T14:00:00Z,25.67,32.7,36.0,7.0,20,6,,6.21,29.852362,,,,,,TRUE,,,,,CAVOK,,,,,,,,VFR,,,,,,,,,,,,SPECI,88.0
HEGN 211400Z 02008KT CAVOK 31/08 Q1012 NOSIG,HEGN,2018-03-21T14:00:00Z,27.18,33.8,31.0,8.0,20,8,,6.21,29.88189,,,,,,TRUE,,,,,CAVOK,,,,,,,,VFR,,,,,,,,,,,,SPECI,14.0
HEBL 211400Z 05010KT CAVOK 36/06 Q1009 NOSIG,HEBL,2018-03-21T14:00:00Z,22.38,31.62,36.0,6.0,50,10,,6.21,29.793306,,,,,,TRUE,,,,,CAVOK,,,,,,,,VFR,,,,,,,,,,,,SPECI,188.0
HEBA 211400Z 06008KT CAVOK 30/05 Q1016 NOSIG,HEBA,2018-03-21T14:00:00Z,30.92,29.7,30.0,5.0,60,8,,6.21,30.0,,,,,,TRUE,,,,,CAVOK,,,,,,,,VFR,,,,,,,,,,,,SPECI,54.0
HEAX 211400Z 05008KT CAVOK 27/15 Q1016 NOSIG,HEAX,2018-03-21T14:00:00Z,31.18,29.93,27.0,15.0,50,8,,6.21,30.0,,,,,,TRUE,,,,,CAVOK,,,,,,,,VFR,,,,,,,,,,,,SPECI,7.0
GUCY 211400Z 32010KT 9999 FEW015 32/21 Q1012 NOSIG,GUCY,2018-03-21T14:00:00Z,9.57,-13.62,32.0,21.0,320,10,,6.21,29.88189,,,,,,TRUE,,,,,FEW,1500,,,,,,,VFR,,,,,,,,,,,,METAR,26.0
ULOO 211400Z 31005MPS 280V340 P5000 FEW020 M03/M09 Q1014 R19/450335 NOSIG RMK QFE756,ULOO,2018-03-21T14:00:00Z,57.78,28.4,-3.0,-9.0,310,10,,3.11,29.940945,,,,,,TRUE,,,,,FEW,2000,,,,,,,MVFR,,,,,,,,,,,,METAR,47.0
CWDT 211400Z AUTO 01002KT M07/M14 RMK AO1 SLP204 T10741142 51007,CWDT,2018-03-21T14:00:00Z,49.88,-71.25,-7.4,-14.2,10,2,,,,1020.4,,TRUE,TRUE,,,,,,,,,,,,,,,,0.7,,,,,,,,,,,METAR,399.0
CWIX 211400Z AUTO 00000KT M10/M17 RMK AO1 SLP194 T10991168 51007,CWIX,2018-03-21T14:00:00Z,48.6,-71.72,-9.9,-16.8,0,0,,,,1019.4,,TRUE,TRUE,,,,,,,,,,,,,,,,0.7,,,,,,,,,,,METAR,113.0
CWRO 211400Z AUTO 01010KT 02/M03 RMK AO1 SLP075 T00221027 58019,CWRO,2018-03-21T14:00:00Z,54.17,-131.67,2.2,-2.7,10,10,,,,1007.5,,TRUE,TRUE,,,,,,,,,,,,,,,,-1.9,,,,,,,,,,,METAR,7.0
CXWB 211400Z AUTO 30013KT M30/M34 RMK AO1 PK WND 31018/1334 SLP295 T13011341 53021,CXWB,2018-03-21T14:00:00Z,65.88,-89.45,-30.1,-34.1,300,13,,,,1029.5,,TRUE,TRUE,,,,,,,,,,,,,,,,2.1,,,,,,,,,,,METAR,18.0
CXEG 211400Z AUTO M04/M04 RMK AO1 T10361036,CXEG,2018-03-21T14:00:00Z,53.3,-113.6,-3.6,-3.6,,,,,,,,TRUE,TRUE,,,,,,,,,,,,,,,,,,,,,,,,,,,METAR,715.0
CXAT 211400Z AUTO 33009KT M31/M35 RMK AO1 SOG 02 1008 SLP200 T13091347,CXAT,2018-03-21T14:00:00Z,73.0,-85.03,-30.9,-34.7,330,9,,,,1020.0,,TRUE,TRUE,,,,,,,,,,,,,,,,,,,,,,,,,,,METAR,19.0
CWKD 211400Z AUTO 08002KT M16/M20 RMK AO1 SLP216 T11611200 51007,CWKD,2018-03-21T14:00:00Z,50.73,-71.02,-16.1,-20.0,80,2,,,,1021.6,,TRUE,TRUE,,,,,,,,,,,,,,,,0.7,,,,,,,,,,,METAR,497.0
CPBT 211400Z AUTO 24010KT M02/M05 RMK AO1 T10171048,CPBT,2018-03-21T14:00:00Z,49.57,-113.05,-1.7,-4.8,240,10,,,,,,TRUE,TRUE,,,,,,,,,,,,,,,,,,,,,,,,,,,METAR,980.0
CPIR 211400Z AUTO 25010KT M01/M03 RMK AO1 T10141034,CPIR,2018-03-21T14:00:00Z,49.9,-112.73,-1.4,-3.4,250,10,,,,,,TRUE,TRUE,,,,,,,,,,,,,,,,,,,,,,,,,,,METAR,858.0
CWEE 211400Z AUTO M10/M16 RMK AO1 SLP191 T11021161 58001,CWEE,2018-03-21T14:00:00Z,49.27,-73.33,-10.2,-16.1,,,,,,1019.1,,TRUE,TRUE,,,,,,,,,,,,,,,,-0.1,,,,,,,,,,,METAR,305.0
GGOV 211400Z 24008KT 7000 NSC 32/18 Q1010 NOSIG,GGOV,2018-03-21T14:00:00Z,11.87,-15.65,32.0,18.0,240,8,,4.35,29.822834,,,,,,TRUE,,,,,CLR,,,,,,,,MVFR,,,,,,,,,,,,METAR,36.0
OEYN 211400Z 27012KT CAVOK 35/15 Q1008 NOSIG,OEYN,2018-03-21T14:00:00Z,24.13,38.07,35.0,15.0,270,12,,6.21,29.763779,,,,,,TRUE,,,,,CAVOK,,,,,,,,VFR,,,,,,,,,,,,METAR,8.0
OEWJ 211400Z 29013KT CAVOK 28/23 Q1011 NOSIG,OEWJ,2018-03-21T14:00:00Z,26.18,36.47,28.0,23.0,290,13,,6.21,29.852362,,,,,,TRUE,,,,,CAVOK,,,,,,,,VFR,,,,,,,,,,,,METAR,16.0
OEWD 211400Z 12008KT CAVOK 34/15 Q1014 NOSIG,OEWD,2018-03-21T14:00:00Z,20.5,45.2,34.0,15.0,120,8,,6.21,29.940945,,,,,,TRUE,,,,,CAVOK,,,,,,,,VFR,,,,,,,,,,,,METAR,617.0
OETR 211400Z 00000KT CAVOK 26/M05 Q1019 NOSIG,OETR,2018-03-21T14:00:00Z,31.7,38.73,26.0,-5.0,0,0,,6.21,30.088583,,,,,,TRUE,,,,,CAVOK,,,,,,,,VFR,,,,,,,,,,,,METAR,855.0
OETF 211400Z 26010KT 9999 FEW025CB SCT030 27/07 Q1020 NOSIG,OETF,2018-03-21T14:00:00Z,21.47,40.53,27.0,7.0,260,10,,6.21,30.11811,,,,,,TRUE,,,,,FEW,2500,SCT,3000,,,,,VFR,,,,,,,,,,,,METAR,1449.0
OETB 211400Z 01006KT CAVOK 31/M03 Q1016 NOSIG,OETB,2018-03-21T14:00:00Z,28.37,36.62,31.0,-3.0,10,6,,6.21,30.0,,,,,,TRUE,,,,,CAVOK,,,,,,,,VFR,,,,,,,,,,,,METAR,770.0
OESK 211400Z 03005KT CAVOK 30/M06 Q1019,OESK,2018-03-21T14:00:00Z,29.77,40.1,30.0,-6.0,30,5,,6.21,30.088583,,,,,,,,,,,CAVOK,,,,,,,,VFR,,,,,,,,,,,,METAR,684.0
OESH 211400Z 08005KT CAVOK 33/09 Q1014 NOSIG,OESH,2018-03-21T14:00:00Z,17.47,47.12,33.0,9.0,80,5,,6.21,29.940945,,,,,,TRUE,,,,,CAVOK,,,,,,,,VFR,,,,,,,,,,,,METAR,722.0
OERR 211400Z 03011KT CAVOK 29/09 Q1016 NOSIG,OERR,2018-03-21T14:00:00Z,30.88,41.12,29.0,9.0,30,11,,6.21,30.0,,,,,,TRUE,,,,,CAVOK,,,,,,,,VFR,,,,,,,,,,,,METAR,552.0
OERF 211400Z 02014KT 5000 BLDU SKC 31/00 Q1014,OERF,2018-03-21T14:00:00Z,29.62,43.47,31.0,0.0,20,14,,3.11,29.940945,,,,,,,,,,BLDU,SKC,,,,,,,,MVFR,,,,,,,,,,,,METAR,447.0
OEPA 211400Z 03008KT CAVOK 34/07 Q1013 NOSIG,OEPA,2018-03-21T14:00:00Z,28.32,46.12,34.0,7.0,30,8,,6.21,29.911417,,,,,,TRUE,,,,,CAVOK,,,,,,,,VFR,,,,,,,,,,,,METAR,355.0
OENG 211400Z 09008KT CAVOK 29/M01 Q1018 NOSIG,OENG,2018-03-21T14:00:00Z,17.62,44.42,29.0,-1.0,90,8,,6.21,30.059055,,,,,,TRUE,,,,,CAVOK,,,,,,,,VFR,,,,,,,,,,,,METAR,1203.0
OEMK 211400Z 18008KT CAVOK 35/15 Q1011,OEMK,2018-03-21T14:00:00Z,21.43,40.0,35.0,15.0,180,8,,6.21,29.852362,,,,,,,,,,,CAVOK,,,,,,,,VFR,,,,,,,,,,,,METAR,369.0
SVAC 211400Z /////KT 9999 SCT017 SCT070 29/24 Q1016,SVAC,2018-03-21T14:00:00Z,9.55,-69.22,29.0,24.0,,,,6.21,30.0,,,,,,,,,,,SCT,1700,SCT,7000,,,,,VFR,,,,,,,,,,,,METAR,225.0
SVVA 211400Z 07004KT CAVOK 27/22 Q1016,SVVA,2018-03-21T14:00:00Z,10.15,-67.92,27.0,22.0,70,4,,6.21,30.0,,,,,,,,,,,CAVOK,,,,,,,,VFR,,,,,,,,,,,,METAR,431.0
NSFA 211400Z 06007KT 9999 SCT018 BKN120 26/24 Q1007,NSFA,2018-03-21T14:00:00Z,-13.83,-172.0,26.0,24.0,60,7,,6.21,29.734253,,,,,,,,,,,SCT,1800,BKN,12000,,,,,VFR,,,,,,,,,,,,METAR,5.0
SBVH 211400Z 04006KT 350V060 9999 BKN015 27/23 Q1016,SBVH,2018-03-21T14:00:00Z,-12.72,-60.12,27.0,23.0,40,6,,6.21,30.0,,,,,,,,,,,BKN,1500,,,,,,,MVFR,,,,,,,,,,,,METAR,652.0
SBUA 211400Z 19003KT 9999 SCT015 SCT080 28/24 Q1012,SBUA,2018-03-21T14:00:00Z,-0.15,-66.98,28.0,24.0,190,3,,6.21,29.88189,,,,,,,,,,,SCT,1500,SCT,8000,,,,,VFR,,,,,,,,,,,,METAR,79.0
SBTU 211400Z /////KT 9999 SCT020 ///// Q1015,SBTU,2018-03-21T14:00:00Z,-3.78,-49.72,,,,,,6.21,29.970472,,,,,,,,,,,SCT,2000,,,,,,,VFR,,,,,,,,,,,,METAR,40.0
SBOI 211400Z 05009KT 9999 BKN022 29/24 Q1014,SBOI,2018-03-21T14:00:00Z,3.85,-51.82,29.0,24.0,50,9,,6.21,29.940945,,,,,,,,,,,BKN,2200,,,,,,,MVFR,,,,,,,,,,,,METAR,39.0
SBMD 211400Z 11007KT 9999 BKN017 29/25 Q1014,SBMD,2018-03-21T14:00:00Z,-0.87,-52.6,29.0,25.0,110,7,,6.21,29.940945,,,,,,,,,,,BKN,1700,,,,,,,MVFR,,,,,,,,,,,,METAR,206.0
SBLB 211400Z 35018KT 9999 FEW020 BKN070 27/23 Q1013 W///S3,SBLB,2018-03-21T14:00:00Z,-22.1,-39.92,27.0,23.0,350,18,,6.21,29.911417,,,,,,,,,,,FEW,2000,BKN,7000,,,,,VFR,,,,,,,,,,,,METAR,10.0
SBIH 211400Z /////KT 9999 SCT018 31/23 Q1012,SBIH,2018-03-21T14:00:00Z,-4.25,-56.0,31.0,23.0,,,,6.21,29.88189,,,,,,,,,,,SCT,1800,,,,,,,VFR,,,,,,,,,,,,METAR,34.0
SBIC 211400Z 08007KT 9999 SCT018 30/26 Q1013,SBIC,2018-03-21T14:00:00Z,-3.12,-58.47,30.0,26.0,80,7,,6.21,29.911417,,,,,,,,,,,SCT,1800,,,,,,,VFR,,,,,,,,,,,,METAR,43.0
SBHT 211400Z 16010KT 9999 BKN015 ///// Q1013,SBHT,2018-03-21T14:00:00Z,-3.25,-52.27,,,160,10,,6.21,29.911417,,,,,,,,,,,BKN,1500,,,,,,,MVFR,,,,,,,,,,,,METAR,74.0
SBGM 211400Z 09004KT 4000 -DZ FEW006 OVC015 26/24 Q1014,SBGM,2018-03-21T14:00:00Z,-10.78,-65.28,26.0,24.0,90,4,,2.49,29.940945,,,,,,,,,,-DZ,FEW,600,OVC,1500,,,,,IFR,,,,,,,,,,,,METAR,146.0
SBEK 211400Z 12004KT CAVOK 32/26 Q1012,SBEK,2018-03-21T14:00:00Z,-6.23,-57.78,32.0,26.0,120,4,,6.21,29.88189,,,,,,,,,,,CAVOK,,,,,,,,VFR,,,,,,,,,,,,METAR,98.0
SBCI 211400Z 33003KT 9999 FEW015 SCT020 31/25 Q1014,SBCI,2018-03-21T14:00:00Z,-7.32,-47.47,31.0,25.0,330,3,,6.21,29.940945,,,,,,,,,,,FEW,1500,SCT,2000,,,,,VFR,,,,,,,,,,,,METAR,183.0
SBCC 211400Z 03005KT 9999 BKN045 FEW050TCU 29/19 Q1015,SBCC,2018-03-21T14:00:00Z,-9.32,-54.95,29.0,19.0,30,5,,6.21,29.970472,,,,,,,,,,,BKN,4500,FEW,5000,,,,,VFR,,,,,,,,,,,,METAR,536.0
SBAT 211400Z 03003KT 9999 FEW017 34/24 Q1014,SBAT,2018-03-21T14:00:00Z,-9.87,-56.1,34.0,24.0,30,3,,6.21,29.940945,,,,,,,,,,,FEW,1700,,,,,,,VFR,,,,,,,,,,,,METAR,288.0
SBQV 211400Z 05007KT 9999 BKN030 25/18 Q1019,SBQV,2018-03-21T14:00:00Z,-14.87,-40.87,25.0,18.0,50,7,,6.21,30.088583,,,,,,,,,,,BKN,3000,,,,,,,MVFR,,,,,,,,,,,,METAR,893.0
SBLE 211400Z 13002KT 9999 BKN020 ///// Q1018,SBLE,2018-03-21T14:00:00Z,-12.48,-41.28,,,130,2,,6.21,30.059055,,,,,,,,,,,BKN,2000,,,,,,,MVFR,,,,,,,,,,,,METAR,511.0
SBPJ 211400Z VRB07KT 8000 -TSRA SCT020 FEW033CB 30/25 Q1014,SBPJ,2018-03-21T14:00:00Z,-10.28,-48.37,30.0,25.0,0,7,,4.97,29.940945,,,,,,,,,,-TSRA,SCT,2000,FEW,3300,,,,,MVFR,,,,,,,,,,,,METAR,236.0
SBAN 211400Z 26004KT 9999 FEW025 27/16 Q1020,SBAN,2018-03-21T14:00:00Z,-16.22,-48.97,27.0,16.0,260,4,,6.21,30.11811,,,,,,,,,,,FEW,2500,,,,,,,VFR,,,,,,,,,,,,METAR,1137.0
SBSM 211400Z 10004KT 360V150 9999 BKN017 21/15 Q1018,SBSM,2018-03-21T14:00:00Z,-29.72,-53.7,21.0,15.0,100,4,,6.21,30.059055,,,,,,,,,,,BKN,1700,,,,,,,MVFR,,,,,,,,,,,,METAR,85.0
SBJV 211400Z 00000KT 4000 BR BKN006 OVC015 22/20 Q1015,SBJV,2018-03-21T14:00:00Z,-26.22,-48.8,22.0,20.0,0,0,,2.49,29.970472,,,,,,,,,,BR,BKN,600,OVC,1500,,,,,IFR,,,,,,,,,,,,METAR,4.0
SBCX 211400Z 17006KT 9999 SCT020 17/13 Q1019,SBCX,2018-03-21T14:00:00Z,-29.2,-51.18,17.0,13.0,170,6,,6.21,30.088583,,,,,,,,,,,SCT,2000,,,,,,,VFR,,,,,,,,,,,,METAR,754.0
SBCH 211400Z 13018KT 9999 SCT015 BKN100 21/14 Q1017,SBCH,2018-03-21T14:00:00Z,-27.13,-52.67,21.0,14.0,130,18,,6.21,30.029528,,,,,,,,,,,SCT,1500,BKN,10000,,,,,VFR,,,,,,,,,,,,METAR,650.0
SBCA 211400Z 15005KT 9999 SCT007 BKN009 22/19 Q1017,SBCA,2018-03-21T14:00:00Z,-25.0,-53.5,22.0,19.0,150,5,,6.21,30.029528,,,,,,,,,,,SCT,700,BKN,900,,,,,IFR,,,,,,,,,,,,METAR,754.0
SBYS 211400Z 33006KT CAVOK 27/19 Q1015,SBYS,2018-03-21T14:00:00Z,-21.97,-47.32,27.0,19.0,330,6,,6.21,29.970472,,,,,,,,,,,CAVOK,,,,,,,,VFR,,,,,,,,,,,,METAR,598.0
SBTA 211400Z 29003KT 9999 FEW025 SCT100 26/22 Q1014,SBTA,2018-03-21T14:00:00Z,-23.03,-45.5,26.0,22.0,290,3,,6.21,29.940945,,,,,,,,,,,FEW,2500,SCT,10000,,,,,VFR,,,,,,,,,,,,METAR,586.0
SBSC 211400Z 20005KT 9999 SCT020 BKN100 29/24 Q1012,SBSC,2018-03-21T14:00:00Z,-22.92,-43.72,29.0,24.0,200,5,,6.21,29.88189,,,,,,,,,,,SCT,2000,BKN,10000,,,,,VFR,,,,,,,,,,,,METAR,3.0
SBPC 211400Z 34006KT CAVOK 28/21 Q1019,SBPC,2018-03-21T14:00:00Z,-21.85,-46.57,28.0,21.0,340,6,,6.21,30.088583,,,,,,,,,,,CAVOK,,,,,,,,VFR,,,,,,,,,,,,METAR,1260.0
SBMT 211400Z VRB04KT 9999 SCT023 25/18 Q1016,SBMT,2018-03-21T14:00:00Z,-23.52,-46.62,25.0,18.0,0,4,,6.21,30.0,,,,,,,,,,,SCT,2300,,,,,,,VFR,,,,,,,,,,,,METAR,722.0
SBLS 211400Z 32007KT 9999 SCT035 BKN080 27/18 Q1018,SBLS,2018-03-21T14:00:00Z,-19.67,-43.88,27.0,18.0,320,7,,6.21,30.059055,,,,,,,,,,,SCT,3500,BKN,8000,,,,,VFR,,,,,,,,,,,,METAR,852.0
SBJR 211400Z 18004KT 9999 FEW020 BKN090 29/25 Q1012,SBJR,2018-03-21T14:00:00Z,-22.97,-43.37,29.0,25.0,180,4,,6.21,29.88189,,,,,,,,,,,FEW,2000,BKN,9000,,,,,VFR,,,,,,,,,,,,METAR,3.0
SBFS 211400Z /////KT 4000 -TSRA BR SCT006 FEW025CB OVC090 ///// Q////,SBFS,2018-03-21T14:00:00Z,-22.02,-41.07,,,,,,2.49,,,,,,,,,,,-TSRA BR,SCT,600,FEW,2500,OVC,9000,,,IFR,,,,,,,,,,,,METAR,3.0
SBES 211400Z 03005KT 9999 SCT020 SCT045 26/25 Q1013,SBES,2018-03-21T14:00:00Z,-22.82,-42.1,26.0,25.0,30,5,,6.21,29.911417,,,,,,,,,,,SCT,2000,SCT,4500,,,,,VFR,,,,,,,,,,,,METAR,11.0
SBCO 211400Z 26004KT 9999 BKN020 21/17 Q1017,SBCO,2018-03-21T14:00:00Z,-29.95,-51.15,21.0,17.0,260,4,,6.21,30.029528,,,,,,,,,,,BKN,2000,,,,,,,MVFR,,,,,,,,,,,,METAR,47.0
SBBU 211400Z 32006KT CAVOK 29/24 Q1015,SBBU,2018-03-21T14:00:00Z,-22.32,-49.07,29.0,24.0,320,6,,6.21,29.970472,,,,,,,,,,,CAVOK,,,,,,,,VFR,,,,,,,,,,,,METAR,590.0
SBBQ 211400Z 36006KT 9999 BKN020 BKN085 24/18 Q1020,SBBQ,2018-03-21T14:00:00Z,-21.25,-43.77,24.0,18.0,360,6,,6.21,30.11811,,,,,,,,,,,BKN,2000,BKN,8500,,,,,MVFR,,,,,,,,,,,,METAR,1171.0
SBBI 211400Z 07004KT 010V140 9999 OVC013 21/18 Q1018,SBBI,2018-03-21T14:00:00Z,-25.4,-49.23,21.0,18.0,70,4,,6.21,30.059055,,,,,,,,,,,OVC,1300,,,,,,,MVFR,,,,,,,,,,,,METAR,923.0
SBBH 211400Z 29006KT 9999 SCT025 BKN090 27/17 Q1018,SBBH,2018-03-21T14:00:00Z,-19.85,-43.95,27.0,17.0,290,6,,6.21,30.059055,,,,,,,,,,,SCT,2500,BKN,9000,,,,,VFR,,,,,,,,,,,,METAR,785.0
SBAF 211400Z 23003KT 9000 FEW010 BKN025 29/23 Q1012,SBAF,2018-03-21T14:00:00Z,-22.87,-43.37,29.0,23.0,230,3,,5.59,29.88189,,,,,,,,,,,FEW,1000,BKN,2500,,,,,MVFR,,,,,,,,,,,,METAR,34.0
YCNM 211400Z AUTO /////KT //// // ////// 21/12 Q1020,YCNM,2018-03-21T14:00:00Z,-30.98,148.38,21.0,12.0,,,,,30.11811,,,TRUE,,,,,,,,,,,,,,,,,,,,,,,,,,,,METAR,184.0
YCDU 211400Z AUTO 15005KT 9999 // NCD 15/12 Q1018,YCDU,2018-03-21T14:00:00Z,-32.12,133.7,15.0,12.0,150,5,,6.21,30.059055,,,TRUE,,,,,,,,CLR,,,,,,,,VFR,,,,,,,,,,,,METAR,15.0
AYPY 211400Z 33005KT 9999 FEW050 24/24 1006 RMKS/ -RA IN AREA,AYPY,2018-03-21T14:00:00Z,-9.42,147.22,24.0,24.0,330,5,,6.21,,,,,,,,,,,,FEW,5000,,,,,,,VFR,,,,,,,,,,,,METAR,47.0
YBPN 211400Z AUTO 16009KT 9999 // SCT042 BKN052 23/21 Q1010,YBPN,2018-03-21T14:00:00Z,-20.5,148.55,23.0,21.0,160,9,,6.21,29.822834,,,TRUE,,,,,,,,SCT,4200,BKN,5200,,,,,VFR,,,,,,,,,,,,METAR,25.0
YBOK 211400Z AUTO 11009KT 9999 // NCD 19/16 Q1017,YBOK,2018-03-21T14:00:00Z,-27.42,151.72,19.0,16.0,110,9,,6.21,30.029528,,,TRUE,,,,,,,,CLR,,,,,,,,VFR,,,,,,,,,,,,METAR,407.0
YBNA 211400Z AUTO 12008KT 9999 // SCT030 BKN036 24/19 Q1018,YBNA,2018-03-21T14:00:00Z,-28.83,153.57,24.0,19.0,120,8,,6.21,30.059055,,,TRUE,,,,,,,,SCT,3000,BKN,3600,,,,,VFR,,,,,,,,,,,,METAR,2.0
YBMK 211400Z AUTO 14015KT 9999 // SCT027 SCT033 SCT045 26/21 Q1010,YBMK,2018-03-21T14:00:00Z,-21.17,149.17,26.0,21.0,140,15,,6.21,29.822834,,,TRUE,,,,,,,,SCT,2700,SCT,3300,SCT,4500,,,VFR,,,,,,,,,,,,METAR,31.0
YBHI 211400Z AUTO 22005KT 9999 // BKN110 20/08 Q1017,YBHI,2018-03-21T14:00:00Z,-32.0,141.47,20.0,8.0,220,5,,6.21,30.029528,,,TRUE,,,,,,,,BKN,11000,,,,,,,VFR,,,,,,,,,,,,METAR,292.0
YSNW 211400Z AUTO 21010KT 9000 // SCT024 SCT031 BKN037 15/15 Q1029,YSNW,2018-03-21T14:00:00Z,-34.95,150.52,15.0,15.0,210,10,,5.59,30.383858,,,TRUE,,,,,,,,SCT,2400,SCT,3100,BKN,3700,,,VFR,,,,,,,,,,,,METAR,110.0
YRMD 211400Z AUTO 08008KT 9999 // SCT085 OVC125 28/20 Q1009,YRMD,2018-03-21T14:00:00Z,-20.7,143.12,28.0,20.0,80,8,,6.21,29.793306,,,TRUE,,,,,,,,SCT,8500,OVC,12500,,,,,VFR,,,,,,,,,,,,METAR,207.0
HSNN 211400Z 06005KT 6000 38/M05 Q1009,HSNN,2018-03-21T14:00:00Z,12.05,24.97,38.0,-5.0,60,5,,3.73,29.793306,,,,,,,,,,,,,,,,,,,,,,,,,,,,,,,METAR,658.0
HSOB 211400Z 32006KT CAVOK 38/05 Q1008,HSOB,2018-03-21T14:00:00Z,13.17,30.22,38.0,5.0,320,6,,6.21,29.763779,,,,,,,,,,,CAVOK,,,,,,,,VFR,,,,,,,,,,,,METAR,574.0
HSPN 211400Z 09010KT 9999 FEW030 30/23 Q1011,HSPN,2018-03-21T14:00:00Z,19.42,37.22,30.0,23.0,90,10,,6.21,29.852362,,,,,,,,,,,FEW,3000,,,,,,,VFR,,,,,,,,,,,,METAR,138.0
OEKJ 211400Z 04003KT CAVOK 36/00 Q1015,OEKJ,2018-03-21T14:00:00Z,24.07,47.58,36.0,0.0,40,3,,6.21,29.970472,,,,,,,,,,,CAVOK,,,,,,,,VFR,,,,,,,,,,,,METAR,503.0
CXSE 211400Z AUTO 28017KT M29/M32 RMK AO1 SOG 49 1011 PK WND 28021/1354 SLP348 T12941315,CXSE,2018-03-21T14:00:00Z,73.77,-105.28,-29.4,-31.5,280,17,,,,1034.8,,TRUE,TRUE,,,,,,,,,,,,,,,,,,,,,,,,,,,METAR,11.0
CXDK 211400Z AUTO M06/M10 RMK AO1 SLP248 T10631102 52025,CXDK,2018-03-21T14:00:00Z,61.27,-124.47,-6.3,-10.2,,,,,,1024.8,,TRUE,TRUE,,,,,,,,,,,,,,,,2.5,,,,,,,,,,,METAR,283.0
CWDQ 211400Z AUTO 35004KT M08/M15 RMK AO1 SOG 54 8003 SLP181 T10821148,CWDQ,2018-03-21T14:00:00Z,47.42,-72.78,-8.2,-14.8,350,4,,,,1018.1,,TRUE,TRUE,,,,,,,,,,,,,,,,,,,,,,,,,,,METAR,169.0
CZDB 211400Z AUTO 08008KT 03/M08 RMK AO1 SLP142 T00301075 57012,CZDB,2018-03-21T14:00:00Z,45.42,-63.47,3.0,-7.5,80,8,,,,1014.2,,TRUE,TRUE,,,,,,,,,,,,,,,,-1.2,,,,,,,,,,,METAR,38.0
CAHR 211400Z AUTO 05011KT M00/M06 RMK AO1 SOG 12 1007 SLP153 T10041062,CAHR,2018-03-21T14:00:00Z,46.35,-63.17,-0.4,-6.2,50,11,,,,1015.3,,TRUE,TRUE,,,,,,,,,,,,,,,,,,,,,,,,,,,METAR,53.0
CWDO 211400Z AUTO 26010KT M00/M03 RMK AO1 SOG 76 3022 SLP123 T10041032,CWDO,2018-03-21T14:00:00Z,49.67,-54.78,-0.4,-3.2,260,10,,,,1012.3,,TRUE,TRUE,,,,,,,,,,,,,,,,,,,,,,,,,,,METAR,92.0
CWWK 211400Z AUTO 02003KT 04/02 RMK AO1 SLP083 T00440024 58012,CWWK,2018-03-21T14:00:00Z,49.02,-122.78,4.4,2.4,20,3,,,,1008.3,,TRUE,TRUE,,,,,,,,,,,,,,,,-1.2,,,,,,,,,,,METAR,15.0
CWVU 211400Z AUTO 04010KT 02/M05 RMK AO1 SLP118 T00161052 57016,CWVU,2018-03-21T14:00:00Z,44.28,-66.33,1.6,-5.2,40,10,,,,1011.8,,TRUE,TRUE,,,,,,,,,,,,,,,,-1.6,,,,,,,,,,,METAR,16.0
CWTT 211400Z AUTO 20002KT M14/M16 RMK AO1 T11411163,CWTT,2018-03-21T14:00:00Z,45.27,-72.17,-14.1,-16.3,200,2,,,,,,TRUE,TRUE,,,,,,,,,,,,,,,,,,,,,,,,,,,METAR,209.0
CXHF 211400Z AUTO M06/M13 RMK AO1 T10641133,CXHF,2018-03-21T14:00:00Z,45.83,-75.65,-6.4,-13.3,,,,,,,,TRUE,TRUE,,,,,,,,,,,,,,,,,,,,,,,,,,,METAR,190.0
CXDE 211400Z AUTO 23002KT M17/M19 RMK AO1 SLP338 T11721194 52019,CXDE,2018-03-21T14:00:00Z,65.22,-123.43,-17.2,-19.4,230,2,,,,1033.8,,TRUE,TRUE,,,,,,,,,,,,,,,,1.9,,,,,,,,,,,METAR,213.0
CWWS 211400Z AUTO 16006KT M03/M04 RMK AO1 SOG 84 1009 SLP201 T10341044,CWWS,2018-03-21T14:00:00Z,52.82,-97.62,-3.4,-4.4,160,6,,,,1020.1,,TRUE,TRUE,,,,,,,,,,,,,,,,,,,,,,,,,,,METAR,223.0
FYLZ 211400Z AUTO 20028G38KT //// // ////// 25/14 Q1010,FYLZ,2018-03-21T14:00:00Z,-26.67,15.25,25.0,14.0,200,28,38,,29.822834,,,TRUE,,,,,,,,,,,,,,,,,,,,,,,,,,,,METAR,130.0
CYUT 211400Z 33009KT 15SM FEW095 M30/M34 A3033 RMK AC1 SLP276,CYUT,2018-03-21T14:00:00Z,66.52,-86.25,-30.0,-34.0,330,9,,15.0,30.33071,1027.6,,,,,,,,,,FEW,9500,,,,,,,VFR,,,,,,,,,,,,METAR,24.0
CYXU 211400Z 04012G18KT 15SM SCT150 BKN180 M03/M11 A2988 RMK AC3AC3 OBS TAKEN +9 SLP133,CYXU,2018-03-21T14:00:00Z,43.02,-81.15,-3.0,-11.0,40,12,18,15.0,29.878937,1013.3,,,,,,,,,,SCT,15000,BKN,18000,,,,,VFR,,,,,,,,,,,,METAR,278.0
CYAB 211400Z CCA 27012KT 20SM FEW003 FEW030 SCT210 M30/M34 A3010 RMK SC1SC1CI1 SLP200,CYAB,2018-03-21T14:00:00Z,73.0,-85.05,-30.0,-34.0,270,12,,20.0,30.100393,1020.0,,,,,,,,,,FEW,300,FEW,3000,SCT,21000,,,VFR,,,,,,,,,,,,METAR,22.0
CYJT 211400Z 28006KT 250V330 15SM BKN031 M01/M06 A2997 RMK SC7 VIA CYDF SLP151,CYJT,2018-03-21T14:00:00Z,48.55,-58.57,-1.0,-6.0,280,6,,15.0,29.970472,1015.1,,,,,,,,,,BKN,3100,,,,,,,VFR,,,,,,,,,,,,METAR,26.0
FPST 211400Z 30006KT 9999 FEW025CB SCT040 BKN110 28/22 Q1010 NOSIG,FPST,2018-03-21T14:00:00Z,0.37,6.72,28.0,22.0,300,6,,6.21,29.822834,,,,,,TRUE,,,,,FEW,2500,SCT,4000,BKN,11000,,,VFR,,,,,,,,,,,,METAR,13.0
FGBT 211400Z 27008KT 9999 FEW010 31/27 Q1009,FGBT,2018-03-21T14:00:00Z,1.88,9.8,31.0,27.0,270,8,,6.21,29.793306,,,,,,,,,,,FEW,1000,,,,,,,VFR,,,,,,,,,,,,METAR,8.0
FGSL 211400Z 31006KT 250V360 9999 TS BKN010 FEW020CB 28/24 Q1010 TEMPO 4000 TSRA,FGSL,2018-03-21T14:00:00Z,3.75,8.72,28.0,24.0,310,6,,6.21,29.822834,,,,,,,,,,TS,BKN,1000,FEW,2000,,,,,MVFR,,,,,,,,,,,,METAR,56.0
FNLU 211400Z 27008KT 9999 FEW023 FEW024CB SCT090 30/// Q1009 NOSIG,FNLU,2018-03-21T14:00:00Z,-8.83,13.22,,,270,8,,6.21,29.793306,,,,,,TRUE,,,,,FEW,2300,FEW,2400,SCT,9000,,,VFR,,,,,,,,,,,,METAR,70.0
SVBM 211400Z 09006KT 9999 FEW016 24/16 Q1017,SVBM,2018-03-21T14:00:00Z,10.05,-69.37,24.0,16.0,90,6,,6.21,30.029528,,,,,,,,,,,FEW,1600,,,,,,,VFR,,,,,,,,,,,,METAR,614.0
SYEC 211400Z 07010KT 9999 SHRA BKN016 SCT038 BKN080 24/23 Q1014,SYEC,2018-03-21T14:00:00Z,6.8,-58.1,24.0,23.0,70,10,,6.21,29.940945,,,,,,,,,,SHRA,BKN,1600,SCT,3800,BKN,8000,,,MVFR,,,,,,,,,,,,METAR,10.0
FZAA 211400Z 27008KT 7000 FEW028 FEW032CB BKN110 32/23 Q1009 BECMG TS,FZAA,2018-03-21T14:00:00Z,-4.38,15.45,32.0,23.0,270,8,,4.35,29.793306,,,,,,,,,,,FEW,2800,FEW,3200,BKN,11000,,,MVFR,,,,,,,,,,,,METAR,312.0
VTPO 211400Z VRB02KT 4000 BR FEW022 SCT025 29/24 Q1008,VTPO,2018-03-21T14:00:00Z,17.23,99.82,29.0,24.0,0,2,,2.49,29.763779,,,,,,,,,,BR,FEW,2200,SCT,2500,,,,,IFR,,,,,,,,,,,,METAR,54.0
VTUQ 211400Z AUTO 10006KT 070V130 ////NDV ////// 24/21 Q1012 A2990,VTUQ,2018-03-21T14:00:00Z,14.95,102.32,24.0,21.0,100,6,,,29.88189,,,TRUE,,,,,,,,,,,,,,,,,,,,,,,,,,,,SPECI,234.0
HRYR 211400Z VRB02KT 9999 SCT025 SCT100 22/15 Q1019 NOSIG,HRYR,2018-03-21T14:00:00Z,-1.97,30.12,22.0,15.0,0,2,,6.21,30.088583,,,,,,TRUE,,,,,SCT,2500,SCT,10000,,,,,VFR,,,,,,,,,,,,METAR,1497.0
HKNW 211400Z 08013KT 9999 FEW024CB BKN025 BKN080 23/15 Q1019,HKNW,2018-03-21T14:00:00Z,-1.32,36.82,23.0,15.0,80,13,,6.21,30.088583,,,,,,,,,,,FEW,2400,BKN,2500,BKN,8000,,,MVFR,,,,,,,,,,,,METAR,1679.0
HKMO 211400Z 10008KT 9999 FEW026 30/23 Q1011 NOSIG,HKMO,2018-03-21T14:00:00Z,-4.02,39.62,30.0,23.0,100,8,,6.21,29.852362,,,,,,TRUE,,,,,FEW,2600,,,,,,,VFR,,,,,,,,,,,,METAR,55.0
HKML 211400Z 09010KT 9999 FEW022CB 30/24 Q1010,HKML,2018-03-21T14:00:00Z,-3.22,40.1,30.0,24.0,90,10,,6.21,29.822834,,,,,,,,,,,FEW,2200,,,,,,,VFR,,,,,,,,,,,,METAR,23.0
HKKI 211400Z 28010KT 9999 FEW023CB BKN080 25/17 Q1014,HKKI,2018-03-21T14:00:00Z,-0.1,34.75,25.0,17.0,280,10,,6.21,29.940945,,,,,,,,,,,FEW,2300,BKN,8000,,,,,VFR,,,,,,,,,,,,METAR,1146.0
FEFF 211400Z 17010KT 9999 SCT023 34/20 Q1008 NOSIG,FEFF,2018-03-21T14:00:00Z,4.4,18.52,34.0,20.0,170,10,,6.21,29.763779,,,,,,TRUE,,,,,SCT,2300,,,,,,,VFR,,,,,,,,,,,,METAR,366.0
FKKR 211400Z 28008KT 9999 FEW026 42/14 Q1005 NOSIG,FKKR,2018-03-21T14:00:00Z,9.32,13.37,42.0,14.0,280,8,,6.21,29.675198,,,,,,TRUE,,,,,FEW,2600,,,,,,,VFR,,,,,,,,,,,,METAR,244.0
FKYS 211400Z /////KT 9999 SCT020 FEW023CB 29/21 Q1013 RETS NOSIG,FKYS,2018-03-21T14:00:00Z,3.82,11.52,29.0,21.0,,,,6.21,29.911417,,,,,,TRUE,,,,,SCT,2000,FEW,2300,,,,,VFR,,,,,,,,,,,,METAR,760.0
FKKD 211400Z VRB02KT 7000 -TSRA SCT004 OVC010 SCT010CB 23/23 Q1009 NOSIG,FKKD,2018-03-21T14:00:00Z,4.0,9.72,23.0,23.0,0,2,,4.35,29.793306,,,,,,TRUE,,,,-TSRA,SCT,400,OVC,1000,SCT,1000,,,MVFR,,,,,,,,,,,,METAR,9.0
FCPP 211400Z 22012KT 9999 SCT016 SCT026 FEW030CB 32/25 Q1008 NOSIG,FCPP,2018-03-21T14:00:00Z,-4.82,11.9,32.0,25.0,220,12,,6.21,29.763779,,,,,,TRUE,,,,,SCT,1600,SCT,2600,FEW,3000,,,VFR,,,,,,,,,,,,METAR,17.0
FCBB 211400Z 26003KT 9999 SCT020 FEW030CB 33/20 Q1009 NOSIG,FCBB,2018-03-21T14:00:00Z,-4.25,15.25,33.0,20.0,260,3,,6.21,29.793306,,,,,,TRUE,,,,,SCT,2000,FEW,3000,,,,,VFR,,,,,,,,,,,,METAR,316.0
CYHI 211400Z CCB 08008KT 15SM BKN099 M25/M29 A3062 RMK AS7 -24.9/-26.3/31/ 0.0/ HARD PACK/ OBS TKN + 9 SLP378,CYHI,2018-03-21T14:00:00Z,70.77,-117.78,-25.0,-29.0,80,8,,15.0,30.620079,1037.8,,,,,,,,,,BKN,9900,,,,,,,VFR,,,,,,,,,,,,METAR,36.0
LOAV 211400Z 30018KT 20KM BKN020CU 02/M08,LOAV,2018-03-21T14:00:00Z,47.97,16.27,2.0,-8.0,300,18,,12.43,,,,,,,,,,,,BKN,2000,,,,,,,MVFR,,,,,,,,,,,,METAR,233.0
LOAN 211400Z 33010G20KT 20KM SCT020CU,LOAN,2018-03-21T14:00:00Z,47.85,16.25,,,330,10,20,12.43,,,,,,,,,,,,SCT,2000,,,,,,,VFR,,,,,,,,,,,,METAR,272.0
SKIP 211400Z 00000KT 9999 SCT016 SCT070 12/10 A3045 REDZ,SKIP,2018-03-21T14:00:00Z,0.88,-77.67,12.0,10.0,0,0,,6.21,30.448818,,,,,,,,,,,SCT,1600,SCT,7000,,,,,VFR,,,,,,,,,,,,SPECI,2961.0
SKPS 211400Z 22003KT 9999 FEW023 BKN080 18/14 A3018,SKPS,2018-03-21T14:00:00Z,1.4,-77.28,18.0,14.0,220,3,,6.21,30.180119,,,,,,,,,,,FEW,2300,BKN,8000,,,,,VFR,,,,,,,,,,,,METAR,1826.0
SKNV 211400Z VRB02KT 7000 NSC 27/22 A2994 RMK HZ,SKNV,2018-03-21T14:00:00Z,2.97,-75.28,27.0,22.0,0,2,,4.35,29.940945,,,,,,,,,,,CLR,,,,,,,,MVFR,,,,,,,,,,,,SPECI,443.0
SKVV 211400Z 00000KT 8000 NSC 29/18 A2994 RMK HZ,SKVV,2018-03-21T14:00:00Z,4.17,-73.62,29.0,18.0,0,0,,4.97,29.940945,,,,,,,,,,,CLR,,,,,,,,MVFR,,,,,,,,,,,,SPECI,431.0
SKIB 211400Z 08003KT 9999 SCT015 SCT200 24/22 A3010,SKIB,2018-03-21T14:00:00Z,4.42,-75.15,24.0,22.0,80,3,,6.21,30.100393,,,,,,,,,,,SCT,1500,SCT,20000,,,,,VFR,,,,,,,,,,,,METAR,928.0
SKAR 211400Z 00000KT 9000 SCT017 SCT100 23/XX A3005 RMK HZ,SKAR,2018-03-21T14:00:00Z,4.45,-75.77,23.0,,0,0,,5.59,30.050198,,,,,,,,,,,SCT,1700,SCT,10000,,,,,VFR,,,,,,,,,,,,SPECI,1219.0
SKMZ 211400Z VRB02KT 9000 NSC 16/13 A3030 RMK HZ,SKMZ,2018-03-21T14:00:00Z,5.03,-75.47,16.0,13.0,0,2,,5.59,30.301182,,,,,,,,,,,CLR,,,,,,,,VFR,,,,,,,,,,,,SPECI,2080.0
SKUI 211400Z 33006KT 5000 HZ BKN010 SCT080 26/24 A2983,SKUI,2018-03-21T14:00:00Z,5.72,-76.62,26.0,24.0,330,6,,3.11,29.828741,,,,,,,,,,HZ,BKN,1000,SCT,8000,,,,,MVFR,,,,,,,,,,,,METAR,33.0
SKPC 211400Z 09006KT 9999 BKN080 31/21 A2986,SKPC,2018-03-21T14:00:00Z,6.17,-67.5,31.0,21.0,90,6,,6.21,29.861221,,,,,,,,,,,BKN,8000,,,,,,,VFR,,,,,,,,,,,,METAR,55.0
SKMD 211400Z VRB02KT 8000 FEW020 BKN200 22/17 A3011 RMK HZ,SKMD,2018-03-21T14:00:00Z,6.22,-75.58,22.0,17.0,0,2,,4.97,30.109253,,,,,,,,,,,FEW,2000,BKN,20000,,,,,MVFR,,,,,,,,,,,,SPECI,1499.0
SKUC 211400Z 08005KT 9999 FEW020 29/16 A2992,SKUC,2018-03-21T14:00:00Z,7.07,-70.72,29.0,16.0,80,5,,6.21,29.920275,,,,,,,,,,,FEW,2000,,,,,,,VFR,,,,,,,,,,,,METAR,128.0
SKEJ 211400Z VRB02KT 9999 FEW010 BKN200 25/23 A2984,SKEJ,2018-03-21T14:00:00Z,7.02,-73.78,25.0,23.0,0,2,,6.21,29.840551,,,,,,,,,,,FEW,1000,BKN,20000,,,,,VFR,,,,,,,,,,,,METAR,134.0
SKLC 211400Z 00000KT 8000 SCT015 27/24 A2986 RMK HZ,SKLC,2018-03-21T14:00:00Z,7.82,-76.7,27.0,24.0,0,0,,4.97,29.861221,,,,,,,,,,,SCT,1500,,,,,,,MVFR,,,,,,,,,,,,SPECI,30.0
SKMR 211400Z 00000KT 9999 FEW020 SCT100 27/24 A2985,SKMR,2018-03-21T14:00:00Z,8.82,-75.83,27.0,24.0,0,0,,6.21,29.84941,,,,,,,,,,,FEW,2000,SCT,10000,,,,,VFR,,,,,,,,,,,,METAR,26.0
SKVP 211400Z 05013KT 9999 FEW015 BKN200 27/17 A2993,SKVP,2018-03-21T14:00:00Z,10.42,-73.25,27.0,17.0,50,13,,6.21,29.929134,,,,,,,,,,,FEW,1500,BKN,20000,,,,,VFR,,,,,,,,,,,,METAR,138.0
SKRH 211400Z 10012KT 9999 FEW020 SCT200 29/20 A2990,SKRH,2018-03-21T14:00:00Z,11.52,-72.92,29.0,20.0,100,12,,6.21,29.899607,,,,,,,,,,,FEW,2000,SCT,20000,,,,,VFR,,,,,,,,,,,,METAR,4.0
SKSM 211400Z 35004KT 9000 FEW020 BKN200 29/20 A2989 RMK HZ,SKSM,2018-03-21T14:00:00Z,11.12,-74.22,29.0,20.0,350,4,,5.59,29.890747,,,,,,,,,,,FEW,2000,BKN,20000,,,,,VFR,,,,,,,,,,,,SPECI,4.0
SKPV 211400Z 08006KT 030V130 9999 FEW017 SCT200 28/23 A2993,SKPV,2018-03-21T14:00:00Z,13.37,-81.33,28.0,23.0,80,6,,6.21,29.929134,,,,,,,,,,,FEW,1700,SCT,20000,,,,,VFR,,,,,,,,,,,,METAR,6.0
FQMA 211400Z 05011KT 9999 SCT025 FEW030CB 30/22 Q1010 NOSIG RMK CB TO W,FQMA,2018-03-21T14:00:00Z,-25.92,32.57,30.0,22.0,50,11,,6.21,29.822834,,,,,,TRUE,,,,,SCT,2500,FEW,3000,,,,,VFR,,,,,,,,,,,,METAR,44.0
FQNP 211400Z /////KT 7000 TSRA SCT010 BKN020 FEW025CB 25/21 Q1013 RMK CB TO S/W/E,FQNP,2018-03-21T14:00:00Z,-15.08,39.27,25.0,21.0,,,,4.35,29.911417,,,,,,,,,,TSRA,SCT,1000,BKN,2000,FEW,2500,,,MVFR,,,,,,,,,,,,METAR,441.0
FWCL 211400Z 10005KT 9999 TS FEW025CB BKN030 27/20 Q1016 NOSIG,FWCL,2018-03-21T14:00:00Z,-15.67,34.97,27.0,20.0,100,5,,6.21,30.0,,,,,,TRUE,,,,TS,FEW,2500,BKN,3000,,,,,MVFR,,,,,,,,,,,,METAR,767.0
DNKN 211400Z 10005KT 9999 NIL FEW015 39/12 Q1010 NOSIG,DNKN,2018-03-21T14:00:00Z,12.05,8.52,39.0,12.0,100,5,,6.21,29.822834,,,,,,TRUE,,,,,FEW,1500,,,,,,,VFR,,,,,,,,,,,,SPECI,481.0
DXNG 211400Z 23007KT 180V290 9999 SCT010 34/19 Q1012 NOSIG,DXNG,2018-03-21T14:00:00Z,9.77,1.1,34.0,19.0,230,7,,6.21,29.88189,,,,,,TRUE,,,,,SCT,1000,,,,,,,VFR,,,,,,,,,,,,METAR,343.0
DXXX 211400Z 20014KT 170V230 9999 FEW016 32/25 Q1010 NOSIG,DXXX,2018-03-21T14:00:00Z,6.17,1.25,32.0,25.0,200,14,,6.21,29.822834,,,,,,TRUE,,,,,FEW,1600,,,,,,,VFR,,,,,,,,,,,,METAR,25.0
DNPO 211400Z 30006KT 9999 TS BKN011 30/26 Q1009 NOSIG,DNPO,2018-03-21T14:00:00Z,4.83,7.02,30.0,26.0,300,6,,6.21,29.793306,,,,,,TRUE,,,,TS,BKN,1100,,,,,,,MVFR,,,,,,,,,,,,METAR,18.0
DFFD 211400Z 33005KT 260V020 6000 FEW020 38/19 Q1009 NOSIG,DFFD,2018-03-21T14:00:00Z,12.33,-1.52,38.0,19.0,330,5,,3.73,29.793306,,,,,,TRUE,,,,,FEW,2000,,,,,,,MVFR,,,,,,,,,,,,METAR,306.0
FTTA 211400Z 08006KT 9999 SCT040TCU FEW050CB 39/14 Q1007,FTTA,2018-03-21T14:00:00Z,9.15,18.37,39.0,14.0,80,6,,6.21,29.734253,,,,,,,,,,,SCT,4000,FEW,5000,,,,,VFR,,,,,,,,,,,,METAR,365.0
FTTJ 211400Z VRB05KT CAVOK 43/M05 Q1004 NOSIG,FTTJ,2018-03-21T14:00:00Z,12.12,15.02,43.0,-5.0,0,5,,6.21,29.64567,,,,,,TRUE,,,,,CAVOK,,,,,,,,VFR,,,,,,,,,,,,METAR,295.0
DBBB 211400Z 22010KT 9999 FEW012 FEW023CB 31/25 Q1010 TEMPO TS SCT012 FEW023CB,DBBB,2018-03-21T14:00:00Z,6.33,2.37,31.0,25.0,220,10,,6.21,29.822834,,,,,,,,,,,FEW,1200,FEW,2300,,,,,VFR,,,,,,,,,,,,METAR,9.0
DGAA 211400Z 19014KT 9999 FEW030 32/24 Q1010 NOSIG,DGAA,2018-03-21T14:00:00Z,5.58,-0.17,32.0,24.0,190,14,,6.21,29.822834,,,,,,TRUE,,,,,FEW,3000,,,,,,,VFR,,,,,,,,,,,,METAR,69.0
DRZR 211400Z 18004KT CAVOK 40/M08 Q1009,DRZR,2018-03-21T14:00:00Z,13.77,8.97,40.0,-8.0,180,4,,6.21,29.793306,,,,,,,,,,,CAVOK,,,,,,,,VFR,,,,,,,,,,,,METAR,453.0
DRZA 211400Z 22008KT 260V160 8000 NSC 40/M04 Q1009,DRZA,2018-03-21T14:00:00Z,16.97,8.0,40.0,-4.0,220,8,,4.97,29.793306,,,,,,,,,,,CLR,,,,,,,,MVFR,,,,,,,,,,,,METAR,502.0
DRRN 211400Z 29009KT 260V330 8000 SCT033 FEW040TCU 41/10 Q1006 NOSIG,DRRN,2018-03-21T14:00:00Z,13.47,2.17,41.0,10.0,290,9,,4.97,29.704725,,,,,,TRUE,,,,,SCT,3300,FEW,4000,,,,,MVFR,,,,,,,,,,,,METAR,227.0
LKVO 211400Z 30008KT 250V340 CAVOK 03/M11 Q1025,LKVO,2018-03-21T14:00:00Z,50.22,14.4,3.0,-11.0,300,8,,6.21,30.265747,,,,,,,,,,,CAVOK,,,,,,,,VFR,,,,,,,,,,,,METAR,280.0
LKKU 211400Z 03015KT CAVOK 03/M11 Q1023,LKKU,2018-03-21T14:00:00Z,49.05,17.45,3.0,-11.0,30,15,,6.21,30.206694,,,,,,,,,,,CAVOK,,,,,,,,VFR,,,,,,,,,,,,METAR,177.0
RCNN 211400Z 36011G21KT 9999 FEW012 15/07 Q1015 RMK A2999,RCNN,2018-03-21T14:00:00Z,22.93,120.2,15.0,7.0,360,11,21,6.21,29.970472,,,,,,,,,,,FEW,1200,,,,,,,VFR,,,,,,,,,,,,SPECI,19.0
RCMQ 211400Z 02013KT 9999 FEW012 12/07 Q1016 NOSIG RMK A3002,RCMQ,2018-03-21T14:00:00Z,24.27,120.62,12.0,7.0,20,13,,6.21,30.0,,,,,,TRUE,,,,,FEW,1200,,,,,,,VFR,,,,,,,,,,,,SPECI,5.0
OEHL 211400Z 31012KT CAVOK 32/M04 Q1018,OEHL,2018-03-21T14:00:00Z,27.42,41.67,32.0,-4.0,310,12,,6.21,30.059055,,,,,,,,,,,CAVOK,,,,,,,,VFR,,,,,,,,,,,,METAR,1013.0
OEGT 211400Z 22010KT CAVOK 27/M12 Q1018 NOSIG,OEGT,2018-03-21T14:00:00Z,31.42,37.27,27.0,-12.0,220,10,,6.21,30.059055,,,,,,TRUE,,,,,CAVOK,,,,,,,,VFR,,,,,,,,,,,,METAR,499.0
OEGS 211400Z 33009KT CAVOK 36/06 Q1013,OEGS,2018-03-21T14:00:00Z,26.3,43.77,36.0,6.0,330,9,,6.21,29.911417,,,,,,,,,,,CAVOK,,,,,,,,VFR,,,,,,,,,,,,METAR,650.0
OEGN 211400Z 19005KT 9999 FEW030 31/21 Q1011 NOSIG,OEGN,2018-03-21T14:00:00Z,16.88,42.57,31.0,21.0,190,5,,6.21,29.852362,,,,,,TRUE,,,,,FEW,3000,,,,,,,VFR,,,,,,,,,,,,METAR,3.0
OEDM 211400Z 27010KT CAVOK 34/M06 Q1015,OEDM,2018-03-21T14:00:00Z,24.45,44.12,34.0,-6.0,270,10,,6.21,29.970472,,,,,,,,,,,CAVOK,,,,,,,,VFR,,,,,,,,,,,,METAR,922.0
OEBH 211400Z 07012KT CAVOK 31/01 Q1017 NOSIG,OEBH,2018-03-21T14:00:00Z,19.97,42.62,31.0,1.0,70,12,,6.21,30.029528,,,,,,TRUE,,,,,CAVOK,,,,,,,,VFR,,,,,,,,,,,,METAR,1157.0
OEBA 211400Z 09010KT 9999 SCT030 28/04 Q1020 NOSIG,OEBA,2018-03-21T14:00:00Z,20.3,41.62,28.0,4.0,90,10,,6.21,30.11811,,,,,,TRUE,,,,,SCT,3000,,,,,,,VFR,,,,,,,,,,,,METAR,1656.0
OEAR 211400Z 24008KT CAVOK 34/17 Q1011,OEAR,2018-03-21T14:00:00Z,,,34.0,17.0,240,8,,6.21,29.852362,,,,,,,,,,,CAVOK,,,,,,,,VFR,,,,,,,,,,,,METAR,
OEAO 211400Z 06010KT CAVOK 32/M01 Q1017,OEAO,2018-03-21T14:00:00Z,26.48,38.12,32.0,-1.0,60,10,,6.21,30.029528,,,,,,,,,,,CAVOK,,,,,,,,VFR,,,,,,,,,,,,METAR,624.0
OEAH 211400Z 10004KT CAVOK 36/01 Q1010 NOSIG,OEAH,2018-03-21T14:00:00Z,25.27,49.47,36.0,1.0,100,4,,6.21,29.822834,,,,,,TRUE,,,,,CAVOK,,,,,,,,VFR,,,,,,,,,,,,METAR,172.0
OEAB 211400Z 19010KT 9999 SCT020 FEW025CB 23/11 Q1024 NOSIG,OEAB,2018-03-21T14:00:00Z,18.22,42.63,23.0,11.0,190,10,,6.21,30.236221,,,,,,TRUE,,,,,SCT,2000,FEW,2500,,,,,VFR,,,,,,,,,,,,METAR,2084.0
UMMG 211400Z 32006G09MPS 9999 BKN033 M01/M07 Q1018 NOSIG,UMMG,2018-03-21T14:00:00Z,53.6,24.05,-1.0,-7.0,320,12,17,6.21,30.059055,,,,,,TRUE,,,,,BKN,3300,,,,,,,VFR,,,,,,,,,,,,METAR,135.0
WMKM 211400Z VRB01KT 9999 FEW028 BKN280 27/24 Q1009,WMKM,2018-03-21T14:00:00Z,2.27,102.25,27.0,24.0,0,1,,6.21,29.793306,,,,,,,,,,,FEW,2800,BKN,28000,,,,,VFR,,,,,,,,,,,,METAR,9.0
WMKL 211400Z 00000KT 9999 FEW025 BKN280 29/24 Q1009,WMKL,2018-03-21T14:00:00Z,6.32,99.72,29.0,24.0,0,0,,6.21,29.793306,,,,,,,,,,,FEW,2500,BKN,28000,,,,,VFR,,,,,,,,,,,,METAR,7.0
WMKI 211400Z 02003KT 9999 FEW030 BKN290 26/24 Q1009,WMKI,2018-03-21T14:00:00Z,4.57,101.08,26.0,24.0,20,3,,6.21,29.793306,,,,,,,,,,,FEW,3000,BKN,29000,,,,,VFR,,,,,,,,,,,,METAR,39.0
WMKE 211400Z AUTO 00000KT //// // 27/24 Q1009,WMKE,2018-03-21T14:00:00Z,4.53,103.43,27.0,24.0,0,0,,,29.793306,,,TRUE,,,,,,,,,,,,,,,,,,,,,,,,,,,,METAR,5.0
WMKD 211400Z 02003KT 340V070 9999 FEW025 SCT160 BKN280 27/24 Q1009 NOSIG,WMKD,2018-03-21T14:00:00Z,3.77,103.22,27.0,24.0,20,3,,6.21,29.793306,,,,,,TRUE,,,,,FEW,2500,SCT,16000,BKN,28000,,,VFR,,,,,,,,,,,,METAR,16.0
WMKC 211400Z 06005KT 9999 FEW020 BKN280 27/24 Q1010,WMKC,2018-03-21T14:00:00Z,6.17,102.27,27.0,24.0,60,5,,6.21,29.822834,,,,,,,,,,,FEW,2000,BKN,28000,,,,,VFR,,,,,,,,,,,,METAR,5.0
WMKB 211400Z 29007KT 250V340 9000 FEW017CB SCT140 BKN280 30/26 Q1008 NOSIG,WMKB,2018-03-21T14:00:00Z,5.47,100.37,30.0,26.0,290,7,,5.59,29.763779,,,,,,TRUE,,,,,FEW,1700,SCT,14000,BKN,28000,,,VFR,,,,,,,,,,,,METAR,4.0
WMKA 211400Z 01004KT 270V080 9999 FEW017CB BKN300 29/23 Q1009,WMKA,2018-03-21T14:00:00Z,6.2,100.4,29.0,23.0,10,4,,6.21,29.793306,,,,,,,,,,,FEW,1700,BKN,30000,,,,,VFR,,,,,,,,,,,,METAR,5.0
WMBA 211400Z VRB02KT 9000 SCT032 SCT150 BKN280 29/26 Q1008,WMBA,2018-03-21T14:00:00Z,4.22,100.7,29.0,26.0,0,2,,5.59,29.763779,,,,,,,,,,,SCT,3200,SCT,15000,BKN,28000,,,VFR,,,,,,,,,,,,METAR,8.0
WMAU 211400Z AUTO 32004KT 290V060 //// // 28/23 Q//// QFF1009,WMAU,2018-03-21T14:00:00Z,2.38,103.88,28.0,23.0,320,4,,0.63,,,,TRUE,,,,,,,,,,,,,,,,,,,,,,,,,,,,METAR,45.0
FMNN 211400Z 24004KT 9999 FEW020CB 30/// Q1011,FMNN,2018-03-21T14:00:00Z,-13.32,48.32,,,240,4,,6.21,29.852362,,,,,,,,,,,FEW,2000,,,,,,,VFR,,,,,,,,,,,,METAR,9.0
GFLL 211400Z 28006KT 9999 SCT015 32/22 Q1011,GFLL,2018-03-21T14:00:00Z,8.62,-13.18,32.0,22.0,280,6,,6.21,29.852362,,,,,,,,,,,SCT,1500,,,,,,,VFR,,,,,,,,,,,,METAR,27.0
NCAI 211400Z AUTO 06004KT 030V100 //// ////// 26/26 Q1008,NCAI,2018-03-21T14:00:00Z,-18.82,-159.77,26.0,26.0,60,4,,,29.763779,,,TRUE,,,,,,,,,,,,,,,,,,,,,,,,,,,,METAR,6.0
NIUE 211400Z AUTO 00000KT //// ////// 22/21 Q1007,NIUE,2018-03-21T14:00:00Z,-19.07,-169.92,22.0,21.0,0,0,,,29.734253,,,TRUE,,,,,,,,,,,,,,,,,,,,,,,,,,,,METAR,20.0
NVVV 211400Z 07003KT 9999 FEW020 SCT040 22/22 Q1005 RMK NIL,NVVV,2018-03-21T14:00:00Z,-17.68,168.3,22.0,22.0,70,3,,6.21,29.675198,,,,,,,,,,,FEW,2000,SCT,4000,,,,,VFR,,,,,,,,,,,,SPECI,21.0
UWOR 211400Z 08004MPS 4700 BR OVC004 M03/M04 Q1011 R07/290155 NOSIG RMK QBB120 QFE733/0978,UWOR,2018-03-21T14:00:00Z,51.07,58.6,-3.0,-4.0,80,8,,2.92,29.852362,,,,,,TRUE,,,,BR,OVC,400,,,,,,,LIFR,,,,,,,,,,,,METAR,277.0
UWLW 211400Z 04002MPS 8000 OVC030 M04/M11 Q1008 R20/820555 NOSIG RMK QFE751,UWLW,2018-03-21T14:00:00Z,54.4,48.8,-4.0,-11.0,40,4,,4.97,29.763779,,,,,,TRUE,,,,,OVC,3000,,,,,,,MVFR,,,,,,,,,,,,METAR,66.0
UNTT 211400Z 27002MPS 8000 FEW020 M08/M09 Q1013 NOSIG RMK QFE745,UNTT,2018-03-21T14:00:00Z,56.38,85.22,-8.0,-9.0,270,4,,4.97,29.911417,,,,,,TRUE,,,,,FEW,2000,,,,,,,MVFR,,,,,,,,,,,,METAR,182.0
WBKW 211400Z 00000KT 9999 FEW017 BKN300 24/23 Q1009,WBKW,2018-03-21T14:00:00Z,4.32,118.12,24.0,23.0,0,0,,6.21,29.793306,,,,,,,,,,,FEW,1700,BKN,30000,,,,,VFR,,,,,,,,,,,,METAR,20.0
WBKT 211400Z VRB02KT 9999 FEW014 SCT140 BKN270 24/24 Q1009,WBKT,2018-03-21T14:00:00Z,6.92,116.82,24.0,24.0,0,2,,6.21,29.793306,,,,,,,,,,,FEW,1400,SCT,14000,BKN,27000,,,VFR,,,,,,,,,,,,METAR,5.0
WBKS 211400Z VRB03KT 9999 FEW015 SCT050 BKN270 26/25 Q1008,WBKS,2018-03-21T14:00:00Z,5.9,118.07,26.0,25.0,0,3,,6.21,29.763779,,,,,,,,,,,FEW,1500,SCT,5000,BKN,27000,,,VFR,,,,,,,,,,,,METAR,13.0
WBKL 211400Z VRB02KT 9999 FEW010 OVC290 26/25 Q1009,WBKL,2018-03-21T14:00:00Z,5.28,115.25,26.0,25.0,0,2,,6.21,29.793306,,,,,,,,,,,FEW,1000,OVC,29000,,,,,VFR,,,,,,,,,,,,METAR,30.0
WBGY 211400Z 00000KT 9999 FEW022 SCT150 BKN300 25/23 Q1009,WBGY,2018-03-21T14:00:00Z,1.22,111.43,25.0,23.0,0,0,,6.21,29.793306,,,,,,,,,,,FEW,2200,SCT,15000,BKN,30000,,,VFR,,,,,,,,,,,,METAR,34.0
WBGS 211400Z 12003KT 100V170 9999 SCT018 BKN150 26/25 Q1010,WBGS,2018-03-21T14:00:00Z,2.27,111.98,26.0,25.0,120,3,,6.21,29.822834,,,,,,,,,,,SCT,1800,BKN,15000,,,,,VFR,,,,,,,,,,,,METAR,8.0
WBGR 211400Z VRB02KT 9999 FEW016 BKN150 25/24 Q1009,WBGR,2018-03-21T14:00:00Z,4.32,113.97,25.0,24.0,0,2,,6.21,29.793306,,,,,,,,,,,FEW,1600,BKN,15000,,,,,VFR,,,,,,,,,,,,METAR,18.0
WBGB 211400Z 10003KT 9999 SCT016 SCT150 BKN300 26/25 Q1009,WBGB,2018-03-21T14:00:00Z,3.12,113.02,26.0,25.0,100,3,,6.21,29.793306,,,,,,,,,,,SCT,1600,SCT,15000,BKN,30000,,,VFR,,,,,,,,,,,,METAR,5.0
UHSS 211400Z 15005MPS 9999 FEW033 M02/M06 Q1012 R19/150065 NOSIG RMK MT OBSC QFE758/1010,UHSS,2018-03-21T14:00:00Z,46.88,142.72,-2.0,-6.0,150,10,,6.21,29.88189,,,,,,TRUE,,,,,FEW,3300,,,,,,,VFR,,,,,,,,,,,,METAR,31.0
UHMM 211400Z 03004G09MPS 340V080 9999 NSC M18/M27 Q1003 RMK QFE738,UHMM,2018-03-21T14:00:00Z,59.92,150.72,-18.0,-27.0,30,8,17,6.21,29.616142,,,,,,,,,,,CLR,,,,,,,,VFR,,,,,,,,,,,,METAR,175.0
UHMA 211400Z 11011G15MPS 1000 R01/1400 SN BLSN VV/// M01/M01 Q1008 RMK END R01/11014MPS QFE752/1003,UHMA,2018-03-21T14:00:00Z,64.73,177.73,-1.0,-1.0,110,21,29,0.62,29.763779,,,,,,,,,,BLSN SN,OVX,0,,,,,,,LIFR,,,,,,,,,,,,METAR,62.0
UHPP 211400Z 36005MPS 9999 NSC M10/M18 Q1005 R34L/CLRD70 NOSIG RMK QFE750/1001,UHPP,2018-03-21T14:00:00Z,53.17,158.45,-10.0,-18.0,360,10,,6.21,29.675198,,,,,,TRUE,,,,,CLR,,,,,,,,VFR,,,,,,,,,,,,METAR,40.0
UHBB 211400Z 21002MPS CAVOK 01/M07 Q1008 R36/090060 NOSIG RMK QFE738/0985,UHBB,2018-03-21T14:00:00Z,50.43,127.42,1.0,-7.0,210,4,,6.21,29.763779,,,,,,TRUE,,,,,CAVOK,,,,,,,,VFR,,,,,,,,,,,,METAR,195.0
VDPP 211400Z 27006KT 230V300 9000 SCT017 SCT040 27/22 Q1010,VDPP,2018-03-21T14:00:00Z,11.55,104.83,27.0,22.0,270,6,,5.59,29.822834,,,,,,,,,,,SCT,1700,SCT,4000,,,,,VFR,,,,,,,,,,,,METAR,10.0
VDSR 211400Z 33003KT 8000 SCT015 BKN040 26/25 Q1010,VDSR,2018-03-21T14:00:00Z,13.42,103.83,26.0,25.0,330,3,,4.97,29.822834,,,,,,,,,,,SCT,1500,BKN,4000,,,,,MVFR,,,,,,,,,,,,METAR,15.0
DAUI 211400Z 02020KT 1500 BLSA NSC 21/M04 Q1010,DAUI,2018-03-21T14:00:00Z,27.25,2.52,21.0,-4.0,20,20,,0.93,29.822834,,,,,,,,,,BLSA,CLR,,,,,,,,LIFR,,,,,,,,,,,,METAR,269.0
WMSA 211400Z VRB02KT 9000 SCT025 SCT140 BKN270 28/24 Q1009,WMSA,2018-03-21T14:00:00Z,3.13,101.55,28.0,24.0,0,2,,5.59,29.793306,,,,,,,,,,,SCT,2500,SCT,14000,BKN,27000,,,VFR,,,,,,,,,,,,METAR,27.0
WMKJ 211400Z 09003KT 060V120 9999 FEW022 BKN280 26/25 Q1009,WMKJ,2018-03-21T14:00:00Z,1.62,103.67,26.0,25.0,90,3,,6.21,29.793306,,,,,,,,,,,FEW,2200,BKN,28000,,,,,VFR,,,,,,,,,,,,METAR,40.0
DAUE 211400Z 34017KT 9999 BKN040 14/M01 Q1014,DAUE,2018-03-21T14:00:00Z,30.57,2.87,14.0,-1.0,340,17,,6.21,29.940945,,,,,,,,,,,BKN,4000,,,,,,,VFR,,,,,,,,,,,,METAR,397.0
DAOY 211400Z 34020KT 4000 SG OVC010 01/M01 Q1015,DAOY,2018-03-21T14:00:00Z,33.72,1.08,1.0,-1.0,340,20,,2.49,29.970472,,,,,,,,,,SG,OVC,1000,,,,,,,IFR,,,,,,,,,,,,METAR,1347.0
DAOV 211400Z 34012KT 9999 -RA BKN023 FEW026TCU 10/06 Q1018,DAOV,2018-03-21T14:00:00Z,35.2,0.15,10.0,6.0,340,12,,6.21,30.059055,,,,,,,,,,-RA,BKN,2300,FEW,2600,,,,,MVFR,,,,,,,,,,,,METAR,514.0
DAUT 211400Z 02018KT 8000 DRSA NSC 18/M02 Q1014,DAUT,2018-03-21T14:00:00Z,29.25,0.27,18.0,-2.0,20,18,,4.97,29.940945,,,,,,,,,,DRSA,CLR,,,,,,,,MVFR,,,,,,,,,,,,METAR,312.0
DAUO 211400Z 32016KT 8000 -RA SCT020 BKN030 08/07 Q1012,DAUO,2018-03-21T14:00:00Z,33.5,6.78,8.0,7.0,320,16,,4.97,29.88189,,,,,,,,,,-RA,SCT,2000,BKN,3000,,,,,MVFR,,,,,,,,,,,,METAR,63.0
DAUK 211400Z 33013KT 9999 -RA BKN040 SCT100 09/06 Q1012,DAUK,2018-03-21T14:00:00Z,33.08,6.12,9.0,6.0,330,13,,6.21,29.88189,,,,,,,,,,-RA,BKN,4000,SCT,10000,,,,,VFR,,,,,,,,,,,,METAR,85.0
DATM 211400Z 27015KT CAVOK 34/01 Q1008,DATM,2018-03-21T14:00:00Z,21.38,0.92,34.0,1.0,270,15,,6.21,29.763779,,,,,,,,,,,CAVOK,,,,,,,,VFR,,,,,,,,,,,,METAR,396.0
DAFH 211400Z 33016KT 9999 FEW026CB BKN030 06/03 Q1014 RERA,DAFH,2018-03-21T14:00:00Z,32.93,3.32,6.0,3.0,330,16,,6.21,29.940945,,,,,,,,,,,FEW,2600,BKN,3000,,,,,MVFR,,,,,,,,,,,,METAR,774.0
DABT 211400Z 23004KT 8000 FEW010 BKN023 04/02 Q1012 RESN,DABT,2018-03-21T14:00:00Z,35.75,6.32,4.0,2.0,230,4,,4.97,29.88189,,,,,,,,,,,FEW,1000,BKN,2300,,,,,MVFR,,,,,,,,,,,,METAR,823.0
DAAV 211400Z 21005KT 9999 SCT020 FEW026CB BKN030 09/07 Q1014 RERA,DAAV,2018-03-21T14:00:00Z,36.8,5.88,9.0,7.0,210,5,,6.21,29.940945,,,,,,,,,,,SCT,2000,FEW,2600,BKN,3000,,,MVFR,,,,,,,,,,,,METAR,11.0
DAAP 211400Z 26022KT 2000 DRSA NSC 34/09 Q1004,DAAP,2018-03-21T14:00:00Z,26.72,8.62,34.0,9.0,260,22,,1.24,29.64567,,,,,,,,,,DRSA,CLR,,,,,,,,IFR,,,,,,,,,,,,METAR,558.0
DAAE 211400Z 18004KT 7000 SCT020TCU FEW026CB BKN040 10/04 Q1015,DAAE,2018-03-21T14:00:00Z,36.72,5.07,10.0,4.0,180,4,,4.35,29.970472,,,,,,,,,,,SCT,2000,FEW,2600,BKN,4000,,,MVFR,,,,,,,,,,,,METAR,2.0
DAAD 211400Z 34005KT 7000 SCT030 BKN080 07/05 Q1014,DAAD,2018-03-21T14:00:00Z,35.32,4.2,7.0,5.0,340,5,,4.35,29.940945,,,,,,,,,,,SCT,3000,BKN,8000,,,,,MVFR,,,,,,,,,,,,METAR,461.0
OEKM 211400Z 04008KT 9999 SCT022 FEW025CB 25/M05 Q1024 NOSIG,OEKM,2018-03-21T14:00:00Z,18.3,42.78,25.0,-5.0,40,8,,6.21,30.236221,,,,,,TRUE,,,,,SCT,2200,FEW,2500,,,,,VFR,,,,,,,,,,,,METAR,2054.0
CXLL 211400Z AUTO 04005KT M11/M13 RMK AO1 SOG 64 1029 SLP287 T11091129,CXLL,2018-03-21T14:00:00Z,61.12,-122.85,-10.9,-12.9,40,5,,,,1028.7,,TRUE,TRUE,,,,,,,,,,,,,,,,,,,,,,,,,,,METAR,183.0
HEMA 211400Z 35015KT CAVOK 29/10 Q1012 NOSIG,HEMA,2018-03-21T14:00:00Z,25.55,34.58,29.0,10.0,350,15,,6.21,29.88189,,,,,,TRUE,,,,,CAVOK,,,,,,,,VFR,,,,,,,,,,,,SPECI,77.0
CWDA 211400Z AUTO 31012G18KT 01/M04 RMK AO1 PK WND 30018/1359 SLP111 T00131040 51026,CWDA,2018-03-21T14:00:00Z,50.72,-56.12,1.3,-4.0,310,12,18,,,1011.1,,TRUE,TRUE,,,,,,,,,,,,,,,,2.6,,,,,,,,,,,METAR,29.0
CWKK 211400Z AUTO 04004KT M16/M22 RMK AO1 SOG 44 3009 SLP264 T11551215,CWKK,2018-03-21T14:00:00Z,49.72,-88.33,-15.5,-21.5,40,4,,,,1026.4,,TRUE,TRUE,,,,,,,,,,,,,,,,,,,,,,,,,,,METAR,260.0
CWEF 211400Z AUTO 27003KT M00/M04 RMK AO1 SLP160 T10011040 51022,CWEF,2018-03-21T14:00:00Z,47.22,-60.12,-0.1,-4.0,270,3,,,,1016.0,,TRUE,TRUE,,,,,,,,,,,,,,,,2.2,,,,,,,,,,,METAR,26.0
CWCI 211400Z AUTO M06/M12 RMK AO1 17 1013 SLP234 T10551116,CWCI,2018-03-21T14:00:00Z,47.32,-85.82,-5.5,-11.6,,,,,,1023.4,,TRUE,TRUE,,,,,,,,,,,,,,,,,,,,,,,,,,,METAR,187.0
CZMU 211400Z AUTO 27004KT M04/M06 RMK AO1 SOG 24 T10391059,CZMU,2018-03-21T14:00:00Z,53.57,-112.3,-3.9,-5.9,270,4,,,,,,TRUE,TRUE,,,,,,,,,,,,,,,,,,,,,,,,,,,METAR,683.0
CWPS 211400Z AUTO 36028KT M02/M07 RMK AO1 PK WND 00032/1356 SLP105 T10201068 51007,CWPS,2018-03-21T14:00:00Z,42.57,-80.03,-2.0,-6.8,360,28,,,,1010.5,,TRUE,TRUE,,,,,,,,,,,,,,,,0.7,,,,,,,,,,,METAR,175.0
CWNL 211400Z AUTO 05008G16KT M07/M18 RMK AO1 SLP206 T10651176 51012,CWNL,2018-03-21T14:00:00Z,45.62,-82.97,-6.5,-17.6,50,8,16,,,1020.6,,TRUE,TRUE,,,,,,,,,,,,,,,,1.2,,,,,,,,,,,METAR,183.0
CWMZ 211400Z AUTO 04014KT M06/M12 RMK AO1 PK WND 04021/1302 SLP172 T10641115 51011,CWMZ,2018-03-21T14:00:00Z,45.02,-80.37,-6.4,-11.5,40,14,,,,1017.2,,TRUE,TRUE,,,,,,,,,,,,,,,,1.1,,,,,,,,,,,METAR,191.0
RKSO 211359Z 30004KT 3SM -DZ BR SCT009 BKN047 OVC055 00/00 A3001 RMK AO2A SLP166 P0000 $,RKSO,2018-03-21T13:59:00Z,37.07,127.02,0.0,0.0,300,4,,3.0,30.008858,1016.6,,,TRUE,TRUE,,,,,-DZ BR,SCT,900,BKN,4700,OVC,5500,,,MVFR,,,,,,0.005,,,,,,METAR,12.0
KNGU 211359Z 30012KT 3SM -RA BR BKN007 OVC011 03/02 A2959 RMK AO2 CIG 005V010 SLP018 P0000 T00280017,KNGU,2018-03-21T13:59:00Z,36.92,-76.27,2.8,1.7,300,12,,3.0,29.589567,1001.8,,,TRUE,,,,,,-RA BR,BKN,700,OVC,1100,,,,,IFR,,,,,,0.005,,,,,,METAR,5.0
KNKT 211358Z 30005KT 7SM OVC008 06/05 A2962 RMK CIG 006V011 SLP027 T006110050,KNKT,2018-03-21T13:58:00Z,34.9,-76.88,6.1,5.0,300,5,,7.0,29.619095,1002.7,,,,,,,,,,OVC,800,,,,,,,IFR,,,,,,,,,,,,METAR,9.0
PAFB 211358Z 00000KT 10SM CLR M14/M16 A3051 RMK AO2A SLP343 T11451158,PAFB,2018-03-21T13:58:00Z,64.83,-147.62,-14.5,-15.8,0,0,,10.0,30.510826,1034.3,,,TRUE,,,,,,,CLR,,,,,,,,VFR,,,,,,,,,,,,METAR,137.0
KGOV 211358Z AUTO 05007KT 10SM CLR M05/M11 A3004 RMK AO2 SLP197 T10511109 $,KGOV,2018-03-21T13:58:00Z,44.68,-84.73,-5.1,-10.9,50,7,,10.0,30.041338,1019.7,,TRUE,TRUE,TRUE,,,,,,CLR,,,,,,,,VFR,,,,,,,,,,,,SPECI,353.0
KHEY 211358Z AUTO 30006KT 10SM CLR 09/02 A3002 RMK AO2 SLP168 T00940016,KHEY,2018-03-21T13:58:00Z,31.35,-85.65,9.4,1.6,300,6,,10.0,30.02067,1016.8,,TRUE,TRUE,,,,,,,CLR,,,,,,,,VFR,,,,,,,,,,,,METAR,97.0
KNTD 211358Z 03005KT 10SM -RA FEW045 BKN055 OVC085 13/11 A3000 RMK AO2 SLP161 P0004 T01330106 VISNO N $,KNTD,2018-03-21T13:58:00Z,34.12,-119.12,13.3,10.6,30,5,,10.0,30.0,1016.1,,,TRUE,TRUE,,,,,-RA,FEW,4500,BKN,5500,OVC,8500,,,VFR,,,,,,0.04,,,,,,SPECI,4.0
K0J4 211358Z AUTO VRB04KT 10SM CLR 09/02 A3007 RMK AO2 SLP181 T00940017 $,K0J4,2018-03-21T13:58:00Z,31.05,-86.32,9.4,1.7,0,4,,10.0,30.070866,1018.1,,TRUE,TRUE,TRUE,,,,,,CLR,,,,,,,,VFR,,,,,,,,,,,,SPECI,96.0
KCVS 211358Z AUTO 35009KT 10SM OVC180 03/M08 A3008 RMK AO2 SLP178 T00261082 $,KCVS,2018-03-21T13:58:00Z,34.37,-103.32,2.6,-8.2,350,9,,10.0,30.079725,1017.8,,TRUE,TRUE,TRUE,,,,,,OVC,18000,,,,,,,VFR,,,,,,,,,,,,METAR,1309.0
KSKA 211358Z 06006KT 10SM CLR M01/M01 A2978 RMK AO2A SLP102 T10111012 $,KSKA,2018-03-21T13:58:00Z,47.62,-117.65,-1.1,-1.2,60,6,,10.0,29.778543,1010.2,,,TRUE,TRUE,,,,,,CLR,,,,,,,,VFR,,,,,,,,,,,,SPECI,750.0
K1OW 211358Z AUTO 17004KT 10SM SCT070 BKN095 03/M09 A3002 RMK AO2 SLP180 T00291089 PWINO $,K1OW,2018-03-21T13:58:00Z,,,2.9,-8.9,170,4,,10.0,30.02067,1018.0,,TRUE,TRUE,TRUE,,,,TRUE,,SCT,7000,BKN,9500,,,,,VFR,,,,,,,,,,,,SPECI,
KSLI 211358Z 00000KT 10SM BKN060 OVC090 13/11 A3000 RMK AO2A SLP162 T01340106,KSLI,2018-03-21T13:58:00Z,33.77,-118.03,13.4,10.6,0,0,,10.0,30.0,1016.2,,,TRUE,,,,,,,BKN,6000,OVC,9000,,,,,VFR,,,,,,,,,,,,SPECI,11.0
PAFR 211358Z AUTO 06004KT 10SM BKN080 M07/M13 A3039 RMK AO2 SLP302 T10691131,PAFR,2018-03-21T13:58:00Z,61.27,-149.65,-6.9,-13.1,60,4,,10.0,30.389763,1030.2,,TRUE,TRUE,,,,,,,BKN,8000,,,,,,,VFR,,,,,,,,,,,,SPECI,115.0
KEDW 211358Z 00000KT 20SM -RA SCT035 BKN060 09/09 A3001 RMK AO2A SLP159 P0001 T00880088,KEDW,2018-03-21T13:58:00Z,34.88,-117.87,8.8,8.8,0,0,,20.0,30.008858,1015.9,,,TRUE,,,,,,-RA,SCT,3500,BKN,6000,,,,,VFR,,,,,,0.01,,,,,,METAR,702.0
KMEI 211358Z 00000KT 10SM CLR 10/06 A3009 RMK AO2 SLP187 T01000056,KMEI,2018-03-21T13:58:00Z,32.33,-88.75,10.0,5.6,0,0,,10.0,30.088583,1018.7,,,TRUE,,,,,,,CLR,,,,,,,,VFR,,,,,,,,,,,,METAR,89.0
KEUF 211358Z AUTO 30008G15KT 10SM CLR 10/02 A2998 RMK AO2 SLP152 T01000017,KEUF,2018-03-21T13:58:00Z,31.95,-85.13,10.0,1.7,300,8,15,10.0,29.97933,1015.2,,TRUE,TRUE,,,,,,,CLR,,,,,,,,VFR,,,,,,,,,,,,SPECI,87.0
K4MR 211358Z 31005KT 10SM FEW170 03/M08 A3010 RMK SLP178 T00261085 52014 $,K4MR,2018-03-21T13:58:00Z,34.3,-103.8,2.6,-8.5,310,5,,10.0,30.100393,1017.8,,,,TRUE,,,,,,FEW,17000,,,,,,,VFR,1.4,,,,,,,,,,,METAR,1326.0
OAIX 211358Z 00000KT 9999 FEW070 18/03 A2994 RMK AO2A SLP089 T01780031,OAIX,2018-03-21T13:58:00Z,34.95,69.27,17.8,3.1,0,0,,6.21,29.940945,1008.9,,,TRUE,,,,,,,FEW,7000,,,,,,,VFR,,,,,,,,,,,,METAR,1492.0
KTCM 211358Z AUTO 00000KT 10SM CLR M02/M02 A2976 RMK AO2 SLP083 T10251025 $,KTCM,2018-03-21T13:58:00Z,47.12,-122.47,-2.5,-2.5,0,0,,10.0,29.760826,1008.3,,TRUE,TRUE,TRUE,,,,,,CLR,,,,,,,,VFR,,,,,,,,,,,,METAR,98.0
KRIV 211358Z AUTO 00000KT 10SM OVC075 08/07 A3001 RMK AO2 SLP159 T00800066,KRIV,2018-03-21T13:58:00Z,33.87,-117.27,8.0,6.6,0,0,,10.0,30.008858,1015.9,,TRUE,TRUE,,,,,,,OVC,7500,,,,,,,VFR,,,,,,,,,,,,METAR,469.0
KLSV 211358Z AUTO 03010KT 10SM CLR 11/M03 A2994 RMK AO2 SLP131 T01111034,KLSV,2018-03-21T13:58:00Z,36.22,-115.02,11.1,-3.4,30,10,,10.0,29.940945,1013.1,,TRUE,TRUE,,,,,,,CLR,,,,,,,,VFR,,,,,,,,,,,,SPECI,570.0
KGXF 211358Z AUTO 16008KT 9SM CLR 14/M12 A2994 RMK AO2 SLP131 T01381117,KGXF,2018-03-21T13:58:00Z,32.87,-112.72,13.8,-11.7,160,8,,9.0,29.940945,1013.1,,TRUE,TRUE,,,,,,,CLR,,,,,,,,VFR,,,,,,,,,,,,SPECI,262.0
KGRF 211358Z AUTO 13003KT 10SM CLR M02/M02 A2976 RMK AO2 SLP083 T10241024 RVRNO $,KGRF,2018-03-21T13:58:00Z,47.07,-122.57,-2.4,-2.4,130,3,,10.0,29.760826,1008.3,,TRUE,TRUE,TRUE,,,,,,CLR,,,,,,,,VFR,,,,,,,,,,,,SPECI,92.0
KFCS 211358Z AUTO 33007KT 10SM BKN190 M01/M11 A3006 RMK AO2 SLP215 T10101106 $,KFCS,2018-03-21T13:58:00Z,38.67,-104.77,-1.0,-10.6,330,7,,10.0,30.059055,1021.5,,TRUE,TRUE,TRUE,,,,,,BKN,19000,,,,,,,VFR,,,,,,,,,,,,SPECI,1789.0
KDMA 211358Z AUTO 13007KT 10SM CLR 09/M06 A3001 RMK AO2 SLP140 T00861060 $,KDMA,2018-03-21T13:58:00Z,32.17,-110.87,8.6,-6.0,130,7,,10.0,30.008858,1014.0,,TRUE,TRUE,TRUE,,,,,,CLR,,,,,,,,VFR,,,,,,,,,,,,METAR,824.0
KCWN 211358Z AUTO 35004KT 10SM BKN180 01/M12 A3002 RMK AO2 SLP083 T00101121 $,KCWN,2018-03-21T13:58:00Z,38.75,-104.85,1.0,-12.1,350,4,,10.0,30.02067,1008.3,,TRUE,TRUE,TRUE,,,,,,BKN,18000,,,,,,,VFR,,,,,,,,,,,,SPECI,2040.0
KBIF 211358Z AUTO 01003KT 10SM CLR 07/M11 A3005 RMK AO2 SLP144 T00651107 $,KBIF,2018-03-21T13:58:00Z,31.85,-106.38,6.5,-10.7,10,3,,10.0,30.050198,1014.4,,TRUE,TRUE,TRUE,,,,,,CLR,,,,,,,,VFR,,,,,,,,,,,,METAR,1203.0
PWAK 211358Z AUTO 07012KT 9999 CLR 23/18 A2988 RMK AO2 SLP125,PWAK,2018-03-21T13:58:00Z,19.28,166.65,23.0,18.0,70,12,,6.21,29.878937,1012.5,,TRUE,TRUE,,,,,,,CLR,,,,,,,,VFR,,,,,,,,,,,,METAR,4.0
KMUO 211358Z AUTO 12016KT 10SM -RA FEW070 06/04 A2987 RMK AO2 RAB49 SLP118 P0000 T00580044 $,KMUO,2018-03-21T13:58:00Z,43.03,-115.87,5.8,4.4,120,16,,10.0,29.870079,1011.8,,TRUE,TRUE,TRUE,,,,,-RA,FEW,7000,,,,,,,VFR,,,,,,0.005,,,,,,SPECI,913.0
KINS 211358Z AUTO 00000KT 10SM FEW180 08/M04 A2995 RMK AO2 SLP121 T00751043 $,KINS,2018-03-21T13:58:00Z,36.58,-115.67,7.5,-4.3,0,0,,10.0,29.949802,1012.1,,TRUE,TRUE,TRUE,,,,,,FEW,18000,,,,,,,VFR,,,,,,,,,,,,SPECI,955.0
KROG 211358Z 32005KT 10SM CLR 03/01 A3018 RMK AO2 SLP226 T00280006,KROG,2018-03-21T13:58:00Z,36.37,-94.08,2.8,0.6,320,5,,10.0,30.180119,1022.6,,,TRUE,,,,,,,CLR,,,,,,,,VFR,,,,,,,,,,,,SPECI,415.0
MHSC 211358Z 35013G19KT 9999 CLR 26/18 A3002 RMK SLP121 T02560180 52019 $,MHSC,2018-03-21T13:58:00Z,14.37,-87.62,25.6,18.0,350,13,19,6.21,30.02067,1012.1,,,,TRUE,,,,,,CLR,,,,,,,,VFR,1.9,,,,,,,,,,,SPECI,626.0
KBKF 211358Z 19006KT 10SM FEW090 FEW130 SCT220 02/M08 A3002 RMK AO2A SLP162 T00161082,KBKF,2018-03-21T13:58:00Z,39.72,-104.75,1.6,-8.2,190,6,,10.0,30.02067,1016.2,,,TRUE,,,,,,,FEW,9000,FEW,13000,SCT,22000,,,VFR,,,,,,,,,,,,METAR,1726.0
KHMN 211358Z AUTO 05003KT 10SM CLR 02/M12 A3009 RMK AO2 SLP166 T00221124 $,KHMN,2018-03-21T13:58:00Z,32.85,-106.08,2.2,-12.4,50,3,,10.0,30.088583,1016.6,,TRUE,TRUE,TRUE,,,,,,CLR,,,,,,,,VFR,,,,,,,,,,,,SPECI,1248.0
KHIF 211358Z 11012KT 10SM OVC070 06/M03 A2995 RMK AO2A SLP127 T00641027,KHIF,2018-03-21T13:58:00Z,41.12,-111.97,6.4,-2.7,110,12,,10.0,29.949802,1012.7,,,TRUE,,,,,,,OVC,7000,,,,,,,VFR,,,,,,,,,,,,SPECI,1459.0
KNJM 211357Z AUTO 31004KT 9SM -RA OVC011 06/05 A2962 RMK AO2 RAB57 SLP034 P0000 T00610050 $,KNJM,2018-03-21T13:57:00Z,34.67,-77.02,6.1,5.0,310,4,,9.0,29.619095,1003.4,,TRUE,TRUE,TRUE,,,,,-RA,OVC,1100,,,,,,,MVFR,,,,,,0.005,,,,,,METAR,7.0
MMMM 211357Z 00000KT 6SM SKC 13/03 A3024 RMK HZY,MMMM,2018-03-21T13:57:00Z,19.85,-101.02,13.0,3.0,0,0,,6.0,30.239174,,,,,,,,,,,SKC,,,,,,,,VFR,,,,,,,,,,,,SPECI,1833.0
EQYG 211357Z AUTO 06007KT 10SM CLR 21/ A2996 RMK AO2 SLP142 T0211 $ ,EQYG,2018-03-21T13:57:00Z,,,21.1,,60,7,,10.0,29.958662,1014.2,,TRUE,TRUE,TRUE,,,,,,CLR,,,,,,,,VFR,,,,,,,,,,,,METAR,
KNYL 211357Z 00000KT 7SM SCT200 13/M03 A2991 RMK AO2 SLP128 FIRST T01331028,KNYL,2018-03-21T13:57:00Z,32.63,-114.62,13.3,-2.8,0,0,,7.0,29.911417,1012.8,,,TRUE,,,,,,,SCT,20000,,,,,,,VFR,,,,,,,,,,,,SPECI,65.0
KFLG 211357Z 00000KT 10SM OVC050 01/M06 A3010 RMK AO2 SLP158 T00111056,KFLG,2018-03-21T13:57:00Z,35.13,-111.67,1.1,-5.6,0,0,,10.0,30.100393,1015.8,,,TRUE,,,,,,,OVC,5000,,,,,,,VFR,,,,,,,,,,,,SPECI,2134.0
KNSI 211357Z 19009KT 10SM BKN022 BKN025 OVC170 14/09 A2997 RMK AO2 SLP143 T01440094 $,KNSI,2018-03-21T13:57:00Z,33.22,-119.45,14.4,9.4,190,9,,10.0,29.970472,1014.3,,,TRUE,TRUE,,,,,,BKN,2200,BKN,2500,OVC,17000,,,MVFR,,,,,,,,,,,,SPECI,154.0
ROTM 211356Z 34019G29KT 9999 SCT035 OVC055 14/10 A2995 RMK PK WND 34033/51 SLP130 STNPR29640 WND WRNG XWND ADV T01440100,ROTM,2018-03-21T13:56:00Z,26.27,127.75,14.4,10.0,340,19,29,6.21,29.949802,1013.0,,,,,,,,,,SCT,3500,OVC,5500,,,,,VFR,,,,,,,,,,,,METAR,75.0
KLHW 211356Z AUTO 28017G28KT 10SM CLR 12/00 A2982 RMK AO2 PK WND 28028/47 SLP101 T01161002 $,KLHW,2018-03-21T13:56:00Z,31.87,-81.57,11.6,-0.2,280,17,28,10.0,29.819881,1010.1,,TRUE,TRUE,TRUE,,,,,,CLR,,,,,,,,VFR,,,,,,,,,,,,METAR,14.0
KLRF 211356Z AUTO 30005KT 10SM CLR 08/02 A3015 RMK AO2 SLP213 T00760023,KLRF,2018-03-21T13:56:00Z,34.92,-92.15,7.6,2.3,300,5,,10.0,30.15059,1021.3,,TRUE,TRUE,,,,,,,CLR,,,,,,,,VFR,,,,,,,,,,,,METAR,95.0
KSVN 211356Z AUTO 28016G24KT 10SM FEW041 12/02 A2978 RMK AO2 PK WND 28034/16 SLP087 T01230016 $,KSVN,2018-03-21T13:56:00Z,32.02,-81.15,12.3,1.6,280,16,24,10.0,29.778543,1008.7,,TRUE,TRUE,TRUE,,,,,,FEW,4100,,,,,,,VFR,,,,,,,,,,,,METAR,13.0
KISO 211356Z 35006KT 2SM RA BKN009 OVC016 03/02 A2964 RMK AO2,KISO,2018-03-21T13:56:00Z,35.32,-77.62,3.0,2.0,350,6,,2.0,29.639763,,,,TRUE,,,,,,RA,BKN,900,OVC,1600,,,,,IFR,,,,,,,,,,,,METAR,29.0
KMTC 211356Z 03013KT 10SM OVC090 M00/M10 A2991 RMK AO2A SLP139 T10041096,KMTC,2018-03-21T13:56:00Z,42.62,-82.82,-0.4,-9.6,30,13,,10.0,29.911417,1013.9,,,TRUE,,,,,,,OVC,9000,,,,,,,VFR,,,,,,,,,,,,METAR,177.0
PAFE 211356Z AUTO 06004KT 10SM CLR M03/M04 A2988 RMK AO2 SLP131 T10331044 FZRANO,PAFE,2018-03-21T13:56:00Z,56.97,-133.92,-3.3,-4.4,60,4,,10.0,29.878937,1013.1,,TRUE,TRUE,,,,TRUE,,,CLR,,,,,,,,VFR,,,,,,,,,,,,METAR,9.0
PANV 211356Z AUTO 24005KT 10SM OVC050 M06/M06 A3060 RMK AO2 SNE25 SLP386 P0000 T10561061 FZRANO,PANV,2018-03-21T13:56:00Z,62.65,-160.18,-5.6,-6.1,240,5,,10.0,30.59941,1038.6,,TRUE,TRUE,,,,TRUE,,,OVC,5000,,,,,,,VFR,,,,,,0.005,,,,,,METAR,99.0
EGVA 211356Z AUTO 29012G16KT M M SCT045 10/M01 A3040 RMK AO2 SLP301 T00981013 RVRNO $,EGVA,2018-03-21T13:56:00Z,51.67,-1.77,9.8,-1.3,290,12,16,,30.398623,1030.1,,TRUE,TRUE,TRUE,,,,,,SCT,4500,,,,,,,,,,,,,,,,,,,SPECI,87.0
EGUN 211356Z AUTO 25011KT 9999 CLR 10/M04 A3036 RMK AO2 SLP285 T01041040 .,EGUN,2018-03-21T13:56:00Z,52.37,0.47,10.4,-4.0,250,11,,6.21,30.360237,1028.5,,TRUE,TRUE,,,,,,,CLR,,,,,,,,VFR,,,,,,,,,,,,METAR,10.0
EGUL 211356Z COR AUTO 27010KT 9999 CLR 10/M03 A3035 RMK AO2 SLP281 T00981035 $ COR 1418,EGUL,2018-03-21T13:56:00Z,52.42,0.57,9.8,-3.5,270,10,,6.21,30.351377,1028.1,TRUE,TRUE,TRUE,TRUE,,,,,,CLR,,,,,,,,VFR,,,,,,,,,,,,METAR,10.0
KMVN 211356Z AUTO VRB06KT 10SM CLR 02/M05 A3003 RMK AO2 SLP172 T00171050 FZRANO TSNO,KMVN,2018-03-21T13:56:00Z,38.32,-88.87,1.7,-5.0,0,6,,10.0,30.029528,1017.2,,TRUE,TRUE,,,TRUE,TRUE,,,CLR,,,,,,,,VFR,,,,,,,,,,,,METAR,146.0
PASD 211356Z 00000KT 10SM CLR M02/M03 A3072 RMK AO2 SLP404 T10171033,PASD,2018-03-21T13:56:00Z,55.33,-160.5,-1.7,-3.3,0,0,,10.0,30.720472,1040.4,,,TRUE,,,,,,,CLR,,,,,,,,VFR,,,,,,,,,,,,METAR,7.0
PAPM 211356Z AUTO 05006KT 10SM SCT002 OVC007 M03/M03 A3071 RMK AO2 UPB1257E38 SLP401 P0000 T10281033 FZRANO,PAPM,2018-03-21T13:56:00Z,59.02,-161.82,-2.8,-3.3,50,6,,10.0,30.708662,1040.1,,TRUE,TRUE,,,,TRUE,,,SCT,200,OVC,700,,,,,IFR,,,,,,0.005,,,,,,METAR,5.0
PAHY 211356Z AUTO 9SM CLR M02/M02 A2981 RMK AO2 SLP194 T10171022 FZRANO $,PAHY,2018-03-21T13:56:00Z,55.2,-132.83,-1.7,-2.2,,,,9.0,29.811024,1019.4,,TRUE,TRUE,TRUE,,,TRUE,,,CLR,,,,,,,,VFR,,,,,,,,,,,,METAR,1.0
PAGH 211356Z AUTO 28004KT 10SM CLR M23/M25 A3069 RMK AO2 SLP402 T12281250 FZRANO,PAGH,2018-03-21T13:56:00Z,66.88,-157.17,-22.8,-25.0,280,4,,10.0,30.690945,1040.2,,TRUE,TRUE,,,,TRUE,,,CLR,,,,,,,,VFR,,,,,,,,,,,,METAR,60.0
KMMT 211356Z 26018G30KT 10SM FEW035 08/M02 A2971 RMK AO2A PK WND 26030/45 SLP063 T00781023 $,KMMT,2018-03-21T13:56:00Z,33.92,-80.78,7.8,-2.3,260,18,30,10.0,29.71063,1006.3,,,TRUE,TRUE,,,,,,FEW,3500,,,,,,,VFR,,,,,,,,,,,,METAR,77.0
KGNA 211356Z AUTO 06004KT M03/M12 A3021 RMK AO1 SLP246 T10331117,KGNA,2018-03-21T13:56:00Z,47.75,-90.35,-3.3,-11.7,60,4,,,30.209646,1024.6,,TRUE,TRUE,,,,,,,,,,,,,,,,,,,,,,,,,,,METAR,185.0
KHRT 211356Z AUTO 29006KT 10SM CLR 13/07 A3004 RMK AO2 SLP174 T01300072 FZRANO $,KHRT,2018-03-21T13:56:00Z,30.42,-86.67,13.0,7.2,290,6,,10.0,30.041338,1017.4,,TRUE,TRUE,TRUE,,,TRUE,,,CLR,,,,,,,,VFR,,,,,,,,,,,,SPECI,12.0
KEND 211356Z COR 00000KT 10SM CLR 04/03 A3018 RMK AO2A SLP226 T00440034 $ COR 1412,KEND,2018-03-21T13:56:00Z,36.32,-97.92,4.4,3.4,0,0,,10.0,30.180119,1022.6,TRUE,,TRUE,TRUE,,,,,,CLR,,,,,,,,VFR,,,,,,,,,,,,SPECI,398.0
KD07 211356Z AUTO 25006KT M02/M07 A2999 RMK AO1 SLP190 T10221067,KD07,2018-03-21T13:56:00Z,45.03,-102.02,-2.2,-6.7,250,6,,,29.991142,1019.0,,TRUE,TRUE,,,,,,,,,,,,,,,,,,,,,,,,,,,METAR,784.0
KSPD 211356Z AUTO 24005KT 01/M07 A3011 RMK AO1 SLP197 T00111067,KSPD,2018-03-21T13:56:00Z,37.28,-102.62,1.1,-6.7,240,5,,,30.109253,1019.7,,TRUE,TRUE,,,,,,,,,,,,,,,,,,,,,,,,,,,SPECI,1335.0
KFFO 211356Z 34015KT 10SM OVC012 M01/M04 A2976 RMK AO2A SLP088 P0000 T10131038,KFFO,2018-03-21T13:56:00Z,39.82,-84.03,-1.3,-3.8,340,15,,10.0,29.760826,1008.8,,,TRUE,,,,,,,OVC,1200,,,,,,,MVFR,,,,,,0.005,,,,,,METAR,251.0
MUGM 211356Z 36005KT 9999 FEW030 BKN280 28/22 A3003 RMK SLP168 T02780222,MUGM,2018-03-21T13:56:00Z,19.9,-75.2,27.8,22.2,360,5,,6.21,30.029528,1016.8,,,,,,,,,,FEW,3000,BKN,28000,,,,,VFR,,,,,,,,,,,,METAR,17.0
KNSE 211356Z 30011KT 10SM FEW028 11/08 A3007 RMK AO2 SLP170 T01060078 $,KNSE,2018-03-21T13:56:00Z,30.73,-87.02,10.6,7.8,300,11,,10.0,30.070866,1017.0,,,TRUE,TRUE,,,,,,FEW,2800,,,,,,,VFR,,,,,,,,,,,,METAR,61.0
KNXF 211356Z AUTO 05005KT 10SM CLR 11/08 A2999 RMK AO2 SLP243 T01110083 $,KNXF,2018-03-21T13:56:00Z,33.28,-117.45,11.1,8.3,50,5,,10.0,29.991142,1024.3,,TRUE,TRUE,TRUE,,,,,,CLR,,,,,,,,VFR,,,,,,,,,,,,SPECI,27.0
KADW 211356Z 01010KT 1/4SM +SN OVC004 M01/M01 A2962 RMK AO2A SLP040 SNINCR 1/3 WND DATA ESTMD P0001 T10081011 $,KADW,2018-03-21T13:56:00Z,38.82,-76.87,-0.8,-1.1,10,10,,0.25,29.619095,1004.0,,,TRUE,TRUE,,,,,+SN,OVC,400,,,,,,,LIFR,,,,,,0.01,,,,3.0,,METAR,86.0
KP60 211356Z AUTO 00000KT M07/M09 A2996 RMK AO1 SLP180 T10721089 $,KP60,2018-03-21T13:56:00Z,44.55,-110.42,-7.2,-8.9,0,0,,,29.958662,1018.0,,TRUE,TRUE,TRUE,,,,,,,,,,,,,,,,,,,,,,,,,,SPECI,2388.0
KCEF 211356Z 02009KT 10SM OVC120 00/M10 A2979 RMK AO2A SLP096 T00021103,KCEF,2018-03-21T13:56:00Z,42.2,-72.52,0.2,-10.3,20,9,,10.0,29.790354,1009.6,,,TRUE,,,,,,,OVC,12000,,,,,,,VFR,,,,,,,,,,,,SPECI,75.0
MMOX 211356Z 02003KT 7SM FEW020 17/12 A3027 RMK 8/500 HZY,MMOX,2018-03-21T13:56:00Z,17.0,-96.72,17.0,12.0,20,3,,7.0,30.268702,,,,,,,,,,,FEW,2000,,,,,,,VFR,,,,,,,,,,,,METAR,1528.0
KBIX 211356Z COR AUTO 30010KT 10SM CLR 12/03 A3013 RMK SLP034 WND DATA ETSMD ALSTG/SLP ESTMD T01190028 COR 1405,KBIX,2018-03-21T13:56:00Z,30.42,-88.92,11.9,2.8,300,10,,10.0,30.129921,1003.4,TRUE,TRUE,,,,,,,,CLR,,,,,,,,VFR,,,,,,,,,,,,SPECI,10.0
BGTL 211356Z 10005KT 6000 BR FEW015 SCT200 M28/M31 A2986 RMK AO2A VIS 440 RWY26 SLPNO ALSTG ESTMD T12781307 TSNO $,BGTL,2018-03-21T13:56:00Z,76.53,-68.7,-27.8,-30.7,100,5,,3.73,29.861221,,,,TRUE,TRUE,,TRUE,,,BR,FEW,1500,SCT,20000,,,,,MVFR,,,,,,,,,,,,SPECI,77.0
KNXP 211356Z AUTO 32005KT 10SM CLR 11/01 A3004 RMK AO2 SLP148 T01060011,KNXP,2018-03-21T13:56:00Z,34.28,-116.17,10.6,1.1,320,5,,10.0,30.041338,1014.8,,TRUE,TRUE,,,,,,,CLR,,,,,,,,VFR,,,,,,,,,,,,METAR,626.0
KSMP 211356Z AUTO VRB03KT 10SM CLR M01/M04 A2970 RMK AO2 SLP074 T10061044 $,KSMP,2018-03-21T13:56:00Z,47.28,-121.33,-0.6,-4.4,0,3,,10.0,29.698818,1007.4,,TRUE,TRUE,TRUE,,,,,,CLR,,,,,,,,VFR,,,,,,,,,,,,SPECI,1208.0
ETEB 211356Z AUTO 34006KT 9999 CLR 02/M10 A3028 RMK AO2 SLP296 T00221097 $,ETEB,2018-03-21T13:56:00Z,49.32,10.62,2.2,-9.7,340,6,,6.21,30.280512,1029.6,,TRUE,TRUE,TRUE,,,,,,CLR,,,,,,,,VFR,,,,,,,,,,,,METAR,467.0
KNBG 211355Z VRB03KT 10SM BKN250 13/09 A3015 RMK AO2 SLP209 T01330094 $,KNBG,2018-03-21T13:55:00Z,29.82,-90.02,13.3,9.4,0,3,,10.0,30.15059,1020.9,,,TRUE,TRUE,,,,,,BKN,25000,,,,,,,VFR,,,,,,,,,,,,METAR,1.0
PAEH 211355Z AUTO 18006KT 10SM FEW014 00/M01 A3068 RMK AO2 SLP401 T10051015,PAEH,2018-03-21T13:55:00Z,58.65,-162.07,-0.5,-1.5,180,6,,10.0,30.679134,1040.1,,TRUE,TRUE,,,,,,,FEW,1400,,,,,,,VFR,,,,,,,,,,,,METAR,161.0
ORBD 211355Z 32013KT 4400 DU BKN030 OVC040 27/02 A2997 RMK DU BKN030 OVC040 WND DATA ALSTG ESTMD,ORBD,2018-03-21T13:55:00Z,33.93,44.37,27.0,2.0,320,13,,2.73,29.970472,,,,,,,,,,DU,BKN,3000,OVC,4000,,,,,IFR,,,,,,,,,,,,METAR,49.0
KBOW 211355Z 29016G24KT 10SM BKN037 16/08 A2999,KBOW,2018-03-21T13:55:00Z,27.93,-81.77,16.0,8.0,290,16,24,10.0,29.991142,,,,,,,,,,,BKN,3700,,,,,,,VFR,,,,,,,,,,,,METAR,39.0
RJOI 211355Z 31003KT 8000 -SHRA BR BKN013 OVC020 08/08 A2960 RMK SLP022 LAST P0003 T00830078,RJOI,2018-03-21T13:55:00Z,34.13,132.22,8.3,7.8,310,3,,4.97,29.601377,1002.2,,,,,,,,,-SHRA BR,BKN,1300,OVC,2000,,,,,MVFR,,,,,,0.03,,,,,,METAR,2.0
KFTG 211355Z 19006KT 10SM FEW110 BKN220 04/M08 A3003,KFTG,2018-03-21T13:55:00Z,39.78,-104.55,4.0,-8.0,190,6,,10.0,30.029528,,,,,,,,,,,FEW,11000,BKN,22000,,,,,VFR,,,,,,,,,,,,METAR,1675.0
MUSC 211355Z 25009KT 9000 FEW025 26/21 Q1016,MUSC,2018-03-21T13:55:00Z,22.5,-79.95,26.0,21.0,250,9,,5.59,30.0,,,,,,,,,,,FEW,2500,,,,,,,VFR,,,,,,,,,,,,METAR,103.0
MUHA 211355Z 24009KT 9000 FEW025 26/23 Q1016,MUHA,2018-03-21T13:55:00Z,22.97,-82.42,26.0,23.0,240,9,,5.59,30.0,,,,,,,,,,,FEW,2500,,,,,,,VFR,,,,,,,,,,,,METAR,64.0
TNCB 211355Z AUTO 10016KT 070V140 9999 // SCT016/// 29/23 Q1015 RE//,TNCB,2018-03-21T13:55:00Z,12.13,-68.28,29.0,23.0,100,16,,6.21,29.970472,,,TRUE,,,,,,,,SCT,1600,,,,,,,VFR,,,,,,,,,,,,METAR,6.0
KDRA 211355Z AUTO 03004KT 10SM CLR 08/01 A2996 RMK AO2 SLP123 T00780011,KDRA,2018-03-21T13:55:00Z,36.62,-116.03,7.8,1.1,30,4,,10.0,29.958662,1012.3,,TRUE,TRUE,,,,,,,CLR,,,,,,,,VFR,,,,,,,,,,,,METAR,1006.0
LICT 211355Z 30008KT 9999 -RA SCT015 SCT040 12/10 Q1009 RMK OVC BKN070 VIS MIN 9999 WIND THR13 28008KT BLU,LICT,2018-03-21T13:55:00Z,37.92,12.5,12.0,10.0,300,8,,6.21,29.793306,,,,,,,,,,-RA,SCT,1500,SCT,4000,,,,,VFR,,,,,,,,,,,,METAR,7.0
LICG 211355Z 31012KT 9999 SCT020 10/08 Q1009 RMK OVC SCT060 VIS MIN 9999 WIND THR08 /////KT WIND THR21 31012KT BLU,LICG,2018-03-21T13:55:00Z,36.82,11.97,10.0,8.0,310,12,,6.21,29.793306,,,,,,,,,,,SCT,2000,,,,,,,VFR,,,,,,,,,,,,METAR,191.0
LIMS 211355Z 10010KT 060V130 9999 FEW050 07/M02 Q1017 RMK BKN SCT180 VIS MIN 9999 WIND THR30 08011KT BLU,LIMS,2018-03-21T13:55:00Z,44.92,9.72,7.0,-2.0,100,10,,6.21,30.029528,,,,,,,,,,,FEW,5000,,,,,,,VFR,,,,,,,,,,,,METAR,138.0
LIPF 211355Z /////KT CAVOK 09/M04 Q1018 RMK SKC VIS MIN 9999,LIPF,2018-03-21T13:55:00Z,44.82,11.62,9.0,-4.0,,,,6.21,30.059055,,,,,,,,,,,CAVOK,,,,,,,,VFR,,,,,,,,,,,,METAR,10.0
LIPC 211355Z 03008KT 9999 FEW040 07/M04 Q1017 RMK BKN BKN090 VIS MIN 9999 WIND THR11 02006KT WIND THR29 /////KT BLU,LIPC,2018-03-21T13:55:00Z,44.22,12.3,7.0,-4.0,30,8,,6.21,30.029528,,,,,,,,,,,FEW,4000,,,,,,,VFR,,,,,,,,,,,,METAR,10.0
LIQW 211355Z 03015G27KT 350V080 CAVOK 11/M07 Q1015 RMK FEW FEW070 VIS MIN 9999 WIND THR18 03013G23KT BLU,LIQW,2018-03-21T13:55:00Z,44.07,9.97,11.0,-7.0,30,15,27,6.21,29.970472,,,,,,,,,,,CAVOK,,,,,,,,VFR,,,,,,,,,,,,METAR,10.0
LIRV 211355Z 04020G33KT 9999 FEW026 07/M01 Q1009 RMK SCT SCT060 MON E SE LIB NC VIS MIN 9999 BLU,LIRV,2018-03-21T13:55:00Z,42.42,12.07,7.0,-1.0,40,20,33,6.21,29.793306,,,,,,,,,,,FEW,2600,,,,,,,VFR,,,,,,,,,,,,METAR,300.0
LIRS 211355Z 03020G30KT CAVOK 08/M03 Q1012 RMK SKC VIS MIN 9999 WIND THR03 03021G31KT WIND THR21 04021G31KT BLU,LIRS,2018-03-21T13:55:00Z,42.75,11.07,8.0,-3.0,30,20,30,6.21,29.88189,,,,,,,,,,,CAVOK,,,,,,,,VFR,,,,,,,,,,,,METAR,7.0
LIRM 211355Z /////KT 9999 FEW020 BKN030 11/07 Q1009 RMK BKN VIS MIN 9999 WIND THR06 0501KT BLU,LIRM,2018-03-21T13:55:00Z,41.03,14.07,11.0,7.0,,,,6.21,29.793306,,,,,,,,,,,FEW,2000,BKN,3000,,,,,MVFR,,,,,,,,,,,,SPECI,10.0
LIRL 211355Z 21007KT 9999 FEW020 BKN040 13/07 Q1008 RMK OVC MON LIB NC VIS MIN 9999 WIND THR12 21005KT WIND THR30 /////KT BLU,LIRL,2018-03-21T13:55:00Z,41.53,12.9,13.0,7.0,210,7,,6.21,29.763779,,,,,,,,,,,FEW,2000,BKN,4000,,,,,VFR,,,-0.5,,,,,,,,,METAR,26.0
LIRH 211355Z 14010KT 9999 FEW030CB SCT035 13/01 Q1008 RMK BKN MON LIB NC VIS MIN 9999 WIND THR16 16010KT BLU,LIRH,2018-03-21T13:55:00Z,41.65,13.3,13.0,1.0,140,10,,6.21,29.763779,,,,,,,,,,,FEW,3000,SCT,3500,,,,,VFR,,,,,,,,,,,,METAR,181.0
LIRG 211355Z 06010KT 9999 BKN035 12/01 Q1008 RMK BKN MON NE LIB NC VIS MIN 9999 BLU,LIRG,2018-03-21T13:55:00Z,42.0,12.72,12.0,1.0,60,10,,6.21,29.763779,,,,,,,,,,,BKN,3500,,,,,,,VFR,,,,,,,,,,,,METAR,89.0
PTTP 211355Z 02003KT 15SM BKN018 BKN300 25/24 A2971 RMK SLP059 T02500241,PTTP,2018-03-21T13:55:00Z,6.97,158.22,25.0,24.1,20,3,,15.0,29.71063,1005.9,,,,,,,,,,BKN,1800,BKN,30000,,,,,MVFR,,,,,,,,,,,,METAR,2.0
KVBG 211355Z 14015KT 7SM -RA FEW005 BKN018 OVC022 12/11 A2991 RMK AO2A SLP132 P0005 T01210112 FIRST,KVBG,2018-03-21T13:55:00Z,34.73,-120.58,12.1,11.2,140,15,,7.0,29.911417,1013.2,,,TRUE,,,,,,-RA,FEW,500,BKN,1800,OVC,2200,,,MVFR,,,,,,0.05,,,,,,METAR,112.0
OAKN 211355Z VRB02KT 9999 CLR 18/09 A2998 RMK AO2A SLP126 Q1015 PA3249 DA4513,OAKN,2018-03-21T13:55:00Z,31.5,65.83,18.0,9.0,0,2,,6.21,29.97933,1012.6,,,TRUE,,,,,,,CLR,,,,,,,,VFR,,,,,,,,,,,,SPECI,1010.0
LIPI 211355Z 06009KT 9999 FEW060 11/M04 Q1017 RMK SCT VIS MIN 9999 WIND THR06 06009KT WIND THR24 06010KT BLU,LIPI,2018-03-21T13:55:00Z,45.97,13.05,11.0,-4.0,60,9,,6.21,30.029528,,,,,,,,,,,FEW,6000,,,,,,,VFR,,,,,,,,,,,,METAR,53.0
LIPA 211355Z 11005KT 9999 FEW080 11/M08 Q1017 RMK SCT SCT200 VIS MIN 9999 WIND THR05 /////KT WIND THR23 /////KT A3005 BLU,LIPA,2018-03-21T13:55:00Z,46.02,12.58,11.0,-8.0,110,5,,6.21,30.029528,,,,,,,,,,,FEW,8000,,,,,,,VFR,,,,,,,,,,,,METAR,126.0
LIMY 211355Z 33007KT CAVOK 05/M03 Q1016 RMK BKN BKN070 VAL NIL VIS MIN 9999,LIMY,2018-03-21T13:55:00Z,44.25,7.78,5.0,-3.0,330,7,,6.21,30.0,,,,,,,,,,,CAVOK,,,,,,,,VFR,,,,,,,,,,,,METAR,1742.0
LIMV 211355Z /////KT 9999 FEW020 04/M09 Q1015 RMK BKN SCT060 BKN200 MON LIB VAL NIL VIS MIN 9999,LIMV,2018-03-21T13:55:00Z,44.55,8.92,4.0,-9.0,,,,6.21,29.970472,,,,,,,,,,,FEW,2000,,,,,,,VFR,,,,,,,,,,,,METAR,475.0
LIMU 211355Z 34013G28KT CAVOK 10/M05 Q1015 RMK SCT SCT200 QUK 4 QUL 1 E VIS MAR 25 KM VIS MIN 9999,LIMU,2018-03-21T13:55:00Z,43.95,8.17,10.0,-5.0,340,13,28,6.21,29.970472,,,,,,,,,,,CAVOK,,,,,,,,VFR,,,,,,,,,,,,METAR,221.0
LIMT 211355Z 36022KT CAVOK M02/M10 Q1012 RMK OVC OVC200 MON LIB VAL NIL VIS MIN 9999,LIMT,2018-03-21T13:55:00Z,44.47,9.92,-2.0,-10.0,360,22,,6.21,29.88189,,,,,,,,,,,CAVOK,,,,,,,,VFR,,,,,,,,,,,,METAR,1040.0
LIMK 211355Z 28002KT 9999 FEW030 04/M00 Q1016 RMK BKN BKN140 VAL NIL VIS MIN 9999,LIMK,2018-03-21T13:55:00Z,45.02,7.72,4.0,0.0,280,2,,6.21,30.0,,,,,,,,,,,FEW,3000,,,,,,,VFR,,,,,,,,,,,,METAR,710.0
LIMH 211355Z /////KT 9999 FEW040 M19/M21 Q1004 RMK FEW MON LIB VAL CLD SCT VIS MIN 9999,LIMH,2018-03-21T13:55:00Z,45.93,7.7,-19.0,-21.0,,,,6.21,29.64567,,,,,,,,,,,FEW,4000,,,,,,,VFR,,,,,,,,,,,,METAR,3488.0
LIPL 211355Z 21004KT 9999 SCT040 09/M07 Q1018 RMK SCT VIS MIN 9999 WIND THR31 23003KT WIND THR13 23003KT BLU,LIPL,2018-03-21T13:55:00Z,45.42,10.27,9.0,-7.0,210,4,,6.21,30.059055,,,,,,,,,,,SCT,4000,,,,,,,VFR,,,,,,,,,,,,METAR,92.0
LIBN 211355Z 21007KT 9999 SCT030 14/09 Q1010 RMK OVC BKN100 VIS MIN 9999 WIND THR14 20007KT WIND THR32 20005KT BLU,LIBN,2018-03-21T13:55:00Z,40.22,18.13,14.0,9.0,210,7,,6.21,29.822834,,,,,,,,,,,SCT,3000,,,,,,,VFR,,,0.7,,,,,,,,,METAR,61.0
LIBA 211355Z 30016G26KT 9999 OVC015 07/03 Q1011 RMK OVC VIS MIN 9999 WIND THR11 30019KT WIND THR29 /////KT WHT,LIBA,2018-03-21T13:55:00Z,41.52,15.72,7.0,3.0,300,16,26,6.21,29.852362,,,,,,,,,,,OVC,1500,,,,,,,MVFR,,,,,,,,,,,,METAR,60.0
LIBQ 211355Z 21013KT 0000 -SN FZFG VV/// 01/M00 Q1009 RMK MON INVIS VAL INVIS VIS MIN 0000,LIBQ,2018-03-21T13:55:00Z,39.32,16.38,1.0,0.0,210,13,,0.0,29.793306,,,,,,,,,,-SN FZFG,OVX,0,,,,,,,LIFR,,,,,,,,,,,,METAR,1720.0
LIBV 211355Z 33009KT 9999 FEW025 BKN040 08/05 Q1009 RMK OVC VIS MIN 9999 WIND THR32 35012KT WIND THR14 33012KT BLU,LIBV,2018-03-21T13:55:00Z,40.77,16.92,8.0,5.0,330,9,,6.21,29.793306,,,,,,,,,,,FEW,2500,BKN,4000,,,,,VFR,,,,,,,,,,,,METAR,350.0
LIED 211355Z 25007KT 8000 -RA FEW006 SCT015 BKN030 10/07 Q1008 RMK OVC VIS MIN 8000 WIND THR35 25009KT WIND THR17 /////KT BLU,LIED,2018-03-21T13:55:00Z,39.35,8.97,10.0,7.0,250,7,,4.97,29.763779,,,,,,,,,,-RA,FEW,600,SCT,1500,BKN,3000,,,MVFR,,,,,,,,,,,,METAR,28.0
LIEB 211355Z 03016KT 8000 OVC025 07/04 Q1008 RMK OVC QUK 3 QUL 0 VIS MAR 0 M MON INVIS VIS MIN 8000,LIEB,2018-03-21T13:55:00Z,39.93,9.72,7.0,4.0,30,16,,4.97,29.763779,,,,,,,,,,,OVC,2500,,,,,,,MVFR,,,,,,,,,,,,METAR,156.0
LICZ 211355Z /////KT 9999 FEW045 18/03 Q1009 RMK BKN BKN140 VIS MIN 9999 WIND THR28 08010KT WIND THR10 30002KT A2981 BLU,LICZ,2018-03-21T13:55:00Z,37.38,14.92,18.0,3.0,,,,6.21,29.793306,,,,,,,,,,,FEW,4500,,,,,,,VFR,,,,,,,,,,,,SPECI,22.0
LICF 211355Z 04008G18KT 9999 FEW040 16/09 Q1009 RMK BKN BKN080 QUK 2 QUL 0 VIS MAR 20 KM MON LIB NC VIS MIN 9999,LICF,2018-03-21T13:55:00Z,38.2,15.55,16.0,9.0,40,8,18,6.21,29.793306,,,,,,,,,,,FEW,4000,,,,,,,VFR,,,,,,,,,,,,METAR,51.0
LIBY 211355Z 21006KT CAVOK 13/11 Q1009 RMK OVC OVC070 QUK 2 QUL 1 SW VIS MAR 15 KM VIS MIN 9999,LIBY,2018-03-21T13:55:00Z,39.82,18.35,13.0,11.0,210,6,,6.21,29.793306,,,,,,,,,,,CAVOK,,,,,,,,VFR,,,,,,,,,,,,METAR,112.0
KNKX 211355Z 03003KT 10SM CLR 11/06 A2999 RMK AO2 SLP151 T01110056,KNKX,2018-03-21T13:55:00Z,32.87,-117.13,11.1,5.6,30,3,,10.0,29.991142,1015.1,,,TRUE,,,,,,,CLR,,,,,,,,VFR,,,,,,,,,,,,SPECI,146.0
LIQC 211355Z 24003KT 9999 SCT025 SCT035 13/11 Q1008 RMK BKN QUK 3 QUL 3 SW VIS MAR 20 KM VIS MIN 9999,LIQC,2018-03-21T13:55:00Z,40.55,14.2,13.0,11.0,240,3,,6.21,29.763779,,,,,,,,,,,SCT,2500,SCT,3500,,,,,VFR,,,,,,,,,,,,METAR,269.0
LIQO 211355Z 06023KT CAVOK 08/M04 Q1009 RMK FEW FEW060 VAL NIL NC VIS MIN 9999,LIQO,2018-03-21T13:55:00Z,42.37,11.17,8.0,-4.0,60,23,,6.21,29.793306,,,,,,,,,,,CAVOK,,,,,,,,VFR,,,,,,,,,,,,METAR,632.0
LIRE 211355Z /////KT 9999 FEW030 BKN040 13/05 Q1008 RMK BKN VIS MIN 9999 WIND THR13 25007KT WIND THR31 24007KT BLU,LIRE,2018-03-21T13:55:00Z,41.63,12.42,13.0,5.0,,,,6.21,29.763779,,,,,,,,,,,FEW,3000,BKN,4000,,,,,VFR,,,,,,,,,,,,METAR,12.0
LIRK 211355Z AUTO /////KT //// ///// Q////,LIRK,2018-03-21T13:55:00Z,42.47,12.97,,,,,,,,,,TRUE,,,,,,,,,,,,,,,,,,,,,,,,,,,,METAR,1875.0
LIRT 211355Z 36004KT 0000 FZFG VV/// M00/M01 Q1010 RMK MON INVIS VAL INVIS VIS MIN 0000,LIRT,2018-03-21T13:55:00Z,41.03,15.22,0.0,-1.0,360,4,,0.0,29.822834,,,,,,,,,,FZFG,OVX,0,,,,,,,LIFR,,,,,,,,,,,,METAR,1093.0
LIVT 211355Z 07013G39KT CAVOK 08/M10 Q1018 RMK SCT SCT070 QUK 3 QUL 3 NE VIS MAR 20 KM VIS MIN 9999,LIVT,2018-03-21T13:55:00Z,45.68,13.75,8.0,-10.0,70,13,39,6.21,30.059055,,,,,,,,,,,CAVOK,,,,,,,,VFR,,,,,,,,,,,,METAR,20.0
LIVR 211355Z 03011KT 9999 SCT040 M07/M16 Q1011 RMK SCT MON LIB VIS MIN 9999,LIVR,2018-03-21T13:55:00Z,46.28,11.77,-7.0,-16.0,30,11,,6.21,29.852362,,,,,,,,,,,SCT,4000,,,,,,,VFR,,,,,,,,,,,,METAR,2006.0
LIVP 211355Z 35008KT CAVOK M09/M17 Q1010 RMK SCT FEW060 MON LIB VAL NIL VIS MIN 9999,LIVP,2018-03-21T13:55:00Z,46.15,11.03,-9.0,-17.0,350,8,,6.21,29.822834,,,,,,,,,,,CAVOK,,,,,,,,VFR,,,,,,,,,,,,METAR,2129.0
LIVO 211355Z 10005KT 9999 BKN036 02/M07 Q1017 RMK BKN VIS MIN 9999,LIVO,2018-03-21T13:55:00Z,46.5,13.57,2.0,-7.0,100,5,,6.21,30.029528,,,,,,,,,,,BKN,3600,,,,,,,VFR,,,,,,,,,,,,METAR,778.0
LIVF 211355Z 03008KT 9999 BKN014 00/M04 Q1013 RMK OVC BKN080 MON CIME INC NC VAL NIL VIS MIN 9999,LIVF,2018-03-21T13:55:00Z,43.52,12.72,0.0,-4.0,30,8,,6.21,29.911417,,,,,,,,,,,BKN,1400,,,,,,,MVFR,,,,,,,,,,,,METAR,574.0
LIVE 211355Z 01008G23KT CAVOK M01/M16 Q1015 RMK SKC VIS MIN 9999,LIVE,2018-03-21T13:55:00Z,46.85,10.5,-1.0,-16.0,10,8,23,6.21,29.970472,,,,,,,,,,,CAVOK,,,,,,,,VFR,,,,,,,,,,,,METAR,1800.0
LIVD 211355Z ///08KT CAVOK 00/M18 Q1014 RMK SCT SCT220 VIS MIN 9999,LIVD,2018-03-21T13:55:00Z,46.72,12.22,0.0,-18.0,,,,6.21,29.940945,,,,,,,,,,,CAVOK,,,,,,,,VFR,,,,,,,,,,,,METAR,1226.0
LIVC 211355Z 05044KT 0000 FZFG VV/// M10/M11 Q1005 RMK MON INVIS VAL INVIS VIS MIN 0000,LIVC,2018-03-21T13:55:00Z,44.2,10.68,-10.0,-11.0,50,44,,0.0,29.675198,,,,,,,,,,FZFG,OVX,0,,,,,,,LIFR,,,,,,,,,,,,METAR,2173.0
LIRX 211355Z 36013KT 9999 SCT009 07/M00 Q1009 RMK BKN SCT060 VIS MIN 9999 VIS MAR 20 KM,LIRX,2018-03-21T13:55:00Z,42.73,10.38,7.0,0.0,360,13,,6.21,29.793306,,,,,,,,,,,SCT,900,,,,,,,VFR,,,,,,,,,,,,METAR,297.0
KFBL 211355Z AUTO 00000KT 5SM BR OVC060 M04/M05 A3015 RMK AO2,KFBL,2018-03-21T13:55:00Z,44.33,-93.32,-4.0,-5.0,0,0,,5.0,30.15059,,,TRUE,TRUE,,,,,,BR,OVC,6000,,,,,,,MVFR,,,,,,,,,,,,SPECI,322.0
KCKC 211355Z AUTO 04004KT 10SM SCT070 SCT080 M09/M16 A3013 RMK AO2,KCKC,2018-03-21T13:55:00Z,47.83,-90.37,-9.0,-16.0,40,4,,10.0,30.129921,,,TRUE,TRUE,,,,,,,SCT,7000,SCT,8000,,,,,VFR,,,,,,,,,,,,SPECI,548.0
TNCE 211355Z AUTO 08011KT 050V120 //// // ///////// 28/23 Q1018 RE//,TNCE,2018-03-21T13:55:00Z,17.47,-62.97,28.0,23.0,80,11,,,30.059055,,,TRUE,,,,,,,,,,,,,,,,,,,,,,,,,,,,METAR,39.0
LIPS 211355Z 08007KT CAVOK 10/M03 Q1017 RMK SCT SCT200 VIS MIN 9999 WIND THR26 /////KT WIND THR08 10005KT BLU,LIPS,2018-03-21T13:55:00Z,45.67,12.08,10.0,-3.0,80,7,,6.21,30.029528,,,,,,,,,,,CAVOK,,,,,,,,VFR,,0.5,,,,,,,,,,METAR,41.0
LIMN 211355Z 16005KT 110V250 9999 FEW025 08/M02 Q1018 RMK SCT VIS MIN 9999 BLU,LIMN,2018-03-21T13:55:00Z,45.52,8.67,8.0,-2.0,160,5,,6.21,30.059055,,,,,,,,,,,FEW,2500,,,,,,,VFR,,,,,,,,,,,,METAR,169.0
MMMD 211354Z 03004KT 7SM OVC020 25/17 A3002 RMK 8/5//,MMMD,2018-03-21T13:54:00Z,20.95,-89.65,25.0,17.0,30,4,,7.0,30.02067,,,,,,,,,,,OVC,2000,,,,,,,MVFR,,,,,,,,,,,,METAR,10.0
PADE 211353Z AUTO 10004KT 10SM CLR M23/M25 A3063 RMK AO2 SLP373 T12281250 TSNO $,PADE,2018-03-21T13:53:00Z,66.07,-162.77,-22.8,-25.0,100,4,,10.0,30.628937,1037.3,,TRUE,TRUE,TRUE,,TRUE,,,,CLR,,,,,,,,VFR,,,,,,,,,,,,METAR,5.0
PTKR 211353Z 36004KT 15SM SCT310 27/24 A2976 RMK SLP079 T02690238,PTKR,2018-03-21T13:53:00Z,7.33,134.48,26.9,23.8,360,4,,15.0,29.760826,1007.9,,,,,,,,,,SCT,31000,,,,,,,VFR,,,,,,,,,,,,METAR,30.0
KP68 211353Z AUTO 00000KT M01/M04 A2993 RMK AO1 SLP121 T10111039,KP68,2018-03-21T13:53:00Z,39.6,-116.0,-1.1,-3.9,0,0,,,29.929134,1012.1,,TRUE,TRUE,,,,,,,,,,,,,,,,,,,,,,,,,,,METAR,1809.0
KBCT 211353Z 32014G20KT 10SM SCT035 21/14 A2996,KBCT,2018-03-21T13:53:00Z,26.38,-80.1,21.0,14.0,320,14,20,10.0,29.958662,,,,,,,,,,,SCT,3500,,,,,,,VFR,,,,,,,,,,,,METAR,4.0
KCQC 211353Z AUTO 06003KT 10SM CLR 02/M13 A3013 RMK AO2 SLP183 T00171128,KCQC,2018-03-21T13:53:00Z,35.0,-105.67,1.7,-12.8,60,3,,10.0,30.129921,1018.3,,TRUE,TRUE,,,,,,,CLR,,,,,,,,VFR,,,,,,,,,,,,METAR,2160.0
MMEP 211353Z 00000KT 12SM SKC 08/06 A3002,MMEP,2018-03-21T13:53:00Z,21.42,-104.85,8.0,6.0,0,0,,12.0,30.02067,,,,,,,,,,,SKC,,,,,,,,VFR,,,,,,,,,,,,METAR,922.0
PAQT 211353Z AUTO 25014KT 5SM BR OVC065 M24/M26 A3070 RMK SLP397 T12391261 TSNO VIA AUTODIAL,PAQT,2018-03-21T13:53:00Z,70.22,-151.0,-23.9,-26.1,250,14,,5.0,30.699802,1039.7,,TRUE,,,,TRUE,,,BR,OVC,6500,,,,,,,MVFR,,,,,,,,,,,,SPECI,12.0
OITU 211353Z 36010KT CAVOK 14/M01 Q1016,OITU,2018-03-21T13:53:00Z,39.33,44.43,14.0,-1.0,360,10,,6.21,30.0,,,,,,,,,,,CAVOK,,,,,,,,VFR,,,,,,,,,,,,METAR,1364.0
PKMR 211352Z 08007KT 15SM SCT014 BKN050 BKN120 OVC300 25/23 A2972 RMK SLP066 T02460234,PKMR,2018-03-21T13:52:00Z,7.08,171.38,24.6,23.4,80,7,,15.0,29.719488,1006.6,,,,,,,,,,SCT,1400,BKN,5000,BKN,12000,OVC,30000,VFR,,,,,,,,,,,,METAR,4.0
MMQT 211352Z 00000KT 5SM SCT250 12/10 A3032 RMK 8/002 HZY,MMQT,2018-03-21T13:52:00Z,20.62,-100.18,12.0,10.0,0,0,,5.0,30.318897,,,,,,,,,,,SCT,25000,,,,,,,MVFR,,,,,,,,,,,,METAR,1919.0
MUCM 211352Z 23006KT 190V280 9000 FEW016 27/20 Q1017,MUCM,2018-03-21T13:52:00Z,21.42,-77.85,27.0,20.0,230,6,,5.59,30.029528,,,,,,,,,,,FEW,1600,,,,,,,VFR,,,,,,,,,,,,METAR,122.0
MUVR 211352Z 22006KT 180V250 9000 FEW020 25/24 Q1016,MUVR,2018-03-21T13:52:00Z,23.03,-81.43,25.0,24.0,220,6,,5.59,30.0,,,,,,,,,,,FEW,2000,,,,,,,VFR,,,,,,,,,,,,METAR,65.0
MMLM 211351Z 00000KT 8SM SKC 14/11 A2987 RMK RTS,MMLM,2018-03-21T13:51:00Z,25.67,-109.07,14.0,11.0,0,0,,8.0,29.870079,,,,,,,,,,,SKC,,,,,,,,VFR,,,,,,,,,,,,METAR,4.0
KOCF 211351Z 30014G18KT 10SM CLR 14/04 A2997 RMK AO2 SLP153 T01440039,KOCF,2018-03-21T13:51:00Z,29.17,-82.22,14.4,3.9,300,14,18,10.0,29.970472,1015.3,,,TRUE,,,,,,,CLR,,,,,,,,VFR,,,,,,,,,,,,METAR,27.0
MMCM 211351Z 01005KT 7SM SKC 25/23 A2998,MMCM,2018-03-21T13:51:00Z,18.5,-88.33,25.0,23.0,10,5,,7.0,29.97933,,,,,,,,,,,SKC,,,,,,,,VFR,,,,,,,,,,,,METAR,12.0
PTKK 211351Z 11010KT 15SM FEW014 BKN280 28/24 A2964 RMK SLP039 T02810242,PTKK,2018-03-21T13:51:00Z,7.47,151.85,28.1,24.2,110,10,,15.0,29.639763,1003.9,,,,,,,,,,FEW,1400,BKN,28000,,,,,VFR,,,,,,,,,,,,METAR,2.0
MMTM 211351Z 00000KT 5SM FEW020 BKN040 21/19 A3009 RMK 8/800 HZY,MMTM,2018-03-21T13:51:00Z,22.27,-97.87,21.0,19.0,0,0,,5.0,30.088583,,,,,,,,,,,FEW,2000,BKN,4000,,,,,MVFR,,,,,,,,,,,,METAR,24.0
LICD 211350Z 01018KT 9999 FEW030 14/08 Q1009,LICD,2018-03-21T13:50:00Z,35.5,12.62,14.0,8.0,10,18,,6.21,29.793306,,,,,,,,,,,FEW,3000,,,,,,,VFR,,,,,,,,,,,,METAR,20.0
EEPU 211350Z 21011KT CAVOK M02/M10 Q1015,EEPU,2018-03-21T13:50:00Z,58.42,24.47,-2.0,-10.0,210,11,,6.21,29.970472,,,,,,,,,,,CAVOK,,,,,,,,VFR,,,,,,,,,,,,METAR,14.0
ENMH 211350Z 17012KT CAVOK M11/M16 Q0995,ENMH,2018-03-21T13:50:00Z,71.02,27.82,-11.0,-16.0,170,12,,6.21,29.379921,,,,,,,,,,,CAVOK,,,,,,,,VFR,,,,,,,,,,,,METAR,13.0
ENGK 211350Z 27009KT 230V310 CAVOK 06/M02 Q1014,ENGK,2018-03-21T13:50:00Z,58.52,8.7,6.0,-2.0,270,9,,6.21,29.940945,,,,,,,,,,,CAVOK,,,,,,,,VFR,,,,,,,,,,,,METAR,119.0
ENSH 211350Z 23007KT 6000 -SHSN VV020 00/M02 Q0998 RMK WIND 150FT 20007KT,ENSH,2018-03-21T13:50:00Z,68.25,14.67,0.0,-2.0,230,7,,3.73,29.468504,,,,,,,,,,-SHSN,OVX,0,,,,,,,LIFR,,,0.7,,,,,,,,2000,METAR,9.0
EKSB 211350Z 26012KT 9999 FEW028 SCT060 07/01 Q1022,EKSB,2018-03-21T13:50:00Z,54.97,9.8,7.0,1.0,260,12,,6.21,30.177166,,,,,,,,,,,FEW,2800,SCT,6000,,,,,VFR,,,,,,,,,,,,METAR,23.0
KDPG 211350Z VRB02KT 30SM SCT055 BKN075 BKN100 05/M01 A2995 RMK SLP125 RAB35E38 T00491014,KDPG,2018-03-21T13:50:00Z,40.2,-112.92,4.9,-1.4,0,2,,30.0,29.949802,1012.5,,,,,,,,,,SCT,5500,BKN,7500,BKN,10000,,,VFR,,,,,,,,,,,,METAR,1326.0
EGQA 211350Z 23015KT 9999 FEW015 BKN025 07/// Q1016 BLU,EGQA,2018-03-21T13:50:00Z,57.83,-3.95,,,230,15,,6.21,30.0,,,,,,,,,,,FEW,1500,BKN,2500,,,,,MVFR,,,,,,,,,,,,METAR,4.0
MSLU 211350Z 06004KT CAVOK 29/24 Q1011 A2985,MSLU,2018-03-21T13:50:00Z,13.33,-87.88,29.0,24.0,60,4,,6.21,29.852362,,,,,,,,,,,CAVOK,,,,,,,,VFR,,,,,,,,,,,,METAR,5.0
MSSM 211350Z 03002KT CAVOK 26/22 Q1011 A2986,MSSM,2018-03-21T13:50:00Z,13.43,-88.12,26.0,22.0,30,2,,6.21,29.852362,,,,,,,,,,,CAVOK,,,,,,,,VFR,,,,,,,,,,,,METAR,80.0
MSSA 211350Z 10002KT CAVOK 27/19 Q1019 A3009,MSSA,2018-03-21T13:50:00Z,13.97,-89.57,27.0,19.0,100,2,,6.21,30.088583,,,,,,,,,,,CAVOK,,,,,,,,VFR,,,,,,,,,,,,METAR,725.0
MSAC 211350Z 07003KT CAVOK 28/22 Q1008 A2979,MSAC,2018-03-21T13:50:00Z,13.57,-89.83,28.0,22.0,70,3,,6.21,29.763779,,,,,,,,,,,CAVOK,,,,,,,,VFR,,,,,,,,,,,,METAR,15.0
EGXU 211350Z 27015KT 9999 FEW025 SCT033 BKN250 08/M01 Q1026 BLU NOSIG,EGXU,2018-03-21T13:50:00Z,54.05,-1.25,8.0,-1.0,270,15,,6.21,30.295275,,,,,,TRUE,,,,,FEW,2500,SCT,3300,BKN,25000,,,VFR,,,,,,,,,,,,METAR,16.0
EGWC 211350Z 26009G19KT 9999 FEW025 SCT035 08/M02 Q1029 BLU,EGWC,2018-03-21T13:50:00Z,52.62,-2.28,8.0,-2.0,260,9,19,6.21,30.383858,,,,,,,,,,,FEW,2500,SCT,3500,,,,,VFR,,,,,,,,,,,,METAR,83.0
LTAN 211350Z 22008KT CAVOK 21/M07 Q1016 NOSIG,LTAN,2018-03-21T13:50:00Z,37.97,32.53,21.0,-7.0,220,8,,6.21,30.0,,,,,,TRUE,,,,,CAVOK,,,,,,,,VFR,,,,,,,,,,,,METAR,1006.0
LTBF 211350Z 19003KT 150V240 9999 FEW035 SCT100 BKN200 20/07 Q1015 NOSIG,LTBF,2018-03-21T13:50:00Z,39.62,27.92,20.0,7.0,190,3,,6.21,29.970472,,,,,,TRUE,,,,,FEW,3500,SCT,10000,BKN,20000,,,VFR,,,,,,,,,,,,METAR,102.0
LTBQ 211350Z 00000KT CAVOK 21/02 Q1013 TEMPO TL1500 25012KT,LTBQ,2018-03-21T13:50:00Z,40.72,30.07,21.0,2.0,0,0,,6.21,29.911417,,,,,,,,,,,CAVOK,,,,,,,,VFR,,,,,,,,,,,,METAR,50.0
LTAR 211350Z 24009KT 200V260 9999 SCT040 BKN200 12/M01 Q1018,LTAR,2018-03-21T13:50:00Z,39.8,36.9,12.0,-1.0,240,9,,6.21,30.059055,,,,,,,,,,,SCT,4000,BKN,20000,,,,,VFR,,,,,,,,,,,,METAR,1271.0
LTAY 211350Z 30008KT 270V340 CAVOK 18/M02 Q1017,LTAY,2018-03-21T13:50:00Z,37.77,29.68,18.0,-2.0,300,8,,6.21,30.029528,,,,,,,,,,,CAVOK,,,,,,,,VFR,,,,,,,,,,,,METAR,849.0
LTBY 211350Z 23012KT 170V260 CAVOK 18/M07 Q1014,LTBY,2018-03-21T13:50:00Z,39.82,30.52,18.0,-7.0,230,12,,6.21,29.940945,,,,,,,,,,,CAVOK,,,,,,,,VFR,,,,,,,,,,,,METAR,789.0
LTCD 211350Z 24010KT 9999 SCT045 17/M06 Q1017 NOSIG,LTCD,2018-03-21T13:50:00Z,39.72,39.5,17.0,-6.0,240,10,,6.21,30.029528,,,,,,TRUE,,,,,SCT,4500,,,,,,,VFR,,,,,,,,,,,,METAR,1215.0
LTCA 211350Z 07006KT 9999 FEW035 SCT200 19/02 Q1017 NOSIG,LTCA,2018-03-21T13:50:00Z,38.6,39.27,19.0,2.0,70,6,,6.21,30.029528,,,,,,TRUE,,,,,FEW,3500,SCT,20000,,,,,VFR,,,,,,,,,,,,METAR,882.0
LTCI 211350Z VRB01KT 9999 FEW040 13/00 Q1019 NOSIG,LTCI,2018-03-21T13:50:00Z,38.45,43.32,13.0,0.0,0,1,,6.21,30.088583,,,,,,TRUE,,,,,FEW,4000,,,,,,,VFR,,,,,,,,,,,,METAR,1661.0
LTCF 211350Z 27008KT 250V310 9999 SCT035 10/M06 Q1018,LTCF,2018-03-21T13:50:00Z,40.57,43.12,10.0,-6.0,270,8,,6.21,30.059055,,,,,,,,,,,SCT,3500,,,,,,,VFR,,,,,,,,,,,,METAR,1795.0
LTDA 211350Z 22016KT 9999 SCT040 21/11 Q1018 NOSIG,LTDA,2018-03-21T13:50:00Z,36.37,36.28,21.0,11.0,220,16,,6.21,30.059055,,,,,,TRUE,,,,,SCT,4000,,,,,,,VFR,,,,,,,,,,,,METAR,82.0
LTFH 211350Z 03004KT 350V080 9999 FEW036 SCT100 BKN200 17/08 Q1015 NOSIG,LTFH,2018-03-21T13:50:00Z,41.27,36.55,17.0,8.0,30,4,,6.21,29.970472,,,,,,TRUE,,,,,FEW,3600,SCT,10000,BKN,20000,,,VFR,,,,,,,,,,,,METAR,5.0
MUCF 211350Z VRB05KT 9000 SCT025 27/23 Q1016,MUCF,2018-03-21T13:50:00Z,22.13,-80.4,27.0,23.0,0,5,,5.59,30.0,,,,,,,,,,,SCT,2500,,,,,,,VFR,,,,,,,,,,,,METAR,39.0
MUCU 211350Z 21003KT 160V260 9000 FEW020 28/18 Q1017,MUCU,2018-03-21T13:50:00Z,19.97,-75.83,28.0,18.0,210,3,,5.59,30.029528,,,,,,,,,,,FEW,2000,,,,,,,VFR,,,,,,,,,,,,METAR,76.0
MUHG 211350Z 27003KT 200V310 9000 FEW025 BKN250 25/22 Q1016,MUHG,2018-03-21T13:50:00Z,20.77,-76.32,25.0,22.0,270,3,,5.59,30.0,,,,,,,,,,,FEW,2500,BKN,25000,,,,,VFR,,,,,,,,,,,,METAR,106.0
MUCC 211350Z 23006KT 170V270 9000 SCT020 BKN200 27/21 Q1016,MUCC,2018-03-21T13:50:00Z,22.47,-78.33,27.0,21.0,230,6,,5.59,30.0,,,,,,,,,,,SCT,2000,BKN,20000,,,,,VFR,,,,,,,,,,,,METAR,4.0
LTFG 211350Z 26006KT 230V350 CAVOK 20/10 Q1019,LTFG,2018-03-21T13:50:00Z,36.3,32.3,20.0,10.0,260,6,,6.21,30.088583,,,,,,,,,,,CAVOK,,,,,,,,VFR,,,,,,,,,,,,METAR,95.0
LTFD 211350Z 22008KT 9999 SCT035 18/10 Q1015,LTFD,2018-03-21T13:50:00Z,39.55,27.02,18.0,10.0,220,8,,6.21,29.970472,,,,,,,,,,,SCT,3500,,,,,,,VFR,,,,,,,,,,,,METAR,16.0
LTCV 211350Z 32008KT 290V350 CAVOK 22/04 Q1016,LTCV,2018-03-21T13:50:00Z,37.37,42.07,22.0,4.0,320,8,,6.21,30.0,,,,,,,,,,,CAVOK,,,,,,,,VFR,,,,,,,,,,,,METAR,621.0
LTCT 211350Z 33009KT 310V010 9999 FEW100 17/M01 Q1015,LTCT,2018-03-21T13:50:00Z,39.98,43.87,17.0,-1.0,330,9,,6.21,29.970472,,,,,,,,,,,FEW,10000,,,,,,,VFR,,,,,,,,,,,,METAR,946.0
LTCR 211350Z 25010KT 210V290 9999 FEW040 22/06 Q1016,LTCR,2018-03-21T13:50:00Z,37.22,40.63,22.0,6.0,250,10,,6.21,30.0,,,,,,,,,,,FEW,4000,,,,,,,VFR,,,,,,,,,,,,METAR,527.0
LTCO 211350Z 28013KT 9999 FEW035 13/M07 Q1018,LTCO,2018-03-21T13:50:00Z,39.65,43.03,13.0,-7.0,280,13,,6.21,30.059055,,,,,,,,,,,FEW,3500,,,,,,,VFR,,,,,,,,,,,,METAR,1665.0
LTCN 211350Z 29014KT 9999 FEW040 SCT200 20/08 Q1017 NOSIG,LTCN,2018-03-21T13:50:00Z,37.53,36.95,20.0,8.0,290,14,,6.21,30.029528,,,,,,TRUE,,,,,FEW,4000,SCT,20000,,,,,VFR,,,,,,,,,,,,METAR,526.0
LTCB 211350Z 08007KT CAVOK 13/10 Q1016,LTCB,2018-03-21T13:50:00Z,39.72,43.03,13.0,10.0,80,7,,6.21,30.0,,,,,,,,,,,CAVOK,,,,,,,,VFR,,,,,,,,,,,,METAR,1632.0
LTBO 211350Z 23008KT 200V260 CAVOK 16/M02 Q1017,LTBO,2018-03-21T13:50:00Z,38.67,29.47,16.0,-2.0,230,8,,6.21,30.029528,,,,,,,,,,,CAVOK,,,,,,,,VFR,,,,,,,,,,,,METAR,919.0
LTBH 211350Z 22014KT 9999 FEW035 BKN200 16/11 Q1012,LTBH,2018-03-21T13:50:00Z,40.13,26.42,16.0,11.0,220,14,,6.21,29.88189,,,,,,,,,,,FEW,3500,BKN,20000,,,,,VFR,,,,,,,,,,,,METAR,3.0
LTBD 211350Z 00000KT CAVOK 22/08 Q1016,LTBD,2018-03-21T13:50:00Z,37.82,27.88,22.0,8.0,0,0,,6.21,30.0,,,,,,,,,,,CAVOK,,,,,,,,VFR,,,,,,,,,,,,METAR,57.0
LTAS 211350Z 33008KT 9999 FEW040 SCT200 17/02 Q1014,LTAS,2018-03-21T13:50:00Z,41.52,32.08,17.0,2.0,330,8,,6.21,29.940945,,,,,,,,,,,FEW,4000,SCT,20000,,,,,VFR,,,,,,,,,,,,METAR,136.0
EGOP 211350Z 27015KT 9999 BKN040 09/01 Q1031 BLU,EGOP,2018-03-21T13:50:00Z,51.72,-4.32,9.0,1.0,270,15,,6.21,30.442913,,,,,,,,,,,BKN,4000,,,,,,,VFR,,,,,,,,,,,,METAR,6.0
EGDR 211350Z 31006KT 9999 BKN030 08/01 Q1033 BLU NOSIG,EGDR,2018-03-21T13:50:00Z,50.08,-5.25,8.0,1.0,310,6,,6.21,30.501968,,,,,,TRUE,,,,,BKN,3000,,,,,,,MVFR,,,,,,,,,,,,METAR,82.0
LTAL 211350Z 22012KT 180V240 9999 FEW027 BKN090 15/M02 Q1013,LTAL,2018-03-21T13:50:00Z,41.32,33.8,15.0,-2.0,220,12,,6.21,29.911417,,,,,,,,,,,FEW,2700,BKN,9000,,,,,VFR,,,,,,,,,,,,METAR,1066.0
LIRZ 211350Z 04015KT 9999 BKN040 05/M01 Q1014,LIRZ,2018-03-21T13:50:00Z,43.1,12.5,5.0,-1.0,40,15,,6.21,29.940945,,,,,,,,,,,BKN,4000,,,,,,,VFR,,,,,,,,,,,,METAR,205.0
LIBP 211350Z 31005KT 270V340 9000 SCT020 SCT050 05/04 Q1016,LIBP,2018-03-21T13:50:00Z,42.42,14.18,5.0,4.0,310,5,,5.59,30.0,,,,,,,,,,,SCT,2000,SCT,5000,,,,,VFR,,,,,,,,,,,,METAR,11.0
LIBG 211350Z 18006KT 9999 FEW030 15/07 Q1009,LIBG,2018-03-21T13:50:00Z,40.52,17.38,15.0,7.0,180,6,,6.21,29.793306,,,,,,,,,,,FEW,3000,,,,,,,VFR,,,,,,,,,,,,METAR,69.0
LIBF 211350Z 29023KT 9999 SCT030 BKN050 07/03 Q1011,LIBF,2018-03-21T13:50:00Z,41.42,15.52,7.0,3.0,290,23,,6.21,29.852362,,,,,,,,,,,SCT,3000,BKN,5000,,,,,VFR,,,,,,,,,,,,METAR,80.0
LIBC 211350Z 22011KT CAVOK 13/07 Q1009,LIBC,2018-03-21T13:50:00Z,39.0,17.07,13.0,7.0,220,11,,6.21,29.793306,,,,,,,,,,,CAVOK,,,,,,,,VFR,,,,,,,,,,,,METAR,161.0
LICR 211350Z 34013KT CAVOK 16/08 Q1009,LICR,2018-03-21T13:50:00Z,38.07,15.65,16.0,8.0,340,13,,6.21,29.793306,,,,,,,,,,,CAVOK,,,,,,,,VFR,,,,,,,,,,,,METAR,21.0
LICB 211350Z 31008KT 270V340 9999 SCT030 16/08 Q1009,LICB,2018-03-21T13:50:00Z,37.0,14.62,16.0,8.0,310,8,,6.21,29.793306,,,,,,,,,,,SCT,3000,,,,,,,VFR,,,,,,,,,,,,METAR,220.0
LICA 211350Z 28008KT 9999 FEW020 BKN060 14/08 Q1011,LICA,2018-03-21T13:50:00Z,38.88,16.25,14.0,8.0,280,8,,6.21,29.852362,,,,,,,,,,,FEW,2000,BKN,6000,,,,,VFR,,,,,,,,,,,,METAR,15.0
LIMZ 211350Z 01006KT 9999 SCT020 07/M05 Q1018,LIMZ,2018-03-21T13:50:00Z,44.53,7.62,7.0,-5.0,10,6,,6.21,30.059055,,,,,,,,,,,SCT,2000,,,,,,,VFR,,,,,,,,,,,,METAR,380.0
LIMP 211350Z 08010KT 040V120 9999 FEW040 09/M04 Q1018,LIMP,2018-03-21T13:50:00Z,44.82,10.3,9.0,-4.0,80,10,,6.21,30.059055,,,,,,,,,,,FEW,4000,,,,,,,VFR,,,,,,,,,,,,METAR,50.0
LIMG 211350Z 06012G28KT CAVOK 11/M06 Q1015,LIMG,2018-03-21T13:50:00Z,44.03,8.12,11.0,-6.0,60,12,28,6.21,29.970472,,,,,,,,,,,CAVOK,,,,,,,,VFR,,,,,,,,,,,,METAR,49.0
LIMA 211350Z 19006KT CAVOK 08/M05 Q1017,LIMA,2018-03-21T13:50:00Z,45.08,7.6,8.0,-5.0,190,6,,6.21,30.029528,,,,,,,,,,,CAVOK,,,,,,,,VFR,,,,,,,,,,,,METAR,287.0
LIPY 211350Z 04005KT 010V080 9999 SCT025 BKN050 07/00 Q1016,LIPY,2018-03-21T13:50:00Z,43.62,13.37,7.0,0.0,40,5,,6.21,30.0,,,,,,,,,,,SCT,2500,BKN,5000,,,,,VFR,,,,,,,,,,,,METAR,10.0
LIPO 211350Z 28004KT 9999 FEW040 09/M03 Q1018,LIPO,2018-03-21T13:50:00Z,45.42,10.33,9.0,-3.0,280,4,,6.21,30.059055,,,,,,,,,,,FEW,4000,,,,,,,VFR,,,,,,,,,,,,METAR,109.0
LIRU 211350Z 03014KT 9999 SCT035 13/03 Q1009,LIRU,2018-03-21T13:50:00Z,41.95,12.5,13.0,3.0,30,14,,6.21,29.793306,,,,,,,,,,,SCT,3500,,,,,,,VFR,,,,,,,,,,,,METAR,24.0
LIQN 211350Z 12015KT CAVOK 10/M01 Q1008,LIQN,2018-03-21T13:50:00Z,42.42,12.83,10.0,-1.0,120,15,,6.21,29.763779,,,,,,,,,,,CAVOK,,,,,,,,VFR,,,,,,,,,,,,METAR,389.0
OIHH 211350Z 28019KT 9999 FEW040 BKN190 19/M06 Q1018,OIHH,2018-03-21T13:50:00Z,34.87,48.55,19.0,-6.0,280,19,,6.21,30.059055,,,,,,,,,,,FEW,4000,BKN,19000,,,,,VFR,,,,,,,,,,,,METAR,1757.0
OIKO 211350Z 20006KT 6000 NSC 28/19 Q1010,OIKO,2018-03-21T13:50:00Z,27.13,57.1,28.0,19.0,200,6,,3.73,29.822834,,,,,,,,,,,CLR,,,,,,,,MVFR,,,,,,,,,,,,METAR,27.0
OIHM 211350Z 28016KT 9999 FEW035 SCT190 21/M07 Q1020,OIHM,2018-03-21T13:50:00Z,34.28,48.82,21.0,-7.0,280,16,,6.21,30.11811,,,,,,,,,,,FEW,3500,SCT,19000,,,,,VFR,,,,,,,,,,,,METAR,1726.0
OIGK 211350Z 26012KT 9999 SCT035CB 17/M08 Q1015,OIGK,2018-03-21T13:50:00Z,34.28,47.12,17.0,-8.0,260,12,,6.21,29.970472,,,,,,,,,,,SCT,3500,,,,,,,VFR,,,,,,,,,,,,METAR,1322.0
OICJ 211350Z 24008KT CAVOK 21/M05 Q1019,OICJ,2018-03-21T13:50:00Z,33.9,48.75,21.0,-5.0,240,8,,6.21,30.088583,,,,,,,,,,,CAVOK,,,,,,,,VFR,,,,,,,,,,,,METAR,1600.0
KHME 211350Z 29006KT CAVOK 23/M03 Q1013,KHME,2018-03-21T13:50:00Z,,,23.0,-3.0,290,6,,6.21,29.911417,,,,,,,,,,,CAVOK,,,,,,,,VFR,,,,,,,,,,,,METAR,
AZUH 211350Z 33014KT 9999 FEW035TCU 20/M04 Q1015,AZUH,2018-03-21T13:50:00Z,39.18,45.45,20.0,-4.0,330,14,,6.21,29.970472,,,,,,,,,,,FEW,3500,,,,,,,VFR,,,,,,,,,,,,METAR,855.0
YAYT 211350Z 00000KT CAVOK 25/08 Q1013,YAYT,2018-03-21T13:50:00Z,,,25.0,8.0,0,0,,6.21,29.911417,,,,,,,,,,,CAVOK,,,,,,,,VFR,,,,,,,,,,,,METAR,
KOLV 211350Z 33009KT 10SM SCT047 BKN085 05/01 A3008,KOLV,2018-03-21T13:50:00Z,34.98,-89.78,5.0,1.0,330,9,,10.0,30.079725,,,,,,,,,,,SCT,4700,BKN,8500,,,,,VFR,,,,,,,,,,,,METAR,122.0
OOSA 211350Z 18010KT CAVOK 27/21 Q1012 NOSIG,OOSA,2018-03-21T13:50:00Z,17.02,54.07,27.0,21.0,180,10,,6.21,29.88189,,,,,,TRUE,,,,,CAVOK,,,,,,,,VFR,,,,,,,,,,,,METAR,20.0
OOMS 211350Z 04007KT 010V070 CAVOK 27/17 Q1011 NOSIG,OOMS,2018-03-21T13:50:00Z,23.57,58.27,27.0,17.0,40,7,,6.21,29.852362,,,,,,TRUE,,,,,CAVOK,,,,,,,,VFR,,,,,,,,,,,,METAR,8.0
EGYE 211350Z 28016KT 9999 SCT040 ///// Q1027 BLU,EGYE,2018-03-21T13:50:00Z,52.97,-0.57,,,280,16,,6.21,30.324802,,,,,,,,,,,SCT,4000,,,,,,,VFR,,,,,,,,,,,,METAR,112.0
EGXZ 211350Z AUTO 27013KT 9999 SCT090/// 08/M00 Q1026,EGXZ,2018-03-21T13:50:00Z,54.2,-1.38,8.0,0.0,270,13,,6.21,30.295275,,,TRUE,,,,,,,,SCT,9000,,,,,,,VFR,,,,,,,,,,,,METAR,28.0
EGXP 211350Z AUTO 28017KT 9999 // SCT045/// 09/M02 Q1027,EGXP,2018-03-21T13:50:00Z,53.3,-0.55,9.0,-2.0,280,17,,6.21,30.324802,,,TRUE,,,,,,,,SCT,4500,,,,,,,VFR,,,,,,,,,,,,METAR,61.0
EGQK 211350Z AUTO 24019KT 9999 SCT036/// SCT050/// 11/06 Q1015,EGQK,2018-03-21T13:50:00Z,57.65,-3.57,11.0,6.0,240,19,,6.21,29.970472,,,TRUE,,,,,,,,SCT,3600,SCT,5000,,,,,VFR,,,,,,,,,,,,METAR,7.0
EGOM 211350Z AUTO 25022KT 9999 FEW016/// BKN021/// 05/02 Q1023 RERA,EGOM,2018-03-21T13:50:00Z,55.05,-2.55,5.0,2.0,250,22,,6.21,30.206694,,,TRUE,,,,,,,,FEW,1600,BKN,2100,,,,,MVFR,,,,,,,,,,,,METAR,325.0
MMTG 211349Z 32007KT 5SM SKC 25/18 A3001 MK FU HZ,MMTG,2018-03-21T13:49:00Z,16.57,-93.03,25.0,18.0,320,7,,5.0,30.008858,,,,,,,,,,FU HZ,SKC,,,,,,,,MVFR,,,,,,,,,,,,METAR,528.0
MMMT 211349Z 00000KT 6SM BKN020 24/23 A2998 RMK 8/100,MMMT,2018-03-21T13:49:00Z,18.1,-94.57,24.0,23.0,0,0,,6.0,29.97933,,,,,,,,,,,BKN,2000,,,,,,,MVFR,,,,,,,,,,,,METAR,40.0
MMCE 211348Z 06009KT 6SM SCT010TCU 27/22 A2998 RMK 8/200 HZY,MMCE,2018-03-21T13:48:00Z,18.65,-91.8,27.0,22.0,60,9,,6.0,29.97933,,,,,,,,,,,SCT,1000,,,,,,,VFR,,,,,,,,,,,,METAR,2.0
MMRX 211348Z 00000KT 8SM SKC 18/14 A3012 RMK HZY,MMRX,2018-03-21T13:48:00Z,26.02,-98.22,18.0,14.0,0,0,,8.0,30.121063,,,,,,,,,,,SKC,,,,,,,,VFR,,,,,,,,,,,,METAR,39.0
KASG 211348Z 32005KT 10SM SKC 03/01 A3018,KASG,2018-03-21T13:48:00Z,36.17,-94.12,3.0,1.0,320,5,,10.0,30.180119,,,,,,,,,,,SKC,,,,,,,,VFR,,,,,,,,,,,,METAR,412.0
KRHV 211347Z 17007KT 8SM SCT017 OVC032 15/12 A2980,KRHV,2018-03-21T13:47:00Z,37.32,-121.82,15.0,12.0,170,7,,8.0,29.799213,,,,,,,,,,,SCT,1700,OVC,3200,,,,,VFR,,,,,,,,,,,,METAR,41.0
MMZO 211347Z 00000KT 8SM SCT025 22/20 A2987 RMK 5//// 9// 8/100 HZY RTS,MMZO,2018-03-21T13:47:00Z,19.13,-104.57,22.0,20.0,0,0,,8.0,29.870079,,,,,,,,,,,SCT,2500,,,,,,,VFR,,,,,,,,,,,,METAR,8.0
KSEE 211347Z 00000KT 10SM SKC 09/06 A3000,KSEE,2018-03-21T13:47:00Z,32.82,-116.97,9.0,6.0,0,0,,10.0,30.0,,,,,,,,,,,SKC,,,,,,,,VFR,,,,,,,,,,,,METAR,117.0
MMPR 211347Z 02004T 15SM SKC 15/15 A2989,MMPR,2018-03-21T13:47:00Z,20.67,-105.25,15.0,15.0,,,,15.0,29.890747,,,,,,,,,,,SKC,,,,,,,,VFR,,,,,,,,,,,,METAR,6.0
MMPA 211347Z 36005KT 1/2SM -RA FG BKN004 OVC010 21/21 A3011 RMK 60005 8/8//VRB COND,MMPA,2018-03-21T13:47:00Z,20.5,-97.47,21.0,21.0,360,5,,0.5,30.109253,,,,,,,,,,-RA FG,BKN,400,OVC,1000,,,,,LIFR,,,,,,,,,,,,METAR,142.0
MMPB 211347Z 35005KT 7SM SKC 11/06 A3034 RMK HZY,MMPB,2018-03-21T13:47:00Z,19.17,-98.37,11.0,6.0,350,5,,7.0,30.339567,,,,,,,,,,,SKC,,,,,,,,VFR,,,,,,,,,,,,METAR,2244.0
KPOC 211347Z 27005KT 10SM OVC050 13/07 A3005,KPOC,2018-03-21T13:47:00Z,34.1,-117.77,13.0,7.0,270,5,,10.0,30.050198,,,,,,,,,,,OVC,5000,,,,,,,VFR,,,,,,,,,,,,METAR,308.0
MMUN 211346Z 31004KT 7SM FEW015 24/24 A3001 RMK 8/100,MMUN,2018-03-21T13:46:00Z,21.02,-86.85,24.0,24.0,310,4,,7.0,30.008858,,,,,,,,,,,FEW,1500,,,,,,,VFR,,,,,,,,,,,,METAR,10.0
MMMV 211346Z 00000KT 10SM SKC 16/02 A3008,MMMV,2018-03-21T13:46:00Z,26.95,-101.47,16.0,2.0,0,0,,10.0,30.079725,,,,,,,,,,,SKC,,,,,,,,VFR,,,,,,,,,,,,METAR,615.0
MMTO 211346Z 00000KT 3SM HZ SKC 08/05 A3038,MMTO,2018-03-21T13:46:00Z,19.35,-99.57,8.0,5.0,0,0,,3.0,30.380905,,,,,,,,,,HZ,SKC,,,,,,,,MVFR,,,,,,,,,,,,METAR,2576.0
KFOZ 211345Z AUTO 16003KT 10SM CLR M06/M09 A3013 RMK AO2,KFOZ,2018-03-21T13:45:00Z,47.77,-93.65,-6.0,-9.0,160,3,,10.0,30.129921,,,TRUE,TRUE,,,,,,,CLR,,,,,,,,VFR,,,,,,,,,,,,METAR,411.0
MMTC 211345Z 00000KT 10SM SKC 16/03 A3007,MMTC,2018-03-21T13:45:00Z,25.57,-103.4,16.0,3.0,0,0,,10.0,30.070866,,,,,,,,,,,SKC,,,,,,,,VFR,,,,,,,,,,,,METAR,1124.0
MMGL 211345Z 00000KT 7SM SKC 11/03 A3015 RMK HZY,MMGL,2018-03-21T13:45:00Z,20.52,-103.32,11.0,3.0,0,0,,7.0,30.15059,,,,,,,,,,,SKC,,,,,,,,VFR,,,,,,,,,,,,METAR,1528.0
MMLO 211345Z 00000KT 6SM SKC 14/08 A3028 RMK HZ,MMLO,2018-03-21T13:45:00Z,21.0,-101.47,14.0,8.0,0,0,,6.0,30.280512,,,,,,,,,,,SKC,,,,,,,,VFR,,,,,,,,,,,,METAR,1819.0
MMZC 211345Z 19006KT 10SM SKC 09/01 A3024,MMZC,2018-03-21T13:45:00Z,22.9,-102.68,9.0,1.0,190,6,,10.0,30.239174,,,,,,,,,,,SKC,,,,,,,,VFR,,,,,,,,,,,,METAR,2177.0
KSWF 211345Z 04008KT 20SM OVC070 M01/M08 A2976,KSWF,2018-03-21T13:45:00Z,41.5,-74.08,-1.0,-8.0,40,8,,20.0,29.760826,,,,,,,,,,,OVC,7000,,,,,,,VFR,,,,,,,,,,,,METAR,150.0
LHBC 211345Z 34009KT CAVOK 01/M04 Q1020,LHBC,2018-03-21T13:45:00Z,46.68,21.17,1.0,-4.0,340,9,,6.21,30.11811,,,,,,,,,,,CAVOK,,,,,,,,VFR,,,,,,,,,,,,METAR,86.0
KRYN 211345Z 00000KT 10SM CLR 08/M06 A3002,KRYN,2018-03-21T13:45:00Z,32.15,-111.17,8.0,-6.0,0,0,,10.0,30.02067,,,,,,,,,,,CLR,,,,,,,,VFR,,,,,,,,,,,,METAR,737.0
