No errors
No warnings
291 ms
data source=metars
4918 results
raw_text,station_id,observation_time,latitude,longitude,temp_c,dewpoint_c,wind_dir_degrees,wind_speed_kt,wind_gust_kt,visibility_statute_mi,altim_in_hg,sea_level_pressure_mb,corrected,auto,auto_station,maintenance_indicator_on,no_signal,lightning_sensor_off,freezing_rain_sensor_off,present_weather_sensor_off,wx_string,sky_cover,cloud_base_ft_agl,sky_cover,cloud_base_ft_agl,sky_cover,cloud_base_ft_agl,sky_cover,cloud_base_ft_agl,flight_category,three_hr_pressure_tendency_mb,maxT_c,minT_c,maxT24hr_c,minT24hr_c,precip_in,pcp3hr_in,pcp6hr_in,pcp24hr_in,snow_in,vert_vis_ft,metar_type,elevation_m
CYSF 221531Z AUTO 10016G22KT 2 1/2SM -SN FEW029 M17/M24 A3069 RMK SLP425,CYSF,2018-03-22T15:31:00Z,59.25,-105.82,-17.0,-24.0,100,16,22,2.5,30.690945,1042.5,,TRUE,,,,,,,-SN,FEW,2900,,,,,,,IFR,,,,,,,,,,,,SPECI,250.0
LZIB 221530Z 13004KT 090V170 CAVOK 05/M07 Q1014 NOSIG,LZIB,2018-03-22T15:30:00Z,48.17,17.22,5.0,-7.0,130,4,,6.21,29.940945,,,,,,TRUE,,,,,CAVOK,,,,,,,,VFR,,,,,,,,,,,,METAR,134.0
LWSK 221530Z 30002KT 2100 -DZ BKN010 OVC030 M01/M02 Q1008 R99/2///95 NOSIG,LWSK,2018-03-22T15:30:00Z,41.97,21.63,-1.0,-2.0,300,2,,1.3,29.763779,,,,,,TRUE,,,,-DZ,BKN,1000,OVC,3000,,,,,IFR,,,,,,,,,,,,METAR,239.0
FMMI 221530Z 09008KT 9999 FEW020CB 24/18 Q1018 NOSIG,FMMI,2018-03-22T15:30:00Z,-18.8,47.47,24.0,18.0,90,8,,6.21,30.059055,,,,,,TRUE,,,,,FEW,2000,,,,,,,VFR,,,,,,,,,,,,METAR,1276.0
FOOL 221530Z 16006KT 9999 SCT013 27/23 Q1008 NOSIG,FOOL,2018-03-22T15:30:00Z,0.45,9.42,27.0,23.0,160,6,,6.21,29.763779,,,,,,TRUE,,,,,SCT,1300,,,,,,,VFR,,,,,,,,,,,,SPECI,15.0
BKPR 221530Z 02016KT 5000 BR SCT012 BKN035 M03/M05 Q1006 NOSIG RMK 17190095,BKPR,2018-03-22T15:30:00Z,42.58,21.03,-3.0,-5.0,20,16,,3.11,29.704725,,,,,,TRUE,,,,BR,SCT,1200,BKN,3500,,,,,MVFR,,,,,,,,,,,,METAR,576.0
WAMM 221530Z VRB02KT 7000 -RA SCT019 24/23 Q1010 TEMPO -RA,WAMM,2018-03-22T15:30:00Z,1.55,124.92,24.0,23.0,0,2,,4.35,29.822834,,,,,,,,,,-RA,SCT,1900,,,,,,,MVFR,,,,,,,,,,,,METAR,80.0
VOCB 221530Z 29010KT 6000 SCT015 FEW018CB BKN080 27/22 Q1011 NOSIG,VOCB,2018-03-22T15:30:00Z,11.02,77.03,27.0,22.0,290,10,,3.73,29.852362,,,,,,TRUE,,,,,SCT,1500,FEW,1800,BKN,8000,,,MVFR,,,,,,,,,,,,METAR,399.0
WSSS 221530Z 04005KT 010V070 9999 FEW020 BKN300 27/24 Q1010 NOSIG,WSSS,2018-03-22T15:30:00Z,1.37,103.97,27.0,24.0,40,5,,6.21,29.822834,,,,,,TRUE,,,,,FEW,2000,BKN,30000,,,,,VFR,,,,,,,,,,,,METAR,16.0
UBBG 221530Z 30008KT 9999 BKN083 13/07 Q1013 R30/CLRD// NOSIG,UBBG,2018-03-22T15:30:00Z,40.73,46.32,13.0,7.0,300,8,,6.21,29.911417,,,,,,TRUE,,,,,BKN,8300,,,,,,,VFR,,,,,,,,,,,,SPECI,330.0
LDZD 221530Z 06009KT 020V110 CAVOK 07/M06 Q1002 TEMPO 06015G25KT,LDZD,2018-03-22T15:30:00Z,44.1,15.37,7.0,-6.0,60,9,,6.21,29.586615,,,,,,,,,,,CAVOK,,,,,,,,VFR,,,,,,,,,,,,METAR,84.0
LDZA 221530Z 07009KT 020V110 CAVOK 04/M08 Q1013 NOSIG,LDZA,2018-03-22T15:30:00Z,45.72,16.07,4.0,-8.0,70,9,,6.21,29.911417,,,,,,TRUE,,,,,CAVOK,,,,,,,,VFR,,,,,,,,,,,,METAR,107.0
LDSP 221530Z 04017G29KT 010V070 9999 FEW065 09/M05 Q0999 NOSIG,LDSP,2018-03-22T15:30:00Z,43.52,16.3,9.0,-5.0,40,17,29,6.21,29.498032,,,,,,TRUE,,,,,FEW,6500,,,,,,,VFR,,,,,,,,,,,,METAR,21.0
LDPL 221530Z 06020KT CAVOK 07/M10 Q1006 TEMPO 06018G28KT,LDPL,2018-03-22T15:30:00Z,44.88,13.92,7.0,-10.0,60,20,,6.21,29.704725,,,,,,,,,,,CAVOK,,,,,,,,VFR,,,,,,,,,,,,METAR,63.0
LDOS 221530Z 06014KT CAVOK 01/M05 Q1015,LDOS,2018-03-22T15:30:00Z,45.47,18.82,1.0,-5.0,60,14,,6.21,29.970472,,,,,,,,,,,CAVOK,,,,,,,,VFR,,,,,,,,,,,,METAR,89.0
LDDU 221530Z 03033G47KT 360V060 9999 FEW050 06/M01 Q0994 NOSIG,LDDU,2018-03-22T15:30:00Z,42.57,18.27,6.0,-1.0,30,33,47,6.21,29.350393,,,,,,TRUE,,,,,FEW,5000,,,,,,,VFR,,,,,,,,,,,,METAR,165.0
VHHH 221530Z 08008KT CAVOK 19/10 Q1017 NOSIG,VHHH,2018-03-22T15:30:00Z,22.32,113.92,19.0,10.0,80,8,,6.21,30.029528,,,,,,TRUE,,,,,CAVOK,,,,,,,,VFR,,,,,,,,,,,,METAR,9.0
LBGO 221530Z AUTO 06007KT 9999 -SN SCT023/// BKN031/// OVC038/// M01/M02 Q1016 R99/691591 NOSIG,LBGO,2018-03-22T15:30:00Z,43.15,25.72,-1.0,-2.0,60,7,,6.21,30.0,,,TRUE,,,TRUE,,,,-SN,SCT,2300,BKN,3100,OVC,3800,,,VFR,,,,,,,,,,,,SPECI,86.0
LBPD 221530Z AUTO 10011KT 4100 BR FEW007/// BKN013/// OVC022/// M00/M00 Q1014 R99/29//95 TEMPO 2000 BR,LBPD,2018-03-22T15:30:00Z,42.13,24.8,0.0,0.0,100,11,,2.55,29.940945,,,TRUE,,,,,,,BR,FEW,700,BKN,1300,OVC,2200,,,IFR,,,,,,,,,,,,METAR,185.0
LBBG 221530Z 04014KT 5000 -DZ BR OVC010 01/00 Q1016 R99/29//95 NOSIG,LBBG,2018-03-22T15:30:00Z,42.57,27.52,1.0,0.0,40,14,,3.11,30.0,,,,,,TRUE,,,,-DZ BR,OVC,1000,,,,,,,MVFR,,,,,,,,,,,,METAR,28.0
LBWN 221530Z 04008KT 310V090 9999 FEW016 OVC033 M00/M03 Q1016 R99/29//95 NOSIG,LBWN,2018-03-22T15:30:00Z,43.22,27.82,0.0,-3.0,40,8,,6.21,30.0,,,,,,TRUE,,,,,FEW,1600,OVC,3300,,,,,VFR,,,,,,,,,,,,METAR,43.0
LBSF 221530Z 10014KT 8000 -SN OVC013 00/M01 Q1011 R99/29//95 TEMPO 5000 BR,LBSF,2018-03-22T15:30:00Z,42.7,23.42,0.0,-1.0,100,14,,4.97,29.852362,,,,,,,,,,-SN,OVC,1300,,,,,,,MVFR,,,,,,,,,,,,METAR,530.0
UGSB 221530Z 26003KT 9999 SCT012 BKN100 11/10 Q1019 R13/CLRD70 NOSIG,UGSB,2018-03-22T15:30:00Z,41.62,41.6,11.0,10.0,260,3,,6.21,30.088583,,,,,,TRUE,,,,,SCT,1200,BKN,10000,,,,,VFR,,,,,,,,,,,,METAR,32.0
UGKO 221530Z 27007KT 9999 SCT023 BKN045 12/10 Q1017 R25/09//70 NOSIG,UGKO,2018-03-22T15:30:00Z,42.18,42.48,12.0,10.0,270,7,,6.21,30.029528,,,,,,TRUE,,,,,SCT,2300,BKN,4500,,,,,VFR,,,,,,,,,,,,METAR,68.0
UGTB 221530Z 32011KT CAVOK 13/05 Q1017 R31L/CLRD70 NOSIG,UGTB,2018-03-22T15:30:00Z,41.67,44.95,13.0,5.0,320,11,,6.21,30.029528,,,,,,TRUE,,,,,CAVOK,,,,,,,,VFR,,,,,,,,,,,,METAR,495.0
GLRB 221530Z 25012KT 9999 SCT022 FEW027CB 32/24 Q1009 RMK CB-SE,GLRB,2018-03-22T15:30:00Z,6.25,-10.33,32.0,24.0,250,12,,6.21,29.793306,,,,,,,,,,,SCT,2200,FEW,2700,,,,,VFR,,,,,,,,,,,,METAR,18.0
KQFX 221530Z AUTO 17001KT 9000 HZ CLR M00/M04 A3003 RMK A02 TSNO,KQFX,2018-03-22T15:30:00Z,,,0.0,-4.0,170,1,,5.59,30.029528,,,TRUE,TRUE,,,TRUE,,,HZ,CLR,,,,,,,,VFR,,,,,,,,,,,,METAR,
KQFW 221530Z AUTO 15001KT 9999 CLR 02/M04 A3003 RMK A02 TSNO,KQFW,2018-03-22T15:30:00Z,,,2.0,-4.0,150,1,,6.21,30.029528,,,TRUE,TRUE,,,TRUE,,,,CLR,,,,,,,,VFR,,,,,,,,,,,,METAR,
KQFV 221530Z AUTO 12001KT 6000 HZ CLR M00/M04 A3002 RMK A02 TSNO,KQFV,2018-03-22T15:30:00Z,,,0.0,-4.0,120,1,,3.73,30.02067,,,TRUE,TRUE,,,TRUE,,,HZ,CLR,,,,,,,,MVFR,,,,,,,,,,,,METAR,
KQFT 221530Z AUTO 18002KT 6000 HZ CLR 00/M03 A3003 RMK A02 TSNO,KQFT,2018-03-22T15:30:00Z,,,0.0,-3.0,180,2,,3.73,30.029528,,,TRUE,TRUE,,,TRUE,,,HZ,CLR,,,,,,,,MVFR,,,,,,,,,,,,METAR,
KQFB 221530Z AUTO 11001KT 8000 CLR 01/M01 A3005 RMK A02 TSNO,KQFB,2018-03-22T15:30:00Z,,,1.0,-1.0,110,1,,4.97,30.050198,,,TRUE,TRUE,,,TRUE,,,,CLR,,,,,,,,MVFR,,,,,,,,,,,,METAR,
KQEY 221530Z AUTO 24002KT 8000 CLR 01/M01 A2974 RMK A02 TSNO,KQEY,2018-03-22T15:30:00Z,,,1.0,-1.0,240,2,,4.97,29.740158,,,TRUE,TRUE,,,TRUE,,,,CLR,,,,,,,,MVFR,,,,,,,,,,,,METAR,
KQEW 221530Z AUTO 22007KT 9999 CLR 05/M01 A3000 RMK A02 TSNO,KQEW,2018-03-22T15:30:00Z,,,5.0,-1.0,220,7,,6.21,30.0,,,TRUE,TRUE,,,TRUE,,,,CLR,,,,,,,,VFR,,,,,,,,,,,,METAR,
KQEV 221530Z AUTO 29001KT 4800 CLR 01/M01 A3002 RMK A02 TSNO,KQEV,2018-03-22T15:30:00Z,,,1.0,-1.0,290,1,,2.98,30.02067,,,TRUE,TRUE,,,TRUE,,,,CLR,,,,,,,,IFR,,,,,,,,,,,,METAR,
KQES 221530Z AUTO 24004KT 9999 FEW026 03/01 A3009 RMK A02 TSNO,KQES,2018-03-22T15:30:00Z,,,3.0,1.0,240,4,,6.21,30.088583,,,TRUE,TRUE,,,TRUE,,,,FEW,2600,,,,,,,VFR,,,,,,,,,,,,METAR,
KQEP 221530Z AUTO 12002KT 4800 CLR M01/M10 / RMK A02 TSNO,KQEP,2018-03-22T15:30:00Z,,,-1.0,-10.0,120,2,,2.98,,,,TRUE,TRUE,,,TRUE,,,,CLR,,,,,,,,IFR,,,,,,,,,,,,METAR,
KQEN 221530Z AUTO 26010G15KT 9999 CLR M01/M05 A2991 RMK A02 TSNO,KQEN,2018-03-22T15:30:00Z,,,-1.0,-5.0,260,10,15,6.21,29.911417,,,TRUE,TRUE,,,TRUE,,,,CLR,,,,,,,,VFR,,,,,,,,,,,,METAR,
KQEL 221530Z AUTO 07001KT 8000 HZ CLR 00/M03 A3011 RMK A02 TSNO,KQEL,2018-03-22T15:30:00Z,,,0.0,-3.0,70,1,,4.97,30.109253,,,TRUE,TRUE,,,TRUE,,,HZ,CLR,,,,,,,,MVFR,,,,,,,,,,,,METAR,
TFFR 221530Z AUTO 12015KT 9999 BKN034 BKN054 OVC100 29/21 Q1017,TFFR,2018-03-22T15:30:00Z,16.27,-61.53,29.0,21.0,120,15,,6.21,30.029528,,,TRUE,,,,,,,,BKN,3400,BKN,5400,OVC,10000,,,VFR,,,,,,,,,,,,METAR,11.0
LZTT 221530Z 15006KT 9999 FEW050 02/M07 Q1011 NOSIG,LZTT,2018-03-22T15:30:00Z,49.07,20.25,2.0,-7.0,150,6,,6.21,29.852362,,,,,,TRUE,,,,,FEW,5000,,,,,,,VFR,,,,,,,,,,,,METAR,707.0
LZKZ 221530Z 17004KT 120V250 CAVOK 04/M08 Q1015 NOSIG,LZKZ,2018-03-22T15:30:00Z,48.67,21.23,4.0,-8.0,170,4,,6.21,29.970472,,,,,,TRUE,,,,,CAVOK,,,,,,,,VFR,,,,,,,,,,,,METAR,232.0
LHBP 221530Z 13006KT 100V170 CAVOK 05/M07 Q1015 NOSIG,LHBP,2018-03-22T15:30:00Z,47.42,19.27,5.0,-7.0,130,6,,6.21,29.970472,,,,,,TRUE,,,,,CAVOK,,,,,,,,VFR,,,,,,,,,,,,METAR,185.0
VOML 221530Z 03004KT 6000 FEW015 27/22 Q1010 NOSIG,VOML,2018-03-22T15:30:00Z,12.97,74.88,27.0,22.0,30,4,,3.73,29.822834,,,,,,TRUE,,,,,FEW,1500,,,,,,,MVFR,,,,,,,,,,,,METAR,103.0
SOCA 221530Z AUTO 06004KT 020V100 CAVOK 28/23 Q1014 TEMPO 4000 -SHRA FEW012TCU BECMG 06014KT,SOCA,2018-03-22T15:30:00Z,4.82,-52.37,28.0,23.0,60,4,,6.21,29.940945,,,TRUE,,,,,,,,CAVOK,,,,,,,,VFR,,,,,,,,,,,,SPECI,9.0
NWWW 221530Z AUTO VRB02KT 9999 FEW064 22/20 Q1007 NOSIG,NWWW,2018-03-22T15:30:00Z,-22.02,166.22,22.0,20.0,0,2,,6.21,29.734253,,,TRUE,,,TRUE,,,,,FEW,6400,,,,,,,VFR,,,,,,,,,,,,METAR,16.0
WIII 221530Z VRB03KT 3000 HZ FEW022 26/24 Q1009 NOSIG,WIII,2018-03-22T15:30:00Z,-6.13,106.67,26.0,24.0,0,3,,1.86,29.793306,,,,,,TRUE,,,,HZ,FEW,2200,,,,,,,IFR,,,,,,,,,,,,METAR,8.0
TFFF 221530Z AUTO 11018KT 9999 FEW026 SCT033 BKN042 29/20 Q1017,TFFF,2018-03-22T15:30:00Z,14.6,-61.0,29.0,20.0,110,18,,6.21,30.029528,,,TRUE,,,,,,,,FEW,2600,SCT,3300,BKN,4200,,,VFR,,,,,,,,,,,,METAR,5.0
YLHI 221530Z AUTO 10021G32KT 9999 // SCT026 BKN034 OVC053 22/18 Q1020,YLHI,2018-03-22T15:30:00Z,-31.53,159.07,22.0,18.0,100,21,32,6.21,30.11811,,,TRUE,,,,,,,,SCT,2600,BKN,3400,OVC,5300,,,VFR,,,,,,,,,,,,SPECI,2.0
YABA 221530Z AUTO 21009KT 5000 // BKN006 OVC010 18/// Q1013,YABA,2018-03-22T15:30:00Z,-34.93,117.8,,,210,9,,3.11,29.911417,,,TRUE,,,,,,,,BKN,600,OVC,1000,,,,,IFR,,,,,,,,,,,,SPECI,69.0
YBRM 221530Z AUTO 28007KT 9999 // BKN010 30/28 Q1007 RF00.0/000.0,YBRM,2018-03-22T15:30:00Z,-17.93,122.22,30.0,28.0,280,7,,6.21,29.734253,,,TRUE,,,,,,,,BKN,1000,,,,,,,MVFR,,,,,,,,,,,,SPECI,9.0
YGFN 221530Z AUTO 20005KT 5000 // NCD 19/19 Q1018,YGFN,2018-03-22T15:30:00Z,-29.77,153.03,19.0,19.0,200,5,,3.11,30.059055,,,TRUE,,,,,,,,CLR,,,,,,,,MVFR,,,,,,,,,,,,SPECI,34.0
YCOM 221530Z AUTO 04006KT 9999 // SCT006 BKN012 OVC017 10/10 Q1027,YCOM,2018-03-22T15:30:00Z,-36.3,148.97,10.0,10.0,40,6,,6.21,30.324802,,,TRUE,,,,,,,,SCT,600,BKN,1200,OVC,1700,,,MVFR,,,,,,,,,,,,SPECI,941.0
YLIS 221530Z AUTO 00000KT 0200 // SCT001 SCT009 BKN017 18/17 Q1017,YLIS,2018-03-22T15:30:00Z,-28.83,153.27,18.0,17.0,0,0,,0.12,30.029528,,,TRUE,,,,,,,,SCT,100,SCT,900,BKN,1700,,,LIFR,,,,,,,,,,,,SPECI,11.0
YBCG 221530Z AUTO 15010KT 9999 SHRA SCT012 BKN025 OVC032 20/19 Q1017,YBCG,2018-03-22T15:30:00Z,-28.17,153.5,20.0,19.0,150,10,,6.21,30.029528,,,TRUE,,,,,,,SHRA,SCT,1200,BKN,2500,OVC,3200,,,MVFR,,,,,,,,,,,,SPECI,6.0
CYAY 221530Z AUTO 07011G17KT 5SM BR SCT011 OVC018 M02/M03 A3024 RMK PRESRR SLP243,CYAY,2018-03-22T15:30:00Z,51.38,-56.07,-2.0,-3.0,70,11,17,5.0,30.239174,1024.3,,TRUE,,,,,,,BR,SCT,1100,OVC,1800,,,,,MVFR,,,,,,,,,,,,SPECI,28.0
YGEL 221530Z AUTO 14011KT 9999 // OVC014 22/19 Q1012 RF00.0/000.0,YGEL,2018-03-22T15:30:00Z,-28.8,114.7,22.0,19.0,140,11,,6.21,29.88189,,,TRUE,,,,,,,,OVC,1400,,,,,,,MVFR,,,,,,,,,,,,SPECI,37.0
YESP 221530Z AUTO 24017KT 9999 // OVC006 20/18 Q1010,YESP,2018-03-22T15:30:00Z,-33.68,121.82,20.0,18.0,240,17,,6.21,29.822834,,,TRUE,,,,,,,,OVC,600,,,,,,,IFR,,,,,,,,,,,,SPECI,143.0
YPKU 221530Z AUTO 00000KT 6000 // NCD 27/24 Q1005 RF00.0/000.0,YPKU,2018-03-22T15:30:00Z,-15.77,128.68,27.0,24.0,0,0,,3.73,29.675198,,,TRUE,,,,,,,,CLR,,,,,,,,MVFR,,,,,,,,,,,,SPECI,45.0
YTRE 221530Z AUTO 03002KT //// // BKN010 BKN017 OVC023 19/18 Q1021,YTRE,2018-03-22T15:30:00Z,-31.88,152.52,19.0,18.0,30,2,,,30.147638,,,TRUE,,,,,,,,BKN,1000,BKN,1700,OVC,2300,,,,,,,,,,,,,,,SPECI,12.0
YSCB 221530Z AUTO 12005KT 9999 // SCT017 SCT022 BKN030 13/11 Q1026,YSCB,2018-03-22T15:30:00Z,-35.28,149.17,13.0,11.0,120,5,,6.21,30.295275,,,TRUE,,,,,,,,SCT,1700,SCT,2200,BKN,3000,,,MVFR,,,,,,,,,,,,SPECI,577.0
UBBN 221530Z 07008KT 9999 SCT050CB OVC100 15/M01 Q1013 R14R/CLRD// NOSIG RMK MT OP QFE685,UBBN,2018-03-22T15:30:00Z,39.18,45.45,15.0,-1.0,70,8,,6.21,29.911417,,,,,,TRUE,,,,,SCT,5000,OVC,10000,,,,,VFR,,,,,,,,,,,,SPECI,873.0
LUKK 221530Z 08005KT CAVOK M00/M10 Q1019 R26/120095 NOSIG,LUKK,2018-03-22T15:30:00Z,46.93,28.93,0.0,-10.0,80,5,,6.21,30.088583,,,,,,TRUE,,,,,CAVOK,,,,,,,,VFR,,,,,,,,,,,,METAR,122.0
HSSS 221530Z 31006KT CAVOK 39/00 Q1006 NOSIG,HSSS,2018-03-22T15:30:00Z,15.58,32.53,39.0,0.0,310,6,,6.21,29.704725,,,,,,TRUE,,,,,CAVOK,,,,,,,,VFR,,,,,,,,,,,,METAR,380.0
SPZO 221530Z VRB04KT 9999 SCT043 17/07 Q1032 NOSIG RMK BIRD HAZARD RWY 28,SPZO,2018-03-22T15:30:00Z,-13.55,-71.97,17.0,7.0,0,4,,6.21,30.47244,,,,,,TRUE,,,,,SCT,4300,,,,,,,VFR,,,,,,,,,,,,SPECI,3249.0
YPCC 221530Z AUTO 34012KT 5000 RA SCT015 BKN069 OVC100 24/24 Q1008 RERA,YPCC,2018-03-22T15:30:00Z,-12.17,96.82,24.0,24.0,340,12,,3.11,29.763779,,,TRUE,,,,,,,RA,SCT,1500,BKN,6900,OVC,10000,,,MVFR,,,,,,,,,,,,SPECI,3.0
YHID 221530Z AUTO 09009KT 9999 // SCT014 SCT018 BKN061 27/25 Q1004,YHID,2018-03-22T15:30:00Z,-10.58,142.3,27.0,25.0,90,9,,6.21,29.64567,,,TRUE,,,,,,,,SCT,1400,SCT,1800,BKN,6100,,,VFR,,,,,,,,,,,,SPECI,13.0
WAAA 221530Z VRB02KT 8000 SCT018 24/22 Q1010 NOSIG,WAAA,2018-03-22T15:30:00Z,-5.07,119.53,24.0,22.0,0,2,,4.97,29.822834,,,,,,TRUE,,,,,SCT,1800,,,,,,,MVFR,,,,,,,,,,,,METAR,14.0
OBBI 221530Z 32009KT 8000 SKC 25/17 Q1012 NOSIG,OBBI,2018-03-22T15:30:00Z,26.27,50.63,25.0,17.0,320,9,,4.97,29.88189,,,,,,TRUE,,,,,SKC,,,,,,,,MVFR,,,,,,,,,,,,METAR,2.0
VABO 221530Z 07003KT 6000 NSC 29/12 Q1009 NOSIG,VABO,2018-03-22T15:30:00Z,22.33,73.22,29.0,12.0,70,3,,3.73,29.793306,,,,,,TRUE,,,,,CLR,,,,,,,,MVFR,,,,,,,,,,,,METAR,39.0
SPJR 221530Z 16004KT 120V200 9999 SCT026 BKN046 18/11 Q1028,SPJR,2018-03-22T15:30:00Z,-7.12,-78.47,18.0,11.0,160,4,,6.21,30.35433,,,,,,,,,,,SCT,2600,BKN,4600,,,,,VFR,,,,,,,,,,,,SPECI,2622.0
OPPS 221530Z 36004KT 5000 HZ FEW040 23/10 Q1011,OPPS,2018-03-22T15:30:00Z,34.02,71.52,23.0,10.0,360,4,,3.11,29.852362,,,,,,,,,,HZ,FEW,4000,,,,,,,MVFR,,,,,,,,,,,,METAR,360.0
WADL 221530Z 00000KT 7000 SCT016 24/23 Q1010 NOSIG,WADL,2018-03-22T15:30:00Z,-8.75,116.28,24.0,23.0,0,0,,4.35,29.822834,,,,,,TRUE,,,,,SCT,1600,,,,,,,MVFR,,,,,,,,,,,,METAR,97.0
DIAP 221530Z 23011KT 9999 TS SCT012 FEW020CB SCT040 29/26 Q1010 NOSIG,DIAP,2018-03-22T15:30:00Z,5.25,-3.92,29.0,26.0,230,11,,6.21,29.822834,,,,,,TRUE,,,,TS,SCT,1200,FEW,2000,SCT,4000,,,VFR,,,,,,,,,,,,SPECI,8.0
UBBB 221530Z 23014KT CAVOK 12/09 Q1011 R88/CLRD// NOSIG,UBBB,2018-03-22T15:30:00Z,40.45,50.07,12.0,9.0,230,14,,6.21,29.852362,,,,,,TRUE,,,,,CAVOK,,,,,,,,VFR,,,,,,,,,,,,METAR,-6.0
VORY 221530Z 00000KT 4000 HZ NSC 28/24 Q1007 NOSIG,VORY,2018-03-22T15:30:00Z,17.1,81.82,28.0,24.0,0,0,,2.49,29.734253,,,,,,TRUE,,,,HZ,CLR,,,,,,,,IFR,,,,,,,,,,,,METAR,46.0
VOCL 221530Z 32003KT 6000 SCT012 BKN080 29/24 Q1009 NOSIG,VOCL,2018-03-22T15:30:00Z,11.13,75.95,29.0,24.0,320,3,,3.73,29.793306,,,,,,TRUE,,,,,SCT,1200,BKN,8000,,,,,MVFR,,,,,,,,,,,,METAR,104.0
VOTV 221530Z 35007KT 4000 HZ SCT015 SCT090 30/25 Q1009 NOSIG,VOTV,2018-03-22T15:30:00Z,8.47,76.95,30.0,25.0,350,7,,2.49,29.793306,,,,,,TRUE,,,,HZ,SCT,1500,SCT,9000,,,,,IFR,,,,,,,,,,,,METAR,8.0
VABB 221530Z 30005KT 4000 FU NSC 27/18 Q1010 NOSIG,VABB,2018-03-22T15:30:00Z,19.1,72.87,27.0,18.0,300,5,,2.49,29.822834,,,,,,TRUE,,,,FU,CLR,,,,,,,,IFR,,,,,,,,,,,,METAR,8.0
VOBZ 221530Z 00000KT 2500 HZ NSC 29/25 Q1007 NOSIG,VOBZ,2018-03-22T15:30:00Z,16.52,80.78,29.0,25.0,0,0,,1.55,29.734253,,,,,,TRUE,,,,HZ,CLR,,,,,,,,IFR,,,,,,,,,,,,METAR,24.0
VASU 221530Z 25003KT 6000 NSC 27/21 Q1009,VASU,2018-03-22T15:30:00Z,21.12,72.73,27.0,21.0,250,3,,3.73,29.793306,,,,,,,,,,,CLR,,,,,,,,MVFR,,,,,,,,,,,,METAR,5.0
VOTP 221530Z 27007KT 5000 HZ FEW020 32/20 Q1007,VOTP,2018-03-22T15:30:00Z,13.63,79.55,32.0,20.0,270,7,,3.11,29.734253,,,,,,,,,,HZ,FEW,2000,,,,,,,MVFR,,,,,,,,,,,,METAR,107.0
VOTR 221530Z 18003KT 5000 HZ NSC 31/19 Q1007 NOSIG,VOTR,2018-03-22T15:30:00Z,10.77,78.72,31.0,19.0,180,3,,3.11,29.734253,,,,,,TRUE,,,,HZ,CLR,,,,,,,,MVFR,,,,,,,,,,,,METAR,88.0
VERC 221530Z 00000KT 4000 HZ SCT100 27/13 Q1010 NOSIG,VERC,2018-03-22T15:30:00Z,23.32,85.32,27.0,13.0,0,0,,2.49,29.822834,,,,,,TRUE,,,,HZ,SCT,10000,,,,,,,IFR,,,,,,,,,,,,METAR,652.0
KIPJ 221530Z AUTO 29005KT 10SM CLR 07/M08 A3015 RMK AO2 T00681079,KIPJ,2018-03-22T15:30:00Z,35.48,-81.17,6.8,-7.9,290,5,,10.0,30.15059,,,TRUE,TRUE,,,,,,,CLR,,,,,,,,VFR,,,,,,,,,,,,SPECI,267.0
KPWM 221529Z 35014G19KT 7SM OVC036 01/M03 A2969 RMK AO2 SNE23 P0000 T00111028,KPWM,2018-03-22T15:29:00Z,43.65,-70.3,1.1,-2.8,350,14,19,7.0,29.68996,,,,TRUE,,,,,,,OVC,3600,,,,,,,VFR,,,,,,0.005,,,,,,METAR,15.0
KHQM 221529Z AUTO 22015G21KT 1 3/4SM RA BR SCT008 BKN012 OVC028 06/04 A2952 RMK AO2 P0006 T00610044,KHQM,2018-03-22T15:29:00Z,46.97,-123.93,6.1,4.4,220,15,21,1.75,29.518702,,,TRUE,TRUE,,,,,,RA BR,SCT,800,BKN,1200,OVC,2800,,,IFR,,,,,,0.06,,,,,,METAR,7.0
KELY 221529Z AUTO 13026G39KT 10SM BKN031 OVC040 08/04 A2991 RMK AO2 PK WND 13039/1523 RAB03E15 P0000 T00830044,KELY,2018-03-22T15:29:00Z,39.3,-114.85,8.3,4.4,130,26,39,10.0,29.911417,,,TRUE,TRUE,,,,,,,BKN,3100,OVC,4000,,,,,VFR,,,,,,0.005,,,,,,SPECI,1906.0
PAWN 221529Z AUTO 13015G26KT 1 1/4SM -SN BR SCT015 OVC028 M06/M08 A3028 RMK AO2 PK WND 13026/1524 P0000 FZRANO $,PAWN,2018-03-22T15:29:00Z,67.57,-162.98,-6.0,-8.0,130,15,26,1.25,30.280512,,,TRUE,TRUE,TRUE,,,TRUE,,-SN BR,SCT,1500,OVC,2800,,,,,IFR,,,,,,0.005,,,,,,METAR,30.0
KVTP 221528Z AUTO 20015G28KT 120V230 10SM CLR 04/M05 A3040 RMK AO2,KVTP,2018-03-22T15:28:00Z,37.5,-105.17,4.0,-5.0,200,15,28,10.0,30.398623,,,TRUE,TRUE,,,,,,,CLR,,,,,,,,VFR,,,,,,,,,,,,METAR,3114.0
KHRI 221528Z AUTO 11005KT 5SM RA BR BKN070 BKN080 OVC100 09/08 A2948 RMK AO2 RAB16 P0002 T00890083,KHRI,2018-03-22T15:28:00Z,45.83,-119.27,8.9,8.3,110,5,,5.0,29.480314,,,TRUE,TRUE,,,,,,RA BR,BKN,7000,BKN,8000,OVC,10000,,,MVFR,,,,,,0.02,,,,,,METAR,195.0
PASY 221528Z AUTO 21022KT 2 1/2SM UP BR FEW008 SCT018 BKN042 BKN050 BKN065 M02/M03 A2972,PASY,2018-03-22T15:28:00Z,52.72,174.12,-2.0,-3.0,210,22,,2.5,29.719488,,,TRUE,,,,,,,BR UP,FEW,800,SCT,1800,BKN,4200,BKN,5000,IFR,,,,,,,,,,,,SPECI,31.0
EHKD 221528Z AUTO 30010KT 270V330 9999 FEW006 SCT009 OVC280 07/05 Q1014 GRN 30010KT 9999 FEW005 SCT030 TEMPO SCT005 SCT020,EHKD,2018-03-22T15:28:00Z,52.92,4.77,7.0,5.0,300,10,,6.21,29.940945,,,TRUE,,,,,,,,FEW,600,SCT,900,OVC,28000,FEW,500,VFR,,,,,,,,,,,,SPECI,14.0
CYWJ 221528Z 11003KT 15SM BKN069 M20/M22 A3060 RMK AS7 CIG RAG SLP396,CYWJ,2018-03-22T15:28:00Z,65.22,-123.43,-20.0,-22.0,110,3,,15.0,30.59941,1039.6,,,,,,,,,,BKN,6900,,,,,,,VFR,,,,,,,,,,,,SPECI,176.0
CYVR 221528Z 00000KT 8SM RA FEW008 FEW013 SCT022 BKN035 OVC041 07/06 A2944 RMK SF1SC1SC2SC2SC2 SLP971,CYVR,2018-03-22T15:28:00Z,49.17,-123.17,7.0,6.0,0,0,,8.0,29.438976,997.1,,,,,,,,,RA,FEW,800,FEW,1300,SCT,2200,BKN,3500,VFR,,,,,,,,,,,,SPECI,2.0
CWSA 221528Z AUTO 09021G27KT 1SM -RA BR OVC003 05/05 A2941 RMK SLP959,CWSA,2018-03-22T15:28:00Z,43.93,-60.0,5.0,5.0,90,21,27,1.0,29.409449,995.9,,TRUE,,,,,,,-RA BR,OVC,300,,,,,,,LIFR,,,,,,,,,,,,SPECI,4.0
KSUU 221527Z AUTO 21009KT 10SM -RA OVC013 14/13 A2973 RMK AO2 RAE24RAB25E26RAB27 SLP074 $,KSUU,2018-03-22T15:27:00Z,38.27,-121.92,14.0,13.0,210,9,,10.0,29.731298,1007.4,,TRUE,TRUE,TRUE,,,,,-RA,OVC,1300,,,,,,,MVFR,,,,,,,,,,,,SPECI,19.0
ETEB 221527Z 24008KT 2200 -SN BR FEW006 OVC011 00/00 A2993 RMK AO2A VIS 2200V3200 SLP180 $,ETEB,2018-03-22T15:27:00Z,49.32,10.62,0.0,0.0,240,8,,1.37,29.929134,1018.0,,,TRUE,TRUE,,,,,-SN BR,FEW,600,OVC,1100,,,,,IFR,,,,,,,,,,,,SPECI,467.0
CYYG 221527Z 04024G31KT 3/4SM R03/6000FT/D -SN BLSN OVC010 M01/M03 A2966 RMK SN3SF5 SLP049,CYYG,2018-03-22T15:27:00Z,46.27,-63.12,-1.0,-3.0,40,24,31,0.75,29.660433,1004.9,,,,,,,,,BLSN -SN,OVC,1000,,,,,,,LIFR,,,,,,,,,,,,SPECI,54.0
KTPH 221527Z AUTO 18017G25KT 10SM SCT022 BKN029 OVC038 09/07 A2988 RMK AO2 T00940067,KTPH,2018-03-22T15:27:00Z,38.05,-117.08,9.4,6.7,180,17,25,10.0,29.878937,,,TRUE,TRUE,,,,,,,SCT,2200,BKN,2900,OVC,3800,,,MVFR,,,,,,,,,,,,SPECI,1652.0
KSNS 221527Z 19006KT 2 1/2SM RA BR OVC017 15/14 A2982 RMK AO2 P0002 T01500144,KSNS,2018-03-22T15:27:00Z,36.67,-121.6,15.0,14.4,190,6,,2.5,29.819881,,,,TRUE,,,,,,RA BR,OVC,1700,,,,,,,IFR,,,,,,0.02,,,,,,SPECI,30.0
KOXR 221527Z 00000KT 2 1/2SM RA BR FEW003 BKN015 OVC080 14/13 A3000 RMK AO2 P0012 T01440133,KOXR,2018-03-22T15:27:00Z,34.2,-119.2,14.4,13.3,0,0,,2.5,30.0,,,,TRUE,,,,,,RA BR,FEW,300,BKN,1500,OVC,8000,,,IFR,,,,,,0.12,,,,,,SPECI,20.0
KBED 221527Z 33007KT 2 1/2SM R11/6000VP6000FT -SN BR BKN008 OVC015 02/00 A2968 RMK AO2 P0000 T00170000,KBED,2018-03-22T15:27:00Z,42.47,-71.3,1.7,0.0,330,7,,2.5,29.681103,,,,TRUE,,,,,,-SN BR,BKN,800,OVC,1500,,,,,IFR,,,,,,0.005,,,,,,SPECI,50.0
CYXC 221527Z 28004KT 3SM -RASN OVC015 02/01 A2977 RMK SC8 SLP106,CYXC,2018-03-22T15:27:00Z,49.6,-115.77,2.0,1.0,280,4,,3.0,29.769686,1010.6,,,,,,,,,-RA -SN,OVC,1500,,,,,,,MVFR,,,,,,,,,,,,SPECI,939.0
CYZX 221527Z 05018G25KT 5/8SM -SN BLSN SCT008 OVC014 M00/M01 A2957 RMK SF4SC4 LTNG DTCTRS REP STRIKES 26 NM SE VIS VRB 3/8-1 SLP013,CYZX,2018-03-22T15:27:00Z,44.98,-64.92,0.0,-1.0,50,18,25,0.63,29.568897,1001.3,,,,,,,,,-SN BLSN,SCT,800,OVC,1400,,,,,LIFR,,,,,,,,,,,,SPECI,28.0
CYQY 221527Z 08022G37KT 6SM -SN OVC012 M00/M02 A2970 RMK SC8 SLP061,CYQY,2018-03-22T15:27:00Z,46.17,-60.03,0.0,-2.0,80,22,37,6.0,29.698818,1006.1,,,,,,,,,-SN,OVC,1200,,,,,,,MVFR,,,,,,,,,,,,SPECI,62.0
CYPX 221527Z AUTO 16003KT 4SM BR SCT019 M19/M21 A3039 RMK SLP297,CYPX,2018-03-22T15:27:00Z,60.03,-77.27,-19.0,-21.0,160,3,,4.0,30.389763,1029.7,,TRUE,,,,,,,BR,SCT,1900,,,,,,,MVFR,,,,,,,,,,,,SPECI,23.0
CYQW 221526Z AUTO 12007KT 3/4SM BR OVC002 M07/M09 A3023 RMK SLP274,CYQW,2018-03-22T15:26:00Z,52.77,-108.25,-7.0,-9.0,120,7,,0.75,30.230314,1027.4,,TRUE,,,,,,,BR,OVC,200,,,,,,,LIFR,,,,,,,,,,,,SPECI,548.0
ETIK 221526Z 24009KT 4000 -SN OVC013 01/01 A2995 RMK AO2A CIG 013V017 SLP163 $,ETIK,2018-03-22T15:26:00Z,49.47,10.37,1.0,1.0,240,9,,2.49,29.949802,1016.3,,,TRUE,TRUE,,,,,-SN,OVC,1300,,,,,,,IFR,,,,,,,,,,,,SPECI,325.0
PHLI 221526Z AUTO 08019KT 2SM +RA BR OVC017 22/20 A2999 RMK AO2 PK WND 07027/1507 P0011 T02170200 TSNO,PHLI,2018-03-22T15:26:00Z,21.97,-159.33,21.7,20.0,80,19,,2.0,29.991142,,,TRUE,TRUE,,,TRUE,,,+RA BR,OVC,1700,,,,,,,IFR,,,,,,0.11,,,,,,SPECI,45.0
KUUU 221526Z AUTO 35012G20KT 10SM BKN015 BKN019 OVC025 02/01 A2965 RMK AO2 T00220006,KUUU,2018-03-22T15:26:00Z,41.53,-71.28,2.2,0.6,350,12,20,10.0,29.648623,,,TRUE,TRUE,,,,,,,BKN,1500,BKN,1900,OVC,2500,,,MVFR,,,,,,,,,,,,SPECI,51.0
KPYM 221526Z AUTO 36016G25KT 1 1/4SM -SN BR BKN010 BKN016 OVC020 02/M01 A2964 RMK AO2 PK WND 35026/1503 P0000 T00171006 $,KPYM,2018-03-22T15:26:00Z,41.92,-70.73,1.7,-0.6,360,16,25,1.25,29.639763,,,TRUE,TRUE,TRUE,,,,,-SN BR,BKN,1000,BKN,1600,OVC,2000,,,IFR,,,,,,0.005,,,,,,SPECI,43.0
KMBG 221526Z AUTO VRB06KT 1 1/2SM BR OVC002 M01/M02 A3019 RMK AO2 T10061017,KMBG,2018-03-22T15:26:00Z,45.55,-100.42,-0.6,-1.7,0,6,,1.5,30.188976,,,TRUE,TRUE,,,,,,BR,OVC,200,,,,,,,LIFR,,,,,,,,,,,,SPECI,510.0
ETOU 221526Z AUTO 26006KT 9999 OVC015 04/02 A2995 RMK AO2 SLP151 $,ETOU,2018-03-22T15:26:00Z,50.03,8.32,4.0,2.0,260,6,,6.21,29.949802,1015.1,,TRUE,TRUE,TRUE,,,,,,OVC,1500,,,,,,,MVFR,,,,,,,,,,,,SPECI,141.0
PPIZ 221526Z AUTO 15015KT 1SM -SN BR OVC018 M03/M04 A3012 RMK AO2 P0000 FZRANO TSNO,PPIZ,2018-03-22T15:26:00Z,69.73,-163.0,-3.0,-4.0,150,15,,1.0,30.121063,,,TRUE,TRUE,,,TRUE,TRUE,,-SN BR,OVC,1800,,,,,,,IFR,,,,,,0.005,,,,,,SPECI,8.0
PAIW 221526Z AUTO 16043G52KT 1/4SM +SN FZFG OVC013 M01/M01 A3002 RMK AO2 PK WND 14054/1508 P0000 FZRANO,PAIW,2018-03-22T15:26:00Z,65.62,-168.1,-1.0,-1.0,160,43,52,0.25,30.02067,,,TRUE,TRUE,,,,TRUE,,+SN FZFG,OVC,1300,,,,,,,LIFR,,,,,,0.005,,,,,,SPECI,7.0
CYYC 221526Z 06006KT 040V100 2SM R29/4500VP6000FT/D BR BKN003 OVC056 M06/M07 A2993 RMK FG5ST2SC1 SLP195,CYYC,2018-03-22T15:26:00Z,51.12,-114.02,-6.0,-7.0,60,6,,2.0,29.929134,1019.5,,,,,,,,,BR,BKN,300,OVC,5600,,,,,LIFR,,,,,,,,,,,,SPECI,1084.0
KSDY 221526Z AUTO 07005KT 10SM FEW002 01/00 A3015 RMK AO2 FZRANO,KSDY,2018-03-22T15:26:00Z,47.7,-104.2,1.0,0.0,70,5,,10.0,30.15059,,,TRUE,TRUE,,,,TRUE,,,FEW,200,,,,,,,VFR,,,,,,,,,,,,SPECI,605.0
KPWT 221526Z AUTO 21009KT 10SM -RA SCT007 BKN011 OVC036 05/04 A2950 RMK AO2 P0002,KPWT,2018-03-22T15:26:00Z,47.5,-122.75,5.0,4.0,210,9,,10.0,29.500984,,,TRUE,TRUE,,,,,,-RA,SCT,700,BKN,1100,OVC,3600,,,MVFR,,,,,,0.02,,,,,,SPECI,147.0
EHVL 221525Z AUTO 29009KT 9000 BR BKN024 OVC280 06/04 Q1013 WHT,EHVL,2018-03-22T15:25:00Z,53.23,4.92,6.0,4.0,290,9,,5.59,29.911417,,,TRUE,,,,,,,BR,BKN,2400,OVC,28000,,,,,MVFR,,,,,,,,,,,,METAR,5.0
EHVK 221525Z AUTO 31004KT 280V020 9999 BKN021 BKN024 OVC027 09/04 Q1014 WHT,EHVK,2018-03-22T15:25:00Z,51.63,5.7,9.0,4.0,310,4,,6.21,29.940945,,,TRUE,,,,,,,,BKN,2100,BKN,2400,OVC,2700,,,MVFR,,,,,,,,,,,,METAR,21.0
CYET 221525Z AUTO 09011G16KT 6SM BR OVC007 M02/M04 A2992 RMK SLP172,CYET,2018-03-22T15:25:00Z,53.57,-116.47,-2.0,-4.0,90,11,16,6.0,29.920275,1017.2,,TRUE,,,,,,,BR,OVC,700,,,,,,,IFR,,,,,,,,,,,,SPECI,925.0
EKVJ 221525Z 29010KT 9999 FEW008 SCT012 05/04 Q1009,EKVJ,2018-03-22T15:25:00Z,55.97,8.33,5.0,4.0,290,10,,6.21,29.793306,,,,,,,,,,,FEW,800,SCT,1200,,,,,VFR,,,,,,,,,,,,SPECI,5.0
PAVC 221525Z AUTO 10007KT 5SM BR OVC011 03/02 A3021 RMK AO2,PAVC,2018-03-22T15:25:00Z,55.12,-162.27,3.0,2.0,100,7,,5.0,30.209646,,,TRUE,TRUE,,,,,,BR,OVC,1100,,,,,,,MVFR,,,,,,,,,,,,SPECI,47.0
EHWO 221525Z AUTO 28007KT 210V300 4500 BR FEW003 BKN005 OVC006 06/06 Q1015 YLO,EHWO,2018-03-22T15:25:00Z,51.45,4.32,6.0,6.0,280,7,,2.8,29.970472,,,TRUE,,,,,,,BR,FEW,300,BKN,500,OVC,600,,,IFR,,,,,,,,,,,,METAR,17.0
EHLW 221525Z AUTO 31013KT 9999 OVC005 06/05 Q1013 YLO 31014KT 7500 BR FEW004 BKN006 TEMPO 4000 BR SCT004 BKN005,EHLW,2018-03-22T15:25:00Z,53.22,5.75,6.0,5.0,310,13,,6.21,29.911417,,,TRUE,,,,,,,BR,OVC,500,FEW,400,BKN,600,,,IFR,,,,,,,,,,,,METAR,2.0
ETSH 221525Z 23008KT 2700 -DZ BR BKN005 BKN010 02/01 Q1010 YLO GRN TEMPO YLO,ETSH,2018-03-22T15:25:00Z,51.77,13.17,2.0,1.0,230,8,,1.68,29.822834,,,,,,,,,,-DZ BR,BKN,500,BKN,1000,,,,,IFR,,,,,,,,,,,,SPECI,79.0
EHSC 221525Z AUTO 30013KT 9000 ///////// 06/05 Q1015 W04/H13,EHSC,2018-03-22T15:25:00Z,51.93,3.67,6.0,5.0,300,13,,5.59,29.970472,,,TRUE,,,,,,,,,,,,,,,,,,,,,,,,,,,,METAR,50.0
EHSA 221525Z AUTO 28011KT 9000 ///////// 07/06 Q1015 W04/H13,EHSA,2018-03-22T15:25:00Z,52.0,3.28,7.0,6.0,280,11,,5.59,29.970472,,,TRUE,,,,,,,,,,,,,,,,,,,,,,,,,,,,METAR,50.0
EHQE 221525Z AUTO 30019KT 9999 FEW016 06/05 Q1014 W///H///,EHQE,2018-03-22T15:25:00Z,52.92,4.15,6.0,5.0,300,19,,6.21,29.940945,,,TRUE,,,,,,,,FEW,1600,,,,,,,VFR,,,,,,,,,,,,METAR,50.0
EHPG 221525Z AUTO 29010KT 260V330 9999 SCT011 BKN014 OVC036 07/05 Q1015 W///H///,EHPG,2018-03-22T15:25:00Z,52.37,3.35,7.0,5.0,290,10,,6.21,29.970472,,,TRUE,,,,,,,,SCT,1100,BKN,1400,OVC,3600,,,MVFR,,,,,,,,,,,,METAR,50.0
EHMG 221525Z AUTO 32017KT 9999 SCT022 BKN025 05/04 Q1012 W///H///,EHMG,2018-03-22T15:25:00Z,53.62,4.97,5.0,4.0,320,17,,6.21,29.88189,,,TRUE,,,,,,,,SCT,2200,BKN,2500,,,,,MVFR,,,,,,,,,,,,METAR,50.0
EHMA 221525Z AUTO 29018KT 4700 BR OVC002 04/04 Q1012 W///H///,EHMA,2018-03-22T15:25:00Z,53.5,5.95,4.0,4.0,290,18,,2.92,29.88189,,,TRUE,,,,,,,BR,OVC,200,,,,,,,LIFR,,,,,,,,,,,,METAR,50.0
EHKV 221525Z AUTO 30011KT 220V010 9999 SCT014 BKN017 OVC039 06/04 Q1014 RE// W///H///,EHKV,2018-03-22T15:25:00Z,53.27,3.63,6.0,4.0,300,11,,6.21,29.940945,,,TRUE,,,,,,,,SCT,1400,BKN,1700,OVC,3900,,,MVFR,,,,,,,,,,,,METAR,50.0
EHJR 221525Z AUTO 30017KT //// // ///////// 06/04 Q1014 RE// W05/H12,EHJR,2018-03-22T15:25:00Z,53.22,3.22,6.0,4.0,300,17,,,29.940945,,,TRUE,,,,,,,,,,,,,,,,,,,,,,,,,,,,METAR,50.0
EHJA 221525Z AUTO 29016KT 9999 BKN016/// OVC035/// 06/04 Q1013 W///H///,EHJA,2018-03-22T15:25:00Z,53.82,2.95,6.0,4.0,290,16,,6.21,29.911417,,,TRUE,,,,,,,,BKN,1600,OVC,3500,,,,,MVFR,,,,,,,,,,,,METAR,50.0
EHHW 221525Z AUTO 35012KT 9999 ///////// 05/04 Q1011 W///H///,EHHW,2018-03-22T15:25:00Z,,,5.0,4.0,350,12,,6.21,29.852362,,,TRUE,,,,,,,,,,,,,,,,,,,,,,,,,,,,METAR,
EHFZ 221525Z AUTO 29016KT 9999 NCD 06/04 Q1013 W///H///,EHFZ,2018-03-22T15:25:00Z,54.12,4.02,6.0,4.0,290,16,,6.21,29.911417,,,TRUE,,,,,,,,CLR,,,,,,,,VFR,,,,,,,,,,,,METAR,50.0
EHFD 221525Z AUTO 31015KT 0500 DZ SCT000/// BKN006/// OVC010/// 04/04 Q1011 W///H///,EHFD,2018-03-22T15:25:00Z,54.85,4.7,4.0,4.0,310,15,,0.31,29.852362,,,TRUE,,,,,,,DZ,SCT,0,BKN,600,OVC,1000,,,LIFR,,,,,,,,,,,,METAR,50.0
EHDV 221525Z AUTO 28018KT 9999 BKN016/// OVC020/// 06/05 Q1013 W///H///,EHDV,2018-03-22T15:25:00Z,54.32,2.93,6.0,5.0,280,18,,6.21,29.911417,,,TRUE,,,,,,,,BKN,1600,OVC,2000,,,,,MVFR,,,,,,,,,,,,METAR,50.0
EHAK 221525Z AUTO 33012KT 9999 SCT005/// SCT006/// 05/04 Q1011 W///H///,EHAK,2018-03-22T15:25:00Z,55.42,3.82,5.0,4.0,330,12,,6.21,29.852362,,,TRUE,,,,,,,,SCT,500,SCT,600,,,,,VFR,,,,,,,,,,,,METAR,50.0
KTCM 221525Z AUTO 18004KT 8SM -RA BKN008 OVC012 06/06 A2952 RMK AO2 CIG 006V012 CIG 006 RWY34 SLP001 $,KTCM,2018-03-22T15:25:00Z,47.12,-122.47,6.0,6.0,180,4,,8.0,29.518702,1000.1,,TRUE,TRUE,TRUE,,,,,-RA,BKN,800,OVC,1200,,,,,IFR,,,,,,,,,,,,SPECI,98.0
K2DP 221525Z AUTO 35017G24KT 10SM SCT039 08/00 A3000 RMK AO2 WSHFT 18 SLPNO $,K2DP,2018-03-22T15:25:00Z,35.68,-75.9,8.0,0.0,350,17,24,10.0,30.0,,,TRUE,TRUE,TRUE,,,,,,SCT,3900,,,,,,,VFR,,,,,,,,,,,,SPECI,3.0
YMHB 221525Z 06004KT 9999 FEW010 SCT026 BKN060 13/12 Q1029 RF00/0/000/6,YMHB,2018-03-22T15:25:00Z,-42.82,147.52,13.0,12.0,60,4,,6.21,30.383858,,,,,,,,,,,FEW,1000,SCT,2600,BKN,6000,,,VFR,,,,,,,,,,,,SPECI,27.0
EHGR 221525Z AUTO 29012KT 260V330 9999 SCT013 OVC015 09/06 Q1014 GRN,EHGR,2018-03-22T15:25:00Z,51.57,4.92,9.0,6.0,290,12,,6.21,29.940945,,,TRUE,,,,,,,,SCT,1300,OVC,1500,,,,,MVFR,,,,,,,,,,,,METAR,13.0
EHEH 221525Z AUTO 30008KT 240V360 9999 SCT019 BKN022 OVC025 08/05 Q1014 WHT 30008KT 9999 SCT020 BKN025 BECMG SCT012 BKN015,EHEH,2018-03-22T15:25:00Z,51.45,5.38,8.0,5.0,300,8,,6.21,29.940945,,,TRUE,,,,,,,,SCT,1900,BKN,2200,OVC,2500,SCT,2000,MVFR,,,,,,,,,,,,SPECI,22.0
EHDL 221525Z AUTO 31008KT 280V010 9999 BKN016 OVC020 08/05 Q1013 WHT,EHDL,2018-03-22T15:25:00Z,52.07,5.87,8.0,5.0,310,8,,6.21,29.911417,,,TRUE,,,,,,,,BKN,1600,OVC,2000,,,,,MVFR,,,,,,,,,,,,METAR,52.0
EHGG 221525Z AUTO 32011KT 9999 SCT004 OVC005 06/05 Q1012 TEMPO 4000 BR BKN004,EHGG,2018-03-22T15:25:00Z,53.12,6.57,6.0,5.0,320,11,,6.21,29.88189,,,TRUE,,,,,,,,SCT,400,OVC,500,,,,,IFR,,,,,,,,,,,,METAR,4.0
EHRD 221525Z AUTO 31010KT 270V350 9999 BKN006 OVC008 07/06 Q1015 TEMPO 7000,EHRD,2018-03-22T15:25:00Z,51.95,4.45,7.0,6.0,310,10,,6.21,29.970472,,,TRUE,,,,,,,,BKN,600,OVC,800,,,,,IFR,,,,,,,,,,,,METAR,-5.0
EHBK 221525Z AUTO 28005KT 240V330 7000 BKN019 OVC023 07/06 Q1014 TEMPO 4000 BR SCT008 BKN012,EHBK,2018-03-22T15:25:00Z,50.92,5.77,7.0,6.0,280,5,,4.35,29.940945,,,TRUE,,,,,,,,BKN,1900,OVC,2300,,,,,MVFR,,,,,,,,,,,,METAR,116.0
EHAM 221525Z 30011KT 270V330 9999 FEW008 SCT011 07/05 Q1014 TEMPO BKN009,EHAM,2018-03-22T15:25:00Z,52.32,4.78,7.0,5.0,300,11,,6.21,29.940945,,,,,,,,,,,FEW,800,SCT,1100,,,,,VFR,,,,,,,,,,,,METAR,9.0
KOLF 221525Z AUTO 08009KT 3SM BR CLR M01/M03 A3011 RMK AO2 T10061028,KOLF,2018-03-22T15:25:00Z,48.1,-105.58,-0.6,-2.8,80,9,,3.0,30.109253,,,TRUE,TRUE,,,,,,BR,CLR,,,,,,,,MVFR,,,,,,,,,,,,SPECI,604.0
KDLS 221525Z AUTO 26003KT 7SM BKN014 OVC027 08/07 A2951 RMK AO2 T00830072,KDLS,2018-03-22T15:25:00Z,45.62,-121.17,8.3,7.2,260,3,,7.0,29.509842,,,TRUE,TRUE,,,,,,,BKN,1400,OVC,2700,,,,,MVFR,,,,,,,,,,,,SPECI,71.0
KBOS 221525Z 35016G22KT 2SM -SN BR FEW009 BKN013 OVC021 02/00 A2968 RMK AO2 SFC VIS 3 P0001 T00170000,KBOS,2018-03-22T15:25:00Z,42.37,-71.02,1.7,0.0,350,16,22,2.0,29.681103,,,,TRUE,,,,,,-SN BR,FEW,900,BKN,1300,OVC,2100,,,IFR,,,,,,0.01,,,,,,SPECI,6.0
SBCP 221525Z 16012KT 1500 +RA BKN004 OVC080 26/22 Q1013,SBCP,2018-03-22T15:25:00Z,-21.7,-41.3,26.0,22.0,160,12,,0.93,29.911417,,,,,,,,,,+RA,BKN,400,OVC,8000,,,,,LIFR,,,,,,,,,,,,SPECI,11.0
KSFM 221524Z AUTO 02017G23KT 3/4SM -SN 01/M02 A2969 RMK AO2 P0000 FZRANO RVRNO $,KSFM,2018-03-22T15:24:00Z,43.38,-70.72,1.0,-2.0,20,17,23,0.75,29.68996,,,TRUE,TRUE,TRUE,,,TRUE,,-SN,,,,,,,,,,,,,,,0.005,,,,,,SPECI,74.0
KCKB 221524Z 22007KT 10SM SCT020 01/M04 A3016 RMK AO2 T00111044,KCKB,2018-03-22T15:24:00Z,39.3,-80.22,1.1,-4.4,220,7,,10.0,30.159449,,,,TRUE,,,,,,,SCT,2000,,,,,,,VFR,,,,,,,,,,,,SPECI,360.0
KEPH 221524Z AUTO 02007KT 8SM SCT004 BKN055 BKN075 07/06 A2954 RMK AO2 T00670061,KEPH,2018-03-22T15:24:00Z,47.3,-119.52,6.7,6.1,20,7,,8.0,29.53937,,,TRUE,TRUE,,,,,,,SCT,400,BKN,5500,BKN,7500,,,VFR,,,,,,,,,,,,SPECI,383.0
KFAR 221524Z 03005KT 7SM BKN014 OVC034 02/00 A3034 RMK AO2 T00220000,KFAR,2018-03-22T15:24:00Z,46.93,-96.82,2.2,0.0,30,5,,7.0,30.339567,,,,TRUE,,,,,,,BKN,1400,OVC,3400,,,,,MVFR,,,,,,,,,,,,SPECI,277.0
KMLP 221524Z AUTO 14008KT 10SM BKN001 M01/M01 A2968 RMK AO2 T10061006 TSNO,KMLP,2018-03-22T15:24:00Z,47.45,-115.67,-0.6,-0.6,140,8,,10.0,29.681103,,,TRUE,TRUE,,,TRUE,,,,BKN,100,,,,,,,LIFR,,,,,,,,,,,,SPECI,1837.0
KTVL 221524Z AUTO 20005KT 2SM RA BR OVC017 03/01 A2976 RMK AO2 P0007 T00280011,KTVL,2018-03-22T15:24:00Z,38.9,-120.0,2.8,1.1,200,5,,2.0,29.760826,,,TRUE,TRUE,,,,,,RA BR,OVC,1700,,,,,,,IFR,,,,,,0.07,,,,,,SPECI,1924.0
CYBR 221524Z 07003KT 3SM BR BKN003 OVC250 M06/M07 A3037 RMK ST6CI2 SLP313,CYBR,2018-03-22T15:24:00Z,49.92,-99.95,-6.0,-7.0,70,3,,3.0,30.369095,1031.3,,,,,,,,,BR,BKN,300,OVC,25000,,,,,LIFR,,,,,,,,,,,,SPECI,409.0
ETSN 221524Z 28013KT 4500 -SN FEW027 BKN040 02/M03 Q1014 GRN GRN TEMPO YLO,ETSN,2018-03-22T15:24:00Z,48.72,11.22,2.0,-3.0,280,13,,2.8,29.940945,,,,,,,,,,-SN,FEW,2700,BKN,4000,,,,,IFR,,,,,,,,,,,,SPECI,387.0
CYSJ 221523Z 02021G30KT 2 1/2SM R05/5000VP6000FT/U -SN DRSN BKN012 OVC030 M01/M03 A2959 RMK SF6SC2 SLP027,CYSJ,2018-03-22T15:23:00Z,45.32,-65.87,-1.0,-3.0,20,21,30,2.5,29.589567,1002.7,,,,,,,,,DRSN -SN,BKN,1200,OVC,3000,,,,,IFR,,,,,,,,,,,,SPECI,109.0
KMMV 221523Z AUTO 24007KT 10SM -RA FEW020 SCT025 OVC036 06/06 A2960 RMK AO2 P0002 T00560056,KMMV,2018-03-22T15:23:00Z,45.2,-123.13,5.6,5.6,240,7,,10.0,29.601377,,,TRUE,TRUE,,,,,,-RA,FEW,2000,SCT,2500,OVC,3600,,,VFR,,,,,,0.02,,,,,,SPECI,48.0
KLOL 221523Z AUTO 10003KT 3SM BR SCT008 BKN047 OVC055 08/07 A2973 RMK AO2 T00780072 PWINO,KLOL,2018-03-22T15:23:00Z,40.07,-118.57,7.8,7.2,100,3,,3.0,29.731298,,,TRUE,TRUE,,,,,TRUE,BR,SCT,800,BKN,4700,OVC,5500,,,MVFR,,,,,,,,,,,,SPECI,1189.0
KHLR 221523Z AUTO 16014KT 10SM SCT019 18/13 A3025 RMK AO2 SLP239,KHLR,2018-03-22T15:23:00Z,31.13,-97.72,18.0,13.0,160,14,,10.0,30.250984,1023.9,,TRUE,TRUE,,,,,,,SCT,1900,,,,,,,VFR,,,,,,,,,,,,SPECI,283.0
K9L2 221523Z AUTO 11003KT 8SM SCT001 13/11 A2999 RMK AO2 RAB08E23 SLP148,K9L2,2018-03-22T15:23:00Z,34.97,-117.87,13.0,11.0,110,3,,8.0,29.991142,1014.8,,TRUE,TRUE,,,,,,,SCT,100,,,,,,,VFR,,,,,,,,,,,,SPECI,701.0
EBDT 221523Z 31008KT 9000 FEW007 SCT012 BKN017 07/06 Q1015 GRN GRN TEMPO WHT,EBDT,2018-03-22T15:23:00Z,51.02,5.07,7.0,6.0,310,8,,5.59,29.970472,,,,,,,,,,,FEW,700,SCT,1200,BKN,1700,,,MVFR,,,,,,,,,,,,SPECI,54.0
CYGE 221523Z VRB02KT 10SM -SN BKN025 OVC040 00/M02 A2976 RMK SC7SC1 VIS E 5 SLP107,CYGE,2018-03-22T15:23:00Z,51.3,-116.98,0.0,-2.0,0,2,,10.0,29.760826,1010.7,,,,,,,,,-SN,BKN,2500,OVC,4000,,,,,MVFR,,,,,,,,,,,,SPECI,785.0
KNSI 221523Z COR 23010KT 5SM -RA BR FEW003 BKN005 OVC042 15/14 A3001 RMK AO2 VIS S-SW 2 P0005 T01500144 $,KNSI,2018-03-22T15:23:00Z,33.22,-119.45,15.0,14.4,230,10,,5.0,30.008858,,TRUE,,TRUE,TRUE,,,,,-RA BR,FEW,300,BKN,500,OVC,4200,,,IFR,,,,,,0.05,,,,,,SPECI,154.0
CYQR 221523Z 11014KT 1SM R13/P6000FT/U BR OVC002 M05/M06 A3022 RMK SC8 FROIN SLP272,CYQR,2018-03-22T15:23:00Z,50.43,-104.67,-5.0,-6.0,110,14,,1.0,30.221457,1027.2,,,,,,,,,BR,OVC,200,,,,,,,LIFR,,,,,,,,,,,,SPECI,577.0
KBHB 221523Z AUTO 36018G30KT 3/4SM -SN BR SCT008 OVC013 M02/M03 A2963 RMK AO2 PK WND 36030/1522 FZRANO RVRNO PNO $,KBHB,2018-03-22T15:23:00Z,44.45,-68.37,-2.0,-3.0,360,18,30,0.75,29.630905,,,TRUE,TRUE,TRUE,,,TRUE,,-SN BR,SCT,800,OVC,1300,,,,,LIFR,,,,,,,,,,,,SPECI,26.0
CYER 221523Z AUTO 34013G23KT 9SM -SN SCT010 M13/M15 A3052 RMK SLP338,CYER,2018-03-22T15:23:00Z,56.02,-87.68,-13.0,-15.0,340,13,23,9.0,30.519686,1033.8,,TRUE,,,,,,,-SN,SCT,1000,,,,,,,VFR,,,,,,,,,,,,SPECI,16.0
KPSM 221523Z 34016KT 1 1/2SM -SN BR FEW008 OVC015 01/M01 A2967 RMK AO2A,KPSM,2018-03-22T15:23:00Z,43.07,-70.82,1.0,-1.0,340,16,,1.5,29.66929,,,,TRUE,,,,,,-SN BR,FEW,800,OVC,1500,,,,,IFR,,,,,,,,,,,,SPECI,31.0
KEDW 221523Z 21010KT 15SM FEW025 SCT060 BKN080 OVC160 13/13 A2996 RMK AO2A,KEDW,2018-03-22T15:23:00Z,34.88,-117.87,13.0,13.0,210,10,,15.0,29.958662,,,,TRUE,,,,,,,FEW,2500,SCT,6000,BKN,8000,OVC,16000,VFR,,,,,,,,,,,,SPECI,702.0
KSEA 221522Z 18007KT 5SM -RA BR BKN007 OVC037 06/05 A2951 RMK AO2 P0004 T00610050,KSEA,2018-03-22T15:22:00Z,47.45,-122.32,6.1,5.0,180,7,,5.0,29.509842,,,,TRUE,,,,,,-RA BR,BKN,700,OVC,3700,,,,,IFR,,,,,,0.04,,,,,,SPECI,136.0
PACD 221522Z 14025G29KT 6SM UP BR BKN005 OVC012 03/02 A3012 RMK AO2 PK WND 14036/1501 UPB13SNB02E13 P0000 T00280022,PACD,2018-03-22T15:22:00Z,55.2,-162.72,2.8,2.2,140,25,29,6.0,30.121063,,,,TRUE,,,,,,BR UP,BKN,500,OVC,1200,,,,,IFR,,,,,,0.005,,,,,,SPECI,30.0
KMLF 221522Z AUTO 19012KT 10SM SCT050 11/04 A3002 RMK AO2 WSHFT 1508 T01110044,KMLF,2018-03-22T15:22:00Z,38.42,-113.02,11.1,4.4,190,12,,10.0,30.02067,,,TRUE,TRUE,,,,,,,SCT,5000,,,,,,,VFR,,,,,,,,,,,,SPECI,1534.0
KACV 221522Z AUTO 00000KT 10SM -RA BKN019 BKN039 OVC075 07/05 A2980 RMK AO2 P0001 T00670050,KACV,2018-03-22T15:22:00Z,40.98,-124.1,6.7,5.0,0,0,,10.0,29.799213,,,TRUE,TRUE,,,,,,-RA,BKN,1900,BKN,3900,OVC,7500,,,MVFR,,,,,,0.01,,,,,,SPECI,67.0
CYQI 221522Z 02013G21KT 1SM -SN OVC009 M00/M01 A2944 RMK SN2SF6 SLP974,CYQI,2018-03-22T15:22:00Z,43.83,-66.08,0.0,-1.0,20,13,21,1.0,29.438976,997.4,,,,,,,,,-SN,OVC,900,,,,,,,IFR,,,,,,,,,,,,SPECI,43.0
UTO8 M M M 274/-29/-31/2918/M/ PK WND 2822 1458Z 2003 74MM,UTO8,2018-03-22T15:22:00Z,,,,,,,,1.24,,,,,,,,,,,,,,,,,,,,,,,,,,,,,,,,METAR,
OIAW 221522Z 28006KT CAVOK 28/M03 Q1010,OIAW,2018-03-22T15:22:00Z,31.32,48.77,28.0,-3.0,280,6,,6.21,29.822834,,,,,,,,,,,CAVOK,,,,,,,,VFR,,,,,,,,,,,,SPECI,22.0
KRKD 221521Z AUTO 01009G22KT 340V070 1SM -SN BR OVC017 M01/M03 A2964 RMK AO2 P0001 FZRANO,KRKD,2018-03-22T15:21:00Z,44.07,-69.08,-1.0,-3.0,10,9,22,1.0,29.639763,,,TRUE,TRUE,,,,TRUE,,-SN BR,OVC,1700,,,,,,,IFR,,,,,,0.01,,,,,,SPECI,17.0
KDVP 221521Z AUTO 13007KT 10SM OVC050 01/00 A3027 RMK AO2 T00121002,KDVP,2018-03-22T15:21:00Z,43.98,-95.78,1.2,-0.2,130,7,,10.0,30.268702,,,TRUE,TRUE,,,,,,,OVC,5000,,,,,,,VFR,,,,,,,,,,,,METAR,495.0
KBVY 221521Z 35012KT 1 1/2SM -SN BR SCT007 BKN011 OVC018 01/00 A2967 RMK AO2 P0000 T00110000,KBVY,2018-03-22T15:21:00Z,42.58,-70.92,1.1,0.0,350,12,,1.5,29.66929,,,,TRUE,,,,,,-SN BR,SCT,700,BKN,1100,OVC,1800,,,IFR,,,,,,0.005,,,,,,SPECI,28.0
KINS 221521Z AUTO 11008KT 10SM -RA OVC055 14/09 A2995 RMK AO2 RAB21 SLP113 $,KINS,2018-03-22T15:21:00Z,36.58,-115.67,14.0,9.0,110,8,,10.0,29.949802,1011.3,,TRUE,TRUE,TRUE,,,,,-RA,OVC,5500,,,,,,,VFR,,,,,,,,,,,,SPECI,955.0
KHIF 221521Z 16015KT 10SM OVC050 11/05 A2992 RMK AO2A RAE06 SLP107 MIDFLD WND 16012G19KT,KHIF,2018-03-22T15:21:00Z,41.12,-111.97,11.0,5.0,160,15,,10.0,29.920275,1010.7,,,TRUE,,,,,,,OVC,5000,,,,,,,VFR,,,,,,,,,,,,SPECI,1459.0
KWVI 221521Z AUTO 18013G19KT 9SM -RA OVC007 14/ A2982 RMK AO2 P0001 T0139 TSNO,KWVI,2018-03-22T15:21:00Z,36.93,-121.78,13.9,,180,13,19,9.0,29.819881,,,TRUE,TRUE,,,TRUE,,,-RA,OVC,700,,,,,,,IFR,,,,,,0.01,,,,,,SPECI,43.0
KUIL 221521Z AUTO 13004KT 3SM -RA BR FEW007 BKN013 OVC019 04/04 A2947 RMK AO2 P0004 T00440039,KUIL,2018-03-22T15:21:00Z,47.93,-124.55,4.4,3.9,130,4,,3.0,29.471457,,,TRUE,TRUE,,,,,,-RA BR,FEW,700,BKN,1300,OVC,1900,,,MVFR,,,,,,0.04,,,,,,SPECI,54.0
KHIO 221521Z 19007KT 7SM -RA SCT010 BKN034 OVC041 07/05 A2957 RMK AO2 P0002 T00670050,KHIO,2018-03-22T15:21:00Z,45.55,-122.95,6.7,5.0,190,7,,7.0,29.568897,,,,TRUE,,,,,,-RA,SCT,1000,BKN,3400,OVC,4100,,,VFR,,,,,,0.02,,,,,,SPECI,68.0
EDAC 221520Z 21009KT 9000 -DZ SCT011 OVC020 01/01 Q1011,EDAC,2018-03-22T15:20:00Z,50.98,12.5,1.0,1.0,210,9,,5.59,29.852362,,,,,,,,,,-DZ,SCT,1100,OVC,2000,,,,,MVFR,,,,,,,,,,,,METAR,195.0
LTCJ 221520Z 07006KT 9999 BKN180 16/09 Q1015 RMK RWY20 07006KT,LTCJ,2018-03-22T15:20:00Z,37.93,41.12,16.0,9.0,70,6,,6.21,29.970472,,,,,,,,,,,BKN,18000,,,,,,,VFR,,,,,,,,,,,,METAR,540.0
KGNB 221520Z AUTO 00000KT 10SM CLR M01/M04 A3025 RMK AO2 T10141045,KGNB,2018-03-22T15:20:00Z,40.08,-105.92,-1.4,-4.5,0,0,,10.0,30.250984,,,TRUE,TRUE,,,,,,,CLR,,,,,,,,VFR,,,,,,,,,,,,SPECI,2500.0
ESTA 221520Z 32008KT 9999 OVC016 02/00 Q1007,ESTA,2018-03-22T15:20:00Z,56.28,12.83,2.0,0.0,320,8,,6.21,29.734253,,,,,,,,,,,OVC,1600,,,,,,,MVFR,,,,,,,,,,,,METAR,47.0
ESMX 221520Z 25005KT 210V280 9999 BKN013 02/M01 Q1006,ESMX,2018-03-22T15:20:00Z,56.92,14.72,2.0,-1.0,250,5,,6.21,29.704725,,,,,,,,,,,BKN,1300,,,,,,,MVFR,,,,,,,,,,,,METAR,186.0
ESMT 221520Z 28006KT 9999 FEW010 BKN013 02/00 Q1007,ESMT,2018-03-22T15:20:00Z,56.67,12.82,2.0,0.0,280,6,,6.21,29.734253,,,,,,,,,,,FEW,1000,BKN,1300,,,,,MVFR,,,,,,,,,,,,METAR,30.0
ESMS 221520Z 04005KT 9999 OVC019 03/M00 Q1006 R17/69//95,ESMS,2018-03-22T15:20:00Z,55.53,13.37,3.0,0.0,40,5,,6.21,29.704725,,,,,,,,,,,OVC,1900,,,,,,,MVFR,,,,,,,,,,,,SPECI,106.0
ESMQ 221520Z 27004KT 9999 BKN021 04/00 Q1006,ESMQ,2018-03-22T15:20:00Z,56.68,16.3,4.0,0.0,270,4,,6.21,29.704725,,,,,,,,,,,BKN,2100,,,,,,,MVFR,,,,,,,,,,,,METAR,16.0
PASN 221520Z AUTO 16036G44KT 3SM -RA BR OVC009 04/04 A2959 RMK AO2 PK WND 15046/1506 RAB1458SNE1458 P0000 T00390039 TSNO,PASN,2018-03-22T15:20:00Z,57.15,-170.22,3.9,3.9,160,36,44,3.0,29.589567,,,TRUE,TRUE,,,TRUE,,,-RA BR,OVC,900,,,,,,,IFR,,,,,,0.005,,,,,,SPECI,29.0
KSJT 221520Z 20015KT 10SM BKN020 18/11 A3019 RMK AO2 PK WND 20027/1505 T01830111,KSJT,2018-03-22T15:20:00Z,31.37,-100.5,18.3,11.1,200,15,,10.0,30.188976,,,,TRUE,,,,,,,BKN,2000,,,,,,,MVFR,,,,,,,,,,,,SPECI,576.0
KMSP 221520Z 08007KT 10SM OVC031 02/M03 A3037 RMK AO2 T00221033,KMSP,2018-03-22T15:20:00Z,44.88,-93.23,2.2,-3.3,80,7,,10.0,30.369095,,,,TRUE,,,,,,,OVC,3100,,,,,,,VFR,,,,,,,,,,,,SPECI,265.0
K2G4 221520Z AUTO 28007G15KT 10SM BKN009 M05/M07 A3001 RMK AO1,K2G4,2018-03-22T15:20:00Z,39.58,-79.33,-5.0,-7.0,280,7,15,10.0,30.008858,,,TRUE,TRUE,,,,,,,BKN,900,,,,,,,IFR,,,,,,,,,,,,SPECI,894.0
EVLA 221520Z AUTO 24013KT 9000 SCT006/// BKN020/// OVC032/// 02/01 Q1006,EVLA,2018-03-22T15:20:00Z,56.52,21.1,2.0,1.0,240,13,,5.59,29.704725,,,TRUE,,,,,,,,SCT,600,BKN,2000,OVC,3200,,,MVFR,,,,,,,,,,,,METAR,4.0
EVVA 221520Z AUTO 24010KT 9999 FEW013 BKN022 OVC027 02/01 Q1005,EVVA,2018-03-22T15:20:00Z,57.35,21.55,2.0,1.0,240,10,,6.21,29.675198,,,TRUE,,,,,,,,FEW,1300,BKN,2200,OVC,2700,,,MVFR,,,,,,,,,,,,METAR,6.0
CYYE 221520Z 35006KT 10SM -SN BKN035 BKN140 M17/M21 A3046 RMK SC5AC2 SLP354,CYYE,2018-03-22T15:20:00Z,58.82,-122.57,-17.0,-21.0,350,6,,10.0,30.46063,1035.4,,,,,,,,,-SN,BKN,3500,BKN,14000,,,,,VFR,,,,,,,,,,,,SPECI,382.0
LSZC 221520Z AUTO VRB03KT 9999 BKN080 SCT100 04/M05 Q1017,LSZC,2018-03-22T15:20:00Z,46.97,8.38,4.0,-5.0,0,3,,6.21,30.029528,,,TRUE,,,,,,,,BKN,8000,SCT,10000,,,,,VFR,,,,,,,,,,,,METAR,450.0
LSZS 221520Z 35009KT 310V030 9999 BKN062 M01/M16 Q1008 RMK R,LSZS,2018-03-22T15:20:00Z,46.53,9.88,-1.0,-16.0,350,9,,6.21,29.763779,,,,,,,,,,,BKN,6200,,,,,,,VFR,,,,,,,,,,,,METAR,1706.0
LSZR 221520Z VRB02KT 9999 BKN060 04/M06 Q1016 NOSIG RMK L,LSZR,2018-03-22T15:20:00Z,47.48,9.57,4.0,-6.0,0,2,,6.21,30.0,,,,,,TRUE,,,,,BKN,6000,,,,,,,VFR,,,,,,,,,,,,METAR,398.0
LSZG 221520Z 28008KT 9999 BKN052 05/M05 Q1017 NOSIG,LSZG,2018-03-22T15:20:00Z,47.17,7.42,5.0,-5.0,280,8,,6.21,30.029528,,,,,,TRUE,,,,,BKN,5200,,,,,,,VFR,,,,,,,,,,,,METAR,430.0
LSGS 221520Z 26015KT 9999 BKN100 08/M06 Q1013,LSGS,2018-03-22T15:20:00Z,46.22,7.32,8.0,-6.0,260,15,,6.21,29.911417,,,,,,,,,,,BKN,10000,,,,,,,VFR,,,,,,,,,,,,METAR,481.0
LSGC 221520Z 31006KT 2200 -SN BR OVC020 M02/M05 Q1015,LSGC,2018-03-22T15:20:00Z,47.08,6.8,-2.0,-5.0,310,6,,1.37,29.970472,,,,,,,,,,-SN BR,OVC,2000,,,,,,,IFR,,,,,,,,,,,,METAR,1027.0
LSZA 221520Z 18006KT CAVOK 10/M03 Q1008 NOSIG,LSZA,2018-03-22T15:20:00Z,46.0,8.92,10.0,-3.0,180,6,,6.21,29.763779,,,,,,TRUE,,,,,CAVOK,,,,,,,,VFR,,,,,,,,,,,,METAR,276.0
LSZB 221520Z 35004KT 300V040 9999 BKN063 06/M09 Q1016 NOSIG,LSZB,2018-03-22T15:20:00Z,46.92,7.5,6.0,-9.0,350,4,,6.21,30.0,,,,,,TRUE,,,,,BKN,6300,,,,,,,VFR,,,,,,,,,,,,METAR,505.0
LSGG 221520Z 04007KT 9999 BKN080 07/M09 Q1016 NOSIG,LSGG,2018-03-22T15:20:00Z,46.25,6.12,7.0,-9.0,40,7,,6.21,30.0,,,,,,TRUE,,,,,BKN,8000,,,,,,,VFR,,,,,,,,,,,,METAR,416.0
LSZH 221520Z 31015KT 9999 FEW040 BKN065 03/M03 Q1017 TEMPO 4500 -SN,LSZH,2018-03-22T15:20:00Z,47.48,8.53,3.0,-3.0,310,15,,6.21,30.029528,,,,,,,,,,,FEW,4000,BKN,6500,,,,,VFR,,,,,,,,,,,,METAR,432.0
ESUD 221520Z AUTO 34007KT 9999 NCD M01/M10 Q1002,ESUD,2018-03-22T15:20:00Z,64.97,17.7,-1.0,-10.0,340,7,,6.21,29.586615,,,TRUE,,,,,,,,CLR,,,,,,,,VFR,,,,,,,,,,,,METAR,279.0
ESUT 221520Z AUTO 32006KT 9999 NCD M03/M09 Q1002,ESUT,2018-03-22T15:20:00Z,65.8,15.08,-3.0,-9.0,320,6,,6.21,29.586615,,,TRUE,,,,,,,,CLR,,,,,,,,VFR,,,,,,,,,,,,METAR,463.0
PACZ 221520Z AUTO 14033G42KT 1/2SM -SN FG FEW003 BKN170 M04/M05 A3002 RMK AO2 SLP174,PACZ,2018-03-22T15:20:00Z,61.78,-166.03,-4.0,-5.0,140,33,42,0.5,30.02067,1017.4,,TRUE,TRUE,,,,,,-SN FG,FEW,300,BKN,17000,,,,,LIFR,,,,,,,,,,,,SPECI,146.0
EGEO 221520Z 17014KT 9999 FEW018 SCT021 BKN036 08/04 Q1006,EGEO,2018-03-22T15:20:00Z,56.47,-5.4,8.0,4.0,170,14,,6.21,29.704725,,,,,,,,,,,FEW,1800,SCT,2100,BKN,3600,,,VFR,,,,,,,,,,,,METAR,6.0
EDDP 221520Z 24014KT 5000 -DZ FEW006 BKN014 02/01 Q1010 TEMPO 4000 -DZ BKN008,EDDP,2018-03-22T15:20:00Z,51.43,12.23,2.0,1.0,240,14,,3.11,29.822834,,,,,,,,,,-DZ,FEW,600,BKN,1400,,,,,MVFR,,,,,,,,,,,,SPECI,149.0
EDDG 221520Z 29007KT 270V330 6000 -DZRA FEW006 BKN008 07/06 Q1012 NOSIG,EDDG,2018-03-22T15:20:00Z,52.13,7.7,7.0,6.0,290,7,,3.73,29.88189,,,,,,TRUE,,,,-DZ -RA,FEW,600,BKN,800,,,,,IFR,,,,,,,,,,,,METAR,52.0
EDDE 221520Z 23011KT 9999 -SNSG SCT013 BKN020 02/00 Q1011 TEMPO BKN013,EDDE,2018-03-22T15:20:00Z,50.98,10.97,2.0,0.0,230,11,,6.21,29.852362,,,,,,TRUE,,,,,SCT,1300,BKN,2000,,,,,MVFR,,,,,,,,,,,,METAR,323.0
ESMK 221520Z 09005KT 9999 FEW013 OVC017 03/00 Q1006,ESMK,2018-03-22T15:20:00Z,55.92,14.07,3.0,0.0,90,5,,6.21,29.704725,,,,,,,,,,,FEW,1300,OVC,1700,,,,,MVFR,,,,,,,,,,,,METAR,23.0
ESGT 221520Z 26007KT 9999 BKN009 02/M00 Q1007,ESGT,2018-03-22T15:20:00Z,58.32,12.33,2.0,0.0,260,7,,6.21,29.734253,,,,,,,,,,,BKN,900,,,,,,,IFR,,,,,,,,,,,,METAR,41.0
ESGJ 221520Z 29005KT 250V320 9999 FEW024 04/M01 Q1005 R19/09//70,ESGJ,2018-03-22T15:20:00Z,57.77,14.07,4.0,-1.0,290,5,,6.21,29.675198,,,,,,,,,,,FEW,2400,,,,,,,VFR,,,,,,,,,,,,SPECI,232.0
ESGG 221520Z 29004KT 9999 OVC008 01/M00 Q1007 R21/29//95,ESGG,2018-03-22T15:20:00Z,57.67,12.3,1.0,0.0,290,4,,6.21,29.734253,,,,,,,,,,,OVC,800,,,,,,,IFR,,,,,,,,,,,,SPECI,169.0
EDDW 221520Z 32011KT 9999 FEW007 BKN011 BKN015 06/04 Q1010 NOSIG,EDDW,2018-03-22T15:20:00Z,53.03,8.8,6.0,4.0,320,11,,6.21,29.822834,,,,,,TRUE,,,,,FEW,700,BKN,1100,BKN,1500,,,MVFR,,,,,,,,,,,,METAR,5.0
EDDR 221520Z 24010KT 3500 -RASN BR OVC004 01/00 Q1015 TEMPO 5000 BKN005,EDDR,2018-03-22T15:20:00Z,49.22,7.1,1.0,0.0,240,10,,2.17,29.970472,,,,,,,,,,-RA -SN BR,OVC,400,,,,,,,LIFR,,,,,,,,,,,,SPECI,320.0
EDDH 221520Z 28010KT 7000 -DZ FEW004 BKN005 05/04 Q1009 NOSIG,EDDH,2018-03-22T15:20:00Z,53.63,10.0,5.0,4.0,280,10,,4.35,29.793306,,,,,,TRUE,,,,-DZ,FEW,400,BKN,500,,,,,IFR,,,,,,,,,,,,METAR,16.0
EDDF 221520Z 21009KT 8000 -RA FEW006 OVC013 04/02 Q1014 R88/290095 TEMPO BKN006,EDDF,2018-03-22T15:20:00Z,50.05,8.6,4.0,2.0,210,9,,4.97,29.940945,,,,,,,,,,-RA,FEW,600,OVC,1300,,,,,MVFR,,,,,,,,,,,,METAR,113.0
EKSP 221520Z 33006KT 290V350 9999 BKN019 06/03 Q1008 TEMPO BKN012,EKSP,2018-03-22T15:20:00Z,55.22,9.27,6.0,3.0,330,6,,6.21,29.763779,,,,,,,,,,,BKN,1900,,,,,,,MVFR,,,,,,,,,,,,SPECI,40.0
EKKA 221520Z AUTO 33003KT 9999NDV BKN015/// 05/02 Q1008,EKKA,2018-03-22T15:20:00Z,56.3,9.12,5.0,2.0,330,3,,,29.763779,,,TRUE,,,,,,,,BKN,1500,,,,,,,,,,,,,,,,,,,SPECI,52.0
EDDS 221520Z 21006KT 180V250 9999 -SN SCT015 BKN036 02/M02 Q1015 NOSIG,EDDS,2018-03-22T15:20:00Z,48.67,9.22,2.0,-2.0,210,6,,6.21,29.970472,,,,,,TRUE,,,,-SN,SCT,1500,BKN,3600,,,,,VFR,,,,,,,,,,,,METAR,419.0
EDDN 221520Z 24007KT 2200 SN FEW007 BKN012 BKN020 01/00 Q1014 R28/29//95 TEMPO BKN009,EDDN,2018-03-22T15:20:00Z,49.5,11.08,1.0,0.0,240,7,,1.37,29.940945,,,,,,,,,,SN,FEW,700,BKN,1200,BKN,2000,,,IFR,,,,,,,,,,,,SPECI,312.0
EDDM 221520Z 26008KT 240V300 CAVOK 04/M08 Q1014 NOSIG,EDDM,2018-03-22T15:20:00Z,48.35,11.82,4.0,-8.0,260,8,,6.21,29.940945,,,,,,TRUE,,,,,CAVOK,,,,,,,,VFR,,,,,,,,,,,,METAR,447.0
EDDL 221520Z 25005KT 6000 FEW008 SCT010 BKN015 08/06 Q1013 NOSIG,EDDL,2018-03-22T15:20:00Z,51.3,6.77,8.0,6.0,250,5,,3.73,29.911417,,,,,,TRUE,,,,,FEW,800,SCT,1000,BKN,1500,,,MVFR,,,,,,,,,,,,METAR,44.0
EDDK 221520Z 28008KT 9999 FEW006 SCT009 BKN012 07/05 Q1013 TEMPO BKN015,EDDK,2018-03-22T15:20:00Z,50.87,7.15,7.0,5.0,280,8,,6.21,29.911417,,,,,,,,,,,FEW,600,SCT,900,BKN,1200,,,MVFR,,,,,,,,,,,,SPECI,99.0
LICC 221520Z 26021G32KT 9999 SCT045 15/06 Q0998,LICC,2018-03-22T15:20:00Z,37.47,15.05,15.0,6.0,260,21,32,6.21,29.468504,,,,,,,,,,,SCT,4500,,,,,,,VFR,,,,,,,,,,,,METAR,17.0
ETWM 221520Z 32006KT 4500 -DZRA BKN004 BKN007 07/06 Q1012 YLO,ETWM,2018-03-22T15:20:00Z,52.72,7.33,7.0,6.0,320,6,,2.8,29.88189,,,,,,,,,,-DZ -RA,BKN,400,BKN,700,,,,,LIFR,,,,,,,,,,,,METAR,21.0
ETNW 221520Z 29010KT 9999 BKN006 BKN014 BKN030 07/06 Q1010 REDZ YLO GRN TEMPO YLO,ETNW,2018-03-22T15:20:00Z,52.45,9.42,7.0,6.0,290,10,,6.21,29.822834,,,,,,,,,,,BKN,600,BKN,1400,BKN,3000,,,IFR,,,,,,,,,,,,SPECI,70.0
ETNT 221520Z 34009KT 2800 -DZ BR OVC004 05/04 Q1011 YLO YLO TEMPO RED,ETNT,2018-03-22T15:20:00Z,53.53,7.67,5.0,4.0,340,9,,1.74,29.852362,,,,,,,,,,-DZ BR,OVC,400,,,,,,,LIFR,,,,,,,,,,,,SPECI,12.0
ETNS 221520Z 32007KT 9999 FEW009 BKN012 06/03 Q1009 GRN GRN TEMPO WHT,ETNS,2018-03-22T15:20:00Z,54.47,9.52,6.0,3.0,320,7,,6.21,29.793306,,,,,,,,,,,FEW,900,BKN,1200,,,,,MVFR,,,,,,,,,,,,SPECI,25.0
ETNL 221520Z 32009KT 9000 FEW001 BKN007 03/02 Q1007 GRN,ETNL,2018-03-22T15:20:00Z,53.92,12.27,3.0,2.0,320,9,,5.59,29.734253,,,,,,,,,,,FEW,100,BKN,700,,,,,IFR,,,,,,,,,,,,METAR,40.0
ETNH 221520Z 29006KT 9999 FEW012 BKN017 06/04 Q1009 WHT WHT TEMPO GRN,ETNH,2018-03-22T15:20:00Z,54.32,9.55,6.0,4.0,290,6,,6.21,29.793306,,,,,,,,,,,FEW,1200,BKN,1700,,,,,MVFR,,,,,,,,,,,,SPECI,17.0
ETMN 221520Z 31011KT 2500 -DZ BR OVC003 04/03 Q1010 REDZ YLO AMB TEMPO RED,ETMN,2018-03-22T15:20:00Z,53.77,8.67,4.0,3.0,310,11,,1.55,29.822834,,,,,,,,,,-DZ BR,OVC,300,,,,,,,LIFR,,,,,,,,,,,,METAR,31.0
ETML 221520Z AUTO 32011KT //// // ////// 03/02 Q1007 ///,ETML,2018-03-22T15:20:00Z,,,3.0,2.0,320,11,,,29.734253,,,TRUE,,,,,,,,,,,,,,,,,,,,,,,,,,,,METAR,
ETHS 221520Z 31014KT 9999 FEW008 BKN012 06/04 Q1009 GRN GRN TEMPO YLO,ETHS,2018-03-22T15:20:00Z,52.92,10.18,6.0,4.0,310,14,,6.21,29.793306,,,,,,,,,,,FEW,800,BKN,1200,,,,,MVFR,,,,,,,,,,,,SPECI,88.0
ETHF 221520Z 20008KT 7000 -RA OVC022 04/02 Q1011 WHT BLU TEMPO YLO,ETHF,2018-03-22T15:20:00Z,51.12,9.27,4.0,2.0,200,8,,4.35,29.852362,,,,,,,,,,-RA,OVC,2200,,,,,,,MVFR,,,,,,,,,,,,SPECI,181.0
ETHC 221520Z 27006KT 9000 SCT008 BKN012 06/05 Q1009 GRN GRN TEMPO YLO,ETHC,2018-03-22T15:20:00Z,52.6,10.02,6.0,5.0,270,6,,5.59,29.793306,,,,,,,,,,,SCT,800,BKN,1200,,,,,MVFR,,,,,,,,,,,,SPECI,52.0
ETHB 221520Z 31009KT 3800 -DZ BR FEW002 BKN005 06/06 Q1010 REDZ YLO GRN TEMPO YLO,ETHB,2018-03-22T15:20:00Z,52.27,9.07,6.0,6.0,310,9,,2.36,29.822834,,,,,,,,,,-DZ BR,FEW,200,BKN,500,,,,,IFR,,,,,,,,,,,,SPECI,78.0
ETGG 221520Z AUTO 32010KT //// // ////// 05/03 Q1008 ///,ETGG,2018-03-22T15:20:00Z,54.83,9.5,5.0,3.0,320,10,,,29.763779,,,TRUE,,,,,,,,,,,,,,,,,,,,,,,,,,,,SPECI,33.0
ETSL 221520Z 28010KT 7000 -SN FEW020 BKN045 BKN060 01/M04 Q1015 WHT WHT BECMG GRN,ETSL,2018-03-22T15:20:00Z,48.17,10.87,1.0,-4.0,280,10,,4.35,29.970472,,,,,,,,,,-SN,FEW,2000,BKN,4500,BKN,6000,,,MVFR,,,,,,,,,,,,SPECI,562.0
ETSI 221520Z 26007KT 9999 FEW020 BKN050 04/M06 Q1014 BLU BLU BECMG WHT,ETSI,2018-03-22T15:20:00Z,48.72,11.52,4.0,-6.0,260,7,,6.21,29.940945,,,,,,,,,,,FEW,2000,BKN,5000,,,,,VFR,,,,,,,,,,,,METAR,370.0
ETSB 221520Z 24007KT 0400 R21/0600N -DZ FG VV000 01/01 Q1013 RED RED TEMPO YLO,ETSB,2018-03-22T15:20:00Z,50.17,7.07,1.0,1.0,240,7,,0.25,29.911417,,,,,,,,,,-DZ FG,OVX,0,,,,,,,LIFR,,,,,,,,,,,0,METAR,486.0
ETSA 221520Z AUTO 26013KT 9999 // ////// 02/M07 Q1014 ///,ETSA,2018-03-22T15:20:00Z,48.07,10.9,2.0,-7.0,260,13,,6.21,29.940945,,,TRUE,,,,,,,,,,,,,,,,,,,,,,,,,,,,SPECI,628.0
ETNN 221520Z 30009KT 9999 BKN008 SCT015 BKN030 07/05 Q1014 GRN GRN TEMPO AMB,ETNN,2018-03-22T15:20:00Z,50.82,6.67,7.0,5.0,300,9,,6.21,29.940945,,,,,,,,,,,BKN,800,SCT,1500,BKN,3000,,,IFR,,,,,,,,,,,,SPECI,135.0
ETHN 221520Z 24012KT 3000 -SN BR BKN005 OVC012 M00/M01 Q1013 RESN YLO YLO TEMPO RED,ETHN,2018-03-22T15:20:00Z,49.38,9.97,0.0,-1.0,240,12,,1.86,29.911417,,,,,,,,,,-SN BR,BKN,500,OVC,1200,,,,,IFR,,,,,,,,,,,,METAR,473.0
ETHL 221520Z 28008KT 9999 -SN SCT020 BKN040 03/M07 Q1014 BLU BLU BECMG WHT,ETHL,2018-03-22T15:20:00Z,48.22,9.92,3.0,-7.0,280,8,,6.21,29.940945,,,,,,,,,,-SN,SCT,2000,BKN,4000,,,,,VFR,,,,,,,,,,,,SPECI,549.0
ETHA 221520Z 30012KT 9999 BKN070 01/M09 Q1014 BLACKBLU BLU,ETHA,2018-03-22T15:20:00Z,47.82,10.87,1.0,-9.0,300,12,,6.21,29.940945,,,,,,,,,,,BKN,7000,,,,,,,VFR,,,,,,,,,,,,SPECI,760.0
LGRP 221520Z 06011G21KT 020V190 9999 FEW018 SCT020 19/07 Q1004 WS ALL RWY NOSIG,LGRP,2018-03-22T15:20:00Z,36.4,28.08,19.0,7.0,60,11,21,6.21,29.64567,,,,,,TRUE,,,,,FEW,1800,SCT,2000,,,,,VFR,,,,,,,,,,,,SPECI,5.0
LGKR 221520Z 17018KT 3500 DU SCT008 BKN035 BKN080 16/13 Q0993 NOSIG,LGKR,2018-03-22T15:20:00Z,39.62,19.92,16.0,13.0,170,18,,2.17,29.320866,,,,,,TRUE,,,,DU,SCT,800,BKN,3500,BKN,8000,,,IFR,,,,,,,,,,,,METAR,2.0
LGIR 221520Z 18024KT 0600 DU NSC 27/07 Q0996 NOSIG,LGIR,2018-03-22T15:20:00Z,35.32,25.17,27.0,7.0,180,24,,0.37,29.409449,,,,,,TRUE,,,,DU,CLR,,,,,,,,LIFR,,,,,,,,,,,,METAR,39.0
LGAV 221520Z 07008KT 7000 FEW020 BKN030 18/13 Q1001 NOSIG,LGAV,2018-03-22T15:20:00Z,37.93,23.95,18.0,13.0,70,8,,4.35,29.557087,,,,,,TRUE,,,,,FEW,2000,BKN,3000,,,,,MVFR,,,,,,,,,,,,METAR,94.0
EDSB 221520Z 21015KT 9000 -RA BKN012 OVC019 03/01 Q1017,EDSB,2018-03-22T15:20:00Z,48.78,8.08,3.0,1.0,210,15,,5.59,30.029528,,,,,,,,,,-RA,BKN,1200,OVC,1900,,,,,MVFR,,,,,,,,,,,,METAR,124.0
EDQM 221520Z 22011KT 5000 -RASN SCT009 OVC014 M01/M02 Q1011,EDQM,2018-03-22T15:20:00Z,50.3,11.85,-1.0,-2.0,220,11,,3.11,29.852362,,,,,,,,,,-RA -SN,SCT,900,OVC,1400,,,,,MVFR,,,,,,,,,,,,METAR,568.0
EDNY 221520Z 25005KT 230V290 9999 OVC058 04/M07 Q1016,EDNY,2018-03-22T15:20:00Z,47.67,9.52,4.0,-7.0,250,5,,6.21,30.0,,,,,,,,,,,OVC,5800,,,,,,,VFR,,,,,,,,,,,,METAR,424.0
EDMA 221520Z 27013KT 9999 -SN FEW035 SCT043 OVC052 02/M03 Q1015,EDMA,2018-03-22T15:20:00Z,48.42,10.92,2.0,-3.0,270,13,,6.21,29.970472,,,,,,,,,,-SN,FEW,3500,SCT,4300,OVC,5200,,,VFR,,,,,,,,,,,,METAR,463.0
EDLW 221520Z 26006KT 230V330 1700 -RA BR BKN005 OVC015 06/04 Q1012,EDLW,2018-03-22T15:20:00Z,51.52,7.62,6.0,4.0,260,6,,1.06,29.88189,,,,,,,,,,-RA BR,BKN,500,OVC,1500,,,,,IFR,,,,,,,,,,,,METAR,127.0
EDLP 221520Z 25009KT 230V290 2000 BR OVC005 05/04 Q1011,EDLP,2018-03-22T15:20:00Z,51.62,8.62,5.0,4.0,250,9,,1.24,29.852362,,,,,,,,,,BR,OVC,500,,,,,,,IFR,,,,,,,,,,,,METAR,213.0
EDLN 221520Z 28005KT 6000 SCT009 BKN038 08/08 Q1014,EDLN,2018-03-22T15:20:00Z,51.23,6.5,8.0,8.0,280,5,,3.73,29.940945,,,,,,,,,,,SCT,900,BKN,3800,,,,,MVFR,,,,,,,,,,,,METAR,38.0
EDHL 221520Z 29004KT 220V360 9999 BKN008 BKN015 06/06 Q1008 REDZ,EDHL,2018-03-22T15:20:00Z,53.8,10.72,6.0,6.0,290,4,,6.21,29.763779,,,,,,,,,,,BKN,800,BKN,1500,,,,,IFR,,,,,,,,,,,,METAR,16.0
ENHF 221520Z 36011KT 9999 FEW021 SCT025TCU BKN045 M05/M12 Q1004 RMK WIND 1254FT 35023KT,ENHF,2018-03-22T15:20:00Z,70.67,23.67,-5.0,-12.0,360,11,,6.21,29.64567,,,,,,,,,,,FEW,2100,SCT,2500,BKN,4500,,,VFR,,,,,,,,,,,,SPECI,81.0
ENBN 221520Z 24004KT 9999 SCT015 SCT026 02/M02 Q1005,ENBN,2018-03-22T15:20:00Z,65.47,12.22,2.0,-2.0,240,4,,6.21,29.675198,,,,,,,,,,,SCT,1500,SCT,2600,,,,,VFR,,,,,,,,,,,,METAR,9.0
EDVK 221520Z 25006KT 8000 SCT004 OVC012 04/04 Q1011,EDVK,2018-03-22T15:20:00Z,51.38,9.37,4.0,4.0,250,6,,4.97,29.852362,,,,,,,,,,,SCT,400,OVC,1200,,,,,MVFR,,,,,,,,,,,,METAR,285.0
EDLV 221520Z 32004KT 230V020 9999 BKN018 09/06 Q1014,EDLV,2018-03-22T15:20:00Z,51.6,6.15,9.0,6.0,320,4,,6.21,29.940945,,,,,,,,,,,BKN,1800,,,,,,,MVFR,,,,,,,,,,,,METAR,32.0
EDFM 221520Z 22007KT 180V250 8000 -RA SCT009 BKN015 03/03 Q1016,EDFM,2018-03-22T15:20:00Z,49.47,8.52,3.0,3.0,220,7,,4.97,30.0,,,,,,,,,,-RA,SCT,900,BKN,1500,,,,,MVFR,,,,,,,,,,,,METAR,100.0
EDFH 221520Z 27012KT 0500 R21/0550V0900N -SN FG BKN001 00/00 Q1013,EDFH,2018-03-22T15:20:00Z,49.95,7.27,0.0,0.0,270,12,,0.31,29.911417,,,,,,,,,,-SN FG,BKN,100,,,,,,,LIFR,,,,,,,,,,,,METAR,498.0
LGSR 221520Z 14020KT 8000 FEW025 16/12 Q0999,LGSR,2018-03-22T15:20:00Z,36.4,25.48,16.0,12.0,140,20,,4.97,29.498032,,,,,,,,,,,FEW,2500,,,,,,,MVFR,,,,,,,,,,,,METAR,40.0
LGRX 221520Z 20008KT 2500 DU SCT005 BKN070 17/14 Q0998,LGRX,2018-03-22T15:20:00Z,38.17,21.42,17.0,14.0,200,8,,1.55,29.468504,,,,,,,,,,DU,SCT,500,BKN,7000,,,,,IFR,,,,,,,,,,,,METAR,15.0
LGPZ 221520Z 18014G24KT 3000 -DZ DU SCT020 19/13 Q0996,LGPZ,2018-03-22T15:20:00Z,38.92,20.77,19.0,13.0,180,14,24,1.86,29.409449,,,,,,,,,,-DZ DU,SCT,2000,,,,,,,IFR,,,,,,,,,,,,METAR,4.0
LGMT 221520Z 15008KT 9999 FEW025 17/11 Q1004,LGMT,2018-03-22T15:20:00Z,39.05,26.6,17.0,11.0,150,8,,6.21,29.64567,,,,,,,,,,,FEW,2500,,,,,,,VFR,,,,,,,,,,,,METAR,17.0
LGKV 221520Z 06016KT 9999 FEW015 BKN025 OVC070 07/02 Q1008,LGKV,2018-03-22T15:20:00Z,40.92,24.62,7.0,2.0,60,16,,6.21,29.763779,,,,,,,,,,,FEW,1500,BKN,2500,OVC,7000,,,MVFR,,,,,,,,,,,,METAR,5.0
LGIO 221520Z /////KT 3000 HZ SCT020 BKN080 16/06 Q0995,LGIO,2018-03-22T15:20:00Z,39.7,20.82,16.0,6.0,,,,1.86,29.379921,,,,,,,,,,HZ,SCT,2000,BKN,8000,,,,,IFR,,,,,,,,,,,,SPECI,476.0
LGEL 221520Z 07008KT 8000 FEW020 SCT030 BKN070 19/13 Q1000,LGEL,2018-03-22T15:20:00Z,38.07,23.55,19.0,13.0,70,8,,4.97,29.52756,,,,,,,,,,,FEW,2000,SCT,3000,BKN,7000,,,MVFR,,,,,,,,,,,,METAR,31.0
LGAL 221520Z 03018G30KT 9999 SCT012 BKN018 04/01 Q1009,LGAL,2018-03-22T15:20:00Z,40.85,25.95,4.0,1.0,30,18,30,6.21,29.793306,,,,,,,,,,,SCT,1200,BKN,1800,,,,,MVFR,,,,,,,,,,,,METAR,3.0
ENSR 221520Z 30003KT 270V330 9999 8000N VCSH FEW010 SCT020 BKN035 M02/M11 Q1005 WIND 1119FT 34008KT 310V010,ENSR,2018-03-22T15:20:00Z,69.77,20.97,-2.0,-11.0,300,3,,6.21,29.675198,,,,,,,,,,VCSH,FEW,1000,SCT,2000,BKN,3500,,,VFR,,,,,,,,,,,,SPECI,6.0
ENSD 221520Z VRB02KT 9999 FEW026 SCT036 06/00 Q1007 RMK WIND 1138FT 32003KT,ENSD,2018-03-22T15:20:00Z,61.82,6.12,6.0,0.0,0,2,,6.21,29.734253,,,,,,,,,,,FEW,2600,SCT,3600,,,,,VFR,,,,,,,,,,,,SPECI,60.0
ENOV 221520Z VRB01KT 9999 BKN031 05/00 Q1006 RMK WIND 2175FT 21008KT,ENOV,2018-03-22T15:20:00Z,62.17,6.07,5.0,0.0,0,1,,6.21,29.704725,,,,,,,,,,,BKN,3100,,,,,,,VFR,,,-0.8,,,,,,,,,SPECI,74.0
ENZV 221520Z 34005KT 300V020 9999 FEW002 BKN005 03/01 Q1008 NOSIG,ENZV,2018-03-22T15:20:00Z,58.87,5.62,3.0,1.0,340,5,,6.21,29.763779,,,,,,TRUE,,,,,FEW,200,BKN,500,,,,,IFR,,,,,,,,,,,,METAR,9.0
ENVA 221520Z 25009KT 9999 SCT030 BKN045 02/M00 Q1006 NOSIG RMK WIND 670FT 26011KT,ENVA,2018-03-22T15:20:00Z,63.47,10.92,2.0,0.0,250,9,,6.21,29.704725,,,,,,TRUE,,,,,SCT,3000,BKN,4500,,,,,VFR,,,,,,,,,,,,SPECI,17.0
ENOL 221520Z 28005KT 9999 VCSH FEW020 BKN040 03/00 Q1006 NOSIG,ENOL,2018-03-22T15:20:00Z,63.7,9.58,3.0,0.0,280,5,,6.21,29.704725,,,,,,TRUE,,,,VCSH,FEW,2000,BKN,4000,,,,,VFR,,,,,,,,,,,,METAR,7.0
ENGM 221520Z 18005KT CAVOK 07/M03 Q1004 NOSIG,ENGM,2018-03-22T15:20:00Z,60.2,11.1,7.0,-3.0,180,5,,6.21,29.64567,,,,,,TRUE,,,,,CAVOK,,,,,,,,VFR,,,,,,,,,,,,METAR,204.0
ENDU 221520Z VRB03KT 9999 FEW030 M02/M07 Q1005 NOSIG RMK WIND 1100FT 03003KT WIND 2200FT 35008KT,ENDU,2018-03-22T15:20:00Z,69.03,18.55,-2.0,-7.0,0,3,,6.21,29.675198,,,,,,TRUE,,,,,FEW,3000,,,,,,,VFR,,,,,,,,,,,,SPECI,79.0
ENBO 221520Z 01004KT 330V060 9999 FEW030 02/M05 Q1005 NOSIG,ENBO,2018-03-22T15:20:00Z,67.27,14.37,2.0,-5.0,10,4,,6.21,29.675198,,,,,,TRUE,,,,,FEW,3000,,,,,,,VFR,,,,,,,,,,,,METAR,13.0
ENBR 221520Z 15003KT 090V230 9999 SCT003 BKN005 02/02 Q1008 NOSIG RMK WIND 1200FT 14008KT,ENBR,2018-03-22T15:20:00Z,60.28,5.22,2.0,2.0,150,3,,6.21,29.763779,,,,,,TRUE,,,,,SCT,300,BKN,500,,,,,IFR,,,,,,,,,,,,SPECI,50.0
ENAN 221520Z 06005KT 1500 R14/1800U -SHSN VV010 M01/M03 Q1006,ENAN,2018-03-22T15:20:00Z,69.28,16.13,-1.0,-3.0,60,5,,0.93,29.704725,,,,,,,,,,-SHSN,OVX,0,,,,,,,LIFR,,,,,,,,,,,1000,SPECI,14.0
ENTO 221520Z 17008KT 9999 1700SE VCFG NSC M00/M00 Q1006,ENTO,2018-03-22T15:20:00Z,59.2,10.27,0.0,0.0,170,8,,6.21,29.704725,,,,,,,,,,VCFG,CLR,,,,,,,,VFR,,,,,,,,,,,,SPECI,88.0
ENTC 221520Z 04005KT 9999 VCSH SCT039 M02/M08 Q1006 TEMPO 4000 -SHSN VV012 RMK WIND 2600FT 02015KT,ENTC,2018-03-22T15:20:00Z,69.68,18.92,-2.0,-8.0,40,5,,6.21,29.704725,,,,,,,,,,VCSH,SCT,3900,,,,,,,VFR,,,,,,,,,,,,SPECI,10.0
ENRY 221520Z 19011KT 0250 FZFG OVC001 M01/M02 Q1007,ENRY,2018-03-22T15:20:00Z,59.37,10.77,-1.0,-2.0,190,11,,0.16,29.734253,,,,,,,,,,FZFG,OVC,100,,,,,,,LIFR,,,,,,,,,,,,METAR,53.0
ENRO 221520Z 27007KT 220V330 9999 VCSH FEW011 BKN017 M01/M04 Q1004,ENRO,2018-03-22T15:20:00Z,62.57,11.33,-1.0,-4.0,270,7,,6.21,29.64567,,,,,,,,,,VCSH,FEW,1100,BKN,1700,,,,,MVFR,,,,,,,,,,,,METAR,626.0
ENHD 221520Z 01004KT 9999 BKN006 03/02 Q1008,ENHD,2018-03-22T15:20:00Z,59.35,5.22,3.0,2.0,10,4,,6.21,29.763779,,,,,,,,,,,BKN,600,,,,,,,IFR,,,,,,,,,,,,METAR,24.0
ENCN 221520Z 19008KT CAVOK 04/01 Q1007,ENCN,2018-03-22T15:20:00Z,58.2,8.07,4.0,1.0,190,8,,6.21,29.734253,,,,,,,,,,,CAVOK,,,,,,,,VFR,,,,,,,,,,,,METAR,17.0
ENAL 221520Z 23008KT 9999 BKN023 05/03 Q1006,ENAL,2018-03-22T15:20:00Z,62.57,6.12,5.0,3.0,230,8,,6.21,29.704725,,,,,,,,,,,BKN,2300,,,,,,,MVFR,,,,,,,,,,,,METAR,22.0
ENNM 221520Z 25007KT 9999 -SHRA FEW012 SCT016 BKN041 02/M00 Q1005,ENNM,2018-03-22T15:20:00Z,64.47,11.57,2.0,0.0,250,7,,6.21,29.675198,,,,,,,,,,-SHRA,FEW,1200,SCT,1600,BKN,4100,,,VFR,,,,,,,,,,,,METAR,2.0
ENLK 221520Z 18005KT 160V220 9999 SCT040 02/M05 Q1005,ENLK,2018-03-22T15:20:00Z,68.15,13.62,2.0,-5.0,180,5,,6.21,29.675198,,,,,,,,,,,SCT,4000,,,,,,,VFR,,,,,,,,,,,,METAR,26.0
ENHK 221520Z 02009KT 340V070 9999 FEW020 SCT040 M04/M11 Q1006,ENHK,2018-03-22T15:20:00Z,70.47,22.13,-4.0,-11.0,20,9,,6.21,29.704725,,,,,,,,,,,FEW,2000,SCT,4000,,,,,VFR,,,,,,,,,,,,METAR,10.0
ENSF 221520Z AUTO 21017KT 2600NDV -SHRA BR OVC005/// 09/05 Q1005 W///S4,ENSF,2018-03-22T15:20:00Z,61.25,1.85,9.0,5.0,210,17,,,29.675198,,,TRUE,,,,,,,-SHRA BR,OVC,500,,,,,,,,,,,,,,,,,,,METAR,10.0
ENFB 221520Z AUTO 21019KT //// OVC005/// 05/05 Q1005 W///S4,ENFB,2018-03-22T15:20:00Z,61.2,1.83,5.0,5.0,210,19,,,29.675198,,,TRUE,,,,,,,,OVC,500,,,,,,,,,,,,,,,,,,,SPECI,10.0
ENSL 221520Z 24012KT 0500 -DZ FG BKN004 06/05 Q1008 W04/S3,ENSL,2018-03-22T15:20:00Z,58.37,1.9,6.0,5.0,240,12,,0.31,29.763779,,,,,,,,,,-DZ FG,BKN,400,,,,,,,LIFR,,,,,,,,,,,,METAR,50.0
ENOA 221520Z 20014KT 9000 5000NW BKN008 05/04 Q1006 W///S4,ENOA,2018-03-22T15:20:00Z,60.5,2.83,5.0,4.0,200,14,,5.59,29.704725,,,,,,,,,,,BKN,800,,,,,,,IFR,,,,,,,,,,,,SPECI,5.0
ENHE 221520Z 28006KT 9999 FEW015 BKN035 03/M03 Q1005 W///S5,ENHE,2018-03-22T15:20:00Z,65.33,2.33,3.0,-3.0,280,6,,6.21,29.675198,,,,,,,,,,,FEW,1500,BKN,3500,,,,,VFR,,,,,,,,,,,,METAR,1.0
ENLE 221520Z 28014KT 9999 FEW005 SCT015 08/05 Q1010 W///S4,ENLE,2018-03-22T15:20:00Z,56.53,3.22,8.0,5.0,280,14,,6.21,29.822834,,,,,,,,,,,FEW,500,SCT,1500,,,,,VFR,,,,,,,,,,,,METAR,3.0
ENNA 221520Z VRB01KT 3800 -SN VV012 M05/M07 Q1004 RMK WIND 1800FT 29012KT,ENNA,2018-03-22T15:20:00Z,70.07,24.97,-5.0,-7.0,0,1,,2.36,29.64567,,,,,,,,,,-SN,OVX,0,,,,,,,LIFR,,,,,,,,,,,1200,SPECI,8.0
ENML 221520Z 30004KT 9999 FEW015 SCT020 BKN030 05/01 Q1006,ENML,2018-03-22T15:20:00Z,62.75,7.27,5.0,1.0,300,4,,6.21,29.704725,,,,,,,,,,,FEW,1500,SCT,2000,BKN,3000,,,MVFR,,,,,,,,,,,,METAR,3.0
ENKR 221520Z 34006KT 9999 FEW014 SCT020 BKN038 M05/M08 Q1000 RMK WIND 731FT 33010KT,ENKR,2018-03-22T15:20:00Z,69.72,29.88,-5.0,-8.0,340,6,,6.21,29.52756,,,,,,,,,,,FEW,1400,SCT,2000,BKN,3800,,,VFR,,,,,,,,,,,,SPECI,91.0
ENKB 221520Z 25009KT 9999 -DZ FEW007 SCT010 BKN017 04/02 Q1006 RMK WIND 745FT 27013KT,ENKB,2018-03-22T15:20:00Z,63.12,7.82,4.0,2.0,250,9,,6.21,29.704725,,,,,,,,,,-DZ,FEW,700,SCT,1000,BKN,1700,,,MVFR,,,,,,,,,,,,SPECI,62.0
ENFL 221520Z 16007KT 9999 FEW010 SCT018 BKN025 04/02 Q1007,ENFL,2018-03-22T15:20:00Z,61.57,5.02,4.0,2.0,160,7,,6.21,29.734253,,,,,,,,,,,FEW,1000,SCT,1800,BKN,2500,,,MVFR,,,,,,,,,,,,METAR,9.0
ENBL 221520Z 22002KT 9999 FEW010 SCT015 BKN020 04/01 Q1006,ENBL,2018-03-22T15:20:00Z,61.4,5.77,4.0,1.0,220,2,,6.21,29.704725,,,,,,,,,,,FEW,1000,SCT,1500,BKN,2000,,,MVFR,,,,,,,,,,,,METAR,150.0
LGTS 221520Z 11007KT 9999 FEW008 BKN030 10/04 Q1005 NOSIG,LGTS,2018-03-22T15:20:00Z,40.52,22.97,10.0,4.0,110,7,,6.21,29.675198,,,,,,TRUE,,,,,FEW,800,BKN,3000,,,,,MVFR,,,,,,,,,,,,METAR,7.0
LGSM 221520Z 15008KT 9999 FEW025 20/12 Q1002,LGSM,2018-03-22T15:20:00Z,37.68,26.92,20.0,12.0,150,8,,6.21,29.586615,,,,,,,,,,,FEW,2500,,,,,,,VFR,,,,,,,,,,,,METAR,6.0
LGSA 221520Z 29008KT 6000 FEW025 17/14 Q0998,LGSA,2018-03-22T15:20:00Z,35.53,24.13,17.0,14.0,290,8,,3.73,29.468504,,,,,,,,,,,FEW,2500,,,,,,,MVFR,,,,,,,,,,,,METAR,135.0
LGLM 221520Z 06020G31KT 9999 FEW010 BKN018 09/06 Q1005,LGLM,2018-03-22T15:20:00Z,39.92,25.23,9.0,6.0,60,20,31,6.21,29.675198,,,,,,,,,,,FEW,1000,BKN,1800,,,,,MVFR,,,,,,,,,,,,METAR,5.0
LGKO 221520Z 12021G31KT 9000 FEW018 19/07 Q1003,LGKO,2018-03-22T15:20:00Z,36.8,27.08,19.0,7.0,120,21,31,5.59,29.616142,,,,,,,,,,,FEW,1800,,,,,,,VFR,,,,,,,,,,,,METAR,125.0
LGKL 221520Z 14010KT 1300 DU NSC 18/13 Q0999,LGKL,2018-03-22T15:20:00Z,37.07,22.02,18.0,13.0,140,10,,0.81,29.498032,,,,,,,,,,DU,CLR,,,,,,,,LIFR,,,,,,,,,,,,METAR,8.0
LGAD 221520Z 20009KT 4000 DU SCT016 SCT080 17/13 Q0998,LGAD,2018-03-22T15:20:00Z,37.92,21.27,17.0,13.0,200,9,,2.49,29.468504,,,,,,,,,,DU,SCT,1600,SCT,8000,,,,,IFR,,,,,,,,,,,,METAR,12.0
ENWV 221520Z AUTO 30012KT 9999NDV FEW019/// 06/04 Q1010 W///S4,ENWV,2018-03-22T15:20:00Z,,,6.0,4.0,300,12,,,29.822834,,,TRUE,,,,,,,,FEW,1900,,,,,,,,,,,,,,,,,,,METAR,
ENUG 221520Z AUTO 36025KT 9999NDV BKN034/// M04/M13 Q1004 W///S4,ENUG,2018-03-22T15:20:00Z,,,-4.0,-13.0,360,25,,,29.64567,,,TRUE,,,,,,,,BKN,3400,,,,,,,,,,,,,,,,,,,METAR,
ENLA 221520Z AUTO 27012KT 9999NDV BKN018/// 07/05 Q1009 W///S4,ENLA,2018-03-22T15:20:00Z,57.1,2.83,7.0,5.0,270,12,,,29.793306,,,TRUE,,,,,,,,BKN,1800,,,,,,,,,,,,,,,,,,,METAR,4.0
ENHM 221520Z 22013KT 2500 -DZ BR BKN005 05/05 Q1007 W06/S3,ENHM,2018-03-22T15:20:00Z,59.57,2.23,5.0,5.0,220,13,,1.55,29.734253,,,,,,,,,,-DZ BR,BKN,500,,,,,,,IFR,,,,,,,,,,,,METAR,10.0
ENQA 221520Z AUTO 17013KT 9999NDV OVC011/// 04/03 Q1007 W01/S4,ENQA,2018-03-22T15:20:00Z,60.65,3.72,4.0,3.0,170,13,,,29.734253,,,TRUE,,,,,,,,OVC,1100,,,,,,,,,,,,,,,,,,,METAR,20.0
ENQC 221520Z AUTO 16012KT 120V180 8000NDV -DZ OVC006/// 04/03 Q1006 W///S4,ENQC,2018-03-22T15:20:00Z,60.88,3.62,4.0,3.0,160,12,,,29.704725,,,TRUE,,,,,,,-DZ,OVC,600,,,,,,,,,,,,,,,,,,,METAR,20.0
ENSE 221520Z AUTO 20022KT 7000NDV -DZ BKN003/// OVC007/// 06/05 Q1005 W///S4,ENSE,2018-03-22T15:20:00Z,61.45,2.15,6.0,5.0,200,22,,,29.675198,,,TRUE,,,,,,,-DZ,BKN,300,OVC,700,,,,,,,,,,,,,,,,,METAR,10.0
ENQR 221520Z AUTO 17020KT 0900NDV NCD 05/05 Q1004 W///S4,ENQR,2018-03-22T15:20:00Z,61.35,2.22,5.0,5.0,170,20,,,29.64567,,,TRUE,,,,,,,,CLR,,,,,,,,,,,,,,,,,,,,METAR,10.0
ENNE 221520Z 16001KT 9999 FEW015 SCT030 04/M02 Q1005 W///S5,ENNE,2018-03-22T15:20:00Z,66.03,8.08,4.0,-2.0,160,1,,6.21,29.675198,,,,,,,,,,,FEW,1500,SCT,3000,,,,,VFR,,,,,,,,,,,,METAR,10.0
EDXW 221520Z 33010KT 9999 FEW004 OVC009 03/03 Q1009,EDXW,2018-03-22T15:20:00Z,54.92,8.33,3.0,3.0,330,10,,6.21,29.793306,,,,,,,,,,,FEW,400,OVC,900,,,,,IFR,,,,,,,,,,,,METAR,20.0
EDVE 221520Z 26010KT 3900 -DZ BR OVC004 05/04 Q1010,EDVE,2018-03-22T15:20:00Z,52.32,10.55,5.0,4.0,260,10,,2.42,29.822834,,,,,,,,,,-DZ BR,OVC,400,,,,,,,LIFR,,,,,,,,,,,,METAR,88.0
EDTY 221520Z 24009KT 2700 -SHSN BR BKN005 OVC011 01/M00 Q1014,EDTY,2018-03-22T15:20:00Z,49.12,9.78,1.0,0.0,240,9,,1.68,29.940945,,,,,,,,,,-SHSN BR,BKN,500,OVC,1100,,,,,IFR,,,,,,,,,,,,METAR,400.0
EDTL 221520Z 20009KT 8000 -DZ FEW015 BKN026 04/00 Q1017,EDTL,2018-03-22T15:20:00Z,48.37,7.83,4.0,0.0,200,9,,4.97,30.029528,,,,,,,,,,-DZ,FEW,1500,BKN,2600,,,,,MVFR,,,,,,,,,,,,METAR,156.0
EDMO 221520Z 28012KT CAVOK 03/M08 Q1014,EDMO,2018-03-22T15:20:00Z,48.07,11.27,3.0,-8.0,280,12,,6.21,29.940945,,,,,,,,,,,CAVOK,,,,,,,,VFR,,,,,,,,,,,,METAR,600.0
EDJA 221520Z 25011KT 9999 -SN FEW010 BKN035 02/M06 Q1014,EDJA,2018-03-22T15:20:00Z,47.98,10.23,2.0,-6.0,250,11,,6.21,29.940945,,,,,,,,,,-SN,FEW,1000,BKN,3500,,,,,VFR,,,,,,,,,,,,METAR,633.0
EDHI 221520Z 28009KT 7000 -DZ BKN007 04/04 Q1009,EDHI,2018-03-22T15:20:00Z,53.53,9.83,4.0,4.0,280,9,,4.35,29.793306,,,,,,,,,,-DZ,BKN,700,,,,,,,IFR,,,,,,,,,,,,METAR,13.0
LGPA 221520Z AUTO 13027G37KT //// // ////// 18/13 Q0998 RE//,LGPA,2018-03-22T15:20:00Z,37.0,25.13,18.0,13.0,130,27,37,,29.468504,,,TRUE,,,,,,,,,,,,,,,,,,,,,,,,,,,,METAR,36.0
LGMK 221520Z /////KT 7000 FEW020 18/12 Q0999,LGMK,2018-03-22T15:20:00Z,37.43,25.35,18.0,12.0,,,,4.35,29.498032,,,,,,,,,,,FEW,2000,,,,,,,MVFR,,,,,,,,,,,,SPECI,123.0
LGKP 221520Z 08018KT 8000 FEW018 18/14 Q1004,LGKP,2018-03-22T15:20:00Z,35.42,27.15,18.0,14.0,80,18,,4.97,29.64567,,,,,,,,,,,FEW,1800,,,,,,,MVFR,,,,,,,,,,,,METAR,20.0
LGKC 221520Z VRB03KT 5000 DU NSC 19/13 Q1000,LGKC,2018-03-22T15:20:00Z,36.28,23.02,19.0,13.0,0,3,,3.11,29.52756,,,,,,,,,,DU,CLR,,,,,,,,MVFR,,,,,,,,,,,,METAR,319.0
LGBL 221520Z 11020KT 6000 SCT012 BKN030 OVC080 12/09 Q1003,LGBL,2018-03-22T15:20:00Z,39.22,22.8,12.0,9.0,110,20,,3.73,29.616142,,,,,,,,,,,SCT,1200,BKN,3000,OVC,8000,,,MVFR,,,,,,,,,,,,METAR,26.0
KSSC 221520Z AUTO 29013KT 10SM CLR 09/M06 A3015 RMK AO2 WSHFT 14 SLP212,KSSC,2018-03-22T15:20:00Z,33.97,-80.47,9.0,-6.0,290,13,,10.0,30.15059,1021.2,,TRUE,TRUE,,,,,,,CLR,,,,,,,,VFR,,,,,,,,,,,,SPECI,74.0
LIPX 221520Z 22004KT 160V260 CAVOK 10/M05 Q1009,LIPX,2018-03-22T15:20:00Z,45.38,10.87,10.0,-5.0,220,4,,6.21,29.793306,,,,,,,,,,,CAVOK,,,,,,,,VFR,,,,,,,,,,,,METAR,68.0
LIPE 221520Z 36004KT 300V070 CAVOK 09/M06 Q1011,LIPE,2018-03-22T15:20:00Z,44.52,11.3,9.0,-6.0,360,4,,6.21,29.852362,,,,,,,,,,,CAVOK,,,,,,,,VFR,,,,,,,,,,,,METAR,42.0
LICJ 221520Z 32013KT 8000 RA SCT018 BKN025 10/07 Q1000,LICJ,2018-03-22T15:20:00Z,38.17,13.08,10.0,7.0,320,13,,4.97,29.52756,,,,,,,,,,RA,SCT,1800,BKN,2500,,,,,MVFR,,,,,,,,,,,,METAR,34.0
LIBR 221520Z 35018KT 4000 SHRA FEW010 BKN015 BKN035 09/08 Q0993,LIBR,2018-03-22T15:20:00Z,40.65,17.95,9.0,8.0,350,18,,2.49,29.320866,,,,,,,,,,SHRA,FEW,1000,BKN,1500,BKN,3500,,,IFR,,,,,,,,,,,,METAR,10.0
LIBD 221520Z 34017G29KT 5000 RA SCT010 BKN025 06/04 Q0997,LIBD,2018-03-22T15:20:00Z,41.12,16.77,6.0,4.0,340,17,29,3.11,29.438976,,,,,,,,,,RA,SCT,1000,BKN,2500,,,,,MVFR,,,,,,,,,,,,METAR,44.0
LOXZ 221520Z VRB02KT 50KM FEW050CU 07/M11 Q1010 NOSIG,LOXZ,2018-03-22T15:20:00Z,47.2,14.75,7.0,-11.0,0,2,,31.07,29.822834,,,,,,TRUE,,,,,FEW,5000,,,,,,,VFR,,,,,,,,,,,,METAR,682.0
ELLX 221520Z 27015KT 7000 -DZ BKN004 02/02 Q1014 NOSIG,ELLX,2018-03-22T15:20:00Z,49.63,6.2,2.0,2.0,270,15,,4.35,29.940945,,,,,,TRUE,,,,-DZ,BKN,400,,,,,,,LIFR,,,,,,,,,,,,METAR,379.0
EBOS 221520Z 26014KT 9999 BKN020 07/04 Q1017 NOSIG,EBOS,2018-03-22T15:20:00Z,51.2,2.87,7.0,4.0,260,14,,6.21,30.029528,,,,,,TRUE,,,,,BKN,2000,,,,,,,MVFR,,,,,,,,,,,,METAR,5.0
EBLG 221520Z 30007KT 9999 FEW005 BKN006 06/05 Q1015 TEMPO 3000 BKN004,EBLG,2018-03-22T15:20:00Z,50.63,5.45,6.0,5.0,300,7,,6.21,29.970472,,,,,,,,,,,FEW,500,BKN,600,,,,,IFR,,,,,,,,,,,,METAR,178.0
EBCI 221520Z 29006KT 260V320 4500 -RADZ BR SCT004 BKN005 06/05 Q1016 TEMPO 2500 RADZ BR BKN004,EBCI,2018-03-22T15:20:00Z,50.47,4.45,6.0,5.0,290,6,,2.8,30.0,,,,,,,,,,-RA -DZ BR,SCT,400,BKN,500,,,,,IFR,,,,,,,,,,,,METAR,192.0
EBBR 221520Z 29012KT 6000 BKN005 07/05 Q1016 NOSIG,EBBR,2018-03-22T15:20:00Z,50.9,4.5,7.0,5.0,290,12,,3.73,30.0,,,,,,TRUE,,,,,BKN,500,,,,,,,IFR,,,,,,,,,,,,METAR,58.0
EBAW 221520Z 30010KT 6000 BKN006 07/06 Q1016 TEMPO BKN008,EBAW,2018-03-22T15:20:00Z,51.2,4.47,7.0,6.0,300,10,,3.73,30.0,,,,,,,,,,,BKN,600,,,,,,,IFR,,,,,,,,,,,,METAR,14.0
ENST 221520Z 05004KT 9999 VCSH FEW030 SCT050 02/M04 Q1005 RMK WIND 300FT 06003KT,ENST,2018-03-22T15:20:00Z,65.97,12.47,2.0,-4.0,50,4,,6.21,29.675198,,,,,,,,,,VCSH,FEW,3000,SCT,5000,,,,,VFR,,,,,,,,,,,,SPECI,17.0
ENRS 221520Z 16003KT CAVOK 03/M04 Q1005,ENRS,2018-03-22T15:20:00Z,67.52,12.08,3.0,-4.0,160,3,,6.21,29.675198,,,,,,,,,,,CAVOK,,,,,,,,VFR,,,,,,,,,,,,METAR,4.0
ENMS 221520Z VRB03KT 9999 FEW040 SCT053 03/M07 Q1004 RMK WIND 412FT 28005KT 240V310,ENMS,2018-03-22T15:20:00Z,65.78,13.22,3.0,-7.0,0,3,,6.21,29.64567,,,,,,,,,,,FEW,4000,SCT,5300,,,,,VFR,,,,,,,,,,,,SPECI,70.0
LIRQ 221520Z 01010KT 330V060 CAVOK 09/M07 Q1007,LIRQ,2018-03-22T15:20:00Z,43.78,11.18,9.0,-7.0,10,10,,6.21,29.734253,,,,,,,,,,,CAVOK,,,,,,,,VFR,,,,,,,,,,,,METAR,38.0
LIRN 221520Z 04012KT 8000 -RA FEW020 BKN050 06/00 Q1000 NOSIG,LIRN,2018-03-22T15:20:00Z,40.88,14.3,6.0,0.0,40,12,,4.97,29.52756,,,,,,TRUE,,,,-RA,FEW,2000,BKN,5000,,,,,MVFR,,,,,,,,,,,,METAR,72.0
LIRA 221520Z 35015KT 9999 FEW030 09/M01 Q0999,LIRA,2018-03-22T15:20:00Z,41.8,12.58,9.0,-1.0,350,15,,6.21,29.498032,,,,,,,,,,,FEW,3000,,,,,,,VFR,,,,,,,,,,,,METAR,101.0
LIML 221520Z 23005KT 180V270 CAVOK 10/M02 Q1009 NOSIG,LIML,2018-03-22T15:20:00Z,45.47,9.27,10.0,-2.0,230,5,,6.21,29.793306,,,,,,TRUE,,,,,CAVOK,,,,,,,,VFR,,,,,,,,,,,,METAR,103.0
LIMJ 221520Z 36008G18KT 300V040 CAVOK 13/M06 Q1007,LIMJ,2018-03-22T15:20:00Z,44.42,8.83,13.0,-6.0,360,8,18,6.21,29.734253,,,,,,,,,,,CAVOK,,,,,,,,VFR,,,,,,,,,,,,METAR,3.0
LIME 221520Z 26007KT 220V300 9999 SCT100 09/M02 Q1008 NOSIG,LIME,2018-03-22T15:20:00Z,45.67,9.68,9.0,-2.0,260,7,,6.21,29.763779,,,,,,TRUE,,,,,SCT,10000,,,,,,,VFR,,,,,,,,,,,,METAR,237.0
LIMW 221520Z AUTO 30017G30KT 270V330 9999 NCD 13/M12 Q1007,LIMW,2018-03-22T15:20:00Z,45.73,7.37,13.0,-12.0,300,17,30,6.21,29.734253,,,TRUE,,,,,,,,CLR,,,,,,,,VFR,,,,,,,,,,,,METAR,546.0
LOWK 221520Z 10006KT 060V160 9999 FEW060 05/M09 Q1011 NOSIG,LOWK,2018-03-22T15:20:00Z,46.65,14.32,5.0,-9.0,100,6,,6.21,29.852362,,,,,,TRUE,,,,,FEW,6000,,,,,,,VFR,,,,,,,,,,,,METAR,441.0
LOWG 221520Z VRB02KT CAVOK 05/M06 Q1013 NOSIG,LOWG,2018-03-22T15:20:00Z,47.0,15.42,5.0,-6.0,0,2,,6.21,29.911417,,,,,,TRUE,,,,,CAVOK,,,,,,,,VFR,,,,,,,,,,,,METAR,347.0
LOWI 221520Z 06006KT 010V120 9999 SCT080 BKN100 07/M10 Q1011 NOSIG,LOWI,2018-03-22T15:20:00Z,47.27,11.33,7.0,-10.0,60,6,,6.21,29.852362,,,,,,TRUE,,,,,SCT,8000,BKN,10000,,,,,VFR,,,,,,,,,,,,METAR,581.0
LOWS 221520Z 32010KT 9999 FEW050 BKN100 05/M08 Q1014 NOSIG,LOWS,2018-03-22T15:20:00Z,47.78,13.02,5.0,-8.0,320,10,,6.21,29.940945,,,,,,TRUE,,,,,FEW,5000,BKN,10000,,,,,VFR,,,,,,,,,,,,METAR,430.0
LOWL 221520Z 29009KT 260V320 9999 FEW045 SCT085 BKN250 05/M06 Q1014 NOSIG,LOWL,2018-03-22T15:20:00Z,48.22,14.18,5.0,-6.0,290,9,,6.21,29.940945,,,,,,TRUE,,,,,FEW,4500,SCT,8500,BKN,25000,,,VFR,,,,,,,,,,,,METAR,313.0
LOWW 221520Z 11005KT 060V160 CAVOK 05/M05 Q1014 NOSIG,LOWW,2018-03-22T15:20:00Z,48.12,16.57,5.0,-5.0,110,5,,6.21,29.940945,,,,,,TRUE,,,,,CAVOK,,,,,,,,VFR,,,,,,,,,,,,METAR,190.0
EGTE 221520Z 21010KT 9999 BKN035 08/02 Q1018,EGTE,2018-03-22T15:20:00Z,50.72,-3.42,8.0,2.0,210,10,,6.21,30.059055,,,,,,,,,,,BKN,3500,,,,,,,VFR,,,,,,,,,,,,METAR,30.0
EGPL 221520Z 19021G32KT 8000 -RADZ SCT005 BKN010 07/06 Q1001,EGPL,2018-03-22T15:20:00Z,57.47,-7.37,7.0,6.0,190,21,32,4.97,29.557087,,,,,,,,,,-RA -DZ,SCT,500,BKN,1000,,,,,MVFR,,,,,,,,,,,,METAR,6.0
ESCF 221520Z 27010KT 9999 SCT012 02/M01 Q1005,ESCF,2018-03-22T15:20:00Z,58.38,15.52,2.0,-1.0,270,10,,6.21,29.675198,,,,,,,,,,,SCT,1200,,,,,,,VFR,,,,,,,,,,,,METAR,117.0
ESSL 221520Z 28010KT 9999 BKN013 02/M01 Q1005 R29/09//95,ESSL,2018-03-22T15:20:00Z,58.38,15.67,2.0,-1.0,280,10,,6.21,29.675198,,,,,,,,,,,BKN,1300,,,,,,,MVFR,,,,,,,,,,,,METAR,52.0
ESPE 221520Z AUTO 35010KT 330V040 9999 NCD M02/M10 Q1002,ESPE,2018-03-22T15:20:00Z,65.88,20.15,-2.0,-10.0,350,10,,6.21,29.586615,,,TRUE,,,,,,,,CLR,,,,,,,,VFR,,,,,,,,,,,,METAR,182.0
ESPA 221520Z 01007KT 340V040 9999 FEW033 M03/M10 Q1002,ESPA,2018-03-22T15:20:00Z,65.53,22.12,-3.0,-10.0,10,7,,6.21,29.586615,,,,,,,,,,,FEW,3300,,,,,,,VFR,,,,,,,,,,,,METAR,34.0
ESIB 221520Z 25007KT 9999 FEW012 SCT200 03/01 Q1006,ESIB,2018-03-22T15:20:00Z,58.42,12.68,3.0,1.0,250,7,,6.21,29.704725,,,,,,,,,,,FEW,1200,SCT,20000,,,,,VFR,,,,,,,,,,,,METAR,74.0
ESDF 221520Z VRB02KT 9999 BKN019 02/00 Q1007,ESDF,2018-03-22T15:20:00Z,56.27,15.27,2.0,0.0,0,2,,6.21,29.734253,,,,,,,,,,,BKN,1900,,,,,,,MVFR,,,,,,,,,,,,METAR,74.0
ESND 221520Z AUTO 32009KT 280V350 9999 OVC051/// 03/M06 Q1003,ESND,2018-03-22T15:20:00Z,62.05,14.42,3.0,-6.0,320,9,,6.21,29.616142,,,TRUE,,,,,,,,OVC,5100,,,,,,,VFR,,,,,,,,,,,,METAR,359.0
ESUP 221520Z 34008KT CAVOK M07/M13 Q1002,ESUP,2018-03-22T15:20:00Z,67.25,23.07,-7.0,-13.0,340,8,,6.21,29.586615,,,,,,,,,,,CAVOK,,,,,,,,VFR,,,,,,,,,,,,METAR,165.0
ESST 221520Z 30007KT CAVOK 08/M02 Q1004,ESST,2018-03-22T15:20:00Z,60.15,12.98,8.0,-2.0,300,7,,6.21,29.64567,,,,,,,,,,,CAVOK,,,,,,,,VFR,,,,,,,,,,,,METAR,120.0
ESNV 221520Z 34004KT 270V030 CAVOK 00/M13 Q1001,ESNV,2018-03-22T15:20:00Z,64.58,16.83,0.0,-13.0,340,4,,6.21,29.557087,,,,,,,,,,,CAVOK,,,,,,,,VFR,,,,,,,,,,,,METAR,348.0
ESKM 221520Z AUTO 31012KT 9999 NCD 06/M07 Q1003,ESKM,2018-03-22T15:20:00Z,60.97,14.52,6.0,-7.0,310,12,,6.21,29.616142,,,TRUE,,,,,,,,CLR,,,,,,,,VFR,,,,,,,,,,,,METAR,193.0
ESGR 221520Z AUTO 26007KT 9999 NCD 03/M03 Q1006,ESGR,2018-03-22T15:20:00Z,58.45,13.97,3.0,-3.0,260,7,,6.21,29.704725,,,TRUE,,,,,,,,CLR,,,,,,,,VFR,,,,,,,,,,,,METAR,105.0
EGCC 221520Z AUTO 21011KT 9999 OVC033 09/01 Q1014 NOSIG,EGCC,2018-03-22T15:20:00Z,53.35,-2.27,9.0,1.0,210,11,,6.21,29.940945,,,TRUE,,,TRUE,,,,,OVC,3300,,,,,,,VFR,,,,,,,,,,,,METAR,78.0
EGSS 221520Z AUTO 25011KT 230V290 9999 SCT026 BKN030 09/02 Q1016,EGSS,2018-03-22T15:20:00Z,51.88,0.22,9.0,2.0,250,11,,6.21,30.0,,,TRUE,,,,,,,,SCT,2600,BKN,3000,,,,,MVFR,,,,,,,,,,,,METAR,106.0
EGPK 221520Z 18010KT 160V220 9999 SCT028 08/03 Q1008,EGPK,2018-03-22T15:20:00Z,55.5,-4.57,8.0,3.0,180,10,,6.21,29.763779,,,,,,,,,,,SCT,2800,,,,,,,VFR,,,,,,,,,,,,METAR,20.0
EGPH 221520Z 22017KT 9999 BKN029 08/03 Q1009,EGPH,2018-03-22T15:20:00Z,55.95,-3.35,8.0,3.0,220,17,,6.21,29.793306,,,,,,,,,,,BKN,2900,,,,,,,MVFR,,,,,,,,,,,,METAR,41.0
EGPF 221520Z AUTO 18010KT 9999 OVC026 08/03 Q1008,EGPF,2018-03-22T15:20:00Z,55.87,-4.42,8.0,3.0,180,10,,6.21,29.763779,,,TRUE,,,,,,,,OVC,2600,,,,,,,MVFR,,,,,,,,,,,,METAR,8.0
EGLL 221520Z AUTO 27016KT 9999 BKN035 09/02 Q1017,EGLL,2018-03-22T15:20:00Z,51.48,-0.45,9.0,2.0,270,16,,6.21,30.029528,,,TRUE,,,,,,,,BKN,3500,,,,,,,VFR,,,,,,,,,,,,METAR,24.0
EGKK 221520Z 27009KT 9999 SCT033 10/03 Q1017,EGKK,2018-03-22T15:20:00Z,51.13,-0.17,10.0,3.0,270,9,,6.21,30.029528,,,,,,,,,,,SCT,3300,,,,,,,VFR,,,,,,,,,,,,METAR,62.0
EGBB 221520Z 24009KT 200V290 9999 BKN034 09/01 Q1015,EGBB,2018-03-22T15:20:00Z,52.47,-1.75,9.0,1.0,240,9,,6.21,29.970472,,,,,,,,,,,BKN,3400,,,,,,,VFR,,,,,,,,,,,,METAR,99.0
EGPM 221520Z 21014KT 9999 FEW012 BKN035 08/06 Q1003 TEMPO 3000 RADZ BKN004,EGPM,2018-03-22T15:20:00Z,60.42,-1.3,8.0,6.0,210,14,,6.21,29.616142,,,,,,,,,,,FEW,1200,BKN,3500,,,,,VFR,,,,,,,,,,,,METAR,22.0
EGPU 221520Z 16022KT 130V190 5000 -RA BKN015 07/06 Q1003,EGPU,2018-03-22T15:20:00Z,56.5,-6.87,7.0,6.0,160,22,,3.11,29.616142,,,,,,,,,,-RA,BKN,1500,,,,,,,MVFR,,,,,,,,,,,,METAR,12.0
EGPO 221520Z 19023KT 9999 -RA FEW009 BKN012 OVC026 07/05 Q1002,EGPO,2018-03-22T15:20:00Z,58.22,-6.32,7.0,5.0,190,23,,6.21,29.586615,,,,,,,,,,-RA,FEW,900,BKN,1200,OVC,2600,,,MVFR,,,,,,,,,,,,METAR,13.0
EGPC 221520Z 22008KT 180V240 9999 FEW015 09/04 Q1004,EGPC,2018-03-22T15:20:00Z,58.45,-3.07,9.0,4.0,220,8,,6.21,29.64567,,,,,,,,,,,FEW,1500,,,,,,,VFR,,,,,,,,,,,,METAR,39.0
EGPA 221520Z 18013KT 9999 FEW014 BKN030 09/06 Q1003,EGPA,2018-03-22T15:20:00Z,58.95,-2.88,9.0,6.0,180,13,,6.21,29.616142,,,,,,,,,,,FEW,1400,BKN,3000,,,,,MVFR,,,,,,,,,,,,METAR,21.0
EGEC 221520Z 13014KT 9999 FEW015 BKN027 08/04 Q1006,EGEC,2018-03-22T15:20:00Z,55.43,-5.68,8.0,4.0,130,14,,6.21,29.704725,,,,,,,,,,,FEW,1500,BKN,2700,,,,,MVFR,,,,,,,,,,,,METAR,13.0
EGSH 221520Z 26011KT 9999 BKN030 11/06 Q1015 NOSIG,EGSH,2018-03-22T15:20:00Z,52.68,1.28,11.0,6.0,260,11,,6.21,29.970472,,,,,,TRUE,,,,,BKN,3000,,,,,,,MVFR,,,,,,,,,,,,METAR,36.0
EGPN 221520Z 24014KT 9999 BKN029 08/04 Q1008,EGPN,2018-03-22T15:20:00Z,56.45,-3.02,8.0,4.0,240,14,,6.21,29.763779,,,,,,,,,,,BKN,2900,,,,,,,MVFR,,,,,,,,,,,,METAR,4.0
EGPI 221520Z 14018KT 120V180 9999 -RA BKN025 SCT039 08/05 Q1005,EGPI,2018-03-22T15:20:00Z,55.68,-6.25,8.0,5.0,140,18,,6.21,29.675198,,,,,,,,,,-RA,BKN,2500,SCT,3900,,,,,MVFR,,,,,,,,,,,,METAR,18.0
EGPE 221520Z 25010KT 9999 SCT025 08/03 Q1005,EGPE,2018-03-22T15:20:00Z,57.52,-4.03,8.0,3.0,250,10,,6.21,29.675198,,,,,,,,,,,SCT,2500,,,,,,,VFR,,,,,,,,,,,,METAR,9.0
EGNR 221520Z 22014KT 9999 BKN037 09/02 Q1014,EGNR,2018-03-22T15:20:00Z,53.17,-2.97,9.0,2.0,220,14,,6.21,29.940945,,,,,,,,,,,BKN,3700,,,,,,,VFR,,,,,,,,,,,,METAR,10.0
EGNJ 221520Z 24012KT 9999 BKN026 10/04 Q1013,EGNJ,2018-03-22T15:20:00Z,53.57,-0.35,10.0,4.0,240,12,,6.21,29.911417,,,,,,,,,,,BKN,2600,,,,,,,MVFR,,,,,,,,,,,,METAR,31.0
EGNH 221520Z 17007KT 120V220 9999 BKN034 08/03 Q1013,EGNH,2018-03-22T15:20:00Z,53.77,-3.02,8.0,3.0,170,7,,6.21,29.911417,,,,,,,,,,,BKN,3400,,,,,,,VFR,,,,,,,,,,,,METAR,10.0
EGNC 221520Z 24016KT 210V280 9999 FEW025 SCT030 09/02 Q1011,EGNC,2018-03-22T15:20:00Z,54.93,-2.82,9.0,2.0,240,16,,6.21,29.852362,,,,,,,,,,,FEW,2500,SCT,3000,,,,,VFR,,,,,,,,,,,,METAR,26.0
EGAE 221520Z 18012KT 150V220 9999 -RA FEW014 BKN047 09/06 Q1003,EGAE,2018-03-22T15:20:00Z,55.03,-7.15,9.0,6.0,180,12,,6.21,29.616142,,,,,,,,,,-RA,FEW,1400,BKN,4700,,,,,VFR,,,,,,,,,,,,METAR,9.0
EGSC 221520Z 25011KT 9999 OVC020 09/03 Q1016,EGSC,2018-03-22T15:20:00Z,52.2,0.17,9.0,3.0,250,11,,6.21,30.0,,,,,,,,,,,OVC,2000,,,,,,,MVFR,,,,,,,,,,,,METAR,15.0
EGCN 221520Z 24011KT 9999 SCT031 11/04 Q1014,EGCN,2018-03-22T15:20:00Z,53.48,-1.0,11.0,4.0,240,11,,6.21,29.940945,,,,,,,,,,,SCT,3100,,,,,,,VFR,,,,,,,,,,,,METAR,17.0
EGCK 221520Z 19019KT 9999 FEW030 BKN035 08/03 Q1013,EGCK,2018-03-22T15:20:00Z,53.1,4.33,8.0,3.0,190,19,,6.21,29.911417,,,,,,,,,,,FEW,3000,BKN,3500,,,,,VFR,,,,,,,,,,,,METAR,0.0
EGBJ 221520Z 23009KT 9999 FEW025 BKN038 08/03 Q1016,EGBJ,2018-03-22T15:20:00Z,51.9,-2.17,8.0,3.0,230,9,,6.21,30.0,,,,,,,,,,,FEW,2500,BKN,3800,,,,,VFR,,,,,,,,,,,,METAR,29.0
ESSV 221520Z 23012KT CAVOK 03/M02 Q1005 R21/09//78,ESSV,2018-03-22T15:20:00Z,57.67,18.35,3.0,-2.0,230,12,,6.21,29.675198,,,,,,,,,,,CAVOK,,,,,,,,VFR,,,,,,,,,,,,SPECI,47.0
ESSP 221520Z 24011KT 9999 FEW020 03/00 Q1004 R27/09//69,ESSP,2018-03-22T15:20:00Z,58.57,16.25,3.0,0.0,240,11,,6.21,29.64567,,,,,,,,,,,FEW,2000,,,,,,,VFR,,,,,,,,,,,,SPECI,8.0
ESSD 221520Z 03004KT CAVOK 05/M04 Q1003,ESSD,2018-03-22T15:20:00Z,60.42,15.5,5.0,-4.0,30,4,,6.21,29.616142,,,,,,,,,,,CAVOK,,,,,,,,VFR,,,,,,,,,,,,METAR,161.0
ESSB 221520Z 29008KT 9999 FEW044 BKN064 05/M01 Q1003 R30/19//53,ESSB,2018-03-22T15:20:00Z,59.35,17.93,5.0,-1.0,290,8,,6.21,29.616142,,,,,,,,,,,FEW,4400,BKN,6400,,,,,VFR,,,,,,,,,,,,SPECI,11.0
ESSA 221520Z 25006KT CAVOK 05/M01 Q1003 R01L/09//95 R01R/09//95 R08/09//95 NOSIG,ESSA,2018-03-22T15:20:00Z,59.63,17.93,5.0,-1.0,250,6,,6.21,29.616142,,,,,,TRUE,,,,,CAVOK,,,,,,,,VFR,,,,,,,,,,,,SPECI,61.0
ESOW 221520Z VRB02KT CAVOK 05/M01 Q1003 R19/09//95,ESOW,2018-03-22T15:20:00Z,59.57,16.62,5.0,-1.0,0,2,,6.21,29.616142,,,,,,,,,,,CAVOK,,,,,,,,VFR,,,,,,,,,,,,SPECI,31.0
ESOK 221520Z 29007KT CAVOK 07/M02 Q1004,ESOK,2018-03-22T15:20:00Z,59.45,13.33,7.0,-2.0,290,7,,6.21,29.64567,,,,,,,,,,,CAVOK,,,,,,,,VFR,,,,,,,,,,,,METAR,107.0
ESOE 221520Z 23010KT CAVOK 05/01 Q1004,ESOE,2018-03-22T15:20:00Z,59.22,15.05,5.0,1.0,230,10,,6.21,29.64567,,,,,,,,,,,CAVOK,,,,,,,,VFR,,,,,,,,,,,,METAR,57.0
ESKN 221520Z 30009KT 9999 FEW025 06/M00 Q1003 R26/09//95,ESKN,2018-03-22T15:20:00Z,58.78,16.9,6.0,0.0,300,9,,6.21,29.616142,,,,,,,,,,,FEW,2500,,,,,,,VFR,,,,,,,,,,,,SPECI,43.0
EGJJ 221520Z 24013KT 9999 FEW025 BKN030 07/02 Q1021,EGJJ,2018-03-22T15:20:00Z,49.22,-2.2,7.0,2.0,240,13,,6.21,30.147638,,,,,,,,,,,FEW,2500,BKN,3000,,,,,MVFR,,,,,,,,,,,,METAR,84.0
EGJB 221520Z 23013KT 9999 FEW022 BKN030 07/03 Q1020,EGJB,2018-03-22T15:20:00Z,49.42,-2.6,7.0,3.0,230,13,,6.21,30.11811,,,,,,,,,,,FEW,2200,BKN,3000,,,,,MVFR,,,,,,,,,,,,METAR,102.0
EGJA 221520Z 23013KT 9999 BKN030 07/// Q1019,EGJA,2018-03-22T15:20:00Z,49.72,-2.2,,,230,13,,6.21,30.088583,,,,,,,,,,,BKN,3000,,,,,,,MVFR,,,,,,,,,,,,METAR,71.0
EGHQ 221520Z 21016KT 9999 BKN024 08/03 Q1017,EGHQ,2018-03-22T15:20:00Z,50.43,-5.0,8.0,3.0,210,16,,6.21,30.029528,,,,,,,,,,,BKN,2400,,,,,,,MVFR,,,,,,,,,,,,METAR,119.0
EGHE 221520Z 20026G36KT 9999 VCSH SCT012 BKN020 09/06 Q1016,EGHE,2018-03-22T15:20:00Z,49.92,-6.28,9.0,6.0,200,26,36,6.21,30.0,,,,,,,,,,VCSH,SCT,1200,BKN,2000,,,,,MVFR,,,,,,,,,,,,METAR,31.0
EGHC 221520Z 21018KT 9999 FEW015 BKN030 08/05 Q1016,EGHC,2018-03-22T15:20:00Z,50.1,-5.67,8.0,5.0,210,18,,6.21,30.0,,,,,,,,,,,FEW,1500,BKN,3000,,,,,MVFR,,,,,,,,,,,,METAR,122.0
EGPD 221520Z AUTO 21016KT 9999 NCD 12/02 Q1005 NOSIG,EGPD,2018-03-22T15:20:00Z,57.2,-2.22,12.0,2.0,210,16,,6.21,29.675198,,,TRUE,,,TRUE,,,,,CLR,,,,,,,,VFR,,,,,,,,,,,,METAR,65.0
ESNZ 221520Z 32011KT CAVOK 01/M06 Q1002,ESNZ,2018-03-22T15:20:00Z,63.17,14.5,1.0,-6.0,320,11,,6.21,29.586615,,,,,,,,,,,CAVOK,,,,,,,,VFR,,,,,,,,,,,,METAR,370.0
ESNU 221520Z 32010KT 9999 SCT047 02/M06 Q1001 R14/71//65,ESNU,2018-03-22T15:20:00Z,63.78,20.27,2.0,-6.0,320,10,,6.21,29.557087,,,,,,,,,,,SCT,4700,,,,,,,VFR,,,,,,,,,,,,SPECI,14.0
ESNS 221520Z 07008KT 9999 FEW040 M01/M06 Q1001,ESNS,2018-03-22T15:20:00Z,64.62,21.07,-1.0,-6.0,70,8,,6.21,29.557087,,,,,,,,,,,FEW,4000,,,,,,,VFR,,,,,,,,,,,,METAR,49.0
ESNQ 221520Z 02005KT CAVOK M06/M12 Q1001,ESNQ,2018-03-22T15:20:00Z,67.82,20.32,-6.0,-12.0,20,5,,6.21,29.557087,,,,,,,,,,,CAVOK,,,,,,,,VFR,,,,,,,,,,,,METAR,452.0
ESNO 221520Z 01009KT 350V050 CAVOK 02/M08 Q1001,ESNO,2018-03-22T15:20:00Z,63.38,18.97,2.0,-8.0,10,9,,6.21,29.557087,,,,,,,,,,,CAVOK,,,,,,,,VFR,,,,,,,,,,,,METAR,103.0
ESNN 221520Z 31009KT CAVOK 04/M08 Q1002 R16/59//57,ESNN,2018-03-22T15:20:00Z,62.52,17.43,4.0,-8.0,310,9,,6.21,29.586615,,,,,,,,,,,CAVOK,,,,,,,,VFR,,,,,,,,,,,,SPECI,10.0
ESNK 221520Z AUTO 36012KT 9999 NCD 01/M08 Q1002,ESNK,2018-03-22T15:20:00Z,63.03,17.77,1.0,-8.0,360,12,,6.21,29.586615,,,TRUE,,,,,,,,CLR,,,,,,,,VFR,,,,,,,,,,,,METAR,19.0
ESNG 221520Z 34009KT CAVOK M05/M12 Q1002,ESNG,2018-03-22T15:20:00Z,67.13,20.82,-5.0,-12.0,340,9,,6.21,29.586615,,,,,,,,,,,CAVOK,,,,,,,,VFR,,,,,,,,,,,,METAR,310.0
EGNX 221520Z 23016KT 9999 SCT032 08/02 Q1014,EGNX,2018-03-22T15:20:00Z,52.82,-1.32,8.0,2.0,230,16,,6.21,29.940945,,,,,,,,,,,SCT,3200,,,,,,,VFR,,,,,,,,,,,,METAR,94.0
EGNM 221520Z 24011G21KT 200V270 9999 BKN030 08/02 Q1012,EGNM,2018-03-22T15:20:00Z,53.87,-1.63,8.0,2.0,240,11,21,6.21,29.88189,,,,,,,,,,,BKN,3000,,,,,,,MVFR,,,,,,,,,,,,METAR,208.0
EGLC 221520Z AUTO 24011KT 9999 BKN037 11/01 Q1017,EGLC,2018-03-22T15:20:00Z,51.5,0.05,11.0,1.0,240,11,,6.21,30.029528,,,TRUE,,,,,,,,BKN,3700,,,,,,,VFR,,,,,,,,,,,,METAR,5.0
EGGW 221520Z AUTO 25014KT 9999 FEW031 10/02 Q1016,EGGW,2018-03-22T15:20:00Z,51.87,-0.37,10.0,2.0,250,14,,6.21,30.0,,,TRUE,,,,,,,,FEW,3100,,,,,,,VFR,,,,,,,,,,,,METAR,160.0
EGFF 221520Z AUTO 23005KT 9999 OVC032 07/03 Q1017,EGFF,2018-03-22T15:20:00Z,51.38,-3.35,7.0,3.0,230,5,,6.21,30.029528,,,TRUE,,,,,,,,OVC,3200,,,,,,,VFR,,,,,,,,,,,,METAR,67.0
EGAC 221520Z AUTO 17012KT 9999 BKN027/// 09/05 Q1007,EGAC,2018-03-22T15:20:00Z,54.62,-5.87,9.0,5.0,170,12,,6.21,29.734253,,,TRUE,,,,,,,,BKN,2700,,,,,,,MVFR,,,,,,,,,,,,METAR,5.0
EGAA 221520Z 17010KT 9999 -RA BKN022 09/05 Q1006,EGAA,2018-03-22T15:20:00Z,54.63,-6.22,9.0,5.0,170,10,,6.21,29.704725,,,,,,,,,,-RA,BKN,2200,,,,,,,MVFR,,,,,,,,,,,,METAR,81.0
EGPB 221520Z 18009KT 5000 -RADZ FEW002 BKN003 07/06 Q1004 REDZ,EGPB,2018-03-22T15:20:00Z,59.87,-1.3,7.0,6.0,180,9,,3.11,29.64567,,,,,,,,,,-RA -DZ,FEW,200,BKN,300,,,,,LIFR,,,,,,,,,,,,METAR,5.0
EGNV 221520Z 22018KT 9999 FEW030 10/02 Q1012,EGNV,2018-03-22T15:20:00Z,54.52,-1.42,10.0,2.0,220,18,,6.21,29.88189,,,,,,,,,,,FEW,3000,,,,,,,VFR,,,,,,,,,,,,METAR,37.0
EGNT 221520Z 26013KT 9999 FEW030 10/02 Q1010,EGNT,2018-03-22T15:20:00Z,55.02,-1.7,10.0,2.0,260,13,,6.21,29.822834,,,,,,,,,,,FEW,3000,,,,,,,VFR,,,,,,,,,,,,METAR,81.0
EGHI 221520Z 26011KT 220V290 9999 BKN035 08/M00 Q1018,EGHI,2018-03-22T15:20:00Z,50.95,-1.35,8.0,0.0,260,11,,6.21,30.059055,,,,,,,,,,,BKN,3500,,,,,,,VFR,,,,,,,,,,,,METAR,14.0
EGGP 221520Z 24014KT 9999 BKN036 09/02 Q1013,EGGP,2018-03-22T15:20:00Z,53.32,-2.85,9.0,2.0,240,14,,6.21,29.911417,,,,,,,,,,,BKN,3600,,,,,,,VFR,,,,,,,,,,,,METAR,26.0
EGGD 221520Z AUTO 23010KT 9999 OVC027 07/01 Q1017,EGGD,2018-03-22T15:20:00Z,51.37,-2.72,7.0,1.0,230,10,,6.21,30.029528,,,TRUE,,,,,,,,OVC,2700,,,,,,,MVFR,,,,,,,,,,,,METAR,189.0
EGTK 221520Z 25016KT 9999 BKN031 08/02 Q1016,EGTK,2018-03-22T15:20:00Z,51.83,-1.32,8.0,2.0,250,16,,6.21,30.0,,,,,,,,,,,BKN,3100,,,,,,,VFR,,,,,,,,,,,,METAR,82.0
EGMD 221520Z 24015KT 9999 BKN023 08/04 Q1017,EGMD,2018-03-22T15:20:00Z,50.95,0.92,8.0,4.0,240,15,,6.21,30.029528,,,,,,,,,,,BKN,2300,,,,,,,MVFR,,,,,,,,,,,,METAR,3.0
EGMC 221520Z 27011KT 9999 BKN023 10/04 Q1016,EGMC,2018-03-22T15:20:00Z,51.57,0.7,10.0,4.0,270,11,,6.21,30.0,,,,,,,,,,,BKN,2300,,,,,,,MVFR,,,,,,,,,,,,METAR,15.0
EGLF 221520Z 26014KT 230V300 9999 BKN035 09/01 Q1017,EGLF,2018-03-22T15:20:00Z,51.28,-0.77,9.0,1.0,260,14,,6.21,30.029528,,,,,,,,,,,BKN,3500,,,,,,,VFR,,,,,,,,,,,,METAR,65.0
EGKA 221520Z 23016KT 9999 FEW030 09/03 Q1017,EGKA,2018-03-22T15:20:00Z,50.83,-0.3,9.0,3.0,230,16,,6.21,30.029528,,,,,,,,,,,FEW,3000,,,,,,,VFR,,,,,,,,,,,,METAR,2.0
EGHH 221520Z 26014KT 9999 BKN029 08/02 Q1018,EGHH,2018-03-22T15:20:00Z,50.78,-1.83,8.0,2.0,260,14,,6.21,30.059055,,,,,,,,,,,BKN,2900,,,,,,,MVFR,,,,,,,,,,,,METAR,11.0
CWZQ 221520Z AUTO 06023G46KT 01/M02 RMK AO1 T00051015,CWZQ,2018-03-22T15:20:00Z,46.53,-61.05,0.5,-1.5,60,23,46,,,,,TRUE,TRUE,,,,,,,,,,,,,,,,,,,,,,,,,,,METAR,17.0
EKRN 221520Z AUTO 25001KT 7000NDV OVC005/// 02/01 Q1007,EKRN,2018-03-22T15:20:00Z,55.07,14.75,2.0,1.0,250,1,,,29.734253,,,TRUE,,,,,,,,OVC,500,,,,,,,,,,,,,,,,,,,METAR,16.0
EKEB 221520Z AUTO 32007KT 9999NDV BKN015/// 05/02 Q1009,EKEB,2018-03-22T15:20:00Z,55.52,8.55,5.0,2.0,320,7,,,29.793306,,,TRUE,,,,,,,,BKN,1500,,,,,,,,,,,,,,,,,,,METAR,29.0
EKAH 221520Z AUTO 03003KT 9999NDV OVC014/// 04/02 Q1008,EKAH,2018-03-22T15:20:00Z,56.28,10.62,4.0,2.0,30,3,,,29.763779,,,TRUE,,,,,,,,OVC,1400,,,,,,,,,,,,,,,,,,,METAR,25.0
EKRK 221520Z AUTO 33007KT 9999NDV FEW010/// OVC013/// 02/01 Q1008,EKRK,2018-03-22T15:20:00Z,55.57,12.12,2.0,1.0,330,7,,,29.763779,,,TRUE,,,,,,,,FEW,1000,OVC,1300,,,,,,,,,,,,,,,,,METAR,44.0
EKYT 221520Z AUTO 23007KT 9999NDV FEW018/// 05/02 Q1008,EKYT,2018-03-22T15:20:00Z,57.1,9.87,5.0,2.0,230,7,,,29.763779,,,TRUE,,,,,,,,FEW,1800,,,,,,,,,,,,,,,,,,,METAR,3.0
EKBI 221520Z AUTO 31007KT 9999NDV OVC017/// 05/02 Q1008,EKBI,2018-03-22T15:20:00Z,55.72,9.15,5.0,2.0,310,7,,,29.763779,,,TRUE,,,,,,,,OVC,1700,,,,,,,,,,,,,,,,,,,SPECI,66.0
EKCH 221520Z 34006KT 320V020 9999 SCT013 OVC016 02/M00 Q1008 R04L/510160 R04R/510163 R12/510165 TEMPO BKN012,EKCH,2018-03-22T15:20:00Z,55.62,12.67,2.0,0.0,340,6,,6.21,29.763779,,,,,,,,,,,SCT,1300,OVC,1600,,,,,MVFR,,,,,,,,,,,,METAR,5.0
EKOD 221520Z 03007KT 9999 SCT005 BKN007 03/02 Q1009,EKOD,2018-03-22T15:20:00Z,55.47,10.32,3.0,2.0,30,7,,6.21,29.793306,,,,,,,,,,,SCT,500,BKN,700,,,,,IFR,,,,,,,,,,,,METAR,17.0
EFKT 221520Z 35010KT CAVOK M07/M12 Q1002,EFKT,2018-03-22T15:20:00Z,67.7,24.85,-7.0,-12.0,350,10,,6.21,29.586615,,,,,,,,,,,CAVOK,,,,,,,,VFR,,,,,,,,,,,,METAR,643.0
EFKS 221520Z AUTO 04004KT 010V090 CAVOK M08/M12 Q0998,EFKS,2018-03-22T15:20:00Z,66.0,29.23,-8.0,-12.0,40,4,,6.21,29.468504,,,TRUE,,,,,,,,CAVOK,,,,,,,,VFR,,,,,,,,,,,,METAR,263.0
EFKI 221520Z 02010KT 9999 BKN016 BKN019 M03/M06 Q0995,EFKI,2018-03-22T15:20:00Z,64.27,27.67,-3.0,-6.0,20,10,,6.21,29.379921,,,,,,,,,,,BKN,1600,BKN,1900,,,,,MVFR,,,,,,,,,,,,METAR,136.0
EFKE 221520Z AUTO 01012KT 9999 -SHSN OVC035 M04/M09 Q1000,EFKE,2018-03-22T15:20:00Z,65.77,24.57,-4.0,-9.0,10,12,,6.21,29.52756,,,TRUE,,,,,,,-SHSN,OVC,3500,,,,,,,VFR,,,,,,,,,,,,METAR,15.0
EFET 221520Z AUTO 32005KT CAVOK M09/M14 Q1002,EFET,2018-03-22T15:20:00Z,68.37,23.43,-9.0,-14.0,320,5,,6.21,29.586615,,,TRUE,,,,,,,,CAVOK,,,,,,,,VFR,,,,,,,,,,,,METAR,306.0
EFUT 221520Z 24010KT 220V290 9999 BKN006 00/M00 Q0992,EFUT,2018-03-22T15:20:00Z,60.88,26.92,0.0,0.0,240,10,,6.21,29.291338,,,,,,,,,,,BKN,600,,,,,,,IFR,,,,,,,,,,,,METAR,100.0
EFSI 221520Z AUTO 32014KT 9999 -SHSN BKN010 M03/M04 Q0998,EFSI,2018-03-22T15:20:00Z,62.7,22.83,-3.0,-4.0,320,14,,6.21,29.468504,,,TRUE,,,,,,,-SHSN,BKN,1000,,,,,,,MVFR,,,,,,,,,,,,METAR,91.0
EFSA 221520Z 20003KT 1000 RASN OVC004 00/M00 Q0990,EFSA,2018-03-22T15:20:00Z,61.95,28.93,0.0,0.0,200,3,,0.62,29.232283,,,,,,,,,,RA SN,OVC,400,,,,,,,LIFR,,,,,,,,,,,,METAR,95.0
EFMI 221520Z AUTO 25008KT 7000 -SHRA OVC008 01/M00 Q0991,EFMI,2018-03-22T15:20:00Z,61.68,27.2,1.0,0.0,250,8,,4.35,29.26181,,,TRUE,,,,,,,-SHRA,OVC,800,,,,,,,IFR,,,,,,,,,,,,METAR,138.0
EFLP 221520Z AUTO 23009KT 9999 -RASN OVC006 00/M00 Q0992,EFLP,2018-03-22T15:20:00Z,61.07,28.13,0.0,0.0,230,9,,6.21,29.291338,,,TRUE,,,,,,,-RA -SN,OVC,600,,,,,,,IFR,,,,,,,,,,,,METAR,106.0
EFJO 221520Z 13002KT 1500 SN OVC002 M00/M00 Q0990,EFJO,2018-03-22T15:20:00Z,62.67,29.62,0.0,0.0,130,2,,0.93,29.232283,,,,,,,,,,SN,OVC,200,,,,,,,LIFR,,,,,,,,,,,,METAR,117.0
EFPO 221520Z AUTO 32015KT CAVOK 02/M05 Q0998,EFPO,2018-03-22T15:20:00Z,61.47,21.8,2.0,-5.0,320,15,,6.21,29.468504,,,TRUE,,,,,,,,CAVOK,,,,,,,,VFR,,,,,,,,,,,,METAR,17.0
EFKK 221520Z 34014KT 310V010 9000 -SHSN BKN007 M04/M05 Q1000,EFKK,2018-03-22T15:20:00Z,63.72,23.13,-4.0,-5.0,340,14,,5.59,29.52756,,,,,,,,,,-SHSN,BKN,700,,,,,,,IFR,,,,,,,,,,,,METAR,25.0
EFHA 221520Z AUTO 31013KT 4400 -SHSN BKN011 00/M02 Q0994,EFHA,2018-03-22T15:20:00Z,61.85,24.8,0.0,-2.0,310,13,,2.73,29.350393,,,TRUE,,,,,,,-SHSN,BKN,1100,,,,,,,IFR,,,,,,,,,,,,METAR,145.0
EFKU 221520Z AUTO 36010KT 1600 -SN FEW008 OVC020 M01/M03 Q0991,EFKU,2018-03-22T15:20:00Z,63.02,27.8,-1.0,-3.0,360,10,,0.99,29.26181,,,TRUE,,,,,,,-SN,FEW,800,OVC,2000,,,,,LIFR,,,,,,,,,,,,METAR,102.0
EFJY 221520Z AUTO 33016KT 9999 -SN OVC011 00/M01 Q0992 RESN,EFJY,2018-03-22T15:20:00Z,62.4,25.68,0.0,-1.0,330,16,,6.21,29.291338,,,TRUE,,,,,,,-SN,OVC,1100,,,,,,,MVFR,,,,,,,,,,,,METAR,145.0
LLBG 221520Z 11004KT CAVOK 30/05 Q1009 NOSIG,LLBG,2018-03-22T15:20:00Z,32.0,34.88,30.0,5.0,110,4,,6.21,29.793306,,,,,,TRUE,,,,,CAVOK,,,,,,,,VFR,,,,,,,,,,,,METAR,49.0
ESNL 221520Z 33007KT 9999 FEW043 BKN049 00/M08 Q1002,ESNL,2018-03-22T15:20:00Z,64.55,18.72,0.0,-8.0,330,7,,6.21,29.586615,,,,,,,,,,,FEW,4300,BKN,4900,,,,,VFR,,,,,,,,,,,,METAR,214.0
LIPH 221520Z 07005KT 040V100 CAVOK 10/M07 Q1008,LIPH,2018-03-22T15:20:00Z,45.63,12.17,10.0,-7.0,70,5,,6.21,29.763779,,,,,,,,,,,CAVOK,,,,,,,,VFR,,,,,,,,,,,,METAR,23.0
LIPQ 221520Z 10015KT 060V120 CAVOK 11/M08 Q1008,LIPQ,2018-03-22T15:20:00Z,45.82,13.47,11.0,-8.0,100,15,,6.21,29.763779,,,,,,,,,,,CAVOK,,,,,,,,VFR,,,,,,,,,,,,METAR,12.0
LIPZ 221520Z 11006KT 070V140 CAVOK 09/M05 Q1009 NOSIG,LIPZ,2018-03-22T15:20:00Z,45.5,12.35,9.0,-5.0,110,6,,6.21,29.793306,,,,,,TRUE,,,,,CAVOK,,,,,,,,VFR,,,,,,,,,,,,METAR,6.0
LIEA 221520Z 35012G22KT 300V030 9999 SCT045 11/00 Q1008,LIEA,2018-03-22T15:20:00Z,40.62,8.27,11.0,0.0,350,12,22,6.21,29.763779,,,,,,,,,,,SCT,4500,,,,,,,VFR,,,,,,,,,,,,METAR,23.0
LIEO 221520Z 34008KT 300V360 9999 SCT045 11/02 Q1006,LIEO,2018-03-22T15:20:00Z,40.88,9.52,11.0,2.0,340,8,,6.21,29.704725,,,,,,,,,,,SCT,4500,,,,,,,VFR,,,,,,,,,,,,METAR,13.0
LIEE 221520Z 31019KT 9999 SCT045 11/04 Q1006,LIEE,2018-03-22T15:20:00Z,39.25,9.07,11.0,4.0,310,19,,6.21,29.704725,,,,,,,,,,,SCT,4500,,,,,,,VFR,,,,,,,,,,,,METAR,4.0
LIMC 221520Z 24005KT 200V290 CAVOK 09/M02 Q1008 NOSIG,LIMC,2018-03-22T15:20:00Z,45.62,8.72,9.0,-2.0,240,5,,6.21,29.763779,,,,,,TRUE,,,,,CAVOK,,,,,,,,VFR,,,,,,,,,,,,METAR,211.0
LIMF 221520Z 13004KT 060V200 CAVOK 10/M01 Q1008,LIMF,2018-03-22T15:20:00Z,45.22,7.65,10.0,-1.0,130,4,,6.21,29.763779,,,,,,,,,,,CAVOK,,,,,,,,VFR,,,,,,,,,,,,METAR,287.0
LIRF 221520Z 36015KT CAVOK 09/M01 Q1000 NOSIG,LIRF,2018-03-22T15:20:00Z,41.78,12.22,9.0,-1.0,360,15,,6.21,29.52756,,,,,,TRUE,,,,,CAVOK,,,,,,,,VFR,,,,,,,,,,,,METAR,3.0
ESNX 221520Z 31009KT CAVOK M04/M11 Q1001,ESNX,2018-03-22T15:20:00Z,65.58,19.28,-4.0,-11.0,310,9,,6.21,29.557087,,,,,,,,,,,CAVOK,,,,,,,,VFR,,,,,,,,,,,,METAR,379.0
KUSE 221520Z AUTO VRB06G12KT 10SM CLR 03/M14 A3027 RMK AO2,KUSE,2018-03-22T15:20:00Z,41.62,-84.13,3.0,-14.0,0,6,12,10.0,30.268702,,,TRUE,TRUE,,,,,,,CLR,,,,,,,,VFR,,,,,,,,,,,,SPECI,238.0
KOWI 221520Z AUTO 14012KT 9SM CLR 12/03 A3026 RMK AO2,KOWI,2018-03-22T15:20:00Z,38.53,-95.25,12.0,3.0,140,12,,9.0,30.259842,,,TRUE,TRUE,,,,,,,CLR,,,,,,,,VFR,,,,,,,,,,,,SPECI,292.0
KHSD 221520Z AUTO 16019KT 10SM CLR 16/00 A3014 RMK A01,KHSD,2018-03-22T15:20:00Z,35.6,-97.72,16.0,0.0,160,19,,10.0,30.138779,,,TRUE,TRUE,,,,,,,CLR,,,,,,,,VFR,,,,,,,,,,,,METAR,364.0
KGOO 221520Z AUTO 23016G29KT 160V250 1SM OVC001 09/09 A2972 RMK AO1 P0004,KGOO,2018-03-22T15:20:00Z,39.22,-121.0,9.0,9.0,230,16,29,1.0,29.719488,,,TRUE,TRUE,,,,,,,OVC,100,,,,,,,LIFR,,,,,,0.04,,,,,,SPECI,962.0
LATI 221520Z 14020G30KT 9999 SCT100 BKN160 19/04 Q0990 NOSIG,LATI,2018-03-22T15:20:00Z,41.42,19.72,19.0,4.0,140,20,30,6.21,29.232283,,,,,,TRUE,,,,,SCT,10000,BKN,16000,,,,,VFR,,,,,,,,,,,,METAR,90.0
EYSA 221520Z 24010KT 9999 FEW022 SCT028 OVC040 02/M02 Q1007 R32R/29//95 R32L/29//95 BLU NOSIG,EYSA,2018-03-22T15:20:00Z,55.9,23.4,2.0,-2.0,240,10,,6.21,29.734253,,,,,,TRUE,,,,,FEW,2200,SCT,2800,OVC,4000,,,VFR,,,,,,,,,,,,METAR,135.0
EYPA 221520Z 24006KT 200V290 9999 -RA OVC008 01/00 Q1008 R19/1///95,EYPA,2018-03-22T15:20:00Z,55.97,21.08,1.0,0.0,240,6,,6.21,29.763779,,,,,,,,,,-RA,OVC,800,,,,,,,IFR,,,,,,,,,,,,METAR,10.0
EYVI 221520Z 23009KT 9999 OVC014 01/M02 Q1009 R19/0///95 NOSIG,EYVI,2018-03-22T15:20:00Z,54.63,25.28,1.0,-2.0,230,9,,6.21,29.793306,,,,,,TRUE,,,,,OVC,1400,,,,,,,MVFR,,,,,,,,,,,,SPECI,197.0
EGKB 221520Z 27008KT 210V300 9999 SCT031 09/02 Q1016,EGKB,2018-03-22T15:20:00Z,51.32,0.02,9.0,2.0,270,8,,6.21,30.0,,,,,,,,,,,SCT,3100,,,,,,,VFR,,,,,,,,,,,,METAR,183.0
EGNO 221520Z 24008KT 9999 BKN035 08/03 Q1013,EGNO,2018-03-22T15:20:00Z,53.75,-2.88,8.0,3.0,240,8,,6.21,29.911417,,,,,,,,,,,BKN,3500,,,,,,,VFR,,,,,,,,,,,,METAR,17.0
EFIV 221520Z 24004KT 220V290 CAVOK M06/M11 Q1001,EFIV,2018-03-22T15:20:00Z,68.62,27.42,-6.0,-11.0,240,4,,6.21,29.557087,,,,,,,,,,,CAVOK,,,,,,,,VFR,,,,,,,,,,,,METAR,148.0
EFMA 221520Z 31008KT 280V360 CAVOK 04/M04 Q1002,EFMA,2018-03-22T15:20:00Z,60.12,19.88,4.0,-4.0,310,8,,6.21,29.586615,,,,,,,,,,,CAVOK,,,,,,,,VFR,,,,,,,,,,,,METAR,6.0
EFRO 221520Z AUTO 02010KT CAVOK M05/M12 Q1000,EFRO,2018-03-22T15:20:00Z,66.57,25.82,-5.0,-12.0,20,10,,6.21,29.52756,,,TRUE,,,,,,,,CAVOK,,,,,,,,VFR,,,,,,,,,,,,METAR,201.0
EFOU 221520Z AUTO 02008KT 350V060 9999 OVC022/// M02/M05 Q0998,EFOU,2018-03-22T15:20:00Z,64.92,25.37,-2.0,-5.0,20,8,,6.21,29.468504,,,TRUE,,,,,,,,OVC,2200,,,,,,,MVFR,,,,,,,,,,,,METAR,15.0
EFVA 221520Z AUTO 01015KT 9999 FEW014/// OVC021/// M02/M05 Q1000,EFVA,2018-03-22T15:20:00Z,63.03,21.77,-2.0,-5.0,10,15,,6.21,29.52756,,,TRUE,,,,,,,,FEW,1400,OVC,2100,,,,,MVFR,,,,,,,,,,,,METAR,4.0
EFTU 221520Z AUTO 32011KT 290V350 9999 FEW039/// 03/M06 Q0998,EFTU,2018-03-22T15:20:00Z,60.52,22.27,3.0,-6.0,320,11,,6.21,29.468504,,,TRUE,,,,,,,,FEW,3900,,,,,,,VFR,,,,,,,,,,,,METAR,59.0
EFTP 221520Z AUTO 32009KT 9999 FEW034 SCT040 00/M04 Q0996,EFTP,2018-03-22T15:20:00Z,61.42,23.62,0.0,-4.0,320,9,,6.21,29.409449,,,TRUE,,,,,,,,FEW,3400,SCT,4000,,,,,VFR,,,,,,,,,,,,METAR,112.0
EFHK 221520Z 27012KT 9999 VCSH FEW008 BKN030 02/M01 Q0995 TEMPO -SHSN 2500 BKN012,EFHK,2018-03-22T15:20:00Z,60.32,24.97,2.0,-1.0,270,12,,6.21,29.379921,,,,,,,,,,VCSH,FEW,800,BKN,3000,,,,,MVFR,,,,,,,,,,,,METAR,56.0
EDDC 221520Z 23010KT 4300 -SN FEW006 BKN010 01/00 Q1011 BECMG 5000,EDDC,2018-03-22T15:20:00Z,51.13,13.75,1.0,0.0,230,10,,2.67,29.852362,,,,,,,,,,-SN,FEW,600,BKN,1000,,,,,IFR,,,,,,,,,,,,SPECI,226.0
EDDB 221520Z 22009KT 2800 -DZ BR BKN004 03/02 Q1009 TEMPO 3000 BKN006,EDDB,2018-03-22T15:20:00Z,52.38,13.53,3.0,2.0,220,9,,1.74,29.793306,,,,,,,,,,-DZ BR,BKN,400,,,,,,,LIFR,,,,,,,,,,,,SPECI,48.0
EDDV 221520Z 27011KT 9999 BKN005 BKN012 07/05 Q1009 NOSIG,EDDV,2018-03-22T15:20:00Z,52.47,9.68,7.0,5.0,270,11,,6.21,29.793306,,,,,,TRUE,,,,,BKN,500,BKN,1200,,,,,IFR,,,,,,,,,,,,METAR,54.0
EDDT 221520Z 24009KT 210V270 2300 -DZ BKN005 03/03 Q1009 TEMPO 3500 -DZ BKN004,EDDT,2018-03-22T15:20:00Z,52.57,13.32,3.0,3.0,240,9,,1.43,29.793306,,,,,,,,,,-DZ,BKN,500,,,,,,,IFR,,,,,,,,,,,,SPECI,37.0
LTAC 221520Z 15006KT 9999 SCT040 BKN100 15/M01 Q1010 NOSIG,LTAC,2018-03-22T15:20:00Z,40.12,32.97,15.0,-1.0,150,6,,6.21,29.822834,,,,,,TRUE,,,,,SCT,4000,BKN,10000,,,,,VFR,,,,,,,,,,,,METAR,949.0
ENSO 221520Z VRB01KT 150V280 8000 BKN004 02/02 Q1008,ENSO,2018-03-22T15:20:00Z,59.78,5.33,2.0,2.0,0,1,,4.97,29.763779,,,,,,,,,,,BKN,400,,,,,,,LIFR,,,,,,,,,,,,METAR,49.0
LCEN 221520Z 11009KT CAVOK 20/06 Q1013 NOSIG RMK RWY11 12011KT,LCEN,2018-03-22T15:20:00Z,35.13,33.5,20.0,6.0,110,9,,6.21,29.911417,,,,,,TRUE,,,,,CAVOK,,,,,,,,VFR,,,,,,,,,,,,SPECI,91.0
LTCE 221520Z 22008KT 9999 SCT040 BKN090 09/M01 Q1018 NOSIG RMK RWY08R 20011KT RWY26R 22013KT RWY08L 22011KT,LTCE,2018-03-22T15:20:00Z,39.95,41.17,9.0,-1.0,220,8,,6.21,30.059055,,,,,,TRUE,,,,,SCT,4000,BKN,9000,,,,,VFR,,,1.1,,,,,,,,,METAR,1758.0
LTCC 221520Z 08004KT CAVOK 17/07 Q1016 NOSIG RMK RWY16 09004KT 060V120,LTCC,2018-03-22T15:20:00Z,37.87,40.2,17.0,7.0,80,4,,6.21,30.0,,,,,,TRUE,,,,,CAVOK,,,,,,,,VFR,,,,,,,,,,,,METAR,677.0
LTBU 221520Z 03021KT 9999 BKN009 BKN022 05/04 Q1011 RMK RWY23 05018KT,LTBU,2018-03-22T15:20:00Z,41.12,27.92,5.0,4.0,30,21,,6.21,29.852362,,,,,,,,,,,BKN,900,BKN,2200,,,,,IFR,,,,,,,,,,,,SPECI,173.0
LTAU 221520Z 01004KT 9999 FEW040 BKN120 18/M03 Q1013 BECMG 18012KT,LTAU,2018-03-22T15:20:00Z,38.77,35.47,18.0,-3.0,10,4,,6.21,29.911417,,,,,,,,,,,FEW,4000,BKN,12000,,,,,VFR,,,,,,,,,,,,METAR,1054.0
LTAT 221520Z 36003KT 9999 FEW040 SCT100 16/05 Q1016 NOSIG RMK RWY03 01004KT,LTAT,2018-03-22T15:20:00Z,38.42,38.07,16.0,5.0,360,3,,6.21,30.0,,,,,,TRUE,,,,,FEW,4000,SCT,10000,,,,,VFR,,,,,,,,,,,,METAR,849.0
LTAP 221520Z 03007KT 9999 FEW040 BKN180 13/06 Q1011 NOSIG RMK RWY23 04009KT,LTAP,2018-03-22T15:20:00Z,40.83,35.52,13.0,6.0,30,7,,6.21,29.852362,,,,,,TRUE,,,,,FEW,4000,BKN,18000,,,,,VFR,,,,,,,,,,,,METAR,535.0
LTAG 221520Z 15004KT CAVOK 22/10 Q1013 NOSIG,LTAG,2018-03-22T15:20:00Z,37.0,35.42,22.0,10.0,150,4,,6.21,29.911417,,,,,,TRUE,,,,,CAVOK,,,,,,,,VFR,,,,,,,,,,,,METAR,66.0
LTFJ 221520Z 05022KT 9999 SCT007 BKN025 07/05 Q1010 NOSIG RMK RWY24 05018KT,LTFJ,2018-03-22T15:20:00Z,40.9,29.3,7.0,5.0,50,22,,6.21,29.822834,,,,,,TRUE,,,,,SCT,700,BKN,2500,,,,,MVFR,,,,,,,,,,,,SPECI,98.0
LTFE 221520Z 11019G29KT CAVOK 22/02 Q1004 NOSIG RMK RWY10 14016KT,LTFE,2018-03-22T15:20:00Z,37.25,27.67,22.0,2.0,110,19,29,6.21,29.64567,,,,,,TRUE,,,,,CAVOK,,,,,,,,VFR,,,,,,,,,,,,METAR,6.0
LTFC 221520Z 01007KT 300V050 9999 SCT035 BKN100 15/M03 Q1011 RMK RWY23 03010KT,LTFC,2018-03-22T15:20:00Z,37.87,30.38,15.0,-3.0,10,7,,6.21,29.852362,,,,,,,,,,,SCT,3500,BKN,10000,,,,,VFR,,,,,,,,,,,,SPECI,864.0
LTCS 221520Z 07003KT CAVOK 17/08 Q1018 RMK RWY22 07003KT,LTCS,2018-03-22T15:20:00Z,37.45,38.9,17.0,8.0,70,3,,6.21,30.059055,,,,,,,,,,,CAVOK,,,,,,,,VFR,,,,,,,,,,,,METAR,825.0
LTCG 221520Z 31004KT 290V350 7000 BKN009 11/09 Q1017 TEMPO 3500 BR,LTCG,2018-03-22T15:20:00Z,41.0,39.8,11.0,9.0,310,4,,4.35,30.029528,,,,,,,,,,,BKN,900,,,,,,,IFR,,,,,,,,,,,,METAR,30.0
LTBS 221520Z 02005KT 350V090 9999 FEW030 BKN180 19/10 Q1006 NOSIG RMK RWY19 32005KT 240V360,LTBS,2018-03-22T15:20:00Z,36.7,28.77,19.0,10.0,20,5,,6.21,29.704725,,,,,,TRUE,,,,,FEW,3000,BKN,18000,,,,,VFR,,,,,,,,,,,,SPECI,2.0
LTBR 221520Z 05006KT 9999 SCT035 BKN180 11/08 Q1008 NOSIG RMK RWY07 11005KT 080V220,LTBR,2018-03-22T15:20:00Z,40.25,29.57,11.0,8.0,50,6,,6.21,29.763779,,,,,,TRUE,,,,,SCT,3500,BKN,18000,,,,,VFR,,-0.5,,,,,,,,,,SPECI,232.0
LTBJ 221520Z 16010KT CAVOK 20/05 Q1002 NOSIG RMK RWY16 16016KT,LTBJ,2018-03-22T15:20:00Z,38.28,27.15,20.0,5.0,160,10,,6.21,29.586615,,,,,,TRUE,,,,,CAVOK,,,,,,,,VFR,,,,,,,,,,,,SPECI,120.0
LTBA 221520Z 04017G27KT 020V080 9999 BKN011 BKN025 07/04 Q1011 NOSIG RMK RWY17L 05019KT 010V080 RWY05 04020KT RWY23 07022G32KT,LTBA,2018-03-22T15:20:00Z,40.97,28.82,7.0,4.0,40,17,27,6.21,29.852362,,,,,,TRUE,,,,,BKN,1100,BKN,2500,,,,,MVFR,,,,,,,,,,,,SPECI,37.0
LTAZ 221520Z 19003KT 140V240 9999 FEW040 BKN120 19/02 Q1012 RMK RWY29 23005KT 200V260,LTAZ,2018-03-22T15:20:00Z,38.77,34.55,19.0,2.0,190,3,,6.21,29.88189,,,,,,,,,,,FEW,4000,BKN,12000,,,,,VFR,,,,,,,,,,,,SPECI,945.0
LTAJ 221520Z 20002KT CAVOK 18/08 Q1016 NOSIG RMK RWY10 VRB02KT,LTAJ,2018-03-22T15:20:00Z,36.95,37.48,18.0,8.0,200,2,,6.21,30.0,,,,,,TRUE,,,,,CAVOK,,,,,,,,VFR,,,,,,,,,,,,METAR,855.0
LTAI 221520Z VRB02KT 9999 FEW030 BKN200 18/06 Q1013 NOSIG RMK RWY18C 00000KT RWY36R VRB02KT RWY18L VRB01KT,LTAI,2018-03-22T15:20:00Z,36.9,30.8,18.0,6.0,0,2,,6.21,29.911417,,,,,,TRUE,,,,,FEW,3000,BKN,20000,,,,,VFR,,,,,,,,,,,,SPECI,54.0
LTAF 221520Z 14004KT CAVOK 22/10 Q1013 NOSIG RMK RWY23 18004KT,LTAF,2018-03-22T15:20:00Z,36.97,35.28,22.0,10.0,140,4,,6.21,29.911417,,,,,,TRUE,,,,,CAVOK,,,,,,,,VFR,,,,,,,,,,,,SPECI,20.0
EDGS 221520Z 27008KT 0150 R31/0175N FG VV/// 01/01 Q1011,EDGS,2018-03-22T15:20:00Z,50.7,8.08,1.0,1.0,270,8,,0.09,29.852362,,,,,,,,,,FG,OVX,0,,,,,,,LIFR,,,,,,,,,,,,METAR,602.0
EGTC 221520Z 23012KT 9999 BKN033 09/02 Q1015,EGTC,2018-03-22T15:20:00Z,52.07,-0.62,9.0,2.0,230,12,,6.21,29.970472,,,,,,,,,,,BKN,3300,,,,,,,VFR,,,,,,,,,,,,METAR,111.0
OISS 221520Z 27010G21KT CAVOK 22/M13 Q1016 A3001,OISS,2018-03-22T15:20:00Z,29.52,52.57,22.0,-13.0,270,10,21,6.21,30.0,,,,,,,,,,,CAVOK,,,,,,,,VFR,,,,,,,,,,,,SPECI,1491.0
VNKT 221520Z 16003KT 6000 FEW020 19/08 Q1015 NOSIG,VNKT,2018-03-22T15:20:00Z,27.68,85.37,19.0,8.0,160,3,,3.73,29.970472,,,,,,TRUE,,,,,FEW,2000,,,,,,,MVFR,,,,,,,,,,,,METAR,1337.0
EETN 221520Z 26017KT 4500 SN OVC007 00/M00 Q0997 R08/290195 TEMPO 2000,EETN,2018-03-22T15:20:00Z,59.4,24.82,0.0,0.0,260,17,,2.8,29.438976,,,,,,,,,,SN,OVC,700,,,,,,,IFR,,,,,,,,,,,,SPECI,40.0
PKWA 221520Z AUTO 06014KT 10SM SCT011 SCT018 SCT026 27/24 A2975 RMK AO2 T02660238,PKWA,2018-03-22T15:20:00Z,8.72,167.72,26.6,23.8,60,14,,10.0,29.749016,,,TRUE,TRUE,,,,,,,SCT,1100,SCT,1800,SCT,2600,,,VFR,,,,,,,,,,,,METAR,8.0
EVRA 221520Z 24010KT 220V280 9999 BKN033 BKN038 03/M02 Q1005 R18/190095 NOSIG,EVRA,2018-03-22T15:20:00Z,56.92,23.97,3.0,-2.0,240,10,,6.21,29.675198,,,,,,TRUE,,,,,BKN,3300,BKN,3800,,,,,VFR,,,,,,,,,,,,SPECI,10.0
EKVG 221520Z AUTO 24005KT 190V290 2500NDV DZ BR OVC004/// 07/07 Q0994 RMK BKN001/// WIND 850FT VRB10G21KT,EKVG,2018-03-22T15:20:00Z,62.07,-7.3,7.0,7.0,240,5,,,29.350393,,,TRUE,,,,,,,DZ BR,OVC,400,,,,,,,,,,,,,,,,,,,METAR,85.0
EYKA 221520Z 24007KT 9999 SCT015 BKN027 OVC047 02/M02 Q1009 R08/090095,EYKA,2018-03-22T15:20:00Z,54.97,24.08,2.0,-2.0,240,7,,6.21,29.793306,,,,,,,,,,,SCT,1500,BKN,2700,OVC,4700,,,MVFR,,,,,,,,,,,,METAR,77.0
KTGI 221520Z AUTO 33019G23KT 10SM CLR 05/M02 A2997 RMK AO1,KTGI,2018-03-22T15:20:00Z,37.82,-75.98,5.0,-2.0,330,19,23,10.0,29.970472,,,TRUE,TRUE,,,,,,,CLR,,,,,,,,VFR,,,,,,,,,,,,SPECI,2.0
KGEV 221520Z AUTO 32016G26KT 10SM CLR M01/M09 A3006 RMK AO2 T10061089,KGEV,2018-03-22T15:20:00Z,36.43,-81.42,-0.6,-8.9,320,16,26,10.0,30.059055,,,TRUE,TRUE,,,,,,,CLR,,,,,,,,VFR,,,,,,,,,,,,SPECI,969.0
KEHO 221520Z AUTO 33013G20KT 10SM CLR 07/M08 A3017 RMK AO2 T00711077,KEHO,2018-03-22T15:20:00Z,35.25,-81.6,7.1,-7.7,330,13,20,10.0,30.171259,,,TRUE,TRUE,,,,,,,CLR,,,,,,,,VFR,,,,,,,,,,,,SPECI,258.0
KPGV 221520Z AUTO 31007G17KT 10SM SCT044 08/M02 A3008 RMK AO2,KPGV,2018-03-22T15:20:00Z,35.62,-77.4,8.0,-2.0,310,7,17,10.0,30.079725,,,TRUE,TRUE,,,,,,,SCT,4400,,,,,,,VFR,,,,,,,,,,,,SPECI,8.0
KONX 221520Z AUTO 31010G16KT 270V330 10SM BKN070 06/M02 A3001 RMK AO2 T00561022,KONX,2018-03-22T15:20:00Z,36.4,-76.02,5.6,-2.2,310,10,16,10.0,30.008858,,,TRUE,TRUE,,,,,,,BKN,7000,,,,,,,VFR,,,,,,,,,,,,SPECI,5.0
KJNX 221520Z AUTO 36009KT 330V030 10SM CLR 08/M03 A3010 RMK AO2,KJNX,2018-03-22T15:20:00Z,35.53,-78.38,8.0,-3.0,360,9,,10.0,30.100393,,,TRUE,TRUE,,,,,,,CLR,,,,,,,,VFR,,,,,,,,,,,,SPECI,50.0
KIXA 221520Z AUTO 34008G17KT 10SM CLR 07/M02 A3007 RMK AO2,KIXA,2018-03-22T15:20:00Z,36.33,-77.63,7.0,-2.0,340,8,17,10.0,30.070866,,,TRUE,TRUE,,,,,,,CLR,,,,,,,,VFR,,,,,,,,,,,,SPECI,44.0
KGWW 221520Z AUTO 28005KT 10SM CLR 07/M02 A3008 RMK AO2 T00711023,KGWW,2018-03-22T15:20:00Z,35.47,-77.97,7.1,-2.3,280,5,,10.0,30.079725,,,TRUE,TRUE,,,,,,,CLR,,,,,,,,VFR,,,,,,,,,,,,SPECI,41.0
FALA 221519Z 09010KT 8000 -SHRA BKN012 FEW030TCU 16/15 Q1021 NOSIG,FALA,2018-03-22T15:19:00Z,-25.92,27.92,16.0,15.0,90,10,,4.97,30.147638,,,,,,TRUE,,,,-SHRA,BKN,1200,FEW,3000,,,,,MVFR,,,,,,,,,,,,SPECI,1377.0
KTTD 221519Z 22008KT 7SM -RA FEW012 BKN037 OVC044 08/06 A2959 RMK AO2 P0003 T00780061,KTTD,2018-03-22T15:19:00Z,45.55,-122.42,7.8,6.1,220,8,,7.0,29.589567,,,,TRUE,,,,,,-RA,FEW,1200,BKN,3700,OVC,4400,,,VFR,,,,,,0.03,,,,,,SPECI,14.0
KCMA 221519Z 21003KT 2 1/2SM RA BR FEW005 BKN022 OVC060 15/13 A2999 RMK AO2 P0009 T01500133,KCMA,2018-03-22T15:19:00Z,34.22,-119.1,15.0,13.3,210,3,,2.5,29.991142,,,,TRUE,,,,,,RA BR,FEW,500,BKN,2200,OVC,6000,,,IFR,,,,,,0.09,,,,,,SPECI,23.0
KCCR 221519Z 19014KT 6SM -RA BKN022 BKN035 OVC095 16/13 A2974 RMK AO2 P0001 T01560128,KCCR,2018-03-22T15:19:00Z,38.0,-122.05,15.6,12.8,190,14,,6.0,29.740158,,,,TRUE,,,,,,-RA,BKN,2200,BKN,3500,OVC,9500,,,MVFR,,,,,,0.01,,,,,,SPECI,11.0
CYGT 221519Z 29018KT 3SM IC BLSN FEW080 M28/M31 A3031 RMK BLSN1AC1 AC TR SLP276,CYGT,2018-03-22T15:19:00Z,69.37,-81.82,-28.0,-31.0,290,18,,3.0,30.31004,1027.6,,,,,,,,,IC BLSN,FEW,8000,,,,,,,MVFR,,,,,,,,,,,,SPECI,51.0
KTTF 221519Z AUTO 34007KT 10SM CLR 03/M14 A3025 RMK AO2 T00291139,KTTF,2018-03-22T15:19:00Z,41.93,-83.42,2.9,-13.9,340,7,,10.0,30.250984,,,TRUE,TRUE,,,,,,,CLR,,,,,,,,VFR,,,,,,,,,,,,METAR,188.0
PAPO 221519Z AUTO 15027G34KT 3/4SM -SN BR CLR M04/M04 A3005 RMK AO2 PK WND 15035/1506 P0000 FZRANO,PAPO,2018-03-22T15:19:00Z,68.35,-166.8,-4.0,-4.0,150,27,34,0.75,30.050198,,,TRUE,TRUE,,,,TRUE,,-SN BR,CLR,,,,,,,,LIFR,,,,,,0.005,,,,,,SPECI,6.0
PAOU 221519Z AUTO 10SM SCT015 01/M01 A3019 RMK AO2 FZRANO $,PAOU,2018-03-22T15:19:00Z,56.0,-161.17,1.0,-1.0,,,,10.0,30.188976,,,TRUE,TRUE,TRUE,,,TRUE,,,SCT,1500,,,,,,,VFR,,,,,,,,,,,,SPECI,4.0
KEIK 221518Z AUTO 00000KT 10SM CLR 10/00 A3016 RMK AO2 T01020000,KEIK,2018-03-22T15:18:00Z,40.02,-105.05,10.2,0.0,0,0,,10.0,30.159449,,,TRUE,TRUE,,,,,,,CLR,,,,,,,,VFR,,,,,,,,,,,,SPECI,1564.0
K4BM 221518Z AUTO 22007KT 10SM CLR 00/M07 A3035 RMK AO2 LTG DSNT N AND NW,K4BM,2018-03-22T15:18:00Z,39.05,-105.52,0.0,-7.0,220,7,,10.0,30.351377,,,TRUE,TRUE,,,,,,,CLR,,,,,,,,VFR,,,,,,,,,,,,METAR,3438.0
KCGS 221518Z AUTO 30010G15KT 270V330 10SM CLR 04/M05 A3000 RMK AO1 T00371053,KCGS,2018-03-22T15:18:00Z,38.98,-76.92,3.7,-5.3,300,10,15,10.0,30.0,,,TRUE,TRUE,,,,,,,CLR,,,,,,,,VFR,,,,,,,,,,,,SPECI,15.0
CYPD 221518Z AUTO 07021G36KT 2 1/4SM -SN OVC008 M00/M02 A2958 RMK SLP024,CYPD,2018-03-22T15:18:00Z,45.67,-61.37,0.0,-2.0,70,21,36,2.25,29.58071,1002.4,,TRUE,,,,,,,-SN,OVC,800,,,,,,,IFR,,,,,,,,,,,,SPECI,114.0
KDVL 221518Z AUTO 00000KT 3SM BR BKN001 OVC034 M04/M04 A3033 RMK AO2 FZRANO,KDVL,2018-03-22T15:18:00Z,48.12,-98.92,-4.0,-4.0,0,0,,3.0,30.33071,,,TRUE,TRUE,,,,TRUE,,BR,BKN,100,OVC,3400,,,,,LIFR,,,,,,,,,,,,SPECI,443.0
KSMX 221518Z 17012KT 2SM -RA BR SCT039 BKN047 OVC070 16/14 A2992 RMK AO2 P0001 T01610144 $,KSMX,2018-03-22T15:18:00Z,34.9,-120.45,16.1,14.4,170,12,,2.0,29.920275,,,,TRUE,TRUE,,,,,-RA BR,SCT,3900,BKN,4700,OVC,7000,,,IFR,,,,,,0.01,,,,,,METAR,74.0
PAKF 221518Z AUTO 18019G27KT 5SM -RA BR OVC008 03/02 A3013 RMK AO2 PK WND 18027/1518 CIG 007V012 P0000,PAKF,2018-03-22T15:18:00Z,54.85,-163.42,3.0,2.0,180,19,27,5.0,30.129921,,,TRUE,TRUE,,,,,,-RA BR,OVC,800,,,,,,,IFR,,,,,,0.005,,,,,,SPECI,6.0
KCBE 221517Z AUTO 01004KT 10SM CLR 07/M07 A3012 RMK AO1,KCBE,2018-03-22T15:17:00Z,39.62,-78.77,7.0,-7.0,10,4,,10.0,30.121063,,,TRUE,TRUE,,,,,,,CLR,,,,,,,,VFR,,,,,,,,,,,,METAR,236.0
KBGR 221517Z 36017KT 3/4SM R15/3000V4000FT -SN BR VV016 M02/M04 A2973 RMK AO2 P0000 T10221039,KBGR,2018-03-22T15:17:00Z,44.8,-68.82,-2.2,-3.9,360,17,,0.75,29.731298,,,,TRUE,,,,,,-SN BR,OVX,0,,,,,,,LIFR,,,,,,0.005,,,,,1600,SPECI,57.0
KORH 221517Z 34015G24KT 10SM FEW022 BKN033 OVC041 02/M02 A2966 RMK AO2 T00221022 $,KORH,2018-03-22T15:17:00Z,42.27,-71.87,2.2,-2.2,340,15,24,10.0,29.660433,,,,TRUE,TRUE,,,,,,FEW,2200,BKN,3300,OVC,4100,,,VFR,,,,,,,,,,,,SPECI,304.0
KLWM 221517Z 35009KT 4SM -SN FEW008 SCT025 OVC032 02/M01 A2969 RMK AO2 P0000 T00221006,KLWM,2018-03-22T15:17:00Z,42.72,-71.13,2.2,-0.6,350,9,,4.0,29.68996,,,,TRUE,,,,,,-SN,FEW,800,SCT,2500,OVC,3200,,,MVFR,,,,,,0.005,,,,,,SPECI,54.0
CYPR 221517Z AUTO 07006KT 6SM -RA BR OVC029 03/02 A2933 RMK SLP935,CYPR,2018-03-22T15:17:00Z,54.28,-130.42,3.0,2.0,70,6,,6.0,29.329725,993.5,,TRUE,,,,,,,-RA BR,OVC,2900,,,,,,,MVFR,,,,,,,,,,,,SPECI,34.0
KAMN 221517Z AUTO 29008KT 10SM CLR 02/M12 A3028 RMK AO2 T00161116,KAMN,2018-03-22T15:17:00Z,43.32,-84.68,1.6,-11.6,290,8,,10.0,30.280512,,,TRUE,TRUE,,,,,,,CLR,,,,,,,,VFR,,,,,,,,,,,,METAR,230.0
SKLT 221517Z 09004KT 9999 SCT015 SCT200 30/24 A2994,SKLT,2018-03-22T15:17:00Z,-4.2,-69.93,30.0,24.0,90,4,,6.21,29.940945,,,,,,,,,,,SCT,1500,SCT,20000,,,,,VFR,,,,,,,,,,,,SPECI,84.0
KFFX 221517Z AUTO 35009KT 10SM CLR 01/M14 A3030 RMK AO2 T00101136,KFFX,2018-03-22T15:17:00Z,43.43,-86.0,1.0,-13.6,350,9,,10.0,30.301182,,,TRUE,TRUE,,,,,,,CLR,,,,,,,,VFR,,,,,,,,,,,,SPECI,236.0
K2W6 221517Z AUTO 30007KT 10SM CLR 04/M03 A3000 RMK AO1,K2W6,2018-03-22T15:17:00Z,38.32,-76.55,4.0,-3.0,300,7,,10.0,30.0,,,TRUE,TRUE,,,,,,,CLR,,,,,,,,VFR,,,,,,,,,,,,SPECI,44.0
CYPH 221516Z AUTO 00000KT 3SM BR SCT002 M18/M21 A3040 RMK SLP300,CYPH,2018-03-22T15:16:00Z,58.45,-78.08,-18.0,-21.0,0,0,,3.0,30.398623,1030.0,,TRUE,,,,,,,BR,SCT,200,,,,,,,MVFR,,,,,,,,,,,,SPECI,3.0
CYRV 221516Z AUTO 31004KT 300V360 9SM OVC065 01/01 A2969 RMK SLP073,CYRV,2018-03-22T15:16:00Z,50.97,-118.17,1.0,1.0,310,4,,9.0,29.68996,1007.3,,TRUE,,,,,,,,OVC,6500,,,,,,,VFR,,,,,,,,,,,,SPECI,443.0
KXVG 221516Z AUTO 15003KT 5SM -SN OVC032 00/M03 A3034 RMK AO2,KXVG,2018-03-22T15:16:00Z,46.98,-94.2,0.0,-3.0,150,3,,5.0,30.339567,,,TRUE,TRUE,,,,,,-SN,OVC,3200,,,,,,,MVFR,,,,,,,,,,,,METAR,407.0
KTWM 221516Z AUTO 00000KT 10SM OVC060 03/M06 A3034 RMK AO2,KTWM,2018-03-22T15:16:00Z,47.03,-91.75,3.0,-6.0,0,0,,10.0,30.339567,,,TRUE,TRUE,,,,,,,OVC,6000,,,,,,,VFR,,,,,,,,,,,,METAR,328.0
KJYG 221516Z AUTO 13008KT 10SM SCT060 02/M01 A3034 RMK AO2,KJYG,2018-03-22T15:16:00Z,43.98,-94.55,2.0,-1.0,130,8,,10.0,30.339567,,,TRUE,TRUE,,,,,,,SCT,6000,,,,,,,VFR,,,,,,,,,,,,SPECI,325.0
K40B 221516Z AUTO 04007G14KT 330V080 M01/M08 A2986 RMK AO1 SLP143 T10131083 57011,K40B,2018-03-22T15:16:00Z,46.62,-69.52,-1.3,-8.3,40,7,14,,29.861221,1014.3,,TRUE,TRUE,,,,,,,,,,,,,,,,-1.1,,,,,,,,,,,METAR,314.0
KVBG 221516Z 17011KT 4SM -RA BR FEW000 SCT013 BKN025 BKN030 OVC038 15/14 A2992 RMK AO2A RAB1513 FG FEW000 SCT BKN,KVBG,2018-03-22T15:16:00Z,34.73,-120.58,15.0,14.0,170,11,,4.0,29.920275,,,,TRUE,,,,,,-RA BR,FEW,0,SCT,1300,BKN,2500,BKN,3000,MVFR,,,,,,,,,,,,SPECI,112.0
KMGG 221516Z AUTO 12003KT 10SM OVC030 01/M01 A3037 RMK AO2 T00121015,KMGG,2018-03-22T15:16:00Z,45.23,-93.98,1.2,-1.5,120,3,,10.0,30.369095,,,TRUE,TRUE,,,,,,,OVC,3000,,,,,,,MVFR,,,,,,,,,,,,SPECI,313.0
KTEW 221516Z AUTO 31005G08KT 10SM CLR 02/M15 A3026 RMK AO2 T00241147,KTEW,2018-03-22T15:16:00Z,42.57,-84.42,2.4,-14.7,310,5,8,10.0,30.259842,,,TRUE,TRUE,,,,,,,CLR,,,,,,,,VFR,,,,,,,,,,,,SPECI,280.0
PASA 221516Z AUTO 13028G38KT 8SM -RA SCT009 BKN024 OVC031 01/00 A2985 RMK AO2 PK WND 13038/1516 P0000 FZRANO $,PASA,2018-03-22T15:16:00Z,63.68,-170.5,1.0,0.0,130,28,38,8.0,29.84941,,,TRUE,TRUE,TRUE,,,TRUE,,-RA,SCT,900,BKN,2400,OVC,3100,,,MVFR,,,,,,0.005,,,,,,METAR,16.0
KTBR 221516Z AUTO 30011G14KT 10SM CLR 10/M03 A3022 RMK AO2,KTBR,2018-03-22T15:16:00Z,32.48,-81.73,10.0,-3.0,300,11,14,10.0,30.221457,,,TRUE,TRUE,,,,,,,CLR,,,,,,,,VFR,,,,,,,,,,,,SPECI,57.0
KI63 221515Z AUTO 02003KT 10SM BKN110 06/M03 A3038 RMK AO2 T00581031,KI63,2018-03-22T15:15:00Z,39.98,-90.8,5.8,-3.1,20,3,,10.0,30.380905,,,TRUE,TRUE,,,,,,,BKN,11000,,,,,,,VFR,,,,,,,,,,,,SPECI,223.0
KIBM 221515Z AUTO 00000KT 10SM SCT120 12/M01 A3010 RMK AO2 T01151014,KIBM,2018-03-22T15:15:00Z,41.18,-103.68,11.5,-1.4,0,0,,10.0,30.100393,,,TRUE,TRUE,,,,,,,SCT,12000,,,,,,,VFR,,,,,,,,,,,,SPECI,1501.0
KIJX 221515Z AUTO 34004KT 10SM CLR 06/M04 A3038 RMK AO2 T00611044,KIJX,2018-03-22T15:15:00Z,39.77,-90.25,6.1,-4.4,340,4,,10.0,30.380905,,,TRUE,TRUE,,,,,,,CLR,,,,,,,,VFR,,,,,,,,,,,,SPECI,190.0
KC62 221515Z AUTO 36006KT 10SM CLR 01/M08 A3028 RMK AO2 T00171088,KC62,2018-03-22T15:15:00Z,41.47,-85.25,1.7,-8.8,360,6,,10.0,30.280512,,,TRUE,TRUE,,,,,,,CLR,,,,,,,,VFR,,,,,,,,,,,,SPECI,306.0
KBRY 221515Z AUTO 02004KT 10SM CLR 00/M03 A3033 RMK AO1,KBRY,2018-03-22T15:15:00Z,37.82,-85.5,0.0,-3.0,20,4,,10.0,30.33071,,,TRUE,TRUE,,,,,,,CLR,,,,,,,,VFR,,,,,,,,,,,,SPECI,204.0
KD55 221515Z AUTO 07008KT 4SM BR BKN005 BKN010 OVC023 00/00 A3034 RMK AO2,KD55,2018-03-22T15:15:00Z,48.75,-98.4,0.0,0.0,70,8,,4.0,30.339567,,,TRUE,TRUE,,,,,,BR,BKN,500,BKN,1000,OVC,2300,,,IFR,,,,,,,,,,,,SPECI,491.0
KDYA 221515Z AUTO 36005KT 10SM 11/00 A3041 RMK AO2 T01120004,KDYA,2018-03-22T15:15:00Z,32.47,-87.95,11.2,0.4,360,5,,10.0,30.410433,,,TRUE,TRUE,,,,,,,,,,,,,,,,,,,,,,,,,,,SPECI,34.0
KDYB 221515Z AUTO 34008KT 10SM CLR 10/M02 A3018 RMK AO1,KDYB,2018-03-22T15:15:00Z,33.07,-80.28,10.0,-2.0,340,8,,10.0,30.180119,,,TRUE,TRUE,,,,,,,CLR,,,,,,,,VFR,,,,,,,,,,,,SPECI,18.0
KIFA 221515Z AUTO 14008KT 10SM BKN065 BKN100 04/M01 A3035 RMK AO2 T00351011,KIFA,2018-03-22T15:15:00Z,42.47,-93.27,3.5,-1.1,140,8,,10.0,30.351377,,,TRUE,TRUE,,,,,,,BKN,6500,BKN,10000,,,,,VFR,,,,,,,,,,,,SPECI,347.0
KFPK 221515Z AUTO 33007G14KT 10SM CLR 02/M12 A3026 RMK AO2 T00181121,KFPK,2018-03-22T15:15:00Z,42.57,-84.82,1.8,-12.1,330,7,14,10.0,30.259842,,,TRUE,TRUE,,,,,,,CLR,,,,,,,,VFR,,,,,,,,,,,,SPECI,272.0
KPEA 221515Z AUTO 16005KT 10SM SCT065 04/M02 A3036 RMK AO2 T00381018,KPEA,2018-03-22T15:15:00Z,41.4,-92.95,3.8,-1.8,160,5,,10.0,30.360237,,,TRUE,TRUE,,,,,,,SCT,6500,,,,,,,VFR,,,,,,,,,,,,SPECI,270.0
KMNI 221515Z 10SM CLR A3017 RMK AO2,KMNI,2018-03-22T15:15:00Z,33.58,-80.22,,,,,,10.0,30.171259,,,,TRUE,,,,,,,CLR,,,,,,,,VFR,,,,,,,,,,,,SPECI,32.0
KMAO 221515Z AUTO 32010G17KT 10SM CLR 07/M03 A3015 RMK AO2,KMAO,2018-03-22T15:15:00Z,34.18,-79.33,7.0,-3.0,320,10,17,10.0,30.15059,,,TRUE,TRUE,,,,,,,CLR,,,,,,,,VFR,,,,,,,,,,,,SPECI,28.0
KPTS 221515Z AUTO 15005KT 10SM CLR 11/02 A3027 RMK AO2 T01050024,KPTS,2018-03-22T15:15:00Z,37.45,-94.73,10.5,2.4,150,5,,10.0,30.268702,,,TRUE,TRUE,,,,,,,CLR,,,,,,,,VFR,,,,,,,,,,,,SPECI,290.0
KVNC 221515Z AUTO 02011KT 10SM CLR 17/02 A3028 RMK AO2,KVNC,2018-03-22T15:15:00Z,27.07,-82.43,17.0,2.0,20,11,,10.0,30.280512,,,TRUE,TRUE,,,,,,,CLR,,,,,,,,VFR,,,,,,,,,,,,SPECI,6.0
KMBO 221515Z AUTO 00000KT 10SM CLR 12/02 A3041 RMK AO2 PWINO,KMBO,2018-03-22T15:15:00Z,32.43,-90.1,12.0,2.0,0,0,,10.0,30.410433,,,TRUE,TRUE,,,,,TRUE,,CLR,,,,,,,,VFR,,,,,,,,,,,,SPECI,99.0
KM25 221515Z AUTO 36004KT 10SM CLR 08/M03 A3040 RMK AO2 PWINO,KM25,2018-03-22T15:15:00Z,36.77,-88.58,8.0,-3.0,360,4,,10.0,30.398623,,,TRUE,TRUE,,,,,TRUE,,CLR,,,,,,,,VFR,,,,,,,,,,,,SPECI,160.0
KLZZ 221515Z AUTO 19012G17KT 10SM BKN022 18/13 A3026 RMK AO2 T01820125,KLZZ,2018-03-22T15:15:00Z,31.1,-98.2,18.2,12.5,190,12,17,10.0,30.259842,,,TRUE,TRUE,,,,,,,BKN,2200,,,,,,,MVFR,,,,,,,,,,,,METAR,371.0
KLWA 221515Z AUTO 34009KT 10SM CLR 02/M08 A3033 RMK AO2 T00211081,KLWA,2018-03-22T15:15:00Z,42.35,-86.25,2.1,-8.1,340,9,,10.0,30.33071,,,TRUE,TRUE,,,,,,,CLR,,,,,,,,VFR,,,,,,,,,,,,SPECI,203.0
KLKR 221515Z AUTO 32012G17KT 10SM CLR 07/M08 A3017 RMK AO2,KLKR,2018-03-22T15:15:00Z,34.72,-80.85,7.0,-8.0,320,12,17,10.0,30.171259,,,TRUE,TRUE,,,,,,,CLR,,,,,,,,VFR,,,,,,,,,,,,SPECI,149.0
KJSO 221515Z AUTO 17006KT 10SM CLR 17/08 A3036 RMK AO2 T01780087,KJSO,2018-03-22T15:15:00Z,31.87,-95.22,17.8,8.7,170,6,,10.0,30.360237,,,TRUE,TRUE,,,,,,,CLR,,,,,,,,VFR,,,,,,,,,,,,SPECI,206.0
KJMR 221515Z AUTO 00000KT 7SM -SN SCT010 BKN025 BKN030 M01/M07 A3039 RMK AO2,KJMR,2018-03-22T15:15:00Z,45.88,-93.27,-1.0,-7.0,0,0,,7.0,30.389763,,,TRUE,TRUE,,,,,,-SN,SCT,1000,BKN,2500,BKN,3000,,,MVFR,,,,,,,,,,,,SPECI,309.0
KJKJ 221515Z AUTO 00000KT 4SM BR OVC036 02/00 A3035 RMK AO2,KJKJ,2018-03-22T15:15:00Z,46.83,-96.67,2.0,0.0,0,0,,4.0,30.351377,,,TRUE,TRUE,,,,,,BR,OVC,3600,,,,,,,MVFR,,,,,,,,,,,,SPECI,280.0
KJFX 221515Z AUTO 33007KT 300V010 10SM 10/M01 A3039 RMK AO2 PWINO,KJFX,2018-03-22T15:15:00Z,33.9,-87.32,10.0,-1.0,330,7,,10.0,30.389763,,,TRUE,TRUE,,,,,TRUE,,,,,,,,,,,,,,,,,,,,,,SPECI,148.0
KIIB 221515Z AUTO 00000KT 10SM CLR 04/M02 A3037 RMK AO2 T00371023,KIIB,2018-03-22T15:15:00Z,42.45,-91.95,3.7,-2.3,0,0,,10.0,30.369095,,,TRUE,TRUE,,,,,,,CLR,,,,,,,,VFR,,,,,,,,,,,,SPECI,298.0
KIDI 221515Z AUTO 29008KT 10SM CLR M01/M05 A3011 RMK A01,KIDI,2018-03-22T15:15:00Z,40.62,-79.08,-1.0,-5.0,290,8,,10.0,30.109253,,,TRUE,TRUE,,,,,,,CLR,,,,,,,,VFR,,,,,,,,,,,,SPECI,429.0
KI69 221515Z AUTO 30005KT 10SM CLR 01/M05 A3029 RMK AO2 T00111055,KI69,2018-03-22T15:15:00Z,39.08,-84.22,1.1,-5.5,300,5,,10.0,30.28937,,,TRUE,TRUE,,,,,,,CLR,,,,,,,,VFR,,,,,,,,,,,,SPECI,255.0
KHZX 221515Z AUTO 15003KT 10SM OVC075 00/M05 A3036 RMK AO2,KHZX,2018-03-22T15:15:00Z,46.62,-93.32,0.0,-5.0,150,3,,10.0,30.360237,,,TRUE,TRUE,,,,,,,OVC,7500,,,,,,,VFR,,,,,,,,,,,,SPECI,374.0
KHYW 221515Z AUTO 29008KT 260V360 5SM HZ CLR 08/M02 A3014 RMK AO2,KHYW,2018-03-22T15:15:00Z,33.83,-79.12,8.0,-2.0,290,8,,5.0,30.138779,,,TRUE,TRUE,,,,,,HZ,CLR,,,,,,,,MVFR,,,,,,,,,,,,SPECI,11.0
KHAI 221515Z AUTO 01004KT 10SM CLR 03/M10 A3030 RMK AO2 T00271100,KHAI,2018-03-22T15:15:00Z,41.97,-85.6,2.7,-10.0,10,4,,10.0,30.301182,,,TRUE,TRUE,,,,,,,CLR,,,,,,,,VFR,,,,,,,,,,,,SPECI,251.0
KHAF 221515Z AUTO 18015G20KT 4SM BR OVC004 13/13 A2975 RMK AO2,KHAF,2018-03-22T15:15:00Z,37.52,-122.5,13.0,13.0,180,15,20,4.0,29.749016,,,TRUE,TRUE,,,,,,BR,OVC,400,,,,,,,LIFR,,,,,,,,,,,,SPECI,21.0
KGYL 221515Z AUTO 12005KT 10SM OVC040 03/M01 A3035 RMK AO2 T00321008,KGYL,2018-03-22T15:15:00Z,44.77,-94.08,3.2,-0.8,120,5,,10.0,30.351377,,,TRUE,TRUE,,,,,,,OVC,4000,,,,,,,VFR,,,,,,,,,,,,SPECI,302.0
KGPC 221515Z AUTO 34009G15KT 10SM CLR 02/M08 A3034 RMK AO2,KGPC,2018-03-22T15:15:00Z,39.63,-86.82,2.0,-8.0,340,9,15,10.0,30.339567,,,TRUE,TRUE,,,,,,,CLR,,,,,,,,VFR,,,,,,,,,,,,SPECI,257.0
KGNT 221515Z AUTO 00000KT 10SM CLR 07/M05 A3032 RMK AO2 T00671052,KGNT,2018-03-22T15:15:00Z,35.17,-107.9,6.7,-5.2,0,0,,10.0,30.318897,,,TRUE,TRUE,,,,,,,CLR,,,,,,,,VFR,,,,,,,,,,,,METAR,1987.0
KGGE 221515Z AUTO 33011G15KT 10SM CLR 09/M02 A3016 RMK AO2,KGGE,2018-03-22T15:15:00Z,33.32,-79.32,9.0,-2.0,330,11,15,10.0,30.159449,,,TRUE,TRUE,,,,,,,CLR,,,,,,,,VFR,,,,,,,,,,,,SPECI,12.0
KFKA 221515Z AUTO 11003KT 7SM BKN025 01/M04 A3036 RMK AO2 T00061044,KFKA,2018-03-22T15:15:00Z,43.68,-92.17,0.6,-4.4,110,3,,7.0,30.360237,,,TRUE,TRUE,,,,,,,BKN,2500,,,,,,,MVFR,,,,,,,,,,,,SPECI,389.0
KFGN 221515Z AUTO 00000KT 10SM SCT034 SCT045 BKN060 M02/M04 A3036 RMK AO2,KFGN,2018-03-22T15:15:00Z,49.32,-94.9,-2.0,-4.0,0,0,,10.0,30.360237,,,TRUE,TRUE,,,,,,,SCT,3400,SCT,4500,BKN,6000,,,VFR,,,,,,,,,,,,SPECI,328.0
KFFL 221515Z AUTO 12004KT 10SM FEW110 FEW130 05/M04 A3036 RMK AO2 PWINO,KFFL,2018-03-22T15:15:00Z,41.03,-91.97,5.0,-4.0,120,4,,10.0,30.360237,,,TRUE,TRUE,,,,,TRUE,,FEW,11000,FEW,13000,,,,,VFR,,,,,,,,,,,,SPECI,244.0
KDLZ 221515Z AUTO 01008KT 10SM CLR 00/M05 A3025 RMK AO2,KDLZ,2018-03-22T15:15:00Z,40.28,-83.12,0.0,-5.0,10,8,,10.0,30.250984,,,TRUE,TRUE,,,,,,,CLR,,,,,,,,VFR,,,,,,,,,,,,SPECI,289.0
KD95 221515Z AUTO 33005KT 10SM CLR 01/M08 A3024 RMK AO2 T00101077,KD95,2018-03-22T15:15:00Z,43.07,-83.27,1.0,-7.7,330,5,,10.0,30.239174,,,TRUE,TRUE,,,,,,,CLR,,,,,,,,VFR,,,,,,,,,,,,SPECI,255.0
KCOQ 221515Z AUTO 00000KT 10SM CLR M02/M11 A3035 RMK AO2,KCOQ,2018-03-22T15:15:00Z,46.7,-92.5,-2.0,-11.0,0,0,,10.0,30.351377,,,TRUE,TRUE,,,,,,,CLR,,,,,,,,VFR,,,,,,,,,,,,SPECI,390.0
KCLW 221515Z AUTO 35011G17KT 320V020 10SM CLR 14/02 A3028 RMK AO2,KCLW,2018-03-22T15:15:00Z,27.98,-82.75,14.0,2.0,350,11,17,10.0,30.280512,,,TRUE,TRUE,,,,,,,CLR,,,,,,,,VFR,,,,,,,,,,,,SPECI,22.0
KCLS 221515Z AUTO 17004KT 6SM -RA FEW008 SCT027 BKN037 06/06 A2953 RMK AO2,KCLS,2018-03-22T15:15:00Z,46.68,-122.98,6.0,6.0,170,4,,6.0,29.530512,,,TRUE,TRUE,,,,,,-RA,FEW,800,SCT,2700,BKN,3700,,,VFR,,,,,,,,,,,,SPECI,54.0
KCKZ 221515Z AUTO 32014G24KT 10SM CLR 02/M06 A2988 RMK AO2,KCKZ,2018-03-22T15:15:00Z,40.38,-75.28,2.0,-6.0,320,14,24,10.0,29.878937,,,TRUE,TRUE,,,,,,,CLR,,,,,,,,VFR,,,,,,,,,,,,SPECI,173.0
KCCY 221515Z AUTO 11005KT 10SM SCT085 03/M03 A3036 RMK AO2,KCCY,2018-03-22T15:15:00Z,43.07,-92.62,3.0,-3.0,110,5,,10.0,30.360237,,,TRUE,TRUE,,,,,,,SCT,8500,,,,,,,VFR,,,,,,,,,,,,SPECI,343.0
KBAX 221515Z AUTO 34010KT 10SM CLR 00/M07 A3025 RMK AO2 T10051072,KBAX,2018-03-22T15:15:00Z,43.78,-82.98,-0.5,-7.2,340,10,,10.0,30.250984,,,TRUE,TRUE,,,,,,,CLR,,,,,,,,VFR,,,,,,,,,,,,SPECI,234.0
KAUM 221515Z AUTO 13005KT 10SM CLR 02/M03 A3035 RMK AO2,KAUM,2018-03-22T15:15:00Z,43.67,-92.92,2.0,-3.0,130,5,,10.0,30.351377,,,TRUE,TRUE,,,,,,,CLR,,,,,,,,VFR,,,,,,,,,,,,SPECI,375.0
KARW 221515Z AUTO 32013G17KT 10SM CLR 10/00 A3019 RMK AO2,KARW,2018-03-22T15:15:00Z,32.42,-80.63,10.0,0.0,320,13,17,10.0,30.188976,,,TRUE,TRUE,,,,,,,CLR,,,,,,,,VFR,,,,,,,,,,,,SPECI,4.0
KANQ 221515Z AUTO 33006KT 10SM CLR 01/M11 A3027 RMK AO2 TSNO,KANQ,2018-03-22T15:15:00Z,41.63,-85.08,1.0,-11.0,330,6,,10.0,30.268702,,,TRUE,TRUE,,,TRUE,,,,CLR,,,,,,,,VFR,,,,,,,,,,,,SPECI,303.0
KANK 221515Z AUTO 00000KT 10SM OVC065 09/M04 A3029 RMK AO1 T00891044,KANK,2018-03-22T15:15:00Z,38.53,-106.05,8.9,-4.4,0,0,,10.0,30.28937,,,TRUE,TRUE,,,,,,,OVC,6500,,,,,,,VFR,,,,,,,,,,,,SPECI,2293.0
KALM 221515Z AUTO 17010KT 10SM CLR 16/M02 A3021 RMK AO2,KALM,2018-03-22T15:15:00Z,32.82,-105.97,16.0,-2.0,170,10,,10.0,30.209646,,,TRUE,TRUE,,,,,,,CLR,,,,,,,,VFR,,,,,,,,,,,,SPECI,1279.0
KAJZ 221515Z AUTO 00000KT 10SM SCT120 10/M02 A3020 RMK AO2 T01001020,KAJZ,2018-03-22T15:15:00Z,38.78,-108.07,10.0,-2.0,0,0,,10.0,30.200787,,,TRUE,TRUE,,,,,,,SCT,12000,,,,,,,VFR,,,,,,,,,,,,SPECI,1583.0
KAIK 221515Z AUTO 31013G16KT 10SM CLR 08/M04 A3023 RMK AO2,KAIK,2018-03-22T15:15:00Z,33.65,-81.68,8.0,-4.0,310,13,16,10.0,30.230314,,,TRUE,TRUE,,,,,,,CLR,,,,,,,,VFR,,,,,,,,,,,,SPECI,161.0
KAEJ 221515Z AUTO 02004KT 10SM BKN060 04/M06 A3023 RMK AO2 T00371059,KAEJ,2018-03-22T15:15:00Z,38.82,-106.12,3.7,-5.9,20,4,,10.0,30.230314,,,TRUE,TRUE,,,,,,,BKN,6000,,,,,,,VFR,,,,,,,,,,,,SPECI,2422.0
KADU 221515Z AUTO 15009KT 10SM CLR 07/02 A3026 RMK AO2,KADU,2018-03-22T15:15:00Z,41.7,-94.92,7.0,2.0,150,9,,10.0,30.259842,,,TRUE,TRUE,,,,,,,CLR,,,,,,,,VFR,,,,,,,,,,,,SPECI,392.0
KACB 221515Z AUTO 32003KT 10SM CLR 00/M06 A3030 RMK AO2 T00001060,KACB,2018-03-22T15:15:00Z,44.98,-85.2,0.0,-6.0,320,3,,10.0,30.301182,,,TRUE,TRUE,,,,,,,CLR,,,,,,,,VFR,,,,,,,,,,,,SPECI,190.0
K54J 221515Z AUTO 03010G15KT 10SM CLR 12/M03 A3036 RMK AO2 T01151027,K54J,2018-03-22T15:15:00Z,30.73,-86.15,11.5,-2.7,30,10,15,10.0,30.360237,,,TRUE,TRUE,,,,,,,CLR,,,,,,,,VFR,,,,,,,,,,,,SPECI,88.0
K4I3 221515Z AUTO 34007KT 10SM CLR 01/M05 A3022 RMK AO2,K4I3,2018-03-22T15:15:00Z,40.33,-82.53,1.0,-5.0,340,7,,10.0,30.221457,,,TRUE,TRUE,,,,,,,CLR,,,,,,,,VFR,,,,,,,,,,,,SPECI,363.0
K3T5 221515Z AUTO 16010KT 10SM CLR 21/14 A3028 RMK AO2 T02050135,K3T5,2018-03-22T15:15:00Z,29.9,-96.95,20.5,13.5,160,10,,10.0,30.280512,,,TRUE,TRUE,,,,,,,CLR,,,,,,,,VFR,,,,,,,,,,,,SPECI,99.0
K33V 221515Z AUTO 19011KT 10SM CLR 06/M05 A3019 RMK AO1,K33V,2018-03-22T15:15:00Z,40.75,-106.28,6.0,-5.0,190,11,,10.0,30.188976,,,TRUE,TRUE,,,,,,,CLR,,,,,,,,VFR,,,,,,,,,,,,SPECI,2484.0
K2I0 221515Z AUTO 00000KT 10SM CLR 06/M03 A3039 RMK AO2 T00611026,K2I0,2018-03-22T15:15:00Z,37.35,-87.4,6.1,-2.6,0,0,,10.0,30.389763,,,TRUE,TRUE,,,,,,,CLR,,,,,,,,VFR,,,,,,,,,,,,SPECI,134.0
K24J 221515Z AUTO 30008KT 270V350 10SM CLR 12/M03 A3028 RMK A01,K24J,2018-03-22T15:15:00Z,30.3,-83.03,12.0,-3.0,300,8,,10.0,30.280512,,,TRUE,TRUE,,,,,,,CLR,,,,,,,,VFR,,,,,,,,,,,,SPECI,32.0
K14Y 221515Z AUTO 14006KT 7SM BKN033 OVC041 00/M01 A3033 RMK AO2,K14Y,2018-03-22T15:15:00Z,45.9,-94.87,0.0,-1.0,140,6,,7.0,30.33071,,,TRUE,TRUE,,,,,,,BKN,3300,OVC,4100,,,,,VFR,,,,,,,,,,,,SPECI,406.0
KVTI 221515Z AUTO 00000KT 10SM CLR 05/M04 A3037 RMK AO2 T00471038,KVTI,2018-03-22T15:15:00Z,42.22,-92.02,4.7,-3.8,0,0,,10.0,30.369095,,,TRUE,TRUE,,,,,,,CLR,,,,,,,,VFR,,,,,,,,,,,,SPECI,255.0
KMJQ 221515Z AUTO 12011KT 10SM OVC045 00/M01 A3030 RMK AO2,KMJQ,2018-03-22T15:15:00Z,43.63,-94.97,0.0,-1.0,120,11,,10.0,30.301182,,,TRUE,TRUE,,,,,,,OVC,4500,,,,,,,VFR,,,,,,,,,,,,SPECI,441.0
KMQJ 221515Z AUTO 33010KT 10SM CLR 02/M02 A3032 RMK AO1,KMQJ,2018-03-22T15:15:00Z,39.85,-85.9,2.0,-2.0,330,10,,10.0,30.318897,,,TRUE,TRUE,,,,,,,CLR,,,,,,,,VFR,,,,,,,,,,,,SPECI,263.0
KMOP 221515Z AUTO 30006KT 10SM CLR 02/M12 A3026 RMK AO2 T00151123,KMOP,2018-03-22T15:15:00Z,43.62,-84.73,1.5,-12.3,300,6,,10.0,30.259842,,,TRUE,TRUE,,,,,,,CLR,,,,,,,,VFR,,,,,,,,,,,,SPECI,230.0
KONA 221515Z AUTO 00000KT 10SM OVC033 01/M01 A3037 RMK AO2,KONA,2018-03-22T15:15:00Z,44.07,-91.7,1.0,-1.0,0,0,,10.0,30.369095,,,TRUE,TRUE,,,,,,,OVC,3300,,,,,,,VFR,,,,,,,,,,,,SPECI,200.0
KOGS 221515Z AUTO 32004KT 10SM CLR 03/M08 A3001 RMK AO2 T00281079,KOGS,2018-03-22T15:15:00Z,44.67,-75.47,2.8,-7.9,320,4,,10.0,30.008858,,,TRUE,TRUE,,,,,,,CLR,,,,,,,,VFR,,,,,,,,,,,,SPECI,91.0
KOWX 221515Z AUTO 33004KT 10SM CLR 01/M11 A3029 RMK AO1,KOWX,2018-03-22T15:15:00Z,41.03,-83.98,1.0,-11.0,330,4,,10.0,30.28937,,,TRUE,TRUE,,,,,,,CLR,,,,,,,,VFR,,,,,,,,,,,,SPECI,233.0
KORC 221515Z AUTO 11009KT 10SM CLR 05/03 A3023 RMK AO2,KORC,2018-03-22T15:15:00Z,42.97,-96.07,5.0,3.0,110,9,,10.0,30.230314,,,TRUE,TRUE,,,,,,,CLR,,,,,,,,VFR,,,,,,,,,,,,SPECI,431.0
KPHN 221515Z AUTO 32009KT 10SM CLR 02/M08 A3022 RMK AO2,KPHN,2018-03-22T15:15:00Z,42.92,-82.52,2.0,-8.0,320,9,,10.0,30.221457,,,TRUE,TRUE,,,,,,,CLR,,,,,,,,VFR,,,,,,,,,,,,SPECI,198.0
KPOV 221515Z AUTO 30011G17KT 10SM SCT035 00/M09 A3016 RMK AO2 T00041090,KPOV,2018-03-22T15:15:00Z,41.22,-81.25,0.4,-9.0,300,11,17,10.0,30.159449,,,TRUE,TRUE,,,,,,,SCT,3500,,,,,,,VFR,,,,,,,,,,,,SPECI,365.0
KPSO 221515Z AUTO 00000KT 10SM OVC060 05/M02 A3032 RMK AO2 T00481016,KPSO,2018-03-22T15:15:00Z,37.28,-107.05,4.8,-1.6,0,0,,10.0,30.318897,,,TRUE,TRUE,,,,,,,OVC,6000,,,,,,,VFR,,,,,,,,,,,,METAR,2334.0
KRGK 221515Z AUTO 00000KT 10SM OVC030 01/M06 A3037 RMK AO2,KRGK,2018-03-22T15:15:00Z,44.58,-92.48,1.0,-6.0,0,0,,10.0,30.369095,,,TRUE,TRUE,,,,,,,OVC,3000,,,,,,,MVFR,,,,,,,,,,,,SPECI,239.0
KROS 221515Z AUTO 00000KT 10SM OVC070 M01/M07 A3038 RMK AO2 T10131066,KROS,2018-03-22T15:15:00Z,45.7,-92.95,-1.3,-6.6,0,0,,10.0,30.380905,,,TRUE,TRUE,,,,,,,OVC,7000,,,,,,,VFR,,,,,,,,,,,,SPECI,281.0
KROX 221515Z AUTO 00000KT 10SM BKN060 00/M02 A3036 RMK AO2,KROX,2018-03-22T15:15:00Z,48.85,-95.7,0.0,-2.0,0,0,,10.0,30.360237,,,TRUE,TRUE,,,,,,,BKN,6000,,,,,,,VFR,,,,,,,,,,,,SPECI,323.0
K6R3 221515Z AUTO 15004KT 7SM CLR 19/11 A3036 RMK AO2 T01890111,K6R3,2018-03-22T15:15:00Z,30.35,-95.0,18.9,11.1,150,4,,7.0,30.360237,,,TRUE,TRUE,,,,,,,CLR,,,,,,,,VFR,,,,,,,,,,,,SPECI,46.0
K6P9 221515Z AUTO 19012G20KT 10SM CLR 17/11 A3022 RMK AO2 T01660108,K6P9,2018-03-22T15:15:00Z,32.43,-98.6,16.6,10.8,190,12,20,10.0,30.221457,,,TRUE,TRUE,,,,,,,CLR,,,,,,,,VFR,,,,,,,,,,,,SPECI,449.0
K6B0 221515Z AUTO 34010G14KT 10SM CLR M01/M07 A2987 RMK AO2 T10071069,K6B0,2018-03-22T15:15:00Z,43.98,-73.1,-0.7,-6.9,340,10,14,10.0,29.870079,,,TRUE,TRUE,,,,,,,CLR,,,,,,,,VFR,,,,,,,,,,,,SPECI,149.0
K6A1 221515Z AUTO 36014G18KT 10SM 09/M06 A3030 RMK AO2 T00891058,K6A1,2018-03-22T15:15:00Z,32.57,-84.25,8.9,-5.8,360,14,18,10.0,30.301182,,,TRUE,TRUE,,,,,,,,,,,,,,,,,,,,,,,,,,,SPECI,203.0
K66R 221515Z AUTO 22009KT 10SM CLR 20/11 A3032 RMK AO2 T01950109,K66R,2018-03-22T15:15:00Z,29.65,-96.52,19.5,10.9,220,9,,10.0,30.318897,,,TRUE,TRUE,,,,,,,CLR,,,,,,,,VFR,,,,,,,,,,,,SPECI,74.0
K5C1 221515Z AUTO 15004KT 10SM OVC011 16/12 A3030 RMK AO1,K5C1,2018-03-22T15:15:00Z,29.72,-98.7,16.0,12.0,150,4,,10.0,30.301182,,,TRUE,TRUE,,,,,,,OVC,1100,,,,,,,MVFR,,,,,,,,,,,,SPECI,423.0
K5A6 221515Z AUTO 00000KT 10SM CLR 11/03 A3040 RMK AO2 T01120029,K5A6,2018-03-22T15:15:00Z,33.47,-89.73,11.2,2.9,0,0,,10.0,30.398623,,,TRUE,TRUE,,,,,,,CLR,,,,,,,,VFR,,,,,,,,,,,,SPECI,111.0
K49A 221515Z AUTO 33009G16KT 10SM CLR 07/M06 A3028 RMK AO2 T00711064,K49A,2018-03-22T15:15:00Z,34.63,-84.53,7.1,-6.4,330,9,16,10.0,30.280512,,,TRUE,TRUE,,,,,,,CLR,,,,,,,,VFR,,,,,,,,,,,,SPECI,453.0
K40J 221515Z AUTO 33008G14KT 10SM CLR 13/M04 A3030 RMK AO2 T01291043,K40J,2018-03-22T15:15:00Z,30.07,-83.57,12.9,-4.3,330,8,14,10.0,30.301182,,,TRUE,TRUE,,,,,,,CLR,,,,,,,,VFR,,,,,,,,,,,,SPECI,13.0
K3LF 221515Z AUTO 34004KT 10SM CLR 05/M04 A3039 RMK AO2 T00501040,K3LF,2018-03-22T15:15:00Z,39.17,-89.67,5.0,-4.0,340,4,,10.0,30.389763,,,TRUE,TRUE,,,,,,,CLR,,,,,,,,VFR,,,,,,,,,,,,SPECI,210.0
K3K3 221515Z AUTO 29009KT 10SM CLR 10/M03 A3009 RMK AO2,K3K3,2018-03-22T15:15:00Z,38.0,-101.75,10.0,-3.0,290,9,,10.0,30.088583,,,TRUE,TRUE,,,,,,,CLR,,,,,,,,VFR,,,,,,,,,,,,SPECI,1013.0
K3F3 221515Z AUTO 15005KT 10SM CLR 17/04 A3041 RMK AO2 T01740042,K3F3,2018-03-22T15:15:00Z,32.07,-93.77,17.4,4.2,150,5,,10.0,30.410433,,,TRUE,TRUE,,,,,,,CLR,,,,,,,,VFR,,,,,,,,,,,,SPECI,96.0
K3D2 221515Z AUTO 02005KT 10SM CLR M03/M10 A3033 RMK AO2 T10291101,K3D2,2018-03-22T15:15:00Z,45.13,-87.18,-2.9,-10.1,20,5,,10.0,30.33071,,,TRUE,TRUE,,,,,,,CLR,,,,,,,,VFR,,,,,,,,,,,,SPECI,234.0
K3AU 221515Z AUTO 16018G22KT 10SM CLR 13/00 A3018 RMK AO2,K3AU,2018-03-22T15:15:00Z,37.67,-97.08,13.0,0.0,160,18,22,10.0,30.180119,,,TRUE,TRUE,,,,,,,CLR,,,,,,,,VFR,,,,,,,,,,,,SPECI,405.0
K2J3 221515Z AUTO 31009KT 10SM CLR 09/M02 A3023 RMK AO2 T00881025,K2J3,2018-03-22T15:15:00Z,32.98,-82.38,8.8,-2.5,310,9,,10.0,30.230314,,,TRUE,TRUE,,,,,,,CLR,,,,,,,,VFR,,,,,,,,,,,,SPECI,100.0
K2G9 221515Z AUTO 28010KT 10SM CLR M03/M07 A3003 RMK AO2,K2G9,2018-03-22T15:15:00Z,40.03,-79.02,-3.0,-7.0,280,10,,10.0,30.029528,,,TRUE,TRUE,,,,,,,CLR,,,,,,,,VFR,,,,,,,,,,,,SPECI,693.0
K1H2 221515Z AUTO 00000KT 10SM CLR 05/M03 A3039 RMK AO2 T00521035,K1H2,2018-03-22T15:15:00Z,39.07,-88.53,5.2,-3.5,0,0,,10.0,30.389763,,,TRUE,TRUE,,,,,,,CLR,,,,,,,,VFR,,,,,,,,,,,,SPECI,179.0
K1A6 221515Z AUTO 28006KT 10SM SCT040 04/M03 A3027 RMK AO2 T00431033,K1A6,2018-03-22T15:15:00Z,36.62,-83.73,4.3,-3.3,280,6,,10.0,30.268702,,,TRUE,TRUE,,,,,,,SCT,4000,,,,,,,VFR,,,,,,,,,,,,SPECI,352.0
K19S 221515Z AUTO 18007KT 10SM CLR 10/00 A3010 RMK AO2 T01010004,K19S,2018-03-22T15:15:00Z,37.48,-100.83,10.1,0.4,180,7,,10.0,30.100393,,,TRUE,TRUE,,,,,,,CLR,,,,,,,,VFR,,,,,,,,,,,,SPECI,886.0
K0R4 221515Z AUTO 13004KT 10SM CLR 15/03 A3040 RMK AO2 T01450033,K0R4,2018-03-22T15:15:00Z,31.57,-91.5,14.5,3.3,130,4,,10.0,30.398623,,,TRUE,TRUE,,,,,,,CLR,,,,,,,,VFR,,,,,,,,,,,,SPECI,17.0
KFZG 221515Z AUTO 34007KT 10SM CLR 10/M01 A3030 RMK AO2 T01041012,KFZG,2018-03-22T15:15:00Z,31.68,-83.27,10.4,-1.2,340,7,,10.0,30.301182,,,TRUE,TRUE,,,,,,,CLR,,,,,,,,VFR,,,,,,,,,,,,SPECI,111.0
KATS 221515Z AUTO 33003KT 10SM CLR 16/M03 A3017 RMK AO2,KATS,2018-03-22T15:15:00Z,32.85,-104.47,16.0,-3.0,330,3,,10.0,30.171259,,,TRUE,TRUE,,,,,,,CLR,,,,,,,,VFR,,,,,,,,,,,,SPECI,1081.0
KRRT 221515Z AUTO 00000KT 10SM CLR 00/M04 A3036 RMK AO2,KRRT,2018-03-22T15:15:00Z,48.93,-95.33,0.0,-4.0,0,0,,10.0,30.360237,,,TRUE,TRUE,,,,,,,CLR,,,,,,,,VFR,,,,,,,,,,,,SPECI,327.0
KS33 221515Z AUTO 21003KT 10SM SCT050 SCT075 BKN100 06/04 A2947 RMK AO2,KS33,2018-03-22T15:15:00Z,44.67,-121.15,6.0,4.0,210,3,,10.0,29.471457,,,TRUE,TRUE,,,,,,,SCT,5000,SCT,7500,BKN,10000,,,VFR,,,,,,,,,,,,SPECI,743.0
KRZT 221515Z AUTO 35005KT 10SM CLR 01/M03 A3026 RMK AO2,KRZT,2018-03-22T15:15:00Z,39.43,-83.02,1.0,-3.0,350,5,,10.0,30.259842,,,TRUE,TRUE,,,,,,,CLR,,,,,,,,VFR,,,,,,,,,,,,SPECI,221.0
KSJX 221515Z AUTO 35005KT 10SM CLR M01/M05 A3031 RMK AO2 T10091051,KSJX,2018-03-22T15:15:00Z,45.7,-85.57,-0.9,-5.1,350,5,,10.0,30.31004,,,TRUE,TRUE,,,,,,,CLR,,,,,,,,VFR,,,,,,,,,,,,SPECI,204.0
KSVC 221515Z AUTO 00000KT 10SM CLR 17/00 A3026 RMK AO2 T01681004,KSVC,2018-03-22T15:15:00Z,32.63,-108.15,16.8,-0.4,0,0,,10.0,30.259842,,,TRUE,TRUE,,,,,,,CLR,,,,,,,,VFR,,,,,,,,,,,,SPECI,1659.0
KSXU 221515Z AUTO 25011KT 10SM CLR 15/M05 A3017 RMK AO2 T01511055,KSXU,2018-03-22T15:15:00Z,34.93,-104.65,15.1,-5.5,250,11,,10.0,30.171259,,,TRUE,TRUE,,,,,,,CLR,,,,,,,,VFR,,,,,,,,,,,,METAR,1460.0
K42J 221515Z AUTO 32008KT 10SM CLR 11/M05 A3025 RMK AO1 TSNO,K42J,2018-03-22T15:15:00Z,29.85,-82.05,11.0,-5.0,320,8,,10.0,30.250984,,,TRUE,TRUE,,,TRUE,,,,CLR,,,,,,,,VFR,,,,,,,,,,,,SPECI,60.0
K2V5 221515Z AUTO 26004KT 10SM CLR 10/00 A3009 RMK AO2,K2V5,2018-03-22T15:15:00Z,40.1,-102.25,10.0,0.0,260,4,,10.0,30.088583,,,TRUE,TRUE,,,,,,,CLR,,,,,,,,VFR,,,,,,,,,,,,SPECI,1118.0
K2J9 221515Z AUTO VRB06G12KT 10SM CLR 11/M03 A3033 RMK AO2,K2J9,2018-03-22T15:15:00Z,30.6,-84.55,11.0,-3.0,0,6,12,10.0,30.33071,,,TRUE,TRUE,,,,,,,CLR,,,,,,,,VFR,,,,,,,,,,,,SPECI,69.0
K1P1 221515Z AUTO 27004KT 10SM CLR 05/M07 A2972 RMK AO2 T00481072,K1P1,2018-03-22T15:15:00Z,43.78,-71.75,4.8,-7.2,270,4,,10.0,29.719488,,,TRUE,TRUE,,,,,,,CLR,,,,,,,,VFR,,,,,,,,,,,,SPECI,154.0
KSNC 221515Z AUTO 34014KT 10SM BKN030 06/M02 A2969 RMK AO2,KSNC,2018-03-22T15:15:00Z,41.38,-72.5,6.0,-2.0,340,14,,10.0,29.68996,,,TRUE,TRUE,,,,,,,BKN,3000,,,,,,,MVFR,,,,,,,,,,,,METAR,127.0
KSMS 221515Z AUTO 29008G15KT 270V330 9SM CLR 09/M04 A3018 RMK AO2,KSMS,2018-03-22T15:15:00Z,34.0,-80.37,9.0,-4.0,290,8,15,9.0,30.180119,,,TRUE,TRUE,,,,,,,CLR,,,,,,,,VFR,,,,,,,,,,,,METAR,56.0
KSHL 221515Z AUTO 12012G18KT 10SM CLR 03/01 A3023 RMK AO2,KSHL,2018-03-22T15:15:00Z,43.22,-95.82,3.0,1.0,120,12,18,10.0,30.230314,,,TRUE,TRUE,,,,,,,CLR,,,,,,,,VFR,,,,,,,,,,,,SPECI,432.0
KSEM 221515Z AUTO 35008KT 10SM CLR 11/M01 A3039 RMK AO2,KSEM,2018-03-22T15:15:00Z,32.35,-86.98,11.0,-1.0,350,8,,10.0,30.389763,,,TRUE,TRUE,,,,,,,CLR,,,,,,,,VFR,,,,,,,,,,,,SPECI,51.0
KSDA 221515Z AUTO 12011KT 10SM BKN085 08/02 A3026 RMK AO2,KSDA,2018-03-22T15:15:00Z,40.75,-95.42,8.0,2.0,120,11,,10.0,30.259842,,,TRUE,TRUE,,,,,,,BKN,8500,,,,,,,VFR,,,,,,,,,,,,SPECI,296.0
KS25 221515Z AUTO 11012G18KT 5SM BR CLR M01/M01 A3016 RMK AO2,KS25,2018-03-22T15:15:00Z,47.8,-103.25,-1.0,-1.0,110,12,18,5.0,30.159449,,,TRUE,TRUE,,,,,,BR,CLR,,,,,,,,MVFR,,,,,,,,,,,,SPECI,644.0
KRNV 221515Z AUTO 00000KT 10SM CLR 13/03 A3041 RMK AO2 T01320026,KRNV,2018-03-22T15:15:00Z,33.77,-90.75,13.2,2.6,0,0,,10.0,30.410433,,,TRUE,TRUE,,,,,,,CLR,,,,,,,,VFR,,,,,,,,,,,,SPECI,41.0
KRDK 221515Z AUTO 15009G16KT 10SM FEW075 SCT085 SCT120 07/01 A3026 RMK AO2,KRDK,2018-03-22T15:15:00Z,41.02,-95.27,7.0,1.0,150,9,16,10.0,30.259842,,,TRUE,TRUE,,,,,,,FEW,7500,SCT,8500,SCT,12000,,,VFR,,,,,,,,,,,,SPECI,318.0
KRCV 221515Z AUTO 25003KT 10SM CLR 05/M05 A3029 RMK AO2 T00451055,KRCV,2018-03-22T15:15:00Z,37.72,-106.35,4.5,-5.5,250,3,,10.0,30.28937,,,TRUE,TRUE,,,,,,,CLR,,,,,,,,VFR,,,,,,,,,,,,SPECI,2424.0
KRBW 221515Z AUTO 30011G15KT 10SM CLR 08/M01 A3019 RMK AO2,KRBW,2018-03-22T15:15:00Z,32.92,-80.63,8.0,-1.0,300,11,15,10.0,30.188976,,,TRUE,TRUE,,,,,,,CLR,,,,,,,,VFR,,,,,,,,,,,,SPECI,31.0
KPLR 221515Z AUTO 35011KT 10SM CLR 10/M02 A3037 RMK A01,KPLR,2018-03-22T15:15:00Z,33.57,-86.25,10.0,-2.0,350,11,,10.0,30.369095,,,TRUE,TRUE,,,,,,,CLR,,,,,,,,VFR,,,,,,,,,,,,SPECI,148.0
KPAN 221515Z AUTO 00000KT 10SM CLR 14/M01 A3023 RMK AO2,KPAN,2018-03-22T15:15:00Z,34.25,-111.33,14.0,-1.0,0,0,,10.0,30.230314,,,TRUE,TRUE,,,,,,,CLR,,,,,,,,VFR,,,,,,,,,,,,SPECI,1572.0
KOXV 221515Z AUTO 14009KT 7SM -UP CLR 02/M02 A3033 RMK AO2,KOXV,2018-03-22T15:15:00Z,41.28,-93.12,2.0,-2.0,140,9,,7.0,30.33071,,,TRUE,TRUE,,,,,,UP,CLR,,,,,,,,VFR,,,,,,,,,,,,SPECI,283.0
KORS 221515Z AUTO 00000KT 3SM RA OVC011 07/07 A2944 RMK AO2,KORS,2018-03-22T15:15:00Z,48.7,-122.92,7.0,7.0,0,0,,3.0,29.438976,,,TRUE,TRUE,,,,,,RA,OVC,1100,,,,,,,MVFR,,,,,,,,,,,,SPECI,9.0
KOLZ 221515Z AUTO 06004KT 10SM FEW095 03/M02 A3037 RMK AO2,KOLZ,2018-03-22T15:15:00Z,42.67,-91.97,3.0,-2.0,60,4,,10.0,30.369095,,,TRUE,TRUE,,,,,,,FEW,9500,,,,,,,VFR,,,,,,,,,,,,SPECI,328.0
KOLE 221515Z AUTO 31004G14KT 10SM CLR M01/M10 A2999 RMK AO2,KOLE,2018-03-22T15:15:00Z,42.23,-78.37,-1.0,-10.0,310,4,14,10.0,29.991142,,,TRUE,TRUE,,,,,,,CLR,,,,,,,,VFR,,,,,,,,,,,,SPECI,651.0
KN03 221515Z AUTO 31007KT 10SM CLR 01/M06 A2996 RMK AO2,KN03,2018-03-22T15:15:00Z,42.6,-76.22,1.0,-6.0,310,7,,10.0,29.958662,,,TRUE,TRUE,,,,,,,CLR,,,,,,,,VFR,,,,,,,,,,,,SPECI,366.0
KMXO 221515Z AUTO VRB03KT 10SM CLR 04/M05 A3035 RMK AO2,KMXO,2018-03-22T15:15:00Z,42.22,-91.17,4.0,-5.0,0,3,,10.0,30.351377,,,TRUE,TRUE,,,,,,,CLR,,,,,,,,VFR,,,,,,,,,,,,SPECI,259.0
KMUT 221515Z AUTO 00000KT 10SM FEW095 04/M04 A3039 RMK AO2,KMUT,2018-03-22T15:15:00Z,41.37,-91.15,4.0,-4.0,0,0,,10.0,30.389763,,,TRUE,TRUE,,,,,,,FEW,9500,,,,,,,VFR,,,,,,,,,,,,SPECI,167.0
KMMI 221515Z AUTO 33004KT 10SM CLR 05/M04 A3032 RMK,KMMI,2018-03-22T15:15:00Z,35.4,-84.57,5.0,-4.0,330,4,,10.0,30.318897,,,TRUE,,,,,,,,CLR,,,,,,,,VFR,,,,,,,,,,,,METAR,266.0
KMKS 221515Z AUTO 34007G15KT 7SM CLR 09/M03 A3017 RMK AO2,KMKS,2018-03-22T15:15:00Z,33.18,-80.03,9.0,-3.0,340,7,15,7.0,30.171259,,,TRUE,TRUE,,,,,,,CLR,,,,,,,,VFR,,,,,,,,,,,,SPECI,23.0
KMAN 221515Z AUTO 17006KT 8SM BKN045 BKN055 09/09 A2969 RMK A01,KMAN,2018-03-22T15:15:00Z,43.58,-116.52,9.0,9.0,170,6,,8.0,29.68996,,,TRUE,TRUE,,,,,,,BKN,4500,BKN,5500,,,,,VFR,,,,,,,,,,,,SPECI,774.0
KM40 221515Z AUTO 00000KT 10SM CLR 12/10 A3042 RMK AO2,KM40,2018-03-22T15:15:00Z,33.87,-88.48,12.0,10.0,0,0,,10.0,30.41929,,,TRUE,TRUE,,,,,,,CLR,,,,,,,,VFR,,,,,,,,,,,,SPECI,69.0
KM21 221515Z AUTO 34004KT 10SM CLR 06/M05 A3038 RMK AO2 T00581055,KM21,2018-03-22T15:15:00Z,37.22,-87.15,5.8,-5.5,340,4,,10.0,30.380905,,,TRUE,TRUE,,,,,,,CLR,,,,,,,,VFR,,,,,,,,,,,,METAR,129.0
KLRJ 221515Z AUTO 12009KT 10SM CLR 05/02 A3022 RMK AO2,KLRJ,2018-03-22T15:15:00Z,42.77,-96.2,5.0,2.0,120,9,,10.0,30.221457,,,TRUE,TRUE,,,,,,,CLR,,,,,,,,VFR,,,,,,,,,,,,SPECI,365.0
KL08 221515Z AUTO 00000KT 10SM FEW120 22/06 A2996 RMK AO2,KL08,2018-03-22T15:15:00Z,,,22.0,6.0,0,0,,10.0,29.958662,,,TRUE,TRUE,,,,,,,FEW,12000,,,,,,,VFR,,,,,,,,,,,,METAR,
KJZI 221515Z AUTO 34010KT 10SM CLR 10/M02 A3017 RMK AO2,KJZI,2018-03-22T15:15:00Z,32.7,-80.0,10.0,-2.0,340,10,,10.0,30.171259,,,TRUE,TRUE,,,,,,,CLR,,,,,,,,VFR,,,,,,,,,,,,SPECI,6.0
KJVW 221515Z AUTO 8SM CLR 14/05 A3041 RMK AO2,KJVW,2018-03-22T15:15:00Z,32.3,-90.42,14.0,5.0,,,,8.0,30.410433,,,TRUE,TRUE,,,,,,,CLR,,,,,,,,VFR,,,,,,,,,,,,SPECI,76.0
KJAQ 221515Z AUTO 15010G20KT 10SM OVC006 13/13 A2974 RMK AO1 T01280128,KJAQ,2018-03-22T15:15:00Z,38.37,-120.8,12.8,12.8,150,10,20,10.0,29.740158,,,TRUE,TRUE,,,,,,,OVC,600,,,,,,,IFR,,,,,,,,,,,,METAR,512.0
KIWI 221515Z AUTO 02008KT 3/4SM -SN BR BKN014 OVC023 M02/M03 A2970 RMK AO2 P0000 T10171028,KIWI,2018-03-22T15:15:00Z,43.97,-69.72,-1.7,-2.8,20,8,,0.75,29.698818,,,TRUE,TRUE,,,,,,-SN BR,BKN,1400,OVC,2300,,,,,LIFR,,,,,,0.005,,,,,,METAR,20.0
KIKV 221515Z AUTO 14006KT 5SM -UP BKN040 02/M01 A3034 RMK AO2,KIKV,2018-03-22T15:15:00Z,41.68,-93.57,2.0,-1.0,140,6,,5.0,30.339567,,,TRUE,TRUE,,,,,,UP,BKN,4000,,,,,,,MVFR,,,,,,,,,,,,SPECI,275.0
KICL 221515Z AUTO 14009KT 10SM FEW085 08/02 A3029 RMK AO2,KICL,2018-03-22T15:15:00Z,40.72,-95.02,8.0,2.0,140,9,,10.0,30.28937,,,TRUE,TRUE,,,,,,,FEW,8500,,,,,,,VFR,,,,,,,,,,,,SPECI,303.0
KI68 221515Z AUTO 31005KT 10SM CLR 00/M05 A3029 RMK AO2,KI68,2018-03-22T15:15:00Z,39.47,-84.25,0.0,-5.0,310,5,,10.0,30.28937,,,TRUE,TRUE,,,,,,,CLR,,,,,,,,VFR,,,,,,,,,,,,SPECI,274.0
KI67 221515Z AUTO 01006KT 10SM CLR 01/M05 A3032 RMK AO1,KI67,2018-03-22T15:15:00Z,39.25,-84.78,1.0,-5.0,10,6,,10.0,30.318897,,,TRUE,TRUE,,,,,,,CLR,,,,,,,,VFR,,,,,,,,,,,,SPECI,178.0
KHNR 221515Z AUTO 14011KT 10SM FEW095 08/03 A3026 RMK AO2,KHNR,2018-03-22T15:15:00Z,41.58,-95.33,8.0,3.0,140,11,,10.0,30.259842,,,TRUE,TRUE,,,,,,,FEW,9500,,,,,,,VFR,,,,,,,,,,,,SPECI,375.0
KHEG 221515Z AUTO 33010KT 10SM CLR 10/M01 A3026 RMK AO2,KHEG,2018-03-22T15:15:00Z,,,10.0,-1.0,330,10,,10.0,30.259842,,,TRUE,TRUE,,,,,,,CLR,,,,,,,,VFR,,,,,,,,,,,,METAR,
KGWR 221515Z AUTO 07007KT 3SM BR 00/00 A3030 RMK A01,KGWR,2018-03-22T15:15:00Z,46.22,-97.65,0.0,0.0,70,7,,3.0,30.301182,,,TRUE,TRUE,,,,,,BR,,,,,,,,,,,,,,,,,,,,,SPECI,386.0
KGLE 221515Z AUTO 16014KT 10SM CLR 17/08 A3027 RMK AO2 T01660080,KGLE,2018-03-22T15:15:00Z,33.65,-97.2,16.6,8.0,160,14,,10.0,30.268702,,,TRUE,TRUE,,,,,,,CLR,,,,,,,,VFR,,,,,,,,,,,,SPECI,256.0
KFSW 221515Z AUTO 00000KT 10SM SCT120 05/M03 A3038 RMK AO2,KFSW,2018-03-22T15:15:00Z,40.67,-91.32,5.0,-3.0,0,0,,10.0,30.380905,,,TRUE,TRUE,,,,,,,SCT,12000,,,,,,,VFR,,,,,,,,,,,,SPECI,221.0
KFRH 221515Z AUTO 31005KT 10SM CLR 02/M08 A3035 RMK AO1,KFRH,2018-03-22T15:15:00Z,38.5,-86.63,2.0,-8.0,310,5,,10.0,30.351377,,,TRUE,TRUE,,,,,,,CLR,,,,,,,,VFR,,,,,,,,,,,,SPECI,241.0
KFMH 221515Z AUTO 01012G21KT 2SM -RA SCT008 SCT013 01/M00 A2961 RMK AO2,KFMH,2018-03-22T15:15:00Z,41.63,-70.52,1.0,0.0,10,12,21,2.0,29.610237,,,TRUE,TRUE,,,,,,-RA,SCT,800,SCT,1300,,,,,IFR,,,,,,,,,,,,SPECI,40.0
KFGX 221515Z AUTO 32003KT 10SM CLR 01/M05 A3029 RMK AO2 T00121052,KFGX,2018-03-22T15:15:00Z,38.55,-83.75,1.2,-5.2,320,3,,10.0,30.28937,,,TRUE,TRUE,,,,,,,CLR,,,,,,,,VFR,,,,,,,,,,,,SPECI,278.0
KEOK 221515Z AUTO 00000KT 10SM BKN110 05/M02 A3037 RMK AO2,KEOK,2018-03-22T15:15:00Z,40.47,-91.42,5.0,-2.0,0,0,,10.0,30.369095,,,TRUE,TRUE,,,,,,,BKN,11000,,,,,,,VFR,,,,,,,,,,,,SPECI,205.0
KE80 221515Z AUTO 04003KT 10SM CLR 12/M06 A3026 RMK AO2 T01241062,KE80,2018-03-22T15:15:00Z,34.65,-106.83,12.4,-6.2,40,3,,10.0,30.259842,,,TRUE,TRUE,,,,,,,CLR,,,,,,,,VFR,,,,,,,,,,,,SPECI,1582.0
KDNS 221515Z AUTO 15010G16KT 10SM CLR 07/02 A3025 RMK AO2,KDNS,2018-03-22T15:15:00Z,41.97,-95.37,7.0,2.0,150,10,16,10.0,30.250984,,,TRUE,TRUE,,,,,,,CLR,,,,,,,,VFR,,,,,,,,,,,,SPECI,388.0
KDNA 221515Z AUTO 00000KT 10SM CLR 16/M03 A3023 RMK AO2 PWINO,KDNA,2018-03-22T15:15:00Z,31.88,-106.7,16.0,-3.0,0,0,,10.0,30.230314,,,TRUE,TRUE,,,,,TRUE,,CLR,,,,,,,,VFR,,,,,,,,,,,,SPECI,1253.0
KD60 221515Z AUTO 08010KT 4SM BR CLR M04/M04 A3022 RMK AO2,KD60,2018-03-22T15:15:00Z,48.38,-102.9,-4.0,-4.0,80,10,,4.0,30.221457,,,TRUE,TRUE,,,,,,BR,CLR,,,,,,,,MVFR,,,,,,,,,,,,METAR,693.0
KD57 221515Z AUTO 10008KT M1/4SM FZFG OVC003 M02/M03 A3021 RMK AO2,KD57,2018-03-22T15:15:00Z,46.82,-101.87,-2.0,-3.0,100,8,,0.25,30.209646,,,TRUE,TRUE,,,,,,FZFG,OVC,300,,,,,,,LIFR,,,,,,,,,,,,METAR,637.0
KD50 221515Z AUTO 08008KT 3SM BR SCT001 M05/M05 A3023 RMK AO2,KD50,2018-03-22T15:15:00Z,48.93,-103.3,-5.0,-5.0,80,8,,3.0,30.230314,,,TRUE,TRUE,,,,,,BR,SCT,100,,,,,,,MVFR,,,,,,,,,,,,METAR,595.0
KCSQ 221515Z AUTO 15013G18KT 10SM OVC070 05/M00 A3029 RMK AO2,KCSQ,2018-03-22T15:15:00Z,41.02,-94.37,5.0,0.0,150,13,18,10.0,30.28937,,,TRUE,TRUE,,,,,,,OVC,7000,,,,,,,VFR,,,,,,,,,,,,METAR,394.0
KCPT 221515Z AUTO 17014KT 10SM CLR 17/12 A3028 RMK AO2,KCPT,2018-03-22T15:15:00Z,32.35,-97.43,17.0,12.0,170,14,,10.0,30.280512,,,TRUE,TRUE,,,,,,,CLR,,,,,,,,VFR,,,,,,,,,,,,SPECI,260.0
KCNC 221515Z AUTO 14009KT 9SM -UP BKN075 03/00 A3032 RMK AO2,KCNC,2018-03-22T15:15:00Z,41.02,-93.37,3.0,0.0,140,9,,9.0,30.318897,,,TRUE,TRUE,,,,,,UP,BKN,7500,,,,,,,VFR,,,,,,,,,,,,METAR,320.0
KCMR 221515Z AUTO 20009KT 10SM BKN090 12/00 A3024 RMK AO2,KCMR,2018-03-22T15:15:00Z,35.3,-112.2,12.0,0.0,200,9,,10.0,30.239174,,,TRUE,TRUE,,,,,,,BKN,9000,,,,,,,VFR,,,,,,,,,,,,SPECI,2036.0
KCIN 221515Z AUTO 13011KT 9SM SCT075 SCT110 04/03 A3027 RMK AO2,KCIN,2018-03-22T15:15:00Z,42.03,-94.77,4.0,3.0,130,11,,9.0,30.268702,,,TRUE,TRUE,,,,,,,SCT,7500,SCT,11000,,,,,VFR,,,,,,,,,,,,METAR,375.0
KCGC 221515Z AUTO 31004KT 10SM CLR 13/M02 A3027 RMK AO2,KCGC,2018-03-22T15:15:00Z,28.87,-82.57,13.0,-2.0,310,4,,10.0,30.268702,,,TRUE,TRUE,,,,,,,CLR,,,,,,,,VFR,,,,,,,,,,,,METAR,3.0
KCDN 221515Z AUTO 31010G17KT 10SM CLR 08/M07 A3018 RMK AO2,KCDN,2018-03-22T15:15:00Z,34.28,-80.57,8.0,-7.0,310,10,17,10.0,30.180119,,,TRUE,TRUE,,,,,,,CLR,,,,,,,,VFR,,,,,,,,,,,,METAR,92.0
KCBF 221515Z AUTO 17016KT 10SM CLR 07/03 A3021 RMK AO2,KCBF,2018-03-22T15:15:00Z,41.27,-95.77,7.0,3.0,170,16,,10.0,30.209646,,,TRUE,TRUE,,,,,,,CLR,,,,,,,,VFR,,,,,,,,,,,,METAR,382.0
KBVU 221515Z AUTO 30003KT 10SM BKN090 BKN120 17/08 A2999 RMK AO2,KBVU,2018-03-22T15:15:00Z,35.95,-114.87,17.0,8.0,300,3,,10.0,29.991142,,,TRUE,TRUE,,,,,,,BKN,9000,BKN,12000,,,,,VFR,,,,,,,,,,,,SPECI,671.0
KBNW 221515Z AUTO 13011KT 10SM BKN050 OVC060 02/M01 A3030 RMK AO2,KBNW,2018-03-22T15:15:00Z,42.03,-93.83,2.0,-1.0,130,11,,10.0,30.301182,,,TRUE,TRUE,,,,,,,BKN,5000,OVC,6000,,,,,VFR,,,,,,,,,,,,METAR,354.0
KBNL 221515Z AUTO 31009G16KT 280V340 10SM A3020 RMK AO2,KBNL,2018-03-22T15:15:00Z,33.25,-81.38,,,310,9,16,10.0,30.200787,,,TRUE,TRUE,,,,,,,,,,,,,,,,,,,,,,,,,,,METAR,75.0
KBKN 221515Z AUTO 14018G25KT 10SM CLR 14/00 A3019 RMK AO2,KBKN,2018-03-22T15:15:00Z,36.75,-97.35,14.0,0.0,140,18,25,10.0,30.188976,,,TRUE,TRUE,,,,,,,CLR,,,,,,,,VFR,,,,,,,,,,,,METAR,314.0
KBDN 221515Z AUTO 16009KT 10SM CLR 08/04 A2945 RMK AO2,KBDN,2018-03-22T15:15:00Z,44.1,-121.2,8.0,4.0,160,9,,10.0,29.450787,,,TRUE,TRUE,,,,,,,CLR,,,,,,,,VFR,,,,,,,,,,,,SPECI,1055.0
KAXA 221515Z AUTO 13009KT 10SM OVC049 01/M01 A3031 RMK AO2 PWINO,KAXA,2018-03-22T15:15:00Z,43.07,-94.27,1.0,-1.0,130,9,,10.0,30.31004,,,TRUE,TRUE,,,,,TRUE,,OVC,4900,,,,,,,VFR,,,,,,,,,,,,METAR,372.0
KAWG 221515Z AUTO 15005KT 10SM CLR 04/M02 A3038 RMK AO2,KAWG,2018-03-22T15:15:00Z,41.27,-91.67,4.0,-2.0,150,5,,10.0,30.380905,,,TRUE,TRUE,,,,,,,CLR,,,,,,,,VFR,,,,,,,,,,,,METAR,230.0
KAQX 221515Z AUTO 33009G14KT 290V010 10SM CLR 10/M03 A3019 RMK AO2,KAQX,2018-03-22T15:15:00Z,32.98,-81.27,10.0,-3.0,330,9,14,10.0,30.188976,,,TRUE,TRUE,,,,,,,CLR,,,,,,,,VFR,,,,,,,,,,,,METAR,49.0
KAIO 221515Z AUTO 15010G17KT 10SM SCT090 SCT110 08/01 A3025 RMK AO2,KAIO,2018-03-22T15:15:00Z,41.38,-95.03,8.0,1.0,150,10,17,10.0,30.250984,,,TRUE,TRUE,,,,,,,SCT,9000,SCT,11000,,,,,VFR,,,,,,,,,,,,METAR,360.0
KAIB 221515Z AUTO 00000KT 10SM SCT110 08/M01 A3024 RMK AO2,KAIB,2018-03-22T15:15:00Z,38.23,-108.57,8.0,-1.0,0,0,,10.0,30.239174,,,TRUE,TRUE,,,,,,,SCT,11000,,,,,,,VFR,,,,,,,,,,,,SPECI,1811.0
K9D7 221515Z AUTO 07005KT 6SM BR OVC029 00/00 A3034 RMK AO2,K9D7,2018-03-22T15:15:00Z,48.48,-99.23,0.0,0.0,70,5,,6.0,30.339567,,,TRUE,TRUE,,,,,,BR,OVC,2900,,,,,,,MVFR,,,,,,,,,,,,METAR,452.0
K7L2 221515Z AUTO 09009KT M1/4SM FZFG M01/M01 A3026 RMK AO2,K7L2,2018-03-22T15:15:00Z,46.22,-100.25,-1.0,-1.0,90,9,,0.25,30.259842,,,TRUE,TRUE,,,,,,FZFG,,,,,,,,,,,,,,,,,,,,,METAR,543.0
K6L4 221515Z AUTO 00000KT 10SM SCT037 SCT043 02/M02 A3018 RMK AO2,K6L4,2018-03-22T15:15:00Z,37.85,-81.92,2.0,-2.0,0,0,,10.0,30.180119,,,TRUE,TRUE,,,,,,,SCT,3700,SCT,4300,,,,,VFR,,,,,,,,,,,,METAR,508.0
K6B9 221515Z AUTO 30007G12KT 10SM CLR 00/M06 A2999 RMK AO2,K6B9,2018-03-22T15:15:00Z,42.92,-76.43,0.0,-6.0,300,7,12,10.0,29.991142,,,TRUE,TRUE,,,,,,,CLR,,,,,,,,VFR,,,,,,,,,,,,METAR,316.0
K5H4 221515Z AUTO 13007KT M1/4SM FZFG OVC002 M04/M04 A3032 RMK AO2 PWINO,K5H4,2018-03-22T15:15:00Z,47.78,-99.93,-4.0,-4.0,130,7,,0.25,30.318897,,,TRUE,TRUE,,,,,TRUE,FZFG,OVC,200,,,,,,,LIFR,,,,,,,,,,,,METAR,490.0
K4M9 221515Z AUTO 00000KT 10SM CLR 08/02 A3041 RMK AO2 PWINO,K4M9,2018-03-22T15:15:00Z,36.4,-90.65,8.0,2.0,0,0,,10.0,30.410433,,,TRUE,TRUE,,,,,TRUE,,CLR,,,,,,,,VFR,,,,,,,,,,,,METAR,90.0
K4A6 221515Z AUTO 35009G18KT 320V020 10SM CLR 09/M04 A3035 RMK AO2,K4A6,2018-03-22T15:15:00Z,34.68,-86.0,9.0,-4.0,350,9,18,10.0,30.351377,,,TRUE,TRUE,,,,,,,CLR,,,,,,,,VFR,,,,,,,,,,,,METAR,198.0
K46D 221515Z AUTO 13007KT 6SM BR CLR M00/M00 A3032 RMK AO2,K46D,2018-03-22T15:15:00Z,47.45,-99.15,0.0,0.0,130,7,,6.0,30.318897,,,TRUE,TRUE,,,,,,BR,CLR,,,,,,,,VFR,,,,,,,,,,,,METAR,490.0
K2D5 221515Z AUTO 06013KT 10SM M00/00 A3029 RMK AO2 PWINO,K2D5,2018-03-22T15:15:00Z,46.17,-98.08,0.0,0.0,60,13,,10.0,30.28937,,,TRUE,TRUE,,,,,TRUE,,,,,,,,,,,,,,,,,,,,,,METAR,407.0
K27K 221515Z AUTO 31003KT 10SM CLR 01/M02 A3030 RMK AO1,K27K,2018-03-22T15:15:00Z,38.23,-84.43,1.0,-2.0,310,3,,10.0,30.301182,,,TRUE,TRUE,,,,,,,CLR,,,,,,,,VFR,,,,,,,,,,,,METAR,289.0
K0S9 221515Z AUTO 12004KT 8SM OVC015 06/06 A2946 RMK AO2,K0S9,2018-03-22T15:15:00Z,48.05,-122.82,6.0,6.0,120,4,,8.0,29.459646,,,TRUE,TRUE,,,,,,,OVC,1500,,,,,,,MVFR,,,,,,,,,,,,SPECI,33.0
K06D 221515Z AUTO 02003KT 5SM BR OVC023 M03/M03 A3032 RMK AO2,K06D,2018-03-22T15:15:00Z,48.88,-99.62,-3.0,-3.0,20,3,,5.0,30.318897,,,TRUE,TRUE,,,,,,BR,OVC,2300,,,,,,,MVFR,,,,,,,,,,,,METAR,556.0
KY70 221515Z AUTO 34006KT 10SM CLR 01/M12 A3028 RMK AO2 T00121118,KY70,2018-03-22T15:15:00Z,42.93,-85.07,1.2,-11.8,340,6,,10.0,30.280512,,,TRUE,TRUE,,,,,,,CLR,,,,,,,,VFR,,,,,,,,,,,,METAR,250.0
KY63 221515Z AUTO 13005KT 10SM BKN033 OVC042 02/M01 A3033 RMK AO2 T00151009,KY63,2018-03-22T15:15:00Z,45.98,-96.0,1.5,-0.9,130,5,,10.0,30.33071,,,TRUE,TRUE,,,,,,,BKN,3300,OVC,4200,,,,,VFR,,,,,,,,,,,,METAR,367.0
KWYS 221515Z AUTO 00000KT 8SM OVC010 01/01 A2996 RMK AO2,KWYS,2018-03-22T15:15:00Z,44.67,-111.12,1.0,1.0,0,0,,8.0,29.958662,,,TRUE,TRUE,,,,,,,OVC,1000,,,,,,,MVFR,,,,,,,,,,,,METAR,2025.0
KVLL 221515Z AUTO 33007KT 10SM CLR 02/M11 A3025 RMK AO2 T00241110,KVLL,2018-03-22T15:15:00Z,42.55,-83.18,2.4,-11.0,330,7,,10.0,30.250984,,,TRUE,TRUE,,,,,,,CLR,,,,,,,,VFR,,,,,,,,,,,,METAR,222.0
KUKT 221515Z AUTO 32012G19KT 10SM CLR 03/M06 A2988 RMK A01,KUKT,2018-03-22T15:15:00Z,40.43,-75.38,3.0,-6.0,320,12,19,10.0,29.878937,,,TRUE,TRUE,,,,,,,CLR,,,,,,,,VFR,,,,,,,,,,,,METAR,160.0
KTOB 221515Z AUTO 11005KT 10SM CLR 01/M03 A3035 RMK AO2,KTOB,2018-03-22T15:15:00Z,44.02,-92.82,1.0,-3.0,110,5,,10.0,30.351377,,,TRUE,TRUE,,,,,,,CLR,,,,,,,,VFR,,,,,,,,,,,,METAR,398.0
KSYM 221515Z AUTO 30004KT 10SM CLR 01/M05 A3028 RMK AO2,KSYM,2018-03-22T15:15:00Z,38.22,-83.58,1.0,-5.0,300,4,,10.0,30.280512,,,TRUE,TRUE,,,,,,,CLR,,,,,,,,VFR,,,,,,,,,,,,METAR,313.0
KSAZ 221515Z AUTO 15003KT 10SM OVC046 00/M04 A3033 RMK AO2,KSAZ,2018-03-22T15:15:00Z,46.37,-94.8,0.0,-4.0,150,3,,10.0,30.33071,,,TRUE,TRUE,,,,,,,OVC,4600,,,,,,,VFR,,,,,,,,,,,,METAR,392.0
KRNP 221515Z AUTO 30006KT 10SM CLR 01/M11 A3026 RMK AO2 T00141106,KRNP,2018-03-22T15:15:00Z,43.0,-84.13,1.4,-10.6,300,6,,10.0,30.259842,,,TRUE,TRUE,,,,,,,CLR,,,,,,,,VFR,,,,,,,,,,,,METAR,224.0
KRMY 221515Z AUTO 31006KT 10SM CLR 02/M12 A3027 RMK AO2 T00161118,KRMY,2018-03-22T15:15:00Z,42.23,-84.95,1.6,-11.8,310,6,,10.0,30.268702,,,TRUE,TRUE,,,,,,,CLR,,,,,,,,VFR,,,,,,,,,,,,METAR,287.0
KPZQ 221515Z AUTO 35007KT 10SM CLR M02/M09 A3029 RMK AO2 T10241087,KPZQ,2018-03-22T15:15:00Z,45.4,-83.82,-2.4,-8.7,350,7,,10.0,30.28937,,,TRUE,TRUE,,,,,,,CLR,,,,,,,,VFR,,,,,,,,,,,,METAR,204.0
KPWC 221515Z AUTO 15003KT 7SM UP OVC025 M02/M04 A3037 RMK AO2,KPWC,2018-03-22T15:15:00Z,46.72,-94.37,-2.0,-4.0,150,3,,7.0,30.369095,,,TRUE,TRUE,,,,,,UP,OVC,2500,,,,,,,MVFR,,,,,,,,,,,,METAR,395.0
KPQN 221515Z AUTO 11007KT 10SM CLR 02/M01 A3023 RMK AO2,KPQN,2018-03-22T15:15:00Z,43.97,-96.32,2.0,-1.0,110,7,,10.0,30.230314,,,TRUE,TRUE,,,,,,,CLR,,,,,,,,VFR,,,,,,,,,,,,METAR,529.0
KPNM 221515Z AUTO 00000KT 10SM OVC030 02/M04 A3037 RMK AO2 TSNO,KPNM,2018-03-22T15:15:00Z,45.57,-93.6,2.0,-4.0,0,0,,10.0,30.369095,,,TRUE,TRUE,,,TRUE,,,,OVC,3000,,,,,,,MVFR,,,,,,,,,,,,METAR,298.0
KOZW 221515Z AUTO 30009KT 10SM CLR 01/M10 A3025 RMK AO2 T00121098,KOZW,2018-03-22T15:15:00Z,42.62,-83.97,1.2,-9.8,300,9,,10.0,30.250984,,,TRUE,TRUE,,,,,,,CLR,,,,,,,,VFR,,,,,,,,,,,,METAR,293.0
KOSC 221515Z AUTO 34011KT 10SM CLR 02/M12 A3025 RMK AO2 T00151117,KOSC,2018-03-22T15:15:00Z,44.45,-83.4,1.5,-11.7,340,11,,10.0,30.250984,,,TRUE,TRUE,,,,,,,CLR,,,,,,,,VFR,,,,,,,,,,,,METAR,193.0
KONZ 221515Z AUTO 32008KT 10SM CLR 03/M11 A3024 RMK AO2 T00321108,KONZ,2018-03-22T15:15:00Z,42.1,-83.15,3.2,-10.8,320,8,,10.0,30.239174,,,TRUE,TRUE,,,,,,,CLR,,,,,,,,VFR,,,,,,,,,,,,METAR,180.0
KOEB 221515Z AUTO 32007KT 10SM CLR 02/M10 A3028 RMK AO2 T00201104,KOEB,2018-03-22T15:15:00Z,41.92,-85.03,2.0,-10.4,320,7,,10.0,30.280512,,,TRUE,TRUE,,,,,,,CLR,,,,,,,,VFR,,,,,,,,,,,,METAR,292.0
PAOO 221515Z AUTO 09020KT 10SM SCT004 OVC065 M05/M06 A3011 RMK AO2 SNE05 P0000 FZRANO,PAOO,2018-03-22T15:15:00Z,60.53,-165.12,-5.0,-6.0,90,20,,10.0,30.109253,,,TRUE,TRUE,,,,TRUE,,,SCT,400,OVC,6500,,,,,VFR,,,,,,0.005,,,,,,METAR,18.0
KMVE 221515Z AUTO 13007KT 10SM OVC040 02/01 A3032 RMK AO2,KMVE,2018-03-22T15:15:00Z,44.97,-95.72,2.0,1.0,130,7,,10.0,30.318897,,,TRUE,TRUE,,,,,,,OVC,4000,,,,,,,VFR,,,,,,,,,,,,METAR,315.0
KMRT 221515Z AUTO 36005KT 10SM CLR 01/M06 A3025 RMK AO2 T00051065,KMRT,2018-03-22T15:15:00Z,40.22,-83.35,0.5,-6.5,360,5,,10.0,30.250984,,,TRUE,TRUE,,,,,,,CLR,,,,,,,,VFR,,,,,,,,,,,,SPECI,312.0
KMGN 221515Z AUTO 23003KT 10SM CLR M03/M08 A3029 RMK AO2 T10321084,KMGN,2018-03-22T15:15:00Z,45.43,-84.92,-3.2,-8.4,230,3,,10.0,30.28937,,,TRUE,TRUE,,,,,,,CLR,,,,,,,,VFR,,,,,,,,,,,,METAR,209.0
KMDS 221515Z AUTO 08008KT 10SM CLR 02/02 A3022 RMK AO2,KMDS,2018-03-22T15:15:00Z,44.02,-97.08,2.0,2.0,80,8,,10.0,30.221457,,,TRUE,TRUE,,,,,,,CLR,,,,,,,,VFR,,,,,,,,,,,,SPECI,524.0
KLXL 221515Z AUTO 12005KT 10SM OVC043 00/M06 A3035 RMK AO2,KLXL,2018-03-22T15:15:00Z,45.95,-94.33,0.0,-6.0,120,5,,10.0,30.351377,,,TRUE,TRUE,,,,,,,OVC,4300,,,,,,,VFR,,,,,,,,,,,,SPECI,342.0
KLJF 221515Z AUTO 13005KT 10SM OVC039 03/M01 A3035 RMK AO2,KLJF,2018-03-22T15:15:00Z,45.1,-94.52,3.0,-1.0,130,5,,10.0,30.351377,,,TRUE,TRUE,,,,,,,OVC,3900,,,,,,,VFR,,,,,,,,,,,,SPECI,348.0
KLDM 221515Z AUTO 32008G14KT 10SM CLR 01/M07 A3032 RMK AO2 T00111068,KLDM,2018-03-22T15:15:00Z,43.97,-86.4,1.1,-6.8,320,8,14,10.0,30.318897,,,TRUE,TRUE,,,,,,,CLR,,,,,,,,VFR,,,,,,,,,,,,SPECI,197.0
KJYM 221515Z AUTO 34009KT 280V350 10SM CLR 01/M12 A3025 RMK AO2,KJYM,2018-03-22T15:15:00Z,41.92,-84.58,1.0,-12.0,340,9,,10.0,30.250984,,,TRUE,TRUE,,,,,,,CLR,,,,,,,,VFR,,,,,,,,,,,,SPECI,360.0
KJRB 221515Z VRB04KT 10SM 06/M02 RMK AO2 P0997 PWINO FZRANO RVRNO,KJRB,2018-03-22T15:15:00Z,40.7,-74.02,6.0,-2.0,0,4,,10.0,,,,,TRUE,,,,TRUE,TRUE,,,,,,,,,,,,,,,,9.97,,,,,,SPECI,7.0
KISQ 221515Z AUTO 33007KT 10SM CLR M01/M06 A3030 RMK AO2 T10101065,KISQ,2018-03-22T15:15:00Z,45.97,-86.17,-1.0,-6.5,330,7,,10.0,30.301182,,,TRUE,TRUE,,,,,,,CLR,,,,,,,,VFR,,,,,,,,,,,,SPECI,209.0
KI19 221515Z AUTO 34004KT 10SM CLR 01/M07 A3029 RMK AO2 T00051068,KI19,2018-03-22T15:15:00Z,39.7,-83.98,0.5,-6.8,340,4,,10.0,30.28937,,,TRUE,TRUE,,,,,,,CLR,,,,,,,,VFR,,,,,,,,,,,,SPECI,289.0
KHYX 221515Z AUTO 35005KT 10SM CLR 01/M09 A3026 RMK AO2,KHYX,2018-03-22T15:15:00Z,43.43,-83.87,1.0,-9.0,350,5,,10.0,30.259842,,,TRUE,TRUE,,,,,,,CLR,,,,,,,,VFR,,,,,,,,,,,,SPECI,183.0
KHCO 221515Z AUTO 00000KT 4SM BR SCT005 BKN020 BKN040 01/00 A3036 RMK AO2,KHCO,2018-03-22T15:15:00Z,48.75,-96.93,1.0,0.0,0,0,,4.0,30.360237,,,TRUE,TRUE,,,,,,BR,SCT,500,BKN,2000,BKN,4000,,,MVFR,,,,,,,,,,,,SPECI,250.0
KHCD 221515Z AUTO 10006KT 10SM OVC040 03/M01 A3036 RMK AO2 T00251013,KHCD,2018-03-22T15:15:00Z,44.87,-94.38,2.5,-1.3,100,6,,10.0,30.360237,,,TRUE,TRUE,,,,,,,OVC,4000,,,,,,,VFR,,,,,,,,,,,,SPECI,323.0
KGHW 221515Z AUTO 12006KT 10SM SCT037 01/M02 A3034 RMK AO2,KGHW,2018-03-22T15:15:00Z,45.63,-95.32,1.0,-2.0,120,6,,10.0,30.339567,,,TRUE,TRUE,,,,,,,SCT,3700,,,,,,,VFR,,,,,,,,,,,,SPECI,425.0
KGDB 221515Z AUTO 10006KT 7SM OVC039 03/00 A3033 RMK AO2 T00250000,KGDB,2018-03-22T15:15:00Z,44.75,-95.55,2.5,0.0,100,6,,7.0,30.33071,,,TRUE,TRUE,,,,,,,OVC,3900,,,,,,,VFR,,,,,,,,,,,,SPECI,319.0
KFSE 221515Z AUTO 00000KT 4SM BR SCT029 01/M01 A3034 RMK AO2,KFSE,2018-03-22T15:15:00Z,47.58,-95.77,1.0,-1.0,0,0,,4.0,30.339567,,,TRUE,TRUE,,,,,,BR,SCT,2900,,,,,,,MVFR,,,,,,,,,,,,SPECI,389.0
KFKS 221515Z AUTO 36004KT 10SM CLR 01/M06 A3033 RMK AO2 T00081060,KFKS,2018-03-22T15:15:00Z,44.63,-86.2,0.8,-6.0,360,4,,10.0,30.33071,,,TRUE,TRUE,,,,,,,CLR,,,,,,,,VFR,,,,,,,,,,,,SPECI,193.0
KFFM 221515Z AUTO 15004KT 10SM OVC036 02/M01 A3032 RMK AO2,KFFM,2018-03-22T15:15:00Z,46.28,-96.15,2.0,-1.0,150,4,,10.0,30.318897,,,TRUE,TRUE,,,,,,,OVC,3600,,,,,,,VFR,,,,,,,,,,,,SPECI,361.0
KDYT 221515Z AUTO 00000KT 10SM OVC065 M02/M06 A3040 RMK AO2,KDYT,2018-03-22T15:15:00Z,46.72,-92.03,-2.0,-6.0,0,0,,10.0,30.398623,,,TRUE,TRUE,,,,,,,OVC,6500,,,,,,,VFR,,,,,,,,,,,,SPECI,186.0
KDXX 221515Z AUTO 09007KT 10SM BKN031 03/01 A3031 RMK AO2,KDXX,2018-03-22T15:15:00Z,44.98,-96.18,3.0,1.0,90,7,,10.0,30.31004,,,TRUE,TRUE,,,,,,,BKN,3100,,,,,,,VFR,,,,,,,,,,,,SPECI,330.0
KDRM 221515Z AUTO 00000KT 10SM CLR M06/M13 A3028 RMK AO2 T10561134,KDRM,2018-03-22T15:15:00Z,46.0,-83.75,-5.6,-13.4,0,0,,10.0,30.280512,,,TRUE,TRUE,,,,,,,CLR,,,,,,,,VFR,,,,,,,,,,,,SPECI,204.0
KCVX 221515Z AUTO 33005KT 10SM CLR M01/M07 A3034 RMK AO2 T10091068,KCVX,2018-03-22T15:15:00Z,45.3,-85.27,-0.9,-6.8,330,5,,10.0,30.339567,,,TRUE,TRUE,,,,,,,CLR,,,,,,,,VFR,,,,,,,,,,,,SPECI,204.0
KCNB 221515Z AUTO 00000KT 3/4SM BR OVC005 00/00 A3031 RMK AO2 T00001001,KCNB,2018-03-22T15:15:00Z,44.73,-96.27,0.0,-0.1,0,0,,0.75,30.31004,,,TRUE,TRUE,,,,,,BR,OVC,500,,,,,,,LIFR,,,,,,,,,,,,SPECI,364.0
KCFS 221515Z AUTO 34008KT 10SM CLR 01/M07 A3025 RMK AO2 T00121070,KCFS,2018-03-22T15:15:00Z,43.47,-83.45,1.2,-7.0,340,8,,10.0,30.250984,,,TRUE,TRUE,,,,,,,CLR,,,,,,,,VFR,,,,,,,,,,,,SPECI,214.0
KCFE 221515Z AUTO 00000KT 10SM OVC030 01/M03 A3038 RMK AO2 T00101027,KCFE,2018-03-22T15:15:00Z,45.17,-93.85,1.0,-2.7,0,0,,10.0,30.380905,,,TRUE,TRUE,,,,,,,OVC,3000,,,,,,,MVFR,,,,,,,,,,,,SPECI,295.0
KCDI 221515Z AUTO 34005KT 10SM CLR 01/M06 A3022 RMK AO2 T00101056,KCDI,2018-03-22T15:15:00Z,39.97,-81.58,1.0,-5.6,340,5,,10.0,30.221457,,,TRUE,TRUE,,,,,,,CLR,,,,,,,,VFR,,,,,,,,,,,,SPECI,244.0
KCBG 221515Z AUTO 00000KT 10SM 01/M06 A3037 RMK AO2,KCBG,2018-03-22T15:15:00Z,45.57,-93.27,1.0,-6.0,0,0,,10.0,30.369095,,,TRUE,TRUE,,,,,,,,,,,,,,,,,,,,,,,,,,,SPECI,287.0
KCAD 221515Z AUTO 35009KT 10SM CLR 00/M10 A3025 RMK AO2 T10021101,KCAD,2018-03-22T15:15:00Z,44.27,-85.42,-0.2,-10.1,350,9,,10.0,30.250984,,,TRUE,TRUE,,,,,,,CLR,,,,,,,,VFR,,,,,,,,,,,,SPECI,398.0
KBBB 221515Z AUTO 14007KT 10SM OVC026 02/M02 A3035 RMK AO2,KBBB,2018-03-22T15:15:00Z,45.32,-95.65,2.0,-2.0,140,7,,10.0,30.351377,,,TRUE,TRUE,,,,,,,OVC,2600,,,,,,,MVFR,,,,,,,,,,,,SPECI,317.0
KAXV 221515Z AUTO 33003KT 7SM CLR 00/M03 A3028 RMK AO2,KAXV,2018-03-22T15:15:00Z,40.5,-84.3,0.0,-3.0,330,3,,7.0,30.280512,,,TRUE,TRUE,,,,,,,CLR,,,,,,,,VFR,,,,,,,,,,,,SPECI,279.0
KAIT 221515Z AUTO 00000KT 4SM -SN SCT014 SCT040 SCT049 M01/M04 A3034 RMK AO2,KAIT,2018-03-22T15:15:00Z,46.53,-93.67,-1.0,-4.0,0,0,,4.0,30.339567,,,TRUE,TRUE,,,,,,-SN,SCT,1400,SCT,4000,SCT,4900,,,MVFR,,,,,,,,,,,,SPECI,367.0
KAEL 221515Z AUTO 14008KT 10SM SCT048 02/M04 A3034 RMK AO2,KAEL,2018-03-22T15:15:00Z,43.68,-93.37,2.0,-4.0,140,8,,10.0,30.339567,,,TRUE,TRUE,,,,,,,SCT,4800,,,,,,,VFR,,,,,,,,,,,,SPECI,383.0
KADC 221515Z AUTO 00000KT 7SM BKN045 00/M03 A3033 RMK AO2,KADC,2018-03-22T15:15:00Z,46.45,-95.22,0.0,-3.0,0,0,,7.0,30.33071,,,TRUE,TRUE,,,,,,,BKN,4500,,,,,,,VFR,,,,,,,,,,,,SPECI,418.0
KACQ 221515Z AUTO 11008KT 10SM OVC043 02/M01 A3036 RMK AO2,KACQ,2018-03-22T15:15:00Z,44.07,-93.55,2.0,-1.0,110,8,,10.0,30.360237,,,TRUE,TRUE,,,,,,,OVC,4300,,,,,,,VFR,,,,,,,,,,,,SPECI,343.0
K04W 221515Z AUTO 00000KT 10SM M01/M07 A3038 RMK AO2,K04W,2018-03-22T15:15:00Z,46.02,-92.9,-1.0,-7.0,0,0,,10.0,30.380905,,,TRUE,TRUE,,,,,,,,,,,,,,,,,,,,,,,,,,,SPECI,311.0
CWVF 221515Z AUTO 10007KT 07/ RMK AO1 T0068,CWVF,2018-03-22T15:15:00Z,49.1,-123.3,6.8,,100,7,,,,,,TRUE,TRUE,,,,,,,,,,,,,,,,,,,,,,,,,,,METAR,1.0
MMLM 221515Z 06006KT 1/2SM FG VV004 16/14 A3005 RMK 8////,MMLM,2018-03-22T15:15:00Z,25.67,-109.07,16.0,14.0,60,6,,0.5,30.050198,,,,,,,,,,FG,OVX,0,,,,,,,LIFR,,,,,,,,,,,400,SPECI,4.0
KY31 221515Z AUTO 30006KT 10SM CLR 01/M12 A3024 RMK AO2 T00061117,KY31,2018-03-22T15:15:00Z,44.25,-84.18,0.6,-11.7,300,6,,10.0,30.239174,,,TRUE,TRUE,,,,,,,CLR,,,,,,,,VFR,,,,,,,,,,,,SPECI,269.0
KVVV 221515Z AUTO 11010KT 10SM SCT029 01/M01 A3031 RMK AO2,KVVV,2018-03-22T15:15:00Z,45.3,-96.42,1.0,-1.0,110,10,,10.0,30.31004,,,TRUE,TRUE,,,,,,,SCT,2900,,,,,,,VFR,,,,,,,,,,,,SPECI,335.0
KUYF 221515Z AUTO 32007KT 10SM CLR 02/M05 A3024 RMK AO2,KUYF,2018-03-22T15:15:00Z,39.93,-83.47,2.0,-5.0,320,7,,10.0,30.239174,,,TRUE,TRUE,,,,,,,CLR,,,,,,,,VFR,,,,,,,,,,,,SPECI,330.0
KULM 221515Z AUTO 15007KT 10SM SCT047 03/M02 A3034 RMK AO2,KULM,2018-03-22T15:15:00Z,44.32,-94.5,3.0,-2.0,150,7,,10.0,30.339567,,,TRUE,TRUE,,,,,,,SCT,4700,,,,,,,VFR,,,,,,,,,,,,SPECI,308.0
KTVY 221515Z AUTO 17024G30KT 10SM SCT090 15/05 A2990 RMK AO2,KTVY,2018-03-22T15:15:00Z,40.62,-112.35,15.0,5.0,170,24,30,10.0,29.899607,,,TRUE,TRUE,,,,,,,SCT,9000,,,,,,,VFR,,,,,,,,,,,,METAR,1317.0
KTPF 221515Z AUTO 36007KT 10SM BKN110 15/01 A3028 RMK AO2,KTPF,2018-03-22T15:15:00Z,27.92,-82.45,15.0,1.0,360,7,,10.0,30.280512,,,TRUE,TRUE,,,,,,,BKN,11000,,,,,,,VFR,,,,,,,,,,,,SPECI,3.0
KTKC 221515Z AUTO 12006KT 10SM BKN050 02/00 A3028 RMK AO2 T00200004,KTKC,2018-03-22T15:15:00Z,44.25,-95.62,2.0,0.4,120,6,,10.0,30.280512,,,TRUE,TRUE,,,,,,,BKN,5000,,,,,,,VFR,,,,,,,,,,,,SPECI,408.0
KW29 221515Z AUTO 33012G22KT 10SM CLR 04/M04 A2997 RMK AO2,KW29,2018-03-22T15:15:00Z,38.98,-76.33,4.0,-4.0,330,12,22,10.0,29.970472,,,TRUE,TRUE,,,,,,,CLR,,,,,,,,VFR,,,,,,,,,,,,SPECI,15.0
KFME 221515Z AUTO 32009G16KT 290V000 10SM CLR 03/M03 A3001 RMK AO1,KFME,2018-03-22T15:15:00Z,39.08,-76.77,3.0,-3.0,320,9,16,10.0,30.008858,,,TRUE,TRUE,,,,,,,CLR,,,,,,,,VFR,,,,,,,,,,,,METAR,46.0
KCGE 221515Z AUTO 31013G19KT 10SM CLR 04/M03 A2997 RMK A01,KCGE,2018-03-22T15:15:00Z,38.53,-76.03,4.0,-3.0,310,13,19,10.0,29.970472,,,TRUE,TRUE,,,,,,,CLR,,,,,,,,VFR,,,,,,,,,,,,SPECI,6.0
LHKE 221515Z 06006KT 030V100 CAVOK 03/M07 Q1015 NOSIG RMK BLU,LHKE,2018-03-22T15:15:00Z,46.92,19.75,3.0,-7.0,60,6,,6.21,29.970472,,,,,,TRUE,,,,,CAVOK,,,,,,,,VFR,,,,,,,,,,,,SPECI,115.0
LMML 221515Z 26016KT 9999 SCT028 13/05 Q1002 NOSIG,LMML,2018-03-22T15:15:00Z,35.85,14.47,13.0,5.0,260,16,,6.21,29.586615,,,,,,TRUE,,,,,SCT,2800,,,,,,,VFR,,,,,,,,,,,,METAR,91.0
KFHB 221515Z AUTO 33008G14KT 10SM CLR 10/M02 A3022 RMK AO2 T01031017,KFHB,2018-03-22T15:15:00Z,30.62,-81.47,10.3,-1.7,330,8,14,10.0,30.221457,,,TRUE,TRUE,,,,,,,CLR,,,,,,,,VFR,,,,,,,,,,,,SPECI,5.0
KFET 221515Z AUTO 15015G20KT 10SM CLR 09/02 A3019 RMK AO2 T00850016,KFET,2018-03-22T15:15:00Z,41.45,-96.52,8.5,1.6,150,15,20,10.0,30.188976,,,TRUE,TRUE,,,,,,,CLR,,,,,,,,VFR,,,,,,,,,,,,SPECI,367.0
KF70 221515Z AUTO 00000KT 10SM BKN110 16/12 A3006 RMK AO1,KF70,2018-03-22T15:15:00Z,33.57,-117.13,16.0,12.0,0,0,,10.0,30.059055,,,TRUE,TRUE,,,,,,,BKN,11000,,,,,,,VFR,,,,,,,,,,,,SPECI,412.0
KF44 221515Z AUTO 17008KT 10SM CLR 17/09 A3032 RMK AO2,KF44,2018-03-22T15:15:00Z,32.17,-95.83,17.0,9.0,170,8,,10.0,30.318897,,,TRUE,TRUE,,,,,,,CLR,,,,,,,,VFR,,,,,,,,,,,,METAR,135.0
KAVC 221515Z AUTO 31008G14KT 10SM CLR 06/M03 A3012 RMK AO2 T00601034,KAVC,2018-03-22T15:15:00Z,36.68,-78.03,6.0,-3.4,310,8,14,10.0,30.121063,,,TRUE,TRUE,,,,,,,CLR,,,,,,,,VFR,,,,,,,,,,,,SPECI,135.0
KASL 221515Z AUTO 16005KT 10SM CLR 17/03 A3037 RMK AO1 T01700030,KASL,2018-03-22T15:15:00Z,32.52,-94.3,17.0,3.0,160,5,,10.0,30.369095,,,TRUE,TRUE,,,,,,,CLR,,,,,,,,VFR,,,,,,,,,,,,METAR,109.0
KAQR 221515Z AUTO 14005KT 10SM CLR 15/00 A3030 RMK AO2,KAQR,2018-03-22T15:15:00Z,34.4,-96.15,15.0,0.0,140,5,,10.0,30.301182,,,TRUE,TRUE,,,,,,,CLR,,,,,,,,VFR,,,,,,,,,,,,SPECI,189.0
KANW 221515Z AUTO 09004KT 10SM CLR 04/03 A3011 RMK AO2 T00410025,KANW,2018-03-22T15:15:00Z,42.57,-100.0,4.1,2.5,90,4,,10.0,30.109253,,,TRUE,TRUE,,,,,,,CLR,,,,,,,,VFR,,,,,,,,,,,,SPECI,789.0
KALX 221515Z AUTO 36010KT 10SM CLR 09/00 A3034 RMK AO2 T00930003,KALX,2018-03-22T15:15:00Z,32.92,-85.97,9.3,0.3,360,10,,10.0,30.339567,,,TRUE,TRUE,,,,,,,CLR,,,,,,,,VFR,,,,,,,,,,,,SPECI,209.0
KAJR 221515Z AUTO 36007KT 310V020 10SM CLR 06/M01 A3021 RMK AO2 T00631015,KAJR,2018-03-22T15:15:00Z,34.5,-83.55,6.3,-1.5,360,7,,10.0,30.209646,,,TRUE,TRUE,,,,,,,CLR,,,,,,,,VFR,,,,,,,,,,,,SPECI,441.0
KAHQ 221515Z AUTO 15013KT 10SM SCT120 09/02 A3019 RMK AO2 T00880021,KAHQ,2018-03-22T15:15:00Z,41.23,-96.6,8.8,2.1,150,13,,10.0,30.188976,,,TRUE,TRUE,,,,,,,SCT,12000,,,,,,,VFR,,,,,,,,,,,,SPECI,374.0
KAFK 221515Z AUTO 19016G22KT 10SM BKN100 10/02 A3022 RMK AO2 T00980017,KAFK,2018-03-22T15:15:00Z,40.6,-95.85,9.8,1.7,190,16,22,10.0,30.221457,,,TRUE,TRUE,,,,,,,BKN,10000,,,,,,,VFR,,,,,,,,,,,,SPECI,354.0
KADH 221515Z AUTO 14009KT 10SM CLR 13/01 A3027 RMK AO2,KADH,2018-03-22T15:15:00Z,34.8,-96.67,13.0,1.0,140,9,,10.0,30.268702,,,TRUE,TRUE,,,,,,,CLR,,,,,,,,VFR,,,,,,,,,,,,SPECI,308.0
KACP 221515Z AUTO 11005KT 10SM CLR 16/05 A3039 RMK AO2 T01630053,KACP,2018-03-22T15:15:00Z,30.75,-92.68,16.3,5.3,110,5,,10.0,30.389763,,,TRUE,TRUE,,,,,,,CLR,,,,,,,,VFR,,,,,,,,,,,,SPECI,33.0
KA39 221515Z AUTO 00000KT 10SM CLR 15/M01 A3010 RMK AO2,KA39,2018-03-22T15:15:00Z,32.98,-111.92,15.0,-1.0,0,0,,10.0,30.100393,,,TRUE,TRUE,,,,,,,CLR,,,,,,,,VFR,,,,,,,,,,,,SPECI,396.0
KA08 221515Z AUTO 02006KT 10SM CLR 10/00 A3039 RMK AO2 T01001005,KA08,2018-03-22T15:15:00Z,32.52,-87.38,10.0,-0.5,20,6,,10.0,30.389763,,,TRUE,TRUE,,,,,,,CLR,,,,,,,,VFR,,,,,,,,,,,,SPECI,69.0
K9V9 221515Z AUTO 09005KT 10SM CLR 05/03 A3017 RMK AO2 T00470028,K9V9,2018-03-22T15:15:00Z,43.77,-99.32,4.7,2.8,90,5,,10.0,30.171259,,,TRUE,TRUE,,,,,,,CLR,,,,,,,,VFR,,,,,,,,,,,,SPECI,519.0
K9A5 221515Z AUTO 01009G14KT 10SM CLR 07/M05 A3033 RMK AO2 T00741052,K9A5,2018-03-22T15:15:00Z,34.68,-85.28,7.4,-5.2,10,9,14,10.0,30.33071,,,TRUE,TRUE,,,,,,,CLR,,,,,,,,VFR,,,,,,,,,,,,SPECI,237.0
K8W2 221515Z AUTO 36007KT 10SM CLR 03/M09 A3006 RMK AO1 T00341086,K8W2,2018-03-22T15:15:00Z,38.65,-78.7,3.4,-8.6,360,7,,10.0,30.059055,,,TRUE,TRUE,,,,,,,CLR,,,,,,,,VFR,,,,,,,,,,,,SPECI,297.0
K8A0 221515Z AUTO 34008G16KT 10SM CLR 06/00 A3034 RMK AO2,K8A0,2018-03-22T15:15:00Z,34.23,-86.25,6.0,0.0,340,8,16,10.0,30.339567,,,TRUE,TRUE,,,,,,,CLR,,,,,,,,VFR,,,,,,,,,,,,SPECI,315.0
K82C 221515Z AUTO 31004KT 10SM CLR 01/M06 A3035 RMK AO2 T00131063,K82C,2018-03-22T15:15:00Z,43.83,-90.13,1.3,-6.3,310,4,,10.0,30.351377,,,TRUE,TRUE,,,,,,,CLR,,,,,,,,VFR,,,,,,,,,,,,SPECI,276.0
K7W4 221515Z AUTO 32004KT 10SM CLR 05/M07 A3004 RMK AO1 T00451067,K7W4,2018-03-22T15:15:00Z,37.97,-77.75,4.5,-6.7,320,4,,10.0,30.041338,,,TRUE,TRUE,,,,,,,CLR,,,,,,,,VFR,,,,,,,,,,,,SPECI,106.0
KBVS 221515Z AUTO 21004KT 6SM BR FEW007 BKN021 OVC026 07/07 A2946 RMK A01,KBVS,2018-03-22T15:15:00Z,48.47,-122.42,7.0,7.0,210,4,,6.0,29.459646,,,TRUE,TRUE,,,,,,BR,FEW,700,BKN,2100,OVC,2600,,,MVFR,,,,,,,,,,,,METAR,43.0
KBVN 221515Z AUTO 18006KT 10SM CLR 08/02 A3013 RMK AO2 T00810019,KBVN,2018-03-22T15:15:00Z,41.73,-98.05,8.1,1.9,180,6,,10.0,30.129921,,,TRUE,TRUE,,,,,,,CLR,,,,,,,,VFR,,,,,,,,,,,,SPECI,551.0
KBUU 221515Z AUTO 26004KT 10SM CLR 03/M07 A3034 RMK AO2 T00291070,KBUU,2018-03-22T15:15:00Z,42.68,-88.3,2.9,-7.0,260,4,,10.0,30.339567,,,TRUE,TRUE,,,,,,,CLR,,,,,,,,VFR,,,,,,,,,,,,SPECI,237.0
KBTA 221515Z AUTO 16014G21KT 10SM SCT075 SCT090 BKN110 08/01 A3019 RMK AO2 T00820014,KBTA,2018-03-22T15:15:00Z,41.42,-96.12,8.2,1.4,160,14,21,10.0,30.188976,,,TRUE,TRUE,,,,,,,SCT,7500,SCT,9000,BKN,11000,,,VFR,,,,,,,,,,,,SPECI,396.0
KBQP 221515Z AUTO 14004KT 10SM CLR 15/03 A3041 RMK AO2 T01510033,KBQP,2018-03-22T15:15:00Z,32.75,-91.88,15.1,3.3,140,4,,10.0,30.410433,,,TRUE,TRUE,,,,,,,CLR,,,,,,,,VFR,,,,,,,,,,,,SPECI,51.0
KBQK 221515Z AUTO 28010G16KT 250V340 10SM CLR 10/M01 A3023 RMK AO2,KBQK,2018-03-22T15:15:00Z,31.25,-81.47,10.0,-1.0,280,10,16,10.0,30.230314,,,TRUE,TRUE,,,,,,,CLR,,,,,,,,VFR,,,,,,,,,,,,SPECI,8.0
KBPG 221515Z AUTO 17020G23KT 7SM CLR 17/08 A3017 RMK AO2 T01670079,KBPG,2018-03-22T15:15:00Z,32.22,-101.52,16.7,7.9,170,20,23,7.0,30.171259,,,TRUE,TRUE,,,,,,,CLR,,,,,,,,VFR,,,,,,,,,,,,METAR,784.0
KBMT 221515Z AUTO 09006KT 10SM CLR 20/10 A3037 RMK AO2 T01960095,KBMT,2018-03-22T15:15:00Z,30.07,-94.22,19.6,9.5,90,6,,10.0,30.369095,,,TRUE,TRUE,,,,,,,CLR,,,,,,,,VFR,,,,,,,,,,,,METAR,10.0
KBMC 221515Z AUTO 00000KT 10SM OVC050 11/05 A2993 RMK AO1 T01070052,KBMC,2018-03-22T15:15:00Z,41.55,-112.07,10.7,5.2,0,0,,10.0,29.929134,,,TRUE,TRUE,,,,,,,OVC,5000,,,,,,,VFR,,,,,,,,,,,,SPECI,1288.0
KBKT 221515Z AUTO 32015G20KT 10SM CLR 05/M04 A3006 RMK AO1 T00531040,KBKT,2018-03-22T15:15:00Z,37.07,-77.95,5.3,-4.0,320,15,20,10.0,30.059055,,,TRUE,TRUE,,,,,,,CLR,,,,,,,,VFR,,,,,,,,,,,,SPECI,134.0
KBIE 221515Z AUTO 15010G16KT 10SM BKN120 10/02 A3020 RMK AO2 T00990024,KBIE,2018-03-22T15:15:00Z,40.28,-96.75,9.9,2.4,150,10,16,10.0,30.200787,,,TRUE,TRUE,,,,,,,BKN,12000,,,,,,,VFR,,,,,,,,,,,,SPECI,403.0
KBHC 221515Z AUTO 33007KT 10SM CLR 08/M02 A3024 RMK AO2,KBHC,2018-03-22T15:15:00Z,31.72,-82.4,8.0,-2.0,330,7,,10.0,30.239174,,,TRUE,TRUE,,,,,,,CLR,,,,,,,,VFR,,,,,,,,,,,,SPECI,61.0
KBGE 221515Z AUTO 34010KT 10SM CLR 12/00 A3033 RMK AO2,KBGE,2018-03-22T15:15:00Z,30.97,-84.63,12.0,0.0,340,10,,10.0,30.33071,,,TRUE,TRUE,,,,,,,CLR,,,,,,,,VFR,,,,,,,,,,,,SPECI,43.0
KBEC 221515Z AUTO 16015G20KT 10SM CLR 13/00 A3017 RMK AO2 T01331005,KBEC,2018-03-22T15:15:00Z,37.7,-97.22,13.3,-0.5,160,15,20,10.0,30.171259,,,TRUE,TRUE,,,,,,,CLR,,,,,,,,VFR,,,,,,,,,,,,SPECI,429.0
KBDG 221515Z AUTO 00000KT 10SM 09/M03 A3031 RMK AO1 T00901033,KBDG,2018-03-22T15:15:00Z,37.58,-109.47,9.0,-3.3,0,0,,10.0,30.31004,,,TRUE,TRUE,,,,,,,,,,,,,,,,,,,,,,,,,,,SPECI,1788.0
KBCK 221515Z AUTO 00000KT 10SM OVC075 01/M07 A3036 RMK AO2 T00121074,KBCK,2018-03-22T15:15:00Z,44.25,-90.85,1.2,-7.4,0,0,,10.0,30.360237,,,TRUE,TRUE,,,,,,,OVC,7500,,,,,,,VFR,,,,,,,,,,,,SPECI,255.0
KBBD 221515Z AUTO 19017G22KT 10SM SCT020 SCT026 17/11 A3023 RMK AO2,KBBD,2018-03-22T15:15:00Z,31.18,-99.32,17.0,11.0,190,17,22,10.0,30.230314,,,TRUE,TRUE,,,,,,,SCT,2000,SCT,2600,,,,,VFR,,,,,,,,,,,,METAR,557.0
KAYS 221515Z AUTO 35011G17KT 10SM CLR 10/M05 A3025 RMK AO2 T01021049,KAYS,2018-03-22T15:15:00Z,31.25,-82.4,10.2,-4.9,350,11,17,10.0,30.250984,,,TRUE,TRUE,,,,,,,CLR,,,,,,,,VFR,,,,,,,,,,,,SPECI,46.0
KAXH 221515Z AUTO 13007KT 10SM CLR 20/12 A3034 RMK AO2 T02000116,KAXH,2018-03-22T15:15:00Z,29.52,-95.48,20.0,11.6,130,7,,10.0,30.339567,,,TRUE,TRUE,,,,,,,CLR,,,,,,,,VFR,,,,,,,,,,,,METAR,21.0
KPPQ 221515Z AUTO 04004KT 10SM OVC100 06/M03 A3038 RMK AO2 T00611031,KPPQ,2018-03-22T15:15:00Z,39.63,-90.78,6.1,-3.1,40,4,,10.0,30.380905,,,TRUE,TRUE,,,,,,,OVC,10000,,,,,,,VFR,,,,,,,,,,,,SPECI,216.0
KPPO 221515Z AUTO 35012G19KT 10SM CLR 03/M08 A3033 RMK AO2 T00251084,KPPO,2018-03-22T15:15:00Z,41.57,-86.73,2.5,-8.4,350,12,19,10.0,30.33071,,,TRUE,TRUE,,,,,,,CLR,,,,,,,,VFR,,,,,,,,,,,,SPECI,248.0
KPMV 221515Z AUTO 13009G18KT 10SM OVC090 08/02 A3022 RMK AO2 T00800019,KPMV,2018-03-22T15:15:00Z,40.95,-95.92,8.0,1.9,130,9,18,10.0,30.221457,,,TRUE,TRUE,,,,,,,OVC,9000,,,,,,,VFR,,,,,,,,,,,,SPECI,367.0
KPEQ 221515Z AUTO 00000KT 10SM CLR 14/02 A3014 RMK AO2 T01440023,KPEQ,2018-03-22T15:15:00Z,31.38,-103.52,14.4,2.3,0,0,,10.0,30.138779,,,TRUE,TRUE,,,,,,,CLR,,,,,,,,VFR,,,,,,,,,,,,METAR,797.0
KOSA 221515Z AUTO 13005KT 10SM CLR 14/05 A3035 RMK AO1 T01440054,KOSA,2018-03-22T15:15:00Z,33.1,-94.97,14.4,5.4,130,5,,10.0,30.351377,,,TRUE,TRUE,,,,,,,CLR,,,,,,,,VFR,,,,,,,,,,,,SPECI,111.0
KONP 221515Z AUTO 25010G17KT 10SM -DZ SCT019 BKN027 OVC032 06/02 A2967 RMK AO2,KONP,2018-03-22T15:15:00Z,44.57,-124.03,6.0,2.0,250,10,17,10.0,29.66929,,,TRUE,TRUE,,,,,,-DZ,SCT,1900,BKN,2700,OVC,3200,,,MVFR,,,,,,,,,,,,SPECI,48.0
KONM 221515Z AUTO 07003KT 10SM CLR 15/M04 A3025 RMK AO2 T01511037,KONM,2018-03-22T15:15:00Z,34.02,-106.9,15.1,-3.7,70,3,,10.0,30.250984,,,TRUE,TRUE,,,,,,,CLR,,,,,,,,VFR,,,,,,,,,,,,SPECI,1410.0
KONL 221515Z AUTO 00000KT 10SM CLR 08/03 A3013 RMK AO2 T00790026,KONL,2018-03-22T15:15:00Z,42.47,-98.67,7.9,2.6,0,0,,10.0,30.129921,,,TRUE,TRUE,,,,,,,CLR,,,,,,,,VFR,,,,,,,,,,,,SPECI,619.0
KOMH 221515Z AUTO 30013KT 10SM CLR 04/M07 A3005 RMK AO2,KOMH,2018-03-22T15:15:00Z,38.25,-78.05,4.0,-7.0,300,13,,10.0,30.050198,,,TRUE,TRUE,,,,,,,CLR,,,,,,,,VFR,,,,,,,,,,,,SPECI,142.0
KOLY 221515Z AUTO 32003KT 10SM CLR 05/M08 A3039 RMK AO2 T00471080,KOLY,2018-03-22T15:15:00Z,38.72,-88.18,4.7,-8.0,320,3,,10.0,30.389763,,,TRUE,TRUE,,,,,,,CLR,,,,,,,,VFR,,,,,,,,,,,,SPECI,147.0
KOLG 221515Z AUTO 00000KT 10SM OVC050 M02/M11 A3036 RMK AO1,KOLG,2018-03-22T15:15:00Z,46.3,-91.82,-2.0,-11.0,0,0,,10.0,30.360237,,,TRUE,TRUE,,,,,,,OVC,5000,,,,,,,VFR,,,,,,,,,,,,SPECI,336.0
KOKV 221515Z AUTO 32015G22KT 10SM CLR 01/M06 A3005 RMK AO2,KOKV,2018-03-22T15:15:00Z,39.13,-78.15,1.0,-6.0,320,15,22,10.0,30.050198,,,TRUE,TRUE,,,,,,,CLR,,,,,,,,VFR,,,,,,,,,,,,SPECI,222.0
KOKM 221515Z AUTO 18011G17KT 10SM SCT095 BKN110 M09/M30 A3027 RMK AO2 T10951305,KOKM,2018-03-22T15:15:00Z,35.67,-95.95,-9.5,-30.5,180,11,17,10.0,30.268702,,,TRUE,TRUE,,,,,,,SCT,9500,BKN,11000,,,,,VFR,,,,,,,,,,,,SPECI,220.0
KOGA 221515Z AUTO 24003KT 10SM CLR 07/00 A3007 RMK AO2 T00720004,KOGA,2018-03-22T15:15:00Z,41.12,-101.77,7.2,0.4,240,3,,10.0,30.070866,,,TRUE,TRUE,,,,,,,CLR,,,,,,,,VFR,,,,,,,,,,,,SPECI,999.0
KOEO 221515Z AUTO 10004KT 10SM OVC080 01/M04 A3040 RMK AO2 T00051042,KOEO,2018-03-22T15:15:00Z,45.32,-92.7,0.5,-4.2,100,4,,10.0,30.398623,,,TRUE,TRUE,,,,,,,OVC,8000,,,,,,,VFR,,,,,,,,,,,,SPECI,275.0
KOCQ 221515Z AUTO 01004KT 10SM CLR M01/M11 A3036 RMK AO1 T10071107,KOCQ,2018-03-22T15:15:00Z,44.87,-87.92,-0.7,-10.7,10,4,,10.0,30.360237,,,TRUE,TRUE,,,,,,,CLR,,,,,,,,VFR,,,,,,,,,,,,SPECI,183.0
KMZZ 221515Z AUTO 35010KT 310V010 10SM CLR 01/M05 A3031 RMK AO2 T00101051,KMZZ,2018-03-22T15:15:00Z,40.48,-85.68,1.0,-5.1,350,10,,10.0,30.31004,,,TRUE,TRUE,,,,,,,CLR,,,,,,,,VFR,,,,,,,,,,,,SPECI,262.0
KMWO 221515Z AUTO 35004KT 10SM CLR 00/M06 A3031 RMK AO2 T00041057,KMWO,2018-03-22T15:15:00Z,39.53,-84.4,0.4,-5.7,350,4,,10.0,30.31004,,,TRUE,TRUE,,,,,,,CLR,,,,,,,,VFR,,,,,,,,,,,,SPECI,198.0
KMTV 221515Z AUTO 32013G20KT 270V340 10SM SCT120 06/M08 A3013 RMK AO2 T00551077,KMTV,2018-03-22T15:15:00Z,36.63,-80.02,5.5,-7.7,320,13,20,10.0,30.129921,,,TRUE,TRUE,,,,,,,SCT,12000,,,,,,,VFR,,,,,,,,,,,,SPECI,287.0
KMRJ 221515Z AUTO 00000KT 10SM CLR 04/M06 A3034 RMK AO2,KMRJ,2018-03-22T15:15:00Z,42.88,-90.23,4.0,-6.0,0,0,,10.0,30.339567,,,TRUE,TRUE,,,,,,,CLR,,,,,,,,VFR,,,,,,,,,,,,SPECI,359.0
KMQS 221515Z AUTO 32016G28KT 10SM CLR 02/M06 A2990 RMK AO2,KMQS,2018-03-22T15:15:00Z,39.98,-75.87,2.0,-6.0,320,16,28,10.0,29.899607,,,TRUE,TRUE,,,,,,,CLR,,,,,,,,VFR,,,,,,,,,,,,SPECI,201.0
KMQB 221515Z AUTO 00000KT 10SM BKN090 05/M04 A3040 RMK AO2 T00521043,KMQB,2018-03-22T15:15:00Z,40.52,-90.65,5.2,-4.3,0,0,,10.0,30.398623,,,TRUE,TRUE,,,,,,,BKN,9000,,,,,,,VFR,,,,,,,,,,,,SPECI,215.0
KMNZ 221515Z AUTO 18016G21KT 10SM OVC016 17/13 A3026 RMK AO2 T01730126,KMNZ,2018-03-22T15:15:00Z,31.67,-98.15,17.3,12.6,180,16,21,10.0,30.259842,,,TRUE,TRUE,,,,,,,OVC,1600,,,,,,,MVFR,,,,,,,,,,,,METAR,396.0
KMLE 221515Z AUTO 12008KT 10SM BKN110 08/02 A3022 RMK AO2 T00830018,KMLE,2018-03-22T15:15:00Z,41.2,-96.12,8.3,1.8,120,8,,10.0,30.221457,,,TRUE,TRUE,,,,,,,BKN,11000,,,,,,,VFR,,,,,,,,,,,,SPECI,320.0
KMKN 221515Z AUTO 18013G22KT 10SM CLR 18/13 A3023 RMK AO2 T01770125,KMKN,2018-03-22T15:15:00Z,31.92,-98.6,17.7,12.5,180,13,22,10.0,30.230314,,,TRUE,TRUE,,,,,,,CLR,,,,,,,,VFR,,,,,,,,,,,,SPECI,423.0
KMDZ 221515Z AUTO 01003KT 10SM CLR M02/M10 A3033 RMK AO2 T10251099,KMDZ,2018-03-22T15:15:00Z,45.1,-90.3,-2.5,-9.9,10,3,,10.0,30.33071,,,TRUE,TRUE,,,,,,,CLR,,,,,,,,VFR,,,,,,,,,,,,SPECI,448.0
KM30 221515Z AUTO 03004KT 10SM CLR 08/M04 A3041 RMK AO2 T00781043,KM30,2018-03-22T15:15:00Z,37.18,-88.75,7.8,-4.3,30,4,,10.0,30.410433,,,TRUE,TRUE,,,,,,,CLR,,,,,,,,VFR,,,,,,,,,,,,SPECI,117.0
KLXN 221515Z AUTO 00000KT 10SM CLR 08/02 A3009 RMK AO2 T00840021,KLXN,2018-03-22T15:15:00Z,40.78,-99.77,8.4,2.1,0,0,,10.0,30.088583,,,TRUE,TRUE,,,,,,,CLR,,,,,,,,VFR,,,,,,,,,,,,SPECI,734.0
KLVL 221515Z AUTO 33008G16KT 10SM CLR 06/M04 A3006 RMK AO1 T00551045,KLVL,2018-03-22T15:15:00Z,36.78,-77.8,5.5,-4.5,330,8,16,10.0,30.059055,,,TRUE,TRUE,,,,,,,CLR,,,,,,,,VFR,,,,,,,,,,,,SPECI,100.0
KLUD 221515Z AUTO 17012G21KT 10SM CLR 17/11 A3024 RMK AO2 T01700105,KLUD,2018-03-22T15:15:00Z,33.25,-97.58,17.0,10.5,170,12,21,10.0,30.239174,,,TRUE,TRUE,,,,,,,CLR,,,,,,,,VFR,,,,,,,,,,,,METAR,319.0
KLOT 221515Z AUTO 33005KT 10SM CLR 03/M06 A3036 RMK AO2 T00251065,KLOT,2018-03-22T15:15:00Z,41.6,-88.1,2.5,-6.5,330,5,,10.0,30.360237,,,TRUE,TRUE,,,,,,,CLR,,,,,,,,VFR,,,,,,,,,,,,SPECI,205.0
KLOM 221515Z AUTO 33006KT 10SM CLR 02/M04 A2990 RMK AO1,KLOM,2018-03-22T15:15:00Z,40.13,-75.27,2.0,-4.0,330,6,,10.0,29.899607,,,TRUE,TRUE,,,,,,,CLR,,,,,,,,VFR,,,,,,,,,,,,SPECI,92.0
KLNN 221515Z AUTO 33009G16KT 10SM CLR 01/M05 A3021 RMK AO1 T00061055,KLNN,2018-03-22T15:15:00Z,41.67,-81.37,0.6,-5.5,330,9,16,10.0,30.209646,,,TRUE,TRUE,,,,,,,CLR,,,,,,,,VFR,,,,,,,,,,,,SPECI,191.0
KLKU 221515Z AUTO 32013KT 10SM CLR 05/M08 A3009 RMK AO2 T00501076,KLKU,2018-03-22T15:15:00Z,38.02,-77.97,5.0,-7.6,320,13,,10.0,30.088583,,,TRUE,TRUE,,,,,,,CLR,,,,,,,,VFR,,,,,,,,,,,,SPECI,150.0
KLHM 221515Z AUTO 20014G17KT 10SM SCT012 SCT017 BKN024 14/13 A2970 RMK AO1,KLHM,2018-03-22T15:15:00Z,38.92,-121.35,14.0,13.0,200,14,17,10.0,29.698818,,,TRUE,TRUE,,,,,,,SCT,1200,SCT,1700,BKN,2400,,,MVFR,,,,,,,,,,,,SPECI,37.0
KBWP 221515Z AUTO 13006KT 10SM OVC041 02/00 A3033 RMK AO1,KBWP,2018-03-22T15:15:00Z,46.25,-96.62,2.0,0.0,130,6,,10.0,30.33071,,,TRUE,TRUE,,,,,,,OVC,4100,,,,,,,VFR,,,,,,,,,,,,SPECI,295.0
KC75 221515Z AUTO 00000KT 10SM CLR 03/M04 A3037 RMK AO2 T00271042,KC75,2018-03-22T15:15:00Z,41.02,-89.38,2.7,-4.2,0,0,,10.0,30.369095,,,TRUE,TRUE,,,,,,,CLR,,,,,,,,VFR,,,,,,,,,,,,SPECI,173.0
KC29 221515Z AUTO 27003KT 10SM CLR 04/M07 A3035 RMK AO1 T00401067,KC29,2018-03-22T15:15:00Z,43.12,-89.53,4.0,-6.7,270,3,,10.0,30.351377,,,TRUE,TRUE,,,,,,,CLR,,,,,,,,VFR,,,,,,,,,,,,SPECI,283.0
KC09 221515Z AUTO 00000KT 10SM CLR 03/M06 A3036 RMK AO2 T00281064,KC09,2018-03-22T15:15:00Z,41.43,-88.42,2.8,-6.4,0,0,,10.0,30.360237,,,TRUE,TRUE,,,,,,,CLR,,,,,,,,VFR,,,,,,,,,,,,SPECI,178.0
KCFD 221515Z AUTO 14006KT 10SM CLR 18/11 A3033 RMK AO2 T01820106,KCFD,2018-03-22T15:15:00Z,30.72,-96.33,18.2,10.6,140,6,,10.0,30.33071,,,TRUE,TRUE,,,,,,,CLR,,,,,,,,VFR,,,,,,,,,,,,SPECI,112.0
KCDA 221515Z AUTO 31009G14KT 10SM CLR 01/M08 A2980 RMK AO2 T00091078,KCDA,2018-03-22T15:15:00Z,44.57,-72.02,0.9,-7.8,310,9,14,10.0,29.799213,,,TRUE,TRUE,,,,,,,CLR,,,,,,,,VFR,,,,,,,,,,,,SPECI,363.0
KCJR 221515Z AUTO 32012G20KT 10SM CLR 05/M08 A3005 RMK AO2 T00501077,KCJR,2018-03-22T15:15:00Z,38.53,-77.87,5.0,-7.7,320,12,20,10.0,30.050198,,,TRUE,TRUE,,,,,,,CLR,,,,,,,,VFR,,,,,,,,,,,,SPECI,97.0
KCNI 221515Z AUTO 34004KT 10SM CLR 08/M02 A3028 RMK AO2,KCNI,2018-03-22T15:15:00Z,34.32,-84.42,8.0,-2.0,340,4,,10.0,30.280512,,,TRUE,TRUE,,,,,,,CLR,,,,,,,,VFR,,,,,,,,,,,,SPECI,372.0
KCMY 221515Z AUTO 00000KT 10SM OVC070 01/M05 A3037 RMK AO2 T00071055,KCMY,2018-03-22T15:15:00Z,43.97,-90.73,0.7,-5.5,0,0,,10.0,30.369095,,,TRUE,TRUE,,,,,,,OVC,7000,,,,,,,VFR,,,,,,,,,,,,SPECI,256.0
KAZE 221515Z AUTO 34005KT 10SM CLR 11/M04 A3025 RMK AO2 T01091039,KAZE,2018-03-22T15:15:00Z,31.88,-82.65,10.9,-3.9,340,5,,10.0,30.250984,,,TRUE,TRUE,,,,,,,CLR,,,,,,,,VFR,,,,,,,,,,,,SPECI,78.0
KDBN 221515Z AUTO 02006KT 315V025 10SM CLR 09/M04 A3027 RMK AO2,KDBN,2018-03-22T15:15:00Z,32.57,-82.98,9.0,-4.0,20,6,,10.0,30.268702,,,TRUE,TRUE,,,,,,,CLR,,,,,,,,VFR,,,,,,,,,,,,SPECI,94.0
KCXE 221515Z AUTO 33008G16KT 10SM CLR 06/M05 A3009 RMK AO1 T00561055,KCXE,2018-03-22T15:15:00Z,36.78,-78.5,5.6,-5.5,330,8,16,10.0,30.088583,,,TRUE,TRUE,,,,,,,CLR,,,,,,,,VFR,,,,,,,,,,,,SPECI,153.0
KCTY 221515Z AUTO 32013G17KT 10SM CLR 13/M05 A3028 RMK AO2 T01291049,KCTY,2018-03-22T15:15:00Z,29.63,-83.1,12.9,-4.9,320,13,17,10.0,30.280512,,,TRUE,TRUE,,,,,,,CLR,,,,,,,,VFR,,,,,,,,,,,,SPECI,13.0
KCQF 221515Z AUTO 01006KT 10SM CLR 12/00 A3038 RMK AO2,KCQF,2018-03-22T15:15:00Z,30.47,-87.88,12.0,0.0,10,6,,10.0,30.380905,,,TRUE,TRUE,,,,,,,CLR,,,,,,,,VFR,,,,,,,,,,,,SPECI,28.0
KCQB 221515Z AUTO 16016G20KT 7SM HZ SCT100 16/00 A3022 RMK AO2 T01641002,KCQB,2018-03-22T15:15:00Z,35.72,-96.82,16.4,-0.2,160,16,20,7.0,30.221457,,,TRUE,TRUE,,,,,,HZ,SCT,10000,,,,,,,VFR,,,,,,,,,,,,SPECI,300.0
KCOM 221515Z AUTO 18014G19KT 10SM SCT016 17/11 A3022 RMK AO2 T01660105,KCOM,2018-03-22T15:15:00Z,31.83,-99.4,16.6,10.5,180,14,19,10.0,30.221457,,,TRUE,TRUE,,,,,,,SCT,1600,,,,,,,VFR,,,,,,,,,,,,METAR,517.0
KDED 221515Z AUTO 33008KT 10SM CLR 13/M03 A3023 RMK AO2,KDED,2018-03-22T15:15:00Z,29.07,-81.28,13.0,-3.0,330,8,,10.0,30.230314,,,TRUE,TRUE,,,,,,,CLR,,,,,,,,VFR,,,,,,,,,,,,SPECI,24.0
KDCY 221515Z AUTO 00000KT 10SM CLR 03/M04 A3038 RMK AO2 T00271044,KDCY,2018-03-22T15:15:00Z,38.7,-87.13,2.7,-4.4,0,0,,10.0,30.380905,,,TRUE,TRUE,,,,,,,CLR,,,,,,,,VFR,,,,,,,,,,,,SPECI,144.0
KCTJ 221515Z AUTO 35014G18KT 10SM CLR 07/M04 A3034 RMK AO2 T00741044,KCTJ,2018-03-22T15:15:00Z,33.63,-85.15,7.4,-4.4,350,14,18,10.0,30.339567,,,TRUE,TRUE,,,,,,,CLR,,,,,,,,VFR,,,,,,,,,,,,SPECI,354.0
LIPR 221515Z 32013KT CAVOK 08/M04 Q1007,LIPR,2018-03-22T15:15:00Z,44.02,12.62,8.0,-4.0,320,13,,6.21,29.734253,,,,,,,,,,,CAVOK,,,,,,,,VFR,,,,,,,,,,,,METAR,13.0
LIRP 221515Z 10011KT CAVOK 11/M06 Q1006 NOSIG,LIRP,2018-03-22T15:15:00Z,43.67,10.37,11.0,-6.0,100,11,,6.21,29.704725,,,,,,TRUE,,,,,CAVOK,,,,,,,,VFR,,,,,,,,,,,,METAR,2.0
KXPY 221515Z AUTO 07012KT 10SM CLR 17/05 A3039 RMK A01,KXPY,2018-03-22T15:15:00Z,29.12,-90.2,17.0,5.0,70,12,,10.0,30.389763,,,TRUE,TRUE,,,,,,,CLR,,,,,,,,VFR,,,,,,,,,,,,SPECI,2.0
KXIH 221515Z AUTO 10SM CLR 19/11 A3033 RMK A01,KXIH,2018-03-22T15:15:00Z,29.18,-94.52,19.0,11.0,,,,10.0,30.33071,,,TRUE,TRUE,,,,,,,CLR,,,,,,,,VFR,,,,,,,,,,,,SPECI,75.0
KVQT 221515Z AUTO 11017KT 10SM CLR 19/08 A3036 RMK A01,KVQT,2018-03-22T15:15:00Z,28.27,-92.27,19.0,8.0,110,17,,10.0,30.360237,,,TRUE,TRUE,,,,,,,CLR,,,,,,,,VFR,,,,,,,,,,,,SPECI,25.0
KVOA 221515Z AUTO 03016KT 10SM CLR 13/04 A3036 RMK A01,KVOA,2018-03-22T15:15:00Z,29.23,-87.78,13.0,4.0,30,16,,10.0,30.360237,,,TRUE,TRUE,,,,,,,CLR,,,,,,,,VFR,,,,,,,,,,,,SPECI,53.0
KVKY 221515Z AUTO 05015KT 10SM CLR 14/04 A3040 RMK A01,KVKY,2018-03-22T15:15:00Z,29.25,-88.43,14.0,4.0,50,15,,10.0,30.398623,,,TRUE,TRUE,,,,,,,CLR,,,,,,,,VFR,,,,,,,,,,,,SPECI,32.0
KVAF 221515Z AUTO 11017KT 8SM SCT095 21/11 A3032 RMK A01,KVAF,2018-03-22T15:15:00Z,27.35,-94.63,21.0,11.0,110,17,,8.0,30.318897,,,TRUE,TRUE,,,,,,,SCT,9500,,,,,,,VFR,,,,,,,,,,,,SPECI,46.0
KSPR 221515Z AUTO 07013G20KT 10SM CLR 18/06 A3037 RMK A01,KSPR,2018-03-22T15:15:00Z,28.6,-91.2,18.0,6.0,70,13,20,10.0,30.369095,,,TRUE,TRUE,,,,,,,CLR,,,,,,,,VFR,,,,,,,,,,,,SPECI,31.0
KSCF 221515Z AUTO 09021KT 10SM 16/07 A3038 RMK A01,KSCF,2018-03-22T15:15:00Z,29.12,-91.87,16.0,7.0,90,21,,10.0,30.380905,,,TRUE,TRUE,,,,,,,,,,,,,,,,,,,,,,,,,,,SPECI,8.0
KMZG 221515Z AUTO 20015KT 10SM CLR 22/12 A3030 RMK A01,KMZG,2018-03-22T15:15:00Z,27.73,-96.18,22.0,12.0,200,15,,10.0,30.301182,,,TRUE,TRUE,,,,,,,CLR,,,,,,,,VFR,,,,,,,,,,,,SPECI,29.0
KMIS 221515Z AUTO 07013KT 10SM CLR 15/06 A3040 RMK A01,KMIS,2018-03-22T15:15:00Z,29.3,-88.85,15.0,6.0,70,13,,10.0,30.398623,,,TRUE,TRUE,,,,,,,CLR,,,,,,,,VFR,,,,,,,,,,,,SPECI,32.0
KMDJ 221515Z AUTO 05017KT 10SM CLR 16/04 A3040 RMK A01,KMDJ,2018-03-22T15:15:00Z,28.65,-89.8,16.0,4.0,50,17,,10.0,30.398623,,,TRUE,TRUE,,,,,,,CLR,,,,,,,,VFR,,,,,,,,,,,,SPECI,31.0
KHQI 221515Z AUTO 07020KT 10SM CLR A3034 RMK A01,KHQI,2018-03-22T15:15:00Z,27.93,-93.67,,,70,20,,10.0,30.339567,,,TRUE,TRUE,,,,,,,CLR,,,,,,,,VFR,,,,,,,,,,,,SPECI,26.0
KGUL 221515Z AUTO 08018KT 10SM CLR 21/08 A3034 RMK A01,KGUL,2018-03-22T15:15:00Z,27.3,-93.53,21.0,8.0,80,18,,10.0,30.339567,,,TRUE,TRUE,,,,,,,CLR,,,,,,,,VFR,,,,,,,,,,,,SPECI,30.0
KGHB 221515Z AUTO 06017G22KT 10SM CLR 20/08 A3038 RMK A01,KGHB,2018-03-22T15:15:00Z,27.83,-91.98,20.0,8.0,60,17,22,10.0,30.380905,,,TRUE,TRUE,,,,,,,CLR,,,,,,,,VFR,,,,,,,,,,,,SPECI,30.0
KGBK 221515Z AUTO 05013G18KT 10SM CLR 21/10 A3034 RMK A01,KGBK,2018-03-22T15:15:00Z,27.2,-92.2,21.0,10.0,50,13,18,10.0,30.339567,,,TRUE,TRUE,,,,,,,CLR,,,,,,,,VFR,,,,,,,,,,,,SPECI,59.0
KEMK 221515Z AUTO 08017KT 10SM CLR 21/10 A3033 RMK A01,KEMK,2018-03-22T15:15:00Z,27.82,-94.32,21.0,10.0,80,17,,10.0,30.33071,,,TRUE,TRUE,,,,,,,CLR,,,,,,,,VFR,,,,,,,,,,,,SPECI,26.0
KEIR 221515Z AUTO 11014KT 10SM 18/06 A3038 RMK A01,KEIR,2018-03-22T15:15:00Z,28.63,-91.48,18.0,6.0,110,14,,10.0,30.380905,,,TRUE,TRUE,,,,,,,,,,,,,,,,,,,,,,,,,,,SPECI,28.0
KDSF 221515Z AUTO VRB04G14KT 10SM CLR 17/07 A3036 RMK A01,KDSF,2018-03-22T15:15:00Z,,,17.0,7.0,0,4,14,10.0,30.360237,,,TRUE,TRUE,,,,,,,CLR,,,,,,,,VFR,,,,,,,,,,,,METAR,
KDLP 221515Z AUTO 04006KT 10SM CLR 16/05 A3039 RMK A01,KDLP,2018-03-22T15:15:00Z,29.12,-89.55,16.0,5.0,40,6,,10.0,30.389763,,,TRUE,TRUE,,,,,,,CLR,,,,,,,,VFR,,,,,,,,,,,,SPECI,36.0
KBQX 221515Z AUTO 11006G15KT 10SM CLR 21/12 A3033 RMK A01,KBQX,2018-03-22T15:15:00Z,28.5,-95.72,21.0,12.0,110,6,15,10.0,30.33071,,,TRUE,TRUE,,,,,,,CLR,,,,,,,,VFR,,,,,,,,,,,,SPECI,34.0
KBBF 221515Z AUTO 13009G17KT 090V170 10SM CLR 22/12 A3030 RMK A01,KBBF,2018-03-22T15:15:00Z,27.83,-96.02,22.0,12.0,130,9,17,10.0,30.301182,,,TRUE,TRUE,,,,,,,CLR,,,,,,,,VFR,,,,,,,,,,,,SPECI,36.0
KATP 221515Z AUTO 06016KT 10SM CLR 19/09 A3033 RMK A01,KATP,2018-03-22T15:15:00Z,27.2,-90.03,19.0,9.0,60,16,,10.0,30.33071,,,TRUE,TRUE,,,,,,,CLR,,,,,,,,VFR,,,,,,,,,,,,SPECI,62.0
K18H 221515Z AUTO 08015G22KT 10SM CLR 22/13 A3029 RMK A01,K18H,2018-03-22T15:15:00Z,,,22.0,13.0,80,15,22,10.0,30.28937,,,TRUE,TRUE,,,,,,,CLR,,,,,,,,VFR,,,,,,,,,,,,METAR,
LHSN 221515Z 08008KT 050V110 CAVOK 03/M06 Q1016 NOSIG RMK BLU,LHSN,2018-03-22T15:15:00Z,47.12,20.23,3.0,-6.0,80,8,,6.21,30.0,,,,,,TRUE,,,,,CAVOK,,,,,,,,VFR,,,,,,,,,,,,METAR,98.0
KW99 221515Z AUTO 00000KT 10SM CLR 02/M08 A3009 RMK AO2 P0001 T00241077,KW99,2018-03-22T15:15:00Z,39.0,-79.15,2.4,-7.7,0,0,,10.0,30.088583,,,TRUE,TRUE,,,,,,,CLR,,,,,,,,VFR,,,,,,0.01,,,,,,SPECI,293.0
KW78 221515Z AUTO 32009G19KT 10SM CLR 06/M06 A3011 RMK AO1 T00581062,KW78,2018-03-22T15:15:00Z,36.68,-78.85,5.8,-6.2,320,9,19,10.0,30.109253,,,TRUE,TRUE,,,,,,,CLR,,,,,,,,VFR,,,,,,,,,,,,SPECI,129.0
KVBW 221515Z AUTO 10SM CLR 02/M07 A3007 RMK AO2 T00161072,KVBW,2018-03-22T15:15:00Z,38.37,-78.97,1.6,-7.2,,,,10.0,30.070866,,,TRUE,TRUE,,,,,,,CLR,,,,,,,,VFR,,,,,,,,,,,,SPECI,355.0
KSHD 221515Z AUTO 00000KT 10SM CLR 01/M08 A3009 RMK AO2 T00081077,KSHD,2018-03-22T15:15:00Z,38.27,-78.9,0.8,-7.7,0,0,,10.0,30.088583,,,TRUE,TRUE,,,,,,,CLR,,,,,,,,VFR,,,,,,,,,,,,SPECI,366.0
KLNP 221515Z AUTO 30009KT 10SM SCT027 01/M03 A3017 RMK AO2,KLNP,2018-03-22T15:15:00Z,36.97,-82.52,1.0,-3.0,300,9,,10.0,30.171259,,,TRUE,TRUE,,,,,,,SCT,2700,,,,,,,VFR,,,,,,,,,,,,SPECI,817.0
KIYA 221515Z AUTO 08006KT 10SM CLR 18/06 A3039 RMK AO2 T01750059,KIYA,2018-03-22T15:15:00Z,29.98,-92.08,17.5,5.9,80,6,,10.0,30.389763,,,TRUE,TRUE,,,,,,,CLR,,,,,,,,VFR,,,,,,,,,,,,SPECI,5.0
KHBV 221515Z AUTO 16010KT 4SM HZ OVC065 19/15 A3027 RMK AO2 T01930146,KHBV,2018-03-22T15:15:00Z,27.35,-98.73,19.3,14.6,160,10,,4.0,30.268702,,,TRUE,TRUE,,,,,,HZ,OVC,6500,,,,,,,MVFR,,,,,,,,,,,,SPECI,202.0
KGVT 221515Z AUTO 15010KT 10SM CLR 19/08 A3031 RMK AO2,KGVT,2018-03-22T15:15:00Z,33.07,-96.07,19.0,8.0,150,10,,10.0,30.31004,,,TRUE,TRUE,,,,,,,CLR,,,,,,,,VFR,,,,,,,,,,,,SPECI,163.0
KHMZ 221515Z AUTO 31012KT 10SM CLR 00/M08 A3005 RMK AO2 T10021079,KHMZ,2018-03-22T15:15:00Z,40.08,-78.52,-0.2,-7.9,310,12,,10.0,30.050198,,,TRUE,TRUE,,,,,,,CLR,,,,,,,,VFR,,,,,,,,,,,,SPECI,354.0
KHLX 221515Z AUTO 33014G22KT 10SM SCT070 SCT080 OVC100 M02/M08 A3007 RMK AO2 T10171084,KHLX,2018-03-22T15:15:00Z,36.77,-80.82,-1.7,-8.4,330,14,22,10.0,30.070866,,,TRUE,TRUE,,,,,,,SCT,7000,SCT,8000,OVC,10000,,,VFR,,,,,,,,,,,,SPECI,834.0
KHJH 221515Z AUTO 15008KT 10SM CLR 10/03 A3018 RMK AO2 T00970027,KHJH,2018-03-22T15:15:00Z,40.15,-97.58,9.7,2.7,150,8,,10.0,30.180119,,,TRUE,TRUE,,,,,,,CLR,,,,,,,,VFR,,,,,,,,,,,,SPECI,447.0
KHII 221515Z AUTO 33003KT 10SM CLR 21/03 A2997 RMK AO2,KHII,2018-03-22T15:15:00Z,34.57,-114.37,21.0,3.0,330,3,,10.0,29.970472,,,TRUE,TRUE,,,,,,,CLR,,,,,,,,VFR,,,,,,,,,,,,SPECI,238.0
KHHF 221515Z AUTO 21009KT 10SM CLR 15/01 A3009 RMK AO2 T01470012,KHHF,2018-03-22T15:15:00Z,35.9,-100.4,14.7,1.2,210,9,,10.0,30.088583,,,TRUE,TRUE,,,,,,,CLR,,,,,,,,VFR,,,,,,,,,,,,SPECI,712.0
KHDE 221515Z AUTO 18008KT 10SM CLR 08/03 A3009 RMK AO2 T00830027,KHDE,2018-03-22T15:15:00Z,40.45,-99.32,8.3,2.7,180,8,,10.0,30.088583,,,TRUE,TRUE,,,,,,,CLR,,,,,,,,VFR,,,,,,,,,,,,SPECI,705.0
KGYI 221515Z AUTO 16009G15KT 10SM CLR 17/08 A3029 RMK AO2 T01700077,KGYI,2018-03-22T15:15:00Z,33.72,-96.67,17.0,7.7,160,9,15,10.0,30.28937,,,TRUE,TRUE,,,,,,,CLR,,,,,,,,VFR,,,,,,,,,,,,METAR,228.0
KGRN 221515Z AUTO 03003KT 10SM CLR 06/01 A3007 RMK AO2 T00560007,KGRN,2018-03-22T15:15:00Z,42.8,-102.17,5.6,0.7,30,3,,10.0,30.070866,,,TRUE,TRUE,,,,,,,CLR,,,,,,,,VFR,,,,,,,,,,,,SPECI,1086.0
KGOP 221515Z AUTO 18012KT 10SM SCT019 17/12 A3029 RMK AO2,KGOP,2018-03-22T15:15:00Z,31.42,-97.8,17.0,12.0,180,12,,10.0,30.28937,,,TRUE,TRUE,,,,,,,SCT,1900,,,,,,,VFR,,,,,,,,,,,,SPECI,276.0
KGNC 221515Z AUTO 26004KT 10SM CLR 15/06 A3018 RMK AO2 T01450055,KGNC,2018-03-22T15:15:00Z,32.68,-102.65,14.5,5.5,260,4,,10.0,30.180119,,,TRUE,TRUE,,,,,,,CLR,,,,,,,,VFR,,,,,,,,,,,,SPECI,1010.0
KGHG 221515Z AUTO 36012G23KT 330V040 1 1/4SM +UP BKN001 BKN006 OVC012 01/01 A2965 RMK AO2,KGHG,2018-03-22T15:15:00Z,42.1,-70.67,1.0,1.0,360,12,23,1.25,29.648623,,,TRUE,TRUE,,,,,,UP,BKN,100,BKN,600,OVC,1200,,,LIFR,,,,,,,,,,,,SPECI,4.0
KGDJ 221515Z AUTO 15010G14KT 10SM CLR 19/12 A3026 RMK AO2 T01850118,KGDJ,2018-03-22T15:15:00Z,32.45,-97.82,18.5,11.8,150,10,14,10.0,30.259842,,,TRUE,TRUE,,,,,,,CLR,,,,,,,,VFR,,,,,,,,,,,,SPECI,237.0
KVWU 221515Z AUTO 05003KT 10SM SCT060 OVC070 02/M03 A3035 RMK AO2,KVWU,2018-03-22T15:15:00Z,48.15,-94.52,2.0,-3.0,50,3,,10.0,30.351377,,,TRUE,TRUE,,,,,,,SCT,6000,OVC,7000,,,,,VFR,,,,,,,,,,,,SPECI,360.0
KVKS 221515Z AUTO VRB04KT 10SM CLR 14/02 A3042 RMK A01,KVKS,2018-03-22T15:15:00Z,32.23,-90.93,14.0,2.0,0,4,,10.0,30.41929,,,TRUE,TRUE,,,,,,,CLR,,,,,,,,VFR,,,,,,,,,,,,SPECI,32.0
KUKF 221515Z AUTO 31012G22KT 10SM CLR 05/M07 A3017 RMK AO2,KUKF,2018-03-22T15:15:00Z,36.22,-81.1,5.0,-7.0,310,12,22,10.0,30.171259,,,TRUE,TRUE,,,,,,,CLR,,,,,,,,VFR,,,,,,,,,,,,SPECI,396.0
KUCY 221515Z AUTO 00000KT 10SM CLR 09/01 A3040 RMK A01,KUCY,2018-03-22T15:15:00Z,36.38,-88.98,9.0,1.0,0,0,,10.0,30.398623,,,TRUE,TRUE,,,,,,,CLR,,,,,,,,VFR,,,,,,,,,,,,SPECI,104.0
KTHA 221515Z AUTO 34011G17KT 10SM CLR 07/M03 A3034 RMK A01,KTHA,2018-03-22T15:15:00Z,35.38,-86.25,7.0,-3.0,340,11,17,10.0,30.339567,,,TRUE,TRUE,,,,,,,CLR,,,,,,,,VFR,,,,,,,,,,,,SPECI,331.0
KSZY 221515Z AUTO VRB04KT 10SM CLR 09/M02 A3039 RMK A01,KSZY,2018-03-22T15:15:00Z,,,9.0,-2.0,0,4,,10.0,30.389763,,,TRUE,TRUE,,,,,,,CLR,,,,,,,,VFR,,,,,,,,,,,,SPECI,
KSYI 221515Z AUTO 32013KT 10SM CLR 08/M03 A3036 RMK A01,KSYI,2018-03-22T15:15:00Z,35.57,-86.45,8.0,-3.0,320,13,,10.0,30.360237,,,TRUE,TRUE,,,,,,,CLR,,,,,,,,VFR,,,,,,,,,,,,SPECI,245.0
KSRE 221515Z AUTO 16008G19KT 10SM SCT100 14/M01 A3024 RMK AO2,KSRE,2018-03-22T15:15:00Z,35.27,-96.68,14.0,-1.0,160,8,19,10.0,30.239174,,,TRUE,TRUE,,,,,,,SCT,10000,,,,,,,VFR,,,,,,,,,,,,SPECI,312.0
KSRB 221515Z AUTO 35006KT 10SM CLR 05/M02 A3032 RMK A01,KSRB,2018-03-22T15:15:00Z,36.05,-85.53,5.0,-2.0,350,6,,10.0,30.318897,,,TRUE,TRUE,,,,,,,CLR,,,,,,,,VFR,,,,,,,,,,,,SPECI,313.0
KSNH 221515Z AUTO 31003KT 10SM CLR 09/M02 A3040 RMK A01,KSNH,2018-03-22T15:15:00Z,35.17,-88.22,9.0,-2.0,310,3,,10.0,30.398623,,,TRUE,TRUE,,,,,,,CLR,,,,,,,,VFR,,,,,,,,,,,,SPECI,144.0
KSGS 221515Z AUTO 00000KT 10SM OVC029 02/M04 A3038 RMK AO2 T00151043,KSGS,2018-03-22T15:15:00Z,44.87,-93.03,1.5,-4.3,0,0,,10.0,30.380905,,,TRUE,TRUE,,,,,,,OVC,2900,,,,,,,MVFR,,,,,,,,,,,,SPECI,250.0
KSCX 221515Z AUTO 31005KT 10SM CLR 02/M04 A3027 RMK A01,KSCX,2018-03-22T15:15:00Z,36.45,-84.58,2.0,-4.0,310,5,,10.0,30.268702,,,TRUE,TRUE,,,,,,,CLR,,,,,,,,VFR,,,,,,,,,,,,METAR,471.0
KRZR 221515Z AUTO 33009G15KT 300V360 10SM CLR 07/M04 A3030 RMK A01,KRZR,2018-03-22T15:15:00Z,35.22,-84.8,7.0,-4.0,330,9,15,10.0,30.301182,,,TRUE,TRUE,,,,,,,CLR,,,,,,,,VFR,,,,,,,,,,,,SPECI,263.0
KRTS 221515Z AUTO 14007KT 8SM OVC024 04/03 A2976 RMK AO2,KRTS,2018-03-22T15:15:00Z,39.67,-119.88,4.0,3.0,140,7,,8.0,29.760826,,,TRUE,TRUE,,,,,,,OVC,2400,,,,,,,MVFR,,,,,,,,,,,,SPECI,1540.0
KRNC 221515Z AUTO VRB06G12KT 10SM CLR 07/M04 A3033 RMK A01,KRNC,2018-03-22T15:15:00Z,35.7,-85.85,7.0,-4.0,0,6,12,10.0,30.33071,,,TRUE,TRUE,,,,,,,CLR,,,,,,,,VFR,,,,,,,,,,,,SPECI,315.0
KRKW 221515Z AUTO 33008G14KT 310V010 10SM CLR 04/M05 A3027 RMK A01,KRKW,2018-03-22T15:15:00Z,35.92,-84.68,4.0,-5.0,330,8,14,10.0,30.268702,,,TRUE,TRUE,,,,,,,CLR,,,,,,,,VFR,,,,,,,,,,,,METAR,508.0
KPVE 221515Z AUTO 00000G10KT 10SM CLR 09/M04 A3040 RMK A01,KPVE,2018-03-22T15:15:00Z,35.65,-88.2,9.0,-4.0,0,0,10,10.0,30.398623,,,TRUE,TRUE,,,,,,,CLR,,,,,,,,VFR,,,,,,,,,,,,SPECI,149.0
KPHT 221515Z AUTO VRB05KT 10SM CLR 08/M04 A3039 RMK A01,KPHT,2018-03-22T15:15:00Z,36.33,-88.38,8.0,-4.0,0,5,,10.0,30.389763,,,TRUE,TRUE,,,,,,,CLR,,,,,,,,VFR,,,,,,,,,,,,SPECI,177.0
KPCW 221515Z AUTO 34008KT 10SM CLR 01/M07 A3025 RMK AO2,KPCW,2018-03-22T15:15:00Z,41.52,-82.87,1.0,-7.0,340,8,,10.0,30.250984,,,TRUE,TRUE,,,,,,,CLR,,,,,,,,VFR,,,,,,,,,,,,SPECI,178.0
KN38 221515Z AUTO 33018KT 10SM CLR 00/M10 A2995 RMK AO2,KN38,2018-03-22T15:15:00Z,41.73,-77.4,0.0,-10.0,330,18,,10.0,29.949802,,,TRUE,TRUE,,,,,,,CLR,,,,,,,,VFR,,,,,,,,,,,,SPECI,577.0
KMVH 221515Z AUTO 00000KT 10SM SCT100 03/M03 A2996 RMK AO2,KMVH,2018-03-22T15:15:00Z,46.83,-108.93,3.0,-3.0,0,0,,10.0,29.958662,,,TRUE,TRUE,,,,,,,SCT,10000,,,,,,,VFR,,,,,,,,,,,,SPECI,1355.0
KMRC 221515Z AUTO 32004G12KT 10SM CLR 08/M04 A3037 RMK A01,KMRC,2018-03-22T15:15:00Z,35.55,-87.18,8.0,-4.0,320,4,12,10.0,30.369095,,,TRUE,TRUE,,,,,,,CLR,,,,,,,,VFR,,,,,,,,,,,,SPECI,208.0
KMOR 221515Z AUTO VRB04G11KT 10SM CLR 04/M04 A3025 RMK A01,KMOR,2018-03-22T15:15:00Z,36.18,-83.37,4.0,-4.0,0,4,11,10.0,30.250984,,,TRUE,TRUE,,,,,,,CLR,,,,,,,,VFR,,,,,,,,,,,,SPECI,400.0
KMEV 221515Z AUTO 00000KT 5SM -RA SCT022 OVC034 05/05 A2976 RMK AO2 P0002,KMEV,2018-03-22T15:15:00Z,38.98,-119.75,5.0,5.0,0,0,,5.0,29.760826,,,TRUE,TRUE,,,,,,-RA,SCT,2200,OVC,3400,,,,,MVFR,,,,,,0.02,,,,,,SPECI,1439.0
KMCD 221515Z AUTO 33005KT 10SM CLR M02/M14 A3028 RMK AO2 T10211141,KMCD,2018-03-22T15:15:00Z,45.85,-84.63,-2.1,-14.1,330,5,,10.0,30.280512,,,TRUE,TRUE,,,,,,,CLR,,,,,,,,VFR,,,,,,,,,,,,SPECI,226.0
KM91 221515Z AUTO 33005KT 10SM CLR 07/M01 A3036 RMK A01,KM91,2018-03-22T15:15:00Z,36.53,-86.92,7.0,-1.0,330,5,,10.0,30.360237,,,TRUE,TRUE,,,,,,,CLR,,,,,,,,VFR,,,,,,,,,,,,SPECI,215.0
KM75 221515Z AUTO 06009KT 10SM CLR M04/M04 A3002 RMK A01,KM75,2018-03-22T15:15:00Z,48.37,-107.92,-4.0,-4.0,60,9,,10.0,30.02067,,,TRUE,TRUE,,,,,,,CLR,,,,,,,,VFR,,,,,,,,,,,,SPECI,687.0
KM33 221515Z AUTO 30007G13KT 240V330 10SM CLR 07/M04 A3039 RMK A01,KM33,2018-03-22T15:15:00Z,36.38,-86.42,7.0,-4.0,300,7,13,10.0,30.389763,,,TRUE,TRUE,,,,,,,CLR,,,,,,,,VFR,,,,,,,,,,,,SPECI,178.0
KM08 221515Z AUTO 33004KT 10SM CLR 10/M01 A3039 RMK A01,KM08,2018-03-22T15:15:00Z,35.22,-89.05,10.0,-1.0,330,4,,10.0,30.389763,,,TRUE,TRUE,,,,,,,CLR,,,,,,,,VFR,,,,,,,,,,,,SPECI,152.0
KM04 221515Z AUTO 00000KT 10SM CLR 10/00 A3041 RMK A01,KM04,2018-03-22T15:15:00Z,35.58,-89.58,10.0,0.0,0,0,,10.0,30.410433,,,TRUE,TRUE,,,,,,,CLR,,,,,,,,VFR,,,,,,,,,,,,SPECI,85.0
KJWN 221515Z AUTO 32009KT 10SM CLR 07/M04 A3036 RMK A01,KJWN,2018-03-22T15:15:00Z,36.18,-86.88,7.0,-4.0,320,9,,10.0,30.360237,,,TRUE,TRUE,,,,,,,CLR,,,,,,,,VFR,,,,,,,,,,,,SPECI,151.0
KJTC 221515Z AUTO 00000KT 10SM CLR 13/M02 A3031 RMK AO2,KJTC,2018-03-22T15:15:00Z,34.13,-109.32,13.0,-2.0,0,0,,10.0,30.31004,,,TRUE,TRUE,,,,,,,CLR,,,,,,,,VFR,,,,,,,,,,,,SPECI,2150.0
KJAU 221515Z AUTO VRB03G12KT 10SM CLR 05/M05 A3031 RMK A01,KJAU,2018-03-22T15:15:00Z,36.33,-84.17,5.0,-5.0,0,3,12,10.0,30.31004,,,TRUE,TRUE,,,,,,,CLR,,,,,,,,VFR,,,,,,,,,,,,SPECI,360.0
KIMM 221515Z AUTO 32012G18KT 10SM CLR 18/02 A3027 RMK AO2,KIMM,2018-03-22T15:15:00Z,26.43,-81.4,18.0,2.0,320,12,18,10.0,30.268702,,,TRUE,TRUE,,,,,,,CLR,,,,,,,,VFR,,,,,,,,,,,,SPECI,12.0
KIFP 221515Z 00000KT 10SM BKN100 OVC150 18/09 A2997 RMK AO2,KIFP,2018-03-22T15:15:00Z,35.15,-114.57,18.0,9.0,0,0,,10.0,29.970472,,,,TRUE,,,,,,,BKN,10000,OVC,15000,,,,,VFR,,,,,,,,,,,,SPECI,212.0
KHZD 221515Z AUTO 30004KT 10SM CLR 09/M03 A3039 RMK A01,KHZD,2018-03-22T15:15:00Z,36.08,-88.47,9.0,-3.0,300,4,,10.0,30.389763,,,TRUE,TRUE,,,,,,,CLR,,,,,,,,VFR,,,,,,,,,,,,SPECI,151.0
KHTH 221515Z AUTO 17017G24KT 8SM FEW036 FEW044 OVC065 11/03 A2976 RMK A01,KHTH,2018-03-22T15:15:00Z,,,11.0,3.0,170,17,24,8.0,29.760826,,,TRUE,TRUE,,,,,,,FEW,3600,FEW,4400,OVC,6500,,,VFR,,,,,,,,,,,,SPECI,
KHLB 221515Z AUTO 10SM FEW019 M00/M04 A3031 RMK A01,KHLB,2018-03-22T15:15:00Z,,,0.0,-4.0,,,,10.0,30.31004,,,TRUE,TRUE,,,,,,,FEW,1900,,,,,,,VFR,,,,,,,,,,,,SPECI,
KGZS 221515Z AUTO 01009KT 330V040 10SM CLR 09/M02 A3038 RMK A01,KGZS,2018-03-22T15:15:00Z,35.15,-87.05,9.0,-2.0,10,9,,10.0,30.380905,,,TRUE,TRUE,,,,,,,CLR,,,,,,,,VFR,,,,,,,,,,,,SPECI,209.0
KGKT 221515Z AUTO VRB03KT 10SM CLR 06/M04 A3028 RMK A01,KGKT,2018-03-22T15:15:00Z,35.85,-83.53,6.0,-4.0,0,3,,10.0,30.280512,,,TRUE,TRUE,,,,,,,CLR,,,,,,,,VFR,,,,,,,,,,,,SPECI,309.0
KFYM 221515Z AUTO 36009G16KT 310V030 10SM CLR 08/M02 A3035 RMK A01,KFYM,2018-03-22T15:15:00Z,35.07,-86.57,8.0,-2.0,360,9,16,10.0,30.351377,,,TRUE,TRUE,,,,,,,CLR,,,,,,,,VFR,,,,,,,,,,,,SPECI,300.0
KFYE 221515Z AUTO 02005KT 10SM CLR 10/M01 A3039 RMK A01,KFYE,2018-03-22T15:15:00Z,35.2,-89.38,10.0,-1.0,20,5,,10.0,30.389763,,,TRUE,TRUE,,,,,,,CLR,,,,,,,,VFR,,,,,,,,,,,,SPECI,133.0
KFTN 221515Z AUTO 15014G21KT 10SM CLR 22/15 A3022 RMK A01,KFTN,2018-03-22T15:15:00Z,28.22,-100.02,22.0,15.0,150,14,21,10.0,30.221457,,,TRUE,TRUE,,,,,,,CLR,,,,,,,,VFR,,,,,,,,,,,,SPECI,236.0
KFOT 221515Z AUTO 32007KT 5SM BKN004 BKN008 BKN021 05/05 A2979 RMK AO1 P0001,KFOT,2018-03-22T15:15:00Z,40.55,-124.13,5.0,5.0,320,7,,5.0,29.790354,,,TRUE,TRUE,,,,,,,BKN,400,BKN,800,BKN,2100,,,LIFR,,,,,,0.01,,,,,,SPECI,120.0
KFCH 221515Z AUTO 12011KT 8SM SCT060 BKN070 BKN090 15/15 A2986 RMK A01,KFCH,2018-03-22T15:15:00Z,36.72,-119.82,15.0,15.0,120,11,,8.0,29.861221,,,TRUE,TRUE,,,,,,,SCT,6000,BKN,7000,BKN,9000,,,VFR,,,,,,,,,,,,SPECI,85.0
KEKS 221515Z AUTO 17017G23KT 10SM BKN090 06/01 A2992 RMK AO2,KEKS,2018-03-22T15:15:00Z,45.27,-111.65,6.0,1.0,170,17,23,10.0,29.920275,,,TRUE,TRUE,,,,,,,BKN,9000,,,,,,,VFR,,,,,,,,,,,,SPECI,1641.0
KEDU 221515Z AUTO 20011G16KT 5SM FEW012 BKN018 OVC065 14/13 A2973 RMK AO1 P0001,KEDU,2018-03-22T15:15:00Z,38.53,-121.78,14.0,13.0,200,11,16,5.0,29.731298,,,TRUE,TRUE,,,,,,,FEW,1200,BKN,1800,OVC,6500,,,MVFR,,,,,,0.01,,,,,,SPECI,21.0
KE16 221515Z AUTO 20013G20KT 1 1/4SM BR BKN015 OVC025 14/13 A2982 RMK AO2 PWINO PNO,KE16,2018-03-22T15:15:00Z,37.08,-121.6,14.0,13.0,200,13,20,1.25,29.819881,,,TRUE,TRUE,,,,,TRUE,BR,BKN,1500,OVC,2500,,,,,IFR,,,,,,,,,,,,SPECI,86.0
KDKX 221515Z AUTO 23004KT 10SM CLR 06/M02 A3030 RMK A01,KDKX,2018-03-22T15:15:00Z,35.97,-83.87,6.0,-2.0,230,4,,10.0,30.301182,,,TRUE,TRUE,,,,,,,CLR,,,,,,,,VFR,,,,,,,,,,,,SPECI,254.0
KCRX 221515Z AUTO VRB03KT 10SM CLR 10/M01 A3040 RMK AO2,KCRX,2018-03-22T15:15:00Z,34.92,-88.6,10.0,-1.0,0,3,,10.0,30.398623,,,TRUE,TRUE,,,,,,,CLR,,,,,,,,VFR,,,,,,,,,,,,SPECI,130.0
KCQM 221515Z AUTO 00000KT 10SM M02/M07 A3035 RMK AO2,KCQM,2018-03-22T15:15:00Z,47.82,-92.68,-2.0,-7.0,0,0,,10.0,30.351377,,,TRUE,TRUE,,,,,,,,,,,,,,,,,,,,,,,,,,,SPECI,404.0
KCCB 221515Z AUTO 01005KT 10SM FEW050 SCT075 BKN085 16/12 A3001 RMK AO2,KCCB,2018-03-22T15:15:00Z,34.12,-117.68,16.0,12.0,10,5,,10.0,30.008858,,,TRUE,TRUE,,,,,,,FEW,5000,SCT,7500,BKN,8500,,,VFR,,,,,,,,,,,,METAR,440.0
KC83 221515Z AUTO 20009G15KT 4SM -RA FEW037 SCT045 BKN055 15/14 A2975 RMK AO2,KC83,2018-03-22T15:15:00Z,37.83,-121.62,15.0,14.0,200,9,15,4.0,29.749016,,,TRUE,TRUE,,,,,,-RA,FEW,3700,SCT,4500,BKN,5500,,,MVFR,,,,,,,,,,,,METAR,24.0
KC65 221515Z AUTO 35010KT 10SM CLR 03/M05 A3031 RMK A01,KC65,2018-03-22T15:15:00Z,41.37,-86.3,3.0,-5.0,350,10,,10.0,30.31004,,,TRUE,TRUE,,,,,,,CLR,,,,,,,,VFR,,,,,,,,,,,,METAR,244.0
KBDH 221515Z AUTO 12008KT 10SM OVC028 02/M02 A3036 RMK AO2,KBDH,2018-03-22T15:15:00Z,45.12,-95.13,2.0,-2.0,120,8,,10.0,30.360237,,,TRUE,TRUE,,,,,,,OVC,2800,,,,,,,MVFR,,,,,,,,,,,,SPECI,247.0
KAVK 221515Z AUTO 16012KT 10SM CLR 13/01 A3013 RMK AO2,KAVK,2018-03-22T15:15:00Z,36.77,-98.67,13.0,1.0,160,12,,10.0,30.129921,,,TRUE,TRUE,,,,,,,CLR,,,,,,,,VFR,,,,,,,,,,,,SPECI,449.0
K6S0 221515Z AUTO 04003KT 10SM FEW085 03/M02 A2994 RMK A01,K6S0,2018-03-22T15:15:00Z,45.8,-109.97,3.0,-2.0,40,3,,10.0,29.940945,,,TRUE,TRUE,,,,,,,FEW,8500,,,,,,,VFR,,,,,,,,,,,,METAR,1363.0
K65S 221515Z AUTO 00000KT 10SM BKN040 OVC047 04/04 A2971 RMK AO2,K65S,2018-03-22T15:15:00Z,48.73,-116.3,4.0,4.0,0,0,,10.0,29.71063,,,TRUE,TRUE,,,,,,,BKN,4000,OVC,4700,,,,,VFR,,,,,,,,,,,,SPECI,713.0
K5T9 221515Z AUTO 14011KT 10SM CLR 19/13 A3022 RMK A01,K5T9,2018-03-22T15:15:00Z,28.85,-100.52,19.0,13.0,140,11,,10.0,30.221457,,,TRUE,TRUE,,,,,,,CLR,,,,,,,,VFR,,,,,,,,,,,,SPECI,270.0
K54A 221515Z AUTO 36007G17KT 320V050 10SM CLR 16/03 A3026 RMK AO2,K54A,2018-03-22T15:15:00Z,,,16.0,3.0,360,7,17,10.0,30.259842,,,TRUE,TRUE,,,,,,,CLR,,,,,,,,VFR,,,,,,,,,,,,METAR,
K3S8 221515Z AUTO 00000KT 7SM OVC026 05/03 A2969 RMK AO2,K3S8,2018-03-22T15:15:00Z,42.5,-123.4,5.0,3.0,0,0,,7.0,29.68996,,,TRUE,TRUE,,,,,,,OVC,2600,,,,,,,MVFR,,,,,,,,,,,,SPECI,343.0
K3L4 221515Z AUTO 11009KT 10SM CLR 18/09 A3037 RMK A01,K3L4,2018-03-22T15:15:00Z,29.8,-92.8,18.0,9.0,110,9,,10.0,30.369095,,,TRUE,TRUE,,,,,,,CLR,,,,,,,,VFR,,,,,,,,,,,,METAR,2.0
K2LS 221515Z AUTO 08008G13KT 050V110 10SM CLR 16/03 A3041 RMK AO2,K2LS,2018-03-22T15:15:00Z,,,16.0,3.0,80,8,13,10.0,30.410433,,,TRUE,TRUE,,,,,,,CLR,,,,,,,,VFR,,,,,,,,,,,,METAR,
K2A0 221515Z AUTO 30011G17KT 10SM CLR 08/M03 A3030 RMK A01,K2A0,2018-03-22T15:15:00Z,35.48,-84.93,8.0,-3.0,300,11,17,10.0,30.301182,,,TRUE,TRUE,,,,,,,CLR,,,,,,,,VFR,,,,,,,,,,,,SPECI,219.0
K24A 221515Z AUTO 33007KT 250V020 10SM CLR 03/M07 A3017 RMK AO2 T00251073,K24A,2018-03-22T15:15:00Z,35.32,-83.2,2.5,-7.3,330,7,,10.0,30.171259,,,TRUE,TRUE,,,,,,,CLR,,,,,,,,VFR,,,,,,,,,,,,SPECI,871.0
K1M5 221515Z AUTO 33005G10KT 10SM CLR 06/M02 A3036 RMK A01,K1M5,2018-03-22T15:15:00Z,36.6,-86.48,6.0,-2.0,330,5,10,10.0,30.360237,,,TRUE,TRUE,,,,,,,CLR,,,,,,,,VFR,,,,,,,,,,,,SPECI,250.0
K0A9 221515Z AUTO 30010KT 10SM BKN028 BKN034 03/M03 A3021 RMK AO2,K0A9,2018-03-22T15:15:00Z,36.37,-82.17,3.0,-3.0,300,10,,10.0,30.209646,,,TRUE,TRUE,,,,,,,BKN,2800,BKN,3400,,,,,MVFR,,,,,,,,,,,,SPECI,486.0
K05U 221515Z AUTO 17014G24KT 10SM SCT031 BKN044 OVC095 10/05 A2984 RMK A01,K05U,2018-03-22T15:15:00Z,39.6,-116.0,10.0,5.0,170,14,24,10.0,29.840551,,,TRUE,TRUE,,,,,,,SCT,3100,BKN,4400,OVC,9500,,,VFR,,,,,,,,,,,,SPECI,1816.0
CWPF 221515Z AUTO 19005KT 07/05 RMK AO1 T00740048,CWPF,2018-03-22T15:15:00Z,48.43,-123.43,7.4,4.8,190,5,,,,,,TRUE,TRUE,,,,,,,,,,,,,,,,,,,,,,,,,,,METAR,12.0
KPEZ 221515Z AUTO 15007KT 10SM CLR 20/14 A3028 RMK AO2 T01980144,KPEZ,2018-03-22T15:15:00Z,28.95,-98.52,19.8,14.4,150,7,,10.0,30.280512,,,TRUE,TRUE,,,,,,,CLR,,,,,,,,VFR,,,,,,,,,,,,SPECI,132.0
KPEX 221515Z AUTO 12004KT 10SM BKN028 OVC035 01/M01 A3035 RMK AO2 T00131015,KPEX,2018-03-22T15:15:00Z,45.37,-94.73,1.3,-1.5,120,4,,10.0,30.351377,,,TRUE,TRUE,,,,,,,BKN,2800,OVC,3500,,,,,MVFR,,,,,,,,,,,,SPECI,360.0
KPCZ 221515Z AUTO 02003KT 10SM CLR 01/M08 A3035 RMK AO2 T00131081,KPCZ,2018-03-22T15:15:00Z,44.33,-89.02,1.3,-8.1,20,3,,10.0,30.351377,,,TRUE,TRUE,,,,,,,CLR,,,,,,,,VFR,,,,,,,,,,,,SPECI,252.0
KPCM 221515Z AUTO 34009G14KT 10SM CLR 15/M02 A3029 RMK AO2,KPCM,2018-03-22T15:15:00Z,28.0,-82.17,15.0,-2.0,340,9,14,10.0,30.28937,,,TRUE,TRUE,,,,,,,CLR,,,,,,,,VFR,,,,,,,,,,,,SPECI,47.0
KPCD 221515Z AUTO 10SM CLR 06/00 A3039 RMK AO2 T00570003 PWINO,KPCD,2018-03-22T15:15:00Z,37.87,-89.87,5.7,0.3,,,,10.0,30.389763,,,TRUE,TRUE,,,,,TRUE,,CLR,,,,,,,,VFR,,,,,,,,,,,,SPECI,113.0
KPBH 221515Z AUTO 36004KT 10SM CLR M03/M12 A3033 RMK AO2 T10291124,KPBH,2018-03-22T15:15:00Z,45.7,-90.4,-2.9,-12.4,360,4,,10.0,30.33071,,,TRUE,TRUE,,,,,,,CLR,,,,,,,,VFR,,,,,,,,,,,,SPECI,449.0
KOZS 221515Z AUTO 12006KT 10SM CLR 08/00 A3035 RMK AO2,KOZS,2018-03-22T15:15:00Z,37.97,-92.68,8.0,0.0,120,6,,10.0,30.351377,,,TRUE,TRUE,,,,,,,CLR,,,,,,,,VFR,,,,,,,,,,,,SPECI,324.0
KOWP 221515Z AUTO 16011G16KT 10SM BKN110 16/M01 A3025 RMK AO2 T01561008,KOWP,2018-03-22T15:15:00Z,36.18,-96.15,15.6,-0.8,160,11,16,10.0,30.250984,,,TRUE,TRUE,,,,,,,BKN,11000,,,,,,,VFR,,,,,,,,,,,,SPECI,272.0
KOVL 221515Z AUTO 12006KT 10SM OVC042 01/M01 A3033 RMK AO2,KOVL,2018-03-22T15:15:00Z,44.78,-95.03,1.0,-1.0,120,6,,10.0,30.33071,,,TRUE,TRUE,,,,,,,OVC,4200,,,,,,,VFR,,,,,,,,,,,,SPECI,328.0
KORG 221515Z AUTO 11007KT 10SM CLR 19/12 A3038 RMK AO2 T01850116,KORG,2018-03-22T15:15:00Z,30.07,-93.8,18.5,11.6,110,7,,10.0,30.380905,,,TRUE,TRUE,,,,,,,CLR,,,,,,,,VFR,,,,,,,,,,,,SPECI,4.0
KOOA 221515Z AUTO 17007KT 10SM SCT065 SCT120 05/M02 A3036 RMK AO2 T00451019,KOOA,2018-03-22T15:15:00Z,41.23,-92.5,4.5,-1.9,170,7,,10.0,30.360237,,,TRUE,TRUE,,,,,,,SCT,6500,SCT,12000,,,,,VFR,,,,,,,,,,,,SPECI,256.0
KOKZ 221515Z AUTO 31007KT CLR 09/M04 A3024 RMK AO2 T00931037 PWINO,KOKZ,2018-03-22T15:15:00Z,32.97,-82.83,9.3,-3.7,310,7,,,30.239174,,,TRUE,TRUE,,,,,TRUE,,CLR,,,,,,,,,,,,,,,,,,,,SPECI,134.0
KOJA 221515Z AUTO 17016G20KT 10SM CLR 15/02 A3013 RMK AO2,KOJA,2018-03-22T15:15:00Z,35.55,-98.67,15.0,2.0,170,16,20,10.0,30.129921,,,TRUE,TRUE,,,,,,,CLR,,,,,,,,VFR,,,,,,,,,,,,SPECI,490.0
KOBE 221515Z AUTO 36008KT 10SM CLR 15/01 A3025 RMK AO2,KOBE,2018-03-22T15:15:00Z,27.27,-80.85,15.0,1.0,360,8,,10.0,30.250984,,,TRUE,TRUE,,,,,,,CLR,,,,,,,,VFR,,,,,,,,,,,,SPECI,11.0
KMZH 221515Z AUTO 00000KT 10SM OVC080 00/M08 A3035 RMK AO2,KMZH,2018-03-22T15:15:00Z,46.42,-92.8,0.0,-8.0,0,0,,10.0,30.351377,,,TRUE,TRUE,,,,,,,OVC,8000,,,,,,,VFR,,,,,,,,,,,,SPECI,328.0
KMWM 221515Z AUTO 11009KT 10SM OVC050 02/M07 A3029 RMK AO2,KMWM,2018-03-22T15:15:00Z,43.9,-95.1,2.0,-7.0,110,9,,10.0,30.28937,,,TRUE,TRUE,,,,,,,OVC,5000,,,,,,,VFR,,,,,,,,,,,,SPECI,430.0
KMPZ 221515Z AUTO 15003KT 10SM BKN120 04/M02 A3038 RMK AO2,KMPZ,2018-03-22T15:15:00Z,40.95,-91.52,4.0,-2.0,150,3,,10.0,30.380905,,,TRUE,TRUE,,,,,,,BKN,12000,,,,,,,VFR,,,,,,,,,,,,SPECI,224.0
KMOX 221515Z AUTO 13010KT 10SM OVC042 02/M01 A3031 RMK AO2,KMOX,2018-03-22T15:15:00Z,45.57,-95.97,2.0,-1.0,130,10,,10.0,30.31004,,,TRUE,TRUE,,,,,,,OVC,4200,,,,,,,VFR,,,,,,,,,,,,SPECI,344.0
KMNE 221515Z AUTO 15006KT 10SM CLR 16/04 A3039 RMK AO2 T01600038,KMNE,2018-03-22T15:15:00Z,32.65,-93.3,16.0,3.8,150,6,,10.0,30.389763,,,TRUE,TRUE,,,,,,,CLR,,,,,,,,VFR,,,,,,,,,,,,SPECI,85.0
KMMH 221515Z AUTO 27005KT 2 1/2SM -SN SCT008 OVC017 01/01 A2989 RMK AO2 P0004 T00110011,KMMH,2018-03-22T15:15:00Z,37.62,-118.82,1.1,1.1,270,5,,2.5,29.890747,,,TRUE,TRUE,,,,,,-SN,SCT,800,OVC,1700,,,,,IFR,,,,,,0.04,,,,,,SPECI,2173.0
KMLJ 221515Z AUTO 31007KT 10SM CLR 10/M02 A3026 RMK AO2,KMLJ,2018-03-22T15:15:00Z,33.15,-83.23,10.0,-2.0,310,7,,10.0,30.259842,,,TRUE,TRUE,,,,,,,CLR,,,,,,,,VFR,,,,,,,,,,,,SPECI,117.0
KMGC 221515Z AUTO 03010KT 10SM CLR 02/M07 A3035 RMK AO2,KMGC,2018-03-22T15:15:00Z,41.7,-86.82,2.0,-7.0,30,10,,10.0,30.351377,,,TRUE,TRUE,,,,,,,CLR,,,,,,,,VFR,,,,,,,,,,,,SPECI,200.0
KMFV 221515Z AUTO 32017G26KT 10SM CLR 05/M01 A2997 RMK AO2 T00521009,KMFV,2018-03-22T15:15:00Z,37.63,-75.77,5.2,-0.9,320,17,26,10.0,29.970472,,,TRUE,TRUE,,,,,,,CLR,,,,,,,,VFR,,,,,,,,,,,,SPECI,15.0
KMEZ 221515Z AUTO 00000KT 10SM SCT120 13/02 A3036 RMK AO2,KMEZ,2018-03-22T15:15:00Z,34.55,-94.2,13.0,2.0,0,0,,10.0,30.360237,,,TRUE,TRUE,,,,,,,SCT,12000,,,,,,,VFR,,,,,,,,,,,,SPECI,329.0
KLYV 221515Z AUTO 11008KT 10SM CLR 02/00 A3025 RMK AO2,KLYV,2018-03-22T15:15:00Z,43.62,-96.22,2.0,0.0,110,8,,10.0,30.250984,,,TRUE,TRUE,,,,,,,CLR,,,,,,,,VFR,,,,,,,,,,,,SPECI,436.0
KLXY 221515Z AUTO 17010G16KT 10SM CLR 17/10 A3031 RMK AO2 T01690096,KLXY,2018-03-22T15:15:00Z,31.63,-96.52,16.9,9.6,170,10,16,10.0,30.31004,,,TRUE,TRUE,,,,,,,CLR,,,,,,,,VFR,,,,,,,,,,,,SPECI,166.0
KLUM 221515Z AUTO 07003KT 10SM OVC075 M01/M05 A3038 RMK AO2 T10061055,KLUM,2018-03-22T15:15:00Z,44.9,-91.87,-0.6,-5.5,70,3,,10.0,30.380905,,,TRUE,TRUE,,,,,,,OVC,7500,,,,,,,VFR,,,,,,,,,,,,SPECI,273.0
KLUA 221515Z AUTO 31007KT 10SM CLR 03/M07 A3006 RMK AO2,KLUA,2018-03-22T15:15:00Z,38.67,-78.5,3.0,-7.0,310,7,,10.0,30.059055,,,TRUE,TRUE,,,,,,,CLR,,,,,,,,VFR,,,,,,,,,,,,SPECI,275.0
KLRU 221515Z AUTO 00000KT 10SM CLR 17/M02 A3023 RMK AO2 T01661025,KLRU,2018-03-22T15:15:00Z,32.27,-106.92,16.6,-2.5,0,0,,10.0,30.230314,,,TRUE,TRUE,,,,,,,CLR,,,,,,,,VFR,,,,,,,,,,,,SPECI,1358.0
KLNL 221515Z AUTO 36006KT 10SM CLR M03/M14 A3033 RMK AO2 T10301144,KLNL,2018-03-22T15:15:00Z,46.15,-89.22,-3.0,-14.4,360,6,,10.0,30.33071,,,TRUE,TRUE,,,,,,,CLR,,,,,,,,VFR,,,,,,,,,,,,SPECI,520.0
KLNA 221515Z AUTO 33008KT 10SM CLR 17/01 A3023 RMK AO2 T01700014,KLNA,2018-03-22T15:15:00Z,26.6,-80.02,17.0,1.4,330,8,,10.0,30.230314,,,TRUE,TRUE,,,,,,,CLR,,,,,,,,VFR,,,,,,,,,,,,METAR,11.0
KLMO 221515Z AUTO 00000KT 10SM SCT090 12/00 A3012 RMK AO2 T01191001,KLMO,2018-03-22T15:15:00Z,40.17,-105.17,11.9,-0.1,0,0,,10.0,30.121063,,,TRUE,TRUE,,,,,,,SCT,9000,,,,,,,VFR,,,,,,,,,,,,SPECI,1541.0
KLHB 221515Z AUTO 14008KT 10SM CLR 16/10 A3033 RMK AO2 T01610100,KLHB,2018-03-22T15:15:00Z,30.87,-96.62,16.1,10.0,140,8,,10.0,30.33071,,,TRUE,TRUE,,,,,,,CLR,,,,,,,,VFR,,,,,,,,,,,,SPECI,87.0
KLAM 221515Z AUTO 02003KT 10SM CLR 10/M05 A3030 RMK AO2 T00961054,KLAM,2018-03-22T15:15:00Z,35.87,-106.27,9.6,-5.4,20,3,,10.0,30.301182,,,TRUE,TRUE,,,,,,,CLR,,,,,,,,VFR,,,,,,,,,,,,SPECI,2179.0
KL18 221515Z AUTO 00000KT 10SM BKN120 15/11 A3004 RMK AO2,KL18,2018-03-22T15:15:00Z,33.35,-117.25,15.0,11.0,0,0,,10.0,30.041338,,,TRUE,TRUE,,,,,,,BKN,12000,,,,,,,VFR,,,,,,,,,,,,SPECI,216.0
KK88 221515Z AUTO 15011KT 10SM 12/01 A3027 RMK AO1 T01170008,KK88,2018-03-22T15:15:00Z,37.87,-95.38,11.7,0.8,150,11,,10.0,30.268702,,,TRUE,TRUE,,,,,,,,,,,,,,,,,,,,,,,,,,,SPECI,309.0
KJYL 221515Z AUTO 33011G15KT 10SM CLR 10/00 A3022 RMK AO2 T01000002,KJYL,2018-03-22T15:15:00Z,32.65,-81.6,10.0,0.2,330,11,15,10.0,30.221457,,,TRUE,TRUE,,,,,,,CLR,,,,,,,,VFR,,,,,,,,,,,,SPECI,57.0
KJXI 221515Z AUTO 13003KT 10SM BKN110 17/04 A3034 RMK AO2 T01680035,KJXI,2018-03-22T15:15:00Z,32.7,-94.95,16.8,3.5,130,3,,10.0,30.339567,,,TRUE,TRUE,,,,,,,BKN,11000,,,,,,,VFR,,,,,,,,,,,,SPECI,127.0
KW31 221515Z AUTO 31010G18KT 10SM CLR 06/M04 A3007 RMK AO1 T00551045,KW31,2018-03-22T15:15:00Z,36.95,-78.18,5.5,-4.5,310,10,18,10.0,30.070866,,,TRUE,TRUE,,,,,,,CLR,,,,,,,,VFR,,,,,,,,,,,,SPECI,162.0
KVJI 221515Z AUTO 26009KT 10SM SCT025 BKN030 BKN036 02/M02 A3018 RMK AO2 T00231024,KVJI,2018-03-22T15:15:00Z,36.67,-82.02,2.3,-2.4,260,9,,10.0,30.180119,,,TRUE,TRUE,,,,,,,SCT,2500,BKN,3000,BKN,3600,,,MVFR,,,,,,,,,,,,SPECI,631.0
KUVA 221515Z AUTO 14011G15KT 10SM SCT016 SCT025 18/14 A3026 RMK AO2 T01810140,KUVA,2018-03-22T15:15:00Z,29.22,-99.75,18.1,14.0,140,11,15,10.0,30.259842,,,TRUE,TRUE,,,,,,,SCT,1600,SCT,2500,,,,,VFR,,,,,,,,,,,,SPECI,287.0
KUTA 221515Z AUTO 04003KT 10SM 11/01 A3041 RMK AO2 TSNO,KUTA,2018-03-22T15:15:00Z,34.68,-90.35,11.0,1.0,40,3,,10.0,30.410433,,,TRUE,TRUE,,,TRUE,,,,,,,,,,,,,,,,,,,,,,,,SPECI,59.0
KUOX 221515Z AUTO 35004KT 10SM CLR 10/02 A3041 RMK AO2,KUOX,2018-03-22T15:15:00Z,34.38,-89.53,10.0,2.0,350,4,,10.0,30.410433,,,TRUE,TRUE,,,,,,,CLR,,,,,,,,VFR,,,,,,,,,,,,SPECI,137.0
KTYQ 221515Z AUTO 34013G17KT 10SM SCT020 01/M04 A3032 RMK AO2 T00121038,KTYQ,2018-03-22T15:15:00Z,40.03,-86.25,1.2,-3.8,340,13,17,10.0,30.318897,,,TRUE,TRUE,,,,,,,SCT,2000,,,,,,,VFR,,,,,,,,,,,,SPECI,281.0
KTSP 221515Z AUTO 21013G28KT 8SM -RA OVC100 12/06 A2996 RMK AO2,KTSP,2018-03-22T15:15:00Z,35.13,-118.43,12.0,6.0,210,13,28,8.0,29.958662,,,TRUE,TRUE,,,,,,-RA,OVC,10000,,,,,,,VFR,,,,,,,,,,,,SPECI,1220.0
KTQH 221515Z AUTO 16008KT 10SM CLR 13/01 A3030 RMK AO2,KTQH,2018-03-22T15:15:00Z,35.93,-95.0,13.0,1.0,160,8,,10.0,30.301182,,,TRUE,TRUE,,,,,,,CLR,,,,,,,,VFR,,,,,,,,,,,,SPECI,266.0
KTNB 221515Z AUTO 30014G25KT 250V320 10SM CLR M01/M07 A3008 RMK AO2 T10121071,KTNB,2018-03-22T15:15:00Z,36.2,-81.65,-1.2,-7.1,300,14,25,10.0,30.079725,,,TRUE,TRUE,,,,,,,CLR,,,,,,,,VFR,,,,,,,,,,,,SPECI,911.0
KTEX 221515Z AUTO 00000KT 10SM SCT120 08/M02 A3033 RMK AO2 T00781016,KTEX,2018-03-22T15:15:00Z,37.95,-107.9,7.8,-1.6,0,0,,10.0,30.33071,,,TRUE,TRUE,,,,,,,SCT,12000,,,,,,,VFR,,,,,,,,,,,,SPECI,2769.0
KSZT 221515Z AUTO 04011G14KT 10SM -RA OVC060 05/04 A2968 RMK AO2,KSZT,2018-03-22T15:15:00Z,48.3,-116.57,5.0,4.0,40,11,14,10.0,29.681103,,,TRUE,TRUE,,,,,,-RA,OVC,6000,,,,,,,VFR,,,,,,,,,,,,SPECI,648.0
KSYN 221515Z AUTO 08005KT 10SM OVC030 02/M03 A3036 RMK AO2 T00221027,KSYN,2018-03-22T15:15:00Z,44.47,-93.02,2.2,-2.7,80,5,,10.0,30.360237,,,TRUE,TRUE,,,,,,,OVC,3000,,,,,,,MVFR,,,,,,,,,,,,SPECI,280.0
KSYF 221515Z AUTO 29003KT 10SM CLR 07/M01 A3009 RMK AO2 T00701010,KSYF,2018-03-22T15:15:00Z,39.77,-101.8,7.0,-1.0,290,3,,10.0,30.088583,,,TRUE,TRUE,,,,,,,CLR,,,,,,,,VFR,,,,,,,,,,,,SPECI,1025.0
KSVE 221515Z AUTO 17003KT 1 1/2SM RA SCT001 BKN016 OVC020 04/04 A2969 RMK AO2,KSVE,2018-03-22T15:15:00Z,40.37,-120.57,4.0,4.0,170,3,,1.5,29.68996,,,TRUE,TRUE,,,,,,RA,SCT,100,BKN,1600,OVC,2000,,,IFR,,,,,,,,,,,,SPECI,1263.0
KSUW 221515Z AUTO 00000KT 10SM OVC060 M03/M07 A3040 RMK AO2 T10341067,KSUW,2018-03-22T15:15:00Z,46.68,-92.1,-3.4,-6.7,0,0,,10.0,30.398623,,,TRUE,TRUE,,,,,,,OVC,6000,,,,,,,VFR,,,,,,,,,,,,SPECI,206.0
KSNK 221515Z AUTO 19016KT 10SM CLR 16/07 A3016 RMK AO2 T01630071,KSNK,2018-03-22T15:15:00Z,32.7,-100.95,16.3,7.1,190,16,,10.0,30.159449,,,TRUE,TRUE,,,,,,,CLR,,,,,,,,VFR,,,,,,,,,,,,SPECI,741.0
KSLO 221515Z AUTO 00000KT 10SM CLR 07/M05 A3038 RMK AO2 T00661052,KSLO,2018-03-22T15:15:00Z,38.65,-88.97,6.6,-5.2,0,0,,10.0,30.380905,,,TRUE,TRUE,,,,,,,CLR,,,,,,,,VFR,,,,,,,,,,,,SPECI,175.0
KSLH 221515Z AUTO 34006KT 10SM CLR M01/M11 A3028 RMK AO2 T10121109,KSLH,2018-03-22T15:15:00Z,45.65,-84.52,-1.2,-10.9,340,6,,10.0,30.280512,,,TRUE,TRUE,,,,,,,CLR,,,,,,,,VFR,,,,,,,,,,,,SPECI,195.0
KSCD 221515Z AUTO 34008G14KT 300V360 10SM BKN110 09/00 A3037 RMK AO2 T00940000,KSCD,2018-03-22T15:15:00Z,33.17,-86.3,9.4,0.0,340,8,14,10.0,30.369095,,,TRUE,TRUE,,,,,,,BKN,11000,,,,,,,VFR,,,,,,,,,,,,SPECI,173.0
KSAR 221515Z AUTO 00000KT 10SM CLR 06/01 A3040 RMK AO2 T00590005,KSAR,2018-03-22T15:15:00Z,38.15,-89.7,5.9,0.5,0,0,,10.0,30.398623,,,TRUE,TRUE,,,,,,,CLR,,,,,,,,VFR,,,,,,,,,,,,SPECI,164.0
KRZL 221515Z AUTO 32009KT 291V351 10SM CLR 03/M07 A3035 RMK AO2,KRZL,2018-03-22T15:15:00Z,40.95,-87.18,3.0,-7.0,320,9,,10.0,30.351377,,,TRUE,TRUE,,,,,,,CLR,,,,,,,,VFR,,,,,,,,,,,,SPECI,213.0
KRSV 221515Z AUTO 00000KT 10SM CLR 03/M04 A3040 RMK AO2 T00311045,KRSV,2018-03-22T15:15:00Z,39.02,-87.65,3.1,-4.5,0,0,,10.0,30.398623,,,TRUE,TRUE,,,,,,,CLR,,,,,,,,VFR,,,,,,,,,,,,SPECI,141.0
KRSN 221515Z AUTO 00000KT 10SM CLR 15/02 A3043 RMK AO2 T01460021,KRSN,2018-03-22T15:15:00Z,32.52,-92.58,14.6,2.1,0,0,,10.0,30.431103,,,TRUE,TRUE,,,,,,,CLR,,,,,,,,VFR,,,,,,,,,,,,SPECI,95.0
KRRL 221515Z AUTO 04005KT 10SM CLR M01/M10 A3034 RMK AO2 T10121102,KRRL,2018-03-22T15:15:00Z,45.2,-89.72,-1.2,-10.2,40,5,,10.0,30.339567,,,TRUE,TRUE,,,,,,,CLR,,,,,,,,VFR,,,,,,,,,,,,SPECI,401.0
KRQB 221515Z AUTO 33009KT 10SM CLR 00/M14 A3028 RMK AO2 T00011143,KRQB,2018-03-22T15:15:00Z,43.72,-85.5,0.1,-14.3,330,9,,10.0,30.280512,,,TRUE,TRUE,,,,,,,CLR,,,,,,,,VFR,,,,,,,,,,,,SPECI,302.0
KRFI 221515Z AUTO 13003KT 10SM CLR 18/06 A3035 RMK AO2 T01810059,KRFI,2018-03-22T15:15:00Z,32.15,-94.85,18.1,5.9,130,3,,10.0,30.351377,,,TRUE,TRUE,,,,,,,CLR,,,,,,,,VFR,,,,,,,,,,,,SPECI,135.0
KRCX 221515Z AUTO 00000KT 10SM SCT080 M02/M09 A3037 RMK AO2 T10171086,KRCX,2018-03-22T15:15:00Z,45.5,-91.0,-1.7,-8.6,0,0,,10.0,30.369095,,,TRUE,TRUE,,,,,,,SCT,8000,,,,,,,VFR,,,,,,,,,,,,SPECI,377.0
KPYX 221515Z AUTO 23010KT 10SM CLR 13/02 A3007 RMK AO2 T01300016,KPYX,2018-03-22T15:15:00Z,36.42,-100.75,13.0,1.6,230,10,,10.0,30.070866,,,TRUE,TRUE,,,,,,,CLR,,,,,,,,VFR,,,,,,,,,,,,SPECI,889.0
KPVJ 221515Z AUTO 16011G17KT 10SM CLR 15/03 A3022 RMK AO2 T01540030,KPVJ,2018-03-22T15:15:00Z,34.72,-97.22,15.4,3.0,160,11,17,10.0,30.221457,,,TRUE,TRUE,,,,,,,CLR,,,,,,,,VFR,,,,,,,,,,,,SPECI,295.0
KPVF 221515Z AUTO 16014G25KT 10SM BKN006 BKN012 10/10 A2973 RMK AO1,KPVF,2018-03-22T15:15:00Z,38.72,-120.75,10.0,10.0,160,14,25,10.0,29.731298,,,TRUE,TRUE,,,,,,,BKN,600,BKN,1200,,,,,IFR,,,,,,,,,,,,SPECI,789.0
KPUJ 221515Z AUTO 35009G18KT 10SM CLR 08/00 A3029 RMK AO2,KPUJ,2018-03-22T15:15:00Z,33.92,-84.93,8.0,0.0,350,9,18,10.0,30.28937,,,TRUE,TRUE,,,,,,,CLR,,,,,,,,VFR,,,,,,,,,,,,SPECI,393.0
KPTB 221515Z AUTO 31013G21KT 280V350 10SM CLR 06/M06 A3006 RMK AO2 T00621056,KPTB,2018-03-22T15:15:00Z,37.17,-77.52,6.2,-5.6,310,13,21,10.0,30.059055,,,TRUE,TRUE,,,,,,,CLR,,,,,,,,VFR,,,,,,,,,,,,SPECI,59.0
KPSN 221515Z AUTO 13006KT 10SM CLR 17/09 A3034 RMK AO2 T01780093,KPSN,2018-03-22T15:15:00Z,31.78,-95.7,17.8,9.3,130,6,,10.0,30.339567,,,TRUE,TRUE,,,,,,,CLR,,,,,,,,VFR,,,,,,,,,,,,SPECI,129.0
KPSK 221515Z AUTO 31008KT 10SM SCT070 OVC085 01/M07 A3012 RMK AO2 T00071070,KPSK,2018-03-22T15:15:00Z,37.12,-80.67,0.7,-7.0,310,8,,10.0,30.121063,,,TRUE,TRUE,,,,,,,SCT,7000,OVC,8500,,,,,VFR,,,,,,,,,,,,SPECI,642.0
KPKV 221515Z AUTO 11016KT 10SM CLR 22/14 A3031 RMK AO2 T02150144,KPKV,2018-03-22T15:15:00Z,28.65,-96.68,21.5,14.4,110,16,,10.0,30.31004,,,TRUE,TRUE,,,,,,,CLR,,,,,,,,VFR,,,,,,,,,,,,SPECI,9.0
PAUT 221515Z AUTO 15025G34KT 7SM -DZ OVC005 05/04 A3000 RMK AO2 T00460040,PAUT,2018-03-22T15:15:00Z,54.15,-165.6,4.6,4.0,150,25,34,7.0,30.0,,,TRUE,TRUE,,,,,,-DZ,OVC,500,,,,,,,IFR,,,,,,,,,,,,SPECI,25.0
KY51 221515Z AUTO 00000KT 10SM OVC065 01/M04 A3034 RMK AO1 T00101036,KY51,2018-03-22T15:15:00Z,43.58,-90.9,1.0,-3.6,0,0,,10.0,30.339567,,,TRUE,TRUE,,,,,,,OVC,6500,,,,,,,VFR,,,,,,,,,,,,SPECI,394.0
KY19 221515Z AUTO M1/4SM FZFG OVC002 M06/M06 A3025 RMK AO2 PWINO,KY19,2018-03-22T15:15:00Z,46.77,-100.9,-6.0,-6.0,,,,0.25,30.250984,,,TRUE,TRUE,,,,,TRUE,FZFG,OVC,200,,,,,,,LIFR,,,,,,,,,,,,SPECI,593.0
KXSA 221515Z AUTO 30008KT 10SM CLR 05/M04 A3003 RMK AO2 T00521037,KXSA,2018-03-22T15:15:00Z,37.87,-76.9,5.2,-3.7,300,8,,10.0,30.029528,,,TRUE,TRUE,,,,,,,CLR,,,,,,,,VFR,,,,,,,,,,,,SPECI,42.0
KXBP 221515Z AUTO 18011KT 10SM CLR 18/10 A3025 RMK AO2 T01810098,KXBP,2018-03-22T15:15:00Z,33.18,-97.83,18.1,9.8,180,11,,10.0,30.250984,,,TRUE,TRUE,,,,,,,CLR,,,,,,,,VFR,,,,,,,,,,,,SPECI,260.0
KWWR 221515Z AUTO 19014KT 10SM CLR 13/00 A3013 RMK AO2,KWWR,2018-03-22T15:15:00Z,36.45,-99.52,13.0,0.0,190,14,,10.0,30.129921,,,TRUE,TRUE,,,,,,,CLR,,,,,,,,VFR,,,,,,,,,,,,SPECI,667.0
KW96 221515Z AUTO 31014G21KT 10SM CLR 05/M04 A3003 RMK AO1 T00491043,KW96,2018-03-22T15:15:00Z,37.5,-77.12,4.9,-4.3,310,14,21,10.0,30.029528,,,TRUE,TRUE,,,,,,,CLR,,,,,,,,VFR,,,,,,,,,,,,SPECI,37.0
KEZM 221515Z AUTO 34006KT 10SM CLR 11/M12 A3029 RMK AO2 T01051119,KEZM,2018-03-22T15:15:00Z,32.22,-83.13,10.5,-11.9,340,6,,10.0,30.28937,,,TRUE,TRUE,,,,,,,CLR,,,,,,,,VFR,,,,,,,,,,,,SPECI,93.0
KERY 221515Z AUTO 30006KT 10SM CLR M03/M13 A3029 RMK AO2 T10281127,KERY,2018-03-22T15:15:00Z,46.3,-85.45,-2.8,-12.7,300,6,,10.0,30.28937,,,TRUE,TRUE,,,,,,,CLR,,,,,,,,VFR,,,,,,,,,,,,SPECI,265.0
KEQA 221515Z AUTO 18015KT 10SM CLR 16/M02 A3018 RMK AO2,KEQA,2018-03-22T15:15:00Z,37.78,-96.82,16.0,-2.0,180,15,,10.0,30.180119,,,TRUE,TRUE,,,,,,,CLR,,,,,,,,VFR,,,,,,,,,,,,SPECI,420.0
KEOE 221515Z AUTO 33013G16KT 10SM CLR 08/M03 A3022 RMK AO2,KEOE,2018-03-22T15:15:00Z,34.32,-81.63,8.0,-3.0,330,13,16,10.0,30.221457,,,TRUE,TRUE,,,,,,,CLR,,,,,,,,VFR,,,,,,,,,,,,SPECI,174.0
KELO 221515Z AUTO 00000KT 10SM CLR M04/M10 A3034 RMK AO2,KELO,2018-03-22T15:15:00Z,47.82,-91.82,-4.0,-10.0,0,0,,10.0,30.339567,,,TRUE,TRUE,,,,,,,CLR,,,,,,,,VFR,,,,,,,,,,,,SPECI,443.0
KEGV 221515Z AUTO 35004KT 10SM CLR M03/M14 A3031 RMK AO2 T10311143,KEGV,2018-03-22T15:15:00Z,45.93,-89.27,-3.1,-14.3,350,4,,10.0,30.31004,,,TRUE,TRUE,,,,,,,CLR,,,,,,,,VFR,,,,,,,,,,,,SPECI,500.0
KEDC 221515Z AUTO 18011KT 10SM CLR 19/13 A3029 RMK AO2,KEDC,2018-03-22T15:15:00Z,30.4,-97.57,19.0,13.0,180,11,,10.0,30.28937,,,TRUE,TRUE,,,,,,,CLR,,,,,,,,VFR,,,,,,,,,,,,SPECI,189.0
KECS 221515Z AUTO 19007KT 112V212 10SM CLR 03/M02 A3006 RMK AO2,KECS,2018-03-22T15:15:00Z,43.88,-104.32,3.0,-2.0,190,7,,10.0,30.059055,,,TRUE,TRUE,,,,,,,CLR,,,,,,,,VFR,,,,,,,,,,,,SPECI,1273.0
KEBS 221515Z AUTO 12011KT 10SM FEW025 SCT048 BKN055 02/M01 A3031 RMK AO2,KEBS,2018-03-22T15:15:00Z,42.42,-93.87,2.0,-1.0,120,11,,10.0,30.31004,,,TRUE,TRUE,,,,,,,FEW,2500,SCT,4800,BKN,5500,,,VFR,,,,,,,,,,,,SPECI,342.0
KDZB 221515Z AUTO 19007G15KT 10SM BKN019 BKN024 18/13 A3027 RMK AO2 T01840133,KDZB,2018-03-22T15:15:00Z,30.53,-98.37,18.4,13.3,190,7,15,10.0,30.268702,,,TRUE,TRUE,,,,,,,BKN,1900,BKN,2400,,,,,MVFR,,,,,,,,,,,,SPECI,334.0
KDUX 221515Z AUTO 29007KT 10SM CLR 14/M05 A3011 RMK AO2 T01361053,KDUX,2018-03-22T15:15:00Z,35.85,-102.02,13.6,-5.3,290,7,,10.0,30.109253,,,TRUE,TRUE,,,,,,,CLR,,,,,,,,VFR,,,,,,,,,,,,SPECI,1129.0
KDUH 221515Z AUTO 32006KT 10SM CLR 03/M12 A3026 RMK AO2 T00261125,KDUH,2018-03-22T15:15:00Z,41.73,-83.65,2.6,-12.5,320,6,,10.0,30.259842,,,TRUE,TRUE,,,,,,,CLR,,,,,,,,VFR,,,,,,,,,,,,SPECI,204.0
KDTL 221515Z AUTO 00000KT 7SM SCT020 BKN030 01/M01 A3034 RMK AO2,KDTL,2018-03-22T15:15:00Z,46.82,-95.87,1.0,-1.0,0,0,,7.0,30.339567,,,TRUE,TRUE,,,,,,,SCT,2000,BKN,3000,,,,,MVFR,,,,,,,,,,,,SPECI,426.0
KDRI 221515Z AUTO 12003KT 2SM HZ CLR 16/04 A3039 RMK AO2 T01570038,KDRI,2018-03-22T15:15:00Z,30.83,-93.33,15.7,3.8,120,3,,2.0,30.389763,,,TRUE,TRUE,,,,,,HZ,CLR,,,,,,,,IFR,,,,,,,,,,,,SPECI,63.0
KDNN 221515Z AUTO 32010G15KT 286V036 10SM CLR 06/M01 A3032 RMK AO2,KDNN,2018-03-22T15:15:00Z,34.72,-84.87,6.0,-1.0,320,10,15,10.0,30.318897,,,TRUE,TRUE,,,,,,,CLR,,,,,,,,VFR,,,,,,,,,,,,SPECI,216.0
KDLO 221515Z AUTO 18003KT 10SM OVC080 15/12 A2988 RMK AO2 T01530120,KDLO,2018-03-22T15:15:00Z,35.75,-119.23,15.3,12.0,180,3,,10.0,29.878937,,,TRUE,TRUE,,,,,,,OVC,8000,,,,,,,VFR,,,,,,,,,,,,METAR,96.0
KDKB 221515Z AUTO 00000KT 10SM CLR 03/M06 A3036 RMK AO2 T00251056 TSNO,KDKB,2018-03-22T15:15:00Z,41.93,-88.7,2.5,-5.6,0,0,,10.0,30.360237,,,TRUE,TRUE,,,TRUE,,,,CLR,,,,,,,,VFR,,,,,,,,,,,,SPECI,279.0
KD39 221515Z AUTO 13003KT 10SM OVC033 00/M02 A3034 RMK AO2 T00001017,KD39,2018-03-22T15:15:00Z,45.7,-94.93,0.0,-1.7,130,3,,10.0,30.339567,,,TRUE,TRUE,,,,,,,OVC,3300,,,,,,,VFR,,,,,,,,,,,,SPECI,380.0
KCZT 221515Z AUTO 15009KT 10SM CLR 20/15 A3023 RMK AO2,KCZT,2018-03-22T15:15:00Z,28.52,-99.82,20.0,15.0,150,9,,10.0,30.230314,,,TRUE,TRUE,,,,,,,CLR,,,,,,,,VFR,,,,,,,,,,,,SPECI,183.0
KCZL 221515Z AUTO 34010G18KT 10SM CLR 09/M05 A3033 RMK AO2 T00851052,KCZL,2018-03-22T15:15:00Z,34.47,-84.93,8.5,-5.2,340,10,18,10.0,30.33071,,,TRUE,TRUE,,,,,,,CLR,,,,,,,,VFR,,,,,,,,,,,,SPECI,195.0
KCXU 221515Z AUTO 01003KT 10SM CLR 11/M01 A3032 RMK AO1 T01141008,KCXU,2018-03-22T15:15:00Z,31.22,-84.23,11.4,-0.8,10,3,,10.0,30.318897,,,TRUE,TRUE,,,,,,,CLR,,,,,,,,VFR,,,,,,,,,,,,SPECI,53.0
KCXP 221515Z AUTO 00000KT 5SM -RA SCT009 05/04 A2976 RMK AO2,KCXP,2018-03-22T15:15:00Z,39.18,-119.73,5.0,4.0,0,0,,5.0,29.760826,,,TRUE,TRUE,,,,,,-RA,SCT,900,,,,,,,MVFR,,,,,,,,,,,,SPECI,1435.0
KCWV 221515Z AUTO 31006KT 10SM CLR 10/00 A3023 RMK AO2 T01041005,KCWV,2018-03-22T15:15:00Z,32.2,-81.87,10.4,-0.5,310,6,,10.0,30.230314,,,TRUE,TRUE,,,,,,,CLR,,,,,,,,VFR,,,,,,,,,,,,SPECI,33.0
KCWC 221515Z AUTO 17015G21KT 10SM CLR 17/07 A3021 RMK AO2 T01730072,KCWC,2018-03-22T15:15:00Z,33.85,-98.48,17.3,7.2,170,15,21,10.0,30.209646,,,TRUE,TRUE,,,,,,,CLR,,,,,,,,VFR,,,,,,,,,,,,SPECI,305.0
KCUL 221515Z AUTO 00000KT 10SM CLR 06/M03 A3039 RMK AO2 T00601030,KCUL,2018-03-22T15:15:00Z,38.08,-88.12,6.0,-3.0,0,0,,10.0,30.389763,,,TRUE,TRUE,,,,,,,CLR,,,,,,,,VFR,,,,,,,,,,,,METAR,118.0
KCMD 221515Z AUTO 33004G15KT 10SM CLR 08/M02 A3038 RMK AO2 T00771020,KCMD,2018-03-22T15:15:00Z,34.27,-86.85,7.7,-2.0,330,4,15,10.0,30.380905,,,TRUE,TRUE,,,,,,,CLR,,,,,,,,VFR,,,,,,,,,,,,SPECI,294.0
KCLI 221515Z AUTO 02004KT 10SM CLR 00/M11 A3035 RMK AO2 T10031111,KCLI,2018-03-22T15:15:00Z,44.62,-88.73,-0.3,-11.1,20,4,,10.0,30.351377,,,TRUE,TRUE,,,,,,,CLR,,,,,,,,VFR,,,,,,,,,,,,METAR,250.0
KCKP 221515Z AUTO 13008KT 10SM CLR 04/01 A3026 RMK AO2 T00410011,KCKP,2018-03-22T15:15:00Z,42.73,-95.55,4.1,1.1,130,8,,10.0,30.259842,,,TRUE,TRUE,,,,,,,CLR,,,,,,,,VFR,,,,,,,,,,,,METAR,374.0
KCKN 221515Z AUTO 00000KT 5SM BR OVC028 01/M01 A3036 RMK AO2,KCKN,2018-03-22T15:15:00Z,47.85,-96.62,1.0,-1.0,0,0,,5.0,30.360237,,,TRUE,TRUE,,,,,,BR,OVC,2800,,,,,,,MVFR,,,,,,,,,,,,SPECI,273.0
KCKF 221515Z AUTO 33011G16KT 10SM CLR 12/M05 A3030 RMK AO2 T01171051,KCKF,2018-03-22T15:15:00Z,31.98,-83.77,11.7,-5.1,330,11,16,10.0,30.301182,,,TRUE,TRUE,,,,,,,CLR,,,,,,,,VFR,,,,,,,,,,,,SPECI,91.0
KCIR 221515Z AUTO 00000KT 10SM SCT100 07/00 A3040 RMK AO2 T00741001,KCIR,2018-03-22T15:15:00Z,37.07,-89.22,7.4,-0.1,0,0,,10.0,30.398623,,,TRUE,TRUE,,,,,,,SCT,10000,,,,,,,VFR,,,,,,,,,,,,METAR,98.0
KCFJ 221515Z AUTO 33008G15KT 300V360 10SM CLR 02/M06 A3035 RMK AO2 T00201065,KCFJ,2018-03-22T15:15:00Z,39.98,-86.92,2.0,-6.5,330,8,15,10.0,30.351377,,,TRUE,TRUE,,,,,,,CLR,,,,,,,,VFR,,,,,,,,,,,,SPECI,244.0
KCEY 221515Z AUTO 30006KT 10SM CLR 08/M07 A3040 RMK AO1,KCEY,2018-03-22T15:15:00Z,36.67,-88.37,8.0,-7.0,300,6,,10.0,30.398623,,,TRUE,TRUE,,,,,,,CLR,,,,,,,,VFR,,,,,,,,,,,,METAR,176.0
KCDH 221515Z AUTO 17005KT 9SM CLR 14/04 A3039 RMK AO2,KCDH,2018-03-22T15:15:00Z,33.62,-92.77,14.0,4.0,170,5,,9.0,30.389763,,,TRUE,TRUE,,,,,,,CLR,,,,,,,,VFR,,,,,,,,,,,,METAR,35.0
KC35 221515Z AUTO 00000KT 10SM CLR 02/M06 A3034 RMK AO2 T00211062,KC35,2018-03-22T15:15:00Z,43.53,-89.98,2.1,-6.2,0,0,,10.0,30.339567,,,TRUE,TRUE,,,,,,,CLR,,,,,,,,VFR,,,,,,,,,,,,METAR,276.0
KBYY 221515Z AUTO 13009G15KT 10SM CLR 21/13 A3032 RMK AO2 T02080141,KBYY,2018-03-22T15:15:00Z,28.97,-95.87,20.8,13.0,130,9,15,10.0,30.318897,,,TRUE,TRUE,,,,,,,CLR,,,,,,,,VFR,,,,,,,,,,,,SPECI,14.0
KBXA 221515Z AUTO 08003KT 10SM CLR 15/03 A3041 RMK AO2 T01490033,KBXA,2018-03-22T15:15:00Z,30.82,-89.87,14.9,3.3,80,3,,10.0,30.410433,,,TRUE,TRUE,,,,,,,CLR,,,,,,,,VFR,,,,,,,,,,,,METAR,36.0
KBPC 221515Z AUTO 24009KT 10SM CLR 13/00 A3009 RMK AO2,KBPC,2018-03-22T15:15:00Z,35.88,-101.03,13.0,0.0,240,9,,10.0,30.088583,,,TRUE,TRUE,,,,,,,CLR,,,,,,,,VFR,,,,,,,,,,,,SPECI,845.0
KJSV 221515Z AUTO 10007KT 10SM CLR 13/01 A3033 RMK AO2,KJSV,2018-03-22T15:15:00Z,35.43,-94.8,13.0,1.0,100,7,,10.0,30.33071,,,TRUE,TRUE,,,,,,,CLR,,,,,,,,VFR,,,,,,,,,,,,METAR,161.0
KJHN 221515Z AUTO 34010KT 10SM CLR 12/M03 A3007 RMK AO2 T01201030,KJHN,2018-03-22T15:15:00Z,37.58,-101.73,12.0,-3.0,340,10,,10.0,30.070866,,,TRUE,TRUE,,,,,,,CLR,,,,,,,,VFR,,,,,,,,,,,,METAR,1013.0
KIRS 221515Z AUTO 03006KT 10SM CLR 02/M10 A3028 RMK AO2 T00231105,KIRS,2018-03-22T15:15:00Z,41.8,-85.43,2.3,-10.5,30,6,,10.0,30.280512,,,TRUE,TRUE,,,,,,,CLR,,,,,,,,VFR,,,,,,,,,,,,METAR,282.0
KIOB 221515Z AUTO 00000KT 10SM CLR 01/M04 A3030 RMK AO2,KIOB,2018-03-22T15:15:00Z,38.05,-83.98,1.0,-4.0,0,0,,10.0,30.301182,,,TRUE,TRUE,,,,,,,CLR,,,,,,,,VFR,,,,,,,,,,,,METAR,311.0
KIMS 221515Z AUTO 33006KT 10SM CLR 01/M06 A3034 RMK AO1,KIMS,2018-03-22T15:15:00Z,38.75,-85.47,1.0,-6.0,330,6,,10.0,30.339567,,,TRUE,TRUE,,,,,,,CLR,,,,,,,,VFR,,,,,,,,,,,,METAR,250.0
KIKW 221515Z AUTO 33005KT 10SM CLR 02/M09 A3027 RMK AO2 T00161093,KIKW,2018-03-22T15:15:00Z,43.67,-84.27,1.6,-9.3,330,5,,10.0,30.268702,,,TRUE,TRUE,,,,,,,CLR,,,,,,,,VFR,,,,,,,,,,,,METAR,194.0
KIKG 221515Z AUTO 12008KT 7SM OVC075 22/19 A3027 RMK AO2 T02240189,KIKG,2018-03-22T15:15:00Z,27.55,-98.03,22.4,18.9,120,8,,7.0,30.268702,,,TRUE,TRUE,,,,,,,OVC,7500,,,,,,,VFR,,,,,,,,,,,,SPECI,40.0
KIGQ 221515Z AUTO 36005KT 10SM CLR 03/M04 A3036 RMK AO2 T00301044,KIGQ,2018-03-22T15:15:00Z,41.53,-87.53,3.0,-4.4,360,5,,10.0,30.360237,,,TRUE,TRUE,,,,,,,CLR,,,,,,,,VFR,,,,,,,,,,,,METAR,188.0
KIER 221515Z AUTO 15007KT 10SM CLR 15/07 A3039 RMK AO2 T01470071,KIER,2018-03-22T15:15:00Z,31.73,-93.1,14.7,7.1,150,7,,10.0,30.389763,,,TRUE,TRUE,,,,,,,CLR,,,,,,,,VFR,,,,,,,,,,,,METAR,37.0
KI75 221515Z AUTO 13011KT 10SM BKN080 OVC090 05/01 A3031 RMK AO2 T00460006,KI75,2018-03-22T15:15:00Z,41.05,-93.68,4.6,0.6,130,11,,10.0,30.31004,,,TRUE,TRUE,,,,,,,BKN,8000,OVC,9000,,,,,VFR,,,,,,,,,,,,METAR,339.0
KI23 221515Z AUTO 33006KT 10SM CLR 01/M04 A3026 RMK AO1,KI23,2018-03-22T15:15:00Z,39.57,-83.42,1.0,-4.0,330,6,,10.0,30.259842,,,TRUE,TRUE,,,,,,,CLR,,,,,,,,VFR,,,,,,,,,,,,METAR,299.0
KHZL 221515Z AUTO 32012G17KT 10SM CLR 03/M06 A2991 RMK AO2,KHZL,2018-03-22T15:15:00Z,40.98,-76.0,3.0,-6.0,320,12,17,10.0,29.911417,,,TRUE,TRUE,,,,,,,CLR,,,,,,,,VFR,,,,,,,,,,,,METAR,489.0
KHVE 221515Z AUTO 01007KT 10SM CLR 11/M02 A3011 RMK AO2,KHVE,2018-03-22T15:15:00Z,38.42,-110.7,11.0,-2.0,10,7,,10.0,30.109253,,,TRUE,TRUE,,,,,,,CLR,,,,,,,,VFR,,,,,,,,,,,,SPECI,1350.0
KHSB 221515Z AUTO 00000KT 10SM CLR 06/00 A3040 RMK AO2 T00621005,KHSB,2018-03-22T15:15:00Z,37.82,-88.55,6.2,-0.5,0,0,,10.0,30.398623,,,TRUE,TRUE,,,,,,,CLR,,,,,,,,VFR,,,,,,,,,,,,METAR,121.0
KHRX 221515Z AUTO 20006KT 7SM CLR 16/M02 A3014 RMK AO2 T01561023,KHRX,2018-03-22T15:15:00Z,34.87,-102.33,15.6,-2.3,200,6,,7.0,30.138779,,,TRUE,TRUE,,,,,,,CLR,,,,,,,,VFR,,,,,,,,,,,,SPECI,1154.0
KHMP 221515Z AUTO 01008G15KT 330V030 10SM CLR 08/M03 A3030 RMK AO2 T00791031,KHMP,2018-03-22T15:15:00Z,33.38,-84.33,7.9,-3.1,10,8,15,10.0,30.301182,,,TRUE,TRUE,,,,,,,CLR,,,,,,,,VFR,,,,,,,,,,,,SPECI,269.0
KHFY 221515Z AUTO 33008G16KT 10SM CLR A3033 RMK AO2,KHFY,2018-03-22T15:15:00Z,39.63,-86.08,,,330,8,16,10.0,30.33071,,,TRUE,TRUE,,,,,,,CLR,,,,,,,,VFR,,,,,,,,,,,,SPECI,251.0
KHDC 221515Z AUTO 09003KT 10SM CLR 14/03 A3041 RMK AO2,KHDC,2018-03-22T15:15:00Z,30.52,-90.42,14.0,3.0,90,3,,10.0,30.410433,,,TRUE,TRUE,,,,,,,CLR,,,,,,,,VFR,,,,,,,,,,,,SPECI,13.0
KHCR 221515Z AUTO 32004KT 7SM DZ OVC050 06/03 A3002 RMK AO2,KHCR,2018-03-22T15:15:00Z,40.48,-111.43,6.0,3.0,320,4,,7.0,30.02067,,,TRUE,TRUE,,,,,,DZ,OVC,5000,,,,,,,VFR,,,,,,,,,,,,SPECI,1706.0
KGZL 221515Z AUTO 12007KT 10SM FEW100 12/M03 A3032 RMK AO2,KGZL,2018-03-22T15:15:00Z,35.28,-95.1,12.0,-3.0,120,7,,10.0,30.318897,,,TRUE,TRUE,,,,,,,FEW,10000,,,,,,,VFR,,,,,,,,,,,,SPECI,183.0
KGYB 221515Z AUTO 16010G14KT 10SM CLR 20/12 A3031 RMK AO2 T01950120,KGYB,2018-03-22T15:15:00Z,30.17,-96.98,19.5,12.0,160,10,14,10.0,30.31004,,,TRUE,TRUE,,,,,,,CLR,,,,,,,,VFR,,,,,,,,,,,,SPECI,148.0
KGWB 221515Z AUTO 34003KT 10SM CLR 02/M09 A3029 RMK AO2,KGWB,2018-03-22T15:15:00Z,41.3,-85.07,2.0,-9.0,340,3,,10.0,30.28937,,,TRUE,TRUE,,,,,,,CLR,,,,,,,,VFR,,,,,,,,,,,,SPECI,269.0
KGMJ 221515Z AUTO 15007KT 10SM CLR 13/02 A3029 RMK AO2,KGMJ,2018-03-22T15:15:00Z,36.6,-94.73,13.0,2.0,150,7,,10.0,30.28937,,,TRUE,TRUE,,,,,,,CLR,,,,,,,,VFR,,,,,,,,,,,,SPECI,254.0
KGIC 221515Z AUTO 09003KT 10SM BKN120 06/03 A2965 RMK AO1,KGIC,2018-03-22T15:15:00Z,45.95,-116.12,6.0,3.0,90,3,,10.0,29.648623,,,TRUE,TRUE,,,,,,,BKN,12000,,,,,,,VFR,,,,,,,,,,,,SPECI,1009.0
KGCM 221515Z AUTO 17010G15KT 10SM CLR 12/01 A3029 RMK AO2,KGCM,2018-03-22T15:15:00Z,36.3,-95.48,12.0,1.0,170,10,15,10.0,30.28937,,,TRUE,TRUE,,,,,,,CLR,,,,,,,,VFR,,,,,,,,,,,,SPECI,221.0
KGCD 221515Z AUTO 18018G28KT 10SM SCT039 SCT055 OVC110 08/04 A2958 RMK AO2 T00840041,KGCD,2018-03-22T15:15:00Z,44.38,-118.97,8.4,4.1,180,18,28,10.0,29.58071,,,TRUE,TRUE,,,,,,,SCT,3900,SCT,5500,OVC,11000,,,VFR,,,,,,,,,,,,SPECI,1127.0
KGAO 221515Z AUTO 07007KT 020V100 10SM CLR 16/04 A3040 RMK AO2 T01590038,KGAO,2018-03-22T15:15:00Z,29.45,-90.27,15.9,3.8,70,7,,10.0,30.398623,,,TRUE,TRUE,,,,,,,CLR,,,,,,,,VFR,,,,,,,,,,,,SPECI,1.0
KFXY 221515Z AUTO 13008KT 10SM OVC043 02/M01 A3035 RMK AO2,KFXY,2018-03-22T15:15:00Z,43.23,-93.62,2.0,-1.0,130,8,,10.0,30.351377,,,TRUE,TRUE,,,,,,,OVC,4300,,,,,,,VFR,,,,,,,,,,,,SPECI,375.0
KFWZ 221515Z AUTO 24011KT 10SM SCT070 03/M01 A3000 RMK AO2 TSNO,KFWZ,2018-03-22T15:15:00Z,42.52,-108.78,3.0,-1.0,240,11,,10.0,30.0,,,TRUE,TRUE,,,TRUE,,,,SCT,7000,,,,,,,VFR,,,,,,,,,,,,SPECI,2588.0
KFWB 221515Z AUTO 11010G14KT 10SM CLR 09/00 A3033 RMK AO2,KFWB,2018-03-22T15:15:00Z,36.7,-93.4,9.0,0.0,110,10,14,10.0,30.33071,,,TRUE,TRUE,,,,,,,CLR,,,,,,,,VFR,,,,,,,,,,,,SPECI,406.0
KFRR 221515Z AUTO 32008G16KT 290V360 10SM CLR 03/M07 A3004 RMK AO1,KFRR,2018-03-22T15:15:00Z,38.92,-78.25,3.0,-7.0,320,8,16,10.0,30.041338,,,TRUE,TRUE,,,,,,,CLR,,,,,,,,VFR,,,,,,,,,,,,SPECI,216.0
KFOA 221515Z AUTO 00000KT 10SM CLR 06/M02 A3039 RMK AO2 T00561024,KFOA,2018-03-22T15:15:00Z,38.67,-88.45,5.6,-2.4,0,0,,10.0,30.389763,,,TRUE,TRUE,,,,,,,CLR,,,,,,,,VFR,,,,,,,,,,,,SPECI,144.0
KFMM 221515Z AUTO 26005KT 10SM CLR 09/M04 A3012 RMK AO2 T00911036,KFMM,2018-03-22T15:15:00Z,40.33,-103.8,9.1,-3.6,260,5,,10.0,30.121063,,,TRUE,TRUE,,,,,,,CLR,,,,,,,,VFR,,,,,,,,,,,,SPECI,1393.0
KFLY 221515Z AUTO 15004KT 7SM CLR 13/M08 A3020 RMK AO2 T01251085,KFLY,2018-03-22T15:15:00Z,38.95,-104.57,12.5,-8.5,150,4,,7.0,30.200787,,,TRUE,TRUE,,,,,,,CLR,,,,,,,,VFR,,,,,,,,,,,,SPECI,2096.0
KFEP 221515Z AUTO 00000KT 10SM CLR 02/M06 A3038 RMK AO2 T00161060,KFEP,2018-03-22T15:15:00Z,42.25,-89.58,1.6,-6.0,0,0,,10.0,30.380905,,,TRUE,TRUE,,,,,,,CLR,,,,,,,,VFR,,,,,,,,,,,,SPECI,262.0
KFBR 221515Z AUTO 35003KT 4SM BR OVC001 02/02 A3007 RMK AO2 T00190019,KFBR,2018-03-22T15:15:00Z,41.4,-110.4,1.9,1.9,350,3,,4.0,30.070866,,,TRUE,TRUE,,,,,,BR,OVC,100,,,,,,,LIFR,,,,,,,,,,,,SPECI,2144.0
KF46 221515Z AUTO 21008G14KT 170V230 10SM CLR 18/09 A3030 RMK AO2 T01750088,KF46,2018-03-22T15:15:00Z,32.93,-96.43,17.5,8.8,210,8,14,10.0,30.301182,,,TRUE,TRUE,,,,,,,CLR,,,,,,,,VFR,,,,,,,,,,,,SPECI,176.0
KF05 221515Z AUTO 17015KT 10SM CLR 17/02 A3015 RMK AO1 T01690016,KF05,2018-03-22T15:15:00Z,34.23,-99.28,16.9,1.6,170,15,,10.0,30.15059,,,TRUE,TRUE,,,,,,,CLR,,,,,,,,VFR,,,,,,,,,,,,SPECI,386.0
KEZS 221515Z AUTO 00000KT 10SM CLR 01/M13 A3035 RMK AO2 T00051130,KEZS,2018-03-22T15:15:00Z,44.78,-88.57,0.5,-13.0,0,0,,10.0,30.351377,,,TRUE,TRUE,,,,,,,CLR,,,,,,,,VFR,,,,,,,,,,,,SPECI,248.0
KBKS 221515Z AUTO 12006KT 10SM OVC070 21/16 A3026 RMK AO1 T02140162,KBKS,2018-03-22T15:15:00Z,27.2,-98.12,21.4,16.2,120,6,,10.0,30.259842,,,TRUE,TRUE,,,,,,,OVC,7000,,,,,,,VFR,,,,,,,,,,,,SPECI,34.0
KBJI 221515Z AUTO 13004KT 4SM -SN OVC013 M01/M02 A3034 RMK AO2 T10131021,KBJI,2018-03-22T15:15:00Z,47.5,-94.92,-1.3,-2.1,130,4,,4.0,30.339567,,,TRUE,TRUE,,,,,,-SN,OVC,1300,,,,,,,MVFR,,,,,,,,,,,,METAR,420.0
KBIJ 221515Z AUTO 01007KT 10SM CLR 11/M02 A3033 RMK AO2,KBIJ,2018-03-22T15:15:00Z,31.4,-84.9,11.0,-2.0,10,7,,10.0,30.33071,,,TRUE,TRUE,,,,,,,CLR,,,,,,,,VFR,,,,,,,,,,,,METAR,65.0
KBFW 221515Z AUTO 00000KT 10SM CLR M01/M07 A3034 RMK AO2,KBFW,2018-03-22T15:15:00Z,47.25,-91.4,-1.0,-7.0,0,0,,10.0,30.339567,,,TRUE,TRUE,,,,,,,CLR,,,,,,,,VFR,,,,,,,,,,,,METAR,331.0
KBEA 221515Z AUTO 14011G16KT 10SM SCT033 SCT070 21/15 A3027 RMK AO2 T02100153,KBEA,2018-03-22T15:15:00Z,28.37,-97.78,21.0,15.3,140,11,16,10.0,30.268702,,,TRUE,TRUE,,,,,,,SCT,3300,SCT,7000,,,,,VFR,,,,,,,,,,,,SPECI,82.0
KBBP 221515Z AUTO 32013G19KT 10SM CLR 10/M05 A3014 RMK AO2,KBBP,2018-03-22T15:15:00Z,34.62,-79.73,10.0,-5.0,320,13,19,10.0,30.138779,,,TRUE,TRUE,,,,,,,CLR,,,,,,,,VFR,,,,,,,,,,,,METAR,45.0
KBAM 221515Z AUTO 00000KT 10SM SCT050 OVC090 08/06 A2972 RMK AO1,KBAM,2018-03-22T15:15:00Z,,,8.0,6.0,0,0,,10.0,29.719488,,,TRUE,TRUE,,,,,,,SCT,5000,OVC,9000,,,,,VFR,,,,,,,,,,,,SPECI,
KBAC 221515Z AUTO 07005KT 10SM OVC017 00/01 A3033 RMK AO2,KBAC,2018-03-22T15:15:00Z,46.93,-98.02,0.0,1.0,70,5,,10.0,30.33071,,,TRUE,TRUE,,,,,,,OVC,1700,,,,,,,MVFR,,,,,,,,,,,,METAR,427.0
KAZC 221515Z AUTO 11005KT 10SM BKN070 OVC080 11/04 A3016 RMK AO2,KAZC,2018-03-22T15:15:00Z,36.97,-113.02,11.0,4.0,110,5,,10.0,30.159449,,,TRUE,TRUE,,,,,,,BKN,7000,OVC,8000,,,,,VFR,,,,,,,,,,,,SPECI,1486.0
KAXX 221515Z AUTO 26008G15KT 10SM CLR 08/M05 A3030 RMK AO2 T00751052,KAXX,2018-03-22T15:15:00Z,36.42,-105.28,7.5,-5.2,260,8,15,10.0,30.301182,,,TRUE,TRUE,,,,,,,CLR,,,,,,,,VFR,,,,,,,,,,,,SPECI,2548.0
KAXS 221515Z AUTO 17017G20KT 10SM CLR 16/04 A3016 RMK AO2 T01610037,KAXS,2018-03-22T15:15:00Z,34.7,-99.33,16.1,3.7,170,17,20,10.0,30.159449,,,TRUE,TRUE,,,,,,,CLR,,,,,,,,VFR,,,,,,,,,,,,METAR,437.0
KAVQ 221515Z AUTO 11008KT 10SM CLR 18/M02 A3009 RMK AO2 T01771023,KAVQ,2018-03-22T15:15:00Z,32.4,-111.22,17.7,-2.3,110,8,,10.0,30.088583,,,TRUE,TRUE,,,,,,,CLR,,,,,,,,VFR,,,,,,,,,,,,SPECI,619.0
KAUN 221515Z AUTO 23011G24KT 10SM OVC003 13/13 A2972 RMK AO1 P0001,KAUN,2018-03-22T15:15:00Z,38.95,-121.08,13.0,13.0,230,11,24,10.0,29.719488,,,TRUE,TRUE,,,,,,,OVC,300,,,,,,,LIFR,,,,,,0.01,,,,,,SPECI,467.0
KASW 221515Z AUTO 01007KT 10SM CLR 02/M05 A3029 RMK AO2,KASW,2018-03-22T15:15:00Z,41.27,-85.83,2.0,-5.0,10,7,,10.0,30.28937,,,TRUE,TRUE,,,,,,,CLR,,,,,,,,VFR,,,,,,,,,,,,METAR,259.0
KASN 221515Z AUTO 00000KT 10SM CLR 08/M02 A3037 RMK AO2 T00821020,KASN,2018-03-22T15:15:00Z,33.57,-86.05,8.2,-2.0,0,0,,10.0,30.369095,,,TRUE,TRUE,,,,,,,CLR,,,,,,,,VFR,,,,,,,,,,,,METAR,162.0
KARM 221515Z AUTO 13009KT 10SM CLR 20/11 A3032 RMK AO2 T02030109,KARM,2018-03-22T15:15:00Z,29.25,-96.15,20.3,10.9,130,9,,10.0,30.318897,,,TRUE,TRUE,,,,,,,CLR,,,,,,,,VFR,,,,,,,,,,,,SPECI,31.0
KAJG 221515Z AUTO 00000KT 10SM CLR 04/M06 A3039 RMK AO2 T00441062,KAJG,2018-03-22T15:15:00Z,38.62,-87.73,4.4,-6.2,0,0,,10.0,30.389763,,,TRUE,TRUE,,,,,,,CLR,,,,,,,,VFR,,,,,,,,,,,,METAR,131.0
KAFO 221515Z AUTO 00000KT 10SM OVC075 01/00 A2999 RMK AO2,KAFO,2018-03-22T15:15:00Z,42.72,-110.95,1.0,0.0,0,0,,10.0,29.991142,,,TRUE,TRUE,,,,,,,OVC,7500,,,,,,,VFR,,,,,,,,,,,,SPECI,1897.0
K9MN 221515Z AUTO 00000KT 10SM OVC027 01/M05 A3037 RMK AO1 T00081048,K9MN,2018-03-22T15:15:00Z,44.02,-92.48,0.8,-4.8,0,0,,10.0,30.369095,,,TRUE,TRUE,,,,,,,OVC,2700,,,,,,,MVFR,,,,,,,,,,,,METAR,355.0
K82V 221515Z AUTO 10SM BKN120 07/00 A3010 RMK AO2 PWINO,K82V,2018-03-22T15:15:00Z,41.15,-104.13,7.0,0.0,,,,10.0,30.100393,,,TRUE,TRUE,,,,,TRUE,,BKN,12000,,,,,,,VFR,,,,,,,,,,,,SPECI,1570.0
K6S2 221515Z AUTO 26007KT 230V290 10SM UP SCT026 SCT034 OVC055 06/01 A2967 RMK AO2,K6S2,2018-03-22T15:15:00Z,43.98,-124.12,6.0,1.0,260,7,,10.0,29.66929,,,TRUE,TRUE,,,,,,UP,SCT,2600,SCT,3400,OVC,5500,,,VFR,,,,,,,,,,,,METAR,16.0
K6A2 221515Z AUTO 33007KT 10SM CLR 08/M02 A3029 RMK AO2,K6A2,2018-03-22T15:15:00Z,33.23,-84.27,8.0,-2.0,330,7,,10.0,30.28937,,,TRUE,TRUE,,,,,,,CLR,,,,,,,,VFR,,,,,,,,,,,,METAR,292.0
K4V0 221515Z AUTO 00000KT 10SM SCT120 07/00 A3010 RMK AO2 T00741003,K4V0,2018-03-22T15:15:00Z,40.1,-108.77,7.4,-0.3,0,0,,10.0,30.100393,,,TRUE,TRUE,,,,,,,SCT,12000,,,,,,,VFR,,,,,,,,,,,,SPECI,1608.0
K4S2 221515Z AUTO 27005KT 7SM RA SCT015 OVC021 07/06 A2952 RMK AO2,K4S2,2018-03-22T15:15:00Z,45.68,-121.55,7.0,6.0,270,5,,7.0,29.518702,,,TRUE,TRUE,,,,,,RA,SCT,1500,OVC,2100,,,,,MVFR,,,,,,,,,,,,SPECI,192.0
K4R5 221515Z AUTO 00000KT 10SM CLR M02/M09 A3039 RMK AO2 T10221090,K4R5,2018-03-22T15:15:00Z,46.78,-90.77,-2.2,-9.0,0,0,,10.0,30.389763,,,TRUE,TRUE,,,,,,,CLR,,,,,,,,VFR,,,,,,,,,,,,METAR,198.0
K4O4 221515Z AUTO 09006KT 10SM CLR 13/02 A3035 RMK AO2,K4O4,2018-03-22T15:15:00Z,33.92,-94.87,13.0,2.0,90,6,,10.0,30.351377,,,TRUE,TRUE,,,,,,,CLR,,,,,,,,VFR,,,,,,,,,,,,METAR,144.0
K4A9 221515Z AUTO 33010G18KT 10SM CLR 07/M06 A3033 RMK AO2,K4A9,2018-03-22T15:15:00Z,34.47,-85.72,7.0,-6.0,330,10,18,10.0,30.33071,,,TRUE,TRUE,,,,,,,CLR,,,,,,,,VFR,,,,,,,,,,,,METAR,267.0
K3R7 221515Z AUTO 10011KT 10SM CLR 17/04 A3038 RMK AO2 T01660038,K3R7,2018-03-22T15:15:00Z,30.25,-92.67,16.6,3.8,100,11,,10.0,30.380905,,,TRUE,TRUE,,,,,,,CLR,,,,,,,,VFR,,,,,,,,,,,,METAR,7.0
K3J7 221515Z AUTO 28005KT 10SM CLR 09/M03 A3020 RMK AO2,K3J7,2018-03-22T15:15:00Z,33.6,-83.13,9.0,-3.0,280,5,,10.0,30.200787,,,TRUE,TRUE,,,,,,,CLR,,,,,,,,VFR,,,,,,,,,,,,METAR,206.0
K3I2 221515Z AUTO 27006KT 10SM CLR 05/M03 A3025 RMK AO2 T00511030,K3I2,2018-03-22T15:15:00Z,38.92,-82.1,5.1,-3.0,270,6,,10.0,30.250984,,,TRUE,TRUE,,,,,,,CLR,,,,,,,,VFR,,,,,,,,,,,,METAR,196.0
K2P2 221515Z AUTO 32007KT 10SM CLR M02/M07 A3033 RMK AO2 T10161070,K2P2,2018-03-22T15:15:00Z,45.38,-86.92,-1.6,-7.0,320,7,,10.0,30.33071,,,TRUE,TRUE,,,,,,,CLR,,,,,,,,VFR,,,,,,,,,,,,METAR,199.0
K2F5 221515Z AUTO 22013G20KT 10SM BKN100 BKN120 16/06 A3016 RMK AO2,K2F5,2018-03-22T15:15:00Z,32.75,-101.92,16.0,6.0,220,13,20,10.0,30.159449,,,TRUE,TRUE,,,,,,,BKN,10000,BKN,12000,,,,,VFR,,,,,,,,,,,,SPECI,912.0
K22N 221515Z AUTO 31009KT 148V308 10SM CLR 03/M06 A2991 RMK AO2,K22N,2018-03-22T15:15:00Z,40.8,-75.77,3.0,-6.0,310,9,,10.0,29.911417,,,TRUE,TRUE,,,,,,,CLR,,,,,,,,VFR,,,,,,,,,,,,METAR,163.0
K1A9 221515Z AUTO 36005KT 10SM CLR 10/M01 A3037 RMK AO2 T00981011,K1A9,2018-03-22T15:15:00Z,32.43,-86.52,9.8,-1.1,360,5,,10.0,30.369095,,,TRUE,TRUE,,,,,,,CLR,,,,,,,,VFR,,,,,,,,,,,,METAR,69.0
K0F2 221515Z AUTO 17013G22KT 10SM CLR 17/09 A3023 RMK AO2 T01710090,K0F2,2018-03-22T15:15:00Z,33.6,-97.78,17.1,9.0,170,13,22,10.0,30.230314,,,TRUE,TRUE,,,,,,,CLR,,,,,,,,VFR,,,,,,,,,,,,SPECI,336.0
K0E0 221515Z AUTO 00000KT 10SM CLR 12/M06 A3028 RMK AO2 T01171056,K0E0,2018-03-22T15:15:00Z,34.98,-106.0,11.7,-5.6,0,0,,10.0,30.280512,,,TRUE,TRUE,,,,,,,CLR,,,,,,,,VFR,,,,,,,,,,,,SPECI,1890.0
K08D 221515Z AUTO 10009KT M1/4SM FZFG M05/M05 A3025 RMK AO2,K08D,2018-03-22T15:15:00Z,48.3,-102.4,-5.0,-5.0,100,9,,0.25,30.250984,,,TRUE,TRUE,,,,,,FZFG,,,,,,,,,,,,,,,,,,,,,METAR,684.0
K06C 221515Z AUTO 33003KT CLR 03/M09 A3035 RMK AO2 P0003 T00261094,K06C,2018-03-22T15:15:00Z,41.98,-88.1,2.6,-9.4,330,3,,,30.351377,,,TRUE,TRUE,,,,,,,CLR,,,,,,,,,,,,,,0.03,,,,,,METAR,244.0
KX60 221515Z AUTO 31012KT 9SM 14/M05 A3026 RMK A01,KX60,2018-03-22T15:15:00Z,29.35,-82.47,14.0,-5.0,310,12,,9.0,30.259842,,,TRUE,TRUE,,,,,,,,,,,,,,,,,,,,,,,,,,,SPECI,23.0
KU42 221515Z AUTO 16016KT 10SM BKN050 OVC065 12/04 A2995 RMK AO1 T01170040,KU42,2018-03-22T15:15:00Z,40.62,-111.98,11.7,4.0,160,16,,10.0,29.949802,,,TRUE,TRUE,,,,,,,BKN,5000,OVC,6500,,,,,VFR,,,,,,,,,,,,SPECI,1402.0
KTNU 221515Z AUTO 14009KT 10SM OVC050 04/M02 A3035 RMK AO2,KTNU,2018-03-22T15:15:00Z,41.67,-93.02,4.0,-2.0,140,9,,10.0,30.351377,,,TRUE,TRUE,,,,,,,OVC,5000,,,,,,,VFR,,,,,,,,,,,,SPECI,290.0
KTME 221515Z AUTO 14011KT 10SM CLR 20/11 A3033 RMK AO2,KTME,2018-03-22T15:15:00Z,29.8,-95.9,20.0,11.0,140,11,,10.0,30.33071,,,TRUE,TRUE,,,,,,,CLR,,,,,,,,VFR,,,,,,,,,,,,SPECI,51.0
KTKX 221515Z AUTO VRB04KT 7SM CLR 10/01 A3040 RMK AO2,KTKX,2018-03-22T15:15:00Z,36.22,-90.02,10.0,1.0,0,4,,7.0,30.398623,,,TRUE,TRUE,,,,,,,CLR,,,,,,,,VFR,,,,,,,,,,,,SPECI,80.0
KSOW 221515Z AUTO 19012KT 10SM CLR 15/00 A3028 RMK AO2,KSOW,2018-03-22T15:15:00Z,34.27,-110.0,15.0,0.0,190,12,,10.0,30.280512,,,TRUE,TRUE,,,,,,,CLR,,,,,,,,VFR,,,,,,,,,,,,SPECI,1954.0
KF17 221515Z AUTO 10SM CLR 16/06 A3038 RMK AO2 T01550062,KF17,2018-03-22T15:15:00Z,31.83,-94.15,15.5,6.2,,,,10.0,30.380905,,,TRUE,TRUE,,,,,,,CLR,,,,,,,,VFR,,,,,,,,,,,,SPECI,97.0
KF00 221515Z AUTO 14010KT 10SM SCT095 16/05 A3030 RMK AO2 T01570052,KF00,2018-03-22T15:15:00Z,33.62,-96.18,15.7,5.2,140,10,,10.0,30.301182,,,TRUE,TRUE,,,,,,,SCT,9500,,,,,,,VFR,,,,,,,,,,,,SPECI,188.0
KEZF 221515Z AUTO 31013G19KT 10SM CLR 05/M04 A3003 RMK AO2 T00521036,KEZF,2018-03-22T15:15:00Z,38.27,-77.45,5.2,-3.6,310,13,19,10.0,30.029528,,,TRUE,TRUE,,,,,,,CLR,,,,,,,,VFR,,,,,,,,,,,,SPECI,26.0
KETN 221515Z AUTO 19017KT 10SM CLR 18/10 A3021 RMK AO2 T01790105,KETN,2018-03-22T15:15:00Z,32.42,-98.82,17.9,10.5,190,17,,10.0,30.209646,,,TRUE,TRUE,,,,,,,CLR,,,,,,,,VFR,,,,,,,,,,,,SPECI,446.0
KETB 221515Z AUTO 27004KT 10SM CLR 02/M07 A3034 RMK AO2,KETB,2018-03-22T15:15:00Z,43.42,-88.13,2.0,-7.0,270,4,,10.0,30.339567,,,TRUE,TRUE,,,,,,,CLR,,,,,,,,VFR,,,,,,,,,,,,SPECI,270.0
KERV 221515Z AUTO 16013G17KT 10SM OVC013 16/13 A3028 RMK AO2 T01620130,KERV,2018-03-22T15:15:00Z,29.98,-99.08,16.2,13.0,160,13,17,10.0,30.280512,,,TRUE,TRUE,,,,,,,OVC,1300,,,,,,,MVFR,,,,,,,,,,,,SPECI,510.0
KENL 221515Z AUTO 00000KT 10SM CLR 07/M03 A3038 RMK AO2 T00741029,KENL,2018-03-22T15:15:00Z,38.52,-89.1,7.4,-2.9,0,0,,10.0,30.380905,,,TRUE,TRUE,,,,,,,CLR,,,,,,,,VFR,,,,,,,,,,,,SPECI,163.0
KELK 221515Z AUTO 18014G19KT 10SM CLR 16/04 A3011 RMK AO2 T01550035,KELK,2018-03-22T15:15:00Z,35.43,-99.4,15.5,3.5,180,14,19,10.0,30.109253,,,TRUE,TRUE,,,,,,,CLR,,,,,,,,VFR,,,,,,,,,,,,SPECI,610.0
KELA 221515Z AUTO 15012G16KT 10SM CLR 21/13 A3031 RMK AO2 T02050130,KELA,2018-03-22T15:15:00Z,29.6,-96.32,20.5,13.0,150,12,16,10.0,30.31004,,,TRUE,TRUE,,,,,,,CLR,,,,,,,,VFR,,,,,,,,,,,,METAR,56.0
KEHA 221515Z AUTO 31007KT 10SM CLR 15/M01 A3009 RMK AO2 T01481008,KEHA,2018-03-22T15:15:00Z,37.0,-101.9,14.8,-0.8,310,7,,10.0,30.088583,,,TRUE,TRUE,,,,,,,CLR,,,,,,,,VFR,,,,,,,,,,,,SPECI,1099.0
KEFT 221515Z AUTO 00000KT 10SM CLR 03/M10 A3034 RMK AO2,KEFT,2018-03-22T15:15:00Z,42.62,-89.6,3.0,-10.0,0,0,,10.0,30.339567,,,TRUE,TRUE,,,,,,,CLR,,,,,,,,VFR,,,,,,,,,,,,SPECI,331.0
KEFK 221515Z AUTO 36008KT 10SM CLR M01/M07 A2985 RMK AO2 T10101068,KEFK,2018-03-22T15:15:00Z,44.88,-72.23,-1.0,-6.8,360,8,,10.0,29.84941,,,TRUE,TRUE,,,,,,,CLR,,,,,,,,VFR,,,,,,,,,,,,SPECI,284.0
KEDN 221515Z AUTO 02009G15KT 330V040 10SM CLR 10/M01 A3035 RMK AO2 T01001012,KEDN,2018-03-22T15:15:00Z,31.3,-85.9,10.0,-1.2,20,9,15,10.0,30.351377,,,TRUE,TRUE,,,,,,,CLR,,,,,,,,VFR,,,,,,,,,,,,SPECI,110.0
KECU 221515Z AUTO 15014KT 10SM OVC008 15/13 A3029 RMK AO2,KECU,2018-03-22T15:15:00Z,29.95,-100.17,15.0,13.0,150,14,,10.0,30.28937,,,TRUE,TRUE,,,,,,,OVC,800,,,,,,,IFR,,,,,,,,,,,,SPECI,725.0
KEBG 221515Z AUTO 12010KT 10SM SCT026 OVC065 24/17 A3026 RMK AO2 T02370165,KEBG,2018-03-22T15:15:00Z,26.45,-98.13,23.7,16.5,120,10,,10.0,30.259842,,,TRUE,TRUE,,,,,,,SCT,2600,OVC,6500,,,,,VFR,,,,,,,,,,,,SPECI,24.0
KEBA 221515Z AUTO 29007G18KT 270V340 10SM CLR 10/M07 A3024 RMK AO2 T00991074,KEBA,2018-03-22T15:15:00Z,34.1,-82.82,9.9,-7.4,290,7,18,10.0,30.239174,,,TRUE,TRUE,,,,,,,CLR,,,,,,,,VFR,,,,,,,,,,,,SPECI,184.0
KE38 221515Z AUTO 21004KT 10SM CLR 23/00 A3029 RMK AO2 T02311003,KE38,2018-03-22T15:15:00Z,30.38,-103.68,23.1,-0.3,210,4,,10.0,30.28937,,,TRUE,TRUE,,,,,,,CLR,,,,,,,,VFR,,,,,,,,,,,,SPECI,1376.0
KE11 221515Z AUTO 20007KT 10SM CLR 17/06 A3016 RMK AO2 T01740060,KE11,2018-03-22T15:15:00Z,32.33,-102.53,17.4,6.0,200,7,,10.0,30.159449,,,TRUE,TRUE,,,,,,,CLR,,,,,,,,VFR,,,,,,,,,,,,METAR,967.0
KDZJ 221515Z AUTO 29010KT 260V320 10SM CLR 04/M05 A3024 RMK AO2 T00441050,KDZJ,2018-03-22T15:15:00Z,34.85,-84.0,4.4,-5.0,290,10,,10.0,30.239174,,,TRUE,TRUE,,,,,,,CLR,,,,,,,,VFR,,,,,,,,,,,,SPECI,582.0
KDVO 221515Z AUTO 20010G15KT 10SM BKN020 OVC027 15/13 A2972 RMK AO2,KDVO,2018-03-22T15:15:00Z,38.15,-122.55,15.0,13.0,200,10,15,10.0,29.719488,,,TRUE,TRUE,,,,,,,BKN,2000,OVC,2700,,,,,MVFR,,,,,,,,,,,,SPECI,1.0
KDUC 221515Z AUTO 18017KT 10SM 17/05 A3022 RMK AO2 T01710050,KDUC,2018-03-22T15:15:00Z,34.47,-97.97,17.1,5.0,180,17,,10.0,30.221457,,,TRUE,TRUE,,,,,,,,,,,,,,,,,,,,,,,,,,,SPECI,339.0
KDUB 221515Z AUTO 29011KT 10SM BKN047 BKN100 OVC120 03/M01 A3000 RMK AO2,KDUB,2018-03-22T15:15:00Z,43.55,-109.68,3.0,-1.0,290,11,,10.0,30.0,,,TRUE,TRUE,,,,,,,BKN,4700,BKN,10000,OVC,12000,,,VFR,,,,,,,,,,,,SPECI,2224.0
KDUA 221515Z AUTO 15010KT 10SM CLR 16/05 A3029 RMK AO2,KDUA,2018-03-22T15:15:00Z,33.95,-96.4,16.0,5.0,150,10,,10.0,30.28937,,,TRUE,TRUE,,,,,,,CLR,,,,,,,,VFR,,,,,,,,,,,,SPECI,213.0
KDQH 221515Z AUTO 33008KT 10SM CLR 09/M02 A3028 RMK AO2,KDQH,2018-03-22T15:15:00Z,31.48,-82.87,9.0,-2.0,330,8,,10.0,30.280512,,,TRUE,TRUE,,,,,,,CLR,,,,,,,,VFR,,,,,,,,,,,,SPECI,78.0
KDNV 221515Z AUTO 34009KT 10SM CLR 04/M08 A3034 RMK AO2 T00351082,KDNV,2018-03-22T15:15:00Z,40.2,-87.6,3.5,-8.2,340,9,,10.0,30.339567,,,TRUE,TRUE,,,,,,,CLR,,,,,,,,VFR,,,,,,,,,,,,SPECI,212.0
KLCQ 221515Z AUTO 31009G14KT 10SM CLR 10/M01 A3026 RMK AO2,KLCQ,2018-03-22T15:15:00Z,30.18,-82.58,10.0,-1.0,310,9,14,10.0,30.259842,,,TRUE,TRUE,,,,,,,CLR,,,,,,,,VFR,,,,,,,,,,,,SPECI,61.0
KLCG 221515Z AUTO 15009KT 10SM CLR 06/04 A3018 RMK AO2 T00630042,KLCG,2018-03-22T15:15:00Z,42.25,-96.98,6.3,4.2,150,9,,10.0,30.180119,,,TRUE,TRUE,,,,,,,CLR,,,,,,,,VFR,,,,,,,,,,,,SPECI,436.0
KL35 221515Z AUTO 21015G35KT 184V244 10SM CLR 07/00 A3007 RMK AO2,KL35,2018-03-22T15:15:00Z,34.27,-116.85,7.0,0.0,210,15,35,10.0,30.070866,,,TRUE,TRUE,,,,,,,CLR,,,,,,,,VFR,,,,,,,,,,,,METAR,2059.0
KJYR 221515Z AUTO 17012KT 10SM CLR 08/03 A3016 RMK AO2,KJYR,2018-03-22T15:15:00Z,40.9,-97.62,8.0,3.0,170,12,,10.0,30.159449,,,TRUE,TRUE,,,,,,,CLR,,,,,,,,VFR,,,,,,,,,,,,SPECI,509.0
KJYO 221515Z AUTO 34020G26KT 10SM CLR 03/M04 A3003 RMK AO2 P0001,KJYO,2018-03-22T15:15:00Z,39.07,-77.57,3.0,-4.0,340,20,26,10.0,30.029528,,,TRUE,TRUE,,,,,,,CLR,,,,,,,,VFR,,,,,,0.01,,,,,,SPECI,119.0
KJWY 221515Z AUTO 16007KT 10SM CLR 16/10 A3030 RMK AO2 T01590101,KJWY,2018-03-22T15:15:00Z,32.45,-96.92,15.9,10.1,160,7,,10.0,30.301182,,,TRUE,TRUE,,,,,,,CLR,,,,,,,,VFR,,,,,,,,,,,,SPECI,217.0
KJWG 221515Z AUTO 17015G21KT 10SM CLR 16/04 A3013 RMK AO2 T01600040,KJWG,2018-03-22T15:15:00Z,35.87,-98.42,16.0,4.0,170,15,21,10.0,30.129921,,,TRUE,TRUE,,,,,,,CLR,,,,,,,,VFR,,,,,,,,,,,,SPECI,472.0
KJOT 221515Z AUTO 35003KT 10SM CLR 04/M07 A3037 RMK AO2 T00351075,KJOT,2018-03-22T15:15:00Z,41.52,-88.18,3.5,-7.5,350,3,,10.0,30.369095,,,TRUE,TRUE,,,,,,,CLR,,,,,,,,VFR,,,,,,,,,,,,SPECI,177.0
KJKA 221515Z AUTO 01008KT 10SM CLR 13/00 A3038 RMK AO2 T01310002,KJKA,2018-03-22T15:15:00Z,30.28,-87.67,13.1,0.2,10,8,,10.0,30.380905,,,TRUE,TRUE,,,,,,,CLR,,,,,,,,VFR,,,,,,,,,,,,SPECI,5.0
KJGG 221515Z AUTO 34012G21KT 10SM CLR 07/M02 A3003 RMK AO1,KJGG,2018-03-22T15:15:00Z,37.23,-76.72,7.0,-2.0,340,12,21,10.0,30.029528,,,TRUE,TRUE,,,,,,,CLR,,,,,,,,VFR,,,,,,,,,,,,SPECI,15.0
KJFZ 221515Z AUTO 29009KT 10SM CLR 00/M07 A3014 RMK AO2 T10011068,KJFZ,2018-03-22T15:15:00Z,37.07,-81.8,-0.1,-6.8,290,9,,10.0,30.138779,,,TRUE,TRUE,,,,,,,CLR,,,,,,,,VFR,,,,,,,,,,,,SPECI,809.0
KJDD 221515Z AUTO 13005KT 10SM OVC100 16/07 A3033 RMK AO2,KJDD,2018-03-22T15:15:00Z,32.75,-95.5,16.0,7.0,130,5,,10.0,30.33071,,,TRUE,TRUE,,,,,,,OVC,10000,,,,,,,VFR,,,,,,,,,,,,SPECI,132.0
KJCA 221515Z AUTO 32009KT 10SM CLR 07/M05 A3023 RMK AO2,KJCA,2018-03-22T15:15:00Z,34.18,-83.57,7.0,-5.0,320,9,,10.0,30.230314,,,TRUE,TRUE,,,,,,,CLR,,,,,,,,VFR,,,,,,,,,,,,SPECI,290.0
KJAS 221515Z AUTO 11003KT 10SM CLR 17/06 A3039 RMK AO2 T01670056,KJAS,2018-03-22T15:15:00Z,30.88,-94.03,16.7,5.6,110,3,,10.0,30.389763,,,TRUE,TRUE,,,,,,,CLR,,,,,,,,VFR,,,,,,,,,,,,SPECI,65.0
KIZA 221515Z AUTO 18010G19KT 7SM RA BKN026 OVC038 15/11 A2996 RMK AO2 P0001,KIZA,2018-03-22T15:15:00Z,34.6,-120.07,15.0,11.0,180,10,19,7.0,29.958662,,,TRUE,TRUE,,,,,,RA,BKN,2600,OVC,3800,,,,,MVFR,,,,,,0.01,,,,,,SPECI,205.0
KINJ 221515Z AUTO 16010KT 10SM CLR 17/12 A3028 RMK AO2 T01730123,KINJ,2018-03-22T15:15:00Z,32.08,-97.1,17.3,12.3,160,10,,10.0,30.280512,,,TRUE,TRUE,,,,,,,CLR,,,,,,,,VFR,,,,,,,,,,,,SPECI,209.0
KIKK 221515Z AUTO 35005KT 10SM CLR 03/M07 A3038 RMK AO2 T00261068,KIKK,2018-03-22T15:15:00Z,41.07,-87.85,2.6,-6.8,350,5,,10.0,30.380905,,,TRUE,TRUE,,,,,,,CLR,,,,,,,,VFR,,,,,,,,,,,,SPECI,192.0
KTMT 221515Z AUTO 21012KT 10SM OVC075 10/04 A2978 RMK AO2 T00970035,KTMT,2018-03-22T15:15:00Z,39.47,-117.2,9.7,3.5,210,12,,10.0,29.778543,,,TRUE,TRUE,,,,,,,OVC,7500,,,,,,,VFR,,,,,,,,,,,,METAR,1748.0
KSME 221515Z AUTO 01003KT 10SM CLR 02/M05 A3032 RMK AO2,KSME,2018-03-22T15:15:00Z,37.05,-84.62,2.0,-5.0,10,3,,10.0,30.318897,,,TRUE,TRUE,,,,,,,CLR,,,,,,,,VFR,,,,,,,,,,,,METAR,283.0
KSEF 221515Z AUTO 35007KT 10SM CLR 17/M02 A3025 RMK AO2 T01681018,KSEF,2018-03-22T15:15:00Z,27.45,-81.35,16.8,-1.8,350,7,,10.0,30.250984,,,TRUE,TRUE,,,,,,,CLR,,,,,,,,VFR,,,,,,,,,,,,METAR,19.0
KSBO 221515Z AUTO 33009KT 10SM CLR 10/M01 A3024 RMK AO2,KSBO,2018-03-22T15:15:00Z,32.62,-82.37,10.0,-1.0,330,9,,10.0,30.239174,,,TRUE,TRUE,,,,,,,CLR,,,,,,,,VFR,,,,,,,,,,,,METAR,100.0
KRQO 221515Z AUTO 17024KT 10SM CLR 15/02 A3017 RMK AO2 T01540017,KRQO,2018-03-22T15:15:00Z,35.47,-98.0,15.4,1.7,170,24,,10.0,30.171259,,,TRUE,TRUE,,,,,,,CLR,,,,,,,,VFR,,,,,,,,,,,,METAR,432.0
KRBO 221515Z AUTO 14016KT 10SM SCT034 OVC075 23/16 A3028 RMK AO2 T02250160,KRBO,2018-03-22T15:15:00Z,27.78,-97.68,22.5,16.0,140,16,,10.0,30.280512,,,TRUE,TRUE,,,,,,,SCT,3400,OVC,7500,,,,,VFR,,,,,,,,,,,,SPECI,24.0
KPRO 221515Z AUTO 11009KT 10SM OVC080 02/01 A3030 RMK AO2 T00200014,KPRO,2018-03-22T15:15:00Z,41.83,-94.17,2.0,1.4,110,9,,10.0,30.301182,,,TRUE,TRUE,,,,,,,OVC,8000,,,,,,,VFR,,,,,,,,,,,,METAR,308.0
KOPN 221515Z AUTO 36010G15KT 340V040 CLR 08/M07 A3031 RMK AO2 PWINO,KOPN,2018-03-22T15:15:00Z,32.95,-84.27,8.0,-7.0,360,10,15,,30.31004,,,TRUE,TRUE,,,,,TRUE,,CLR,,,,,,,,,,,,,,,,,,,,METAR,243.0
KNOW 221515Z AUTO 25003KT 10SM -DZ OVC010 07/05 A2946 RMK AO2 T00650052,KNOW,2018-03-22T15:15:00Z,48.13,-123.4,6.5,5.2,250,3,,10.0,29.459646,,,TRUE,TRUE,,,,,,-DZ,OVC,1000,,,,,,,MVFR,,,,,,,,,,,,SPECI,4.0
KMYZ 221515Z AUTO 16011KT 10SM CLR 10/02 A3021 RMK AO2,KMYZ,2018-03-22T15:15:00Z,39.85,-96.63,10.0,2.0,160,11,,10.0,30.209646,,,TRUE,TRUE,,,,,,,CLR,,,,,,,,VFR,,,,,,,,,,,,METAR,319.0
KMGR 221515Z AUTO 35010G15KT 10SM CLR 11/M04 A3029 RMK AO2,KMGR,2018-03-22T15:15:00Z,31.08,-83.8,11.0,-4.0,350,10,15,10.0,30.28937,,,TRUE,TRUE,,,,,,,CLR,,,,,,,,VFR,,,,,,,,,,,,METAR,90.0
KF45 221515Z AUTO 33012G15KT 10SM CLR 17/M02 A3023 RMK AO2,KF45,2018-03-22T15:15:00Z,,,17.0,-2.0,330,12,15,10.0,30.230314,,,TRUE,TRUE,,,,,,,CLR,,,,,,,,VFR,,,,,,,,,,,,METAR,
KKY8 221515Z AUTO 32006KT 10SM CLR 05/M05 A3038 RMK A01,KKY8,2018-03-22T15:15:00Z,37.95,-86.87,5.0,-5.0,320,6,,10.0,30.380905,,,TRUE,TRUE,,,,,,,CLR,,,,,,,,VFR,,,,,,,,,,,,SPECI,126.0
KMCC 221515Z AUTO 20013G20KT 10SM FEW014 SCT070 BKN085 15/14 A2974 RMK AO2,KMCC,2018-03-22T15:15:00Z,38.67,-121.4,15.0,14.0,200,13,20,10.0,29.740158,,,TRUE,TRUE,,,,,,,FEW,1400,SCT,7000,BKN,8500,,,VFR,,,,,,,,,,,,SPECI,23.0
KMNV 221515Z AUTO 35004KT 10SM CLR 06/M03 A3029 RMK A01,KMNV,2018-03-22T15:15:00Z,35.55,-84.38,6.0,-3.0,350,4,,10.0,30.28937,,,TRUE,TRUE,,,,,,,CLR,,,,,,,,VFR,,,,,,,,,,,,SPECI,314.0
KPTD 221515Z AUTO 32007KT 10SM CLR M00/M08 A2998 RMK AO2,KPTD,2018-03-22T15:15:00Z,44.68,-74.95,0.0,-8.0,320,7,,10.0,29.97933,,,TRUE,TRUE,,,,,,,CLR,,,,,,,,VFR,,,,,,,,,,,,SPECI,144.0
KS39 221515Z AUTO 15013G21KT 10SM CLR 08/04 A2945 RMK AO2,KS39,2018-03-22T15:15:00Z,44.28,-120.9,8.0,4.0,150,13,21,10.0,29.450787,,,TRUE,TRUE,,,,,,,CLR,,,,,,,,VFR,,,,,,,,,,,,SPECI,991.0
KFYG 221515Z AUTO 00000KT 10SM SCT060 BKN065 BKN080 03/01 A3039 RMK AO2,KFYG,2018-03-22T15:15:00Z,38.58,-91.0,3.0,1.0,0,0,,10.0,30.389763,,,TRUE,TRUE,,,,,,,SCT,6000,BKN,6500,BKN,8000,,,VFR,,,,,,,,,,,,SPECI,149.0
KEDJ 221515Z AUTO 27005KT 10SM CLR M02/M07 A3026 RMK AO1,KEDJ,2018-03-22T15:15:00Z,40.37,-83.82,-2.0,-7.0,270,5,,10.0,30.259842,,,TRUE,TRUE,,,,,,,CLR,,,,,,,,VFR,,,,,,,,,,,,SPECI,342.0
KTVK 221515Z AUTO 10004KT 10SM 02/02 A3036 RMK AO2,KTVK,2018-03-22T15:15:00Z,40.68,-92.9,2.0,2.0,100,4,,10.0,30.360237,,,TRUE,TRUE,,,,,,,,,,,,,,,,,,,,,,,,,,,SPECI,314.0
KHAE 221515Z AUTO 27003KT 10SM OVC060 06/M01 A3039 RMK AO2,KHAE,2018-03-22T15:15:00Z,39.73,-91.45,6.0,-1.0,270,3,,10.0,30.389763,,,TRUE,TRUE,,,,,,,OVC,6000,,,,,,,VFR,,,,,,,,,,,,SPECI,234.0
KLRO 221515Z AUTO 30009KT 020V030 10SM CLR 10/M01 A3016 RMK AO2,KLRO,2018-03-22T15:15:00Z,32.9,-79.78,10.0,-1.0,300,9,,10.0,30.159449,,,TRUE,TRUE,,,,,,,CLR,,,,,,,,VFR,,,,,,,,,,,,METAR,4.0
KLCK 221515Z AUTO 33007KT 10SM CLR 02/M05 A3025 RMK AO2 T00161053,KLCK,2018-03-22T15:15:00Z,39.82,-82.92,1.6,-5.3,330,7,,10.0,30.250984,,,TRUE,TRUE,,,,,,,CLR,,,,,,,,VFR,,,,,,,,,,,,METAR,227.0
KJES 221515Z AUTO 32003KT 10SM CLR 11/M02 A3024 RMK AO2,KJES,2018-03-22T15:15:00Z,31.55,-81.88,11.0,-2.0,320,3,,10.0,30.239174,,,TRUE,TRUE,,,,,,,CLR,,,,,,,,VFR,,,,,,,,,,,,METAR,33.0
KIDP 221515Z AUTO 18016KT 10SM CLR 13/03 A3026 RMK AO2 T01300027,KIDP,2018-03-22T15:15:00Z,37.17,-95.78,13.0,2.7,180,16,,10.0,30.259842,,,TRUE,TRUE,,,,,,,CLR,,,,,,,,VFR,,,,,,,,,,,,METAR,251.0
KHVS 221515Z AUTO 28004KT 10SM CLR 08/M05 A3015 RMK AO2,KHVS,2018-03-22T15:15:00Z,34.4,-80.12,8.0,-5.0,280,4,,10.0,30.15059,,,TRUE,TRUE,,,,,,,CLR,,,,,,,,VFR,,,,,,,,,,,,METAR,111.0
KHSP 221515Z AUTO 00000KT 10SM SCT120 M03/M06 A2998 RMK AO2 T10331064,KHSP,2018-03-22T15:15:00Z,37.95,-79.82,-3.3,-6.4,0,0,,10.0,29.97933,,,TRUE,TRUE,,,,,,,SCT,12000,,,,,,,VFR,,,,,,,,,,,,METAR,1156.0
KEMV 221515Z AUTO 29010G16KT CLR 05/M03 A3007 RMK AO2,KEMV,2018-03-22T15:15:00Z,36.68,-77.48,5.0,-3.0,290,10,16,,30.070866,,,TRUE,TRUE,,,,,,,CLR,,,,,,,,,,,,,,,,,,,,METAR,39.0
KEHY 221515Z AUTO 24011G17KT 10SM CLR 08/M03 A3008 RMK AO2,KEHY,2018-03-22T15:15:00Z,41.73,-106.47,8.0,-3.0,240,11,17,10.0,30.079725,,,TRUE,TRUE,,,,,,,CLR,,,,,,,,VFR,,,,,,,,,,,,SPECI,2225.0
KDWX 221515Z AUTO 12004KT 10SM SCT090 SCT110 08/M01 A3015 RMK AO2 T00781011,KDWX,2018-03-22T15:15:00Z,41.03,-107.5,7.8,-1.1,120,4,,10.0,30.15059,,,TRUE,TRUE,,,,,,,SCT,9000,SCT,11000,,,,,VFR,,,,,,,,,,,,SPECI,1996.0
KDVK 221515Z AUTO 32006KT 10SM CLR 00/M03 A3032 RMK AO2,KDVK,2018-03-22T15:15:00Z,37.58,-84.77,0.0,-3.0,320,6,,10.0,30.318897,,,TRUE,TRUE,,,,,,,CLR,,,,,,,,VFR,,,,,,,,,,,,SPECI,312.0
KDTA 221515Z AUTO 17009KT 10SM SCT070 OVC075 11/04 A2999 RMK AO1,KDTA,2018-03-22T15:15:00Z,39.38,-112.5,11.0,4.0,170,9,,10.0,29.991142,,,TRUE,TRUE,,,,,,,SCT,7000,OVC,7500,,,,,VFR,,,,,,,,,,,,SPECI,1402.0
KCHK 221515Z AUTO 17013G19KT 10SM CLR 17/03 A3015 RMK AO2 T01690025,KCHK,2018-03-22T15:15:00Z,35.1,-97.97,16.9,2.5,170,13,19,10.0,30.15059,,,TRUE,TRUE,,,,,,,CLR,,,,,,,,VFR,,,,,,,,,,,,METAR,351.0
KCBK 221515Z AUTO 00000KT 10SM CLR 07/01 A3010 RMK AO2,KCBK,2018-03-22T15:15:00Z,39.43,-101.05,7.0,1.0,0,0,,10.0,30.100393,,,TRUE,TRUE,,,,,,,CLR,,,,,,,,VFR,,,,,,,,,,,,METAR,971.0
KBCB 221515Z AUTO 30006KT 10SM OVC110 00/M06 A3013 RMK AO2 T00021065,KBCB,2018-03-22T15:15:00Z,37.22,-80.42,0.2,-6.5,300,6,,10.0,30.129921,,,TRUE,TRUE,,,,,,,OVC,11000,,,,,,,VFR,,,,,,,,,,,,METAR,650.0
K3N8 221515Z AUTO 00000KT 10SM SCT022 OVC036 01/M01 A3033 RMK AO2 T00101009,K3N8,2018-03-22T15:15:00Z,47.25,-95.88,1.0,-0.9,0,0,,10.0,30.33071,,,TRUE,TRUE,,,,,,,SCT,2200,OVC,3600,,,,,VFR,,,,,,,,,,,,SPECI,383.0
K28J 221515Z AUTO 30004KT 10SM CLR 12/M01 A3025 RMK AO2,K28J,2018-03-22T15:15:00Z,29.65,-81.58,12.0,-1.0,300,4,,10.0,30.250984,,,TRUE,TRUE,,,,,,,CLR,,,,,,,,VFR,,,,,,,,,,,,METAR,15.0
K1K1 221515Z AUTO 17013G21KT 10SM CLR 14/M01 A3018 RMK AO2 T01371011,K1K1,2018-03-22T15:15:00Z,37.77,-97.12,13.7,-1.1,170,13,21,10.0,30.180119,,,TRUE,TRUE,,,,,,,CLR,,,,,,,,VFR,,,,,,,,,,,,METAR,416.0
K1F0 221515Z AUTO 19011G14KT 10SM CLR 16/05 A3025 RMK AO2,K1F0,2018-03-22T15:15:00Z,34.15,-97.12,16.0,5.0,190,11,14,10.0,30.250984,,,TRUE,TRUE,,,,,,,CLR,,,,,,,,VFR,,,,,,,,,,,,METAR,257.0
K17J 221515Z AUTO 01009KT 10SM CLR 11/M02 A3033 RMK AO2 T01071024,K17J,2018-03-22T15:15:00Z,31.07,-84.92,10.7,-2.4,10,9,,10.0,30.33071,,,TRUE,TRUE,,,,,,,CLR,,,,,,,,VFR,,,,,,,,,,,,METAR,45.0
K0V4 221515Z AUTO 31010G17KT 10SM CLR 06/M06 A3009 RMK AO1 T00601062,K0V4,2018-03-22T15:15:00Z,37.15,-79.02,6.0,-6.2,310,10,17,10.0,30.088583,,,TRUE,TRUE,,,,,,,CLR,,,,,,,,VFR,,,,,,,,,,,,METAR,182.0
KW43 221515Z AUTO 00000KT 10SM CLR 05/M02 A3004 RMK AO2,KW43,2018-03-22T15:15:00Z,44.67,-104.57,5.0,-2.0,0,0,,10.0,30.041338,,,TRUE,TRUE,,,,,,,CLR,,,,,,,,VFR,,,,,,,,,,,,SPECI,1300.0
KW13 221515Z AUTO 31003KT 10SM CLR 02/M07 A3006 RMK AO1 T00151068,KW13,2018-03-22T15:15:00Z,38.08,-78.95,1.5,-6.8,310,3,,10.0,30.059055,,,TRUE,TRUE,,,,,,,CLR,,,,,,,,VFR,,,,,,,,,,,,METAR,443.0
KLVN 221515Z AUTO 09003KT 10SM BKN035 01/M03 A3036 RMK AO2,KLVN,2018-03-22T15:15:00Z,44.63,-93.23,1.0,-3.0,90,3,,10.0,30.360237,,,TRUE,TRUE,,,,,,,BKN,3500,,,,,,,VFR,,,,,,,,,,,,METAR,293.0
KCVH 221515Z AUTO 00000KT 2SM BR FEW002 SCT015 OVC023 14/14 A2982 RMK A01 VIS 1 1/4V4,KCVH,2018-03-22T15:15:00Z,36.9,-121.42,14.0,14.0,0,0,,2.0,29.819881,,,TRUE,TRUE,,,,,,BR,FEW,200,SCT,1500,OVC,2300,,,IFR,,,,,,,,,,,,SPECI,70.0
CMGB 221515Z AUTO 34005KT M00/M06 RMK AO1 SOG 18 1003 SLP135 T10031056,CMGB,2018-03-22T15:15:00Z,45.37,-72.77,-0.3,-5.6,340,5,,,,1013.5,,TRUE,TRUE,,,,,,,,,,,,,,,,,,,,,,,,,,,SPECI,86.0
PAAD 221515Z AUTO 11008KT 10SM OVC100 M27/M30 A3046 RMK AO2 T12741301,PAAD,2018-03-22T15:15:00Z,70.13,-146.28,-27.4,-30.1,110,8,,10.0,30.46063,,,TRUE,TRUE,,,,,,,OVC,10000,,,,,,,VFR,,,,,,,,,,,,METAR,8.0
KY49 221515Z AUTO 00000KT 7SM -SN OVC018 M01/M03 A3034 RMK AO2 T10151035,KY49,2018-03-22T15:15:00Z,47.13,-94.65,-1.5,-3.5,0,0,,7.0,30.339567,,,TRUE,TRUE,,,,,,-SN,OVC,1800,,,,,,,MVFR,,,,,,,,,,,,SPECI,416.0
KY23 221515Z AUTO 10004KT 10SM OVC080 M01/M09 A3037 RMK AO2 T10071090,KY23,2018-03-22T15:15:00Z,45.3,-91.63,-0.7,-9.0,100,4,,10.0,30.369095,,,TRUE,TRUE,,,,,,,OVC,8000,,,,,,,VFR,,,,,,,,,,,,SPECI,322.0
KXLL 221515Z AUTO 33007KT 10SM SCT050 SCT055 03/M05 A2991 RMK AO2,KXLL,2018-03-22T15:15:00Z,40.57,-75.48,3.0,-5.0,330,7,,10.0,29.911417,,,TRUE,TRUE,,,,,,,SCT,5000,SCT,5500,,,,,VFR,,,,,,,,,,,,SPECI,122.0
KW81 221515Z AUTO 31013G22KT 10SM CLR 06/M05 A3007 RMK AO1 T00581051,KW81,2018-03-22T15:15:00Z,37.18,-78.1,5.8,-5.1,310,13,22,10.0,30.070866,,,TRUE,TRUE,,,,,,,CLR,,,,,,,,VFR,,,,,,,,,,,,SPECI,129.0
KW63 221515Z AUTO 33007G15KT 10SM CLR 06/M04 A3009 RMK AO1,KW63,2018-03-22T15:15:00Z,36.6,-78.55,6.0,-4.0,330,7,15,10.0,30.088583,,,TRUE,TRUE,,,,,,,CLR,,,,,,,,VFR,,,,,,,,,,,,SPECI,129.0
KW22 221515Z AUTO 23007KT 10SM OVC011 M02/M05 A3015 RMK AO2,KW22,2018-03-22T15:15:00Z,39.0,-80.27,-2.0,-5.0,230,7,,10.0,30.15059,,,TRUE,TRUE,,,,,,,OVC,1100,,,,,,,MVFR,,,,,,,,,,,,SPECI,499.0
KVYS 221515Z AUTO 00000KT 10SM CLR 05/M05 A3037 RMK AO2 T00461048,KVYS,2018-03-22T15:15:00Z,41.35,-89.15,4.6,-4.8,0,0,,10.0,30.369095,,,TRUE,TRUE,,,,,,,CLR,,,,,,,,VFR,,,,,,,,,,,,SPECI,199.0
KVUJ 221515Z AUTO 32013G16KT 270V350 10SM CLR 07/M06 A3018 RMK AO2 T00671060,KVUJ,2018-03-22T15:15:00Z,35.42,-80.15,6.7,-6.0,320,13,16,10.0,30.180119,,,TRUE,TRUE,,,,,,,CLR,,,,,,,,VFR,,,,,,,,,,,,SPECI,186.0
KVER 221515Z AUTO 08005KT 10SM OVC100 07/01 A3036 RMK AO2 T00720008,KVER,2018-03-22T15:15:00Z,38.95,-92.68,7.2,0.8,80,5,,10.0,30.360237,,,TRUE,TRUE,,,,,,,OVC,10000,,,,,,,VFR,,,,,,,,,,,,SPECI,218.0
KUXL 221515Z AUTO 12011KT 10SM CLR 19/05 A3038 RMK AO2 T01850052,KUXL,2018-03-22T15:15:00Z,30.13,-93.38,18.5,5.2,120,11,,10.0,30.380905,,,TRUE,TRUE,,,,,,,CLR,,,,,,,,VFR,,,,,,,,,,,,SPECI,4.0
KUNU 221515Z AUTO 26003KT 10SM CLR 01/M06 A3034 RMK AO2 T00051059,KUNU,2018-03-22T15:15:00Z,43.42,-88.7,0.5,-5.9,260,3,,10.0,30.339567,,,TRUE,TRUE,,,,,,,CLR,,,,,,,,VFR,,,,,,,,,,,,SPECI,285.0
KUBE 221515Z AUTO 00000KT 10SM OVC070 M02/M08 A3036 RMK AO2,KUBE,2018-03-22T15:15:00Z,45.5,-91.98,-2.0,-8.0,0,0,,10.0,30.360237,,,TRUE,TRUE,,,,,,,OVC,7000,,,,,,,VFR,,,,,,,,,,,,SPECI,379.0
KU68 221515Z AUTO 08004KT 10SM BKN100 06/M01 A2998 RMK AO2,KU68,2018-03-22T15:15:00Z,44.92,-108.45,6.0,-1.0,80,4,,10.0,29.97933,,,TRUE,TRUE,,,,,,,BKN,10000,,,,,,,VFR,,,,,,,,,,,,METAR,1247.0
KTVI 221515Z AUTO 34011G18KT 10SM CLR 11/M03 A3030 RMK AO2,KTVI,2018-03-22T15:15:00Z,30.9,-83.88,11.0,-3.0,340,11,18,10.0,30.301182,,,TRUE,TRUE,,,,,,,CLR,,,,,,,,VFR,,,,,,,,,,,,SPECI,80.0
KTTA 221515Z AUTO 32010G15KT 10SM CLR 06/M06 A3012 RMK AO2 T00631057,KTTA,2018-03-22T15:15:00Z,35.58,-79.1,6.3,-5.7,320,10,15,10.0,30.121063,,,TRUE,TRUE,,,,,,,CLR,,,,,,,,VFR,,,,,,,,,,,,SPECI,75.0
KTOC 221515Z AUTO 30003KT 10SM CLR 10/M05 A3021 RMK AO2 T00981055,KTOC,2018-03-22T15:15:00Z,34.6,-83.3,9.8,-5.5,300,3,,10.0,30.209646,,,TRUE,TRUE,,,,,,,CLR,,,,,,,,VFR,,,,,,,,,,,,SPECI,304.0
KTMK 221515Z AUTO 16006KT 7SM DZ SCT015 BKN023 OVC037 05/05 A2962 RMK AO2,KTMK,2018-03-22T15:15:00Z,45.42,-123.82,5.0,5.0,160,6,,7.0,29.619095,,,TRUE,TRUE,,,,,,DZ,SCT,1500,BKN,2300,OVC,3700,,,MVFR,,,,,,,,,,,,METAR,11.0
KTKV 221515Z AUTO 31004KT 10SM CLR M02/M11 A3033 RMK AO2 T10181106,KTKV,2018-03-22T15:15:00Z,45.47,-89.82,-1.8,-10.6,310,4,,10.0,30.33071,,,TRUE,TRUE,,,,,,,CLR,,,,,,,,VFR,,,,,,,,,,,,SPECI,453.0
KTIP 221515Z AUTO 00000KT 10SM CLR 05/M05 A3037 RMK AO2 T00461049,KTIP,2018-03-22T15:15:00Z,40.28,-88.15,4.6,-4.9,0,0,,10.0,30.369095,,,TRUE,TRUE,,,,,,,CLR,,,,,,,,VFR,,,,,,,,,,,,SPECI,225.0
KTIF 221515Z AUTO 05004KT 10SM CLR 08/03 A3009 RMK AO2 T00800029,KTIF,2018-03-22T15:15:00Z,41.97,-100.57,8.0,2.9,50,4,,10.0,30.088583,,,TRUE,TRUE,,,,,,,CLR,,,,,,,,VFR,,,,,,,,,,,,SPECI,892.0
KTDF 221515Z AUTO 32009G20KT 290V360 10SM CLR 04/M06 A3013 RMK AO2,KTDF,2018-03-22T15:15:00Z,36.28,-78.98,4.0,-6.0,320,9,20,10.0,30.129921,,,TRUE,TRUE,,,,,,,CLR,,,,,,,,VFR,,,,,,,,,,,,SPECI,186.0
KTAZ 221515Z AUTO 29004KT 10SM CLR 06/M06 A3038 RMK AO2 T00561057,KTAZ,2018-03-22T15:15:00Z,39.53,-89.33,5.6,-5.7,290,4,,10.0,30.380905,,,TRUE,TRUE,,,,,,,CLR,,,,,,,,VFR,,,,,,,,,,,,SPECI,190.0
KT82 221515Z AUTO 17007KT 10SM OVC012 16/12 A3028 RMK AO2 T01600120,KT82,2018-03-22T15:15:00Z,30.25,-98.92,16.0,12.0,170,7,,10.0,30.280512,,,TRUE,TRUE,,,,,,,OVC,1200,,,,,,,MVFR,,,,,,,,,,,,METAR,517.0
KT65 221515Z AUTO 14011KT 7SM 23/17 A3024 RMK AO2 T02340166,KT65,2018-03-22T15:15:00Z,26.18,-97.97,23.4,16.6,140,11,,7.0,30.239174,,,TRUE,TRUE,,,,,,,,,,,,,,,,,,,,,,,,,,,METAR,21.0
KT35 221515Z AUTO 17009KT 10SM CLR 19/12 A3030 RMK AO2 T01860116,KT35,2018-03-22T15:15:00Z,30.88,-96.97,18.6,11.6,170,9,,10.0,30.301182,,,TRUE,TRUE,,,,,,,CLR,,,,,,,,VFR,,,,,,,,,,,,METAR,123.0
KT20 221515Z AUTO 14010G14KT 10SM CLR 20/15 A3029 RMK AO2 T02020148,KT20,2018-03-22T15:15:00Z,29.52,-97.47,20.2,14.8,140,10,14,10.0,30.28937,,,TRUE,TRUE,,,,,,,CLR,,,,,,,,VFR,,,,,,,,,,,,METAR,108.0
KSVH 221515Z AUTO 29009KT 10SM CLR 06/M09 A3013 RMK AO2 T00611088,KSVH,2018-03-22T15:15:00Z,35.75,-80.95,6.1,-8.8,290,9,,10.0,30.129921,,,TRUE,TRUE,,,,,,,CLR,,,,,,,,VFR,,,,,,,,,,,,SPECI,294.0
KSUT 221515Z AUTO 32009G15KT 10SM SCT042 09/M01 A3011 RMK AO2 T00861009,KSUT,2018-03-22T15:15:00Z,33.93,-78.08,8.6,-0.9,320,9,15,10.0,30.109253,,,TRUE,TRUE,,,,,,,SCT,4200,,,,,,,VFR,,,,,,,,,,,,SPECI,8.0
KSTE 221515Z AUTO 00000KT 10SM CLR 00/M09 A3034 RMK AO2 T10021089,KSTE,2018-03-22T15:15:00Z,44.55,-89.53,-0.2,-8.9,0,0,,10.0,30.339567,,,TRUE,TRUE,,,,,,,CLR,,,,,,,,VFR,,,,,,,,,,,,SPECI,338.0
KSOA 221515Z AUTO 18014G20KT 10SM OVC013 16/13 A3026 RMK AO2,KSOA,2018-03-22T15:15:00Z,30.58,-100.65,16.0,13.0,180,14,20,10.0,30.259842,,,TRUE,TRUE,,,,,,,OVC,1300,,,,,,,MVFR,,,,,,,,,,,,SPECI,652.0
KSNL 221515Z AUTO 16019G22KT 10SM CLR 16/00 A3022 RMK AO2 T01621005,KSNL,2018-03-22T15:15:00Z,35.35,-96.95,16.2,-0.5,160,19,22,10.0,30.221457,,,TRUE,TRUE,,,,,,,CLR,,,,,,,,VFR,,,,,,,,,,,,SPECI,327.0
KSIF 221515Z AUTO 36004KT 10SM CLR 05/M07 A3013 RMK AO2 T00521069,KSIF,2018-03-22T15:15:00Z,36.43,-79.85,5.2,-6.9,360,4,,10.0,30.129921,,,TRUE,TRUE,,,,,,,CLR,,,,,,,,VFR,,,,,,,,,,,,SPECI,211.0
KSFY 221515Z AUTO 03003KT 10SM CLR 04/M07 A3037 RMK AO2 T00401067,KSFY,2018-03-22T15:15:00Z,42.05,-90.12,4.0,-6.7,30,3,,10.0,30.369095,,,TRUE,TRUE,,,,,,,CLR,,,,,,,,VFR,,,,,,,,,,,,SPECI,188.0
KSFQ 221515Z AUTO 33012G17KT 10SM CLR 07/M02 A3002 RMK AO2 T00671022,KSFQ,2018-03-22T15:15:00Z,36.68,-76.6,6.7,-2.2,330,12,17,10.0,30.02067,,,TRUE,TRUE,,,,,,,CLR,,,,,,,,VFR,,,,,,,,,,,,SPECI,22.0
KSEZ 221515Z AUTO 00000KT 10SM CLR 14/M03 A3021 RMK AO2,KSEZ,2018-03-22T15:15:00Z,34.85,-111.78,14.0,-3.0,0,0,,10.0,30.209646,,,TRUE,TRUE,,,,,,,CLR,,,,,,,,VFR,,,,,,,,,,,,METAR,1473.0
KSCR 221515Z AUTO 36010G15KT 10SM CLR 06/M06 A3012 RMK AO2 T00641062,KSCR,2018-03-22T15:15:00Z,35.7,-79.5,6.4,-6.2,360,10,15,10.0,30.121063,,,TRUE,TRUE,,,,,,,CLR,,,,,,,,VFR,,,,,,,,,,,,SPECI,188.0
KRZN 221515Z AUTO 00000KT 10SM SCT048 SCT050 OVC075 M02/M07 A3037 RMK AO2 T10221073,KRZN,2018-03-22T15:15:00Z,45.82,-92.37,-2.2,-7.3,0,0,,10.0,30.369095,,,TRUE,TRUE,,,,,,,SCT,4800,SCT,5000,OVC,7500,,,VFR,,,,,,,,,,,,SPECI,301.0
KRWV 221515Z AUTO 15007KT 10SM CLR 18/12 A3032 RMK AO2 T01770120,KRWV,2018-03-22T15:15:00Z,30.52,-96.7,17.7,12.0,150,7,,10.0,30.318897,,,TRUE,TRUE,,,,,,,CLR,,,,,,,,VFR,,,,,,,,,,,,METAR,119.0
KRPJ 221515Z AUTO 00000KT 10SM CLR 03/M06 A3037 RMK AO2 T00261062,KRPJ,2018-03-22T15:15:00Z,41.88,-89.08,2.6,-6.2,0,0,,10.0,30.369095,,,TRUE,TRUE,,,,,,,CLR,,,,,,,,VFR,,,,,,,,,,,,SPECI,238.0
KRPH 221515Z AUTO 17013G19KT 18/10 A3018 RMK AO2 T01780095 PWINO,KRPH,2018-03-22T15:15:00Z,33.12,-98.55,17.8,9.5,170,13,19,,30.180119,,,TRUE,TRUE,,,,,TRUE,,,,,,,,,,,,,,,,,,,,,,METAR,342.0
KRNH 221515Z AUTO 00000KT 10SM OVC070 M01/M05 A3037 RMK AO2 T10061050,KRNH,2018-03-22T15:15:00Z,45.15,-92.53,-0.6,-5.0,0,0,,10.0,30.369095,,,TRUE,TRUE,,,,,,,OVC,7000,,,,,,,VFR,,,,,,,,,,,,SPECI,304.0
KRCZ 221515Z AUTO 33010G17KT 10SM CLR 07/M05 A3014 RMK AO2 T00681053,KRCZ,2018-03-22T15:15:00Z,34.88,-79.77,6.8,-5.3,330,10,17,10.0,30.138779,,,TRUE,TRUE,,,,,,,CLR,,,,,,,,VFR,,,,,,,,,,,,SPECI,109.0
KPVW 221515Z AUTO 23012KT 10SM CLR 15/05 A3013 RMK AO2 T01510054,KPVW,2018-03-22T15:15:00Z,34.17,-101.72,15.1,5.4,230,12,,10.0,30.129921,,,TRUE,TRUE,,,,,,,CLR,,,,,,,,VFR,,,,,,,,,,,,METAR,1028.0
KPVB 221515Z AUTO 00000KT 10SM CLR 03/M05 A3036 RMK AO1 T00321055,KPVB,2018-03-22T15:15:00Z,42.68,-90.43,3.2,-5.5,0,0,,10.0,30.360237,,,TRUE,TRUE,,,,,,,CLR,,,,,,,,VFR,,,,,,,,,,,,SPECI,313.0
KPTT 221515Z AUTO 17015G20KT 10SM CLR 11/M01 A3012 RMK AO2 T01101009,KPTT,2018-03-22T15:15:00Z,37.7,-98.75,11.0,-0.9,170,15,20,10.0,30.121063,,,TRUE,TRUE,,,,,,,CLR,,,,,,,,VFR,,,,,,,,,,,,SPECI,595.0
KPRS 221515Z AUTO 12006KT 10SM CLR 21/06 A3021 RMK AO2 T02120064,KPRS,2018-03-22T15:15:00Z,29.63,-104.35,21.2,6.4,120,6,,10.0,30.209646,,,TRUE,TRUE,,,,,,,CLR,,,,,,,,VFR,,,,,,,,,,,,METAR,896.0
KPRG 221515Z AUTO 32007KT 10SM CLR 04/M04 A3038 RMK AO2 T00401040,KPRG,2018-03-22T15:15:00Z,39.7,-87.67,4.0,-4.0,320,7,,10.0,30.380905,,,TRUE,TRUE,,,,,,,CLR,,,,,,,,VFR,,,,,,,,,,,,SPECI,199.0
KPPA 221515Z AUTO 23012KT 10SM CLR 16/01 A3010 RMK AO2 T01620013,KPPA,2018-03-22T15:15:00Z,35.62,-101.0,16.2,1.3,230,12,,10.0,30.100393,,,TRUE,TRUE,,,,,,,CLR,,,,,,,,VFR,,,,,,,,,,,,METAR,989.0
KPOY 221515Z AUTO 12006KT 10SM BKN085 BKN120 06/M06 A2995 RMK AO2,KPOY,2018-03-22T15:15:00Z,44.87,-108.8,6.0,-6.0,120,6,,10.0,29.949802,,,TRUE,TRUE,,,,,,,BKN,8500,BKN,12000,,,,,VFR,,,,,,,,,,,,METAR,1552.0
KPNT 221515Z AUTO 12003KT 10SM CLR 04/M05 A3038 RMK AO2 T00361052,KPNT,2018-03-22T15:15:00Z,40.92,-88.62,3.6,-5.2,120,3,,10.0,30.380905,,,TRUE,TRUE,,,,,,,CLR,,,,,,,,VFR,,,,,,,,,,,,SPECI,201.0
KGGP 221515Z AUTO 32008G16KT 10SM CLR 02/M05 A3033 RMK AO2,KGGP,2018-03-22T15:15:00Z,40.72,-86.37,2.0,-5.0,320,8,16,10.0,30.33071,,,TRUE,TRUE,,,,,,,CLR,,,,,,,,VFR,,,,,,,,,,,,SPECI,225.0
KGBG 221515Z AUTO 00000KT 10SM CLR 08/M02 A3038 RMK AO2 T00811019,KGBG,2018-03-22T15:15:00Z,40.93,-90.43,8.1,-1.9,0,0,,10.0,30.380905,,,TRUE,TRUE,,,,,,,CLR,,,,,,,,VFR,,,,,,,,,,,,SPECI,233.0
KFFA 221515Z AUTO 30007KT 260V320 10SM SCT030 SCT035 SCT042 06/M02 A2999 RMK AO2 T00591016,KFFA,2018-03-22T15:15:00Z,36.02,-75.67,5.9,-1.6,300,7,,10.0,29.991142,,,TRUE,TRUE,,,,,,,SCT,3000,SCT,3500,SCT,4200,,,VFR,,,,,,,,,,,,SPECI,4.0
KEXX 221515Z AUTO 31007KT 250V040 10SM SCT110 06/M07 A3014 RMK AO2 T00611074,KEXX,2018-03-22T15:15:00Z,35.78,-80.3,6.1,-7.4,310,7,,10.0,30.138779,,,TRUE,TRUE,,,,,,,SCT,11000,,,,,,,VFR,,,,,,,,,,,,SPECI,223.0
KEVU 221515Z AUTO 14010KT 10SM SCT075 BKN090 08/M03 A3026 RMK AO2,KEVU,2018-03-22T15:15:00Z,40.35,-94.92,8.0,-3.0,140,10,,10.0,30.259842,,,TRUE,TRUE,,,,,,,SCT,7500,BKN,9000,,,,,VFR,,,,,,,,,,,,SPECI,349.0
KEDE 221515Z AUTO 31012G20KT 10SM CLR 09/00 A3003 RMK AO2 T00890000,KEDE,2018-03-22T15:15:00Z,36.02,-76.57,8.9,0.0,310,12,20,10.0,30.029528,,,TRUE,TRUE,,,,,,,CLR,,,,,,,,VFR,,,,,,,,,,,,SPECI,6.0
KEAN 221515Z AUTO 14005KT 10SM CLR 13/M01 A3007 RMK AO2 T01301007,KEAN,2018-03-22T15:15:00Z,42.05,-104.93,13.0,-0.7,140,5,,10.0,30.070866,,,TRUE,TRUE,,,,,,,CLR,,,,,,,,VFR,,,,,,,,,,,,METAR,1456.0
KDPL 221515Z AUTO 33009G16KT 10SM CLR 08/M02 A3010 RMK AO2,KDPL,2018-03-22T15:15:00Z,35.0,-77.97,8.0,-2.0,330,9,16,10.0,30.100393,,,TRUE,TRUE,,,,,,,CLR,,,,,,,,VFR,,,,,,,,,,,,SPECI,42.0
KDMW 221515Z AUTO 34011G16KT 10SM CLR 02/M04 A2997 RMK AO2,KDMW,2018-03-22T15:15:00Z,39.6,-77.0,2.0,-4.0,340,11,16,10.0,29.970472,,,TRUE,TRUE,,,,,,,CLR,,,,,,,,VFR,,,,,,,,,,,,SPECI,241.0
KDKR 221515Z AUTO 17005KT 10SM CLR 18/10 A3037 RMK AO2,KDKR,2018-03-22T15:15:00Z,31.3,-95.4,18.0,10.0,170,5,,10.0,30.369095,,,TRUE,TRUE,,,,,,,CLR,,,,,,,,VFR,,,,,,,,,,,,METAR,106.0
KD25 221515Z AUTO 35003KT 10SM CLR M03/M13 A3032 RMK AO2 T10301128,KD25,2018-03-22T15:15:00Z,46.12,-89.88,-3.0,-12.8,350,3,,10.0,30.318897,,,TRUE,TRUE,,,,,,,CLR,,,,,,,,VFR,,,,,,,,,,,,SPECI,491.0
KCVB 221515Z AUTO 15009KT 10SM SCT013 OVC027 18/13 A3030 RMK AO2 T01840130,KCVB,2018-03-22T15:15:00Z,29.35,-98.85,18.4,13.0,150,9,,10.0,30.301182,,,TRUE,TRUE,,,,,,,SCT,1300,OVC,2700,,,,,MVFR,,,,,,,,,,,,METAR,235.0
KCUH 221515Z AUTO 15008G16KT 10SM CLR 15/00 A3021 RMK AO2 T01471005,KCUH,2018-03-22T15:15:00Z,35.95,-96.77,14.7,-0.5,150,8,16,10.0,30.209646,,,TRUE,TRUE,,,,,,,CLR,,,,,,,,VFR,,,,,,,,,,,,SPECI,279.0
KCTZ 221515Z AUTO 30009KT 10SM CLR 07/M02 A3011 RMK AO2 T00741017,KCTZ,2018-03-22T15:15:00Z,34.98,-78.37,7.4,-1.7,300,9,,10.0,30.109253,,,TRUE,TRUE,,,,,,,CLR,,,,,,,,VFR,,,,,,,,,,,,SPECI,45.0
KCPK 221515Z AUTO 33012G18KT 10SM CLR 07/M05 A3001 RMK AO2 T00651048,KCPK,2018-03-22T15:15:00Z,36.67,-76.32,6.5,-4.8,330,12,18,10.0,30.008858,,,TRUE,TRUE,,,,,,,CLR,,,,,,,,VFR,,,,,,,,,,,,SPECI,6.0
KCPC 221515Z AUTO 28005KT 10SM CLR 08/M02 A3011 RMK AO2 T00811021,KCPC,2018-03-22T15:15:00Z,34.28,-78.72,8.1,-2.1,280,5,,10.0,30.109253,,,TRUE,TRUE,,,,,,,CLR,,,,,,,,VFR,,,,,,,,,,,,SPECI,29.0
KCCO 221515Z AUTO 33010G15KT 10SM CLR 08/M05 A3030 RMK AO2 T00791046,KCCO,2018-03-22T15:15:00Z,33.32,-84.77,7.9,-4.6,330,10,15,10.0,30.301182,,,TRUE,TRUE,,,,,,,CLR,,,,,,,,VFR,,,,,,,,,,,,SPECI,296.0
KBYL 221515Z AUTO 31007KT 10SM FEW026 02/M04 A3029 RMK AO1,KBYL,2018-03-22T15:15:00Z,36.8,-84.2,2.0,-4.0,310,7,,10.0,30.28937,,,TRUE,TRUE,,,,,,,FEW,2600,,,,,,,VFR,,,,,,,,,,,,SPECI,359.0
KBXK 221515Z AUTO 00000KT 10SM CLR 18/M01 A3004 RMK AO1,KBXK,2018-03-22T15:15:00Z,33.42,-112.68,18.0,-1.0,0,0,,10.0,30.041338,,,TRUE,TRUE,,,,,,,CLR,,,,,,,,VFR,,,,,,,,,,,,METAR,315.0
KBWD 221515Z AUTO 17009KT 10SM CLR 17/11 A3023 RMK AO2,KBWD,2018-03-22T15:15:00Z,31.8,-98.95,17.0,11.0,170,9,,10.0,30.230314,,,TRUE,TRUE,,,,,,,CLR,,,,,,,,VFR,,,,,,,,,,,,METAR,423.0
KBKD 221515Z AUTO 19018G25KT 10SM CLR 19/10 A3020 RMK AO2 T01930097,KBKD,2018-03-22T15:15:00Z,32.72,-98.88,19.3,9.7,190,18,25,10.0,30.200787,,,TRUE,TRUE,,,,,,,CLR,,,,,,,,VFR,,,,,,,,,,,,METAR,392.0
KASJ 221515Z AUTO 32004KT 10SM CLR 06/M02 A3006 RMK AO2 T00611022,KASJ,2018-03-22T15:15:00Z,36.28,-77.17,6.1,-2.2,320,4,,10.0,30.059055,,,TRUE,TRUE,,,,,,,CLR,,,,,,,,VFR,,,,,,,,,,,,SPECI,21.0
KARV 221515Z AUTO 04004KT 10SM CLR M01/M13 A3032 RMK AO2 T10131128,KARV,2018-03-22T15:15:00Z,45.92,-89.72,-1.3,-12.8,40,4,,10.0,30.318897,,,TRUE,TRUE,,,,,,,CLR,,,,,,,,VFR,,,,,,,,,,,,SPECI,496.0
KAPY 221515Z AUTO 12008G16KT 10SM SCT031 OVC050 22/15 A3023 RMK AO2 T02210150,KAPY,2018-03-22T15:15:00Z,26.97,-99.25,22.1,15.0,120,8,16,10.0,30.230314,,,TRUE,TRUE,,,,,,,SCT,3100,OVC,5000,,,,,VFR,,,,,,,,,,,,SPECI,129.0
KAIG 221515Z AUTO 00000KT 10SM CLR M03/M11 A3032 RMK AO2 T10311112,KAIG,2018-03-22T15:15:00Z,45.15,-89.12,-3.1,-11.2,0,0,,10.0,30.318897,,,TRUE,TRUE,,,,,,,CLR,,,,,,,,VFR,,,,,,,,,,,,SPECI,464.0
KAFP 221515Z AUTO 33012G15KT 10SM CLR 08/M05 A3015 RMK AO2 T00821053,KAFP,2018-03-22T15:15:00Z,35.02,-80.08,8.2,-5.3,330,12,15,10.0,30.15059,,,TRUE,TRUE,,,,,,,CLR,,,,,,,,VFR,,,,,,,,,,,,SPECI,92.0
KAAA 221515Z AUTO 28005KT 10SM CLR 06/M03 A3038 RMK AO2 T00571027,KAAA,2018-03-22T15:15:00Z,40.17,-89.33,5.7,-2.7,280,5,,10.0,30.380905,,,TRUE,TRUE,,,,,,,CLR,,,,,,,,VFR,,,,,,,,,,,,SPECI,182.0
K8B0 221515Z AUTO 08008KT 10SM BKN110 00/M08 A2973 RMK AO2,K8B0,2018-03-22T15:15:00Z,,,0.0,-8.0,80,8,,10.0,29.731298,,,TRUE,TRUE,,,,,,,BKN,11000,,,,,,,VFR,,,,,,,,,,,,SPECI,
K7W6 221515Z AUTO 31015G23KT 10SM CLR 08/M01 A3000 RMK AO2 T00751007,K7W6,2018-03-22T15:15:00Z,35.55,-75.95,7.5,-0.7,310,15,23,10.0,30.0,,,TRUE,TRUE,,,,,,,CLR,,,,,,,,VFR,,,,,,,,,,,,SPECI,2.0
K5M9 221515Z AUTO 30004KT 10SM CLR 07/M05 A3039 RMK AO2 T00691054,K5M9,2018-03-22T15:15:00Z,37.33,-88.12,6.9,-5.4,300,4,,10.0,30.389763,,,TRUE,TRUE,,,,,,,CLR,,,,,,,,VFR,,,,,,,,,,,,SPECI,199.0
K57C 221515Z AUTO 31005KT 10SM CLR 02/M06 A3033 RMK AO2 T00161060,K57C,2018-03-22T15:15:00Z,42.8,-88.37,1.6,-6.0,310,5,,10.0,30.33071,,,TRUE,TRUE,,,,,,,CLR,,,,,,,,VFR,,,,,,,,,,,,METAR,262.0
K21D 221515Z AUTO 00000KT 10SM OVC031 01/M03 A3038 RMK AO2,K21D,2018-03-22T15:15:00Z,45.0,-92.85,1.0,-3.0,0,0,,10.0,30.380905,,,TRUE,TRUE,,,,,,,OVC,3100,,,,,,,VFR,,,,,,,,,,,,SPECI,285.0
K11R 221515Z AUTO 15009KT 10SM CLR 19/12 A3032 RMK AO2 T01900116,K11R,2018-03-22T15:15:00Z,30.22,-96.37,19.0,11.6,150,9,,10.0,30.318897,,,TRUE,TRUE,,,,,,,CLR,,,,,,,,VFR,,,,,,,,,,,,METAR,94.0
KPNA 221515Z AUTO 28007KT 5SM BR BKN002 OVC080 00/00 A3007 RMK AO2,KPNA,2018-03-22T15:15:00Z,42.8,-109.8,0.0,0.0,280,7,,5.0,30.070866,,,TRUE,TRUE,,,,,,BR,BKN,200,OVC,8000,,,,,LIFR,,,,,,,,,,,,METAR,2160.0
KPLU 221515Z AUTO 00000KT 5SM +UP FEW014 BKN026 OVC031 06/06 A2952 RMK AO2,KPLU,2018-03-22T15:15:00Z,47.1,-122.28,6.0,6.0,0,0,,5.0,29.518702,,,TRUE,TRUE,,,,,,UP,FEW,1400,BKN,2600,OVC,3100,,,MVFR,,,,,,,,,,,,METAR,164.0
KPIM 221515Z AUTO 35007G14KT 10SM CLR 09/M02 A3031 RMK AO2 T00871024 PWINO,KPIM,2018-03-22T15:15:00Z,32.83,-84.88,8.7,-2.4,350,7,14,10.0,30.31004,,,TRUE,TRUE,,,,,TRUE,,CLR,,,,,,,,VFR,,,,,,,,,,,,SPECI,275.0
KPDC 221515Z AUTO 27004KT 10SM CLR 03/M05 A3037 RMK AO2 T00281051,KPDC,2018-03-22T15:15:00Z,43.02,-91.12,2.8,-5.1,270,4,,10.0,30.369095,,,TRUE,TRUE,,,,,,,CLR,,,,,,,,VFR,,,,,,,,,,,,SPECI,201.0
KPBX 221515Z AUTO 26006KT 10SM CLR 02/M02 A3022 RMK AO2 T00231024,KPBX,2018-03-22T15:15:00Z,37.57,-82.57,2.3,-2.4,260,6,,10.0,30.221457,,,TRUE,TRUE,,,,,,,CLR,,,,,,,,VFR,,,,,,,,,,,,SPECI,449.0
KOZA 221515Z AUTO 20018G25KT 7SM SCT016 17/11 A3023 RMK AO2,KOZA,2018-03-22T15:15:00Z,30.73,-101.2,17.0,11.0,200,18,25,7.0,30.230314,,,TRUE,TRUE,,,,,,,SCT,1600,,,,,,,VFR,,,,,,,,,,,,METAR,726.0
KOXI 221515Z AUTO 36013KT 10SM CLR 03/M08 A3033 RMK AO1,KOXI,2018-03-22T15:15:00Z,41.33,-86.67,3.0,-8.0,360,13,,10.0,30.33071,,,TRUE,TRUE,,,,,,,CLR,,,,,,,,VFR,,,,,,,,,,,,SPECI,209.0
KOPL 221515Z AUTO 12008KT 090V150 10SM CLR 16/04 A3039 RMK AO2 T01550043,KOPL,2018-03-22T15:15:00Z,30.55,-92.1,15.5,4.3,120,8,,10.0,30.389763,,,TRUE,TRUE,,,,,,,CLR,,,,,,,,VFR,,,,,,,,,,,,SPECI,23.0
KOCW 221515Z AUTO 31010G16KT 10SM SCT040 08/M02 A3006 RMK AO2 T00831016,KOCW,2018-03-22T15:15:00Z,35.57,-77.05,8.3,-1.6,310,10,16,10.0,30.059055,,,TRUE,TRUE,,,,,,,SCT,4000,,,,,,,VFR,,,,,,,,,,,,SPECI,12.0
KO54 221515Z AUTO 18004KT 4SM FEW022 SCT050 OVC060 04/03 A2965 RMK AO1 P0001,KO54,2018-03-22T15:15:00Z,40.75,-122.92,4.0,3.0,180,4,,4.0,29.648623,,,TRUE,TRUE,,,,,,,FEW,2200,SCT,5000,OVC,6000,,,MVFR,,,,,,0.01,,,,,,SPECI,717.0
KNY0 221515Z AUTO 28009KT 10SM CLR M01/M07 A2985 RMK AO2,KNY0,2018-03-22T15:15:00Z,42.98,-74.33,-1.0,-7.0,280,9,,10.0,29.84941,,,TRUE,TRUE,,,,,,,CLR,,,,,,,,VFR,,,,,,,,,,,,SPECI,271.0
KMWK 221515Z AUTO 30008G15KT 270V330 10SM CLR 04/M08 A3015 RMK AO2 T00421080,KMWK,2018-03-22T15:15:00Z,36.47,-80.55,4.2,-8.0,300,8,15,10.0,30.15059,,,TRUE,TRUE,,,,,,,CLR,,,,,,,,VFR,,,,,,,,,,,,SPECI,380.0
KMRN 221515Z AUTO 11003KT 10SM CLR 07/M07 A3018 RMK AO2 T00721070,KMRN,2018-03-22T15:15:00Z,35.82,-81.62,7.2,-7.0,110,3,,10.0,30.180119,,,TRUE,TRUE,,,,,,,CLR,,,,,,,,VFR,,,,,,,,,,,,SPECI,387.0
KMQI 221515Z AUTO 32011G17KT 300V360 10SM CLR 06/M01 A3001 RMK AO2 T00611006,KMQI,2018-03-22T15:15:00Z,35.92,-75.7,6.1,-0.6,320,11,17,10.0,30.008858,,,TRUE,TRUE,,,,,,,CLR,,,,,,,,VFR,,,,,,,,,,,,SPECI,4.0
KMKJ 221515Z AUTO 27018G28KT 10SM CLR 00/M08 A3013 RMK AO2 T00001080,KMKJ,2018-03-22T15:15:00Z,36.88,-81.33,0.0,-8.0,270,18,28,10.0,30.129921,,,TRUE,TRUE,,,,,,,CLR,,,,,,,,VFR,,,,,,,,,,,,SPECI,780.0
KMDQ 221515Z AUTO 33012KT 10SM CLR 08/M03 A3037 RMK AO2 PWINO T00811032,KMDQ,2018-03-22T15:15:00Z,34.87,-86.55,8.1,-3.2,330,12,,10.0,30.369095,,,TRUE,TRUE,,,,,TRUE,,CLR,,,,,,,,VFR,,,,,,,,,,,,SPECI,230.0
KMDD 221515Z AUTO 19011G18KT 10SM 18/07 A3015 RMK AO2 T01820072,KMDD,2018-03-22T15:15:00Z,32.03,-102.1,18.2,7.2,190,11,18,10.0,30.15059,,,TRUE,TRUE,,,,,,,,,,,,,,,,,,,,,,,,,,,METAR,854.0
KLWB 221515Z AUTO 29006KT 10SM OVC110 00/M07 A3010 RMK AO2 T10051071,KLWB,2018-03-22T15:15:00Z,37.87,-80.4,-0.5,-7.1,290,6,,10.0,30.100393,,,TRUE,TRUE,,,,,,,OVC,11000,,,,,,,VFR,,,,,,,,,,,,SPECI,702.0
KLNC 221515Z AUTO 17008KT 10SM CLR 17/09 A3030 RMK AO2 T01660090,KLNC,2018-03-22T15:15:00Z,32.58,-96.72,16.6,9.0,170,8,,10.0,30.301182,,,TRUE,TRUE,,,,,,,CLR,,,,,,,,VFR,,,,,,,,,,,,METAR,153.0
KLHZ 221515Z AUTO 30006KT 10SM CLR 06/M05 A3011 RMK AO2,KLHZ,2018-03-22T15:15:00Z,36.02,-78.33,6.0,-5.0,300,6,,10.0,30.109253,,,TRUE,TRUE,,,,,,,CLR,,,,,,,,VFR,,,,,,,,,,,,SPECI,113.0
KLGC 221515Z AUTO 35008G14KT 10SM CLR 10/M03 A3032 RMK AO2 T00971034,KLGC,2018-03-22T15:15:00Z,33.0,-85.07,9.7,-3.4,350,8,14,10.0,30.318897,,,TRUE,TRUE,,,,,,,CLR,,,,,,,,VFR,,,,,,,,,,,,SPECI,211.0
KJZP 221515Z AUTO 34007G15KT 310V010 10SM CLR 06/M04 A3028 RMK AO2 T00601039 PNO,KJZP,2018-03-22T15:15:00Z,34.45,-84.47,6.0,-3.9,340,7,15,10.0,30.280512,,,TRUE,TRUE,,,,,,,CLR,,,,,,,,VFR,,,,,,,,,,,,SPECI,468.0
KINF 221515Z AUTO 36007KT 10SM CLR 13/00 A3027 RMK AO2,KINF,2018-03-22T15:15:00Z,28.8,-82.32,13.0,0.0,360,7,,10.0,30.268702,,,TRUE,TRUE,,,,,,,CLR,,,,,,,,VFR,,,,,,,,,,,,SPECI,15.0
KHTO 221515Z AUTO 34008KT 10SM OVC025 03/00 A2971 RMK AO2 T00271001,KHTO,2018-03-22T15:15:00Z,40.95,-72.25,2.7,-0.1,340,8,,10.0,29.71063,,,TRUE,TRUE,,,,,,,OVC,2500,,,,,,,MVFR,,,,,,,,,,,,SPECI,17.0
KHRJ 221515Z AUTO 33008G14KT 300V360 10SM CLR 08/M08 A3011 RMK AO2 T00771079,KHRJ,2018-03-22T15:15:00Z,35.38,-78.73,7.7,-7.9,330,8,14,10.0,30.109253,,,TRUE,TRUE,,,,,,,CLR,,,,,,,,VFR,,,,,,,,,,,,SPECI,60.0
KHQG 221515Z AUTO 36009KT 10SM CLR 12/M05 A3008 RMK AO2 T01201047,KHQG,2018-03-22T15:15:00Z,37.17,-101.37,12.0,-4.7,360,9,,10.0,30.079725,,,TRUE,TRUE,,,,,,,CLR,,,,,,,,VFR,,,,,,,,,,,,SPECI,956.0
KHQG 221515Z AUTO 36009KT 10SM CLR 12/M05 A3008 RMK AO2 T01201047,KHQG,2018-03-22T15:15:00Z,37.17,-101.37,12.0,-4.7,360,9,,10.0,30.079725,,,TRUE,TRUE,,,,,,,CLR,,,,,,,,VFR,,,,,,,,,,,,SPECI,956.0
KHNZ 221515Z AUTO 32011G16KT 10SM CLR 05/M06 A3009 RMK AO2 T00521060,KHNZ,2018-03-22T15:15:00Z,36.37,-78.53,5.2,-6.0,320,11,16,10.0,30.088583,,,TRUE,TRUE,,,,,,,CLR,,,,,,,,VFR,,,,,,,,,,,,SPECI,161.0
KHHW 221515Z AUTO 11008KT 10SM BKN100 15/01 A3032 RMK AO2 T01520014,KHHW,2018-03-22T15:15:00Z,34.03,-95.55,15.2,1.4,110,8,,10.0,30.318897,,,TRUE,TRUE,,,,,,,BKN,10000,,,,,,,VFR,,,,,,,,,,,,SPECI,144.0
KHHG 221515Z AUTO 34007KT 10SM CLR 02/M07 A3029 RMK AO2 T00201069,KHHG,2018-03-22T15:15:00Z,40.85,-85.45,2.0,-6.9,340,7,,10.0,30.28937,,,TRUE,TRUE,,,,,,,CLR,,,,,,,,VFR,,,,,,,,,,,,SPECI,246.0
KHBI 221515Z AUTO 32008G14KT 10SM CLR 05/M07 A3015 RMK AO2 T00541073,KHBI,2018-03-22T15:15:00Z,35.65,-79.9,5.4,-7.3,320,8,14,10.0,30.15059,,,TRUE,TRUE,,,,,,,CLR,,,,,,,,VFR,,,,,,,,,,,,SPECI,205.0
KW75 221515Z AUTO 30013G17KT 10SM CLR 05/M03 A3000 RMK AO1 T00451029,KW75,2018-03-22T15:15:00Z,37.6,-76.45,4.5,-2.9,300,13,17,10.0,30.0,,,TRUE,TRUE,,,,,,,CLR,,,,,,,,VFR,,,,,,,,,,,,SPECI,9.0
KVDI 221515Z AUTO 30007KT 10SM CLR 10/00 A3024 RMK AO2,KVDI,2018-03-22T15:15:00Z,32.2,-82.37,10.0,0.0,300,7,,10.0,30.239174,,,TRUE,TRUE,,,,,,,CLR,,,,,,,,VFR,,,,,,,,,,,,SPECI,84.0
KUNI 221515Z AUTO 34005KT 10SM CLR 02/M05 A3023 RMK AO2 T00211054,KUNI,2018-03-22T15:15:00Z,39.22,-82.23,2.1,-5.4,340,5,,10.0,30.230314,,,TRUE,TRUE,,,,,,,CLR,,,,,,,,VFR,,,,,,,,,,,,SPECI,193.0
KSWW 221515Z AUTO 17017KT 10SM CLR 18/07 A3017 RMK AO2 T01790066,KSWW,2018-03-22T15:15:00Z,32.47,-100.47,17.9,6.6,170,17,,10.0,30.171259,,,TRUE,TRUE,,,,,,,CLR,,,,,,,,VFR,,,,,,,,,,,,SPECI,727.0
KSLR 221515Z AUTO 15008KT 10SM SCT110 17/05 A3034 RMK AO2 T01730052,KSLR,2018-03-22T15:15:00Z,33.17,-95.62,17.3,5.2,150,8,,10.0,30.339567,,,TRUE,TRUE,,,,,,,SCT,11000,,,,,,,VFR,,,,,,,,,,,,METAR,149.0
KSEP 221515Z AUTO 18014G21KT 10SM CLR 17/11 A3026 RMK AO2 T01720110,KSEP,2018-03-22T15:15:00Z,32.22,-98.17,17.2,11.0,180,14,21,10.0,30.259842,,,TRUE,TRUE,,,,,,,CLR,,,,,,,,VFR,,,,,,,,,,,,SPECI,402.0
KS52 221515Z AUTO 00000KT 1/4SM -DZ FG OVC007 02/02 A2959 RMK AO2 P0001 T00200019,KS52,2018-03-22T15:15:00Z,48.38,-120.15,2.0,1.9,0,0,,0.25,29.589567,,,TRUE,TRUE,,,,,,-DZ FG,OVC,700,,,,,,,LIFR,,,,,,0.01,,,,,,METAR,520.0
KRYW 221515Z AUTO 17009G15KT 140V220 10SM CLR 18/13 A3028 RMK AO2 T01810132,KRYW,2018-03-22T15:15:00Z,30.5,-97.97,18.1,13.2,170,9,15,10.0,30.280512,,,TRUE,TRUE,,,,,,,CLR,,,,,,,,VFR,,,,,,,,,,,,SPECI,376.0
KRYV 221515Z AUTO 26003KT 10SM CLR 02/M06 A3034 RMK AO2 T00201058,KRYV,2018-03-22T15:15:00Z,43.17,-88.72,2.0,-5.8,260,3,,10.0,30.339567,,,TRUE,TRUE,,,,,,,CLR,,,,,,,,VFR,,,,,,,,,,,,SPECI,254.0
KRPD 221515Z AUTO 00000KT 10SM BKN075 M02/M08 A3038 RMK AO2 T10171079,KRPD,2018-03-22T15:15:00Z,45.42,-91.77,-1.7,-7.9,0,0,,10.0,30.380905,,,TRUE,TRUE,,,,,,,BKN,7500,,,,,,,VFR,,,,,,,,,,,,SPECI,338.0
KRMN 221515Z AUTO 33019G27KT 10SM CLR 04/M04 A3007 RMK AO2 T00381040,KRMN,2018-03-22T15:15:00Z,38.4,-77.45,3.8,-4.0,330,19,27,10.0,30.070866,,,TRUE,TRUE,,,,,,,CLR,,,,,,,,VFR,,,,,,,,,,,,SPECI,65.0
KRLD 221515Z AUTO 00000KT 2 1/2SM BR BKN001 BKN120 06/05 A2954 RMK AO2 T00550053,KRLD,2018-03-22T15:15:00Z,46.3,-119.3,5.5,5.3,0,0,,2.5,29.53937,,,TRUE,TRUE,,,,,,BR,BKN,100,BKN,12000,,,,,LIFR,,,,,,,,,,,,SPECI,120.0
KRKR 221515Z AUTO 00000KT 10SM SCT110 13/01 A3033 RMK AO2,KRKR,2018-03-22T15:15:00Z,35.02,-94.62,13.0,1.0,0,0,,10.0,30.33071,,,TRUE,TRUE,,,,,,,SCT,11000,,,,,,,VFR,,,,,,,,,,,,SPECI,138.0
KRGA 221515Z AUTO 32003KT 10SM CLR 01/M03 A3029 RMK AO2,KRGA,2018-03-22T15:15:00Z,37.63,-84.33,1.0,-3.0,320,3,,10.0,30.28937,,,TRUE,TRUE,,,,,,,CLR,,,,,,,,VFR,,,,,,,,,,,,METAR,305.0
KREG 221515Z AUTO 15004KT 10SM CLR 15/04 A3040 RMK AO2 T01540036 TSNO,KREG,2018-03-22T15:15:00Z,30.17,-90.93,15.4,3.6,150,4,,10.0,30.398623,,,TRUE,TRUE,,,TRUE,,,,CLR,,,,,,,,VFR,,,,,,,,,,,,SPECI,4.0
KRCR 221515Z AUTO 33009G14KT 10SM CLR 04/M05 A3031 RMK AO2,KRCR,2018-03-22T15:15:00Z,41.07,-86.18,4.0,-5.0,330,9,14,10.0,30.31004,,,TRUE,TRUE,,,,,,,CLR,,,,,,,,VFR,,,,,,,,,,,,SPECI,241.0
KPXE 221515Z AUTO 32011KT 10SM CLR 09/M03 A3028 RMK AO2 T00911032,KPXE,2018-03-22T15:15:00Z,32.52,-83.77,9.1,-3.2,320,11,,10.0,30.280512,,,TRUE,TRUE,,,,,,,CLR,,,,,,,,VFR,,,,,,,,,,,,SPECI,127.0
KDLL 221515Z AUTO 30005KT 10SM CLR 02/M07 A3034 RMK AO2 T00201066,KDLL,2018-03-22T15:15:00Z,43.52,-89.77,2.0,-6.6,300,5,,10.0,30.339567,,,TRUE,TRUE,,,,,,,CLR,,,,,,,,VFR,,,,,,,,,,,,SPECI,299.0
KHWY 221515Z AUTO 30014G21KT 10SM CLR 06/M07 A3003 RMK AO2 T00551071,KHWY,2018-03-22T15:15:00Z,38.58,-77.72,5.5,-7.1,300,14,21,10.0,30.029528,,,TRUE,TRUE,,,,,,,CLR,,,,,,,,VFR,,,,,,,,,,,,SPECI,103.0
KHQU 221515Z AUTO 01005KT 10SM CLR 09/M05 A3027 RMK AO2 T00881050,KHQU,2018-03-22T15:15:00Z,33.53,-82.52,8.8,-5.0,10,5,,10.0,30.268702,,,TRUE,TRUE,,,,,,,CLR,,,,,,,,VFR,,,,,,,,,,,,SPECI,152.0
KHOE 221515Z AUTO 32010G13KT 10SM CLR 10/00 A3027 RMK AO2,KHOE,2018-03-22T15:15:00Z,31.05,-82.78,10.0,0.0,320,10,13,10.0,30.268702,,,TRUE,TRUE,,,,,,,CLR,,,,,,,,VFR,,,,,,,,,,,,SPECI,57.0
KFYJ 221515Z AUTO 33009G16KT 5SM CLR 06/M04 A3004 RMK AO2 T00581044,KFYJ,2018-03-22T15:15:00Z,37.52,-76.77,5.8,-4.4,330,9,16,5.0,30.041338,,,TRUE,TRUE,,,,,,,CLR,,,,,,,,MVFR,,,,,,,,,,,,SPECI,7.0
KFWC 221515Z AUTO 00000KT 10SM CLR 06/M05 A3038 RMK AO1 T00621046,KFWC,2018-03-22T15:15:00Z,38.38,-88.42,6.2,-4.6,0,0,,10.0,30.380905,,,TRUE,TRUE,,,,,,,CLR,,,,,,,,VFR,,,,,,,,,,,,SPECI,133.0
KFVX 221515Z AUTO 33005KT 10SM CLR 07/M06 A3008 RMK AO2 T00671063,KFVX,2018-03-22T15:15:00Z,37.35,-78.42,6.7,-6.3,330,5,,10.0,30.079725,,,TRUE,TRUE,,,,,,,CLR,,,,,,,,VFR,,,,,,,,,,,,SPECI,125.0
KFSO 221515Z AUTO 35006KT 10SM CLR M01/M06 A2993 RMK AO2 T10101059,KFSO,2018-03-22T15:15:00Z,44.93,-73.1,-1.0,-5.9,350,6,,10.0,29.929134,,,TRUE,TRUE,,,,,,,CLR,,,,,,,,VFR,,,,,,,,,,,,SPECI,70.0
KFQD 221515Z AUTO 30004KT 10SM CLR 08/M07 A3017 RMK AO2 T00781066,KFQD,2018-03-22T15:15:00Z,35.42,-81.93,7.8,-6.6,300,4,,10.0,30.171259,,,TRUE,TRUE,,,,,,,CLR,,,,,,,,VFR,,,,,,,,,,,,SPECI,329.0
KFKR 221515Z AUTO 34013KT 10SM SCT019 04/M03 A3034 RMK AO2 T00361028,KFKR,2018-03-22T15:15:00Z,40.27,-86.57,3.6,-2.8,340,13,,10.0,30.339567,,,TRUE,TRUE,,,,,,,SCT,1900,,,,,,,VFR,,,,,,,,,,,,SPECI,262.0
KFKN 221515Z AUTO 32010G17KT 10SM CLR 06/M02 A3004 RMK AO2 T00621017,KFKN,2018-03-22T15:15:00Z,36.7,-76.9,6.2,-1.7,320,10,17,10.0,30.041338,,,TRUE,TRUE,,,,,,,CLR,,,,,,,,VFR,,,,,,,,,,,,SPECI,12.0
KHZR 221515Z AUTO 11006KT 10SM CLR 16/04 A3041 RMK AO2 T01580043,KHZR,2018-03-22T15:15:00Z,30.72,-91.48,15.8,4.3,110,6,,10.0,30.410433,,,TRUE,TRUE,,,,,,,CLR,,,,,,,,VFR,,,,,,,,,,,,SPECI,12.0
KSLB 221515Z AUTO 12013KT 10SM BKN070 02/00 A3025 RMK AO2,KSLB,2018-03-22T15:15:00Z,42.6,-95.22,2.0,0.0,120,13,,10.0,30.250984,,,TRUE,TRUE,,,,,,,BKN,7000,,,,,,,VFR,,,,,,,,,,,,SPECI,454.0
KACJ 221515Z AUTO 34010G14KT 10SM CLR 09/M08 A3031 RMK AO2,KACJ,2018-03-22T15:15:00Z,32.12,-84.18,9.0,-8.0,340,10,14,10.0,30.31004,,,TRUE,TRUE,,,,,,,CLR,,,,,,,,VFR,,,,,,,,,,,,SPECI,143.0
KI16 221515Z AUTO 10SM 02/M04 A3022 RMK AO2 T00201042,KI16,2018-03-22T15:15:00Z,37.6,-81.57,2.0,-4.2,,,,10.0,30.221457,,,TRUE,TRUE,,,,,,,,,,,,,,,,,,,,,,,,,,,SPECI,544.0
KVDF 221515Z AUTO 35007KT 10SM CLR 15/01 A3028 RMK AO2,KVDF,2018-03-22T15:15:00Z,28.02,-82.33,15.0,1.0,350,7,,10.0,30.280512,,,TRUE,TRUE,,,,,,,CLR,,,,,,,,VFR,,,,,,,,,,,,SPECI,7.0
KRID 221515Z AUTO 31008KT 10SM CLR 00/M04 A3028 RMK AO2,KRID,2018-03-22T15:15:00Z,39.75,-84.85,0.0,-4.0,310,8,,10.0,30.280512,,,TRUE,TRUE,,,,,,,CLR,,,,,,,,VFR,,,,,,,,,,,,SPECI,348.0
KGAF 221515Z AUTO 34004KT 3SM BR OVC031 00/00 A3038 RMK AO2 PWINO,KGAF,2018-03-22T15:15:00Z,48.4,-97.37,0.0,0.0,340,4,,3.0,30.380905,,,TRUE,TRUE,,,,,TRUE,BR,OVC,3100,,,,,,,MVFR,,,,,,,,,,,,SPECI,252.0
KEKX 221515Z AUTO 31005KT 10SM CLR 03/M06 A3035 RMK AO2 T00281058,KEKX,2018-03-22T15:15:00Z,,,2.8,-5.8,310,5,,10.0,30.351377,,,TRUE,TRUE,,,,,,,CLR,,,,,,,,VFR,,,,,,,,,,,,SPECI,
KSTF 221515Z AUTO 02005KT 10SM CLR 11/02 A3042 RMK AO2,KSTF,2018-03-22T15:15:00Z,33.43,-88.85,11.0,2.0,20,5,,10.0,30.41929,,,TRUE,TRUE,,,,,,,CLR,,,,,,,,VFR,,,,,,,,,,,,SPECI,102.0
KHZE 221515Z AUTO 06008KT 1/2SM BR OVC003 M04/M04 A3025 RMK AO2,KHZE,2018-03-22T15:15:00Z,47.28,-101.58,-4.0,-4.0,60,8,,0.5,30.250984,,,TRUE,TRUE,,,,,,BR,OVC,300,,,,,,,LIFR,,,,,,,,,,,,SPECI,553.0
KGPH 221515Z AUTO 13007KT 10SM SCT075 SCT085 07/00 A3032 RMK AO2,KGPH,2018-03-22T15:15:00Z,39.33,-94.32,7.0,0.0,130,7,,10.0,30.318897,,,TRUE,TRUE,,,,,,,SCT,7500,SCT,8500,,,,,VFR,,,,,,,,,,,,SPECI,235.0
KCKI 221515Z AUTO 33009G17KT 10SM CLR 08/M05 A3017 RMK AO2,KCKI,2018-03-22T15:15:00Z,33.72,-79.85,8.0,-5.0,330,9,17,10.0,30.171259,,,TRUE,TRUE,,,,,,,CLR,,,,,,,,VFR,,,,,,,,,,,,SPECI,21.0
K96D 221515Z AUTO 01005KT 3SM BR CLR 00/00 A3037 RMK AO2,K96D,2018-03-22T15:15:00Z,48.93,-97.9,0.0,0.0,10,5,,3.0,30.369095,,,TRUE,TRUE,,,,,,BR,CLR,,,,,,,,MVFR,,,,,,,,,,,,SPECI,290.0
K2C8 221515Z AUTO 05005KT 01/01 A3036 RMK AO2 TSNO,K2C8,2018-03-22T15:15:00Z,48.78,-97.63,1.0,1.0,50,5,,,30.360237,,,TRUE,TRUE,,,TRUE,,,,,,,,,,,,,,,,,,,,,,,,SPECI,272.0
KTFP 221515Z AUTO 15011G18KT 10SM OVC075 23/16 A3028 RMK AO2 T02320158 PNO,KTFP,2018-03-22T15:15:00Z,27.92,-97.22,23.2,15.8,150,11,18,10.0,30.280512,,,TRUE,TRUE,,,,,,,OVC,7500,,,,,,,VFR,,,,,,,,,,,,METAR,6.0
KI35 221515Z AUTO 26011G14KT 10SM CLR 02/M07 A3024 RMK AO1,KI35,2018-03-22T15:15:00Z,36.87,-83.37,2.0,-7.0,260,11,14,10.0,30.239174,,,TRUE,TRUE,,,,,,,CLR,,,,,,,,VFR,,,,,,,,,,,,SPECI,473.0
KPQI 221514Z AUTO 02014G21KT 10SM OVC031 01/M06 A2985 RMK AO2 FZRANO,KPQI,2018-03-22T15:14:00Z,46.67,-68.03,1.0,-6.0,20,14,21,10.0,29.84941,,,TRUE,TRUE,,,,TRUE,,,OVC,3100,,,,,,,VFR,,,,,,,,,,,,SPECI,146.0
KPVC 221514Z AUTO 01022G31KT 3SM -SN BR OVC009 02/00 A2961 RMK AO2 PK WND 01032/1500 CIG 007V013 P0000 FZRANO,KPVC,2018-03-22T15:14:00Z,42.07,-70.22,2.0,0.0,10,22,31,3.0,29.610237,,,TRUE,TRUE,,,,TRUE,,-SN BR,OVC,900,,,,,,,IFR,,,,,,0.005,,,,,,SPECI,2.0
KAQP 221514Z AUTO 10008KT 10SM OVC034 02/M01 A3032 RMK AO2,KAQP,2018-03-22T15:14:00Z,45.22,-96.0,2.0,-1.0,100,8,,10.0,30.318897,,,TRUE,TRUE,,,,,,,OVC,3400,,,,,,,VFR,,,,,,,,,,,,SPECI,311.0
K2V6 221514Z AUTO 28007KT 10SM CLR 11/00 A3010 RMK AO2,K2V6,2018-03-22T15:14:00Z,40.1,-102.72,11.0,0.0,280,7,,10.0,30.100393,,,TRUE,TRUE,,,,,,,CLR,,,,,,,,VFR,,,,,,,,,,,,SPECI,1261.0
CYZS 221514Z 33013KT 15SM SKC M25/M29 A3057 RMK WSHFT 1455 SLP364,CYZS,2018-03-22T15:14:00Z,64.2,-83.37,-25.0,-29.0,330,13,,15.0,30.569881,1036.4,,,,,,,,,,SKC,,,,,,,,VFR,,,,,,,,,,,,SPECI,64.0
PAWM 221514Z AUTO 14015G21KT 10SM SCT027 OVC036 M04/M06 A3026 RMK AO2 FZRANO,PAWM,2018-03-22T15:14:00Z,64.68,-163.42,-4.0,-6.0,140,15,21,10.0,30.259842,,,TRUE,TRUE,,,,TRUE,,,SCT,2700,OVC,3600,,,,,VFR,,,,,,,,,,,,SPECI,82.0
KFPR 221514Z 30005G15KT 10SM CLR 16/M01 A3023,KFPR,2018-03-22T15:14:00Z,27.5,-80.38,16.0,-1.0,300,5,15,10.0,30.230314,,,,,,,,,,,CLR,,,,,,,,VFR,,,,,,,,,,,,SPECI,13.0
KGVE 221514Z AUTO 31003KT 10SM CLR 05/M08 A3005 RMK AO1,KGVE,2018-03-22T15:14:00Z,38.15,-78.17,5.0,-8.0,310,3,,10.0,30.050198,,,TRUE,TRUE,,,,,,,CLR,,,,,,,,VFR,,,,,,,,,,,,SPECI,138.0
CYMO 221514Z AUTO 31005KT 260V330 9SM CLR M09/M13 A3037 RMK SLP287,CYMO,2018-03-22T15:14:00Z,51.28,-80.62,-9.0,-13.0,310,5,,9.0,30.369095,1028.7,,TRUE,,,,,,,,CLR,,,,,,,,VFR,,,,,,,,,,,,SPECI,10.0
KCEC 221513Z AUTO 12003KT 10SM SCT025 BKN038 OVC065 06/04 A2979 RMK AO2 T00610039,KCEC,2018-03-22T15:13:00Z,41.77,-124.22,6.1,3.9,120,3,,10.0,29.790354,,,TRUE,TRUE,,,,,,,SCT,2500,BKN,3800,OVC,6500,,,VFR,,,,,,,,,,,,SPECI,17.0
KEUG 221513Z 21012KT 9SM -RA BKN014 OVC032 04/03 A2966 RMK AO2 P0001 T00440033,KEUG,2018-03-22T15:13:00Z,44.13,-123.22,4.4,3.3,210,12,,9.0,29.660433,,,,TRUE,,,,,,-RA,BKN,1400,OVC,3200,,,,,MVFR,,,,,,0.01,,,,,,SPECI,114.0
KOWD 221513Z 35008KT 3SM -SN BKN012 OVC018 03/00 A2968 RMK AO2 P0000 T00280000,KOWD,2018-03-22T15:13:00Z,42.18,-71.17,2.8,0.0,350,8,,3.0,29.681103,,,,TRUE,,,,,,-SN,BKN,1200,OVC,1800,,,,,MVFR,,,,,,0.005,,,,,,SPECI,19.0
KTIW 221513Z COR 18004KT 5SM -RABR BKN005 OVC012 06/05 A2951 RMK AO2 P0002 T00560050,KTIW,2018-03-22T15:13:00Z,47.27,-122.58,5.6,5.0,180,4,,5.0,29.509842,,TRUE,,TRUE,,,,,,-RA BR,BKN,500,OVC,1200,,,,,IFR,,,,,,0.02,,,,,,METAR,89.0
KMYP 221513Z AUTO 27033G39KT 10SM SCT023 OVC028 M01/M05 A3045 RMK AO2,KMYP,2018-03-22T15:13:00Z,38.48,-106.32,-1.0,-5.0,270,33,39,10.0,30.448818,,,TRUE,TRUE,,,,,,,SCT,2300,OVC,2800,,,,,MVFR,,,,,,,,,,,,METAR,3667.0
KAUG 221513Z AUTO 36015KT 1SM -SN BKN022 OVC033 M02/M04 A2972 RMK AO2 PK WND 01026/1500 P0000 T10171044,KAUG,2018-03-22T15:13:00Z,44.32,-69.8,-1.7,-4.4,360,15,,1.0,29.719488,,,TRUE,TRUE,,,,,,-SN,BKN,2200,OVC,3300,,,,,IFR,,,,,,0.005,,,,,,SPECI,109.0
CYCQ 221513Z 04009G18KT 340V080 1/2SM -SN DRSN VV005 M09/M12 A3006 RMK SN8 SLP217,CYCQ,2018-03-22T15:13:00Z,55.7,-121.62,-9.0,-12.0,40,9,18,0.5,30.059055,1021.7,,,,,,,,,DRSN -SN,OVX,0,,,,,,,LIFR,,,,,,,,,,,500,SPECI,609.0
KLSV 221513Z AUTO 01006KT 9SM -DZ FEW070 BKN085 16/12 A2997 RMK AO2 RAE11DZB11E12DZB13 SLP137,KLSV,2018-03-22T15:13:00Z,36.22,-115.02,16.0,12.0,10,6,,9.0,29.970472,1013.7,,TRUE,TRUE,,,,,,-DZ,FEW,7000,BKN,8500,,,,,VFR,,,,,,,,,,,,SPECI,570.0
KRDR 221513Z 02005KT 4SM BR OVC031 01/01 A3035 RMK SLP295,KRDR,2018-03-22T15:13:00Z,47.97,-97.4,1.0,1.0,20,5,,4.0,30.351377,1029.5,,,,,,,,,BR,OVC,3100,,,,,,,MVFR,,,,,,,,,,,,SPECI,278.0
KSFZ 221513Z AUTO 4SM -SN BR OVC008 02/M01 A2966 RMK AO2 CIG 006V012 P0000 FZRANO $,KSFZ,2018-03-22T15:13:00Z,41.92,-71.5,2.0,-1.0,,,,4.0,29.660433,,,TRUE,TRUE,TRUE,,,TRUE,,-SN BR,OVC,800,,,,,,,IFR,,,,,,0.005,,,,,,SPECI,134.0
KOWA 221513Z AUTO 12005KT 10SM CLR 03/M02 A3035 RMK AO2,KOWA,2018-03-22T15:13:00Z,44.12,-93.25,3.0,-2.0,120,5,,10.0,30.351377,,,TRUE,TRUE,,,,,,,CLR,,,,,,,,VFR,,,,,,,,,,,,SPECI,350.0
KORB 221513Z AUTO 00000KT 10SM OVC060 M02/M09 A3033 RMK AO2,KORB,2018-03-22T15:13:00Z,48.02,-92.87,-2.0,-9.0,0,0,,10.0,30.33071,,,TRUE,TRUE,,,,,,,OVC,6000,,,,,,,VFR,,,,,,,,,,,,SPECI,397.0
KETH 221513Z AUTO 08004KT 10SM SCT023 OVC043 01/M01 A3035 RMK AO2,KETH,2018-03-22T15:13:00Z,45.78,-96.55,1.0,-1.0,80,4,,10.0,30.351377,,,TRUE,TRUE,,,,,,,SCT,2300,OVC,4300,,,,,VFR,,,,,,,,,,,,SPECI,313.0
KGRF 221513Z AUTO 00000KT 8SM RA FEW007 OVC016 06/06 A2951 RMK AO2 CIG 012V016 OVC V BKN SLP998 RVRNO $,KGRF,2018-03-22T15:13:00Z,47.07,-122.57,6.0,6.0,0,0,,8.0,29.509842,999.8,,TRUE,TRUE,TRUE,,,,,RA,FEW,700,OVC,1600,,,,,MVFR,,,,,,,,,,,,SPECI,92.0
CZST 221513Z 03010G22KT 350V060 15SM -RA BKN060 OVC075 06/M01 A2950 RMK SC6AC2 SLP990,CZST,2018-03-22T15:13:00Z,55.93,-129.98,6.0,-1.0,30,10,22,15.0,29.500984,999.0,,,,,,,,,-RA,BKN,6000,OVC,7500,,,,,VFR,,,,,,,,,,,,SPECI,7.0
KCCU 221512Z AUTO 21005KT 10SM BKN033 OVC039 01/M05 A3035 RMK AO2,KCCU,2018-03-22T15:12:00Z,39.48,-106.15,1.0,-5.0,210,5,,10.0,30.351377,,,TRUE,TRUE,,,,,,,BKN,3300,OVC,3900,,,,,VFR,,,,,,,,,,,,SPECI,3680.0
KC07 221512Z AUTO 22005KT 10SM OVC070 00/M02 A3026 RMK AO2,KC07,2018-03-22T15:12:00Z,40.35,-106.7,0.0,-2.0,220,5,,10.0,30.259842,,,TRUE,TRUE,,,,,,,OVC,7000,,,,,,,VFR,,,,,,,,,,,,SPECI,3224.0
KBDU 221512Z AUTO 00000KT 10SM SCT100 11/M01 A3010 RMK AO2,KBDU,2018-03-22T15:12:00Z,40.03,-105.23,11.0,-1.0,0,0,,10.0,30.100393,,,TRUE,TRUE,,,,,,,SCT,10000,,,,,,,VFR,,,,,,,,,,,,SPECI,1612.0
K7BM 221512Z AUTO 26013G24KT 10SM CLR 08/M02 A3028 RMK AO2,K7BM,2018-03-22T15:12:00Z,38.78,-106.22,8.0,-2.0,260,13,24,10.0,30.280512,,,TRUE,TRUE,,,,,,,CLR,,,,,,,,VFR,,,,,,,,,,,,SPECI,2995.0
K5SM 221512Z AUTO 20010G19KT 170V230 10SM CLR 00/M05 A3033 RMK AO2,K5SM,2018-03-22T15:12:00Z,39.43,-107.38,0.0,-5.0,200,10,19,10.0,30.33071,,,TRUE,TRUE,,,,,,,CLR,,,,,,,,VFR,,,,,,,,,,,,SPECI,3232.0
K20V 221512Z AUTO 00000KT 10SM BKN085 BKN100 05/M02 A3024 RMK AO2,K20V,2018-03-22T15:12:00Z,40.05,-106.37,5.0,-2.0,0,0,,10.0,30.239174,,,TRUE,TRUE,,,,,,,BKN,8500,BKN,10000,,,,,VFR,,,,,,,,,,,,SPECI,2259.0
K0CO 221512Z AUTO 29022G38KT 10SM SCT036 M02/M08 A3033 RMK AO2,K0CO,2018-03-22T15:12:00Z,39.8,-105.77,-2.0,-8.0,290,22,38,10.0,30.33071,,,TRUE,TRUE,,,,,,,SCT,3600,,,,,,,VFR,,,,,,,,,,,,SPECI,3807.0
KMNH 221512Z AUTO 00000KT 10SM CLR 10/M06 A3020 RMK AO2,KMNH,2018-03-22T15:12:00Z,39.22,-104.65,10.0,-6.0,0,0,,10.0,30.200787,,,TRUE,TRUE,,,,,,,CLR,,,,,,,,VFR,,,,,,,,,,,,METAR,2152.0
KSBS 221512Z AUTO 08003KT 10SM SCT055 SCT085 OVC100 00/M02 A3017 RMK AO1 T00001025,KSBS,2018-03-22T15:12:00Z,40.52,-106.87,0.0,-2.5,80,3,,10.0,30.171259,,,TRUE,TRUE,,,,,,,SCT,5500,SCT,8500,OVC,10000,,,VFR,,,,,,,,,,,,SPECI,2096.0
KRND 221512Z AUTO 15008KT 10SM OVC023 17/14 A3028 RMK AO2 CIG 022 RWY15R SLP251,KRND,2018-03-22T15:12:00Z,29.52,-98.27,17.0,14.0,150,8,,10.0,30.280512,1025.1,,TRUE,TRUE,,,,,,,OVC,2300,,,,,,,MVFR,,,,,,,,,,,,SPECI,232.0
KSCK 221512Z COR 16014KT 5SM -RA BKN010 BKN045 OVC055 16/16 A2975 RMK AO2 P0000 T01610156,KSCK,2018-03-22T15:12:00Z,37.88,-121.22,16.1,15.6,160,14,,5.0,29.749016,,TRUE,,TRUE,,,,,,-RA,BKN,1000,BKN,4500,OVC,5500,,,MVFR,,,,,,0.005,,,,,,SPECI,10.0
CYZU 221512Z 09008G20KT 1SM BR OVC002 M02/M03 A2999 RMK SC8 SLP193,CYZU,2018-03-22T15:12:00Z,54.15,-115.78,-2.0,-3.0,90,8,20,1.0,29.991142,1019.3,,,,,,,,,BR,OVC,200,,,,,,,LIFR,,,,,,,,,,,,SPECI,785.0
CYYN 221512Z AUTO 11011KT 3SM BR BKN002 M04/M04 A3005 RMK ICG PAST HR SLP216,CYYN,2018-03-22T15:12:00Z,50.27,-107.67,-4.0,-4.0,110,11,,3.0,30.050198,1021.6,,TRUE,,,,,,,BR,BKN,200,,,,,,,LIFR,,,,,,,,,,,,SPECI,818.0
RJAH 221511Z 36003KT 9999 -SHRA FEW030 BKN035 09/07 Q1002 RMK 2CU030 7CU035 A2960,RJAH,2018-03-22T15:11:00Z,36.17,140.42,9.0,7.0,360,3,,6.21,29.586615,,,,,,,,,,-SHRA,FEW,3000,BKN,3500,,,,,VFR,,,,,,,,,,,,SPECI,35.0
KVUO 221511Z AUTO 23006KT 10SM -RA FEW016 SCT025 OVC032 08/06 A2957 RMK AO2 P0000 T00780056,KVUO,2018-03-22T15:11:00Z,45.62,-122.65,7.8,5.6,230,6,,10.0,29.568897,,,TRUE,TRUE,,,,,,-RA,FEW,1600,SCT,2500,OVC,3200,,,VFR,,,,,,0.005,,,,,,SPECI,8.0
KNTD 221511Z 17006KT 2SM +RA BR SCT015 BKN049 OVC070 13/12 A2999 RMK AO2 CIG 036 N P0004 T01330117 VISNO N $,KNTD,2018-03-22T15:11:00Z,34.12,-119.12,13.3,11.7,170,6,,2.0,29.991142,,,,TRUE,TRUE,,,,,+RA BR,SCT,1500,BKN,4900,OVC,7000,,,IFR,,,,,,0.04,,,,,,SPECI,4.0
PMDY 221510Z AUTO 33008KT 10SM BKN016 BKN022 OVC031 17/15 A2997 RMK AO2,PMDY,2018-03-22T15:10:00Z,28.22,-177.37,17.0,15.0,330,8,,10.0,29.970472,,,TRUE,TRUE,,,,,,,BKN,1600,BKN,2200,OVC,3100,,,MVFR,,,,,,,,,,,,SPECI,4.0
KHEQ 221510Z AUTO 00000KT 10SM CLR 15/M01 A3008 RMK AO2,KHEQ,2018-03-22T15:10:00Z,40.57,-102.28,15.0,-1.0,0,0,,10.0,30.079725,,,TRUE,TRUE,,,,,,,CLR,,,,,,,,VFR,,,,,,,,,,,,SPECI,1137.0
KCDD 221510Z AUTO 00000KT 10SM CLR M04/M11 A3039 RMK AO2,KCDD,2018-03-22T15:10:00Z,48.27,-92.48,-4.0,-11.0,0,0,,10.0,30.389763,,,TRUE,TRUE,,,,,,,CLR,,,,,,,,VFR,,,,,,,,,,,,SPECI,341.0
K1V6 221510Z AUTO 27005KT 10SM CLR 13/M02 A3015 RMK AO2,K1V6,2018-03-22T15:10:00Z,38.43,-105.1,13.0,-2.0,270,5,,10.0,30.15059,,,TRUE,TRUE,,,,,,,CLR,,,,,,,,VFR,,,,,,,,,,,,SPECI,1658.0
KAQO 221510Z AUTO 20010G15KT 10SM BKN024 20/13 A3029 RMK AO2,KAQO,2018-03-22T15:10:00Z,30.78,-98.67,20.0,13.0,200,10,15,10.0,30.28937,,,TRUE,TRUE,,,,,,,BKN,2400,,,,,,,MVFR,,,,,,,,,,,,SPECI,336.0
KAUH 221510Z AUTO 16012KT 10SM CLR 08/02 A3013 RMK AO2 T00800017,KAUH,2018-03-22T15:10:00Z,40.88,-98.0,8.0,1.7,160,12,,10.0,30.129921,,,TRUE,TRUE,,,,,,,CLR,,,,,,,,VFR,,,,,,,,,,,,SPECI,550.0
KGLW 221510Z AUTO 34007KT 10SM CLR 05/M04 A3035 RMK AO2 T00531038,KGLW,2018-03-22T15:10:00Z,37.03,-85.95,5.3,-3.8,340,7,,10.0,30.351377,,,TRUE,TRUE,,,,,,,CLR,,,,,,,,VFR,,,,,,,,,,,,SPECI,218.0
KD73 221510Z AUTO 32011KT 10SM CLR 08/M05 A3026 RMK AO2 T00761049,KD73,2018-03-22T15:10:00Z,33.78,-83.7,7.6,-4.9,320,11,,10.0,30.259842,,,TRUE,TRUE,,,,,,,CLR,,,,,,,,VFR,,,,,,,,,,,,SPECI,267.0
KVBS 221510Z AUTO 08014KT 10SM CLR 19/09 A3035 RMK A01,KVBS,2018-03-22T15:10:00Z,29.48,-93.63,19.0,9.0,80,14,,10.0,30.351377,,,TRUE,TRUE,,,,,,,CLR,,,,,,,,VFR,,,,,,,,,,,,SPECI,31.0
KEHC 221510Z AUTO 10018KT 10SM CLR A3034 RMK A01,KEHC,2018-03-22T15:10:00Z,28.43,-92.88,,,100,18,,10.0,30.339567,,,TRUE,TRUE,,,,,,,CLR,,,,,,,,VFR,,,,,,,,,,,,SPECI,31.0
KCVW 221510Z AUTO 11011G17KT 10SM SCT095 18/08 A3037 RMK A01,KCVW,2018-03-22T15:10:00Z,29.78,-93.3,18.0,8.0,110,11,17,10.0,30.369095,,,TRUE,TRUE,,,,,,,SCT,9500,,,,,,,VFR,,,,,,,,,,,,SPECI,1.0
KVES 221510Z AUTO 34006KT 10SM CLR M01/M03 A3028 RMK AO2,KVES,2018-03-22T15:10:00Z,40.2,-84.53,-1.0,-3.0,340,6,,10.0,30.280512,,,TRUE,TRUE,,,,,,,CLR,,,,,,,,VFR,,,,,,,,,,,,SPECI,307.0
KTMA 221510Z AUTO 32011G15KT 10SM CLR 10/M02 A3027 RMK AO2 T00951024,KTMA,2018-03-22T15:10:00Z,31.43,-83.48,9.5,-2.4,320,11,15,10.0,30.268702,,,TRUE,TRUE,,,,,,,CLR,,,,,,,,VFR,,,,,,,,,,,,SPECI,109.0
KHSG 221510Z AUTO 16007KT 120V190 10SM CLR 09/M01 A2996 RMK AO2 T00901013,KHSG,2018-03-22T15:10:00Z,43.72,-108.38,9.0,-1.3,160,7,,10.0,29.958662,,,TRUE,TRUE,,,,,,,CLR,,,,,,,,VFR,,,,,,,,,,,,SPECI,1494.0
KHFJ 221510Z AUTO 14010KT 10SM CLR 10/01 A3030 RMK AO2,KHFJ,2018-03-22T15:10:00Z,36.9,-94.02,10.0,1.0,140,10,,10.0,30.301182,,,TRUE,TRUE,,,,,,,CLR,,,,,,,,VFR,,,,,,,,,,,,SPECI,401.0
KO86 221510Z AUTO 32008G18KT 8SM FEW016 FEW034 OVC041 07/05 A2960 RMK AO1 P0001,KO86,2018-03-22T15:10:00Z,40.98,-122.7,7.0,5.0,320,8,18,8.0,29.601377,,,TRUE,TRUE,,,,,,,FEW,1600,FEW,3400,OVC,4100,,,VFR,,,,,,0.01,,,,,,SPECI,729.0
K6I2 221510Z AUTO 31007KT 10SM CLR 00/M06 A3033 RMK AO2,K6I2,2018-03-22T15:10:00Z,37.63,-85.25,0.0,-6.0,310,7,,10.0,30.33071,,,TRUE,TRUE,,,,,,,CLR,,,,,,,,VFR,,,,,,,,,,,,SPECI,264.0
ENDR 221510Z 9999 BKN030 04/M01 Q1005,ENDR,2018-03-22T15:10:00Z,64.35,7.8,4.0,-1.0,,,,6.21,29.675198,,,,,,,,,,,BKN,3000,,,,,,,MVFR,,,,,,,,,,,,METAR,50.0
KRUQ 221510Z AUTO 35007G19KT 320V020 10SM CLR 05/M07 A3015 RMK AO2 T00531073,KRUQ,2018-03-22T15:10:00Z,35.65,-80.52,5.3,-7.3,350,7,19,10.0,30.15059,,,TRUE,TRUE,,,,,,,CLR,,,,,,,,VFR,,,,,,,,,,,,SPECI,236.0
VCBI 221510Z 23007KT 210V280 9999 BKN018 29/24 Q1010 NOSIG,VCBI,2018-03-22T15:10:00Z,7.17,79.87,29.0,24.0,230,7,,6.21,29.822834,,,,,,TRUE,,,,,BKN,1800,,,,,,,MVFR,,,,,,,,,,,,METAR,8.0
VCRI 221510Z 23004KT 9999 FEW018 28/25 Q1009 NOSIG,VCRI,2018-03-22T15:10:00Z,6.28,81.13,28.0,25.0,230,4,,6.21,29.793306,,,,,,TRUE,,,,,FEW,1800,,,,,,,VFR,,,,,,,,,,,,METAR,7.0
K0VG 221510Z AUTO 29010G15KT 10SM CLR 05/M06 A3026 RMK AO2,K0VG,2018-03-22T15:10:00Z,36.65,-83.22,5.0,-6.0,290,10,15,10.0,30.259842,,,TRUE,TRUE,,,,,,,CLR,,,,,,,,VFR,,,,,,,,,,,,SPECI,430.0
ETAR 221510Z 22005KT 9999 -RA OVC008 02/02 A2997 RMK AO2A RAB10 SLP167 $,ETAR,2018-03-22T15:10:00Z,49.42,7.58,2.0,2.0,220,5,,6.21,29.970472,1016.7,,,TRUE,TRUE,,,,,-RA,OVC,800,,,,,,,IFR,,,,,,,,,,,,METAR,238.0
CYPW 221510Z 09005KT 7SM -RA SCT010 OVC026 06/05 A2940 RMK SC4SC4 VIS LWR N-NE LO CLD SLP958,CYPW,2018-03-22T15:10:00Z,49.82,-124.5,6.0,5.0,90,5,,7.0,29.40059,995.8,,,,,,,,,-RA,SCT,1000,OVC,2600,,,,,MVFR,,,,,,,,,,,,SPECI,130.0
CYZP 221510Z AUTO 29007KT 6SM -RA BR BKN007 OVC013 02/02 A2934 RMK SLP937,CYZP,2018-03-22T15:10:00Z,53.25,-131.82,2.0,2.0,290,7,,6.0,29.338583,993.7,,TRUE,,,,,,,-RA BR,BKN,700,OVC,1300,,,,,IFR,,,,,,,,,,,,SPECI,6.0
LIBV 221509Z 32019KT 2500 RA BR BKN005 SCT016 03/03 Q0996 RMK OVC VIS MIN 2500 WIND THR32 34021KT WIND THR14 32018KT YLO,LIBV,2018-03-22T15:09:00Z,40.77,16.92,3.0,3.0,320,19,,1.55,29.409449,,,,,,,,,,RA BR,BKN,500,SCT,1600,,,,,IFR,,,,,,,,,,,,METAR,350.0
KRBG 221509Z AUTO 16004KT 10SM -RA OVC033 05/03 A2969 RMK AO2 P0001 T00500033,KRBG,2018-03-22T15:09:00Z,43.23,-123.35,5.0,3.3,160,4,,10.0,29.68996,,,TRUE,TRUE,,,,,,-RA,OVC,3300,,,,,,,VFR,,,,,,0.01,,,,,,SPECI,154.0
KPKD 221509Z AUTO 14005KT 7SM OVC028 00/M03 A3032 RMK AO2 T00001028,KPKD,2018-03-22T15:09:00Z,46.9,-95.07,0.0,-2.8,140,5,,7.0,30.318897,,,TRUE,TRUE,,,,,,,OVC,2800,,,,,,,MVFR,,,,,,,,,,,,SPECI,442.0
KIJD 221509Z AUTO 35011KT 10SM OVC030 04/00 A2970 RMK AO2 T00390000,KIJD,2018-03-22T15:09:00Z,41.75,-72.18,3.9,0.0,350,11,,10.0,29.698818,,,TRUE,TRUE,,,,,,,OVC,3000,,,,,,,MVFR,,,,,,,,,,,,SPECI,75.0
KEWB 221509Z 35008G18KT 6SM -SN BR FEW009 OVC016 02/00 A2963 RMK AO2 P0000 T00170000,KEWB,2018-03-22T15:09:00Z,41.68,-70.95,1.7,0.0,350,8,18,6.0,29.630905,,,,TRUE,,,,,,-SN BR,FEW,900,OVC,1600,,,,,MVFR,,,,,,0.005,,,,,,SPECI,23.0
CYXJ 221509Z 36010KT 1SM R29/3000V4500FT/U -SN VV008 M09/M11 A3007 RMK SN8 SLP226,CYXJ,2018-03-22T15:09:00Z,56.25,-120.73,-9.0,-11.0,360,10,,1.0,30.070866,1022.6,,,,,,,,,-SN,OVX,0,,,,,,,LIFR,,,,,,,,,,,800,SPECI,695.0
CYZY 221509Z AUTO VRB17G29KT 9SM BKN070 OVC089 M03/M12 A2975 RMK SLP109,CYZY,2018-03-22T15:09:00Z,55.28,-123.12,-3.0,-12.0,0,17,29,9.0,29.749016,1010.9,,TRUE,,,,,,,,BKN,7000,OVC,8900,,,,,VFR,,,,,,,,,,,,SPECI,690.0
KMRY 221508Z 18013G24KT 4SM -RA BR FEW018 BKN038 OVC065 15/13 A2981 RMK AO2 P0002 T01500133,KMRY,2018-03-22T15:08:00Z,36.58,-121.85,15.0,13.3,180,13,24,4.0,29.811024,,,,TRUE,,,,,,-RA BR,FEW,1800,BKN,3800,OVC,6500,,,MVFR,,,,,,0.02,,,,,,SPECI,66.0
CYMJ 221508Z 12011KT 3/8SM FZFG VV003 M04/M04 A3020 RMK FG8 RIME ON INDICATOR SLP259,CYMJ,2018-03-22T15:08:00Z,50.32,-105.53,-4.0,-4.0,120,11,,0.38,30.200787,1025.9,,,,,,,,,FZFG,OVX,0,,,,,,,LIFR,,,,,,,,,,,300,SPECI,577.0
K1YT 221508Z AUTO 00000KT 10SM SCT023 BKN095 06/05 A2948 RMK AO2 SLPNO $,K1YT,2018-03-22T15:08:00Z,46.67,-120.45,6.0,5.0,0,0,,10.0,29.480314,,,TRUE,TRUE,TRUE,,,,,,SCT,2300,BKN,9500,,,,,VFR,,,,,,,,,,,,SPECI,438.0
CYVL 221507Z AUTO 20004KT 3SM -SN BKN055 OVC068 M19/M21 A3055 RMK SLP385,CYVL,2018-03-22T15:07:00Z,67.02,-126.13,-19.0,-21.0,200,4,,3.0,30.549213,1038.5,,TRUE,,,,,,,-SN,BKN,5500,OVC,6800,,,,,MVFR,,,,,,,,,,,,SPECI,259.0
CYKJ 221507Z AUTO 08011G16KT 2SM -SN BKN018 OVC037 M17/M19 A3048 RMK SLP373,CYKJ,2018-03-22T15:07:00Z,57.25,-105.62,-17.0,-19.0,80,11,16,2.0,30.481298,1037.3,,TRUE,,,,,,,-SN,BKN,1800,OVC,3700,,,,,IFR,,,,,,,,,,,,SPECI,509.0
KMYL 221507Z AUTO 00000KT 5SM -RA BR FEW018 BKN029 OVC036 03/02 A2971 RMK AO2 P0001 T00280017 $,KMYL,2018-03-22T15:07:00Z,44.9,-116.1,2.8,1.7,0,0,,5.0,29.71063,,,TRUE,TRUE,TRUE,,,,,-RA BR,FEW,1800,BKN,2900,OVC,3600,,,MVFR,,,,,,0.01,,,,,,METAR,1533.0
KOAK 221506Z 21013KT 7SM SCT017 BKN025 OVC090 14/14 A2976 RMK AO2 RAE02 P0000 T01440139,KOAK,2018-03-22T15:06:00Z,37.72,-122.23,14.4,13.9,210,13,,7.0,29.760826,,,,TRUE,,,,,,,SCT,1700,BKN,2500,OVC,9000,,,MVFR,,,,,,0.005,,,,,,METAR,26.0
KCPW 221506Z AUTO 21012G21KT 10SM OVC018 M02/M06 A3045 RMK AO2,KCPW,2018-03-22T15:06:00Z,37.45,-106.8,-2.0,-6.0,210,12,21,10.0,30.448818,,,TRUE,TRUE,,,,,,,OVC,1800,,,,,,,MVFR,,,,,,,,,,,,SPECI,3584.0
KQDG 221506Z AUTO 29007KT 9999 SCT005 OVC020 01/01 A2972 RMK AO2 CIG 005V040 SLP066 PWINO FZRANO $,KQDG,2018-03-22T15:06:00Z,,,1.0,1.0,290,7,,6.21,29.719488,1006.6,,TRUE,TRUE,TRUE,,,TRUE,TRUE,,SCT,500,OVC,2000,,,,,MVFR,,,,,,,,,,,,SPECI,
CYHZ 221506Z 04011G17KT 1/2SM R14/3000V5500FT/D SN VV003 00/00 A2947 RMK SN8 PRESFR SLP989,CYHZ,2018-03-22T15:06:00Z,44.87,-63.5,0.0,0.0,40,11,17,0.5,29.471457,998.9,,,,,,,,,SN,OVX,0,,,,,,,LIFR,,,,,,,,,,,300,SPECI,145.0
CWUW 221505Z AUTO 27012KT ////SM //// FEW004 SCT036 M34/M37 A2991,CWUW,2018-03-22T15:05:00Z,68.65,-71.17,-34.0,-37.0,270,12,,,29.911417,,,TRUE,,,,,,,,FEW,400,SCT,3600,,,,,,,,,,,,,,,,,SPECI,527.0
KVNY 221505Z 08003KT 3SM RA BR BKN020 BKN070 OVC085 14/14 A2999 RMK AO2 P0002 T01440139,KVNY,2018-03-22T15:05:00Z,34.22,-118.48,14.4,13.9,80,3,,3.0,29.991142,,,,TRUE,,,,,,RA BR,BKN,2000,BKN,7000,OVC,8500,,,MVFR,,,,,,0.02,,,,,,METAR,245.0
KSTK 221505Z AUTO 20004KT 10SM CLR 07/M01 A3009 RMK AO2,KSTK,2018-03-22T15:05:00Z,40.62,-103.27,7.0,-1.0,200,4,,10.0,30.088583,,,TRUE,TRUE,,,,,,,CLR,,,,,,,,VFR,,,,,,,,,,,,METAR,1231.0
LICT 221504Z 34017G27KT 8000 -RA SCT015 BKN020 10/08 Q1000 RMK OVC VIS MIN 8000 WIND THR13 33020G31KT WHT,LICT,2018-03-22T15:04:00Z,37.92,12.5,10.0,8.0,340,17,27,4.97,29.52756,,,,,,,,,,-RA,SCT,1500,BKN,2000,,,,,MVFR,,,,,,,,,,,,SPECI,7.0
KAWO 221503Z AUTO 15010KT 9SM -RA SCT008 BKN015 OVC031 07/07 A2948 RMK AO2 P0001,KAWO,2018-03-22T15:03:00Z,48.17,-122.17,7.0,7.0,150,10,,9.0,29.480314,,,TRUE,TRUE,,,,,,-RA,SCT,800,BKN,1500,OVC,3100,,,MVFR,,,,,,0.01,,,,,,SPECI,42.0
KBAB 221503Z 18016KT 10SM -RA FEW009 SCT013 BKN070 OVC080 14/14 A2968 RMK AO2A SLP053 $,KBAB,2018-03-22T15:03:00Z,39.12,-121.42,14.0,14.0,180,16,,10.0,29.681103,1005.3,,,TRUE,TRUE,,,,,-RA,FEW,900,SCT,1300,BKN,7000,OVC,8000,VFR,,,,,,,,,,,,SPECI,34.0
KSDB 221502Z AUTO 20023G34KT M1/4SM -RA FG VV001 08/08 A2997 RMK AO2 PK WND 20034/1459 P0002 T00780078 $,KSDB,2018-03-22T15:02:00Z,34.75,-118.72,7.8,7.8,200,23,34,0.25,29.970472,,,TRUE,TRUE,TRUE,,,,,-RA FG,OVX,0,,,,,,,LIFR,,,,,,0.02,,,,,100,METAR,1377.0
KEVM 221502Z AUTO 00000KT 10SM SCT055 M04/M08 A3035 RMK AO2,KEVM,2018-03-22T15:02:00Z,47.42,-92.5,-4.0,-8.0,0,0,,10.0,30.351377,,,TRUE,TRUE,,,,,,,SCT,5500,,,,,,,VFR,,,,,,,,,,,,SPECI,421.0
PAMO 221501Z AUTO 12015KT 10SM CLR M07/M08 A3021 RMK AO2 SLP237 T10721078 56033 FZRANO,PAMO,2018-03-22T15:01:00Z,62.1,-163.68,-7.2,-7.8,120,15,,10.0,30.209646,1023.7,,TRUE,TRUE,,,,TRUE,,,CLR,,,,,,,,VFR,-3.3,,,,,,,,,,,METAR,103.0
PAFS 221501Z AUTO 06008KT 10SM CLR M16/M18 A3041 RMK AO2 SLP320 T11611178 58023 FZRANO,PAFS,2018-03-22T15:01:00Z,63.02,-154.35,-16.1,-17.8,60,8,,10.0,30.410433,1032.0,,TRUE,TRUE,,,,TRUE,,,CLR,,,,,,,,VFR,-2.3,,,,,,,,,,,METAR,126.0
KAPC 221501Z COR 21014G22KT 10SM SCT007 BKN014 OVC021 14/13 A2973 RMK AO2 T01390128,KAPC,2018-03-22T15:01:00Z,38.2,-122.28,13.9,12.8,210,14,22,10.0,29.731298,,TRUE,,TRUE,,,,,,,SCT,700,BKN,1400,OVC,2100,,,MVFR,,,,,,,,,,,,SPECI,13.0
SCEL 221500Z VRB02KT CAVOK 19/05 Q1016 NOSIG,SCEL,2018-03-22T15:00:00Z,-33.37,-70.77,19.0,5.0,0,2,,6.21,30.0,,,,,,TRUE,,,,,CAVOK,,,,,,,,VFR,,,,,,,,,,,,METAR,476.0
SBFN 221500Z 10011KT 9999 FEW020 31/24 Q1012,SBFN,2018-03-22T15:00:00Z,-3.85,-32.42,31.0,24.0,100,11,,6.21,29.88189,,,,,,,,,,,FEW,2000,,,,,,,VFR,,,,,,,,,,,,METAR,56.0
SBSP 221500Z 11006KT 060V160 9999 BKN017 OVC030 23/18 Q1018,SBSP,2018-03-22T15:00:00Z,-23.62,-46.63,23.0,18.0,110,6,,6.21,30.059055,,,,,,,,,,,BKN,1700,OVC,3000,,,,,MVFR,,,,,,,,,,,,METAR,803.0
SBMO 221500Z 11015KT 9999 BKN030 30/22 Q1013,SBMO,2018-03-22T15:00:00Z,-9.52,-35.77,30.0,22.0,110,15,,6.21,29.911417,,,,,,,,,,,BKN,3000,,,,,,,MVFR,,,,,,,,,,,,METAR,115.0
SBPV 221500Z 25002KT 9999 SCT020 30/23 Q1013,SBPV,2018-03-22T15:00:00Z,-8.72,-63.9,30.0,23.0,250,2,,6.21,29.911417,,,,,,,,,,,SCT,2000,,,,,,,VFR,,,,,,,,,,,,METAR,88.0
OSKL 221500Z 03003KT 7000 SCT026 BKN100 20/04 Q1015,OSKL,2018-03-22T15:00:00Z,37.03,41.2,20.0,4.0,30,3,,4.35,29.970472,,,,,,,,,,,SCT,2600,BKN,10000,,,,,MVFR,,,,,,,,,,,,METAR,455.0
OSLK 221500Z 03004KT 6000 25/10 Q1013,OSLK,2018-03-22T15:00:00Z,35.4,35.95,25.0,10.0,30,4,,3.73,29.911417,,,,,,,,,,,,,,,,,,,,,,,,,,,,,,,METAR,48.0
OSDI 221500Z 21002KT CAVOK 27/M09 Q1015,OSDI,2018-03-22T15:00:00Z,33.42,36.52,27.0,-9.0,210,2,,6.21,29.970472,,,,,,,,,,,CAVOK,,,,,,,,VFR,,,,,,,,,,,,METAR,605.0
MRLB 221500Z 07025KT CAVOK 30/17 A2992 NOSIG,MRLB,2018-03-22T15:00:00Z,10.6,-85.55,30.0,17.0,70,25,,6.21,29.920275,,,,,,TRUE,,,,,CAVOK,,,,,,,,VFR,,,,,,,,,,,,METAR,82.0
SBSL 221500Z 03012KT 9999 SCT020 FEW025TCU 30/25 Q1011,SBSL,2018-03-22T15:00:00Z,-2.6,-44.22,30.0,25.0,30,12,,6.21,29.852362,,,,,,,,,,,SCT,2000,FEW,2500,,,,,VFR,,,,,,,,,,,,METAR,53.0
LWOH 221500Z 01014KT 9999 -RA FEW010 OVC030 03/M02 Q1000,LWOH,2018-03-22T15:00:00Z,41.18,20.75,3.0,-2.0,10,14,,6.21,29.52756,,,,,,,,,,-RA,FEW,1000,OVC,3000,,,,,MVFR,,,,,,,,,,,,METAR,761.0
SBCB 221500Z 12006KT 6000 -RA SCT010 BKN020 25/24 Q1014,SBCB,2018-03-22T15:00:00Z,-22.92,-42.08,25.0,24.0,120,6,,3.73,29.940945,,,,,,,,,,-RA,SCT,1000,BKN,2000,,,,,MVFR,,,,,,,,,,,,METAR,4.0
SBSV 221500Z 09013KT 9999 FEW020 31/22 Q1013,SBSV,2018-03-22T15:00:00Z,-12.9,-38.32,31.0,22.0,90,13,,6.21,29.911417,,,,,,,,,,,FEW,2000,,,,,,,VFR,,,,,,,,,,,,METAR,6.0
MHTG 221500Z 36014KT 9999 FEW030 23/11 Q1023 A3021 NOSIG,MHTG,2018-03-22T15:00:00Z,14.07,-87.22,23.0,11.0,360,14,,6.21,30.206694,,,,,,TRUE,,,,,FEW,3000,,,,,,,VFR,,,,,,,,,,,,METAR,1004.0
MHLM 221500Z 35007KT 9999 SCT026 28/24 Q1019 A3009 NOSIG,MHLM,2018-03-22T15:00:00Z,15.45,-87.93,28.0,24.0,350,7,,6.21,30.088583,,,,,,TRUE,,,,,SCT,2600,,,,,,,VFR,,,,,,,,,,,,METAR,26.0
MHRO 221500Z 07010KT 9999 FEW018TCU 29/23 Q1019 A3009 NOSIG,MHRO,2018-03-22T15:00:00Z,16.32,-86.53,29.0,23.0,70,10,,6.21,30.088583,,,,,,TRUE,,,,,FEW,1800,,,,,,,VFR,,,,,,,,,,,,METAR,5.0
SBRB 221500Z 31005KT 9999 SCT011 BKN100 26/22 Q1014,SBRB,2018-03-22T15:00:00Z,-10.0,-67.78,26.0,22.0,310,5,,6.21,29.940945,,,,,,,,,,,SCT,1100,BKN,10000,,,,,VFR,,,,,,,,,,,,METAR,143.0
SBBV 221500Z 07020KT 9999 SCT040 BKN100 31/19 Q1014,SBBV,2018-03-22T15:00:00Z,2.85,-60.7,31.0,19.0,70,20,,6.21,29.940945,,,,,,,,,,,SCT,4000,BKN,10000,,,,,VFR,,,,,,,,,,,,METAR,140.0
OJAI 221500Z 14005KT 7000 NSC 29/M07 Q1015 NOSIG,OJAI,2018-03-22T15:00:00Z,31.72,36.0,29.0,-7.0,140,5,,4.35,29.970472,,,,,,TRUE,,,,,CLR,,,,,,,,MVFR,,,,,,,,,,,,METAR,730.0
KWHP 221500Z 00000KT 3SM RA SCT28 BKN035 OVC075 15/15 A3002,KWHP,2018-03-22T15:00:00Z,34.25,-118.42,15.0,15.0,0,0,,3.0,30.02067,,,,,,,,,,RA,BKN,3500,OVC,7500,,,,,MVFR,,,,,,,,,,,,METAR,306.0
GVAC 221500Z 06018KT 3000 HZ FEW014 24/16 Q1017 NOSIG,GVAC,2018-03-22T15:00:00Z,16.72,-22.93,24.0,16.0,60,18,,1.86,30.029528,,,,,,TRUE,,,,HZ,FEW,1400,,,,,,,IFR,,,,,,,,,,,,METAR,55.0
BIHN 221500Z 15009KT 9999 FEW006 FEW022 SCT038 06/04 Q0986,BIHN,2018-03-22T15:00:00Z,64.3,-15.23,6.0,4.0,150,9,,6.21,29.114174,,,,,,,,,,,FEW,600,FEW,2200,SCT,3800,,,VFR,,,,,,,,,,,,METAR,7.0
TUPJ 221500Z 14010KT 9999SM FEW018 28/22 A3009 RMK Q1018,TUPJ,2018-03-22T15:00:00Z,18.43,-64.52,28.0,22.0,140,10,,99.0,30.088583,,,,,,,,,,,FEW,1800,,,,,,,VFR,,,,,,,,,,,,METAR,4.0
OKBK 221500Z 34015KT CAVOK 30/M02 Q1012 NOSIG,OKBK,2018-03-22T15:00:00Z,29.22,47.97,30.0,-2.0,340,15,,6.21,29.88189,,,,,,TRUE,,,,,CAVOK,,,,,,,,VFR,,,,,,,,,,,,METAR,55.0
OJAM 221500Z 09005KT 5000 HZ NSC 27/M02 Q1015 NOSIG,OJAM,2018-03-22T15:00:00Z,31.97,35.97,27.0,-2.0,90,5,,3.11,29.970472,,,,,,TRUE,,,,HZ,CLR,,,,,,,,MVFR,,,,,,,,,,,,METAR,773.0
SBAR 221500Z 08011KT 9999 FEW023 SCT045 31/24 Q1012,SBAR,2018-03-22T15:00:00Z,-10.97,-37.07,31.0,24.0,80,11,,6.21,29.88189,,,,,,,,,,,FEW,2300,SCT,4500,,,,,VFR,,,,,,,,,,,,METAR,9.0
MPTO 221500Z 35006KT 9999 SCT018 SCT100 31/19 Q1014 NOSIG,MPTO,2018-03-22T15:00:00Z,9.05,-79.37,31.0,19.0,350,6,,6.21,29.940945,,,,,,TRUE,,,,,SCT,1800,SCT,10000,,,,,VFR,,,,,,,,,,,,METAR,45.0
GVBA 221500Z 04018KT 4800 HZ FEW015 24/16 Q1016 NOSIG,GVBA,2018-03-22T15:00:00Z,16.13,-22.88,24.0,16.0,40,18,,2.98,30.0,,,,,,TRUE,,,,HZ,FEW,1500,,,,,,,IFR,,,,,,,,,,,,METAR,22.0
MZBZ 221500Z 07008KT 9999 BKN022 29/23 A3012 Q1020 NOSIG,MZBZ,2018-03-22T15:00:00Z,17.52,-88.3,29.0,23.0,70,8,,6.21,30.11811,,,,,,TRUE,,,,,BKN,2200,,,,,,,MVFR,,,,,,,,,,,,METAR,5.0
NCPY 221500Z AUTO 08007KT //// ////// 28/25 Q1009,NCPY,2018-03-22T15:00:00Z,-9.02,-158.07,28.0,25.0,80,7,,,29.793306,,,TRUE,,,,,,,,,,,,,,,,,,,,,,,,,,,,METAR,2.0
NCMH 221500Z AUTO NIL,NCMH,2018-03-22T15:00:00Z,-10.38,-161.0,,,,,,,,,,TRUE,,,,,,,,,,,,,,,,,,,,,,,,,,,,METAR,0.0
NCRG 221500Z 08005KT 9999 VCSH BKN012 BKN090 25/23 Q1011,NCRG,2018-03-22T15:00:00Z,-21.2,-159.82,25.0,23.0,80,5,,6.21,29.852362,,,,,,,,,,VCSH,BKN,1200,BKN,9000,,,,,MVFR,,,,,,,,,,,,SPECI,7.0
SKPE 221500Z 31004KT 7000 SCT015 BKN080 22/20 A3011 RMK HZ,SKPE,2018-03-22T15:00:00Z,4.82,-75.73,22.0,20.0,310,4,,4.35,30.109253,,,,,,,,,,,SCT,1500,BKN,8000,,,,,MVFR,,,,,,,,,,,,METAR,1346.0
SKBG 221500Z 35003KT 8000 SCT012 BKN240 25/20 A3004 RMK HZ,SKBG,2018-03-22T15:00:00Z,7.13,-73.18,25.0,20.0,350,3,,4.97,30.041338,,,,,,,,,,,SCT,1200,BKN,24000,,,,,MVFR,,,,,,,,,,,,METAR,1189.0
SKSP 221500Z 05013KT 030V090 9999 FEW018 30/22 A3003,SKSP,2018-03-22T15:00:00Z,12.57,-81.72,30.0,22.0,50,13,,6.21,30.029528,,,,,,,,,,,FEW,1800,,,,,,,VFR,,,,,,,,,,,,METAR,-2.0
SKRG 221500Z 07006KT 8000 SCT010 BKN090 19/15 A3033 RMK HZ,SKRG,2018-03-22T15:00:00Z,6.17,-75.42,19.0,15.0,70,6,,4.97,30.33071,,,,,,,,,,,SCT,1000,BKN,9000,,,,,MVFR,,,,,,,,,,,,METAR,2137.0
SKCC 221500Z 35005KT 7000 SCT017 SCT200 29/20 A2999 RMK HZ,SKCC,2018-03-22T15:00:00Z,7.92,-72.52,29.0,20.0,350,5,,4.35,29.991142,,,,,,,,,,,SCT,1700,SCT,20000,,,,,MVFR,,,,,,,,,,,,METAR,317.0
SKCG 221500Z 36004KT 350V140 CAVOK 29/24 A2987,SKCG,2018-03-22T15:00:00Z,10.43,-75.52,29.0,24.0,360,4,,6.21,29.870079,,,,,,,,,,,CAVOK,,,,,,,,VFR,,,,,,,,,,,,METAR,1.0
SKCL 221500Z 34003KT 310V050 8000 SCT030 BKN080 25/20 A3005 RMK HZ,SKCL,2018-03-22T15:00:00Z,3.53,-76.37,25.0,20.0,340,3,,4.97,30.050198,,,,,,,,,,,SCT,3000,BKN,8000,,,,,MVFR,,,,,,,,,,,,METAR,969.0
SKBO 221500Z 05010KT 9999 SCT020 SCT200 17/08 A3038,SKBO,2018-03-22T15:00:00Z,4.7,-74.12,17.0,8.0,50,10,,6.21,30.380905,,,,,,,,,,,SCT,2000,SCT,20000,,,,,VFR,,,,,,,,,,,,METAR,2548.0
LFVP 221500Z 07027G40KT 9999 FEW020 SCT066 OVC230 01/M03 Q1014 NOSIG,LFVP,2018-03-22T15:00:00Z,46.77,-56.18,1.0,-3.0,70,27,40,6.21,29.940945,,,,,,TRUE,,,,,FEW,2000,SCT,6600,OVC,23000,,,VFR,,,,,,,,,,,,METAR,8.0
PLCH 221500Z 12008KT 9999 FEW020 26/23 Q1008,PLCH,2018-03-22T15:00:00Z,1.98,-157.35,26.0,23.0,120,8,,6.21,29.763779,,,,,,,,,,,FEW,2000,,,,,,,VFR,,,,,,,,,,,,METAR,3.0
NGTA 221500Z 07013KT 9999 SCT020 27/25 Q1006,NGTA,2018-03-22T15:00:00Z,1.37,173.13,27.0,25.0,70,13,,6.21,29.704725,,,,,,,,,,,SCT,2000,,,,,,,VFR,,,,,,,,,,,,METAR,2.0
SKBQ 221500Z 03003KT 9999 FEW015 30/24 A2989,SKBQ,2018-03-22T15:00:00Z,10.9,-74.77,30.0,24.0,30,3,,6.21,29.890747,,,,,,,,,,,FEW,1500,,,,,,,VFR,,,,,,,,,,,,METAR,10.0
MWCB 221500Z 05009KT 040V100 9999 SCT018 28/22 Q1020,MWCB,2018-03-22T15:00:00Z,19.68,-79.88,28.0,22.0,50,9,,6.21,30.11811,,,,,,,,,,,SCT,1800,,,,,,,VFR,,,,,,,,,,,,METAR,2.0
MWCR 221500Z 03011KT 340V050 9999 SCT022 27/24 Q1019,MWCR,2018-03-22T15:00:00Z,19.3,-81.37,27.0,24.0,30,11,,6.21,30.088583,,,,,,,,,,,SCT,2200,,,,,,,VFR,,,,,,,,,,,,METAR,3.0
UBEE 221500Z 31015KT CAVOK 16/06 Q1012 R30/CLRD// NOSIG,UBEE,2018-03-22T15:00:00Z,40.63,47.15,16.0,6.0,310,15,,6.21,29.88189,,,,,,TRUE,,,,,CAVOK,,,,,,,,VFR,,,,,,,,,,,,METAR,15.0
SBFZ 221500Z 11009KT 9999 BKN017 FEW030TCU BKN070 28/25 Q1012,SBFZ,2018-03-22T15:00:00Z,-3.77,-38.52,28.0,25.0,110,9,,6.21,29.88189,,,,,,,,,,,BKN,1700,FEW,3000,BKN,7000,,,MVFR,,,,,,,,,,,,METAR,25.0
SCVM 221500Z 34006KT CAVOK 20/11 Q1016,SCVM,2018-03-22T15:00:00Z,-32.95,-71.48,20.0,11.0,340,6,,6.21,30.0,,,,,,,,,,,CAVOK,,,,,,,,VFR,,,,,,,,,,,,METAR,141.0
SBMN 221500Z 08009KT 9999 SCT015 SCT100 29/23 Q1013,SBMN,2018-03-22T15:00:00Z,-3.13,-59.97,29.0,23.0,80,9,,6.21,29.911417,,,,,,,,,,,SCT,1500,SCT,10000,,,,,VFR,,,,,,,,,,,,METAR,84.0
NFTV 221500Z 00000KT 9999 FEW018 SCT300 22/20 Q1009R RMK GRASS DEW,NFTV,2018-03-22T15:00:00Z,-18.58,-173.97,22.0,20.0,0,0,,6.21,,,,,,,,,,,,FEW,1800,SCT,30000,,,,,VFR,,,,,,,,,,,,METAR,71.0
NFTF 221500Z 00000KT 9999 FEW016 23/23 Q1010 RMK GRASS DEW,NFTF,2018-03-22T15:00:00Z,-21.23,-175.15,23.0,23.0,0,0,,6.21,29.822834,,,,,,,,,,,FEW,1600,,,,,,,VFR,,,,,,,,,,,,METAR,38.0
OEDF 221500Z 01009KT CAVOK 27/16 Q1011 NOSIG,OEDF,2018-03-22T15:00:00Z,26.47,49.8,27.0,16.0,10,9,,6.21,29.852362,,,,,,TRUE,,,,,CAVOK,,,,,,,,VFR,,,,,,,,,,,,METAR,22.0
OEDR 221500Z 01010KT CAVOK 28/10 Q1010 NOSIG,OEDR,2018-03-22T15:00:00Z,26.27,50.17,28.0,10.0,10,10,,6.21,29.822834,,,,,,TRUE,,,,,CAVOK,,,,,,,,VFR,,,,,,,,,,,,METAR,17.0
OEJN 221500Z 30010KT CAVOK 30/17 Q1008 NOSIG,OEJN,2018-03-22T15:00:00Z,21.68,39.15,30.0,17.0,300,10,,6.21,29.763779,,,,,,TRUE,,,,,CAVOK,,,,,,,,VFR,,,,,,,,,,,,METAR,15.0
OEMA 221500Z 28004KT CAVOK 36/M11 Q1013 NOSIG,OEMA,2018-03-22T15:00:00Z,24.55,39.7,36.0,-11.0,280,4,,6.21,29.911417,,,,,,TRUE,,,,,CAVOK,,,,,,,,VFR,,,,,,,,,,,,METAR,631.0
OERK 221500Z 05008KT CAVOK 31/M04 Q1015 NOSIG,OERK,2018-03-22T15:00:00Z,24.95,46.72,31.0,-4.0,50,8,,6.21,29.970472,,,,,,TRUE,,,,,CAVOK,,,,,,,,VFR,,,,,,,,,,,,METAR,612.0
CYOD 221500Z 05008KT 15SM OVC011 M04/M06 A3025 RMK SC8 SLP278,CYOD,2018-03-22T15:00:00Z,54.4,-110.28,-4.0,-6.0,50,8,,15.0,30.250984,1027.8,,,,,,,,,,OVC,1100,,,,,,,MVFR,,,,,,,,,,,,METAR,544.0
SPJC 221500Z 28007KT 260V320 9999 SCT007 SCT230 22/19 Q1013 NOSIG RMK PP000,SPJC,2018-03-22T15:00:00Z,-12.02,-77.12,22.0,19.0,280,7,,6.21,29.911417,,,,,,TRUE,,,,,SCT,700,SCT,23000,,,,,VFR,,,,,,,,,,,,METAR,13.0
FDSK 221500Z 21016KT 9999 -DZ SCT012 BKN020 OVC025 19/19 Q1018,FDSK,2018-03-22T15:00:00Z,-26.35,31.72,19.0,19.0,210,16,,6.21,30.059055,,,,,,,,,,-DZ,SCT,1200,BKN,2000,OVC,2500,,,MVFR,,,,,,,,,,,,METAR,324.0
NFNA 221500Z 33005KT 9999 FEW020 BKN050 24/23 Q1008,NFNA,2018-03-22T15:00:00Z,-18.05,178.57,24.0,23.0,330,5,,6.21,29.763779,,,,,,,,,,,FEW,2000,BKN,5000,,,,,VFR,,,,,,,,,,,,METAR,5.0
GVSV 221500Z 06024KT 4600 HZ FEW018 25/15 Q1017 NOSIG,GVSV,2018-03-22T15:00:00Z,16.83,-25.07,25.0,15.0,60,24,,2.86,30.029528,,,,,,TRUE,,,,HZ,FEW,1800,,,,,,,IFR,,,,,,,,,,,,METAR,20.0
FQCH 221500Z 15010KT 9999 SCT015 FEW020CB 27/20 Q1017 RMK TO CB N,FQCH,2018-03-22T15:00:00Z,-19.15,33.43,27.0,20.0,150,10,,6.21,30.029528,,,,,,,,,,,SCT,1500,FEW,2000,,,,,VFR,,,,,,,,,,,,METAR,732.0
SBRF 221500Z 06008KT 9999 BKN023 SCT050 29/23 Q1012,SBRF,2018-03-22T15:00:00Z,-8.13,-34.92,29.0,23.0,60,8,,6.21,29.88189,,,,,,,,,,,BKN,2300,SCT,5000,,,,,MVFR,,,,,,,,,,,,METAR,19.0
GVNP 221500Z 03022KT 7000 FEW016 25/16 Q1015 NOSIG,GVNP,2018-03-22T15:00:00Z,14.95,-23.48,25.0,16.0,30,22,,4.35,29.970472,,,,,,TRUE,,,,,FEW,1600,,,,,,,MVFR,,,,,,,,,,,,METAR,70.0
SBPS 221500Z 08016KT 9999 SCT020 31/23 Q1013,SBPS,2018-03-22T15:00:00Z,-16.43,-39.07,31.0,23.0,80,16,,6.21,29.911417,,,,,,,,,,,SCT,2000,,,,,,,VFR,,,,,,,,,,,,METAR,51.0
MROC 221500Z 11019G33KT CAVOK 24/12 A3008 NOSIG,MROC,2018-03-22T15:00:00Z,10.0,-84.22,24.0,12.0,110,19,33,6.21,30.079725,,,,,,TRUE,,,,,CAVOK,,,,,,,,VFR,,,,,,,,,,,,METAR,920.0
SBGL 221500Z 16006KT 9999 SCT012 BKN018 BKN040 26/23 Q1013,SBGL,2018-03-22T15:00:00Z,-22.82,-43.25,26.0,23.0,160,6,,6.21,29.911417,,,,,,,,,,,SCT,1200,BKN,1800,BKN,4000,,,MVFR,,,,,,,,,,,,METAR,6.0
ZMUB 221500Z VRB01MPS CAVOK M01/M06 Q1015 NOSIG RMK QFE653.9 64,ZMUB,2018-03-22T15:00:00Z,47.83,106.78,-1.0,-6.0,0,2,,6.21,29.970472,,,,,,TRUE,,,,,CAVOK,,,,,,,,VFR,,,,,,,,,,,,METAR,1330.0
SPHI 221500Z VRB02KT 9999 FEW010 25/20 Q1013 RMK BIRD HAZARD RWY 19/01 PP000,SPHI,2018-03-22T15:00:00Z,-6.77,-79.82,25.0,20.0,0,2,,6.21,29.911417,,,,,,,,,,,FEW,1000,,,,,,,VFR,,,,,,,,,,,,METAR,34.0
SPQT 221500Z 16005KT 9999 BKN015 BKN100 26/23 Q1014 NOSIG RMK BIRD HAZARD PP000,SPQT,2018-03-22T15:00:00Z,-3.78,-73.32,26.0,23.0,160,5,,6.21,29.940945,,,,,,TRUE,,,,,BKN,1500,BKN,10000,,,,,MVFR,,,,,,,,,,,,METAR,126.0
SPQU 221500Z 25005KT 170V310 9999 FEW080 21/11 Q1026 NOSIG RMK PP000,SPQU,2018-03-22T15:00:00Z,-16.33,-71.57,21.0,11.0,250,5,,6.21,30.295275,,,,,,TRUE,,,,,FEW,8000,,,,,,,VFR,,,,,,,,,,,,METAR,2554.0
SPSO 221500Z 32006KT 8000 NSC 22/18 Q1012 RMK HZ BIRD HAZARD RWY 22/04 PP000,SPSO,2018-03-22T15:00:00Z,-13.73,-76.22,22.0,18.0,320,6,,4.97,29.88189,,,,,,,,,,,CLR,,,,,,,,MVFR,,,,,,,,,,,,METAR,10.0
SPRU 221500Z 17007KT 130V190 8000 BKN002 20/18 Q1013 RMK BR PP000,SPRU,2018-03-22T15:00:00Z,-8.08,-79.12,20.0,18.0,170,7,,4.97,29.911417,,,,,,,,,,,BKN,200,,,,,,,LIFR,,,,,,,,,,,,METAR,30.0
SPTN 221500Z 25004KT CAVOK 24/17 Q1013 RMK SCT300 PP000,SPTN,2018-03-22T15:00:00Z,-18.07,-70.28,24.0,17.0,250,4,,6.21,29.911417,,,,,,,,,,,CAVOK,,,,,,,,VFR,,,,,,,,,,,,METAR,458.0
SBBR 221500Z 35004KT 9999 TSRA SCT011 BKN020 FEW035CB BKN100 19 /17 Q1019,SBBR,2018-03-22T15:00:00Z,-15.87,-47.92,,,350,4,,6.21,30.088583,,,,,,,,,,TSRA,SCT,1100,BKN,2000,FEW,3500,BKN,10000,MVFR,,,,,,,,,,,,METAR,1061.0
SEQM 221500Z 30005KT 9999 FEW033 SCT090 18/09 Q1027 NOSIG RMK A3035,SEQM,2018-03-22T15:00:00Z,-0.12,-78.35,18.0,9.0,300,5,,6.21,30.324802,,,,,,TRUE,,,,,FEW,3300,SCT,9000,,,,,VFR,,,,,,,,,,,,METAR,2400.0
SEMT 221500Z 36004KT 9999 FEW023 BKN100 28/23 Q1013 RMK A2993,SEMT,2018-03-22T15:00:00Z,-0.95,-80.67,28.0,23.0,360,4,,6.21,29.911417,,,,,,,,,,,FEW,2300,BKN,10000,,,,,VFR,,,,,,,,,,,,METAR,14.0
SELT 221500Z 16009KT 9999 SCT020 SCT100 15/10 Q1032,SELT,2018-03-22T15:00:00Z,-0.92,-78.62,15.0,10.0,160,9,,6.21,30.47244,,,,,,,,,,,SCT,2000,SCT,10000,,,,,VFR,,,,,,,,,,,,METAR,2785.0
SEGU 221500Z 01003KT 9999 FEW016 BKN026 BKN100 24/21 Q1013 NOSIG RMK A2992,SEGU,2018-03-22T15:00:00Z,-2.13,-79.87,24.0,21.0,10,3,,6.21,29.911417,,,,,,TRUE,,,,,FEW,1600,BKN,2600,BKN,10000,,,MVFR,,,,,,,,,,,,METAR,9.0
SETN 221500Z 25004KT 9999 -DZ BKN020 OVC070 26/24 Q1014 A2994,SETN,2018-03-22T15:00:00Z,0.98,-79.63,26.0,24.0,250,4,,6.21,29.940945,,,,,,,,,,-DZ,BKN,2000,OVC,7000,,,,,MVFR,,,,,,,,,,,,METAR,10.0
SERO 221500Z 07005KT 9999 OVC040 27/21 Q1013,SERO,2018-03-22T15:00:00Z,-3.43,-79.98,27.0,21.0,70,5,,6.21,29.911417,,,,,,,,,,,OVC,4000,,,,,,,VFR,,,,,,,,,,,,METAR,51.0
SETU 221500Z 06005KT 9999 BKN020 14/10 Q1034,SETU,2018-03-22T15:00:00Z,0.82,-77.7,14.0,10.0,60,5,,6.21,30.531496,,,,,,,,,,,BKN,2000,,,,,,,MVFR,,,,,,,,,,,,METAR,2940.0
SESA 221500Z 03004KT CAVOK 25/21 Q1013,SESA,2018-03-22T15:00:00Z,-2.2,-80.97,25.0,21.0,30,4,,6.21,29.911417,,,,,,,,,,,CAVOK,,,,,,,,VFR,,,,,,,,,,,,METAR,8.0
SERB 221500Z 00000KT 9999 FEW010 BKN030 14/11 Q1032,SERB,2018-03-22T15:00:00Z,-1.62,-78.67,14.0,11.0,0,0,,6.21,30.47244,,,,,,,,,,,FEW,1000,BKN,3000,,,,,MVFR,,,,,,,,,,,,METAR,2796.0
SECU 221500Z 10005KT 9999 SCT040 BKN100 17/11 Q1028,SECU,2018-03-22T15:00:00Z,-2.87,-78.97,17.0,11.0,100,5,,6.21,30.35433,,,,,,,,,,,SCT,4000,BKN,10000,,,,,VFR,,,,,,,,,,,,METAR,2531.0
SENL 221500Z 13002KT 9999 FEW023 BKN100 28/22 Q1015,SENL,2018-03-22T15:00:00Z,0.1,-76.87,28.0,22.0,130,2,,6.21,29.970472,,,,,,,,,,,FEW,2300,BKN,10000,,,,,VFR,,,,,,,,,,,,METAR,293.0
SESM 221500Z 36003KT 9999 FEW030 BKN110 24/19 Q1020 A3012,SESM,2018-03-22T15:00:00Z,-1.5,-78.07,24.0,19.0,360,3,,6.21,30.11811,,,,,,,,,,,FEW,3000,BKN,11000,,,,,VFR,,,,,,,,,,,,METAR,1056.0
SEST 221500Z 13009KT 9999 FEW020 SCT300 29/23 Q1011 RMK A2988,SEST,2018-03-22T15:00:00Z,-0.9,-89.58,29.0,23.0,130,9,,6.21,29.852362,,,,,,,,,,,FEW,2000,SCT,30000,,,,,VFR,,,,,,,,,,,,METAR,6.0
SEGS 221500Z 11014KT 9999 SCT020 29/23 Q1013 A2991,SEGS,2018-03-22T15:00:00Z,-0.45,-90.27,29.0,23.0,110,14,,6.21,29.911417,,,,,,,,,,,SCT,2000,,,,,,,VFR,,,,,,,,,,,,METAR,16.0
HLLB 221500Z 32025G35KT 8000 BKN020 17/12 Q1006 RERA,HLLB,2018-03-22T15:00:00Z,32.07,20.27,17.0,12.0,320,25,35,4.97,29.704725,,,,,,,,,,,BKN,2000,,,,,,,MVFR,,,,,,,,,,,,METAR,132.0
UBBY 221500Z 33006KT 9999 BKN100 15/05 Q1016 R33/////// NOSIG RMK MT OP,UBBY,2018-03-22T15:00:00Z,41.57,46.67,15.0,5.0,330,6,,6.21,30.0,,,,,,TRUE,,,,,BKN,10000,,,,,,,VFR,,,,,,,,,,,,METAR,390.0
SPCL 221500Z 10005KT 9999 BKN015 BKN070 26/23 Q1016 RMK BIRD HAZARD RWY 02/20 PP000,SPCL,2018-03-22T15:00:00Z,-8.38,-74.58,26.0,23.0,100,5,,6.21,30.0,,,,,,,,,,,BKN,1500,BKN,7000,,,,,MVFR,,,,,,,,,,,,METAR,149.0
SPGM 221500Z /////KT 1000 -RA BR BKN015 OVC070 21/21 Q1019 RMK BIRD HAZARD RWY19 PP048,SPGM,2018-03-22T15:00:00Z,-9.28,-76.0,21.0,21.0,,,,0.62,30.088583,,,,,,,,,,-RA BR,BKN,1500,OVC,7000,,,,,LIFR,,,,,,,,,,,,METAR,665.0
SPHO 221500Z 32003KT 260V020 9999 FEW015 BKN090 18/12 Q1029 RMK PP000,SPHO,2018-03-22T15:00:00Z,-13.17,-74.22,18.0,12.0,320,3,,6.21,30.383858,,,,,,,,,,,FEW,1500,BKN,9000,,,,,VFR,,,,,,,,,,,,METAR,2749.0
SPHY 221500Z 33004KT 9000 SCT018 BKN060 11/04 Q1037 RMK BIRD HAZARD RWY03/21 PP000,SPHY,2018-03-22T15:00:00Z,-13.7,-73.35,11.0,4.0,330,4,,5.59,30.620079,,,,,,,,,,,SCT,1800,BKN,6000,,,,,VFR,,,,,,,,,,,,METAR,3548.0
SPJI 221500Z 00000KT 9999 OVC030 25/23 Q1024 RMK PP000,SPJI,2018-03-22T15:00:00Z,-7.17,-76.72,25.0,23.0,0,0,,6.21,30.236221,,,,,,,,,,,OVC,3000,,,,,,,MVFR,,,,,,,,,,,,METAR,363.0
SPJL 221500Z 08004KT 9999 SCT015 12/05 Q1037 RMK PP000,SPJL,2018-03-22T15:00:00Z,-15.47,-70.15,12.0,5.0,80,4,,6.21,30.620079,,,,,,,,,,,SCT,1500,,,,,,,VFR,,,,,,,,,,,,METAR,3827.0
SPLO 221500Z 16009KT CAVOK 25/18 Q1012 RMK PP000,SPLO,2018-03-22T15:00:00Z,-17.7,-71.35,25.0,18.0,160,9,,6.21,29.88189,,,,,,,,,,,CAVOK,,,,,,,,VFR,,,,,,,,,,,,METAR,9.0
SPME 221500Z 08004KT 9999 BKN014 27/21 Q1013 RMK BIRD HAZARD RWY 32/14 PP000,SPME,2018-03-22T15:00:00Z,-3.53,-80.4,27.0,21.0,80,4,,6.21,29.911417,,,,,,,,,,,BKN,1400,,,,,,,MVFR,,,,,,,,,,,,METAR,27.0
SPMS 221500Z 10005KT 9999 SCT014 SCT100 26/24 Q1015 RMK BIRD HAZARD RWY 09/27 PP000,SPMS,2018-03-22T15:00:00Z,-5.9,-76.12,26.0,24.0,100,5,,6.21,29.970472,,,,,,,,,,,SCT,1400,SCT,10000,,,,,VFR,,,,,,,,,,,,METAR,179.0
SPST 221500Z 00000KT 9999 SCT020 OVC080 26/23 Q1015 RMK BIRD HAZARD RWY 17/35 PP000,SPST,2018-03-22T15:00:00Z,-6.52,-76.37,26.0,23.0,0,0,,6.21,29.970472,,,,,,,,,,,SCT,2000,OVC,8000,,,,,VFR,,,,,,,,,,,,METAR,282.0
SPYL 221500Z /////KT CAVOK 28/21 Q1013 RMK BIRD HAZARD RWY 17/35 PP000,SPYL,2018-03-22T15:00:00Z,-4.57,-81.25,28.0,21.0,,,,6.21,29.911417,,,,,,,,,,,CAVOK,,,,,,,,VFR,,,,,,,,,,,,METAR,90.0
SPTU 221500Z 34005KT 260V020 9999 BKN010 27/24 Q1013 RMK BIRD HAZARD RWY 01/19 PP000,SPTU,2018-03-22T15:00:00Z,-12.62,-69.2,27.0,24.0,340,5,,6.21,29.911417,,,,,,,,,,,BKN,1000,,,,,,,MVFR,,,,,,,,,,,,METAR,266.0
SCFA 221500Z 19016KT 9999 FEW014 18/11 Q1013 NOSIG,SCFA,2018-03-22T15:00:00Z,-23.42,-70.42,18.0,11.0,190,16,,6.21,29.911417,,,,,,TRUE,,,,,FEW,1400,,,,,,,VFR,,,,,,,,,,,,METAR,120.0
SCAR 221500Z 25009KT 210V280 CAVOK 24/15 Q1012,SCAR,2018-03-22T15:00:00Z,-18.35,-70.32,24.0,15.0,250,9,,6.21,29.88189,,,,,,,,,,,CAVOK,,,,,,,,VFR,,,,,,,,,,,,METAR,59.0
SCBA 221500Z 30036G47KT 9999 FEW020 SCT030 BKN200 11/05 Q0993,SCBA,2018-03-22T15:00:00Z,-45.92,-71.67,11.0,5.0,300,36,47,6.21,29.320866,,,,,,,,,,,FEW,2000,SCT,3000,BKN,20000,,,VFR,,,,,,,,,,,,METAR,524.0
SCCF 221500Z 30004KT CAVOK 22/00 Q1024,SCCF,2018-03-22T15:00:00Z,-22.5,-68.9,22.0,0.0,300,4,,6.21,30.236221,,,,,,,,,,,CAVOK,,,,,,,,VFR,,,,,,,,,,,,METAR,2312.0
SCIE 221500Z 02013KT 9999 OVC005 15/15 Q1015,SCIE,2018-03-22T15:00:00Z,-36.77,-73.07,15.0,15.0,20,13,,6.21,29.970472,,,,,,,,,,,OVC,500,,,,,,,IFR,,,,,,,,,,,,METAR,16.0
SCDA 221500Z 20017KT CAVOK 22/14 Q1012,SCDA,2018-03-22T15:00:00Z,-20.52,-70.17,22.0,14.0,200,17,,6.21,29.88189,,,,,,,,,,,CAVOK,,,,,,,,VFR,,,,,,,,,,,,METAR,52.0
SCAT 221500Z VRB03KT 9999 FEW015 17/10 Q1016,SCAT,2018-03-22T15:00:00Z,-27.27,-70.77,17.0,10.0,0,3,,6.21,30.0,,,,,,,,,,,FEW,1500,,,,,,,VFR,,,,,,,,,,,,METAR,204.0
SCJO 221500Z 35008KT 9999 FEW020 BKN030 OVC066 14/12 Q1008,SCJO,2018-03-22T15:00:00Z,-40.6,-73.03,14.0,12.0,350,8,,6.21,29.763779,,,,,,,,,,,FEW,2000,BKN,3000,OVC,6600,,,MVFR,,,,,,,,,,,,METAR,65.0
SCSE 221500Z 28009KT 9999 FEW015 17/12 Q1015,SCSE,2018-03-22T15:00:00Z,-29.92,-71.2,17.0,12.0,280,9,,6.21,29.970472,,,,,,,,,,,FEW,1500,,,,,,,VFR,,,,,,,,,,,,METAR,146.0
SCQP 221500Z 34011KT 310V010 9999 SCT019 OVC080 17/14 Q1012,SCQP,2018-03-22T15:00:00Z,-38.92,-72.65,17.0,14.0,340,11,,6.21,29.88189,,,,,,,,,,,SCT,1900,OVC,8000,,,,,VFR,,,,,,,,,,,,METAR,97.0
SCTE 221500Z 36010KT 8000 -SHRA SCT013 OVC030 14/13 Q1007 NOSIG,SCTE,2018-03-22T15:00:00Z,-41.42,-73.07,14.0,13.0,360,10,,4.97,29.734253,,,,,,TRUE,,,,-SHRA,SCT,1300,OVC,3000,,,,,MVFR,,,,,,,,,,,,METAR,86.0
SCVD 221500Z 34008KT 9000 -SHRA FEW017 BKN040 15/14 Q1010,SCVD,2018-03-22T15:00:00Z,-39.65,-73.07,15.0,14.0,340,8,,5.59,29.822834,,,,,,,,,,-SHRA,FEW,1700,BKN,4000,,,,,VFR,,,,,,,,,,,,METAR,14.0
SCNT 221500Z 28020KT 9999 BKN040 11/00 Q0980,SCNT,2018-03-22T15:00:00Z,-51.67,-72.53,11.0,0.0,280,20,,6.21,28.937008,,,,,,,,,,,BKN,4000,,,,,,,VFR,,,,,,,,,,,,METAR,67.0
SCIP 221500Z 10010KT 9999 SCT025 24/18 Q1024 NOSIG,SCIP,2018-03-22T15:00:00Z,-27.17,-109.43,24.0,18.0,100,10,,6.21,30.236221,,,,,,TRUE,,,,,SCT,2500,,,,,,,VFR,,,,,,,,,,,,METAR,69.0
SCCI 221500Z 29030KT 9999 SCT040 11/02 Q0977 NOSIG,SCCI,2018-03-22T15:00:00Z,-53.0,-70.83,11.0,2.0,290,30,,6.21,28.848425,,,,,,TRUE,,,,,SCT,4000,,,,,,,VFR,,,,,,,,,,,,METAR,37.0
SCPQ 221500Z 33013KT 8000 -SHRA FEW033 OVC041 13/12 Q1004,SCPQ,2018-03-22T15:00:00Z,-42.33,-73.72,13.0,12.0,330,13,,4.97,29.64567,,,,,,,,,,-SHRA,FEW,3300,OVC,4100,,,,,MVFR,,,,,,,,,,,,METAR,5.0
SCCH 221500Z 01008KT 9999 BKN023 19/13 Q1016,SCCH,2018-03-22T15:00:00Z,-36.57,-72.02,19.0,13.0,10,8,,6.21,30.0,,,,,,,,,,,BKN,2300,,,,,,,MVFR,,,,,,,,,,,,METAR,148.0
SCGE 221500Z 03010KT 9999 SCT020 BKN040 16/13 Q1015,SCGE,2018-03-22T15:00:00Z,-37.38,-72.42,16.0,13.0,30,10,,6.21,29.970472,,,,,,,,,,,SCT,2000,BKN,4000,,,,,VFR,,,,,,,,,,,,METAR,114.0
SCRM 221500Z 01016KT 9999 SCT006 BKN011 02/01 Q0972,SCRM,2018-03-22T15:00:00Z,-62.18,-58.98,2.0,1.0,10,16,,6.21,28.700787,,,,,,,,,,,SCT,600,BKN,1100,,,,,MVFR,,,,,,,,,,,,METAR,45.0
SCIC 221500Z 34004KT CAVOK 19/08 Q1016,SCIC,2018-03-22T15:00:00Z,-34.97,-71.22,19.0,8.0,340,4,,6.21,30.0,,,,,,,,,,,CAVOK,,,,,,,,VFR,,,,,,,,,,,,METAR,242.0
SCCY 221500Z VRB09G21KT 9999 FEW030 BKN040 13/04 Q0996,SCCY,2018-03-22T15:00:00Z,-45.57,-72.1,13.0,4.0,0,9,21,6.21,29.409449,,,,,,,,,,,FEW,3000,BKN,4000,,,,,VFR,,,,,,,,,,,,METAR,311.0
GQPP 221500Z 04012KT 4000 DRSA NSC 28/03 Q1017 NOSIG,GQPP,2018-03-22T15:00:00Z,20.92,-17.02,28.0,3.0,40,12,,2.49,30.029528,,,,,,TRUE,,,,DRSA,CLR,,,,,,,,IFR,,,,,,,,,,,,METAR,3.0
SEAM 221500Z 24004KT 9999 SCT020 BKN100 16/12 Q1029,SEAM,2018-03-22T15:00:00Z,-1.18,-78.57,16.0,12.0,240,4,,6.21,30.383858,,,,,,,,,,,SCT,2000,BKN,10000,,,,,VFR,,,,,,,,,,,,METAR,2520.0
SECA 221500Z 26001KT 9999 BKN040 SCT100 BKN200 21/17 Q1020,SECA,2018-03-22T15:00:00Z,-4.0,-79.37,21.0,17.0,260,1,,6.21,30.11811,,,,,,,,,,,BKN,4000,SCT,10000,BKN,20000,,,VFR,,,,,,,,,,,,METAR,1121.0
SBCG 221500Z 32008KT 300V360 9999 BKN030 30/24 Q1013,SBCG,2018-03-22T15:00:00Z,-20.47,-54.67,30.0,24.0,320,8,,6.21,29.911417,,,,,,,,,,,BKN,3000,,,,,,,MVFR,,,,,,,,,,,,METAR,567.0
SECO 221500Z 20003KT 9999 SCT020 BKN100 27/24 Q1015 RMK A2997,SECO,2018-03-22T15:00:00Z,-0.45,-76.98,27.0,24.0,200,3,,6.21,29.970472,,,,,,,,,,,SCT,2000,BKN,10000,,,,,VFR,,,,,,,,,,,,METAR,220.0
YAMB 221500Z AUTO 21003KT 9999 // BKN032 BKN040 BKN047 19/18 Q1016,YAMB,2018-03-22T15:00:00Z,-27.63,152.72,19.0,18.0,210,3,,6.21,30.0,,,TRUE,,,,,,,,BKN,3200,BKN,4000,BKN,4700,,,VFR,,,,,,,,,,,,METAR,28.0
YBRK 221500Z AUTO 13005KT 9999 // BKN028 BKN044 OVC050 23/20 Q1011,YBRK,2018-03-22T15:00:00Z,-23.37,150.47,23.0,20.0,130,5,,6.21,29.852362,,,TRUE,,,,,,,,BKN,2800,BKN,4400,OVC,5000,,,MVFR,,,,,,,,,,,,METAR,14.0
YBMA 221500Z AUTO 00000KT 9999 // NCD 23/17 Q1009,YBMA,2018-03-22T15:00:00Z,-20.67,139.47,23.0,17.0,0,0,,6.21,29.793306,,,TRUE,,,,,,,,CLR,,,,,,,,VFR,,,,,,,,,,,,SPECI,344.0
YBHM 221500Z AUTO 13016KT 9999 // SCT026 SCT031 26/23 Q1008,YBHM,2018-03-22T15:00:00Z,-20.35,148.95,26.0,23.0,130,16,,6.21,29.763779,,,TRUE,,,,,,,,SCT,2600,SCT,3100,,,,,VFR,,,,,,,,,,,,METAR,5.0
MGGT 221500Z 36020KT 9999 FEW018 21/11 Q1028 A3036,MGGT,2018-03-22T15:00:00Z,14.57,-90.53,21.0,11.0,360,20,,6.21,30.35433,,,,,,,,,,,FEW,1800,,,,,,,VFR,,,,,,,,,,,,METAR,1509.0
SBRP 221500Z 07005KT 9999 FEW027 30/20 Q1014,SBRP,2018-03-22T15:00:00Z,-21.12,-47.77,30.0,20.0,70,5,,6.21,29.940945,,,,,,,,,,,FEW,2700,,,,,,,VFR,,,,,,,,,,,,METAR,549.0
SYCJ 221500Z 08014KT 9999 SCT020 30/21 Q1015 NOSIG,SYCJ,2018-03-22T15:00:00Z,6.5,-58.25,30.0,21.0,80,14,,6.21,29.970472,,,,,,TRUE,,,,,SCT,2000,,,,,,,VFR,,,,,,,,,,,,METAR,30.0
MRPV 221500Z 07023G33KT CAVOK 22/10 A3013 NOSIG,MRPV,2018-03-22T15:00:00Z,9.95,-84.15,22.0,10.0,70,23,33,6.21,30.129921,,,,,,TRUE,,,,,CAVOK,,,,,,,,VFR,,,,,,,,,,,,SPECI,994.0
SBVT 221500Z 08007KT 9999 SCT008 SCT040 BKN080 27/26 Q1013,SBVT,2018-03-22T15:00:00Z,-20.27,-40.27,27.0,26.0,80,7,,6.21,29.911417,,,,,,,,,,,SCT,800,SCT,4000,BKN,8000,,,VFR,,,,,,,,,,,,METAR,4.0
SBTE 221500Z 03003KT 9999 BKN025 31/24 Q1011,SBTE,2018-03-22T15:00:00Z,-5.03,-42.82,31.0,24.0,30,3,,6.21,29.852362,,,,,,,,,,,BKN,2500,,,,,,,MVFR,,,,,,,,,,,,METAR,69.0
YWHA 221500Z AUTO 21005KT 9999 // NCD 20/14 Q1014,YWHA,2018-03-22T15:00:00Z,-33.07,137.52,20.0,14.0,210,5,,6.21,29.940945,,,TRUE,,,,,,,,CLR,,,,,,,,VFR,,,,,,,,,,,,METAR,13.0
YWGT 221500Z AUTO 36006KT 9999 // NCD 19/08 Q1023,YWGT,2018-03-22T15:00:00Z,-36.42,146.3,19.0,8.0,360,6,,6.21,30.206694,,,TRUE,,,,,,,,CLR,,,,,,,,VFR,,,,,,,,,,,,METAR,153.0
YTNK 221500Z AUTO 11007KT 9999 // NCD 28/14 Q1008,YTNK,2018-03-22T15:00:00Z,-19.63,134.18,28.0,14.0,110,7,,6.21,29.763779,,,TRUE,,,,,,,,CLR,,,,,,,,VFR,,,,,,,,,,,,METAR,377.0
YTEF 221500Z AUTO 13006KT 9999 // NCD 28/13 Q1009,YTEF,2018-03-22T15:00:00Z,-21.72,122.23,28.0,13.0,130,6,,6.21,29.793306,,,TRUE,,,,,,,,CLR,,,,,,,,VFR,,,,,,,,,,,,METAR,296.0
YSWG 221500Z AUTO 11008KT 9999 // NCD 17/09 Q1023,YSWG,2018-03-22T15:00:00Z,-35.13,147.47,17.0,9.0,110,8,,6.21,30.206694,,,TRUE,,,,,,,,CLR,,,,,,,,VFR,,,,,,,,,,,,METAR,213.0
YSTW 221500Z AUTO 20008KT 9999 // NCD 17/13 Q1020 RF00.0/000.0,YSTW,2018-03-22T15:00:00Z,-31.07,150.85,17.0,13.0,200,8,,6.21,30.11811,,,TRUE,,,,,,,,CLR,,,,,,,,VFR,,,,,,,,,,,,SPECI,410.0
YKRY 221500Z AUTO 12008KT 9999 // BKN006 18/17 Q1017,YKRY,2018-03-22T15:00:00Z,-26.57,151.83,18.0,17.0,120,8,,6.21,30.029528,,,TRUE,,,,,,,,BKN,600,,,,,,,IFR,,,,,,,,,,,,METAR,434.0
YCCY 221500Z AUTO 13006KT //// // ////// 27/15 Q1007,YCCY,2018-03-22T15:00:00Z,-20.67,140.5,27.0,15.0,130,6,,,29.734253,,,TRUE,,,,,,,,,,,,,,,,,,,,,,,,,,,,METAR,570.0
YCBP 221500Z AUTO 11008KT 9999 // NCD 23/01 Q1013,YCBP,2018-03-22T15:00:00Z,-29.03,134.72,23.0,1.0,110,8,,6.21,29.911417,,,TRUE,,,,,,,,CLR,,,,,,,,VFR,,,,,,,,,,,,METAR,226.0
YCBB 221500Z AUTO 18006KT //// // ////// 15/13 Q1021,YCBB,2018-03-22T15:00:00Z,-31.33,149.27,15.0,13.0,180,6,,,30.147638,,,TRUE,,,,,,,,,,,,,,,,,,,,,,,,,,,,METAR,645.0
YCBA 221500Z AUTO 08012KT 9999 // SCT115 21/11 Q////,YCBA,2018-03-22T15:00:00Z,-31.53,145.8,21.0,11.0,80,12,,6.21,,,,TRUE,,,,,,,,SCT,11500,,,,,,,VFR,,,,,,,,,,,,METAR,221.0
YCAS 221500Z AUTO 21002KT //// // ////// 19/18 Q1017,YCAS,2018-03-22T15:00:00Z,-28.88,153.07,19.0,18.0,210,2,,,30.029528,,,TRUE,,,,,,,,,,,,,,,,,,,,,,,,,,,,METAR,26.0
YCAR 221500Z AUTO 17011KT 9999 // NCD 26/20 Q1008,YCAR,2018-03-22T15:00:00Z,-24.88,113.67,26.0,20.0,170,11,,6.21,29.763779,,,TRUE,,,,,,,,CLR,,,,,,,,VFR,,,,,,,,,,,,METAR,8.0
YBWX 221500Z AUTO 31011KT //// // ////// 29/25 Q1008,YBWX,2018-03-22T15:00:00Z,-20.88,115.4,29.0,25.0,310,11,,,29.763779,,,TRUE,,,,,,,,,,,,,,,,,,,,,,,,,,,,METAR,6.0
YBWP 221500Z AUTO 10004KT //// // NCD 24/23 Q1005,YBWP,2018-03-22T15:00:00Z,-12.68,141.92,24.0,23.0,100,4,,,29.675198,,,TRUE,,,,,,,,CLR,,,,,,,,,,,,,,,,,,,,METAR,12.0
YBUD 221500Z AUTO 16007KT 9999 -SHRA SCT028 SCT037 SCT045 21/20 Q1013,YBUD,2018-03-22T15:00:00Z,-24.9,152.32,21.0,20.0,160,7,,6.21,29.911417,,,TRUE,,,,,,,-SHRA,SCT,2800,SCT,3700,SCT,4500,,,VFR,,,,,,,,,,,,METAR,82.0
YBTL 221500Z AUTO 14006KT 9999 // NCD 25/22 Q1008,YBTL,2018-03-22T15:00:00Z,-19.25,146.75,25.0,22.0,140,6,,6.21,29.763779,,,TRUE,,,,,,,,CLR,,,,,,,,VFR,,,,,,,,,,,,METAR,6.0
YWLM 221500Z AUTO 12014KT 9999 // BKN044 OVC052 20/17 Q1022,YWLM,2018-03-22T15:00:00Z,-32.8,151.83,20.0,17.0,120,14,,6.21,30.177166,,,TRUE,,,,,,,,BKN,4400,OVC,5200,,,,,VFR,,,,,,,,,,,,METAR,9.0
YSRI 221500Z AUTO 22001KT 9999 // SCT027 BKN033 OVC042 17/17 Q1025,YSRI,2018-03-22T15:00:00Z,-33.6,150.77,17.0,17.0,220,1,,6.21,30.265747,,,TRUE,,,,,,,,SCT,2700,BKN,3300,OVC,4200,,,VFR,,,,,,,,,,,,METAR,21.0
YSNF 221500Z AUTO 11009KT 9999 // SCT023 SCT027 21/16 Q1016,YSNF,2018-03-22T15:00:00Z,-29.02,167.92,21.0,16.0,110,9,,6.21,30.0,,,TRUE,,,,,,,,SCT,2300,SCT,2700,,,,,VFR,,,,,,,,,,,,METAR,109.0
YSDU 221500Z AUTO 12011KT 9999 // NCD 18/12 Q1021,YSDU,2018-03-22T15:00:00Z,-32.22,148.57,18.0,12.0,120,11,,6.21,30.147638,,,TRUE,,,,,,,,CLR,,,,,,,,VFR,,,,,,,,,,,,SPECI,275.0
YPPD 221500Z AUTO 26006KT //// // NCD 29/26 Q1008,YPPD,2018-03-22T15:00:00Z,-20.37,118.62,29.0,26.0,260,6,,,29.763779,,,TRUE,,,,,,,,CLR,,,,,,,,,,,,,,,,,,,,METAR,6.0
YPKG 221500Z AUTO 33004KT 9999 // NCD 26/09 Q1011,YPKG,2018-03-22T15:00:00Z,-30.77,121.45,26.0,9.0,330,4,,6.21,29.852362,,,TRUE,,,,,,,,CLR,,,,,,,,VFR,,,,,,,,,,,,METAR,360.0
YPGV 221500Z AUTO 10011KT 9999 // SCT015 SCT032 SCT079 26/24 Q1001,YPGV,2018-03-22T15:00:00Z,-12.27,136.82,26.0,24.0,100,11,,6.21,29.557087,,,TRUE,,,,,,,,SCT,1500,SCT,3200,SCT,7900,,,VFR,,,,,,,,,,,,METAR,55.0
YPEA 221500Z AUTO 15001KT 9999 // NCD 19/18 Q1013,YPEA,2018-03-22T15:00:00Z,-31.67,116.02,19.0,18.0,150,1,,6.21,29.911417,,,TRUE,,,,,,,,CLR,,,,,,,,VFR,,,,,,,,,,,,METAR,49.0
YMLT 221500Z AUTO 07006KT 040V100 9999 // OVC055 13/08 Q1028,YMLT,2018-03-22T15:00:00Z,-41.52,147.18,13.0,8.0,70,6,,6.21,30.35433,,,TRUE,,,,,,,,OVC,5500,,,,,,,VFR,,,,,,,,,,,,SPECI,178.0
YMAV 221500Z AUTO 09003KT //// // ////// 15/14 Q1021 RF00.0/000.0 PRESENT WEATHER SENSOR US,YMAV,2018-03-22T15:00:00Z,-38.03,144.48,15.0,14.0,90,3,,,30.147638,,,TRUE,,,,,,,,,,,,,,,,,,,,,,,,,,,,SPECI,8.0
YFRT 221500Z AUTO 10007KT //// // ////// 16/12 Q1013,YFRT,2018-03-22T15:00:00Z,-30.83,128.12,16.0,12.0,100,7,,,29.911417,,,TRUE,,,,,,,,,,,,,,,,,,,,,,,,,,,,METAR,156.0
YCIN 221500Z AUTO 23006KT 9999 // NCD 28/26 Q1006,YCIN,2018-03-22T15:00:00Z,-17.58,123.83,28.0,26.0,230,6,,6.21,29.704725,,,TRUE,,,,,,,,CLR,,,,,,,,VFR,,,,,,,,,,,,SPECI,91.0
MHAM 221500Z 04008KT CAVOK 32/22 FEW250,MHAM,2018-03-22T15:00:00Z,13.27,-87.65,32.0,22.0,40,8,,6.21,,,,,,,,,,,,FEW,25000,,,,,,,VFR,,,,,,,,,,,,METAR,5.0
MHTR 221500Z 08002KT 9999 SCT025TCU 29/23 TCU SE HZ,MHTR,2018-03-22T15:00:00Z,15.93,-85.93,29.0,23.0,80,2,,6.21,,,,,,,,,,,HZ,SCT,2500,,,,,,,VFR,,,,,,,,,,,,METAR,3.0
MHLC 221500Z 00000KT 9999 SCT024CB 29/21 Q1019 A3009 NOSIG,MHLC,2018-03-22T15:00:00Z,15.75,-86.85,29.0,21.0,0,0,,6.21,30.088583,,,,,,TRUE,,,,,SCT,2400,,,,,,,VFR,,,,,,,,,,,,METAR,15.0
MHTE 221500Z 36006KT 9999 FEW022 28/23 Q1015 HZ,MHTE,2018-03-22T15:00:00Z,15.78,-87.48,28.0,23.0,360,6,,6.21,29.970472,,,,,,,,,,HZ,FEW,2200,,,,,,,VFR,,,,,,,,,,,,METAR,3.0
MHYR 221500Z 05004KT 9999 SCT023 26/16 HZ,MHYR,2018-03-22T15:00:00Z,15.13,-87.12,26.0,16.0,50,4,,6.21,,,,,,,,,,,HZ,SCT,2300,,,,,,,VFR,,,,,,,,,,,,METAR,670.0
MHPL 221500Z 06008KT 9999 BKN028TCU 29/24 Q1017 TCU ALL HZ,MHPL,2018-03-22T15:00:00Z,15.27,-83.78,29.0,24.0,60,8,,6.21,30.029528,,,,,,,,,,HZ,BKN,2800,,,,,,,MVFR,,,,,,,,,,,,METAR,13.0
MHSR 221500Z 36008KT 9999 BKN020 21/17 HZ,MHSR,2018-03-22T15:00:00Z,14.78,-88.78,21.0,17.0,360,8,,6.21,,,,,,,,,,,HZ,BKN,2000,,,,,,,MVFR,,,,,,,,,,,,METAR,1079.0
MHCA 221500Z 06003KT 9999 FEW028 26/20 Q1021 HZ,MHCA,2018-03-22T15:00:00Z,14.9,-85.78,26.0,20.0,60,3,,6.21,30.147638,,,,,,,,,,HZ,FEW,2800,,,,,,,VFR,,,,,,,,,,,,METAR,442.0
MHNO 221500Z 34014KT 9999 FEW040 23/16 HZ,MHNO,2018-03-22T15:00:00Z,14.43,-89.18,23.0,16.0,340,14,,6.21,,,,,,,,,,,HZ,FEW,4000,,,,,,,VFR,,,,,,,,,,,,METAR,2.0
MHLE 221500Z 07012KT 9999 SCT020 18/13,MHLE,2018-03-22T15:00:00Z,14.32,-88.15,18.0,13.0,70,12,,6.21,,,,,,,,,,,,SCT,2000,,,,,,,VFR,,,,,,,,,,,,METAR,1100.0
MHCH 221500Z 02014KT 9999 FEW032 SCT250 31/28 HZ,MHCH,2018-03-22T15:00:00Z,13.32,-87.15,31.0,28.0,20,14,,6.21,,,,,,,,,,,HZ,FEW,3200,SCT,25000,,,,,VFR,,,,,,,,,,,,METAR,48.0
SEJD 221500Z 12002KT 4000 BR FEW0003 BKN013 OVC100 22/22 Q1017,SEJD,2018-03-22T15:00:00Z,-1.07,-77.58,22.0,22.0,120,2,,2.49,30.029528,,,,,,,,,,BR,BKN,1300,OVC,10000,,,,,IFR,,,,,,,,,,,,METAR,375.0
UKBB 221500Z 25004MPS CAVOK 01/M09 Q1016 R88/811050 NOSIG,UKBB,2018-03-22T15:00:00Z,50.33,30.9,1.0,-9.0,250,8,,6.21,30.0,,,,,,TRUE,,,,,CAVOK,,,,,,,,VFR,,,,,,,,,,,,METAR,119.0
UKHH 221500Z 30006MPS 9999 SCT032 M01/M07 Q1014 R25/72//66 NOSIG,UKHH,2018-03-22T15:00:00Z,49.92,36.28,-1.0,-7.0,300,12,,6.21,29.940945,,,,,,TRUE,,,,,SCT,3200,,,,,,,VFR,,,,,,,,,,,,METAR,155.0
UKOO 221500Z 02002MPS CAVOK M01/M05 Q1020 R34/810550 NOSIG,UKOO,2018-03-22T15:00:00Z,46.42,30.68,-1.0,-5.0,20,4,,6.21,30.11811,,,,,,TRUE,,,,,CAVOK,,,,,,,,VFR,,,,,,,,,,,,METAR,35.0
UKDD 221500Z 30006MPS CAVOK M00/M09 Q1017 R26/711070 NOSIG,UKDD,2018-03-22T15:00:00Z,48.37,35.1,0.0,-9.0,300,12,,6.21,30.029528,,,,,,TRUE,,,,,CAVOK,,,,,,,,VFR,,,,,,,,,,,,METAR,149.0
UKDE 221500Z 26005MPS 9999 SCT033 M00/M04 Q1018 R20/220370 NOSIG,UKDE,2018-03-22T15:00:00Z,47.87,35.32,0.0,-4.0,260,10,,6.21,30.059055,,,,,,TRUE,,,,,SCT,3300,,,,,,,VFR,,,,,,,,,,,,METAR,113.0
UKLL 221500Z 19003MPS CAVOK 01/M10 Q1015 R13/CLRD// NOSIG,UKLL,2018-03-22T15:00:00Z,49.82,23.93,1.0,-10.0,190,6,,6.21,29.970472,,,,,,TRUE,,,,,CAVOK,,,,,,,,VFR,,,,,,,,,,,,METAR,325.0
UKDR 221500Z 28004MPS CAVOK M01/M07 Q1018 R36/09//70 NOSIG,UKDR,2018-03-22T15:00:00Z,48.05,33.22,-1.0,-7.0,280,8,,6.21,30.059055,,,,,,TRUE,,,,,CAVOK,,,,,,,,VFR,,,,,,,,,,,,METAR,124.0
UBBL 221500Z 14004KT 9999 NSC 12/09 Q1013 R33/CLRD// NOSIG RMK MT OP,UBBL,2018-03-22T15:00:00Z,38.75,48.82,12.0,9.0,140,4,,6.21,29.911417,,,,,,TRUE,,,,,CLR,,,,,,,,VFR,,,,,,,,,,,,METAR,10.0
OMAA 221500Z 31008KT CAVOK 26/15 Q1010 NOSIG,OMAA,2018-03-22T15:00:00Z,24.42,54.63,26.0,15.0,310,8,,6.21,29.822834,,,,,,TRUE,,,,,CAVOK,,,,,,,,VFR,,,,,,,,,,,,METAR,27.0
OMAD 221500Z 27005KT 230V290 CAVOK 26/15 Q1010 NOSIG,OMAD,2018-03-22T15:00:00Z,24.42,54.47,26.0,15.0,270,5,,6.21,29.822834,,,,,,TRUE,,,,,CAVOK,,,,,,,,VFR,,,,,,,,,,,,METAR,3.0
OMDB 221500Z 31006KT CAVOK 25/16 Q1010 NOSIG,OMDB,2018-03-22T15:00:00Z,25.25,55.37,25.0,16.0,310,6,,6.21,29.822834,,,,,,TRUE,,,,,CAVOK,,,,,,,,VFR,,,,,,,,,,,,METAR,5.0
OMAL 221500Z 28008KT CAVOK 30/M01 Q1010 NOSIG,OMAL,2018-03-22T15:00:00Z,24.25,55.6,30.0,-1.0,280,8,,6.21,29.822834,,,,,,TRUE,,,,,CAVOK,,,,,,,,VFR,,,,,,,,,,,,METAR,262.0
OMDW 221500Z 29010KT CAVOK 24/17 Q1011 NOSIG,OMDW,2018-03-22T15:00:00Z,24.9,55.17,24.0,17.0,290,10,,6.21,29.852362,,,,,,TRUE,,,,,CAVOK,,,,,,,,VFR,,,,,,,,,,,,METAR,25.0
OMFJ 221500Z 11004KT 8000 NSC 26/19 Q1009 RMK A2981,OMFJ,2018-03-22T15:00:00Z,25.1,56.32,26.0,19.0,110,4,,4.97,29.793306,,,,,,,,,,,CLR,,,,,,,,MVFR,,,,,,,,,,,,SPECI,28.0
OMRK 221500Z 33005KT CAVOK 24/14 Q1010 A2984,OMRK,2018-03-22T15:00:00Z,25.62,55.92,24.0,14.0,330,5,,6.21,29.822834,,,,,,,,,,,CAVOK,,,,,,,,VFR,,,,,,,,,,,,METAR,31.0
OMSJ 221500Z 29007KT CAVOK 24/18 Q1010,OMSJ,2018-03-22T15:00:00Z,25.32,55.52,24.0,18.0,290,7,,6.21,29.822834,,,,,,,,,,,CAVOK,,,,,,,,VFR,,,,,,,,,,,,METAR,33.0
TAPA 221500Z 13009KT 9999 BKN018 27/22 Q1018 NOSIG,TAPA,2018-03-22T15:00:00Z,17.12,-61.78,27.0,22.0,130,9,,6.21,30.059055,,,,,,TRUE,,,,,BKN,1800,,,,,,,MVFR,,,,,,,,,,,,METAR,14.0
MPMG 221500Z 36018KT 9000 FEW018 30/21 Q1014 NOSIG,MPMG,2018-03-22T15:00:00Z,8.98,-79.57,30.0,21.0,360,18,,5.59,29.940945,,,,,,TRUE,,,,,FEW,1800,,,,,,,VFR,,,,,,,,,,,,METAR,13.0
MPDA 221500Z 03021G34KT 360V060 CAVOK 33/14 Q1010,MPDA,2018-03-22T15:00:00Z,8.4,-82.43,33.0,14.0,30,21,34,6.21,29.822834,,,,,,,,,,,CAVOK,,,,,,,,VFR,,,,,,,,,,,,METAR,27.0
MPBO 221500Z 27006KT 9999 FEW018 SCT090 ///// Q1018,MPBO,2018-03-22T15:00:00Z,9.35,-82.25,,,270,6,,6.21,30.059055,,,,,,,,,,,FEW,1800,SCT,9000,,,,,VFR,,,,,,,,,,,,METAR,3.0
MPPA 221500Z 35012KT 9000 FEW020 30/// Q1013,MPPA,2018-03-22T15:00:00Z,8.92,-79.6,,,350,12,,5.59,29.911417,,,,,,,,,,,FEW,2000,,,,,,,VFR,,,,,,,,,,,,METAR,13.0
MPSM 221500Z 35015KT 300V020 9000 FEW018 SCT150 29/20 Q1013,MPSM,2018-03-22T15:00:00Z,8.35,-80.13,29.0,20.0,350,15,,5.59,29.911417,,,,,,,,,,,FEW,1800,SCT,15000,,,,,VFR,,,,,,,,,,,,METAR,0.0
CWWU 221500Z 08012G20KT 15SM OVC013 M01/M04 A3012 RMK SC8 T0002 SLP202,CWWU,2018-03-22T15:00:00Z,47.52,-52.98,-1.0,-4.0,80,12,20,15.0,30.121063,1020.2,,,,,,,,,,OVC,1300,,,,,,,MVFR,,,,,,,,,,,,METAR,13.0
SYEC 221500Z 05012KT 020V080 9999 FEW019 SCT040 29/22 Q1015,SYEC,2018-03-22T15:00:00Z,6.8,-58.1,29.0,22.0,50,12,,6.21,29.970472,,,,,,,,,,,FEW,1900,SCT,4000,,,,,VFR,,,,,,,,,,,,METAR,10.0
CYLT 221500Z 34003KT 2 1/2SM -SN BR BKN020 OVC150 M31/M35 A3022 RMK SC6AC2 SLP240,CYLT,2018-03-22T15:00:00Z,82.52,-62.27,-31.0,-35.0,340,3,,2.5,30.221457,1024.0,,,,,,,,,-SN BR,BKN,2000,OVC,15000,,,,,IFR,,,,,,,,,,,,METAR,31.0
CYLJ 221500Z 05008KT 15SM OVC006 M06/M07 A3028 RMK SC8 SLP285,CYLJ,2018-03-22T15:00:00Z,54.12,-108.52,-6.0,-7.0,50,8,,15.0,30.280512,1028.5,,,,,,,,,,OVC,600,,,,,,,IFR,,,,,,,,,,,,METAR,480.0
CYIO 221500Z 15007KT 20SM SCT250 M32/M36 A3017 RMK CI3 -31.5/-36.0/0/35/MUCH LOOSE SLP231,CYIO,2018-03-22T15:00:00Z,72.67,-77.97,-32.0,-36.0,150,7,,20.0,30.171259,1023.1,,,,,,,,,,SCT,25000,,,,,,,VFR,,,,,,,,,,,,METAR,57.0
CYEK 221500Z 35018KT 7SM DRSN SKC M28/M32 A3086 RMK SLP454,CYEK,2018-03-22T15:00:00Z,61.1,-94.07,-28.0,-32.0,350,18,,7.0,30.859253,1045.4,,,,,,,,,DRSN,SKC,,,,,,,,VFR,,,,,,,,,,,,METAR,10.0
CYED 221500Z AUTO 10016KT 9SM OVC007 M02/M05 A3008 RMK SLP219,CYED,2018-03-22T15:00:00Z,53.67,-113.47,-2.0,-5.0,100,16,,9.0,30.079725,1021.9,,TRUE,,,,,,,,OVC,700,,,,,,,IFR,,,,,,,,,,,,METAR,688.0
CYCY 221500Z 28006KT 25SM IC FEW210 M28/M33 A3013 RMK CS1 SLP210,CYCY,2018-03-22T15:00:00Z,70.47,-68.52,-28.0,-33.0,280,6,,25.0,30.129921,1021.0,,,,,,,,,IC,FEW,21000,,,,,,,VFR,,,,,,,,,,,,METAR,26.0
CYBW 221500Z AUTO 21003KT 0SM R35/0600FT/N FZFG VV001 M07/M07 A2991 RMK ICG PAST HR SLP189,CYBW,2018-03-22T15:00:00Z,51.1,-114.37,-7.0,-7.0,210,3,,0.0,29.911417,1018.9,,TRUE,,,,,,,FZFG,OVX,0,,,,,,,LIFR,,,,,,,,,,,100,METAR,1200.0
CWVD 221500Z AUTO 04009KT M24/ A2980 RMK SLP180,CWVD,2018-03-22T15:00:00Z,67.52,-63.77,-24.0,,40,9,,,29.799213,1018.0,,TRUE,,,,,,,,,,,,,,,,,,,,,,,,,,,,METAR,573.0
CZUM 221500Z AUTO 00000KT 9SM OVC038 M08/M13 A3020 RMK SLP269,CZUM,2018-03-22T15:00:00Z,53.53,-64.08,-8.0,-13.0,0,0,,9.0,30.200787,1026.9,,TRUE,,,,,,,,OVC,3800,,,,,,,VFR,,,,,,,,,,,,METAR,440.0
CYPE 221500Z 04014G20KT 10SM -SN OVC010 M11/M14 A3017 RMK SC8 SLP255,CYPE,2018-03-22T15:00:00Z,56.22,-117.45,-11.0,-14.0,40,14,20,10.0,30.171259,1025.5,,,,,,,,,-SN,OVC,1000,,,,,,,MVFR,,,,,,,,,,,,METAR,571.0
SBMQ 221500Z 02009KT 9999 -RA BKN020 31/24 Q1012,SBMQ,2018-03-22T15:00:00Z,0.05,-51.07,31.0,24.0,20,9,,6.21,29.88189,,,,,,,,,,-RA,BKN,2000,,,,,,,MVFR,,,,,,,,,,,,METAR,15.0
SBMA 221500Z 33004KT 9999 SCT023 FEW024TCU 32/25 Q1012,SBMA,2018-03-22T15:00:00Z,-5.37,-49.13,32.0,25.0,330,4,,6.21,29.88189,,,,,,,,,,,SCT,2300,FEW,2400,,,,,VFR,,,,,,,,,,,,METAR,102.0
LDRI 221500Z VRB08KT 9999 FEW043 06/M10 Q1007,LDRI,2018-03-22T15:00:00Z,45.22,14.57,6.0,-10.0,0,8,,6.21,29.734253,,,,,,,,,,,FEW,4300,,,,,,,VFR,,,,,,,,,,,,METAR,85.0
SBLO 221500Z 09006KT 9999 SCT020 25/21 Q1015,SBLO,2018-03-22T15:00:00Z,-23.32,-51.12,25.0,21.0,90,6,,6.21,29.970472,,,,,,,,,,,SCT,2000,,,,,,,VFR,,,,,,,,,,,,METAR,570.0
BIIS 221500Z 00000KT 9999 -RA FEW007 BKN010 OVC025 03/01 Q0983,BIIS,2018-03-22T15:00:00Z,66.05,-23.13,3.0,1.0,0,0,,6.21,29.02559,,,,,,,,,,-RA,FEW,700,BKN,1000,OVC,2500,,,MVFR,,,,,,,,,,,,METAR,3.0
UBBQ 221500Z 28014KT 9999 SCT200 14/08 Q1011 R34/CLRD// NOSIG RMK MT OP,UBBQ,2018-03-22T15:00:00Z,40.82,47.72,14.0,8.0,280,14,,6.21,29.852362,,,,,,TRUE,,,,,SCT,20000,,,,,,,VFR,,,,,,,,,,,,METAR,338.0
SBNT 221500Z 09014KT 9999 SCT033 32/22 Q1012,SBNT,2018-03-22T15:00:00Z,-5.92,-35.25,32.0,22.0,90,14,,6.21,29.88189,,,,,,,,,,,SCT,3300,,,,,,,VFR,,,,,,,,,,,,METAR,49.0
VOBG 221500Z VRB02KT 8000 FEW015 28/13 Q1013,VOBG,2018-03-22T15:00:00Z,12.95,77.63,28.0,13.0,0,2,,4.97,29.911417,,,,,,,,,,,FEW,1500,,,,,,,MVFR,,,,,,,,,,,,METAR,897.0
LEMO 221500Z 24007KT 170V260 CAVOK 15/01 Q1024 NOSIG,LEMO,2018-03-22T15:00:00Z,37.17,-5.62,15.0,1.0,240,7,,6.21,30.236221,,,,,,TRUE,,,,,CAVOK,,,,,,,,VFR,,,,,,,,,,,,METAR,88.0
SBCJ 221500Z 06005KT 9999 SCT009 SCT015 26/22 Q1016,SBCJ,2018-03-22T15:00:00Z,-6.12,-50.0,26.0,22.0,60,5,,6.21,30.0,,,,,,,,,,,SCT,900,SCT,1500,,,,,VFR,,,,,,,,,,,,METAR,621.0
FSIA 221500Z VRB02KT 9999 SCT033 28/24 Q1010 NOSIG,FSIA,2018-03-22T15:00:00Z,-4.67,55.52,28.0,24.0,0,2,,6.21,29.822834,,,,,,TRUE,,,,,SCT,3300,,,,,,,VFR,,,,,,,,,,,,METAR,3.0
LBPL 221500Z 04014KT 7000 BR OVC009 M01/M01 Q1019,LBPL,2018-03-22T15:00:00Z,43.45,24.5,-1.0,-1.0,40,14,,4.35,30.088583,,,,,,,,,,BR,OVC,900,,,,,,,IFR,,,,,,,,,,,,METAR,101.0
LBIA 221500Z 05012KT 6000 BKN014 OVC027 M00/M00 Q1016,LBIA,2018-03-22T15:00:00Z,42.45,26.35,0.0,0.0,50,12,,3.73,30.0,,,,,,,,,,,BKN,1400,OVC,2700,,,,,MVFR,,,,,,,,,,,,METAR,155.0
LBPG 221500Z 12008KT 2500 BR OVC005 00/00 Q1014,LBPG,2018-03-22T15:00:00Z,42.28,24.72,0.0,0.0,120,8,,1.55,29.940945,,,,,,,,,,BR,OVC,500,,,,,,,IFR,,,,,,,,,,,,METAR,58.0
SBSN 221500Z 03007KT 9999 FEW020 30/24 Q1013,SBSN,2018-03-22T15:00:00Z,-2.42,-54.78,30.0,24.0,30,7,,6.21,29.911417,,,,,,,,,,,FEW,2000,,,,,,,VFR,,,,,,,,,,,,METAR,72.0
KHJO 221500Z AUTO 11003KT 2 1/2SM -RA BR FEW034 BKN055 OVC090 15/15 A2989 RMK AO2 P0001 T01500150,KHJO,2018-03-22T15:00:00Z,36.32,-119.62,15.0,15.0,110,3,,2.5,29.890747,,,TRUE,TRUE,,,,,,-RA BR,FEW,3400,BKN,5500,OVC,9000,,,IFR,,,,,,0.01,,,,,,METAR,74.0
KMOD 221500Z 14010KT 10SM SCT009 BKN037 OVC048 16/15 A2977 RMK AO2 T01610150,KMOD,2018-03-22T15:00:00Z,37.62,-120.95,16.1,15.0,140,10,,10.0,29.769686,,,,TRUE,,,,,,,SCT,900,BKN,3700,OVC,4800,,,VFR,,,,,,,,,,,,METAR,29.0
KSBA 221500Z 10008KT 5SM -RA BR FEW018 BKN055 OVC070 16/14 A2997 RMK AO2 P0001 T01560139 $,KSBA,2018-03-22T15:00:00Z,34.43,-119.85,15.6,13.9,100,8,,5.0,29.970472,,,,TRUE,TRUE,,,,,-RA BR,FEW,1800,BKN,5500,OVC,7000,,,MVFR,,,,,,0.01,,,,,,METAR,3.0
TBPB 221500Z 10018KT 9999 SCT022 29/23 Q1016 NOSIG,TBPB,2018-03-22T15:00:00Z,13.07,-59.48,29.0,23.0,100,18,,6.21,30.0,,,,,,TRUE,,,,,SCT,2200,,,,,,,VFR,,,,,,,,,,,,METAR,52.0
GMFM 221500Z 27007KT 9999 BKN016 12/04 Q1026 NOSIG,GMFM,2018-03-22T15:00:00Z,33.87,-5.52,12.0,4.0,270,7,,6.21,30.295275,,,,,,TRUE,,,,,BKN,1600,,,,,,,MVFR,,,,,,,,,,,,METAR,549.0
GMFK 221500Z 31008KT CAVOK 19/M27 Q1020 NOSIG,GMFK,2018-03-22T15:00:00Z,31.95,-4.4,19.0,-27.0,310,8,,6.21,30.11811,,,,,,TRUE,,,,,CAVOK,,,,,,,,VFR,,,,,,,,,,,,METAR,1045.0
GMFF 221500Z 28012KT 9999 BKN033 14/05 Q1026 NOSIG,GMFF,2018-03-22T15:00:00Z,33.92,-4.97,14.0,5.0,280,12,,6.21,30.295275,,,,,,TRUE,,,,,BKN,3300,,,,,,,VFR,,,,,,,,,,,,METAR,579.0
GMAT 221500Z 36016KT 9999 FEW016 17/07 Q1024 NOSIG,GMAT,2018-03-22T15:00:00Z,28.43,-11.15,17.0,7.0,360,16,,6.21,30.236221,,,,,,TRUE,,,,,FEW,1600,,,,,,,VFR,,,,,,,,,,,,METAR,200.0
GMAG 221500Z 36016KT CAVOK 22/M01 Q1020 NOSIG,GMAG,2018-03-22T15:00:00Z,29.03,-10.05,22.0,-1.0,360,16,,6.21,30.11811,,,,,,TRUE,,,,,CAVOK,,,,,,,,VFR,,,,,,,,,,,,METAR,333.0
HECA 221500Z 34008KT 4000 HZ NSC 33/05 Q1009 NOSIG,HECA,2018-03-22T15:00:00Z,30.12,31.38,33.0,5.0,340,8,,2.49,29.793306,,,,,,TRUE,,,,HZ,CLR,,,,,,,,IFR,,,,,,,,,,,,METAR,74.0
VECC 221500Z 17009KT 2800 HZ NSC 28/20 Q1005 NOSIG,VECC,2018-03-22T15:00:00Z,22.65,88.43,28.0,20.0,170,9,,1.74,29.675198,,,,,,TRUE,,,,HZ,CLR,,,,,,,,IFR,,,,,,,,,,,,METAR,6.0
EPWR 221500Z 23010KT 9999 -SN FEW025 SCT030 BKN036 03/M04 Q1013,EPWR,2018-03-22T15:00:00Z,51.1,16.87,3.0,-4.0,230,10,,6.21,29.911417,,,,,,,,,,-SN,FEW,2500,SCT,3000,BKN,3600,,,VFR,,,,,,,,,,,,METAR,121.0
EPSY 221500Z 24009KT 220V310 9999 BKN024 OVC044 03/M02 Q1010,EPSY,2018-03-22T15:00:00Z,53.47,20.93,3.0,-2.0,240,9,,6.21,29.822834,,,,,,,,,,,BKN,2400,OVC,4400,,,,,MVFR,,,,,,,,,,,,METAR,141.0
EPSC 221500Z 20005KT 150V230 5000 -RA BR BKN005 OVC006 02/01 Q1007,EPSC,2018-03-22T15:00:00Z,53.58,14.9,2.0,1.0,200,5,,3.11,29.734253,,,,,,,,,,-RA BR,BKN,500,OVC,600,,,,,IFR,,,,,,,,,,,,METAR,47.0
EPRA 221500Z 23009KT CAVOK 04/M08 Q1012,EPRA,2018-03-22T15:00:00Z,51.38,21.22,4.0,-8.0,230,9,,6.21,29.88189,,,,,,,,,,,CAVOK,,,,,,,,VFR,,,,,,,,,,,,METAR,178.0
EPMO 221500Z 23013KT 190V260 CAVOK 05/M06 Q1011,EPMO,2018-03-22T15:00:00Z,52.45,20.65,5.0,-6.0,230,13,,6.21,29.852362,,,,,,,,,,,CAVOK,,,,,,,,VFR,,,,,,,,,,,,METAR,104.0
EPLB 221500Z 22011KT CAVOK 02/M06 Q1013,EPLB,2018-03-22T15:00:00Z,51.23,22.72,2.0,-6.0,220,11,,6.21,29.911417,,,,,,,,,,,CAVOK,,,,,,,,VFR,,,,,,,,,,,,METAR,206.0
EPKT 221500Z 23012KT CAVOK 05/M10 Q1012,EPKT,2018-03-22T15:00:00Z,50.47,19.08,5.0,-10.0,230,12,,6.21,29.88189,,,,,,,,,,,CAVOK,,,,,,,,VFR,,,,,,,,,,,,METAR,284.0
EPBY 221500Z 19007KT 9999 FEW017 BKN023 OVC026 01/M01 Q1010,EPBY,2018-03-22T15:00:00Z,53.1,18.0,1.0,-1.0,190,7,,6.21,29.822834,,,,,,,,,,,FEW,1700,BKN,2300,OVC,2600,,,MVFR,,,,,,,,,,,,METAR,71.0
EPWA 221500Z 23007KT 200V260 CAVOK 05/M06 Q1012 NOSIG,EPWA,2018-03-22T15:00:00Z,52.17,20.97,5.0,-6.0,230,7,,6.21,29.88189,,,,,,TRUE,,,,,CAVOK,,,,,,,,VFR,,,,,,,,,,,,METAR,107.0
EPRZ 221500Z 21008KT CAVOK 04/M10 Q1014,EPRZ,2018-03-22T15:00:00Z,50.1,22.05,4.0,-10.0,210,8,,6.21,29.940945,,,,,,,,,,,CAVOK,,,,,,,,VFR,,,,,,,,,,,,METAR,202.0
EPPO 221500Z 21009KT 9999 OVC016 02/M01 Q1010 R10/09//95,EPPO,2018-03-22T15:00:00Z,52.42,16.82,2.0,-1.0,210,9,,6.21,29.822834,,,,,,,,,,,OVC,1600,,,,,,,MVFR,,,,,,,,,,,,METAR,92.0
EPLL 221500Z 22010KT 180V240 9999 FEW035 BKN044 04/M06 Q1012,EPLL,2018-03-22T15:00:00Z,51.72,19.4,4.0,-6.0,220,10,,6.21,29.88189,,,,,,,,,,,FEW,3500,BKN,4400,,,,,VFR,,,,,,,,,,,,METAR,184.0
EPKK 221500Z 24010KT CAVOK 06/M11 Q1013,EPKK,2018-03-22T15:00:00Z,50.07,19.8,6.0,-11.0,240,10,,6.21,29.911417,,,,,,,,,,,CAVOK,,,,,,,,VFR,,,,,,,,,,,,METAR,237.0
EPGD 221500Z 23008KT 180V260 9999 OVC012 01/M02 Q1008,EPGD,2018-03-22T15:00:00Z,54.37,18.47,1.0,-2.0,230,8,,6.21,29.763779,,,,,,,,,,,OVC,1200,,,,,,,MVFR,,,,,,,,,,,,METAR,138.0
NTAA 221500Z AUTO 17002KT 9999 NCD 25/21 Q1012,NTAA,2018-03-22T15:00:00Z,-17.55,-149.62,25.0,21.0,170,2,,6.21,29.88189,,,TRUE,,,,,,,,CLR,,,,,,,,VFR,,,,,,,,,,,,METAR,2.0
UTAT 221500Z 00000KT CAVOK 12/03 Q1016 R26/CLRD70 NOSIG,UTAT,2018-03-22T15:00:00Z,41.77,59.83,12.0,3.0,0,0,,6.21,30.0,,,,,,TRUE,,,,,CAVOK,,,,,,,,VFR,,,,,,,,,,,,METAR,83.0
UTAK 221500Z 18014KT CAVOK 11/09 Q1013 R16R/CLRD70 NOSIG,UTAK,2018-03-22T15:00:00Z,40.05,53.0,11.0,9.0,180,14,,6.21,29.911417,,,,,,TRUE,,,,,CAVOK,,,,,,,,VFR,,,,,,,,,,,,METAR,85.0
UTAA 221500Z 10006KT 9999 SCT050 SCT100 19/08 Q1015 R88/CLRD70 NOSIG,UTAA,2018-03-22T15:00:00Z,37.98,58.37,19.0,8.0,100,6,,6.21,29.970472,,,,,,TRUE,,,,,SCT,5000,SCT,10000,,,,,VFR,,,,,,,,,,,,METAR,210.0
VOMM 221500Z 12008KT 6000 FEW020 FEW025TCU 30/24 Q1007 NOSIG,VOMM,2018-03-22T15:00:00Z,13.0,80.17,30.0,24.0,120,8,,3.73,29.734253,,,,,,TRUE,,,,,FEW,2000,FEW,2500,,,,,MVFR,,,,,,,,,,,,METAR,16.0
VANP 221500Z 28005KT 3000 NSC 30/05 Q1008 NOSIG,VANP,2018-03-22T15:00:00Z,21.08,79.05,30.0,5.0,280,5,,1.86,29.763779,,,,,,TRUE,,,,,CLR,,,,,,,,IFR,,,,,,,,,,,,METAR,310.0
GMFO 221500Z 31014KT 9999 SCT030 SCT040 11/03 Q1022 NOSIG,GMFO,2018-03-22T15:00:00Z,34.77,-1.92,11.0,3.0,310,14,,6.21,30.177166,,,,,,TRUE,,,,,SCT,3000,SCT,4000,,,,,VFR,,,,,,,,,,,,METAR,470.0
CWZA 221500Z AUTO 02005KT 09/03 RMK AO1 SLP958 T00890034 56025,CWZA,2018-03-22T15:00:00Z,49.25,-121.77,8.9,3.4,20,5,,,,995.8,,TRUE,TRUE,,,,,,,,,,,,,,,,-2.5,,,,,,,,,,,METAR,15.0
CWYY 221500Z AUTO 06001KT 06/05 RMK AO1 SOG 00 7009 SLP024 T00620054 50002,CWYY,2018-03-22T15:00:00Z,49.03,-119.43,6.2,5.4,60,1,,,,1002.4,,TRUE,TRUE,,,,,,,,,,,,,,,,0.2,,,,,,,,,,,METAR,283.0
CWYL 221500Z AUTO 08008KT M04/M06 RMK AO1 2PAST HR SOG 128 6009 PK WND 09019/1408 SLP112 P0001 T10401056 50002,CWYL,2018-03-22T15:00:00Z,51.45,-116.32,-4.0,-5.6,80,8,,,,1011.2,,TRUE,TRUE,,,,,,,,,,,,,,,,0.2,,,,,0.01,,,,,,METAR,1615.0
CWYJ 221500Z AUTO 11001KT 06/06 RMK AO1 3PAST HR 5006 SLP969 P0001 T00640057 50009,CWYJ,2018-03-22T15:00:00Z,48.45,-123.3,6.4,5.7,110,1,,,,996.9,,TRUE,TRUE,,,,,,,,,,,,,,,,0.9,,,,,0.01,,,,,,METAR,39.0
CWXL 221500Z AUTO 13002KT M03/M05 RMK AO1 T10271053,CWXL,2018-03-22T15:00:00Z,49.73,-111.45,-2.7,-5.3,130,2,,,,,,TRUE,TRUE,,,,,,,,,,,,,,,,,,,,,,,,,,,METAR,817.0
CWPZ 221500Z AUTO 13008G24KT M01/M03 RMK AO1 1PAST HR SOG 59 5011 PK WND 10024/1450 SLP001 P0000 T10101028 50003,CWPZ,2018-03-22T15:00:00Z,54.38,-125.97,-1.0,-2.8,130,8,24,,,1000.1,,TRUE,TRUE,,,,,,,,,,,,,,,,0.3,,,,,0.005,,,,,,METAR,713.0
CWPR 221500Z AUTO 08001KT 01/M01 RMK AO1 SOG 29 6015 SLP995 T00051012,CWPR,2018-03-22T15:00:00Z,49.47,-120.52,0.5,-1.2,80,1,,,,999.5,,TRUE,TRUE,,,,,,,,,,,,,,,,,,,,,,,,,,,METAR,700.0
CWPE 221500Z AUTO 36010G25KT M01/M02 RMK AO1 26 SOG 03 6036 SLP025 T10061019,CWPE,2018-03-22T15:00:00Z,45.07,-66.47,-0.6,-1.9,360,10,25,,,1002.5,,TRUE,TRUE,,,,,,,,,,,,,,,,,,,,,,,,,,,METAR,1.0
CWPD 221500Z AUTO 06006KT M03/M07 RMK AO1 SLP144 T10341074 50000,CWPD,2018-03-22T15:00:00Z,47.57,-71.22,-3.4,-7.4,60,6,,,,1014.4,,TRUE,TRUE,,,,,,,,,,,,,,,,0.0,,,,,,,,,,,METAR,803.0
CWOE 221500Z AUTO 07015KT M03/M05 RMK AO1 SOG 35 5001 PK WND 07020/1401 SLP183 T10301047,CWOE,2018-03-22T15:00:00Z,49.12,-110.47,-3.0,-4.7,70,15,,,,1018.3,,TRUE,TRUE,,,,,,,,,,,,,,,,,,,,,,,,,,,METAR,935.0
CWOD 221500Z AUTO 06002KT M01/M09 RMK AO1 SOG 26 1005 SLP181 T10061087,CWOD,2018-03-22T15:00:00Z,48.85,-72.55,-0.6,-8.7,60,2,,,,1018.1,,TRUE,TRUE,,,,,,,,,,,,,,,,,,,,,,,,,,,METAR,137.0
CWOC 221500Z AUTO 04010G19KT 02/M04 RMK AO1 PK WND 01022/1431 SLP148 T00181035 58017,CWOC,2018-03-22T15:00:00Z,48.02,-65.32,1.8,-3.5,40,10,19,,,1014.8,,TRUE,TRUE,,,,,,,,,,,,,,,,-1.7,,,,,,,,,,,METAR,47.0
CWNQ 221500Z AUTO 03006KT M00/M06 RMK AO1 SLP148 T10021055 50002,CWNQ,2018-03-22T15:00:00Z,46.22,-72.65,-0.2,-5.5,30,6,,,,1014.8,,TRUE,TRUE,,,,,,,,,,,,,,,,0.2,,,,,,,,,,,METAR,10.0
CWNP 221500Z AUTO 05001KT 02/M00 RMK AO1 SOG 42 0001 SLP064 T00241001,CWNP,2018-03-22T15:00:00Z,50.27,-117.82,2.4,-0.1,50,1,,,,1006.4,,TRUE,TRUE,,,,,,,,,,,,,,,,,,,,,,,,,,,METAR,524.0
CWNM 221500Z AUTO 08003KT 04/03 RMK AO1 4PAST HR SOG 00 1012 SLP074 P0002 T00440030 50026,CWNM,2018-03-22T15:00:00Z,49.5,-117.28,4.4,3.0,80,3,,,,1007.4,,TRUE,TRUE,,,,,,,,,,,,,,,,2.6,,,,,0.02,,,,,,METAR,535.0
CWNK 221500Z AUTO 36004KT M04/M04 RMK AO1 T10421044,CWNK,2018-03-22T15:00:00Z,49.5,-98.03,-4.2,-4.4,360,4,,,,,,TRUE,TRUE,,,,,,,,,,,,,,,,,,,,,,,,,,,METAR,268.0
CWST 221500Z AUTO 03017G24KT M01/M04 RMK AO1 SOG 30 8009 PK WND 03025/1432 SLP152 T10141041,CWST,2018-03-22T15:00:00Z,47.35,-70.02,-1.4,-4.1,30,17,24,,,1015.2,,TRUE,TRUE,,,,,,,,,,,,,,,,,,,,,,,,,,,METAR,31.0
CWSR 221500Z AUTO 12001KT M07/M08 RMK AO1 SOG 20 1008 SLP270 T10651077,CWSR,2018-03-22T15:00:00Z,53.37,-107.53,-6.5,-7.7,120,1,,,,1027.0,,TRUE,TRUE,,,,,,,,,,,,,,,,,,,,,,,,,,,METAR,584.0
CWSP 221500Z AUTO 29013G18KT 06/04 RMK AO1 2PAST HR 5005 PK WND 29018/1459 SLP971 P0001 T00640042 50002,CWSP,2018-03-22T15:00:00Z,48.38,-123.92,6.4,4.2,290,13,18,,,997.1,,TRUE,TRUE,,,,,,,,,,,,,,,,0.2,,,,,0.01,,,,,,METAR,21.0
CWSL 221500Z AUTO 07002KT 02/02 RMK AO1 3PAST HR SOG 16 7012 SLP032 P0001 T00170015 50009,CWSL,2018-03-22T15:00:00Z,50.7,-119.27,1.7,1.5,70,2,,,,1003.2,,TRUE,TRUE,,,,,,,,,,,,,,,,0.9,,,,,0.01,,,,,,METAR,351.0
CWSK 221500Z AUTO 36002KT 05/05 RMK AO1 0PAST HR 6023 SLP959 P0004 T00520050 50026,CWSK,2018-03-22T15:00:00Z,49.78,-123.17,5.2,5.0,360,2,,,,995.9,,TRUE,TRUE,,,,,,,,,,,,,,,,2.6,,,,,0.04,,,,,,METAR,60.0
CWSG 221500Z AUTO 05018G24KT M01/M03 RMK AO1 PK WND 06027/1427 SLP186 T10051026 50002,CWSG,2018-03-22T15:00:00Z,49.12,-66.65,-0.5,-2.6,50,18,24,,,1018.6,,TRUE,TRUE,,,,,,,,,,,,,,,,0.2,,,,,,,,,,,METAR,5.0
CWSD 221500Z AUTO 05028G35KT M01/M02 RMK AO1 SOG 25 8043 PK WND 06035/1448 SLP060 T10081015,CWSD,2018-03-22T15:00:00Z,46.42,-63.85,-0.8,-1.5,50,28,35,,,1006.0,,TRUE,TRUE,,,,,,,,,,,,,,,,,,,,,,,,,,,METAR,24.0
CWRZ 221500Z AUTO 05027G34KT M01/M03 RMK AO1 PK WND 04034/1454 SLP157 T10091029 58017,CWRZ,2018-03-22T15:00:00Z,48.42,-64.32,-0.9,-2.9,50,27,34,,,1015.7,,TRUE,TRUE,,,,,,,,,,,,,,,,-1.7,,,,,,,,,,,METAR,16.0
CWRY 221500Z AUTO 10003KT 01/M04 RMK AO1 SOG 25 5000 SLP154 T00061043,CWRY,2018-03-22T15:00:00Z,49.12,-112.03,0.6,-4.3,100,3,,,,1015.4,,TRUE,TRUE,,,,,,,,,,,,,,,,,,,,,,,,,,,METAR,1050.0
CWRK 221500Z AUTO 02005KT M02/M11 RMK AO1 SOG 09 1005 SLP185 T10161112,CWRK,2018-03-22T15:00:00Z,45.07,-77.87,-1.6,-11.2,20,5,,,,1018.5,,TRUE,TRUE,,,,,,,,,,,,,,,,,,,,,,,,,,,METAR,331.0
CWRJ 221500Z AUTO 07007KT M06/M07 RMK AO1 SOG 16 1007 SLP249 T10601067,CWRJ,2018-03-22T15:00:00Z,51.57,-107.92,-6.0,-6.7,70,7,,,,1024.9,,TRUE,TRUE,,,,,,,,,,,,,,,,,,,,,,,,,,,METAR,586.0
CWQR 221500Z AUTO 09010KT M00/ RMK AO1 T1002,CWQR,2018-03-22T15:00:00Z,50.22,-64.22,-0.2,,90,10,,,,,,TRUE,TRUE,,,,,,,,,,,,,,,,,,,,,,,,,,,METAR,9.0
CWQP 221500Z AUTO 27006KT 02/M09 RMK AO1 SOG 03 1014 SLP178 T00161088,CWQP,2018-03-22T15:00:00Z,43.83,-77.15,1.6,-8.8,270,6,,,,1017.8,,TRUE,TRUE,,,,,,,,,,,,,,,,,,,,,,,,,,,METAR,79.0
CWQO 221500Z AUTO 04022G28KT M01/M04 RMK AO1 PK WND 06028/1457 T10091035,CWQO,2018-03-22T15:00:00Z,48.42,-68.9,-0.9,-3.5,40,22,28,,,,,TRUE,TRUE,,,,,,,,,,,,,,,,,,,,,,,,,,,METAR,1.0
CWQK 221500Z AUTO 26016KT 07/04 RMK AO1 PK WND 26018/1456 SLP968 T00710042 56006,CWQK,2018-03-22T15:00:00Z,48.3,-123.53,7.1,4.2,260,16,,,,996.8,,TRUE,TRUE,,,,,,,,,,,,,,,,-0.6,,,,,,,,,,,METAR,5.0
CWQH 221500Z AUTO 02005KT 01/M07 RMK AO1 SOG 21 T00061067,CWQH,2018-03-22T15:00:00Z,45.37,-71.82,0.6,-6.7,20,5,,,,,,TRUE,TRUE,,,,,,,,,,,,,,,,,,,,,,,,,,,METAR,181.0
CWBU 221500Z AUTO 05001KT M07/M08 RMK AO1 SOG 23 1015 SLP304 T10701080,CWBU,2018-03-22T15:00:00Z,53.33,-104.02,-7.0,-8.0,50,1,,,,1030.4,,TRUE,TRUE,,,,,,,,,,,,,,,,,,,,,,,,,,,METAR,373.0
CWMQ 221500Z AUTO 05008KT 01/M02 RMK AO1 SLP184 T00081019 58009,CWMQ,2018-03-22T15:00:00Z,49.9,-109.47,0.8,-1.9,50,8,,,,1018.4,,TRUE,TRUE,,,,,,,,,,,,,,,,-0.9,,,,,,,,,,,METAR,767.0
CWMM 221500Z AUTO 25001KT 08/06 RMK AO1 1PAST HR SOG 00 6015 SLP967 P0000 T00760055 50001,CWMM,2018-03-22T15:00:00Z,49.22,-122.68,7.6,5.5,250,1,,,,996.7,,TRUE,TRUE,,,,,,,,,,,,,,,,0.1,,,,,0.005,,,,,,METAR,5.0
CWMJ 221500Z AUTO 32005KT M02/M11 RMK AO1 SOG 35 0005 SLP180 T10211107,CWMJ,2018-03-22T15:00:00Z,46.27,-76.0,-2.1,-10.7,320,5,,,,1018.0,,TRUE,TRUE,,,,,,,,,,,,,,,,,,,,,,,,,,,METAR,200.0
CWLM 221500Z AUTO 20004KT 06/05 RMK AO1 2PAST HR 5004 SLP970 P0001 T00550053 50008,CWLM,2018-03-22T15:00:00Z,48.42,-123.32,5.5,5.3,200,4,,,,997.0,,TRUE,TRUE,,,,,,,,,,,,,,,,0.8,,,,,0.01,,,,,,METAR,70.0
CWLE 221500Z AUTO 10008KT M07/M08 RMK AO1 SLP248 T10741081 53010,CWLE,2018-03-22T15:00:00Z,50.95,-107.15,-7.4,-8.1,100,8,,,,1024.8,,TRUE,TRUE,,,,,,,,,,,,,,,,1.0,,,,,,,,,,,METAR,665.0
CWLC 221500Z AUTO 03008KT 04/03 RMK AO1 T00430032,CWLC,2018-03-22T15:00:00Z,54.3,-130.62,4.3,3.2,30,8,,,,,,TRUE,TRUE,,,,,,,,,,,,,,,,,,,,,,,,,,,METAR,27.0
CWKX 221500Z AUTO 35011G20KT M09/M16 RMK AO1 SOG 32 6003 PK WND 33022/1444 SLP150 T10861156,CWKX,2018-03-22T15:00:00Z,58.43,-130.02,-8.6,-15.6,350,11,20,,,1015.0,,TRUE,TRUE,,,,,,,,,,,,,,,,,,,,,,,,,,,METAR,793.0
CWKH 221500Z AUTO 04/03 RMK AO1 2PAST HR 6007 SLP952 P0001 T00400027 50008,CWKH,2018-03-22T15:00:00Z,48.57,-123.55,4.0,2.7,,,,,,995.2,,TRUE,TRUE,,,,,,,,,,,,,,,,0.8,,,,,0.01,,,,,,METAR,366.0
CWKG 221500Z AUTO 05007KT M01/M02 RMK AO1 3PAST HR SOG 17 5022 PK WND 06017/1410 SLP991 P0009 T10101020 50025,CWKG,2018-03-22T15:00:00Z,44.43,-65.2,-1.0,-2.0,50,7,,,,999.1,,TRUE,TRUE,,,,,,,,,,,,,,,,2.5,,,,,0.09,,,,,,METAR,165.0
CWJX 221500Z AUTO 09009KT M06/M08 RMK AO1 SOG 11 0001 SLP213 T10621078,CWJX,2018-03-22T15:00:00Z,50.88,-109.5,-6.2,-7.8,90,9,,,,1021.3,,TRUE,TRUE,,,,,,,,,,,,,,,,,,,,,,,,,,,METAR,672.0
CWJW 221500Z AUTO 01008G15KT 00/M04 RMK AO1 SLP101 T00001036 56013,CWJW,2018-03-22T15:00:00Z,52.93,-118.03,0.0,-3.6,10,8,15,,,1010.1,,TRUE,TRUE,,,,,,,,,,,,,,,,-1.3,,,,,,,,,,,METAR,1020.0
CWJV 221500Z AUTO 03001KT 03/02 RMK AO1 8009 SLP021 T00310023 50002,CWJV,2018-03-22T15:00:00Z,50.22,-119.18,3.1,2.3,30,1,,,,1002.1,,TRUE,TRUE,,,,,,,,,,,,,,,,0.2,,,,,,,,,,,METAR,556.0
CWJT 221500Z AUTO 26003KT M00/M09 RMK AO1 SLP162 T10031088 58001,CWJT,2018-03-22T15:00:00Z,46.07,-74.57,-0.3,-8.8,260,3,,,,1016.2,,TRUE,TRUE,,,,,,,,,,,,,,,,-0.1,,,,,,,,,,,METAR,239.0
CWJR 221500Z AUTO 36003KT 05/04 RMK AO1 7PAST HR 0004 SLP085 P0003 T00520044 50025,CWJR,2018-03-22T15:00:00Z,49.07,-116.5,5.2,4.4,360,3,,,,1008.5,,TRUE,TRUE,,,,,,,,,,,,,,,,2.5,,,,,0.03,,,,,,METAR,646.0
CWJI 221500Z AUTO 10014KT M05/M06 RMK AO1 PK WND 10018/1455 SLP233 T10451055 51007,CWJI,2018-03-22T15:00:00Z,49.72,-105.92,-4.5,-5.5,100,14,,,,1023.3,,TRUE,TRUE,,,,,,,,,,,,,,,,0.7,,,,,,,,,,,METAR,724.0
CXVW 221500Z AUTO 05012KT M05/M07 RMK AO1 PK WND 04017/1444 T10521069,CXVW,2018-03-22T15:00:00Z,55.1,-117.2,-5.2,-6.9,50,12,,,,,,TRUE,TRUE,,,,,,,,,,,,,,,,,,,,,,,,,,,METAR,698.0
CXSL 221500Z AUTO 09011KT M04/M05 RMK AO1 PK WND 10018/1447 T10391051,CXSL,2018-03-22T15:00:00Z,54.28,-112.5,-3.9,-5.1,90,11,,,,,,TRUE,TRUE,,,,,,,,,,,,,,,,,,,,,,,,,,,METAR,680.0
CXHD 221500Z AUTO 09019KT M03/M04 RMK AO1 PK WND 10024/1400 T10271037,CXHD,2018-03-22T15:00:00Z,53.18,-112.25,-2.7,-3.7,90,19,,,,,,TRUE,TRUE,,,,,,,,,,,,,,,,,,,,,,,,,,,METAR,688.0
CPXL 221500Z AUTO 24001KT M02/M03 RMK AO1 T10161033,CPXL,2018-03-22T15:00:00Z,49.87,-111.38,-1.6,-3.3,240,1,,,,,,TRUE,TRUE,,,,,,,,,,,,,,,,,,,,,,,,,,,METAR,799.0
CPSV 221500Z AUTO 04006KT M01/M02 RMK AO1 T10051021,CPSV,2018-03-22T15:00:00Z,49.92,-110.92,-0.5,-2.1,40,6,,,,,,TRUE,TRUE,,,,,,,,,,,,,,,,,,,,,,,,,,,METAR,766.0
CPST 221500Z AUTO 01003KT M10/M11 RMK AO1 T11001108,CPST,2018-03-22T15:00:00Z,51.03,-113.28,-10.0,-10.8,10,3,,,,,,TRUE,TRUE,,,,,,,,,,,,,,,,,,,,,,,,,,,METAR,967.0
CPRO 221500Z AUTO 03005KT M08/M08 RMK AO1 T10761084,CPRO,2018-03-22T15:00:00Z,50.83,-112.05,-7.6,-8.4,30,5,,,,,,TRUE,TRUE,,,,,,,,,,,,,,,,,,,,,,,,,,,METAR,714.0
CPFI 221500Z AUTO 04005KT M03/M04 RMK AO1 T10251044,CPFI,2018-03-22T15:00:00Z,49.8,-112.03,-2.5,-4.4,40,5,,,,,,TRUE,TRUE,,,,,,,,,,,,,,,,,,,,,,,,,,,METAR,833.0
CZSP 221500Z AUTO 04016G27KT M01/M03 RMK AO1 SOG 01 8047 PK WND 06027/1457 SLP061 T10051027,CZSP,2018-03-22T15:00:00Z,46.45,-62.58,-0.5,-2.7,40,16,27,,,1006.1,,TRUE,TRUE,,,,,,,,,,,,,,,,,,,,,,,,,,,METAR,30.0
CZDB 221500Z AUTO 05018G27KT M00/M02 RMK AO1 8PAST HR 6051 PK WND 04029/1404 SLP010 P0003 T10011017 50008,CZDB,2018-03-22T15:00:00Z,45.42,-63.47,-0.1,-1.7,50,18,27,,,1001.0,,TRUE,TRUE,,,,,,,,,,,,,,,,0.8,,,,,0.03,,,,,,METAR,38.0
CZCR 221500Z AUTO 06013KT 00/M04 RMK AO1 SOG 101 8014 PK WND 07019/1419 SLP156 T00001043,CZCR,2018-03-22T15:00:00Z,47.97,-66.32,0.0,-4.3,60,13,,,,1015.6,,TRUE,TRUE,,,,,,,,,,,,,,,,,,,,,,,,,,,METAR,38.0
CWXI 221500Z AUTO 05014KT M02/M04 RMK AO1 SOG 27 8006 PK WND 05017/1455 SLP219 T10201044,CWXI,2018-03-22T15:00:00Z,51.02,-57.1,-2.0,-4.4,50,14,,,,1021.9,,TRUE,TRUE,,,,,,,,,,,,,,,,,,,,,,,,,,,METAR,6.0
CWBK 221500Z AUTO 06021G27KT M01/M01 RMK AO1 9PAST HR SOG 02 6045 PK WND 05029/1427 SLP031 P0004 T10071013 50009,CWBK,2018-03-22T15:00:00Z,45.77,-62.67,-0.7,-1.3,60,21,27,,,1003.1,,TRUE,TRUE,,,,,,,,,,,,,,,,0.9,,,,,0.04,,,,,,METAR,2.0
CERM 221500Z AUTO 07008G15KT 02/M07 RMK AO1 SOG 79 6012 PK WND 04017/1417 SLP142 T00241068,CERM,2018-03-22T15:00:00Z,47.42,-68.32,2.4,-6.8,70,8,15,,,1014.2,,TRUE,TRUE,,,,,,,,,,,,,,,,,,,,,,,,,,,METAR,154.0
FAOB 221500Z AUTO 15019G29KT //// // ////// 22/11 Q1020,FAOB,2018-03-22T15:00:00Z,-34.6,20.27,22.0,11.0,150,19,29,,30.11811,,,TRUE,,,,,,,,,,,,,,,,,,,,,,,,,,,,METAR,75.0
FALW 221500Z AUTO 21013KT //// // ////// 30/06 Q1013,FALW,2018-03-22T15:00:00Z,-32.97,18.17,30.0,6.0,210,13,,,29.911417,,,TRUE,,,,,,,,,,,,,,,,,,,,,,,,,,,,METAR,0.0
FABL 221500Z 13006KT 3000 -RA OVC008 14/14 Q1022 RERA BECMG BKN005,FABL,2018-03-22T15:00:00Z,-29.1,26.3,14.0,14.0,130,6,,1.86,30.177166,,,,,,,,,,-RA,OVC,800,,,,,,,IFR,,,,,,,,,,,,METAR,1348.0
CWGM 221500Z AUTO 04006KT M03/M04 RMK AO1 T10281041,CWGM,2018-03-22T15:00:00Z,49.13,-113.78,-2.8,-4.1,40,6,,,,,,TRUE,TRUE,,,,,,,,,,,,,,,,,,,,,,,,,,,METAR,1296.0
CWGL 221500Z AUTO 33010KT M03/M11 RMK AO1 SLP198 T10321109 51010,CWGL,2018-03-22T15:00:00Z,44.52,-79.22,-3.2,-10.9,330,10,,,,1019.8,,TRUE,TRUE,,,,,,,,,,,,,,,,1.0,,,,,,,,,,,METAR,221.0
CWGB 221500Z AUTO 13009KT 07/06 RMK AO1 6013 SLP951 T00730060 50002,CWGB,2018-03-22T15:00:00Z,49.35,-124.17,7.3,6.0,130,9,,,,995.1,,TRUE,TRUE,,,,,,,,,,,,,,,,0.2,,,,,,,,,,,METAR,5.0
CWFQ 221500Z AUTO 34008KT M02/M08 RMK AO1 SOG 33 1005 SLP125 T10211081,CWFQ,2018-03-22T15:00:00Z,45.03,-72.82,-2.1,-8.1,340,8,,,,1012.5,,TRUE,TRUE,,,,,,,,,,,,,,,,,,,,,,,,,,,METAR,152.0
CWFJ 221500Z AUTO 35002KT M03/M03 RMK AO1 T10291031,CWFJ,2018-03-22T15:00:00Z,49.2,-113.27,-2.9,-3.1,350,2,,,,,,TRUE,TRUE,,,,,,,,,,,,,,,,,,,,,,,,,,,METAR,1136.0
CWEW 221500Z AUTO 01008KT 01/M08 RMK AO1 3PAST HR SOG 16 0004 SLP159 P0001 T00081079 50003,CWEW,2018-03-22T15:00:00Z,45.82,-73.43,0.8,-7.9,10,8,,,,1015.9,,TRUE,TRUE,,,,,,,,,,,,,,,,0.3,,,,,0.01,,,,,,METAR,21.0
CWEB 221500Z AUTO 07004KT 03/02 RMK AO1 9PAST HR 4000 SLP968 P0004 T00260018 50043,CWEB,2018-03-22T15:00:00Z,49.38,-126.55,2.6,1.8,70,4,,,,996.8,,TRUE,TRUE,,,,,,,,,,,,,,,,4.3,,,,,0.04,,,,,,METAR,7.0
VOVZ 221500Z 25009KT 5000 BR NSC 28/24 Q1006 NOSIG,VOVZ,2018-03-22T15:00:00Z,17.75,83.22,28.0,24.0,250,9,,3.11,29.704725,,,,,,TRUE,,,,BR,CLR,,,,,,,,MVFR,,,,,,,,,,,,METAR,5.0
VEGT 221500Z 00000KT 3000 HZ FEW018 SCT100 25/20 Q1006 NOSIG,VEGT,2018-03-22T15:00:00Z,26.1,91.58,25.0,20.0,0,0,,1.86,29.704725,,,,,,TRUE,,,,HZ,FEW,1800,SCT,10000,,,,,IFR,,,,,,,,,,,,METAR,54.0
VAUD 221500Z 03002KT 6 KM NSC 25/07 Q1011 NOSIG,VAUD,2018-03-22T15:00:00Z,24.6,73.9,25.0,7.0,30,2,,,29.852362,,,,,,TRUE,,,,,CLR,,,,,,,,,,,,,,,,,,,,METAR,514.0
LERT 221500Z 23008KT 200V270 CAVOK 14/02 Q1025 NOSIG,LERT,2018-03-22T15:00:00Z,36.63,-6.33,14.0,2.0,230,8,,6.21,30.265747,,,,,,TRUE,,,,,CAVOK,,,,,,,,VFR,,,,,,,,,,,,METAR,26.0
SBBG 221500Z 09009KT CAVOK 24/11 Q1014,SBBG,2018-03-22T15:00:00Z,-31.38,-54.12,24.0,11.0,90,9,,6.21,29.940945,,,,,,,,,,,CAVOK,,,,,,,,VFR,,,,,,,,,,,,METAR,180.0
DAOI 221500Z 09004KT 8000 SCT020 FEW023CB SCT100 07/04 Q1020,DAOI,2018-03-22T15:00:00Z,36.22,1.32,7.0,4.0,90,4,,4.97,30.11811,,,,,,,,,,,SCT,2000,FEW,2300,SCT,10000,,,MVFR,,,,,,,,,,,,METAR,143.0
DAAY 221500Z 32020KT 6000 SCT010 SCT026CB 05/04 Q1021 RETSRA,DAAY,2018-03-22T15:00:00Z,33.53,-0.25,5.0,4.0,320,20,,3.73,30.147638,,,,,,,,,,,SCT,1000,SCT,2600,,,,,MVFR,,,,,,,,,,,,METAR,1149.0
DAOL 221500Z 10010KT 9999 FEW020 SCT026 10/06 Q1022,DAOL,2018-03-22T15:00:00Z,35.53,-0.52,10.0,6.0,100,10,,6.21,30.177166,,,,,,,,,,,FEW,2000,SCT,2600,,,,,VFR,,,,,,,,,,,,METAR,112.0
DAUZ 221500Z 28016KT CAVOK 16/M07 Q1013,DAUZ,2018-03-22T15:00:00Z,28.05,9.62,16.0,-7.0,280,16,,6.21,29.911417,,,,,,,,,,,CAVOK,,,,,,,,VFR,,,,,,,,,,,,METAR,562.0
DAUU 221500Z 29016KT 4000 DRSA SCT040 17/M07 Q1013,DAUU,2018-03-22T15:00:00Z,31.92,5.4,17.0,-7.0,290,16,,2.49,29.911417,,,,,,,,,,DRSA,SCT,4000,,,,,,,IFR,,,,,,,,,,,,METAR,141.0
DAUG 221500Z 31017KT 290V350 8000 DRSA FEW030TCU SCT040 14/M08 Q1015,DAUG,2018-03-22T15:00:00Z,32.37,3.82,14.0,-8.0,310,17,,4.97,29.970472,,,,,,,,,,DRSA,FEW,3000,SCT,4000,,,,,MVFR,,,,,,,,,,,,METAR,450.0
DAUB 221500Z 34020KT 9999 SCT030 SCT100 15/M00 Q1012,DAUB,2018-03-22T15:00:00Z,34.78,5.72,15.0,0.0,340,20,,6.21,29.88189,,,,,,,,,,,SCT,3000,SCT,10000,,,,,VFR,,,,,,,,,,,,METAR,87.0
DAUA 221500Z 35017KT CAVOK 19/M09 Q1019,DAUA,2018-03-22T15:00:00Z,27.83,-0.18,19.0,-9.0,350,17,,6.21,30.088583,,,,,,,,,,,CAVOK,,,,,,,,VFR,,,,,,,,,,,,METAR,263.0
DAOR 221500Z 34013KT 9999 FEW030 17/M08 Q1019,DAOR,2018-03-22T15:00:00Z,31.65,-2.27,17.0,-8.0,340,13,,6.21,30.088583,,,,,,,,,,,FEW,3000,,,,,,,VFR,,,,,,,,,,,,METAR,773.0
DAOF 221500Z 27006KT CAVOK 24/M07 Q1020,DAOF,2018-03-22T15:00:00Z,27.7,-8.17,24.0,-7.0,270,6,,6.21,30.11811,,,,,,,,,,,CAVOK,,,,,,,,VFR,,,,,,,,,,,,METAR,431.0
DAOB 221500Z 31010KT 9999 BKN020 04/M01 Q1018,DAOB,2018-03-22T15:00:00Z,35.33,1.47,4.0,-1.0,310,10,,6.21,30.059055,,,,,,,,,,,BKN,2000,,,,,,,MVFR,,,,,,,,,,,,METAR,989.0
DABS 221500Z 32014G25KT 8000 FEW026CB BKN033 05/03 Q1010,DABS,2018-03-22T15:00:00Z,35.43,8.12,5.0,3.0,320,14,25,4.97,29.822834,,,,,,,,,,,FEW,2600,BKN,3300,,,,,MVFR,,,,,,,,,,,,METAR,813.0
DAAS 221500Z 32014KT 3000 BR SCT010 BKN026 03/M01 Q1013,DAAS,2018-03-22T15:00:00Z,36.18,5.33,3.0,-1.0,320,14,,1.86,29.911417,,,,,,,,,,BR,SCT,1000,BKN,2600,,,,,IFR,,,,,,,,,,,,METAR,1038.0
OJAQ 221500Z 33008KT CAVOK 35/07 Q1007 NOSIG,OJAQ,2018-03-22T15:00:00Z,29.62,35.02,35.0,7.0,330,8,,6.21,29.734253,,,,,,TRUE,,,,,CAVOK,,,,,,,,VFR,,,,,,,,,,,,METAR,51.0
OTHH 221500Z AUTO 34009KT CAVOK 27/09 Q1010 NOSIG,OTHH,2018-03-22T15:00:00Z,25.25,51.6,27.0,9.0,340,9,,6.21,29.822834,,,TRUE,,,TRUE,,,,,CAVOK,,,,,,,,VFR,,,,,,,,,,,,METAR,0.0
OTBD 221500Z 33009KT CAVOK 31/05 Q1010 NOSIG,OTBD,2018-03-22T15:00:00Z,25.25,51.57,31.0,5.0,330,9,,6.21,29.822834,,,,,,TRUE,,,,,CAVOK,,,,,,,,VFR,,,,,,,,,,,,METAR,10.0
VTUU 221500Z 02013KT 7000 NSC 24/17 Q1011 NOSIG,VTUU,2018-03-22T15:00:00Z,15.25,104.87,24.0,17.0,20,13,,4.35,29.852362,,,,,,TRUE,,,,,CLR,,,,,,,,MVFR,,,,,,,,,,,,METAR,127.0
VTUK 221500Z 08004KT 060V120 7000 NSC 23/21 Q1011 NOSIG,VTUK,2018-03-22T15:00:00Z,16.47,102.78,23.0,21.0,80,4,,4.35,29.852362,,,,,,TRUE,,,,,CLR,,,,,,,,MVFR,,,,,,,,,,,,METAR,204.0
VTUI 221500Z 12012KT 9000 FEW035 22/15 Q1013 A2992 NOSIG,VTUI,2018-03-22T15:00:00Z,17.2,104.12,22.0,15.0,120,12,,5.59,29.911417,,,,,,TRUE,,,,,FEW,3500,,,,,,,VFR,,,,,,,,,,,,METAR,172.0
VTUD 221500Z 08005KT 9000 NSC 25/17 Q1012 NOSIG,VTUD,2018-03-22T15:00:00Z,17.37,102.78,25.0,17.0,80,5,,5.59,29.88189,,,,,,TRUE,,,,,CLR,,,,,,,,VFR,,,,,,,,,,,,METAR,182.0
VLVT 221500Z 09004KT 3000 BR SCT050 25/16 Q1011 NOSIG,VLVT,2018-03-22T15:00:00Z,17.98,102.57,25.0,16.0,90,4,,1.86,29.852362,,,,,,TRUE,,,,BR,SCT,5000,,,,,,,IFR,,,,,,,,,,,,METAR,171.0
VDSR 221500Z 31004KT 290V070 9000 SCT015 28/23 Q1008,VDSR,2018-03-22T15:00:00Z,13.42,103.83,28.0,23.0,310,4,,5.59,29.763779,,,,,,,,,,,SCT,1500,,,,,,,VFR,,,,,,,,,,,,METAR,15.0
VTSS 221500Z 08003KT 9999 FEW020 27/24 Q1009 NOSIG,VTSS,2018-03-22T15:00:00Z,6.92,100.38,27.0,24.0,80,3,,6.21,29.793306,,,,,,TRUE,,,,,FEW,2000,,,,,,,VFR,,,,,,,,,,,,METAR,35.0
VTSP 221500Z 03003KT 300V110 8000 FEW020 SCT100 26/22 Q1009 NOSIG,VTSP,2018-03-22T15:00:00Z,8.12,98.32,26.0,22.0,30,3,,4.97,29.793306,,,,,,TRUE,,,,,FEW,2000,SCT,10000,,,,,MVFR,,,,,,,,,,,,METAR,10.0
VTSG 221500Z 04003KT 360V080 9999 FEW020 26/22 Q1009,VTSG,2018-03-22T15:00:00Z,8.1,98.98,26.0,22.0,40,3,,6.21,29.793306,,,,,,,,,,,FEW,2000,,,,,,,VFR,,,,,,,,,,,,METAR,25.0
VTCT 221500Z 03002KT 8000 NSC 24/21 Q1010,VTCT,2018-03-22T15:00:00Z,19.95,99.88,24.0,21.0,30,2,,4.97,29.822834,,,,,,,,,,,CLR,,,,,,,,MVFR,,,,,,,,,,,,METAR,390.0
VTCC 221500Z 18007KT 8000 NSC 29/17 Q1010 NOSIG,VTCC,2018-03-22T15:00:00Z,18.77,98.97,29.0,17.0,180,7,,4.97,29.822834,,,,,,TRUE,,,,,CLR,,,,,,,,MVFR,,,,,,,,,,,,METAR,314.0
VTBU 221500Z 36002KT 4000 BR FEW020 26/23 Q1009 NOSIG,VTBU,2018-03-22T15:00:00Z,12.68,101.0,26.0,23.0,360,2,,2.49,29.793306,,,,,,TRUE,,,,BR,FEW,2000,,,,,,,IFR,,,,,,,,,,,,METAR,5.0
VTBS 221500Z 19006KT 140V210 9999 FEW020 29/23 Q1009 NOSIG,VTBS,2018-03-22T15:00:00Z,13.68,100.75,29.0,23.0,190,6,,6.21,29.793306,,,,,,TRUE,,,,,FEW,2000,,,,,,,VFR,,,,,,,,,,,,METAR,2.0
VTBD 221500Z 20004KT 9999 FEW030 28/24 Q1009 NOSIG,VTBD,2018-03-22T15:00:00Z,13.92,100.6,28.0,24.0,200,4,,6.21,29.793306,,,,,,TRUE,,,,,FEW,3000,,,,,,,VFR,,,,,,,,,,,,METAR,3.0
VVTS 221500Z 12005KT 070V170 9999 FEW015 SCT050 28/23 Q1009 NOSIG,VVTS,2018-03-22T15:00:00Z,10.82,106.67,28.0,23.0,120,5,,6.21,29.793306,,,,,,TRUE,,,,,FEW,1500,SCT,5000,,,,,VFR,,,,,,,,,,,,METAR,19.0
VVPQ 221500Z VRB02KT 9999 FEW017 26/24 Q1009 NOSIG,VVPQ,2018-03-22T15:00:00Z,10.23,103.97,26.0,24.0,0,2,,6.21,29.793306,,,,,,TRUE,,,,,FEW,1700,,,,,,,VFR,,,,,,,,,,,,METAR,4.0
VVPB 221500Z 21002KT 7000 SCT020 BKN060 20/20 Q1016 NOSIG,VVPB,2018-03-22T15:00:00Z,16.38,107.7,20.0,20.0,210,2,,4.35,30.0,,,,,,TRUE,,,,,SCT,2000,BKN,6000,,,,,MVFR,,,,,,,,,,,,METAR,17.0
VVNB 221500Z 15005KT 110V180 8000 SCT036 20/12 Q1016 NOSIG,VVNB,2018-03-22T15:00:00Z,21.22,105.8,20.0,12.0,150,5,,4.97,30.0,,,,,,TRUE,,,,,SCT,3600,,,,,,,MVFR,,,,,,,,,,,,METAR,12.0
VVDN 221500Z 32002KT 8000 FEW015 SCT060 21/18 Q1016 NOSIG,VVDN,2018-03-22T15:00:00Z,16.02,108.2,21.0,18.0,320,2,,4.97,30.0,,,,,,TRUE,,,,,FEW,1500,SCT,6000,,,,,MVFR,,,,,,,,,,,,METAR,7.0
VVCT 221500Z 11007KT 8000 FEW015 BKN050 26/24 Q1009 NOSIG,VVCT,2018-03-22T15:00:00Z,10.08,105.72,26.0,24.0,110,7,,4.97,29.793306,,,,,,TRUE,,,,,FEW,1500,BKN,5000,,,,,MVFR,,,,,,,,,,,,METAR,3.0
VVCR 221500Z 03008KT 9999 FEW015 SCT050 26/17 Q1013 NOSIG,VVCR,2018-03-22T15:00:00Z,12.0,109.22,26.0,17.0,30,8,,6.21,29.911417,,,,,,TRUE,,,,,FEW,1500,SCT,5000,,,,,VFR,,,,,,,,,,,,METAR,12.0
VVCI 221500Z 10003KT CAVOK 19/14 Q1016 NOSIG,VVCI,2018-03-22T15:00:00Z,20.82,106.73,19.0,14.0,100,3,,6.21,30.0,,,,,,TRUE,,,,,CAVOK,,,,,,,,VFR,,,,,,,,,,,,METAR,3.0
CZCP 221500Z AUTO 23008KT ////SM //// FEW004 OVC030 M25/M29 A3057,CZCP,2018-03-22T15:00:00Z,70.17,-124.72,-25.0,-29.0,230,8,,,30.569881,,,TRUE,,,,,,,,FEW,400,OVC,3000,,,,,,,,,,,,,,,,,METAR,93.0
CZBF 221500Z 04013G22KT 15SM OVC010 M01/M03 A2995 RMK SC8 SLP148,CZBF,2018-03-22T15:00:00Z,47.62,-65.75,-1.0,-3.0,40,13,22,15.0,29.949802,1014.8,,,,,,,,,,OVC,1000,,,,,,,MVFR,,,,,,,,,,,,METAR,59.0
CWZZ 221500Z AUTO ///// ////SM //// NCD M06/M07 A3011,CWZZ,2018-03-22T15:00:00Z,58.32,-62.57,-6.0,-7.0,,,,,30.109253,,,TRUE,,,,,,,,CLR,,,,,,,,,,,,,,,,,,,,METAR,483.0
CWVH 221500Z AUTO 18025KT M18/ A3042 RMK SLP340,CWVH,2018-03-22T15:00:00Z,68.9,-133.93,-18.0,,180,25,,,30.41929,1034.0,,TRUE,,,,,,,,,,,,,,,,,,,,,,,,,,,,METAR,261.0
CWUP 221500Z AUTO ///// M28/ A2989 RMK SLP181,CWUP,2018-03-22T15:00:00Z,68.47,-66.82,-28.0,,,,,,29.890747,1018.1,,TRUE,,,,,,,,,,,,,,,,,,,,,,,,,,,,METAR,390.0
CWSW 221500Z 36004KT 15SM VCSH OVC050 00/M04 A2990 RMK NS8 SLP158,CWSW,2018-03-22T15:00:00Z,49.75,-114.87,0.0,-4.0,360,4,,15.0,29.899607,1015.8,,,,,,,,,VCSH,OVC,5000,,,,,,,VFR,,,,,,,,,,,,METAR,1138.0
CWRX 221500Z AUTO 33022KT ////SM //// ////// M29/M32 A3028,CWRX,2018-03-22T15:00:00Z,69.07,-79.02,-29.0,-32.0,330,22,,,30.280512,,,TRUE,,,,,,,,,,,,,,,,,,,,,,,,,,,,METAR,41.0
CWPX 221500Z AUTO ///// ////SM //// NCD M27/M31 A3048,CWPX,2018-03-22T15:00:00Z,69.02,-107.82,-27.0,-31.0,,,,,30.481298,,,TRUE,,,,,,,,CLR,,,,,,,,,,,,,,,,,,,,METAR,165.0
CWOB 221500Z AUTO 26004KT 230V290 ////SM //// NCD M17/M20 A3004,CWOB,2018-03-22T15:00:00Z,63.32,-64.15,-17.0,-20.0,260,4,,,30.041338,,,TRUE,,,,,,,,CLR,,,,,,,,,,,,,,,,,,,,METAR,367.0
CWLY 221500Z AUTO 18004KT 9SM FEW060 SCT096 SCT140 04/04 A2946 RMK SLP980,CWLY,2018-03-22T15:00:00Z,50.22,-121.58,4.0,4.0,180,4,,9.0,29.459646,998.0,,TRUE,,,,,,,,FEW,6000,SCT,9600,SCT,14000,,,VFR,,,,,,,,,,,,METAR,229.0
CWLI 221500Z AUTO 16013KT ////SM //// OVC046 M24/M26 A3050,CWLI,2018-03-22T15:00:00Z,69.58,-130.9,-24.0,-26.0,160,13,,,30.499016,,,TRUE,,,,,,,,OVC,4600,,,,,,,,,,,,,,,,,,,METAR,102.0
CWKW 221500Z AUTO ///// A3009,CWKW,2018-03-22T15:00:00Z,59.97,-64.17,,,,,,,30.088583,,,TRUE,,,,,,,,,,,,,,,,,,,,,,,,,,,,METAR,551.0
CWKM 221500Z AUTO 12007KT M27/ A3050 RMK SLP333,CWKM,2018-03-22T15:00:00Z,69.6,-140.17,-27.0,,120,7,,,30.499016,1033.3,,TRUE,,,,,,,,,,,,,,,,,,,,,,,,,,,,METAR,13.0
CWIL 221500Z AUTO 23015KT ////SM NCD ///// A////,CWIL,2018-03-22T15:00:00Z,68.32,-100.07,,,230,15,,,,,,TRUE,,,,,,,,CLR,,,,,,,,,,,,,,,,,,,,METAR,36.0
CWCA 221500Z 35010KT 15SM BKN012 OVC070 M03/M06 A3029 RMK SC6AS2 SLP261,CWCA,2018-03-22T15:00:00Z,53.7,-57.02,-3.0,-6.0,350,10,,15.0,30.28937,1026.1,,,,,,,,,,BKN,1200,OVC,7000,,,,,MVFR,,,,,,,,,,,,METAR,14.0
CWAE 221500Z 00000KT 10SM -RA BKN018 OVC036 01/01 A2939 RMK SC5SC3 WND ESTD SLP964,CWAE,2018-03-22T15:00:00Z,50.13,-122.95,1.0,1.0,0,0,,10.0,29.388779,996.4,,,,,,,,,-RA,BKN,1800,OVC,3600,,,,,MVFR,,,,,,,,,,,,METAR,658.0
CYZR 221500Z AUTO 34013G18KT 9SM CLR 01/M04 A3021 RMK SLP241,CYZR,2018-03-22T15:00:00Z,43.0,-82.3,1.0,-4.0,340,13,18,9.0,30.209646,1024.1,,TRUE,,,,,,,,CLR,,,,,,,,VFR,,,,,,,,,,,,METAR,181.0
CYZE 221500Z AUTO 36007KT 310V030 9SM CLR M05/M13 A3025 RMK SLP256,CYZE,2018-03-22T15:00:00Z,45.87,-82.57,-5.0,-13.0,360,7,,9.0,30.250984,1025.6,,TRUE,,,,,,,,CLR,,,,,,,,VFR,,,,,,,,,,,,METAR,193.0
CYYY 221500Z CCA 06017G27KT 15SM OVC011 M01/M03 A3005 RMK SC8 SLP180,CYYY,2018-03-22T15:00:00Z,48.6,-68.22,-1.0,-3.0,60,17,27,15.0,30.050198,1018.0,,,,,,,,,,OVC,1100,,,,,,,MVFR,,,,,,,,,,,,SPECI,52.0
CYXR 221500Z AUTO 33009KT 9SM CLR M09/M13 A3022 RMK ICG SLP255,CYXR,2018-03-22T15:00:00Z,47.7,-79.83,-9.0,-13.0,330,9,,9.0,30.221457,1025.5,,TRUE,,,,,,,,CLR,,,,,,,,VFR,,,,,,,,,,,,METAR,243.0
CYWA 221500Z 32011KT 280V340 15SM FEW220 M03/M11 A3009 RMK CI2 DA-1797FT SLP197,CYWA,2018-03-22T15:00:00Z,45.95,-77.32,-3.0,-11.0,320,11,,15.0,30.088583,1019.7,,,,,,,,,,FEW,22000,,,,,,,VFR,,,,,,,,,,,,METAR,130.0
CYVV 221500Z 01006KT 330V040 15SM FEW022 BKN250 M02/M08 A3019 RMK CU1CI5 CU TR SLP236,CYVV,2018-03-22T15:00:00Z,44.75,-81.08,-2.0,-8.0,10,6,,15.0,30.188976,1023.6,,,,,,,,,,FEW,2200,BKN,25000,,,,,VFR,,,,,,,,,,,,METAR,222.0
CYVP 221500Z 13003KT 120V190 15SM SCT023 SCT120 M11/M20 A3041 RMK SC3AC1 SLP305,CYVP,2018-03-22T15:00:00Z,58.12,-68.42,-11.0,-20.0,130,3,,15.0,30.410433,1030.5,,,,,,,,,,SCT,2300,SCT,12000,,,,,VFR,,,,,,,,,,,,METAR,60.0
CYTZ 221500Z AUTO 32014G19KT 9SM CLR 01/M11 A3012 RMK SLP204,CYTZ,2018-03-22T15:00:00Z,43.63,-79.4,1.0,-11.0,320,14,19,9.0,30.121063,1020.4,,TRUE,,,,,,,,CLR,,,,,,,,VFR,,,,,,,,,,,,METAR,77.0
CYTS 221500Z 34009KT 320V030 15SM FEW020 SCT250 M10/M16 A3025 RMK SC2CI1 SLP271,CYTS,2018-03-22T15:00:00Z,48.57,-81.37,-10.0,-16.0,340,9,,15.0,30.250984,1027.1,,,,,,,,,,FEW,2000,SCT,25000,,,,,VFR,,,,,,,,,,,,METAR,295.0
CYTL 221500Z AUTO 01006KT 350V050 9SM OVC095 M06/M19 A3041 RMK SLP317,CYTL,2018-03-22T15:00:00Z,53.82,-89.88,-6.0,-19.0,10,6,,9.0,30.410433,1031.7,,TRUE,,,,,,,,OVC,9500,,,,,,,VFR,,,,,,,,,,,,METAR,224.0
CYRL 221500Z 00000KT 15SM OVC040 M02/M06 A3034 RMK SC8 SLP302,CYRL,2018-03-22T15:00:00Z,51.07,-93.78,-2.0,-6.0,0,0,,15.0,30.339567,1030.2,,,,,,,,,,OVC,4000,,,,,,,VFR,,,,,,,,,,,,METAR,383.0
CYRJ 221500Z 35004KT 310V040 40SM FEW090 FEW230 M03/M10 A3006 RMK AC1CI1 SLP195,CYRJ,2018-03-22T15:00:00Z,48.52,-72.27,-3.0,-10.0,350,4,,40.0,30.059055,1019.5,,,,,,,,,,FEW,9000,FEW,23000,,,,,VFR,,,,,,,,,,,,METAR,179.0
CYQT 221500Z 21004KT 20SM SKC M05/M11 A3038 RMK SLP305,CYQT,2018-03-22T15:00:00Z,48.37,-89.32,-5.0,-11.0,210,4,,20.0,30.380905,1030.5,,,,,,,,,,SKC,,,,,,,,VFR,,,,,,,,,,,,METAR,199.0
CYPQ 221500Z AUTO 32012G18KT 300V360 9SM CLR 01/M10 A3005 RMK SLP187,CYPQ,2018-03-22T15:00:00Z,44.22,-78.37,1.0,-10.0,320,12,18,9.0,30.050198,1018.7,,TRUE,,,,,,,,CLR,,,,,,,,VFR,,,,,,,,,,,,METAR,191.0
CYND 221500Z 28005KT 260V320 15SM SCT200 01/M10 A3001 RMK CI4 SLP167,CYND,2018-03-22T15:00:00Z,45.52,-75.57,1.0,-10.0,280,5,,15.0,30.008858,1016.7,,,,,,,,,,SCT,20000,,,,,,,VFR,,,,,,,,,,,,METAR,64.0
CYNA 221500Z AUTO 05016G21KT 9SM OVC026 00/M05 A3014 RMK PRESFR SLP209,CYNA,2018-03-22T15:00:00Z,50.17,-61.82,0.0,-5.0,50,16,21,9.0,30.138779,1020.9,,TRUE,,,,,,,,OVC,2600,,,,,,,MVFR,,,,,,,,,,,,METAR,11.0
CYKO 221500Z 36014KT 12SM DRSN FEW070 SCT120 M17/M21 A3041 RMK AC1AC2 SLP303,CYKO,2018-03-22T15:00:00Z,60.82,-78.15,-17.0,-21.0,360,14,,12.0,30.410433,1030.3,,,,,,,,,DRSN,FEW,7000,SCT,12000,,,,,VFR,,,,,,,,,,,,METAR,9.0
CYHU 221500Z AUTO 02015KT 9SM BKN200 00/M05 A2996 RMK SLP149,CYHU,2018-03-22T15:00:00Z,45.52,-73.42,0.0,-5.0,20,15,,9.0,29.958662,1014.9,,TRUE,,,,,,,,BKN,20000,,,,,,,VFR,,,,,,,,,,,,METAR,27.0
CYHD 221500Z AUTO 28004KT 9SM BKN075 M03/M10 A3034 RMK SLP302,CYHD,2018-03-22T15:00:00Z,49.82,-92.75,-3.0,-10.0,280,4,,9.0,30.339567,1030.2,,TRUE,,,,,,,,BKN,7500,,,,,,,VFR,,,,,,,,,,,,METAR,413.0
CYGR 221500Z 06026G32KT 20SM BKN100 OVC230 M01/M04 A2986 RMK AC7CI1 SLP112,CYGR,2018-03-22T15:00:00Z,47.42,-61.77,-1.0,-4.0,60,26,32,20.0,29.861221,1011.2,,,,,,,,,,BKN,10000,OVC,23000,,,,,VFR,,,,,,,,,,,,METAR,10.0
CYGP 221500Z 06013G22KT 15SM BKN020 00/M05 A3006 RMK SC7 SLP184,CYGP,2018-03-22T15:00:00Z,48.77,-64.47,0.0,-5.0,60,13,22,15.0,30.059055,1018.4,,,,,,,,,,BKN,2000,,,,,,,MVFR,,,,,,,,,,,,METAR,33.0
CYFT 221500Z 23003KT 15SM -SN BKN022 M05/M09 A3031 RMK SC7 SLP270,CYFT,2018-03-22T15:00:00Z,55.07,-59.17,-5.0,-9.0,230,3,,15.0,30.31004,1027.0,,,,,,,,,-SN,BKN,2200,,,,,,,MVFR,,,,,,,,,,,,METAR,71.0
CYAM 221500Z 30008KT 15SM FEW110 M09/M12 A3029 RMK AC1 SLP272,CYAM,2018-03-22T15:00:00Z,46.47,-84.52,-9.0,-12.0,300,8,,15.0,30.28937,1027.2,,,,,,,,,,FEW,11000,,,,,,,VFR,,,,,,,,,,,,METAR,192.0
CYXH 221500Z 03004KT 30SM BKN090 M01/M03 A2997 RMK AC7 SLP178,CYXH,2018-03-22T15:00:00Z,50.02,-110.72,-1.0,-3.0,30,4,,30.0,29.970472,1017.8,,,,,,,,,,BKN,9000,,,,,,,VFR,,,,,,,,,,,,METAR,716.0
CYVT 221500Z 06005KT 15SM BKN012 OVC020 M09/M12 A3037 RMK SC5SC3 SLP319,CYVT,2018-03-22T15:00:00Z,55.82,-108.42,-9.0,-12.0,60,5,,15.0,30.369095,1031.9,,,,,,,,,,BKN,1200,OVC,2000,,,,,MVFR,,,,,,,,,,,,METAR,434.0
CYUX 221500Z 31020KT 1/2SM FZFG FEW006 M29/M32 A3036 RMK SF1 SLP285,CYUX,2018-03-22T15:00:00Z,68.77,-81.25,-29.0,-32.0,310,20,,0.5,30.360237,1028.5,,,,,,,,,FZFG,FEW,600,,,,,,,LIFR,,,,,,,,,,,,METAR,8.0
CYUS 221500Z AUTO 17010G16KT 130V230 ////SM //// FEW003 M32/M37 A3066,CYUS,2018-03-22T15:00:00Z,68.82,-93.42,-32.0,-37.0,170,10,16,,30.661417,,,TRUE,,,,,,,,FEW,300,,,,,,,,,,,,,,,,,,,METAR,42.0
CYUB 221500Z 14009KT 15SM SCT045 M23/M26 A3054 RMK SC3 SLP344,CYUB,2018-03-22T15:00:00Z,69.45,-133.02,-23.0,-26.0,140,9,,15.0,30.540354,1034.4,,,,,,,,,,SCT,4500,,,,,,,VFR,,,,,,,,,,,,METAR,5.0
CYTH 221500Z 05011KT 15SM -SN DRSN BKN089 M17/M21 A3063 RMK AC6 SLP397,CYTH,2018-03-22T15:00:00Z,55.78,-97.87,-17.0,-21.0,50,11,,15.0,30.628937,1039.7,,,,,,,,,-SN DRSN,BKN,8900,,,,,,,VFR,,,,,,,,,,,,METAR,218.0
CYSM 221500Z 08003KT 040V110 15SM SKC M21/M26 A3062 RMK SLP396,CYSM,2018-03-22T15:00:00Z,60.03,-111.97,-21.0,-26.0,80,3,,15.0,30.620079,1039.6,,,,,,,,,,SKC,,,,,,,,VFR,,,,,,,,,,,,METAR,203.0
CYQV 221500Z AUTO 07004KT 0SM FZFG VV001 M11/M12 A3034 RMK SLP314,CYQV,2018-03-22T15:00:00Z,51.27,-102.47,-11.0,-12.0,70,4,,0.0,30.339567,1031.4,,TRUE,,,,,,,FZFG,OVX,0,,,,,,,LIFR,,,,,,,,,,,100,METAR,498.0
CWZO 221500Z AUTO 00005KT RMK AO1,CWZO,2018-03-22T15:00:00Z,48.55,-123.23,,,0,5,,,,,,TRUE,TRUE,,,,,,,,,,,,,,,,,,,,,,,,,,,METAR,1.0
CWZS 221500Z AUTO 36004KT M01/M07 RMK AO1 SLP160 T10081072 58010,CWZS,2018-03-22T15:00:00Z,48.47,-67.43,-0.8,-7.2,360,4,,,,1016.0,,TRUE,TRUE,,,,,,,,,,,,,,,,-1.0,,,,,,,,,,,METAR,166.0
CXHM 221500Z AUTO 31005KT 02/ RMK AO1 SLP204 T0018 51008,CXHM,2018-03-22T15:00:00Z,43.28,-79.9,1.8,,310,5,,,,1020.4,,TRUE,TRUE,,,,,,,,,,,,,,,,0.8,,,,,,,,,,,METAR,107.0
CXKA 221500Z AUTO 36006KT M10/M18 RMK AO1 4PAST HR SOG 70 1001 SLP284 P0002 T10991179 50004,CXKA,2018-03-22T15:00:00Z,49.4,-82.45,-9.9,-17.9,360,6,,,,1028.4,,TRUE,TRUE,,,,,,,,,,,,,,,,0.4,,,,,0.02,,,,,,METAR,218.0
MGSJ 221500Z 24004KT 8000 SKC 30/24 Q1015 A2997 HZ,MGSJ,2018-03-22T15:00:00Z,13.92,-90.83,30.0,24.0,240,4,,4.97,29.970472,,,,,,,,,,HZ,SKC,,,,,,,,MVFR,,,,,,,,,,,,METAR,9.0
MGPB 221500Z 00000KT 9999 SCT018 28/24 Q1019 A3009,MGPB,2018-03-22T15:00:00Z,15.72,-88.58,28.0,24.0,0,0,,6.21,30.088583,,,,,,,,,,,SCT,1800,,,,,,,VFR,,,,,,,,,,,,METAR,10.0
MGHT 221500Z 14008KT CAVOK 18/08 QFE 823.9,MGHT,2018-03-22T15:00:00Z,15.32,-91.5,18.0,8.0,140,8,,6.21,,,,,,,,,,,,CAVOK,,,,,,,,VFR,,,,,,,,,,,,METAR,1901.0
MGMM 221500Z 12008KT 9999 FEW014 27/22 Q1021 A3015,MGMM,2018-03-22T15:00:00Z,16.97,-89.87,27.0,22.0,120,8,,6.21,30.147638,,,,,,,,,,,FEW,1400,,,,,,,VFR,,,,,,,,,,,,METAR,123.0
SBGO 221500Z 34003KT 9999 VCSH SCT035 FEW040TCU 28/19 Q1016 RESHRA,SBGO,2018-03-22T15:00:00Z,-16.62,-49.22,28.0,19.0,340,3,,6.21,30.0,,,,,,,,,,VCSH,SCT,3500,FEW,4000,,,,,VFR,,,,,,,,,,,,METAR,747.0
VIAR 221500Z VRB02KT 4000 HZ NSC 20/15 Q1011 NOSIG,VIAR,2018-03-22T15:00:00Z,31.7,74.8,20.0,15.0,0,2,,2.49,29.852362,,,,,,TRUE,,,,HZ,CLR,,,,,,,,IFR,,,,,,,,,,,,METAR,234.0
VOHS 221500Z 08005KT 6000 SCT020 30/20 Q1011 NOSIG,VOHS,2018-03-22T15:00:00Z,17.23,78.43,30.0,20.0,80,5,,3.73,29.852362,,,,,,TRUE,,,,,SCT,2000,,,,,,,MVFR,,,,,,,,,,,,METAR,1.0
VEBS 221500Z 20010KT 3000 HZ BKN020 SCT100 28/25 Q1007 NOSIG,VEBS,2018-03-22T15:00:00Z,20.25,85.82,28.0,25.0,200,10,,1.86,29.734253,,,,,,TRUE,,,,HZ,BKN,2000,SCT,10000,,,,,IFR,,,,,,,,,,,,METAR,46.0
VOHY 221500Z VRB02KT 6000 FEW020 SCT100 30/12 Q1011 NOSIG,VOHY,2018-03-22T15:00:00Z,17.45,78.45,30.0,12.0,0,2,,3.73,29.852362,,,,,,TRUE,,,,,FEW,2000,SCT,10000,,,,,MVFR,,,,,,,,,,,,METAR,545.0
VOCI 221500Z 00000KT 4000 HZ FEW015 SCT080 25/22 Q1009 NOSIG,VOCI,2018-03-22T15:00:00Z,10.15,76.4,25.0,22.0,0,0,,2.49,29.793306,,,,,,TRUE,,,,HZ,FEW,1500,SCT,8000,,,,,IFR,,,,,,,,,,,,METAR,8.0
VEPT 221500Z 34002KT 3000 HZ NSC 27/19 Q1005 NOSIG,VEPT,2018-03-22T15:00:00Z,25.6,85.08,27.0,19.0,340,2,,1.86,29.675198,,,,,,TRUE,,,,HZ,CLR,,,,,,,,IFR,,,,,,,,,,,,METAR,60.0
FMSD 221500Z 08012KT 9999 FEW020 SCT033 27/24 Q1012,FMSD,2018-03-22T15:00:00Z,-25.02,46.95,27.0,24.0,80,12,,6.21,29.88189,,,,,,,,,,,FEW,2000,SCT,3300,,,,,VFR,,,,,,,,,,,,METAR,9.0
FMNM 221500Z 30004KT 9999 FEW020CB 29/25 Q1009 NOSIG,FMNM,2018-03-22T15:00:00Z,-15.67,46.35,29.0,25.0,300,4,,6.21,29.793306,,,,,,TRUE,,,,,FEW,2000,,,,,,,VFR,,,,,,,,,,,,METAR,18.0
FMMT 221500Z 14006KT 9999 VCSH SCT017CB SCT033 28/26 Q1012 TEMPO TSRA,FMMT,2018-03-22T15:00:00Z,-18.12,49.38,28.0,26.0,140,6,,6.21,29.88189,,,,,,,,,,VCSH,SCT,1700,SCT,3300,,,,,VFR,,,,,,,,,,,,METAR,6.0
FMCH 221500Z 00000KT 9999 SCT023 29/25 Q1011 NOSIG,FMCH,2018-03-22T15:00:00Z,-11.52,43.27,29.0,25.0,0,0,,6.21,29.852362,,,,,,TRUE,,,,,SCT,2300,,,,,,,VFR,,,,,,,,,,,,METAR,29.0
LYTV 221500Z 05015G32KT 9999 SCT060 08/M00 Q0995 WS ALL RWY NOSIG,LYTV,2018-03-22T15:00:00Z,42.38,18.72,8.0,0.0,50,15,32,6.21,29.379921,,,,,,TRUE,,,,,SCT,6000,,,,,,,VFR,,,,,,,,,,,,METAR,5.0
LYVR 221500Z 01006KT 9999 SCT040 01/M04 Q1015 NOSIG,LYVR,2018-03-22T15:00:00Z,45.13,21.32,1.0,-4.0,10,6,,6.21,29.970472,,,,,,TRUE,,,,,SCT,4000,,,,,,,VFR,,,,,,,,,,,,METAR,85.0
LYPG 221500Z 02017KT 9999 SCT050 OVC080 07/M05 Q0997 NOSIG,LYPG,2018-03-22T15:00:00Z,42.37,19.25,7.0,-5.0,20,17,,6.21,29.438976,,,,,,TRUE,,,,,SCT,5000,OVC,8000,,,,,VFR,,,,,,,,,,,,METAR,43.0
LYNI 221500Z 04006KT 360V080 9999 FEW020 BKN043 01/M04 Q1010 R11/5/0293 NOSIG,LYNI,2018-03-22T15:00:00Z,43.32,21.88,1.0,-4.0,40,6,,6.21,29.822834,,,,,,TRUE,,,,,FEW,2000,BKN,4300,,,,,VFR,,,,,,,,,,,,METAR,202.0
LYBT 221500Z 02010KT 350V050 5000 -SN BR BKN028 M00/M05 Q1015 TEMPO 3000,LYBT,2018-03-22T15:00:00Z,44.93,20.25,0.0,-5.0,20,10,,3.11,29.970472,,,,,,,,,,-SN BR,BKN,2800,,,,,,,MVFR,,,,,,,,,,,,METAR,80.0
LYBE 221500Z 04010KT 5000 -SN BR SCT017 BKN027 M01/M04 Q1015 R12/1///95 NOSIG,LYBE,2018-03-22T15:00:00Z,44.82,20.28,-1.0,-4.0,40,10,,3.11,29.970472,,,,,,TRUE,,,,-SN BR,SCT,1700,BKN,2700,,,,,MVFR,,,,,,,,,,,,METAR,99.0
SBUG 221500Z 06010KT 9999 FEW045 SCT100 24/15 Q1011,SBUG,2018-03-22T15:00:00Z,-29.77,-57.02,24.0,15.0,60,10,,6.21,29.852362,,,,,,,,,,,FEW,4500,SCT,10000,,,,,VFR,,,,,,,,,,,,METAR,74.0
TGPY 221500Z 09021G31KT 9999 FEW019 29/23 Q1015 NOSIG,TGPY,2018-03-22T15:00:00Z,12.0,-61.78,29.0,23.0,90,21,31,6.21,29.970472,,,,,,TRUE,,,,,FEW,1900,,,,,,,VFR,,,,,,,,,,,,METAR,7.0
SAZS 221500Z 30028G41KT 8000 VCSH FEW040 SCT050 13/06 Q1004,SAZS,2018-03-22T15:00:00Z,-41.13,-71.17,13.0,6.0,300,28,41,4.97,29.64567,,,,,,,,,,VCSH,FEW,4000,SCT,5000,,,,,MVFR,,,,,,,,,,,,METAR,840.0
SAZM 221500Z 36012KT 320V020 CAVOK 20/11 Q1012,SAZM,2018-03-22T15:00:00Z,-37.92,-57.57,20.0,11.0,360,12,,6.21,29.88189,,,,,,,,,,,CAVOK,,,,,,,,VFR,,,,,,,,,,,,METAR,21.0
SAWH 221500Z 34015KT 9999 BKN040 13/01 Q0973,SAWH,2018-03-22T15:00:00Z,-54.85,-68.3,13.0,1.0,340,15,,6.21,28.730314,,,,,,,,,,,BKN,4000,,,,,,,VFR,,,,,,,,,,,,METAR,14.0
SAVC 221500Z 29028G43KT 9999 FEW045 21/06 Q0993,SAVC,2018-03-22T15:00:00Z,-45.77,-67.47,21.0,6.0,290,28,43,6.21,29.320866,,,,,,,,,,,FEW,4500,,,,,,,VFR,,,,,,,,,,,,METAR,46.0
SASJ 221500Z 14003KT 9000 SCT030 OVC100 19/14 Q1021,SASJ,2018-03-22T15:00:00Z,-24.37,-65.1,19.0,14.0,140,3,,5.59,30.147638,,,,,,,,,,,SCT,3000,OVC,10000,,,,,VFR,,,,,,,,,,,,METAR,1167.0
SASA 221500Z 36002KT 9999 FEW012 BKN020 17/12 Q1012,SASA,2018-03-22T15:00:00Z,-24.85,-65.47,17.0,12.0,360,2,,6.21,29.88189,,,,,,,,,,,FEW,1200,BKN,2000,,,,,MVFR,,,,,,,,,,,,METAR,1216.0
SARP 221500Z 05007KT CAVOK 27/15 Q1011,SARP,2018-03-22T15:00:00Z,-27.38,-55.97,27.0,15.0,50,7,,6.21,29.852362,,,,,,,,,,,CAVOK,,,,,,,,VFR,,,,,,,,,,,,METAR,125.0
SARL 221500Z 09009KT CAVOK 24/17 Q1011,SARL,2018-03-22T15:00:00Z,-29.67,-57.13,24.0,17.0,90,9,,6.21,29.852362,,,,,,,,,,,CAVOK,,,,,,,,VFR,,,,,,,,,,,,METAR,70.0
SARI 221500Z 02006KT 9999 FEW030 29/21 Q1011,SARI,2018-03-22T15:00:00Z,-25.72,-54.47,29.0,21.0,20,6,,6.21,29.852362,,,,,,,,,,,FEW,3000,,,,,,,VFR,,,,,,,,,,,,METAR,270.0
SARF 221500Z 05003KT CAVOK 30/20 Q1009,SARF,2018-03-22T15:00:00Z,-26.22,-58.22,30.0,20.0,50,3,,6.21,29.793306,,,,,,,,,,,CAVOK,,,,,,,,VFR,,,,,,,,,,,,METAR,60.0
SARE 221500Z 04003KT 360V150 CAVOK 27/18 Q1009,SARE,2018-03-22T15:00:00Z,-27.43,-59.03,27.0,18.0,40,3,,6.21,29.793306,,,,,,,,,,,CAVOK,,,,,,,,VFR,,,,,,,,,,,,METAR,52.0
SARC 221500Z 05003KT CAVOK 27/19 Q1009,SARC,2018-03-22T15:00:00Z,-27.43,-58.77,27.0,19.0,50,3,,6.21,29.793306,,,,,,,,,,,CAVOK,,,,,,,,VFR,,,,,,,,,,,,METAR,62.0
SAOC 221500Z 36017KT CAVOK 25/10 Q1008,SAOC,2018-03-22T15:00:00Z,-33.12,-64.27,25.0,10.0,360,17,,6.21,29.763779,,,,,,,,,,,CAVOK,,,,,,,,VFR,,,,,,,,,,,,METAR,421.0
SANT 221500Z 18005KT 9999 FEW040 24/16 Q1009,SANT,2018-03-22T15:00:00Z,-26.85,-65.08,24.0,16.0,180,5,,6.21,29.793306,,,,,,,,,,,FEW,4000,,,,,,,VFR,,,,,,,,,,,,METAR,450.0
SAME 221500Z 14006KT CAVOK 25/06 Q1008,SAME,2018-03-22T15:00:00Z,-32.82,-68.77,25.0,6.0,140,6,,6.21,29.763779,,,,,,,,,,,CAVOK,,,,,,,,VFR,,,,,,,,,,,,METAR,704.0
SAEZ 221500Z 02009KT CAVOK 22/13 Q1012,SAEZ,2018-03-22T15:00:00Z,-34.82,-58.52,22.0,13.0,20,9,,6.21,29.88189,,,,,,,,,,,CAVOK,,,,,,,,VFR,,,,,,,,,,,,METAR,20.0
SADF 221500Z 02006KT CAVOK 22/12 Q1013,SADF,2018-03-22T15:00:00Z,-34.45,-58.58,22.0,12.0,20,6,,6.21,29.911417,,,,,,,,,,,CAVOK,,,,,,,,VFR,,,,,,,,,,,,METAR,4.0
SACO 221500Z 05013KT CAVOK 27/12 Q1009,SACO,2018-03-22T15:00:00Z,-31.32,-64.22,27.0,12.0,50,13,,6.21,29.793306,,,,,,,,,,,CAVOK,,,,,,,,VFR,,,,,,,,,,,,METAR,474.0
SABE 221500Z 36008KT 320V020 CAVOK 21/14 Q1013,SABE,2018-03-22T15:00:00Z,-34.57,-58.42,21.0,14.0,360,8,,6.21,29.911417,,,,,,,,,,,CAVOK,,,,,,,,VFR,,,,,,,,,,,,METAR,6.0
SAAR 221500Z 36008KT CAVOK 25/12 Q1011,SAAR,2018-03-22T15:00:00Z,-32.92,-60.77,25.0,12.0,360,8,,6.21,29.852362,,,,,,,,,,,CAVOK,,,,,,,,VFR,,,,,,,,,,,,METAR,25.0
TNCC 221500Z 10015KT 9999 BKN020 29/23 Q1015 NOSIG,TNCC,2018-03-22T15:00:00Z,12.2,-68.97,29.0,23.0,100,15,,6.21,29.970472,,,,,,TRUE,,,,,BKN,2000,,,,,,,MVFR,,,,,,,,,,,,METAR,9.0
VOBL 221500Z VRB02KT 6000 FEW015 26/16 Q1013 NOSIG,VOBL,2018-03-22T15:00:00Z,13.2,77.7,26.0,16.0,0,2,,3.73,29.911417,,,,,,TRUE,,,,,FEW,1500,,,,,,,MVFR,,,,,,,,,,,,METAR,915.0
LQTZ 221500Z 13004KT 090V170 2000 -SN BR BKN007 OVC015 M02/M02 Q1013,LQTZ,2018-03-22T15:00:00Z,44.47,18.73,-2.0,-2.0,130,4,,1.24,29.911417,,,,,,,,,,-SN BR,BKN,700,OVC,1500,,,,,IFR,,,,,,,,,,,,METAR,306.0
LQMO 221500Z 16004KT 120V200 9999 FEW050 SCT075 OVC090 07/M03 Q0998,LQMO,2018-03-22T15:00:00Z,43.28,17.83,7.0,-3.0,160,4,,6.21,29.468504,,,,,,,,,,,FEW,5000,SCT,7500,OVC,9000,,,VFR,,,,,,,,,,,,METAR,48.0
LQBK 221500Z 07008KT 020V130 CAVOK 03/M06 Q1013 NOSIG,LQBK,2018-03-22T15:00:00Z,44.93,17.3,3.0,-6.0,70,8,,6.21,29.911417,,,,,,TRUE,,,,,CAVOK,,,,,,,,VFR,,,,,,,,,,,,METAR,122.0
LZZI 221500Z 26008KT CAVOK 05/M10 Q1013,LZZI,2018-03-22T15:00:00Z,49.23,18.62,5.0,-10.0,260,8,,6.21,29.911417,,,,,,,,,,,CAVOK,,,,,,,,VFR,,,,,,,,,,,,METAR,311.0
LZSL 221500Z VRB01KT CAVOK 06/M11 Q1014,LZSL,2018-03-22T15:00:00Z,48.63,19.13,6.0,-11.0,0,1,,6.21,29.940945,,,,,,,,,,,CAVOK,,,,,,,,VFR,,,,,,,,,,,,METAR,313.0
LZPP 221500Z VRB03KT CAVOK 06/M09 Q1015,LZPP,2018-03-22T15:00:00Z,48.62,17.83,6.0,-9.0,0,3,,6.21,29.970472,,,,,,,,,,,CAVOK,,,,,,,,VFR,,,,,,,,,,,,METAR,161.0
BIRK 221500Z 24009KT 9999 -SHRA BKN017 BKN065 05/01 Q0984,BIRK,2018-03-22T15:00:00Z,64.13,-21.93,5.0,1.0,240,9,,6.21,29.055119,,,,,,,,,,-SHRA,BKN,1700,BKN,6500,,,,,MVFR,,,,,,,,,,,,METAR,61.0
BIKF 221500Z 23017KT 9999 VCSH FEW011CB SCT024 BKN043 04/03 Q0984,BIKF,2018-03-22T15:00:00Z,63.98,-22.6,4.0,3.0,230,17,,6.21,29.055119,,,,,,,,,,VCSH,FEW,1100,SCT,2400,BKN,4300,,,VFR,,,,,,,,,,,,METAR,54.0
BIEG 221500Z VRB02KT 9999 SCT020 BKN080 05/01 Q0985,BIEG,2018-03-22T15:00:00Z,65.27,-14.4,5.0,1.0,0,2,,6.21,29.084646,,,,,,,,,,,SCT,2000,BKN,8000,,,,,VFR,,,,,,,,,,,,METAR,38.0
BIAR 221500Z 12003KT 9999 FEW014 SCT049 05/02 Q0984,BIAR,2018-03-22T15:00:00Z,65.67,-18.07,5.0,2.0,120,3,,6.21,29.055119,,,,,,,,,,,FEW,1400,SCT,4900,,,,,VFR,,,,,,,,,,,,METAR,27.0
LKTB 221500Z 21009KT 180V240 CAVOK 06/M07 Q1013 NOSIG,LKTB,2018-03-22T15:00:00Z,49.13,16.68,6.0,-7.0,210,9,,6.21,29.911417,,,,,,TRUE,,,,,CAVOK,,,,,,,,VFR,,,,,,,,,,,,METAR,246.0
LKPR 221500Z 22015KT 9999 OVC044 02/M05 Q1012 NOSIG,LKPR,2018-03-22T15:00:00Z,50.1,14.27,2.0,-5.0,220,15,,6.21,29.88189,,,,,,TRUE,,,,,OVC,4400,,,,,,,VFR,,,,,,,,,,,,METAR,365.0
LKMT 221500Z 21013KT CAVOK 05/M10 Q1013 NOSIG,LKMT,2018-03-22T15:00:00Z,49.67,18.12,5.0,-10.0,210,13,,6.21,29.911417,,,,,,TRUE,,,,,CAVOK,,,,,,,,VFR,,,,,,,,,,,,METAR,256.0
LKKV 221500Z 25007KT 210V280 3200 -SN BR BKN017 OVC023 M01/M03 Q1011,LKKV,2018-03-22T15:00:00Z,50.2,12.92,-1.0,-3.0,250,7,,1.99,29.852362,,,,,,,,,,-SN BR,BKN,1700,OVC,2300,,,,,IFR,,,,,,,,,,,,METAR,604.0
YMOR 221500Z AUTO 11009KT 9999 // NCD 19/14 Q1018,YMOR,2018-03-22T15:00:00Z,-29.5,149.85,19.0,14.0,110,9,,6.21,30.059055,,,TRUE,,,,,,,,CLR,,,,,,,,VFR,,,,,,,,,,,,METAR,214.0
YMML 221500Z 36009KT CAVOK 17/08 Q1021,YMML,2018-03-22T15:00:00Z,-37.67,144.82,17.0,8.0,360,9,,6.21,30.147638,,,,,,,,,,,CAVOK,,,,,,,,VFR,,,,,,,,,,,,METAR,141.0
YMIA 221500Z AUTO 05014KT 9999 // SCT120 23/14 Q1017,YMIA,2018-03-22T15:00:00Z,-34.23,142.08,23.0,14.0,50,14,,6.21,30.029528,,,TRUE,,,,,,,,SCT,12000,,,,,,,VFR,,,,,,,,,,,,METAR,51.0
YMER 221500Z AUTO 04009KT 9999 // SCT026 OVC049 18/14 Q1026,YMER,2018-03-22T15:00:00Z,-36.92,149.9,18.0,14.0,40,9,,6.21,30.295275,,,TRUE,,,,,,,,SCT,2600,OVC,4900,,,,,VFR,,,,,,,,,,,,METAR,2.0
YMEN 221500Z AUTO 35007KT 9999 // NCD 16/09 Q1021,YMEN,2018-03-22T15:00:00Z,-37.72,144.9,16.0,9.0,350,7,,6.21,30.147638,,,TRUE,,,,,,,,CLR,,,,,,,,VFR,,,,,,,,,,,,METAR,86.0
YMEK 221500Z AUTO 19006KT 9999 // SCT125 30/11 Q1011,YMEK,2018-03-22T15:00:00Z,-26.62,118.55,30.0,11.0,190,6,,6.21,29.852362,,,TRUE,,,,,,,,SCT,12500,,,,,,,VFR,,,,,,,,,,,,METAR,522.0
YMDG 221500Z AUTO 13010KT 9999 // OVC030 17/13 Q1023,YMDG,2018-03-22T15:00:00Z,-32.57,149.62,17.0,13.0,130,10,,6.21,30.206694,,,TRUE,,,,,,,,OVC,3000,,,,,,,MVFR,,,,,,,,,,,,METAR,471.0
YMAY 221500Z AUTO 08004KT 9999 // NCD 19/09 Q1023,YMAY,2018-03-22T15:00:00Z,-36.07,146.93,19.0,9.0,80,4,,6.21,30.206694,,,TRUE,,,,,,,,CLR,,,,,,,,VFR,,,,,,,,,,,,METAR,171.0
YLRE 221500Z AUTO 12010KT 9999 // OVC045 OVC087 24/18 Q1011,YLRE,2018-03-22T15:00:00Z,-23.43,144.28,24.0,18.0,120,10,,6.21,29.852362,,,TRUE,,,,,,,,OVC,4500,OVC,8700,,,,,VFR,,,,,,,,,,,,METAR,193.0
SBPB 221500Z 07012KT 9999 SCT020 33/25 Q1011,SBPB,2018-03-22T15:00:00Z,-2.92,-41.75,33.0,25.0,70,12,,6.21,29.852362,,,,,,,,,,,SCT,2000,,,,,,,VFR,,,,,,,,,,,,METAR,5.0
SEMC 221500Z 09002KT 9999 3000E BCFG FEW013 SCT026 BKN100 21/21 Q1020,SEMC,2018-03-22T15:00:00Z,-2.3,-78.12,21.0,21.0,90,2,,6.21,30.11811,,,,,,,,,,BCFG,FEW,1300,SCT,2600,BKN,10000,,,VFR,,,,,,,,,,,,METAR,1052.0
EIKN 221500Z 17019KT 140V200 4000 -RA OVC002 07/07 Q1002 TEMPO 2000,EIKN,2018-03-22T15:00:00Z,53.92,-8.82,7.0,7.0,170,19,,2.49,29.586615,,,,,,,,,,-RA,OVC,200,,,,,,,LIFR,,,,,,,,,,,,METAR,64.0
EICK 221500Z 19017KT 4000 -RA OVC003 08/08 Q1008 NOSIG,EICK,2018-03-22T15:00:00Z,51.85,-8.47,8.0,8.0,190,17,,2.49,29.763779,,,,,,TRUE,,,,-RA,OVC,300,,,,,,,LIFR,,,,,,,,,,,,METAR,162.0
EINN 221500Z 16019KT 9999 FEW017 BKN030 OVC037 10/07 Q1005 NOSIG,EINN,2018-03-22T15:00:00Z,52.7,-8.92,10.0,7.0,160,19,,6.21,29.675198,,,,,,TRUE,,,,,FEW,1700,BKN,3000,OVC,3700,,,MVFR,,,,,,,,,,,,METAR,20.0
EIDW 221500Z 19012KT 9999 FEW015 BKN022 09/04 Q1009,EIDW,2018-03-22T15:00:00Z,53.42,-6.25,9.0,4.0,190,12,,6.21,29.793306,,,,,,,,,,,FEW,1500,BKN,2200,,,,,MVFR,,,,,,,,,,,,METAR,85.0
SBPL 221500Z 17009KT 9999 BKN025 32/18 Q1013,SBPL,2018-03-22T15:00:00Z,-9.37,-40.57,32.0,18.0,170,9,,6.21,29.911417,,,,,,,,,,,BKN,2500,,,,,,,MVFR,,,,,,,,,,,,METAR,375.0
SBSJ 221500Z 35003KT 9999 SCT017 BKN023 26/21 Q1016,SBSJ,2018-03-22T15:00:00Z,-23.22,-45.87,26.0,21.0,350,3,,6.21,30.0,,,,,,,,,,,SCT,1700,BKN,2300,,,,,MVFR,,,,,,,,,,,,METAR,646.0
LCPH 221500Z 10007KT 060V130 7000 FEW001 21/14 Q1011,LCPH,2018-03-22T15:00:00Z,34.72,32.47,21.0,14.0,100,7,,4.35,29.852362,,,,,,,,,,,FEW,100,,,,,,,MVFR,,,,,,,,,,,,METAR,8.0
LCLK 221500Z 09010KT CAVOK 19/17 Q1013 NOSIG,LCLK,2018-03-22T15:00:00Z,34.87,33.62,19.0,17.0,90,10,,6.21,29.911417,,,,,,TRUE,,,,,CAVOK,,,,,,,,VFR,,,,,,,,,,,,METAR,2.0
TLPC 221500Z 10011KT 9999 BKN026 29/22 Q1017 NOSIG,TLPC,2018-03-22T15:00:00Z,14.02,-61.0,29.0,22.0,100,11,,6.21,30.029528,,,,,,TRUE,,,,,BKN,2600,,,,,,,MVFR,,,,,,,,,,,,METAR,2.0
MYNN 221500Z 32009KT 9999 SCT022 24/13 A3016 RMK PKWND 16KT,MYNN,2018-03-22T15:00:00Z,25.03,-77.47,24.0,13.0,320,9,,6.21,30.159449,,,,,,,,,,,SCT,2200,,,,,,,VFR,,,,,,,,,,,,METAR,3.0
FIMR 221500Z 11013KT 9999 SCT018 26/24 Q1012,FIMR,2018-03-22T15:00:00Z,-19.75,63.37,26.0,24.0,110,13,,6.21,29.88189,,,,,,,,,,,SCT,1800,,,,,,,VFR,,,,,,,,,,,,METAR,31.0
WSSL 221500Z 03008KT 9999 FEW018 BKN300 28/23 Q1009 RMK 1430Z Q1009,WSSL,2018-03-22T15:00:00Z,1.42,103.87,28.0,23.0,30,8,,6.21,29.793306,,,,,,,,,,,FEW,1800,BKN,30000,,,,,VFR,,,,,,,,,,,,METAR,14.0
WSAP 221500Z 03006KT 9999 FEW018 BKN300 28/24 Q1009,WSAP,2018-03-22T15:00:00Z,1.37,103.92,28.0,24.0,30,6,,6.21,29.793306,,,,,,,,,,,FEW,1800,BKN,30000,,,,,VFR,,,,,,,,,,,,METAR,32.0
FBSK 221500Z 06004KT 020V090 8000 SCT006 BKN010 OVC065 20/20 Q1017 NOSIG,FBSK,2018-03-22T15:00:00Z,-24.55,25.92,20.0,20.0,60,4,,4.97,30.029528,,,,,,TRUE,,,,,SCT,600,BKN,1000,OVC,6500,,,MVFR,,,,,,,,,,,,METAR,1005.0
SBGR 221500Z 10005KT 9999 BKN017 23/21 Q1017,SBGR,2018-03-22T15:00:00Z,-23.42,-46.47,23.0,21.0,100,5,,6.21,30.029528,,,,,,,,,,,BKN,1700,,,,,,,MVFR,,,,,,,,,,,,METAR,750.0
MKJS 221500Z 04007KT 9999 FEW022 28/24 Q1018,MKJS,2018-03-22T15:00:00Z,18.5,-77.92,28.0,24.0,40,7,,6.21,30.059055,,,,,,,,,,,FEW,2200,,,,,,,VFR,,,,,,,,,,,,METAR,1.0
TVSM 221500Z 09017KT 9999 FEW022 30/21 Q1015 ,TVSM,2018-03-22T15:00:00Z,12.88,-61.18,30.0,21.0,90,17,,6.21,29.970472,,,,,,,,,,,FEW,2200,,,,,,,VFR,,,,,,,,,,,,METAR,2.0
TVSA 221500Z 08010KT 050V110 9999 SCT022 SCT040 28/21 Q1017 NOSIG ,TVSA,2018-03-22T15:00:00Z,13.15,-61.15,28.0,21.0,80,10,,6.21,30.029528,,,,,,TRUE,,,,,SCT,2200,SCT,4000,,,,,VFR,,,,,,,,,,,,METAR,17.0
TLPL 221500Z 09021KT 9999 FEW028 29/22 Q1017 NOSIG,TLPL,2018-03-22T15:00:00Z,13.75,-60.95,29.0,22.0,90,21,,6.21,30.029528,,,,,,TRUE,,,,,FEW,2800,,,,,,,VFR,,,,,,,,,,,,METAR,3.0
KNEL 221500Z AUTO 30009KT 10SM FEW090 02/M02 A2983 RMK AO2 SLP099 60000 T00221017 51017,KNEL,2018-03-22T15:00:00Z,40.02,-74.33,2.2,-1.7,300,9,,10.0,29.828741,1009.9,,TRUE,TRUE,,,,,,,FEW,9000,,,,,,,VFR,1.7,,,,,,0.005,,,,,METAR,31.0
WAJJ 221500Z 28013KT 9000 FEW012 28/22 Q1004 NOSIG,WAJJ,2018-03-22T15:00:00Z,-2.58,140.52,28.0,22.0,280,13,,5.59,29.64567,,,,,,TRUE,,,,,FEW,1200,,,,,,,VFR,,,,,,,,,,,,METAR,88.0
UKWW 221500Z 28002MPS CAVOK 00/M09 Q1016 R31/0///65 NOSIG,UKWW,2018-03-22T15:00:00Z,49.25,28.6,0.0,-9.0,280,4,,6.21,30.0,,,,,,TRUE,,,,,CAVOK,,,,,,,,VFR,,,,,,,,,,,,METAR,293.0
UKOH 221500Z 36003MPS 9999 SCT040 BKN100 01/M04 Q1019 R03/CLRD65 NOSIG,UKOH,2018-03-22T15:00:00Z,46.67,32.5,1.0,-4.0,360,6,,6.21,30.088583,,,,,,TRUE,,,,,SCT,4000,BKN,10000,,,,,VFR,,,,,,,,,,,,METAR,45.0
UKLN 221500Z 12004MPS CAVOK M00/M10 Q1017 R15/09//70 NOSIG,UKLN,2018-03-22T15:00:00Z,48.27,25.98,0.0,-10.0,120,8,,6.21,30.029528,,,,,,TRUE,,,,,CAVOK,,,,,,,,VFR,,,,,,,,,,,,METAR,252.0
UKKM 221500Z 25004MPS CAVOK 03/M09 Q1015 R33/450147 NOSIG,UKKM,2018-03-22T15:00:00Z,50.6,30.2,3.0,-9.0,250,8,,6.21,29.970472,,,,,,TRUE,,,,,CAVOK,,,,,,,,VFR,,,,,,,,,,,,METAR,157.0
UKKK 221500Z 26005MPS CAVOK 01/M08 Q1016 R26/810360 NOSIG,UKKK,2018-03-22T15:00:00Z,50.4,30.45,1.0,-8.0,260,10,,6.21,30.0,,,,,,TRUE,,,,,CAVOK,,,,,,,,VFR,,,,,,,,,,,,METAR,179.0
UKLU 221500Z 18002MPS 120V240 9999 SCT200 03/M11 Q1017 R10/090070 NOSIG,UKLU,2018-03-22T15:00:00Z,48.63,22.27,3.0,-11.0,180,4,,6.21,30.029528,,,,,,TRUE,,,,,SCT,20000,,,,,,,VFR,,,,,,,,,,,,METAR,117.0
UKON 221500Z VRB01MPS CAVOK 00/M03 Q1020 NOSIG,UKON,2018-03-22T15:00:00Z,47.05,31.92,0.0,-3.0,0,2,,6.21,30.11811,,,,,,TRUE,,,,,CAVOK,,,,,,,,VFR,,,,,,,,,,,,METAR,56.0
UKLI 221500Z 12004MPS CAVOK 01/M10 Q1016 R28/810355 NOSIG,UKLI,2018-03-22T15:00:00Z,48.88,24.68,1.0,-10.0,120,8,,6.21,30.0,,,,,,TRUE,,,,,CAVOK,,,,,,,,VFR,,,,,,,,,,,,METAR,280.0
UKLR 221500Z 25003MPS CAVOK 01/M09 Q1015 R29/72//40 NOSIG,UKLR,2018-03-22T15:00:00Z,50.6,26.13,1.0,-9.0,250,6,,6.21,29.970472,,,,,,TRUE,,,,,CAVOK,,,,,,,,VFR,,,,,,,,,,,,METAR,230.0
GMTT 221500Z 31010KT 280V340 9999 SCT016 15/06 Q1026 NOSIG,GMTT,2018-03-22T15:00:00Z,35.72,-5.9,15.0,6.0,310,10,,6.21,30.295275,,,,,,TRUE,,,,,SCT,1600,,,,,,,VFR,,,,,,,,,,,,METAR,21.0
GMMX 221500Z VRB04KT CAVOK 18/M09 Q1025 NOSIG,GMMX,2018-03-22T15:00:00Z,31.62,-8.02,18.0,-9.0,0,4,,6.21,30.265747,,,,,,TRUE,,,,,CAVOK,,,,,,,,VFR,,,,,,,,,,,,METAR,466.0
GMMN 221500Z 36008KT 320V040 9999 SCT016 16/06 Q1027 NOSIG,GMMN,2018-03-22T15:00:00Z,33.37,-7.57,16.0,6.0,360,8,,6.21,30.324802,,,,,,TRUE,,,,,SCT,1600,,,,,,,VFR,,,,,,,,,,,,METAR,206.0
GMME 221500Z 27010KT 230V310 9999 SCT016 15/06 Q1027 NOSIG,GMME,2018-03-22T15:00:00Z,34.03,-6.77,15.0,6.0,270,10,,6.21,30.324802,,,,,,TRUE,,,,,SCT,1600,,,,,,,VFR,,,,,,,,,,,,METAR,75.0
GMAD 221500Z 21007KT 140V260 CAVOK 21/04 Q1021 NOSIG,GMAD,2018-03-22T15:00:00Z,30.32,-9.42,21.0,4.0,210,7,,6.21,30.147638,,,,,,TRUE,,,,,CAVOK,,,,,,,,VFR,,,,,,,,,,,,METAR,74.0
GMTN 221500Z 26017KT 9999 FEW023 18/04 Q1023 NOSIG,GMTN,2018-03-22T15:00:00Z,35.57,-5.32,18.0,4.0,260,17,,6.21,30.206694,,,,,,TRUE,,,,,FEW,2300,,,,,,,VFR,,,,,,,,,,,,METAR,10.0
GMTA 221500Z 30018KT CAVOK 18/00 Q1023 NOSIG,GMTA,2018-03-22T15:00:00Z,35.17,-3.85,18.0,0.0,300,18,,6.21,30.206694,,,,,,TRUE,,,,,CAVOK,,,,,,,,VFR,,,,,,,,,,,,METAR,14.0
GMMZ 221500Z 34021G33KT 19/M17 Q1020 NOSIG,GMMZ,2018-03-22T15:00:00Z,30.92,-6.9,19.0,-17.0,340,21,33,,30.11811,,,,,,TRUE,,,,,,,,,,,,,,,,,,,,,,,,,METAR,1140.0
GMMW 221500Z 31026G37KT 9999 SCT023 16/02 Q1022 NOSIG,GMMW,2018-03-22T15:00:00Z,34.98,-3.02,16.0,2.0,310,26,37,6.21,30.177166,,,,,,TRUE,,,,,SCT,2300,,,,,,,VFR,,,,,,,,,,,,METAR,175.0
GMML 221500Z 03024KT 6000 NSC 22/07 Q1024 TEMPO 3000 SA,GMML,2018-03-22T15:00:00Z,27.13,-13.23,22.0,7.0,30,24,,3.73,30.236221,,,,,,,,,,,CLR,,,,,,,,MVFR,,,,,,,,,,,,METAR,6.0
GMMI 221500Z AUTO 02015KT 360V060 9999NDV ////// 20/10 Q1024 NOSIG,GMMI,2018-03-22T15:00:00Z,31.4,-9.68,20.0,10.0,20,15,,,30.236221,,,TRUE,,,TRUE,,,,,,,,,,,,,,,,,,,,,,,,,METAR,8.0
GMMH 221500Z 02027KT 6000 NSC 21/12 Q1021 TEMPO 04030G40KT 3000 SA,GMMH,2018-03-22T15:00:00Z,23.72,-15.93,21.0,12.0,20,27,,3.73,30.147638,,,,,,,,,,,CLR,,,,,,,,MVFR,,,,,,,,,,,,METAR,11.0
GMMD 221500Z 28005KT 9999 FEW026 16/00 Q1026 NOSIG,GMMD,2018-03-22T15:00:00Z,32.4,-6.32,16.0,0.0,280,5,,6.21,30.295275,,,,,,TRUE,,,,,FEW,2600,,,,,,,VFR,,,,,,,,,,,,METAR,509.0
GMMB 221500Z 29006KT 220V010 9999 BKN016 16/06 Q1028 NOSIG,GMMB,2018-03-22T15:00:00Z,33.65,-7.22,16.0,6.0,290,6,,6.21,30.35433,,,,,,TRUE,,,,,BKN,1600,,,,,,,MVFR,,,,,,,,,,,,METAR,191.0
MGQZ 221500Z 05010KT CAVOK 16/05 QFE 776/2,MGQZ,2018-03-22T15:00:00Z,14.87,-91.5,16.0,5.0,50,10,,6.21,,,,,,,,,,,,CAVOK,,,,,,,,VFR,,,,,,,,,,,,METAR,2371.0
MGRT 221500Z 00000KT CAVOK 30/19 Q1017 A3003 VOL. STA. MARIA Y SANTIAGUITO EN ACTIVIDAD,MGRT,2018-03-22T15:00:00Z,14.53,-91.7,30.0,19.0,0,0,,6.21,30.029528,,,,,,,,,,SA,CAVOK,,,,,,,,VFR,,,,,,,,,,,,METAR,200.0
GCLP 221500Z 01026KT 9999 FEW030 20/10 Q1026 NOSIG,GCLP,2018-03-22T15:00:00Z,27.92,-15.37,20.0,10.0,10,26,,6.21,30.295275,,,,,,TRUE,,,,,FEW,3000,,,,,,,VFR,,,,,,,,,,,,METAR,25.0
GCLA 221500Z 02015KT 350V050 9999 SCT035 20/10 Q1029,GCLA,2018-03-22T15:00:00Z,28.62,-17.75,20.0,10.0,20,15,,6.21,30.383858,,,,,,,,,,,SCT,3500,,,,,,,VFR,,,,,,,,,,,,METAR,31.0
GCFV 221500Z 05020KT 9999 FEW030 20/12 Q1026,GCFV,2018-03-22T15:00:00Z,28.43,-13.87,20.0,12.0,50,20,,6.21,30.295275,,,,,,,,,,,FEW,3000,,,,,,,VFR,,,,,,,,,,,,METAR,23.0
GCHI 221500Z 03021KT 9999 FEW030 20/11 Q1027,GCHI,2018-03-22T15:00:00Z,27.82,-17.87,20.0,11.0,30,21,,6.21,30.324802,,,,,,,,,,,FEW,3000,,,,,,,VFR,,,,,,,,,,,,METAR,30.0
GCGM 221500Z 20005KT 150V260 9999 FEW030 19/10 Q1027 RMK R09/18005KT 120V240 ARP/18005KT 130V280,GCGM,2018-03-22T15:00:00Z,28.03,-17.22,19.0,10.0,200,5,,6.21,30.324802,,,,,,,,,,,FEW,3000,,,,,,,VFR,,,,,,,,,,,,METAR,219.0
OIZH 221500Z 03006KT CAVOK 23/M06 Q1016 A3000 NOSIG,OIZH,2018-03-22T15:00:00Z,29.47,60.92,23.0,-6.0,30,6,,6.21,30.0,,,,,,TRUE,,,,,CAVOK,,,,,,,,VFR,,,,,,,,,,,,METAR,1370.0
OITT 221500Z 30006KT 9999 FEW030CB SCT035 OVC170 14/M04 Q1016 A3003 NOSIG,OITT,2018-03-22T15:00:00Z,38.13,46.23,14.0,-4.0,300,6,,6.21,30.0,,,,,,TRUE,,,,,FEW,3000,SCT,3500,OVC,17000,,,VFR,,,,,,,,,,,,METAR,1361.0
OIKK 221500Z 05016KT 9999 FEW040 BKN200 21/M18 Q1016 A3002,OIKK,2018-03-22T15:00:00Z,30.25,56.97,21.0,-18.0,50,16,,6.21,30.0,,,,,,,,,,,FEW,4000,BKN,20000,,,,,VFR,,,,,,,,,,,,METAR,1754.0
OIKB 221500Z 21006KT CAVOK 26/19 Q1008 A2978,OIKB,2018-03-22T15:00:00Z,27.22,56.37,26.0,19.0,210,6,,6.21,29.763779,,,,,,,,,,,CAVOK,,,,,,,,VFR,,,,,,,,,,,,METAR,10.0
OIII 221500Z 27016KT 9999 FEW100 22/M10 Q1014 A2996,OIII,2018-03-22T15:00:00Z,35.68,51.3,22.0,-10.0,270,16,,6.21,29.940945,,,,,,,,,,,FEW,10000,,,,,,,VFR,,,,,,,,,,,,METAR,1191.0
OIZI 221500Z 29004KT CAVOK 29/M02 Q1010,OIZI,2018-03-22T15:00:00Z,27.23,60.72,29.0,-2.0,290,4,,6.21,29.822834,,,,,,,,,,,CAVOK,,,,,,,,VFR,,,,,,,,,,,,METAR,591.0
OIZB 221500Z 06006KT CAVOK 24/M02 Q1009,OIZB,2018-03-22T15:00:00Z,31.1,61.55,24.0,-2.0,60,6,,6.21,29.793306,,,,,,,,,,,CAVOK,,,,,,,,VFR,,,,,,,,,,,,METAR,489.0
OING 221500Z 00000KT CAVOK 16/13 Q1014,OING,2018-03-22T15:00:00Z,36.9,54.4,16.0,13.0,0,0,,6.21,29.940945,,,,,,,,,,,CAVOK,,,,,,,,VFR,,,,,,,,,,,,METAR,155.0
OIBS 221500Z 27010KT CAVOK 25/18 Q1009,OIBS,2018-03-22T15:00:00Z,25.9,54.55,25.0,18.0,270,10,,6.21,29.793306,,,,,,,,,,,CAVOK,,,,,,,,VFR,,,,,,,,,,,,METAR,14.0
OIBJ 221500Z 26006KT CAVOK 26/08 Q1013,OIBJ,2018-03-22T15:00:00Z,27.82,52.35,26.0,8.0,260,6,,6.21,29.911417,,,,,,,,,,,CAVOK,,,,,,,,VFR,,,,,,,,,,,,METAR,663.0
OITZ 221500Z 30002KT CAVOK 18/M04 Q1016,OITZ,2018-03-22T15:00:00Z,36.77,48.37,18.0,-4.0,300,2,,6.21,30.0,,,,,,,,,,,CAVOK,,,,,,,,VFR,,,,,,,,,,,,METAR,1663.0
OISY 221500Z 30006KT CAVOK 19/M19 Q1020,OISY,2018-03-22T15:00:00Z,30.7,51.55,19.0,-19.0,300,6,,6.21,30.11811,,,,,,,,,,,CAVOK,,,,,,,,VFR,,,,,,,,,,,,METAR,1811.0
OISL 221500Z 00000KT CAVOK 27/M02 Q1010,OISL,2018-03-22T15:00:00Z,27.67,54.37,27.0,-2.0,0,0,,6.21,29.822834,,,,,,,,,,,CAVOK,,,,,,,,VFR,,,,,,,,,,,,METAR,805.0
OINR 221500Z 12008KT CAVOK 15/11 Q1010,OINR,2018-03-22T15:00:00Z,36.88,50.67,15.0,11.0,120,8,,6.21,29.822834,,,,,,,,,,,CAVOK,,,,,,,,VFR,,,,,,,,,,,,METAR,-20.0
OINN 221500Z 06006KT CAVOK 13/11 Q1011,OINN,2018-03-22T15:00:00Z,36.67,51.47,13.0,11.0,60,6,,6.21,29.852362,,,,,,,,,,,CAVOK,,,,,,,,VFR,,,,,,,,,,,,METAR,-19.0
OIKQ 221500Z 26012KT 6000 NSC 24/19 Q1008,OIKQ,2018-03-22T15:00:00Z,26.75,55.9,24.0,19.0,260,12,,3.73,29.763779,,,,,,,,,,,CLR,,,,,,,,MVFR,,,,,,,,,,,,METAR,12.0
OICI 221500Z 26006KT CAVOK 20/M07 Q1019 A3011,OICI,2018-03-22T15:00:00Z,33.58,46.4,20.0,-7.0,260,6,,6.21,30.088583,,,,,,,,,,,CAVOK,,,,,,,,VFR,,,,,,,,,,,,METAR,1343.0
OIAM 221500Z 31012KT CAVOK 29/04 Q1010,OIAM,2018-03-22T15:00:00Z,30.55,49.15,29.0,4.0,310,12,,6.21,29.822834,,,,,,,,,,,CAVOK,,,,,,,,VFR,,,,,,,,,,,,METAR,4.0
OIZJ 221500Z 25004KT 6000 NSC 25/19 Q1008,OIZJ,2018-03-22T15:00:00Z,25.65,57.8,25.0,19.0,250,4,,3.73,29.763779,,,,,,,,,,,CLR,,,,,,,,MVFR,,,,,,,,,,,,METAR,4.0
OIMN 221500Z 24004KT CAVOK 13/04 Q1017,OIMN,2018-03-22T15:00:00Z,37.48,57.3,13.0,4.0,240,4,,6.21,30.029528,,,,,,,,,,,CAVOK,,,,,,,,VFR,,,,,,,,,,,,METAR,1074.0
OIMB 221500Z 31006KT 9999 FEW040 SCT200 19/M05 Q1016,OIMB,2018-03-22T15:00:00Z,32.9,59.28,19.0,-5.0,310,6,,6.21,30.0,,,,,,,,,,,FEW,4000,SCT,20000,,,,,VFR,,,,,,,,,,,,METAR,1491.0
OIIP 221500Z 27008KT CAVOK 19/M13 Q1014,OIIP,2018-03-22T15:00:00Z,35.78,50.83,19.0,-13.0,270,8,,6.21,29.940945,,,,,,,,,,,CAVOK,,,,,,,,VFR,,,,,,,,,,,,METAR,1271.0
OIFS 221500Z 25012KT CAVOK 15/M15 Q1019,OIFS,2018-03-22T15:00:00Z,32.32,50.85,15.0,-15.0,250,12,,6.21,30.088583,,,,,,,,,,,CAVOK,,,,,,,,VFR,,,,,,,,,,,,METAR,2078.0
OIBA 221500Z 29006KT CAVOK 23/16 Q1009,OIBA,2018-03-22T15:00:00Z,25.88,55.03,23.0,16.0,290,6,,6.21,29.793306,,,,,,,,,,,CAVOK,,,,,,,,VFR,,,,,,,,,,,,METAR,7.0
OITM 221500Z 24006KT CAVOK 18/M05 Q1015,OITM,2018-03-22T15:00:00Z,37.35,46.15,18.0,-5.0,240,6,,6.21,29.970472,,,,,,,,,,,CAVOK,,,,,,,,VFR,,,,,,,,,,,,METAR,1340.0
OINE 221500Z 00000KT CAVOK 17/13 Q1012,OINE,2018-03-22T15:00:00Z,37.38,55.45,17.0,13.0,0,0,,6.21,29.88189,,,,,,,,,,,CAVOK,,,,,,,,VFR,,,,,,,,,,,,METAR,130.0
OIMQ 221500Z AUTO 25004KT //// // ////// 22/01 Q1014,OIMQ,2018-03-22T15:00:00Z,35.23,58.47,22.0,1.0,250,4,,,29.940945,,,TRUE,,,,,,,,,,,,,,,,,,,,,,,,,,,,METAR,1140.0
OIMD 221500Z AUTO 12014KT //// // ////// 21/05 Q1012,OIMD,2018-03-22T15:00:00Z,34.38,58.63,21.0,5.0,120,14,,,29.88189,,,TRUE,,,,,,,,,,,,,,,,,,,,,,,,,,,,METAR,1100.0
OIMC 221500Z AUTO 07002KT //// // ////// 18/09 Q1018,OIMC,2018-03-22T15:00:00Z,36.5,61.07,18.0,9.0,70,2,,,30.059055,,,TRUE,,,,,,,,,,,,,,,,,,,,,,,,,,,,METAR,288.0
OIIK 221500Z 22002KT CAVOK 19/M06 Q1014,OIIK,2018-03-22T15:00:00Z,36.25,50.05,19.0,-6.0,220,2,,6.21,29.940945,,,,,,,,,,,CAVOK,,,,,,,,VFR,,,,,,,,,,,,METAR,1278.0
OIBQ 221500Z 31012KT CAVOK 25/15 Q1010,OIBQ,2018-03-22T15:00:00Z,29.27,50.32,25.0,15.0,310,12,,6.21,29.822834,,,,,,,,,,,CAVOK,,,,,,,,VFR,,,,,,,,,,,,METAR,6.0
OIBL 221500Z 27008KT 8000 NSC 24/19 Q1009,OIBL,2018-03-22T15:00:00Z,26.53,54.82,24.0,19.0,270,8,,4.97,29.793306,,,,,,,,,,,CLR,,,,,,,,MVFR,,,,,,,,,,,,METAR,14.0
OIYY 221500Z 31002KT 9999 FEW100 BKN200 24/M09 Q1015,OIYY,2018-03-22T15:00:00Z,31.9,54.28,24.0,-9.0,310,2,,6.21,29.970472,,,,,,,,,,,FEW,10000,BKN,20000,,,,,VFR,,,,,,,,,,,,METAR,1236.0
OITR 221500Z 36004KT 9999 FEW035CB BKN040 SCT180 15/M02 Q1015 NOSIG,OITR,2018-03-22T15:00:00Z,37.67,45.07,15.0,-2.0,360,4,,6.21,29.970472,,,,,,TRUE,,,,,FEW,3500,BKN,4000,SCT,18000,,,VFR,,,,,,,,,,,,METAR,1312.0
OINZ 221500Z 06010KT CAVOK 17/14 Q1012,OINZ,2018-03-22T15:00:00Z,36.63,53.2,17.0,14.0,60,10,,6.21,29.88189,,,,,,,,,,,CAVOK,,,,,,,,VFR,,,,,,,,,,,,METAR,11.0
OIIE 221500Z 32010KT CAVOK 22/M11 Q1013,OIIE,2018-03-22T15:00:00Z,35.42,51.15,22.0,-11.0,320,10,,6.21,29.911417,,,,,,,,,,,CAVOK,,,,,,,,VFR,,,,,,,,,,,,METAR,1008.0
OIGG 221500Z 06004KT CAVOK 15/11 Q1011,OIGG,2018-03-22T15:00:00Z,37.33,49.6,15.0,11.0,60,4,,6.21,29.852362,,,,,,,,,,,CAVOK,,,,,,,,VFR,,,,,,,,,,,,METAR,-13.0
OICC 221500Z 31006KT CAVOK 20/M19 Q1017 A3006 NOSIG,OICC,2018-03-22T15:00:00Z,34.35,47.17,20.0,-19.0,310,6,,6.21,30.029528,,,,,,TRUE,,,,,CAVOK,,,,,,,,VFR,,,,,,,,,,,,METAR,1322.0
OIBK 221500Z 28004KT 3000 BR NSC 23/21 Q1009,OIBK,2018-03-22T15:00:00Z,26.53,53.98,23.0,21.0,280,4,,1.86,29.793306,,,,,,,,,,BR,CLR,,,,,,,,IFR,,,,,,,,,,,,METAR,30.0
OIAA 221500Z 28008KT CAVOK 30/01 Q1011,OIAA,2018-03-22T15:00:00Z,30.37,48.25,30.0,1.0,280,8,,6.21,29.852362,,,,,,,,,,,CAVOK,,,,,,,,VFR,,,,,,,,,,,,METAR,11.0
OIBP 221500Z 30004KT 8000 NSC 24/19 Q1007 A2975,OIBP,2018-03-22T15:00:00Z,27.38,52.73,24.0,19.0,300,4,,4.97,29.734253,,,,,,,,,,,CLR,,,,,,,,MVFR,,,,,,,,,,,,METAR,9.0
OIBB 221500Z 31014KT CAVOK 24/15 Q1010 A2983,OIBB,2018-03-22T15:00:00Z,28.97,50.82,24.0,15.0,310,14,,6.21,29.822834,,,,,,,,,,,CAVOK,,,,,,,,VFR,,,,,,,,,,,,METAR,19.0
OISR 221500Z 00000KT CAVOK 27/05 Q1010,OISR,2018-03-22T15:00:00Z,27.37,53.2,27.0,5.0,0,0,,6.21,29.822834,,,,,,,,,,,CAVOK,,,,,,,,VFR,,,,,,,,,,,,METAR,408.0
OISF 221500Z 19006KT CAVOK 22/M05 Q1012,OISF,2018-03-22T15:00:00Z,28.9,53.72,22.0,-5.0,190,6,,6.21,29.88189,,,,,,,,,,,CAVOK,,,,,,,,VFR,,,,,,,,,,,,METAR,1383.0
OIAH 221500Z 30010KT CAVOK 26/M00 Q1014,OIAH,2018-03-22T15:00:00Z,30.33,50.83,26.0,0.0,300,10,,6.21,29.940945,,,,,,,,,,,CAVOK,,,,,,,,VFR,,,,,,,,,,,,METAR,738.0
SBJP 221500Z 06009KT 9999 BKN030 31/22 Q1013,SBJP,2018-03-22T15:00:00Z,-7.15,-34.95,31.0,22.0,60,9,,6.21,29.911417,,,,,,,,,,,BKN,3000,,,,,,,MVFR,,,,,,,,,,,,METAR,66.0
FMCZ 221500Z 18004KT 150V210 9999 FEW022 29/24 Q1010 NOSIG,FMCZ,2018-03-22T15:00:00Z,-12.8,45.27,29.0,24.0,180,4,,6.21,29.822834,,,,,,TRUE,,,,,FEW,2200,,,,,,,VFR,,,,,,,,,,,,METAR,7.0
SBCT 221500Z 08006KT 9999 OVC013 20/16 Q1018,SBCT,2018-03-22T15:00:00Z,-25.52,-49.17,20.0,16.0,80,6,,6.21,30.059055,,,,,,,,,,,OVC,1300,,,,,,,MVFR,,,,,,,,,,,,METAR,908.0
OIMM 221500Z 14008KT 9999 -SHRA FEW030CB SCT035 13/08 Q1019 A3010,OIMM,2018-03-22T15:00:00Z,36.23,59.62,13.0,8.0,140,8,,6.21,30.088583,,,,,,,,,,-SHRA,FEW,3000,SCT,3500,,,,,VFR,,,,,,,,,,,,METAR,980.0
OIFM 221500Z 00000KT CAVOK 21/M12 Q1016 A3001,OIFM,2018-03-22T15:00:00Z,32.75,51.87,21.0,-12.0,0,0,,6.21,30.0,,,,,,,,,,,CAVOK,,,,,,,,VFR,,,,,,,,,,,,METAR,1542.0
MGTU 221500Z 09004KT CAVOK 29/23,MGTU,2018-03-22T15:00:00Z,,,29.0,23.0,90,4,,6.21,,,,,,,,,,,,CAVOK,,,,,,,,VFR,,,,,,,,,,,,METAR,
MGMT 221500Z 05012KT CAVOK 32/17 QFE 1012.4,MGMT,2018-03-22T15:00:00Z,,,32.0,17.0,50,12,,6.21,,,,,,,,,,,,CAVOK,,,,,,,,VFR,,,,,,,,,,,,METAR,
MGES 221500Z 03004KT 9999 OVC015 19/16 QFE 913.6 PCPN SMC. N,MGES,2018-03-22T15:00:00Z,14.57,-89.32,19.0,16.0,30,4,,6.21,,,,,,,,,,,,OVC,1500,,,,,,,MVFR,,,,,,,,,,,,METAR,965.0
MGZA 221500Z 00000KT 9999 FEW028 BKN200 28/17 QFE 993/1,MGZA,2018-03-22T15:00:00Z,14.97,-89.52,28.0,17.0,0,0,,6.21,,,,,,,,,,,,FEW,2800,BKN,20000,,,,,VFR,,,,,,,,,,,,METAR,490.0
MGCB 221500Z 11004KT 8000 SCT016 20/16 QFE 875.5 HZ,MGCB,2018-03-22T15:00:00Z,15.48,-90.42,20.0,16.0,110,4,,4.97,,,,,,,,,,,HZ,SCT,1600,,,,,,,MVFR,,,,,,,,,,,,METAR,1316.0
LESA 221500Z VRB02KT CAVOK 08/M02 Q1023,LESA,2018-03-22T15:00:00Z,40.95,-5.5,8.0,-2.0,0,2,,6.21,30.206694,,,,,,,,,,,CAVOK,,,,,,,,VFR,,,,,,,,,,,,METAR,795.0
GCXO 221500Z 35009KT 300V050 9999 FEW022 16/09 Q1028 NOSIG,GCXO,2018-03-22T15:00:00Z,28.48,-16.35,16.0,9.0,350,9,,6.21,30.35433,,,,,,TRUE,,,,,FEW,2200,,,,,,,VFR,,,,,,,,,,,,METAR,632.0
GCTS 221500Z 06023G35KT 030V100 9999 FEW040 21/09 Q1026 NOSIG,GCTS,2018-03-22T15:00:00Z,28.05,-16.57,21.0,9.0,60,23,35,6.21,30.295275,,,,,,TRUE,,,,,FEW,4000,,,,,,,VFR,,,,,,,,,,,,METAR,72.0
GCRR 221500Z 01021KT 9999 FEW035 20/09 Q1026,GCRR,2018-03-22T15:00:00Z,28.93,-13.58,20.0,9.0,10,21,,6.21,30.295275,,,,,,,,,,,FEW,3500,,,,,,,VFR,,,,,,,,,,,,METAR,40.0
CXKE 221500Z AUTO 31006KT M01/M10 RMK AO1 SOG 10 1007 SLP167 T10121096,CXKE,2018-03-22T15:00:00Z,45.0,-75.63,-1.2,-9.6,310,6,,,,1016.7,,TRUE,TRUE,,,,,,,,,,,,,,,,,,,,,,,,,,,METAR,99.0
CWWB 221500Z AUTO M00/M10 RMK AO1 SLP209 T10041102 52010,CWWB,2018-03-22T15:00:00Z,43.3,-79.78,-0.4,-10.2,,,,,,1020.9,,TRUE,TRUE,,,,,,,,,,,,,,,,1.0,,,,,,,,,,,METAR,76.0
CWDV 221500Z AUTO 31003KT M03/M17 RMK AO1 SOG 45 1009 SLP297 T10261169,CWDV,2018-03-22T15:00:00Z,49.02,-90.47,-2.6,-16.9,310,3,,,,1029.7,,TRUE,TRUE,,,,,,,,,,,,,,,,,,,,,,,,,,,METAR,489.0
CWNZ 221500Z AUTO 01005KT M09/M19 RMK AO1 SOG 71 2004 SLP298 T10851188,CWNZ,2018-03-22T15:00:00Z,49.75,-84.17,-8.5,-18.8,10,5,,,,1029.8,,TRUE,TRUE,,,,,,,,,,,,,,,,,,,,,,,,,,,METAR,256.0
CWNC 221500Z AUTO 35009KT 01/M10 RMK AO1 SOG 01 1010 SLP178 T00121095,CWNC,2018-03-22T15:00:00Z,43.95,-78.17,1.2,-9.5,350,9,,,,1017.8,,TRUE,TRUE,,,,,,,,,,,,,,,,,,,,,,,,,,,METAR,78.0
CWPC 221500Z AUTO 34011KT M01/M09 RMK AO1 SLP203 T10121093 52011,CWPC,2018-03-22T15:00:00Z,42.87,-79.25,-1.2,-9.3,340,11,,,,1020.3,,TRUE,TRUE,,,,,,,,,,,,,,,,1.1,,,,,,,,,,,METAR,184.0
CWLS 221500Z AUTO 34009G15KT M03/M08 RMK AO1 PK WND 01018/1416 SLP219 T10331078 51010,CWLS,2018-03-22T15:00:00Z,43.97,-80.75,-3.3,-7.8,340,9,15,,,1021.9,,TRUE,TRUE,,,,,,,,,,,,,,,,1.0,,,,,,,,,,,METAR,415.0
CWBE 221500Z AUTO 36005KT M03/M13 RMK AO1 SLP254 T10291130 51003,CWBE,2018-03-22T15:00:00Z,45.98,-81.48,-2.9,-13.0,360,5,,,,1025.4,,TRUE,TRUE,,,,,,,,,,,,,,,,0.3,,,,,,,,,,,METAR,196.0
CTCK 221500Z AUTO 31005KT M00/M09 RMK AO1 SOG 19 1005 SLP162 T10021088,CTCK,2018-03-22T15:00:00Z,45.25,-74.97,-0.2,-8.8,310,5,,,,1016.2,,TRUE,TRUE,,,,,,,,,,,,,,,,,,,,,,,,,,,METAR,85.0
CWWZ 221500Z AUTO 31016KT 02/M05 RMK AO1 PK WND 32019/1449 SLP205 T00161054 53011,CWWZ,2018-03-22T15:00:00Z,43.25,-79.22,1.6,-5.4,310,16,,,,1020.5,,TRUE,TRUE,,,,,,,,,,,,,,,,1.1,,,,,,,,,,,METAR,79.0
CWPO 221500Z AUTO 06005KT M01/M03 RMK AO1 SOG 07 1019 SLP305 T10071029,CWPO,2018-03-22T15:00:00Z,49.2,-98.9,-0.7,-2.9,60,5,,,,1030.5,,TRUE,TRUE,,,,,,,,,,,,,,,,,,,,,,,,,,,METAR,470.0
CAHR 221500Z AUTO 04021G33KT M01/M03 RMK AO1 PRESFR SOG 11 8049 PK WND 04033/1450 SLP049 T10101029,CAHR,2018-03-22T15:00:00Z,46.35,-63.17,-1.0,-2.9,40,21,33,,,1004.9,,TRUE,TRUE,,,,,,,,,,,,,,,,,,,,,,,,,,,METAR,53.0
CWEP 221500Z AUTO 04021KT M00/M02 RMK AO1 SOG 02 6041 PK WND 04028/1414 SLP067 T10031024,CWEP,2018-03-22T15:00:00Z,46.45,-61.97,-0.3,-2.4,40,21,,,,1006.7,,TRUE,TRUE,,,,,,,,,,,,,,,,,,,,,,,,,,,METAR,11.0
CWSS 221500Z AUTO 01012G19KT 01/M04 RMK AO1 SOG 26 8030 PK WND 02028/1433 SLP051 T00051039 50004,CWSS,2018-03-22T15:00:00Z,45.2,-67.25,0.5,-3.9,10,12,19,,,1005.1,,TRUE,TRUE,,,,,,,,,,,,,,,,0.4,,,,,,,,,,,METAR,26.0
CWRN 221500Z AUTO 07026G35KT 01/M00 RMK AO1 PK WND 07040/1431 SLP020 T00051003 56052,CWRN,2018-03-22T15:00:00Z,45.35,-60.98,0.5,-0.3,70,26,35,,,1002.0,,TRUE,TRUE,,,,,,,,,,,,,,,,-5.2,,,,,,,,,,,METAR,8.0
CWHO 221500Z AUTO 14006G18KT M07/M10 RMK AO1 PK WND 15018/1443 SLP272 T10681103 50004,CWHO,2018-03-22T15:00:00Z,55.45,-60.22,-6.8,-10.3,140,6,18,,,1027.2,,TRUE,TRUE,,,,,,,,,,,,,,,,0.4,,,,,,,,,,,METAR,8.0
CWWE 221500Z AUTO 02009G18KT M00/M00 RMK AO1 0PAST HR 8031 PK WND 04018/1418 SLP960 P0023 T10011001 50112,CWWE,2018-03-22T15:00:00Z,43.97,-64.67,-0.1,-0.1,20,9,18,,,996.0,,TRUE,TRUE,,,,,,,,,,,,,,,,0.0,,,,,0.23,,,,,,METAR,9.0
CWPK 221500Z AUTO 04004KT M01/M11 RMK AO1 SOG 59 8001 SLP182 T10121106,CWPK,2018-03-22T15:00:00Z,47.92,-74.62,-1.2,-10.6,40,4,,,,1018.2,,TRUE,TRUE,,,,,,,,,,,,,,,,,,,,,,,,,,,METAR,442.0
CWNH 221500Z AUTO 01016G25KT M02/M05 RMK AO1 SOG 53 8007 PK WND 00025/1454 SLP165 T10201047,CWNH,2018-03-22T15:00:00Z,47.78,-69.53,-2.0,-4.7,10,16,25,,,1016.5,,TRUE,TRUE,,,,,,,,,,,,,,,,,,,,,,,,,,,METAR,148.0
CWER 221500Z AUTO 05025G31KT RMK AO1 PK WND 05031/1449,CWER,2018-03-22T15:00:00Z,47.0,-70.82,,,50,25,31,,,,,TRUE,TRUE,,,,,,,,,,,,,,,,,,,,,,,,,,,METAR,5.0
CWBY 221500Z AUTO 07017G25KT M00/M05 RMK AO1 SOG 77 8002 PK WND 07026/1428 SLP201 T10021052,CWBY,2018-03-22T15:00:00Z,49.82,-64.28,-0.2,-5.2,70,17,25,,,1020.1,,TRUE,TRUE,,,,,,,,,,,,,,,,,,,,,,,,,,,METAR,53.0
CWSF 221500Z AUTO 08010KT M01/M04 RMK AO1 SOG 31 8001 PK WND 06017/1400 SLP197 T10071040,CWSF,2018-03-22T15:00:00Z,49.25,-65.32,-0.7,-4.0,80,10,,,,1019.7,,TRUE,TRUE,,,,,,,,,,,,,,,,,,,,,,,,,,,METAR,29.0
CWRA 221500Z AUTO 05030G39KT RMK AO1 7PAST HR 1014 PK WND 04041/1430 P0003 50007,CWRA,2018-03-22T15:00:00Z,46.63,-53.07,,,50,30,39,,,,,TRUE,TRUE,,,,,,,,,,,,,,,,0.7,,,,,0.03,,,,,,METAR,28.0
CWLB 221500Z AUTO 09008KT M04/M07 RMK AO1 SOG 13 1002 SLP260 T10431068,CWLB,2018-03-22T15:00:00Z,54.77,-112.02,-4.3,-6.8,90,8,,,,1026.0,,TRUE,TRUE,,,,,,,,,,,,,,,,,,,,,,,,,,,METAR,567.0
CWCT 221500Z AUTO 08008KT M07/M08 RMK AO1 SOG 16 3003 SLP221 T10681075,CWCT,2018-03-22T15:00:00Z,52.07,-111.47,-6.8,-7.5,80,8,,,,1022.1,,TRUE,TRUE,,,,,,,,,,,,,,,,,,,,,,,,,,,METAR,791.0
CWEH 221500Z AUTO 07011KT M03/M04 RMK AO1 SOG 84 4000 SLP194 T10331037,CWEH,2018-03-22T15:00:00Z,49.42,-108.97,-3.3,-3.7,70,11,,,,1019.4,,TRUE,TRUE,,,,,,,,,,,,,,,,,,,,,,,,,,,METAR,1078.0
CWKO 221500Z AUTO 10006KT M04/M05 RMK AO1 SOG 11 3005 SLP228 T10391046,CWKO,2018-03-22T15:00:00Z,49.17,-105.97,-3.9,-4.6,100,6,,,,1022.8,,TRUE,TRUE,,,,,,,,,,,,,,,,,,,,,,,,,,,METAR,917.0
LRSV 221500Z 13005KT CAVOK M02/M09 Q1016 R16/21//95,LRSV,2018-03-22T15:00:00Z,47.68,26.35,-2.0,-9.0,130,5,,6.21,30.0,,,,,,,,,,,CAVOK,,,,,,,,VFR,,,,,,,,,,,,METAR,351.0
LRTC 221500Z 03008KT CAVOK M01/M05 Q1020 R16/899391,LRTC,2018-03-22T15:00:00Z,45.07,28.72,-1.0,-5.0,30,8,,6.21,30.11811,,,,,,,,,,,CAVOK,,,,,,,,VFR,,,,,,,,,,,,METAR,6.0
LRIA 221500Z 14004KT CAVOK M01/M11 Q1019,LRIA,2018-03-22T15:00:00Z,47.17,27.62,-1.0,-11.0,140,4,,6.21,30.088583,,,,,,,,,,,CAVOK,,,,,,,,VFR,,,,,,,,,,,,METAR,104.0
LRCV 221500Z 07012KT 1000 R09/1400VP2000D SN BR VV006 M03/M04 Q1017 R09/29//95,LRCV,2018-03-22T15:00:00Z,44.32,23.88,-3.0,-4.0,70,12,,0.62,30.029528,,,,,,,,,,SN BR,OVX,0,,,,,,,LIFR,,,,,,,,,,,600,METAR,191.0
LRBC 221500Z 22004KT CAVOK 01/M06 Q1019,LRBC,2018-03-22T15:00:00Z,46.52,26.92,1.0,-6.0,220,4,,6.21,30.088583,,,,,,,,,,,CAVOK,,,,,,,,VFR,,,,,,,,,,,,METAR,185.0
LRTM 221500Z 14004KT 090V190 9999 BKN030 02/M03 Q1015,LRTM,2018-03-22T15:00:00Z,46.47,24.42,2.0,-3.0,140,4,,6.21,29.970472,,,,,,,,,,,BKN,3000,,,,,,,MVFR,,,,,,,,,,,,METAR,309.0
LRSM 221500Z VRB01KT CAVOK 03/M05 Q1016,LRSM,2018-03-22T15:00:00Z,47.7,22.88,3.0,-5.0,0,1,,6.21,30.0,,,,,,,,,,,CAVOK,,,,,,,,VFR,,,,,,,,,,,,METAR,124.0
LROD 221500Z 02006KT CAVOK 03/M08 Q1016,LROD,2018-03-22T15:00:00Z,47.03,21.92,3.0,-8.0,20,6,,6.21,30.0,,,,,,,,,,,CAVOK,,,,,,,,VFR,,,,,,,,,,,,METAR,140.0
LRCL 221500Z 14006KT 110V170 9999 SCT025 01/M05 Q1016,LRCL,2018-03-22T15:00:00Z,46.78,23.68,1.0,-5.0,140,6,,6.21,30.0,,,,,,,,,,,SCT,2500,,,,,,,VFR,,,,,,,,,,,,METAR,413.0
LRBM 221500Z KT CAVOK Q1016,LRBM,2018-03-22T15:00:00Z,47.67,23.47,,,,,,6.21,30.0,,,,,,,,,,,CAVOK,,,,,,,,VFR,,,,,,,,,,,,METAR,185.0
LRAR 221500Z 06005KT CAVOK 02/M06 Q1015,LRAR,2018-03-22T15:00:00Z,46.18,21.27,2.0,-6.0,60,5,,6.21,29.970472,,,,,,,,,,,CAVOK,,,,,,,,VFR,,,,,,,,,,,,METAR,118.0
LPPT 221500Z 31009KT 280V340 9999 FEW034 14/06 Q1026,LPPT,2018-03-22T15:00:00Z,38.77,-9.12,14.0,6.0,310,9,,6.21,30.295275,,,,,,,,,,,FEW,3400,,,,,,,VFR,,,,,,,,,,,,METAR,123.0
LPPS 221500Z 36009KT 340V040 9999 FEW015 SCT033 16/08 Q1031,LPPS,2018-03-22T15:00:00Z,33.07,-16.35,16.0,8.0,360,9,,6.21,30.442913,,,,,,,,,,,FEW,1500,SCT,3300,,,,,VFR,,,,,,,,,,,,METAR,82.0
LPPR 221500Z 28006KT 210V320 9999 FEW020 12/07 Q1026,LPPR,2018-03-22T15:00:00Z,41.22,-8.67,12.0,7.0,280,6,,6.21,30.295275,,,,,,,,,,,FEW,2000,,,,,,,VFR,,,,,,,,,,,,METAR,73.0
LPMA 221500Z 03017G27KT 9999 FEW016 17/09 Q1031,LPMA,2018-03-22T15:00:00Z,32.7,-16.77,17.0,9.0,30,17,27,6.21,30.442913,,,,,,,,,,,FEW,1600,,,,,,,VFR,,,,,,,,,,,,METAR,55.0
LPFR 221500Z 25017KT CAVOK 16/10 Q1025,LPFR,2018-03-22T15:00:00Z,37.02,-7.97,16.0,10.0,250,17,,6.21,30.265747,,,,,,,,,,,CAVOK,,,,,,,,VFR,,,,,,,,,,,,METAR,4.0
LFML 221500Z AUTO 32029KT CAVOK 12/M05 Q1010,LFML,2018-03-22T15:00:00Z,43.45,5.22,12.0,-5.0,320,29,,6.21,29.822834,,,TRUE,,,,,,,,CAVOK,,,,,,,,VFR,,,,,,,,,,,,METAR,36.0
LFLB 221500Z AUTO 35006KT CAVOK 11/M07 Q1016 NOSIG,LFLB,2018-03-22T15:00:00Z,45.63,5.87,11.0,-7.0,350,6,,6.21,30.0,,,TRUE,,,TRUE,,,,,CAVOK,,,,,,,,VFR,,,,,,,,,,,,METAR,239.0
LFKB 221500Z AUTO 32012KT 280V010 CAVOK 11/M02 Q1007 TEMPO 36015G25KT,LFKB,2018-03-22T15:00:00Z,42.53,9.47,11.0,-2.0,320,12,,6.21,29.734253,,,TRUE,,,,,,,,CAVOK,,,,,,,,VFR,,,,,,,,,,,,METAR,12.0
LFBZ 221500Z AUTO 32008KT 270V010 CAVOK 09/01 Q1024 NOSIG,LFBZ,2018-03-22T15:00:00Z,43.47,-1.52,9.0,1.0,320,8,,6.21,30.236221,,,TRUE,,,TRUE,,,,,CAVOK,,,,,,,,VFR,,,,,,,,,,,,METAR,71.0
LFBT 221500Z AUTO 30009KT 240V340 CAVOK 09/M02 Q1022 NOSIG,LFBT,2018-03-22T15:00:00Z,43.17,0.0,9.0,-2.0,300,9,,6.21,30.177166,,,TRUE,,,TRUE,,,,,CAVOK,,,,,,,,VFR,,,,,,,,,,,,METAR,363.0
LFBP 221500Z AUTO 33006KT 260V020 CAVOK 10/M01 Q1023 NOSIG,LFBP,2018-03-22T15:00:00Z,43.37,-0.42,10.0,-1.0,330,6,,6.21,30.206694,,,TRUE,,,TRUE,,,,,CAVOK,,,,,,,,VFR,,,,,,,,,,,,METAR,185.0
LFBO 221500Z AUTO 29015KT 250V320 CAVOK 10/M03 Q1021,LFBO,2018-03-22T15:00:00Z,43.62,1.37,10.0,-3.0,290,15,,6.21,30.147638,,,TRUE,,,,,,,,CAVOK,,,,,,,,VFR,,,,,,,,,,,,METAR,153.0
LFBL 221500Z AUTO 33009KT 290V020 9999 BKN037 07/M03 Q1021,LFBL,2018-03-22T15:00:00Z,45.87,1.17,7.0,-3.0,330,9,,6.21,30.147638,,,TRUE,,,,,,,,BKN,3700,,,,,,,VFR,,,,,,,,,,,,METAR,402.0
LFBI 221500Z AUTO 33010KT 9999 BKN036 07/M01 Q1022,LFBI,2018-03-22T15:00:00Z,46.57,0.32,7.0,-1.0,330,10,,6.21,30.177166,,,TRUE,,,,,,,,BKN,3600,,,,,,,VFR,,,,,,,,,,,,METAR,120.0
LFSB 221500Z AUTO 25009KT 9999 FEW012/// SCT030/// BKN046/// 03/00 Q1018,LFSB,2018-03-22T15:00:00Z,47.6,7.52,3.0,0.0,250,9,,6.21,30.059055,,,TRUE,,,,,,,,FEW,1200,SCT,3000,BKN,4600,,,VFR,,,,,,,,,,,,METAR,271.0
LFRN 221500Z AUTO 29006KT 240V310 9999 OVC035 08/01 Q1022,LFRN,2018-03-22T15:00:00Z,48.07,-1.72,8.0,1.0,290,6,,6.21,30.177166,,,TRUE,,,,,,,,OVC,3500,,,,,,,VFR,,,,,,,,,,,,METAR,37.0
LFRD 221500Z AUTO 24006KT 210V270 9999 OVC035 08/01 Q1022,LFRD,2018-03-22T15:00:00Z,48.58,-2.07,8.0,1.0,240,6,,6.21,30.177166,,,TRUE,,,,,,,,OVC,3500,,,,,,,VFR,,,,,,,,,,,,METAR,59.0
LFPB 221500Z AUTO 29012KT 260V320 9999 OVC023 08/04 Q1019,LFPB,2018-03-22T15:00:00Z,48.97,2.45,8.0,4.0,290,12,,6.21,30.088583,,,TRUE,,,,,,,,OVC,2300,,,,,,,MVFR,,,,,,,,,,,,METAR,65.0
LFOK 221500Z AUTO 28012KT 9999 OVC011 06/04 Q1018,LFOK,2018-03-22T15:00:00Z,48.78,4.18,6.0,4.0,280,12,,6.21,30.059055,,,TRUE,,,,,,,,OVC,1100,,,,,,,MVFR,,,,,,,,,,,,METAR,162.0
LFOB 221500Z AUTO 29013KT 9999 OVC021 08/04 Q1019,LFOB,2018-03-22T15:00:00Z,49.47,2.12,8.0,4.0,290,13,,6.21,30.088583,,,TRUE,,,,,,,,OVC,2100,,,,,,,MVFR,,,,,,,,,,,,METAR,111.0
LFMU 221500Z AUTO 33020KT CAVOK 13/M06 Q1015,LFMU,2018-03-22T15:00:00Z,43.32,3.35,13.0,-6.0,330,20,,6.21,29.970472,,,TRUE,,,,,,,,CAVOK,,,,,,,,VFR,,,,,,,,,,,,METAR,17.0
LFMT 221500Z AUTO 36014KT 320V020 CAVOK 16/M07 Q1013,LFMT,2018-03-22T15:00:00Z,43.57,3.97,16.0,-7.0,360,14,,6.21,29.911417,,,TRUE,,,,,,,,CAVOK,,,,,,,,VFR,,,,,,,,,,,,METAR,6.0
LFMK 221500Z AUTO 30023KT CAVOK 10/M04 Q1019,LFMK,2018-03-22T15:00:00Z,43.22,2.32,10.0,-4.0,300,23,,6.21,30.088583,,,TRUE,,,,,,,,CAVOK,,,,,,,,VFR,,,,,,,,,,,,METAR,130.0
LFLY 221500Z AUTO 34018KT 320V020 CAVOK 09/M04 Q1018 NOSIG,LFLY,2018-03-22T15:00:00Z,45.72,4.95,9.0,-4.0,340,18,,6.21,30.059055,,,TRUE,,,TRUE,,,,,CAVOK,,,,,,,,VFR,,,,,,,,,,,,METAR,201.0
LFSN 221500Z AUTO 24007KT 200V270 9999 -RA OVC009 03/01 Q1017,LFSN,2018-03-22T15:00:00Z,48.67,6.22,3.0,1.0,240,7,,6.21,30.029528,,,TRUE,,,,,,,-RA,OVC,900,,,,,,,IFR,,,,,,,,,,,,METAR,217.0
LFQB 221500Z AUTO 27011KT 9999 BKN018 06/04 Q1019,LFQB,2018-03-22T15:00:00Z,48.32,4.02,6.0,4.0,270,11,,6.21,30.088583,,,TRUE,,,,,,,,BKN,1800,,,,,,,MVFR,,,,,,,,,,,,METAR,118.0
LFQA 221500Z AUTO 28007KT 3200 -DZ BR OVC005 07/06 Q1017,LFQA,2018-03-22T15:00:00Z,49.2,4.15,7.0,6.0,280,7,,1.99,30.029528,,,TRUE,,,,,,,-DZ BR,OVC,500,,,,,,,IFR,,,,,,,,,,,,METAR,95.0
LFOP 221500Z AUTO 30010KT 270V330 9999 OVC019 07/// Q1020,LFOP,2018-03-22T15:00:00Z,49.37,1.17,,,300,10,,6.21,30.11811,,,TRUE,,,,,,,,OVC,1900,,,,,,,MVFR,,,,,,,,,,,,METAR,157.0
LFOH 221500Z AUTO 25009KT 9999 OVC032 07/03 Q1020,LFOH,2018-03-22T15:00:00Z,49.52,0.07,7.0,3.0,250,9,,6.21,30.11811,,,TRUE,,,,,,,,OVC,3200,,,,,,,VFR,,,,,,,,,,,,METAR,103.0
LFLX 221500Z AUTO 32010KT 9999 OVC035 07/M00 Q1021 NOSIG,LFLX,2018-03-22T15:00:00Z,46.85,1.72,7.0,0.0,320,10,,6.21,30.147638,,,TRUE,,,TRUE,,,,,OVC,3500,,,,,,,VFR,,,,,,,,,,,,METAR,157.0
LFLU 221500Z AUTO 36025KT CAVOK 10/M04 Q1015,LFLU,2018-03-22T15:00:00Z,44.92,4.98,10.0,-4.0,360,25,,6.21,29.970472,,,TRUE,,,,,,,,CAVOK,,,,,,,,VFR,,,,,,,,,,,,METAR,160.0
LFLP 221500Z AUTO 34008KT 290V030 CAVOK 09/M08 Q1015 NOSIG,LFLP,2018-03-22T15:00:00Z,45.92,6.08,9.0,-8.0,340,8,,6.21,29.970472,,,TRUE,,,TRUE,,,,,CAVOK,,,,,,,,VFR,,,,,,,,,,,,METAR,463.0
LFCK 221500Z AUTO 27018KT CAVOK 09/M04 Q1020,LFCK,2018-03-22T15:00:00Z,43.55,2.28,9.0,-4.0,270,18,,6.21,30.11811,,,TRUE,,,,,,,,CAVOK,,,,,,,,VFR,,,,,,,,,,,,METAR,240.0
LFSG 221500Z AUTO 21007KT 5000 -SN BR BKN007 BKN013 BKN018 01/01 Q1017,LFSG,2018-03-22T15:00:00Z,48.33,6.07,1.0,1.0,210,7,,3.11,30.029528,,,TRUE,,,,,,,-SN BR,BKN,700,BKN,1300,BKN,1800,,,IFR,,,,,,,,,,,,METAR,330.0
LFRZ 221500Z AUTO 25008KT 210V290 9999 FEW008 OVC037 09/02 Q1023,LFRZ,2018-03-22T15:00:00Z,47.32,-2.17,9.0,2.0,250,8,,6.21,30.206694,,,TRUE,,,,,,,,FEW,800,OVC,3700,,,,,VFR,,,,,,,,,,,,METAR,4.0
LFRV 221500Z AUTO 21006KT 160V270 9999 OVC031 08/02 Q1022,LFRV,2018-03-22T15:00:00Z,47.72,-2.72,8.0,2.0,210,6,,6.21,30.177166,,,TRUE,,,,,,,,OVC,3100,,,,,,,VFR,,,,,,,,,,,,METAR,133.0
LFRO 221500Z AUTO 23011KT 9999 OVC035 09/02 Q1021,LFRO,2018-03-22T15:00:00Z,48.75,-3.47,9.0,2.0,230,11,,6.21,30.147638,,,TRUE,,,,,,,,OVC,3500,,,,,,,VFR,,,,,,,,,,,,METAR,89.0
LFRM 221500Z AUTO 28007KT 230V330 9999 OVC033 08/01 Q1022,LFRM,2018-03-22T15:00:00Z,47.95,0.2,8.0,1.0,280,7,,6.21,30.177166,,,TRUE,,,,,,,,OVC,3300,,,,,,,VFR,,,,,,,,,,,,METAR,52.0
LFRI 221500Z AUTO 29007KT 250V310 9999 OVC034 08/01 Q1023,LFRI,2018-03-22T15:00:00Z,46.7,-1.37,8.0,1.0,290,7,,6.21,30.206694,,,TRUE,,,,,,,,OVC,3400,,,,,,,VFR,,,,,,,,,,,,METAR,91.0
LFOV 221500Z AUTO 27009KT 9999 OVC033 07/M00 Q1022,LFOV,2018-03-22T15:00:00Z,48.03,-0.75,7.0,0.0,270,9,,6.21,30.177166,,,TRUE,,,,,,,,OVC,3300,,,,,,,VFR,,,,,,,,,,,,METAR,101.0
LFMI 221500Z AUTO 34024KT CAVOK 12/M08 Q1011,LFMI,2018-03-22T15:00:00Z,43.52,4.92,12.0,-8.0,340,24,,6.21,29.852362,,,TRUE,,,,,,,,CAVOK,,,,,,,,VFR,,,,,,,,,,,,METAR,24.0
LFBA 221500Z AUTO 31010KT 280V340 CAVOK 10/M02 Q1022 NOSIG,LFBA,2018-03-22T15:00:00Z,44.17,0.6,10.0,-2.0,310,10,,6.21,30.177166,,,TRUE,,,TRUE,,,,,CAVOK,,,,,,,,VFR,,,,,,,,,,,,METAR,60.0
LFMY 221500Z AUTO 33023G38KT CAVOK 12/M07 Q1010 NOSIG,LFMY,2018-03-22T15:00:00Z,43.6,5.08,12.0,-7.0,330,23,38,6.21,29.822834,,,TRUE,,,TRUE,,,,,CAVOK,,,,,,,,VFR,,,,,,,,,,,,METAR,60.0
LFMO 221500Z AUTO 35030G41KT CAVOK 11/M08 Q1013 TEMPO 35040G55KT,LFMO,2018-03-22T15:00:00Z,44.12,4.87,11.0,-8.0,350,30,41,6.21,29.911417,,,TRUE,,,,,,,,CAVOK,,,,,,,,VFR,,,,,,,,,,,,METAR,55.0
LFMC 221500Z 28012KT CAVOK 16/M04 Q1007,LFMC,2018-03-22T15:00:00Z,43.37,6.37,16.0,-4.0,280,12,,6.21,29.734253,,,,,,,,,,,CAVOK,,,,,,,,VFR,,,,,,,,,,,,METAR,78.0
LFKS 221500Z AUTO 04016KT CAVOK 11/01 Q1006,LFKS,2018-03-22T15:00:00Z,41.92,9.4,11.0,1.0,40,16,,6.21,29.704725,,,TRUE,,,,,,,,CAVOK,,,,,,,,VFR,,,,,,,,,,,,METAR,22.0
LFBY 221500Z 30007KT 250V350 CAVOK 11/M01 Q1024,LFBY,2018-03-22T15:00:00Z,43.67,-1.07,11.0,-1.0,300,7,,6.21,30.236221,,,,,,,,,,,CAVOK,,,,,,,,VFR,,,,,,,,,,,,METAR,32.0
LFBM 221500Z AUTO 32008KT 280V350 CAVOK 12/M03 Q1023 NOSIG,LFBM,2018-03-22T15:00:00Z,43.92,-0.5,12.0,-3.0,320,8,,6.21,30.206694,,,TRUE,,,TRUE,,,,,CAVOK,,,,,,,,VFR,,,,,,,,,,,,METAR,63.0
LFBG 221500Z AUTO 30008KT 250V330 9999 FEW046 11/M01 Q1023 NOSIG,LFBG,2018-03-22T15:00:00Z,45.67,-0.32,11.0,-1.0,300,8,,6.21,30.206694,,,TRUE,,,TRUE,,,,,FEW,4600,,,,,,,VFR,,,,,,,,,,,,METAR,31.0
LFBC 221500Z AUTO 30009KT CAVOK 09/M01 Q1024 NOSIG,LFBC,2018-03-22T15:00:00Z,44.52,-1.12,9.0,-1.0,300,9,,6.21,30.236221,,,TRUE,,,TRUE,,,,,CAVOK,,,,,,,,VFR,,,,,,,,,,,,METAR,33.0
LJCE 221500Z 05010KT 360V090 CAVOK 05/M09 Q1013 RMK BLU,LJCE,2018-03-22T15:00:00Z,45.9,15.52,5.0,-9.0,50,10,,6.21,29.911417,,,,,,,,,,,CAVOK,,,,,,,,VFR,,,,,,,,,,,,METAR,155.0
LJPZ 221500Z 05012G25KT 010V100 CAVOK 09/M12 Q1008,LJPZ,2018-03-22T15:00:00Z,45.47,13.62,9.0,-12.0,50,12,25,6.21,29.763779,,,,,,,,,,,CAVOK,,,,,,,,VFR,,,,,,,,,,,,METAR,2.0
LJMB 221500Z 03005KT 340V100 9999 FEW045 04/M07 Q1013,LJMB,2018-03-22T15:00:00Z,46.47,15.67,4.0,-7.0,30,5,,6.21,29.911417,,,,,,,,,,,FEW,4500,,,,,,,VFR,,,,,,,,,,,,METAR,265.0
LJLJ 221500Z 13016KT CAVOK 05/M06 Q1010 WS ALL RWY NOSIG,LJLJ,2018-03-22T15:00:00Z,46.22,14.47,5.0,-6.0,130,16,,6.21,29.822834,,,,,,TRUE,,,,,CAVOK,,,,,,,,VFR,,,,,,,,,,,,METAR,385.0
LFSX 221500Z AUTO 26005KT 5000 RA BR BKN008/// OVC017/// 02/01 Q1018 TEMPO RASN,LFSX,2018-03-22T15:00:00Z,47.77,6.33,2.0,1.0,260,5,,3.11,30.059055,,,TRUE,,,,,,,RA BR,BKN,800,OVC,1700,,,,,IFR,,,,,,,,,,,,METAR,273.0
LFSO 221500Z AUTO 21009KT 2600 -SN BR BKN004 OVC008 01/00 Q1017 TEMPO 1000 -SN,LFSO,2018-03-22T15:00:00Z,48.57,5.97,1.0,0.0,210,9,,1.62,30.029528,,,TRUE,,,,,,,-SN BR,BKN,400,OVC,800,,,,,LIFR,,,,,,,,,,,,METAR,350.0
LFSI 221500Z AUTO 24008KT 1700 DZ BR OVC004 05/04 Q1018,LFSI,2018-03-22T15:00:00Z,48.62,4.9,5.0,4.0,240,8,,1.06,30.059055,,,TRUE,,,,,,,DZ BR,OVC,400,,,,,,,LIFR,,,,,,,,,,,,METAR,140.0
LFTW 221500Z AUTO 36026G38KT 9999 FEW012 13/M09 Q1012,LFTW,2018-03-22T15:00:00Z,43.75,4.42,13.0,-9.0,360,26,38,6.21,29.88189,,,TRUE,,,,,,,,FEW,1200,,,,,,,VFR,,,,,,,,,,,,METAR,96.0
LFTH 221500Z AUTO 23015KT CAVOK 14/M00 Q1008 BECMG 35005KT,LFTH,2018-03-22T15:00:00Z,43.1,6.15,14.0,0.0,230,15,,6.21,29.763779,,,TRUE,,,,,,,,CAVOK,,,,,,,,VFR,,,,,,,,,,,,METAR,4.0
LFST 221500Z AUTO 19009KT 9000 FEW012 BKN023 OVC029 03/01 Q1017,LFST,2018-03-22T15:00:00Z,48.53,7.62,3.0,1.0,190,9,,5.59,30.029528,,,TRUE,,,,,,,,FEW,1200,BKN,2300,OVC,2900,,,MVFR,,,,,,,,,,,,METAR,154.0
LFRG 221500Z AUTO 30010KT 9999 OVC032 07/02 Q1020,LFRG,2018-03-22T15:00:00Z,49.37,0.15,7.0,2.0,300,10,,6.21,30.11811,,,TRUE,,,,,,,,OVC,3200,,,,,,,VFR,,,,,,,,,,,,METAR,146.0
LFOT 221500Z AUTO 29008KT 9999 OVC034 07/M00 Q1022 NOSIG,LFOT,2018-03-22T15:00:00Z,47.43,0.72,7.0,0.0,290,8,,6.21,30.177166,,,TRUE,,,TRUE,,,,,OVC,3400,,,,,,,VFR,,,,,,,,,,,,METAR,108.0
LFMH 221500Z AUTO 36017KT CAVOK 07/M03 Q1018,LFMH,2018-03-22T15:00:00Z,45.52,4.28,7.0,-3.0,360,17,,6.21,30.059055,,,TRUE,,,,,,,,CAVOK,,,,,,,,VFR,,,,,,,,,,,,METAR,402.0
LFMD 221500Z AUTO 17013KT CAVOK 13/02 Q1008,LFMD,2018-03-22T15:00:00Z,43.53,6.95,13.0,2.0,170,13,,6.21,29.763779,,,TRUE,,,,,,,,CAVOK,,,,,,,,VFR,,,,,,,,,,,,METAR,9.0
LFGJ 221500Z AUTO 32010KT 9999 -RA FEW019 BKN030 OVC038 05/01 Q1019,LFGJ,2018-03-22T15:00:00Z,47.05,5.43,5.0,1.0,320,10,,6.21,30.088583,,,TRUE,,,,,,,-RA,FEW,1900,BKN,3000,OVC,3800,,,MVFR,,,,,,,,,,,,METAR,196.0
LFBE 221500Z AUTO 32008KT 270V020 CAVOK 11/M02 Q1022,LFBE,2018-03-22T15:00:00Z,44.82,0.52,11.0,-2.0,320,8,,6.21,30.177166,,,TRUE,,,,,,,,CAVOK,,,,,,,,VFR,,,,,,,,,,,,METAR,52.0
LFRL 221500Z AUTO 23012KT 9999 OVC033 09/02 Q1021 NOSIG,LFRL,2018-03-22T15:00:00Z,48.27,-4.42,9.0,2.0,230,12,,6.21,30.147638,,,TRUE,,,TRUE,,,,,OVC,3300,,,,,,,VFR,,,,,,,,,,,,METAR,82.0
LFRJ 221500Z AUTO 22018KT 9999 OVC034 08/M00 Q1021 TEMPO 22015G25KT,LFRJ,2018-03-22T15:00:00Z,48.52,-4.15,8.0,0.0,220,18,,6.21,30.147638,,,TRUE,,,,,,,,OVC,3400,,,,,,,VFR,,,,,,,,,,,,METAR,115.0
LFOJ 221500Z AUTO 28013KT 9999 OVC027 08/01 Q1020 NOSIG,LFOJ,2018-03-22T15:00:00Z,47.97,1.75,8.0,1.0,280,13,,6.21,30.11811,,,TRUE,,,TRUE,,,,,OVC,2700,,,,,,,MVFR,,,,,,,,,,,,METAR,125.0
LFOE 221500Z AUTO 31009KT 280V340 9999 OVC027 08/02 Q1020 NOSIG,LFOE,2018-03-22T15:00:00Z,49.02,1.22,8.0,2.0,310,9,,6.21,30.11811,,,TRUE,,,TRUE,,,,,OVC,2700,,,,,,,MVFR,,,,,,,,,,,,METAR,146.0
LFOC 221500Z AUTO 29012KT 9999 OVC029 08/01 Q1021 NOSIG,LFOC,2018-03-22T15:00:00Z,48.03,1.37,8.0,1.0,290,12,,6.21,30.147638,,,TRUE,,,TRUE,,,,,OVC,2900,,,,,,,MVFR,,,,,,,,,,,,METAR,127.0
LFSL 221500Z AUTO 33015KT CAVOK 09/M03 Q1020,LFSL,2018-03-22T15:00:00Z,45.03,1.48,9.0,-3.0,330,15,,6.21,30.11811,,,TRUE,,,,,,,,CAVOK,,,,,,,,VFR,,,,,,,,,,,,METAR,310.0
LFMV 221500Z AUTO 36029G41KT CAVOK 10/M08 Q1011,LFMV,2018-03-22T15:00:00Z,43.9,4.9,10.0,-8.0,360,29,41,6.21,29.852362,,,TRUE,,,,,,,,CAVOK,,,,,,,,VFR,,,,,,,,,,,,METAR,38.0
LFMP 221500Z AUTO 32024G35KT CAVOK 12/M08 Q1015,LFMP,2018-03-22T15:00:00Z,42.72,2.87,12.0,-8.0,320,24,35,6.21,29.970472,,,TRUE,,,,,,,,CAVOK,,,,,,,,VFR,,,,,,,,,,,,METAR,48.0
LFLS 221500Z AUTO 35014KT 330V060 CAVOK 08/M04 Q1016 BECMG 36015G25KT,LFLS,2018-03-22T15:00:00Z,45.37,5.32,8.0,-4.0,350,14,,6.21,30.0,,,TRUE,,,,,,,,CAVOK,,,,,,,,VFR,,,,,,,,,,,,METAR,386.0
LFLC 221500Z AUTO 36009KT 310V060 9999 FEW046 SCT070 08/M03 Q1019,LFLC,2018-03-22T15:00:00Z,45.77,3.17,8.0,-3.0,360,9,,6.21,30.088583,,,TRUE,,,,,,,,FEW,4600,SCT,7000,,,,,VFR,,,,,,,,,,,,METAR,330.0
LFKJ 221500Z AUTO 21010KT CAVOK 14/02 Q1005 NOSIG,LFKJ,2018-03-22T15:00:00Z,41.92,8.8,14.0,2.0,210,10,,6.21,29.675198,,,TRUE,,,TRUE,,,,,CAVOK,,,,,,,,VFR,,,,,,,,,,,,METAR,9.0
LFKF 221500Z AUTO 23007KT 190V260 9999 FEW045 OVC056 12/02 Q1006 TEMPO SHRA SCT026TCU BKN033,LFKF,2018-03-22T15:00:00Z,41.5,9.08,12.0,2.0,230,7,,6.21,29.704725,,,TRUE,,,,,,,,FEW,4500,OVC,5600,,,,,VFR,,,,,,,,,,,,METAR,23.0
LFKC 221500Z AUTO 01012KT CAVOK 11/M02 Q1008 NOSIG,LFKC,2018-03-22T15:00:00Z,42.52,8.8,11.0,-2.0,10,12,,6.21,29.763779,,,TRUE,,,TRUE,,,,,CAVOK,,,,,,,,VFR,,,,,,,,,,,,METAR,58.0
LFJL 221500Z AUTO 24012KT 6000 OVC005 02/02 Q1016,LFJL,2018-03-22T15:00:00Z,48.97,6.25,2.0,2.0,240,12,,3.73,30.0,,,TRUE,,,,,,,,OVC,500,,,,,,,IFR,,,,,,,,,,,,METAR,264.0
LFCR 221500Z AUTO 31016KT CAVOK 08/M03 Q1018,LFCR,2018-03-22T15:00:00Z,44.38,2.47,8.0,-3.0,310,16,,6.21,30.059055,,,TRUE,,,,,,,,CAVOK,,,,,,,,VFR,,,,,,,,,,,,METAR,580.0
LFRS 221500Z AUTO 29007KT 260V320 9999 OVC038 08/01 Q1023,LFRS,2018-03-22T15:00:00Z,47.17,-1.6,8.0,1.0,290,7,,6.21,30.206694,,,TRUE,,,,,,,,OVC,3800,,,,,,,VFR,,,,,,,,,,,,METAR,27.0
LFRB 221500Z AUTO 23017KT 9999 OVC033 08/01 Q1021,LFRB,2018-03-22T15:00:00Z,48.45,-4.42,8.0,1.0,230,17,,6.21,30.147638,,,TRUE,,,,,,,,OVC,3300,,,,,,,VFR,,,,,,,,,,,,METAR,103.0
LFQQ 221500Z AUTO 29006KT 9999 OVC017 08/06 Q1017,LFQQ,2018-03-22T15:00:00Z,50.57,3.1,8.0,6.0,290,6,,6.21,30.029528,,,TRUE,,,,,,,,OVC,1700,,,,,,,MVFR,,,,,,,,,,,,METAR,52.0
LFPO 221500Z 30011KT 9999 BKN024 08/03 Q1019 NOSIG,LFPO,2018-03-22T15:00:00Z,48.72,2.38,8.0,3.0,300,11,,6.21,30.088583,,,,,,TRUE,,,,,BKN,2400,,,,,,,MVFR,,,,,,,,,,,,METAR,96.0
LFPG 221500Z AUTO 29014KT 9999 OVC019 08/04 Q1019,LFPG,2018-03-22T15:00:00Z,49.02,2.52,8.0,4.0,290,14,,6.21,30.088583,,,TRUE,,,,,,,,OVC,1900,,,,,,,MVFR,,,,,,,,,,,,METAR,109.0
LFMN 221500Z AUTO 20012KT CAVOK 12/04 Q1008,LFMN,2018-03-22T15:00:00Z,43.63,7.2,12.0,4.0,200,12,,6.21,29.763779,,,TRUE,,,,,,,,CAVOK,,,,,,,,VFR,,,,,,,,,,,,METAR,10.0
LFLL 221500Z 36018KT CAVOK 08/M04 Q1018 NOSIG,LFLL,2018-03-22T15:00:00Z,45.72,5.07,8.0,-4.0,360,18,,6.21,30.059055,,,,,,TRUE,,,,,CAVOK,,,,,,,,VFR,,,,,,,,,,,,METAR,240.0
LFBH 221500Z AUTO 31008KT CAVOK 09/00 Q1024,LFBH,2018-03-22T15:00:00Z,46.18,-1.2,9.0,0.0,310,8,,6.21,30.236221,,,TRUE,,,,,,,,CAVOK,,,,,,,,VFR,,,,,,,,,,,,METAR,10.0
LFBD 221500Z AUTO 32005KT 270V040 CAVOK 11/M02 Q1023,LFBD,2018-03-22T15:00:00Z,44.82,-0.7,11.0,-2.0,320,5,,6.21,30.206694,,,TRUE,,,,,,,,CAVOK,,,,,,,,VFR,,,,,,,,,,,,METAR,61.0
LFPV 221500Z AUTO 29009KT 260V320 9999 BKN020 OVC025 07/03 Q1019 NOSIG,LFPV,2018-03-22T15:00:00Z,48.77,2.2,7.0,3.0,290,9,,6.21,30.088583,,,TRUE,,,TRUE,,,,,BKN,2000,OVC,2500,,,,,MVFR,,,,,,,,,,,,METAR,179.0
LFOA 221500Z AUTO 29011KT 9999 OVC033 07/M01 Q1020 NOSIG,LFOA,2018-03-22T15:00:00Z,47.03,2.63,7.0,-1.0,290,11,,6.21,30.11811,,,TRUE,,,TRUE,,,,,OVC,3300,,,,,,,VFR,,,,,,,,,,,,METAR,179.0
LYKV 221500Z VRB02KT 1000 SN BR BKN005 OVC023 M01/M02 Q1012 NOSIG,LYKV,2018-03-22T15:00:00Z,43.82,20.58,-1.0,-2.0,0,2,,0.62,29.88189,,,,,,TRUE,,,,SN BR,BKN,500,OVC,2300,,,,,LIFR,,,,,,,,,,,,METAR,209.0
SBCY 221500Z 30004KT CAVOK 32/24 Q1013,SBCY,2018-03-22T15:00:00Z,-15.65,-56.12,32.0,24.0,300,4,,6.21,29.911417,,,,,,,,,,,CAVOK,,,,,,,,VFR,,,,,,,,,,,,METAR,182.0
LEZG 221500Z 31027G37KT CAVOK 12/M04 Q1019,LEZG,2018-03-22T15:00:00Z,41.67,-1.02,12.0,-4.0,310,27,37,6.21,30.088583,,,,,,,,,,,CAVOK,,,,,,,,VFR,,,,,,,,,,,,METAR,258.0
LEVT 221500Z 30007KT 240V330 9999 BKN038 08/M01 Q1023,LEVT,2018-03-22T15:00:00Z,42.87,-2.72,8.0,-1.0,300,7,,6.21,30.206694,,,,,,,,,,,BKN,3800,,,,,,,VFR,,,,,,,,,,,,METAR,509.0
LEST 221500Z 25010KT 210V310 CAVOK 11/00 Q1024 NOSIG,LEST,2018-03-22T15:00:00Z,42.88,-8.42,11.0,0.0,250,10,,6.21,30.236221,,,,,,TRUE,,,,,CAVOK,,,,,,,,VFR,,,,,,,,,,,,METAR,367.0
LESO 221500Z 02005KT 310V080 9999 FEW044 10/01 Q1025,LESO,2018-03-22T15:00:00Z,43.35,-1.8,10.0,1.0,20,5,,6.21,30.265747,,,,,,,,,,,FEW,4400,,,,,,,VFR,,,,,,,,,,,,METAR,8.0
LERS 221500Z 25019KT CAVOK 16/M03 Q1015,LERS,2018-03-22T15:00:00Z,41.13,1.17,16.0,-3.0,250,19,,6.21,29.970472,,,,,,,,,,,CAVOK,,,,,,,,VFR,,,,,,,,,,,,METAR,76.0
LEMH 221500Z 31014G24KT 270V360 9999 SCT047 11/M02 Q1015,LEMH,2018-03-22T15:00:00Z,39.87,4.22,11.0,-2.0,310,14,24,6.21,29.970472,,,,,,,,,,,SCT,4700,,,,,,,VFR,,,,,,,,,,,,METAR,82.0
LEGR 221500Z VRB03KT CAVOK 13/M05 Q1022,LEGR,2018-03-22T15:00:00Z,37.17,-3.77,13.0,-5.0,0,3,,6.21,30.177166,,,,,,,,,,,CAVOK,,,,,,,,VFR,,,,,,,,,,,,METAR,559.0
LEGE 221500Z 05014KT 020V080 CAVOK 16/M11 Q1013,LEGE,2018-03-22T15:00:00Z,41.88,2.77,16.0,-11.0,50,14,,6.21,29.911417,,,,,,,,,,,CAVOK,,,,,,,,VFR,,,,,,,,,,,,METAR,129.0
LECO 221500Z 33008KT 270V020 CAVOK 10/03 Q1024 NOSIG,LECO,2018-03-22T15:00:00Z,43.28,-8.37,10.0,3.0,330,8,,6.21,30.236221,,,,,,TRUE,,,,,CAVOK,,,,,,,,VFR,,,,,,,,,,,,METAR,103.0
LEBB 221500Z VRB04KT 9999 BKN045 11/01 Q1024 NOSIG,LEBB,2018-03-22T15:00:00Z,43.28,-2.92,11.0,1.0,0,4,,6.21,30.236221,,,,,,TRUE,,,,,BKN,4500,,,,,,,VFR,,,,,,,,,,,,METAR,34.0
LEAS 221500Z 07007KT 010V120 CAVOK 12/03 Q1023 NOSIG,LEAS,2018-03-22T15:00:00Z,43.53,-6.02,12.0,3.0,70,7,,6.21,30.206694,,,,,,TRUE,,,,,CAVOK,,,,,,,,VFR,,,,,,,,,,,,METAR,134.0
LEAM 221500Z 19010KT 9999 FEW050 14/03 Q1022,LEAM,2018-03-22T15:00:00Z,36.85,-2.37,14.0,3.0,190,10,,6.21,30.177166,,,,,,,,,,,FEW,5000,,,,,,,VFR,,,,,,,,,,,,METAR,21.0
LEXJ 221500Z 04006KT 350V080 CAVOK 12/02 Q1024,LEXJ,2018-03-22T15:00:00Z,43.42,-3.82,12.0,2.0,40,6,,6.21,30.236221,,,,,,,,,,,CAVOK,,,,,,,,VFR,,,,,,,,,,,,METAR,6.0
LEPP 221500Z 34016KT 9999 FEW050 08/M04 Q1022,LEPP,2018-03-22T15:00:00Z,42.77,-1.65,8.0,-4.0,340,16,,6.21,30.177166,,,,,,,,,,,FEW,5000,,,,,,,VFR,,,,,,,,,,,,METAR,459.0
LELL 221500Z 27011KT 230V310 CAVOK 16/M03 Q1014,LELL,2018-03-22T15:00:00Z,41.52,2.1,16.0,-3.0,270,11,,6.21,29.940945,,,,,,,,,,,CAVOK,,,,,,,,VFR,,,,,,,,,,,,METAR,250.0
LEJR 221500Z 26006KT 180V340 CAVOK 16/M00 Q1025,LEJR,2018-03-22T15:00:00Z,36.75,-6.07,16.0,0.0,260,6,,6.21,30.265747,,,,,,,,,,,CAVOK,,,,,,,,VFR,,,,,,,,,,,,METAR,30.0
LETO 221500Z 27005KT 240V340 CAVOK 13/M04 Q1021 NOSIG,LETO,2018-03-22T15:00:00Z,40.47,-3.47,13.0,-4.0,270,5,,6.21,30.147638,,,,,,TRUE,,,,,CAVOK,,,,,,,,VFR,,,,,,,,,,,,METAR,608.0
LELN 221500Z 22010KT 170V280 CAVOK 10/M04 Q1021,LELN,2018-03-22T15:00:00Z,42.57,-5.65,10.0,-4.0,220,10,,6.21,30.147638,,,,,,,,,,,CAVOK,,,,,,,,VFR,,,,,,,,,,,,METAR,914.0
LELC 221500Z 14007KT 100V190 CAVOK 15/M02 Q1020 NOSIG,LELC,2018-03-22T15:00:00Z,37.77,-0.8,15.0,-2.0,140,7,,6.21,30.11811,,,,,,TRUE,,,,,CAVOK,,,,,,,,VFR,,,,,,,,,,,,METAR,3.0
LEBZ 221500Z 31008KT 250V350 CAVOK 17/03 Q1024,LEBZ,2018-03-22T15:00:00Z,38.87,-6.82,17.0,3.0,310,8,,6.21,30.236221,,,,,,,,,,,CAVOK,,,,,,,,VFR,,,,,,,,,,,,METAR,192.0
LEAB 221500Z 31015KT CAVOK 11/M06 Q1020 NOSIG,LEAB,2018-03-22T15:00:00Z,38.95,-1.85,11.0,-6.0,310,15,,6.21,30.11811,,,,,,TRUE,,,,,CAVOK,,,,,,,,VFR,,,,,,,,,,,,METAR,704.0
LETL 221500Z AUTO 33015KT 9999 NCD 09/M07 Q1018,LETL,2018-03-22T15:00:00Z,40.42,-1.22,9.0,-7.0,330,15,,6.21,30.059055,,,TRUE,,,,,,,,CLR,,,,,,,,VFR,,,,,,,,,,,,METAR,1013.0
LEAG 221500Z AUTO 29009KT 220V350 CAVOK 17/00 Q1024,LEAG,2018-03-22T15:00:00Z,,,17.0,0.0,290,9,,6.21,30.236221,,,TRUE,,,,,,,,CAVOK,,,,,,,,VFR,,,,,,,,,,,,METAR,
LEZL 221500Z 22007KT 180V260 CAVOK 16/02 Q1024 NOSIG,LEZL,2018-03-22T15:00:00Z,37.42,-5.9,16.0,2.0,220,7,,6.21,30.236221,,,,,,TRUE,,,,,CAVOK,,,,,,,,VFR,,,,,,,,,,,,METAR,31.0
LEVX 221500Z 28012KT 240V310 CAVOK 09/05 Q1025 NOSIG,LEVX,2018-03-22T15:00:00Z,42.22,-8.62,9.0,5.0,280,12,,6.21,30.265747,,,,,,TRUE,,,,,CAVOK,,,,,,,,VFR,,,,,,,,,,,,METAR,256.0
LEVC 221500Z 10011KT 9999 FEW030 15/M04 Q1018 NOSIG,LEVC,2018-03-22T15:00:00Z,39.5,-0.47,15.0,-4.0,100,11,,6.21,30.059055,,,,,,TRUE,,,,,FEW,3000,,,,,,,VFR,,,,,,,,,,,,METAR,62.0
LEPA 221500Z 32012KT 290V350 9999 FEW030 SCT055 12/M00 Q1017 NOSIG,LEPA,2018-03-22T15:00:00Z,39.53,2.72,12.0,0.0,320,12,,6.21,30.029528,,,,,,TRUE,,,,,FEW,3000,SCT,5500,,,,,VFR,,,,,,,,,,,,METAR,8.0
LEMG 221500Z 31014KT CAVOK 16/01 Q1022 NOSIG,LEMG,2018-03-22T15:00:00Z,36.67,-4.5,16.0,1.0,310,14,,6.21,30.177166,,,,,,TRUE,,,,,CAVOK,,,,,,,,VFR,,,,,,,,,,,,METAR,7.0
LEMD 221500Z 32002KT CAVOK 13/M04 Q1020 NOSIG,LEMD,2018-03-22T15:00:00Z,40.48,-3.57,13.0,-4.0,320,2,,6.21,30.11811,,,,,,TRUE,,,,,CAVOK,,,,,,,,VFR,,,,,,,,,,,,METAR,582.0
LEIB 221500Z 29011KT 240V010 9999 FEW020 12/M02 Q1019 NOSIG,LEIB,2018-03-22T15:00:00Z,38.87,1.37,12.0,-2.0,290,11,,6.21,30.088583,,,,,,TRUE,,,,,FEW,2000,,,,,,,VFR,,,,,,,,,,,,METAR,12.0
LEBL 221500Z 31013KT 290V010 CAVOK 16/M09 Q1014 NOSIG,LEBL,2018-03-22T15:00:00Z,41.27,2.07,16.0,-9.0,310,13,,6.21,29.940945,,,,,,TRUE,,,,,CAVOK,,,,,,,,VFR,,,,,,,,,,,,METAR,6.0
LEAL 221500Z 15007KT 090V230 CAVOK 14/M03 Q1020 NOSIG,LEAL,2018-03-22T15:00:00Z,38.27,-0.55,14.0,-3.0,150,7,,6.21,30.11811,,,,,,TRUE,,,,,CAVOK,,,,,,,,VFR,,,,,,,,,,,,METAR,31.0
LEVS 221500Z 26004KT 200V300 CAVOK 13/M04 Q1021,LEVS,2018-03-22T15:00:00Z,40.37,-3.77,13.0,-4.0,260,4,,6.21,30.147638,,,,,,,,,,,CAVOK,,,,,,,,VFR,,,,,,,,,,,,METAR,687.0
LEVD 221500Z 31005KT 210V010 CAVOK 08/M04 Q1022,LEVD,2018-03-22T15:00:00Z,41.72,-4.83,8.0,-4.0,310,5,,6.21,30.177166,,,,,,,,,,,CAVOK,,,,,,,,VFR,,,,,,,,,,,,METAR,854.0
CWOY 221500Z AUTO 13008KT M10/M11 RMK AO1 SOG 19 1013 SLP290 T10981112,CWOY,2018-03-22T15:00:00Z,51.77,-104.2,-9.8,-11.2,130,8,,,,1029.0,,TRUE,TRUE,,,,,,,,,,,,,,,,,,,,,,,,,,,METAR,560.0
CWEQ 221500Z AUTO 24003KT M08/M09 RMK AO1 SOG 30 3012 SLP311 T10791089,CWEQ,2018-03-22T15:00:00Z,52.12,-101.22,-7.9,-8.9,240,3,,,,1031.1,,TRUE,TRUE,,,,,,,,,,,,,,,,,,,,,,,,,,,METAR,335.0
CWJD 221500Z AUTO 03005KT M07/M08 RMK AO1 SOG 49 1022 SLP331 T10651075,CWJD,2018-03-22T15:00:00Z,53.17,-99.27,-6.5,-7.5,30,5,,,,1033.1,,TRUE,TRUE,,,,,,,,,,,,,,,,,,,,,,,,,,,METAR,223.0
CMFM 221500Z AUTO 07005KT M02/M09 RMK AO1 SOG 98 8001 PK WND 08017/1400 SLP139 T10231090,CMFM,2018-03-22T15:00:00Z,47.32,-71.15,-2.3,-9.0,70,5,,,,1013.9,,TRUE,TRUE,,,,,,,,,,,,,,,,,,,,,,,,,,,METAR,672.0
CWZW 221500Z AUTO 04002KT M13/M15 RMK AO1 SOG 50 5000 SLP233 T11251150,CWZW,2018-03-22T15:00:00Z,60.17,-132.73,-12.5,-15.0,40,2,,,,1023.3,,TRUE,TRUE,,,,,,,,,,,,,,,,,,,,,,,,,,,METAR,705.0
CWVT 221500Z AUTO 05006KT M09/M12 RMK AO1 SOG 34 1007 SLP333 T10931120,CWVT,2018-03-22T15:00:00Z,55.82,-108.42,-9.3,-12.0,50,6,,,,1033.3,,TRUE,TRUE,,,,,,,,,,,,,,,,,,,,,,,,,,,METAR,434.0
CWRM 221500Z AUTO 11005KT M05/M06 RMK AO1 SOG 39 8004 SLP175 T10511055,CWRM,2018-03-22T15:00:00Z,52.42,-114.92,-5.1,-5.5,110,5,,,,1017.5,,TRUE,TRUE,,,,,,,,,,,,,,,,,,,,,,,,,,,METAR,988.0
CWZG 221500Z AUTO 03003KT M04/M07 RMK AO1 SOG 23 8007 SLP146 T10411067,CWZG,2018-03-22T15:00:00Z,51.2,-115.53,-4.1,-6.7,30,3,,,,1014.6,,TRUE,TRUE,,,,,,,,,,,,,,,,,,,,,,,,,,,METAR,1397.0
CWLP 221500Z AUTO 04003KT 03/02 RMK AO1 6PAST HR 5003 SLP950 P0002 T00300020 50018,CWLP,2018-03-22T15:00:00Z,50.93,-127.63,3.0,2.0,40,3,,,,995.0,,TRUE,TRUE,,,,,,,,,,,,,,,,1.8,,,,,0.02,,,,,,METAR,17.0
CXTP 221500Z AUTO 07005KT M01/M04 RMK AO1 SOG 34 5000 SLP211 T10141043,CXTP,2018-03-22T15:00:00Z,48.55,-53.97,-1.4,-4.3,70,5,,,,1021.1,,TRUE,TRUE,,,,,,,,,,,,,,,,,,,,,,,,,,,METAR,107.0
CXSH 221500Z AUTO 08002KT 02/M10 RMK AO1 SLP150 T00161095 58003,CXSH,2018-03-22T15:00:00Z,46.58,-72.73,1.6,-9.5,80,2,,,,1015.0,,TRUE,TRUE,,,,,,,,,,,,,,,,-0.3,,,,,,,,,,,METAR,110.0
CXRH 221500Z AUTO 08008G15KT 02/ RMK AO1 T0019,CXRH,2018-03-22T15:00:00Z,49.57,-57.88,1.9,,80,8,15,,,,,TRUE,TRUE,,,,,,,,,,,,,,,,,,,,,,,,,,,METAR,68.0
FWKI 221500Z 21005KT 9999 TS FEW025CB SCT028 BKN080 22/18 Q1017 NOSIG,FWKI,2018-03-22T15:00:00Z,-13.77,33.77,22.0,18.0,210,5,,6.21,30.029528,,,,,,TRUE,,,,TS,FEW,2500,SCT,2800,BKN,8000,,,VFR,,,,,,,,,,,,METAR,1229.0
UHSS 221500Z 02005MPS 9999 NSC M08/M09 Q1016 R19/150065 NOSIG RMK QFE760/1014,UHSS,2018-03-22T15:00:00Z,46.88,142.72,-8.0,-9.0,20,10,,6.21,30.0,,,,,,TRUE,,,,,CLR,,,,,,,,VFR,,,,,,,,,,,,METAR,31.0
UHMM 221500Z 33003MPS 9999 NSC M19/M25 Q1005 RMK QFE739,UHMM,2018-03-22T15:00:00Z,59.92,150.72,-19.0,-25.0,330,6,,6.21,29.675198,,,,,,,,,,,CLR,,,,,,,,VFR,,,,,,,,,,,,METAR,175.0
UHWW 221500Z 00000MPS 9999 NSC M05/M09 Q1015 R25L/0///70 NOSIG RMK QFE760,UHWW,2018-03-22T15:00:00Z,43.4,132.15,-5.0,-9.0,0,0,,6.21,29.970472,,,,,,TRUE,,,,,CLR,,,,,,,,VFR,,,,,,,,,,,,METAR,14.0
UHPP 221500Z 35006MPS 9999 FEW043 M10/M16 Q1007 R34L/CLRD70 NOSIG RMK QFE751/1002,UHPP,2018-03-22T15:00:00Z,53.17,158.45,-10.0,-16.0,350,12,,6.21,29.734253,,,,,,TRUE,,,,,FEW,4300,,,,,,,VFR,,,,,,,,,,,,METAR,40.0
UHHH 221500Z 36001MPS CAVOK M05/M09 Q1013 R23L/090060 NOSIG RMK QFE753/1004,UHHH,2018-03-22T15:00:00Z,48.52,135.18,-5.0,-9.0,360,2,,6.21,29.911417,,,,,,TRUE,,,,,CAVOK,,,,,,,,VFR,,,,,,,,,,,,METAR,72.0
UHBB 221500Z 21003MPS CAVOK 03/M05 Q1005 R36/090060 NOSIG RMK QFE736/0982,UHBB,2018-03-22T15:00:00Z,50.43,127.42,3.0,-5.0,210,6,,6.21,29.675198,,,,,,TRUE,,,,,CAVOK,,,,,,,,VFR,,,,,,,,,,,,METAR,195.0
CXWN 221500Z AUTO 35002KT 01/M02 RMK AO1 SLP298 T00071023 51015,CXWN,2018-03-22T15:00:00Z,49.88,-97.13,0.7,-2.3,350,2,,,,1029.8,,TRUE,TRUE,,,,,,,,,,,,,,,,1.5,,,,,,,,,,,METAR,230.0
CXKT 221500Z AUTO 03012G22KT M01/M01 RMK AO1 8PAST HR SOG 16 6040 PK WND 02024/1413 SLP007 P0007 T10071012 50026,CXKT,2018-03-22T15:00:00Z,45.07,-64.48,-0.7,-1.2,30,12,22,,,1000.7,,TRUE,TRUE,,,,,,,,,,,,,,,,2.6,,,,,0.07,,,,,,METAR,49.0
CXBO 221500Z AUTO 07010KT RMK AO1 PK WND 07019/1414,CXBO,2018-03-22T15:00:00Z,46.83,-71.2,,,70,10,,,,,,TRUE,TRUE,,,,,,,,,,,,,,,,,,,,,,,,,,,METAR,100.0
CXBK 221500Z AUTO 12011KT M06/M06 RMK AO1 SOG 16 1010 SLP249 T10551062,CXBK,2018-03-22T15:00:00Z,50.2,-104.7,-5.5,-6.2,120,11,,,,1024.9,,TRUE,TRUE,,,,,,,,,,,,,,,,,,,,,,,,,,,METAR,580.0
CXCA 221500Z AUTO 00000KT M05/M21 RMK AO1 SOG 31 1005 SLP306 T10531211,CXCA,2018-03-22T15:00:00Z,49.15,-88.35,-5.3,-21.1,0,0,,,,1030.6,,TRUE,TRUE,,,,,,,,,,,,,,,,,,,,,,,,,,,METAR,228.0
CXCK 221500Z AUTO 29006KT M11/M16 RMK AO1 SOG 55 3002 SLP314 T11131162,CXCK,2018-03-22T15:00:00Z,62.12,-136.2,-11.3,-16.2,290,6,,,,1031.4,,TRUE,TRUE,,,,,,,,,,,,,,,,,,,,,,,,,,,METAR,540.0
CXCH 221500Z AUTO 00/M03 RMK AO1 SOG 12 T00001029,CXCH,2018-03-22T15:00:00Z,46.63,-60.95,0.0,-2.9,,,,,,,,TRUE,TRUE,,,,,,,,,,,,,,,,,,,,,,,,,,,METAR,44.0
CXDI 221500Z AUTO 34010G15KT M00/M08 RMK AO1 SLP210 T10031075 52009,CXDI,2018-03-22T15:00:00Z,42.87,-80.55,-0.3,-7.5,340,10,15,,,1021.0,,TRUE,TRUE,,,,,,,,,,,,,,,,0.9,,,,,,,,,,,METAR,232.0
CXDW 221500Z AUTO 32004KT M02/M02 RMK AO1 SOG 09 3013 SLP304 T10221022,CXDW,2018-03-22T15:00:00Z,49.4,-98.32,-2.2,-2.2,320,4,,,,1030.4,,TRUE,TRUE,,,,,,,,,,,,,,,,,,,,,,,,,,,METAR,341.0
CXEA 221500Z AUTO 25003KT M04/M07 RMK AO1 SOG 49 1010 SLP302 T10371066,CXEA,2018-03-22T15:00:00Z,50.63,-93.22,-3.7,-6.6,250,3,,,,1030.2,,TRUE,TRUE,,,,,,,,,,,,,,,,,,,,,,,,,,,METAR,355.0
CXEC 221500Z AUTO 11011KT M01/M03 RMK AO1 SOG 26 3005 PK WND 13019/1429 SLP213 T10091026,CXEC,2018-03-22T15:00:00Z,53.57,-113.52,-0.9,-2.6,110,11,,,,1021.3,,TRUE,TRUE,,,,,,,,,,,,,,,,,,,,,,,,,,,METAR,671.0
CXEG 221500Z AUTO M03/M03 RMK AO1 T10301031,CXEG,2018-03-22T15:00:00Z,53.3,-113.6,-3.0,-3.1,,,,,,,,TRUE,TRUE,,,,,,,,,,,,,,,,,,,,,,,,,,,METAR,715.0
CZSM 221500Z AUTO 04003KT M20/M26 RMK AO1 SOG 58 8002 SLP392 T12011260,CZSM,2018-03-22T15:00:00Z,60.03,-111.93,-20.1,-26.0,40,3,,,,1039.2,,TRUE,TRUE,,,,,,,,,,,,,,,,,,,,,,,,,,,METAR,203.0
CZHY 221500Z AUTO 07004KT M24/M28 RMK AO1 SOG 22 8005 SLP392 T12431280,CZHY,2018-03-22T15:00:00Z,60.83,-115.78,-24.3,-28.0,70,4,,,,1039.2,,TRUE,TRUE,,,,,,,,,,,,,,,,,,,,,,,,,,,METAR,164.0
CWMT 221500Z AUTO 12004KT M25/M29 RMK AO1 SLP417 T12481288 56009,CWMT,2018-03-22T15:00:00Z,63.13,-117.25,-24.8,-28.8,120,4,,,,1041.7,,TRUE,TRUE,,,,,,,,,,,,,,,,-0.9,,,,,,,,,,,METAR,271.0
CXOX 221500Z AUTO 06013G18KT M05/M06 RMK AO1 2PAST HR SOG 58 1015 PK WND 05018/1452 SLP313 P0001 T10451064 50002,CXOX,2018-03-22T15:00:00Z,55.15,-105.27,-4.5,-6.4,60,13,18,,,1031.3,,TRUE,TRUE,,,,,,,,,,,,,,,,0.2,,,,,0.01,,,,,,METAR,379.0
CXNM 221500Z AUTO 11024G41KT M04/M04 RMK AO1 SOG 97 PK WND 11041/1450 T10421042,CXNM,2018-03-22T15:00:00Z,46.82,-60.67,-4.2,-4.2,110,24,41,,,,,TRUE,TRUE,,,,,,,,,,,,,,,,,,,,,,,,,,,METAR,439.0
CXMY 221500Z AUTO 01/M00 RMK AO1 4PAST HR M P0021 T00101004 50083,CXMY,2018-03-22T15:00:00Z,44.98,-62.48,1.0,-0.4,,,,,,,,TRUE,TRUE,,,,,,,,,,,,,,,,8.3,,,,,0.21,,,,,,METAR,40.0
CXMD 221500Z AUTO 35004KT M01/M01 RMK AO1 SOG 03 3014 SLP301 T10131013,CXMD,2018-03-22T15:00:00Z,49.22,-98.08,-1.3,-1.3,350,4,,,,1030.1,,TRUE,TRUE,,,,,,,,,,,,,,,,,,,,,,,,,,,METAR,301.0
CXIB 221500Z AUTO 07011G17KT M00/M03 RMK AO1 SOG 16 8033 PK WND 05018/1409 SLP107 T10011033,CXIB,2018-03-22T15:00:00Z,46.67,-60.38,-0.1,-3.3,70,11,17,,,1010.7,,TRUE,TRUE,,,,,,,,,,,,,,,,,,,,,,,,,,,METAR,8.0
CXHA 221500Z AUTO 33005KT 02/M08 RMK AO1 SLP245 T00191084 51011,CXHA,2018-03-22T15:00:00Z,42.03,-82.9,1.9,-8.4,330,5,,,,1024.5,,TRUE,TRUE,,,,,,,,,,,,,,,,1.1,,,,,,,,,,,METAR,191.0
CXGH 221500Z AUTO 03005KT M01/M01 RMK AO1 T10051011,CXGH,2018-03-22T15:00:00Z,50.63,-97.0,-0.5,-1.1,30,5,,,,,,TRUE,TRUE,,,,,,,,,,,,,,,,,,,,,,,,,,,METAR,217.0
CXET 221500Z AUTO 34010G17KT M03/M11 RMK AO1 SOG 04 1009 PK WND 34017/1456 SLP209 T10291114,CXET,2018-03-22T15:00:00Z,44.23,-79.78,-2.9,-11.4,340,10,17,,,1020.9,,TRUE,TRUE,,,,,,,,,,,,,,,,,,,,,,,,,,,METAR,251.0
CWGR 221500Z AUTO 05023G30KT M01/M04 RMK AO1 3PAST HR 8027 PK WND 05031/1429 SLP109 P0001 T10091038 50003,CWGR,2018-03-22T15:00:00Z,47.42,-61.8,-0.9,-3.8,50,23,30,,,1010.9,,TRUE,TRUE,,,,,,,,,,,,,,,,0.3,,,,,0.01,,,,,,METAR,60.0
CWGT 221500Z AUTO 24005KT 07/03 RMK AO1 SLP954 T00730032 56008,CWGT,2018-03-22T15:00:00Z,49.48,-124.43,7.3,3.2,240,5,,,,995.4,,TRUE,TRUE,,,,,,,,,,,,,,,,-0.8,,,,,,,,,,,METAR,5.0
CWGW 221500Z AUTO 36003KT M00/M03 RMK AO1 SOG 33 6010 SLP136 T10011029,CWGW,2018-03-22T15:00:00Z,49.75,-114.9,-0.1,-2.9,360,3,,,,1013.6,,TRUE,TRUE,,,,,,,,,,,,,,,,,,,,,,,,,,,METAR,1137.0
RKTU 221500Z 12001KT 8000 NSC 02/M01 Q1017 NOSIG,RKTU,2018-03-22T15:00:00Z,36.7,127.5,2.0,-1.0,120,1,,4.97,30.029528,,,,,,TRUE,,,,,CLR,,,,,,,,MVFR,,,,,,,,,,,,METAR,66.0
RKPK 221500Z 04006KT CAVOK 05/01 Q1015 NOSIG,RKPK,2018-03-22T15:00:00Z,35.17,128.92,5.0,1.0,40,6,,6.21,29.970472,,,,,,TRUE,,,,,CAVOK,,,,,,,,VFR,,,,,,,,,,,,METAR,15.0
RKPC 221500Z 20005KT 9999 FEW020 05/01 Q1018 NOSIG,RKPC,2018-03-22T15:00:00Z,33.5,126.48,5.0,1.0,200,5,,6.21,30.059055,,,,,,TRUE,,,,,FEW,2000,,,,,,,VFR,,,,,,,,,,,,METAR,27.0
RKSS 221500Z 20004KT CAVOK 02/M02 Q1017 NOSIG,RKSS,2018-03-22T15:00:00Z,37.53,126.78,2.0,-2.0,200,4,,6.21,30.029528,,,,,,TRUE,,,,,CAVOK,,,,,,,,VFR,,,,,,,,,,,,METAR,19.0
RKSI 221500Z 24005KT 7000 NSC 03/00 Q1017 NOSIG,RKSI,2018-03-22T15:00:00Z,37.47,126.45,3.0,0.0,240,5,,4.35,30.029528,,,,,,TRUE,,,,,CLR,,,,,,,,MVFR,,,,,,,,,,,,METAR,7.0
LRTR 221500Z 02006KT 9999 SCT049 01/M05 Q1015 NOSIG,LRTR,2018-03-22T15:00:00Z,45.82,21.33,1.0,-5.0,20,6,,6.21,29.970472,,,,,,TRUE,,,,,SCT,4900,,,,,,,VFR,,,,,,,,,,,,METAR,88.0
LRSB 221500Z 12009KT 9999 FEW020 SCT033 01/M03 Q1014,LRSB,2018-03-22T15:00:00Z,45.78,24.08,1.0,-3.0,120,9,,6.21,29.940945,,,,,,,,,,,FEW,2000,SCT,3300,,,,,VFR,,,,,,,,,,,,METAR,444.0
LROP 221500Z 09009KT 1300 R08R/1400U R26L/1500U R08L/1300U R26R/1500U SN BR BKN018 OVC020 M03/M05 Q1019 RESN R08R/29//95 R08L/29//95 NOSIG,LROP,2018-03-22T15:00:00Z,44.57,26.1,-3.0,-5.0,90,9,,0.81,30.088583,,,,,,TRUE,,,,SN BR,BKN,1800,OVC,2000,,,,,LIFR,,,,,,,,,,,,METAR,95.0
LRCK 221500Z 03010KT 8000 -SN BKN035 M02/M04 Q1019 TEMPO 3000 SN BKN010 OVC020,LRCK,2018-03-22T15:00:00Z,44.37,28.48,-2.0,-4.0,30,10,,4.97,30.088583,,,,,,,,,,-SN,BKN,3500,,,,,,,MVFR,,,,,,,,,,,,METAR,108.0
LRBS 221500Z 06008KT 1000 R07/1400U R25/1500U SN BR OVC020 M03/M04 Q1019 NOSIG,LRBS,2018-03-22T15:00:00Z,44.5,26.08,-3.0,-4.0,60,8,,0.62,30.088583,,,,,,TRUE,,,,SN BR,OVC,2000,,,,,,,LIFR,,,,,,,,,,,,METAR,91.0
TQPF 221500Z 12015KT 9999 FEW018 28/21 Q1019,TQPF,2018-03-22T15:00:00Z,18.18,-63.03,28.0,21.0,120,15,,6.21,30.088583,,,,,,,,,,,FEW,1800,,,,,,,VFR,,,,,,,,,,,,METAR,31.0
FALE 221500Z 23006KT 9000 -RA SCT021 BKN049 19/17 Q1022 TEMPO 4000 BKN014,FALE,2018-03-22T15:00:00Z,-29.62,31.12,19.0,17.0,230,6,,5.59,30.177166,,,,,,,,,,-RA,SCT,2100,BKN,4900,,,,,VFR,,,,,,,,,,,,METAR,109.0
FAKN 221500Z 22003KT 1000 -DZ BCFG OVC004 17/17 Q1021 TEMPO 0800 FG,FAKN,2018-03-22T15:00:00Z,-25.38,31.1,17.0,17.0,220,3,,0.62,30.147638,,,,,,,,,,-DZ BCFG,OVC,400,,,,,,,LIFR,,,,,,,,,,,,METAR,862.0
FAKM 221500Z 10009KT 9999 SCT010 FEW020CB OVC080 18/14 Q1021,FAKM,2018-03-22T15:00:00Z,-28.8,24.77,18.0,14.0,100,9,,6.21,30.147638,,,,,,,,,,,SCT,1000,FEW,2000,OVC,8000,,,VFR,,,,,,,,,,,,METAR,1192.0
FAHS 221500Z AUTO 19010KT //// ///// Q1017,FAHS,2018-03-22T15:00:00Z,-24.37,31.02,,,190,10,,,30.029528,,,TRUE,,,,,,,,,,,,,,,,,,,,,,,,,,,,METAR,500.0
FAGG 221500Z 11016KT 9999 FEW035 19/13 Q1020,FAGG,2018-03-22T15:00:00Z,-34.0,22.37,19.0,13.0,110,16,,6.21,30.11811,,,,,,,,,,,FEW,3500,,,,,,,VFR,,,,,,,,,,,,METAR,193.0
FAEL 221500Z 07006KT 020V110 6000 -DZ FEW007 BKN012 OVC025 18/16 Q1023,FAEL,2018-03-22T15:00:00Z,-33.02,27.82,18.0,16.0,70,6,,3.73,30.206694,,,,,,,,,,-DZ,FEW,700,BKN,1200,OVC,2500,,,MVFR,,,,,,,,,,,,METAR,125.0
FACT 221500Z 21013KT CAVOK 23/12 Q1015 NOSIG,FACT,2018-03-22T15:00:00Z,-33.97,18.6,23.0,12.0,210,13,,6.21,29.970472,,,,,,TRUE,,,,,CAVOK,,,,,,,,VFR,,,,,,,,,,,,METAR,42.0
FDLB 221500Z AUTO 22006KT //// // ////// 20/18 Q1021,FDLB,2018-03-22T15:00:00Z,,,20.0,18.0,220,6,,,30.147638,,,TRUE,,,,,,,,,,,,,,,,,,,,,,,,,,,,METAR,
FDJR 221500Z AUTO 16007KT //// // ////// 08/05 Q1022,FDJR,2018-03-22T15:00:00Z,-27.17,31.43,8.0,5.0,160,7,,,30.177166,,,TRUE,,,,,,,,,,,,,,,,,,,,,,,,,,,,METAR,701.0
FQQL 221500Z 14010KT 9999 FEW020 FEW025CB 30/24 Q1011 RMK CB TO N,FQQL,2018-03-22T15:00:00Z,-17.87,36.87,30.0,24.0,140,10,,6.21,29.852362,,,,,,,,,,,FEW,2000,FEW,2500,,,,,VFR,,,,,,,,,,,,METAR,16.0
LEHC 221500Z 27013KT 240V300 CAVOK 13/M06 Q1015,LEHC,2018-03-22T15:00:00Z,42.08,-0.32,13.0,-6.0,270,13,,6.21,29.970472,,,,,,,,,,,CAVOK,,,,,,,,VFR,,,,,,,,,,,,METAR,539.0
LEBG 221500Z 32006KT 250V020 9999 FEW025 07/M03 Q1022,LEBG,2018-03-22T15:00:00Z,42.37,-3.62,7.0,-3.0,320,6,,6.21,30.177166,,,,,,,,,,,FEW,2500,,,,,,,VFR,,,,,,,,,,,,METAR,891.0
LEBA 221500Z 24005KT 180V330 CAVOK 15/01 Q1023,LEBA,2018-03-22T15:00:00Z,37.85,-4.82,15.0,1.0,240,5,,6.21,30.206694,,,,,,,,,,,CAVOK,,,,,,,,VFR,,,,,,,,,,,,METAR,92.0
LKPD 221500Z 27010KT CAVOK 05/M06 Q1013 NOSIG RMK BLU BLU,LKPD,2018-03-22T15:00:00Z,50.02,15.73,5.0,-6.0,270,10,,6.21,29.911417,,,,,,TRUE,,,,,CAVOK,,,,,,,,VFR,,,,,,,,,,,,METAR,226.0
LKNA 221500Z 23008KT CAVOK 05/M11 Q1012 NOSIG RMK BLU BLU,LKNA,2018-03-22T15:00:00Z,49.17,16.12,5.0,-11.0,230,8,,6.21,29.88189,,,,,,TRUE,,,,,CAVOK,,,,,,,,VFR,,,,,,,,,,,,METAR,472.0
LKLN 221500Z AUTO 23009KT 190V300 9999 OVC051 04/M06 Q1013,LKLN,2018-03-22T15:00:00Z,49.68,13.27,4.0,-6.0,230,9,,6.21,29.911417,,,TRUE,,,,,,,,OVC,5100,,,,,,,VFR,,,,,,,,,,,,METAR,362.0
LKKB 221500Z 21014KT 9999 BKN037 OVC043 03/M05 Q1013 NOSIG,LKKB,2018-03-22T15:00:00Z,50.12,14.53,3.0,-5.0,210,14,,6.21,29.911417,,,,,,TRUE,,,,,BKN,3700,OVC,4300,,,,,VFR,,,,,,,,,,,,METAR,286.0
LKCV 221500Z 25012KT 9999 OVC048 04/M05 Q1013 NOSIG RMK BLU BLU,LKCV,2018-03-22T15:00:00Z,49.93,15.38,4.0,-5.0,250,12,,6.21,29.911417,,,,,,TRUE,,,,,OVC,4800,,,,,,,VFR,,,,,,,,,,,,METAR,242.0
LESU 221500Z 05013KT CAVOK 12/M19 Q1014,LESU,2018-03-22T15:00:00Z,42.33,1.4,12.0,-19.0,50,13,,6.21,29.940945,,,,,,,,,,,CAVOK,,,,,,,,VFR,,,,,,,,,,,,METAR,800.0
LECH 221500Z AUTO 22007KT 120V260 9999 NCD 14/M05 Q1016,LECH,2018-03-22T15:00:00Z,40.2,0.07,14.0,-5.0,220,7,,6.21,30.0,,,TRUE,,,,,,,,CLR,,,,,,,,VFR,,,,,,,,,,,,METAR,337.0
GEML 221500Z 31018G29KT 280V340 9999 FEW042 16/00 Q1022,GEML,2018-03-22T15:00:00Z,35.27,-2.95,16.0,0.0,310,18,29,6.21,30.177166,,,,,,,,,,,FEW,4200,,,,,,,VFR,,,,,,,,,,,,METAR,55.0
TNCM 221500Z 10012KT 070V140 9999 SCT019 BKN040 28/22 Q1018 A3008 NOSIG RMK HZ ALQUAD,TNCM,2018-03-22T15:00:00Z,18.05,-63.12,28.0,22.0,100,12,,6.21,30.059055,,,,,,TRUE,,,,,SCT,1900,BKN,4000,,,,,VFR,,,,,,,,,,,,METAR,4.0
ORER 221500Z 35003KT 9000 NSC 23/04 Q1017 NOSIG,ORER,2018-03-22T15:00:00Z,36.23,43.97,23.0,4.0,350,3,,5.59,30.029528,,,,,,TRUE,,,,,CLR,,,,,,,,VFR,,,,,,,,,,,,METAR,409.0
ORNI 221500Z 35011KT CAVOK 30/01 Q1014 NOSIG,ORNI,2018-03-22T15:00:00Z,31.98,44.4,30.0,1.0,350,11,,6.21,29.940945,,,,,,TRUE,,,,,CAVOK,,,,,,,,VFR,,,,,,,,,,,,METAR,53.0
ORMM 221500Z 28012KT CAVOK 30/M04 Q1012 NOSIG,ORMM,2018-03-22T15:00:00Z,30.57,47.67,30.0,-4.0,280,12,,6.21,29.88189,,,,,,TRUE,,,,,CAVOK,,,,,,,,VFR,,,,,,,,,,,,METAR,2.0
MKJP 221500Z 21006KT 9999 FEW022 28/21 Q1017,MKJP,2018-03-22T15:00:00Z,17.92,-76.78,28.0,21.0,210,6,,6.21,30.029528,,,,,,,,,,,FEW,2200,,,,,,,VFR,,,,,,,,,,,,METAR,3.0
TKPK 221500Z 08013KT 9999 SCT018 30/23 Q1018,TKPK,2018-03-22T15:00:00Z,17.3,-62.72,30.0,23.0,80,13,,6.21,30.059055,,,,,,,,,,,SCT,1800,,,,,,,VFR,,,,,,,,,,,,METAR,48.0
LFRT 221500Z AUTO 26012KT 220V280 9999 OVC034 08/01 Q1021,LFRT,2018-03-22T15:00:00Z,48.52,-2.85,8.0,1.0,260,12,,6.21,30.147638,,,TRUE,,,,,,,,OVC,3400,,,,,,,VFR,,,,,,,,,,,,METAR,136.0
LFRQ 221500Z AUTO 23012KT 9999 OVC035 09/02 Q1022,LFRQ,2018-03-22T15:00:00Z,47.97,-4.17,9.0,2.0,230,12,,6.21,30.177166,,,TRUE,,,,,,,,OVC,3500,,,,,,,VFR,,,,,,,,,,,,METAR,94.0
LFRK 221500Z AUTO 26009KT 9999 OVC031 07/02 Q1021,LFRK,2018-03-22T15:00:00Z,49.17,-0.45,7.0,2.0,260,9,,6.21,30.147638,,,TRUE,,,,,,,,OVC,3100,,,,,,,VFR,,,,,,,,,,,,METAR,67.0
LFSD 221500Z AUTO 24003KT 210V280 9000 -RA BKN012 BKN028 OVC037 04/02 Q1019,LFSD,2018-03-22T15:00:00Z,47.27,5.07,4.0,2.0,240,3,,5.59,30.088583,,,TRUE,,,,,,,-RA,BKN,1200,BKN,2800,OVC,3700,,,MVFR,,,,,,,,,,,,METAR,227.0
LFRH 221500Z AUTO 24009KT 210V270 9999 OVC038 09/02 Q1022,LFRH,2018-03-22T15:00:00Z,47.77,-3.45,9.0,2.0,240,9,,6.21,30.177166,,,TRUE,,,,,,,,OVC,3800,,,,,,,VFR,,,,,,,,,,,,METAR,44.0
LFPN 221500Z AUTO 30011KT 270V330 9999 OVC023 08/03 Q1019 NOSIG,LFPN,2018-03-22T15:00:00Z,48.75,2.12,8.0,3.0,300,11,,6.21,30.088583,,,TRUE,,,TRUE,,,,,OVC,2300,,,,,,,MVFR,,,,,,,,,,,,METAR,164.0
LFPM 221500Z AUTO 28011KT 9999 OVC024 08/04 Q1019,LFPM,2018-03-22T15:00:00Z,48.62,2.67,8.0,4.0,280,11,,6.21,30.088583,,,TRUE,,,,,,,,OVC,2400,,,,,,,MVFR,,,,,,,,,,,,METAR,92.0
LFLN 221500Z AUTO 31010KT 270V330 9999 OVC039 06/M02 Q1020,LFLN,2018-03-22T15:00:00Z,46.42,4.02,6.0,-2.0,310,10,,6.21,30.11811,,,TRUE,,,,,,,,OVC,3900,,,,,,,VFR,,,,,,,,,,,,METAR,244.0
LFAT 221500Z AUTO 28011KT 250V310 9999 OVC032 08/04 Q1018,LFAT,2018-03-22T15:00:00Z,50.52,1.62,8.0,4.0,280,11,,6.21,30.059055,,,TRUE,,,,,,,,OVC,3200,,,,,,,VFR,,,,,,,,,,,,METAR,14.0
UMMS 221500Z 23004MPS 9999 BKN037 01/M02 Q1010 R31/CLRD// NOSIG,UMMS,2018-03-22T15:00:00Z,53.88,28.03,1.0,-2.0,230,8,,6.21,29.822834,,,,,,TRUE,,,,,BKN,3700,,,,,,,VFR,,,,,,,,,,,,METAR,205.0
UMMG 221500Z 24004G07MPS 8000 BKN016 OVC066 02/M00 Q1011 NOSIG,UMMG,2018-03-22T15:00:00Z,53.6,24.05,2.0,0.0,240,8,14,4.97,29.852362,,,,,,TRUE,,,,,BKN,1600,OVC,6600,,,,,MVFR,,,,,,,,,,,,METAR,135.0
UMII 221500Z 23007G10MPS 9999 FEW030CB BKN100 02/M06 Q1007 R23/710365 NOSIG,UMII,2018-03-22T15:00:00Z,55.13,30.35,2.0,-6.0,230,14,19,6.21,29.734253,,,,,,TRUE,,,,,FEW,3000,BKN,10000,,,,,VFR,,,,,,,,,,,,METAR,208.0
UMGG 221500Z 23002MPS CAVOK 02/M11 Q1013 R28/CLRD// NOSIG,UMGG,2018-03-22T15:00:00Z,52.53,31.02,2.0,-11.0,230,4,,6.21,29.911417,,,,,,TRUE,,,,,CAVOK,,,,,,,,VFR,,,,,,,,,,,,METAR,144.0
LPPD 221500Z 28011KT 9999 FEW006 BKN012 18/17 Q1032,LPPD,2018-03-22T15:00:00Z,37.72,-25.68,18.0,17.0,280,11,,6.21,30.47244,,,,,,,,,,,FEW,600,BKN,1200,,,,,MVFR,,,,,,,,,,,,METAR,72.0
LPAZ 221500Z 26010KT 9999 FEW004 BKN010 18/17 Q1032,LPAZ,2018-03-22T15:00:00Z,36.97,-25.17,18.0,17.0,260,10,,6.21,30.47244,,,,,,,,,,,FEW,400,BKN,1000,,,,,MVFR,,,,,,,,,,,,METAR,100.0
FQMA 221500Z 22010KT 4000 -DZ BKN010 OVC020 23/21 Q1016 NOSIG,FQMA,2018-03-22T15:00:00Z,-25.92,32.57,23.0,21.0,220,10,,2.49,30.0,,,,,,TRUE,,,,-DZ,BKN,1000,OVC,2000,,,,,IFR,,,,,,,,,,,,METAR,44.0
RKNY 221500Z AUTO 17003KT 9999 NCD 03/M05 Q1014,RKNY,2018-03-22T15:00:00Z,38.07,128.67,3.0,-5.0,170,3,,6.21,29.940945,,,TRUE,,,,,,,,CLR,,,,,,,,VFR,,,,,,,,,,,,METAR,74.0
RKJB 221500Z AUTO 33002KT 6000 NCD 04/02 Q1018,RKJB,2018-03-22T15:00:00Z,34.98,126.38,4.0,2.0,330,2,,3.73,30.059055,,,TRUE,,,,,,,,CLR,,,,,,,,MVFR,,,,,,,,,,,,METAR,2.0
RKTN 221500Z 33001KT CAVOK 04/M01 Q1015 NOSIG,RKTN,2018-03-22T15:00:00Z,35.88,128.65,4.0,-1.0,330,1,,6.21,29.970472,,,,,,TRUE,,,,,CAVOK,,,,,,,,VFR,,,,,,,,,,,,METAR,35.0
CWGX 221500Z AUTO 04011KT M18/M21 RMK AO1 SOG 31 1025 PK WND 04020/1414 SLP407 T11801212,CWGX,2018-03-22T15:00:00Z,56.35,-94.7,-18.0,-21.2,40,11,,,,1040.7,,TRUE,TRUE,,,,,,,,,,,,,,,,,,,,,,,,,,,METAR,145.0
UTDK 221500Z VRB01MPS 9999 NSC 18/10 Q1014 R01/09//70 RMK QFE703/0938,UTDK,2018-03-22T15:00:00Z,37.98,69.8,18.0,10.0,0,2,,6.21,29.940945,,,,,,,,,,,CLR,,,,,,,,VFR,,,,,,,,,,,,METAR,699.0
UTDD 221500Z 34005MPS 300V360 9999 -TSRA SCT066CB OVC110 18/05 Q1015 R09/16//60 TEMPO VRB09MPS RMK QFE693/0924,UTDD,2018-03-22T15:00:00Z,38.53,68.82,18.0,5.0,340,10,,6.21,29.970472,,,,,,,,,,-TSRA,SCT,6600,OVC,11000,,,,,VFR,,,,,,,,,,,,METAR,803.0
UCFL 221500Z 26002MPS 200V340 9999 SCT100 08/M01 Q1014 R07/CLRD70 RMK G/O,UCFL,2018-03-22T15:00:00Z,42.58,76.7,8.0,-1.0,260,4,,6.21,29.940945,,,,,,,,,,,SCT,10000,,,,,,,VFR,,,,,,,,,,,,METAR,1648.0
UCFO 221500Z 22003MPS 5000 BR FEW050 SCT150 18/08 Q1013 R12/CLRD70 NOSIG,UCFO,2018-03-22T15:00:00Z,40.6,72.8,18.0,8.0,220,6,,3.11,29.911417,,,,,,TRUE,,,,BR,FEW,5000,SCT,15000,,,,,MVFR,,,,,,,,,,,,METAR,884.0
UCFM 221500Z 27002MPS 8000 SCT066CB 16/08 Q1009 R08/CLRD70 NOSIG,UCFM,2018-03-22T15:00:00Z,43.07,74.48,16.0,8.0,270,4,,4.97,29.793306,,,,,,TRUE,,,,,SCT,6600,,,,,,,MVFR,,,,,,,,,,,,METAR,633.0
FAWK 221500Z AUTO 13006KT //// // ////// ///// Q1022,FAWK,2018-03-22T15:00:00Z,-25.82,28.22,,,130,6,,,30.177166,,,TRUE,,,,,,,,,,,,,,,,,,,,,,,,,,,,METAR,1500.0
FAWB 221500Z AUTO 12003KT //// 17/17 Q1019,FAWB,2018-03-22T15:00:00Z,-25.63,28.22,17.0,17.0,120,3,,,30.088583,,,TRUE,,,,,,,,,,,,,,,,,,,,,,,,,,,,METAR,1248.0
FAPE 221500Z 10008KT 070V130 9999 FEW038 OVC049 21/14 Q1022 NOSIG,FAPE,2018-03-22T15:00:00Z,-33.97,25.6,21.0,14.0,100,8,,6.21,30.177166,,,,,,TRUE,,,,,FEW,3800,OVC,4900,,,,,VFR,,,,,,,,,,,,METAR,60.0
FQNP 221500Z /////KT 9999 SCT020 FEW025CB 29/22 Q1012 RMK CB TO N,FQNP,2018-03-22T15:00:00Z,-15.08,39.27,29.0,22.0,,,,6.21,29.88189,,,,,,,,,,,SCT,2000,FEW,2500,,,,,VFR,,,,,,,,,,,,METAR,441.0
TNCA 221500Z 09022KT 9999 SCT019 30/25 Q1014 NOSIG,TNCA,2018-03-22T15:00:00Z,12.5,-70.0,30.0,25.0,90,22,,6.21,29.940945,,,,,,TRUE,,,,,SCT,1900,,,,,,,VFR,,,,,,,,,,,,METAR,18.0
UTAM 221500Z 27004KT 6000 SCT060CB SCT060 OVC230 18/09 Q1018 NOSIG,UTAM,2018-03-22T15:00:00Z,37.62,61.9,18.0,9.0,270,4,,3.73,30.059055,,,,,,TRUE,,,,,SCT,6000,SCT,6000,OVC,23000,,,MVFR,,,,,,,,,,,,METAR,222.0
UTAV 221500Z 32012KT CAVOK 15/07 Q1017 R31/CLRD70 NOSIG,UTAV,2018-03-22T15:00:00Z,39.08,63.62,15.0,7.0,320,12,,6.21,30.029528,,,,,,TRUE,,,,,CAVOK,,,,,,,,VFR,,,,,,,,,,,,METAR,192.0
UAUU 221500Z 26006MPS 9999 OVC018CB M00/M01 Q0996 R33/520145 NOSIG RMK QFE732/0976,UAUU,2018-03-22T15:00:00Z,53.2,63.55,0.0,-1.0,260,12,,6.21,29.409449,,,,,,TRUE,,,,,OVC,1800,,,,,,,MVFR,,,,,,,,,,,,METAR,182.0
UATT 221500Z 26009MPS 7000 OVC013 M04/M06 Q1006 R31/0///60 NOSIG RMK QFE734/0979,UATT,2018-03-22T15:00:00Z,50.25,57.2,-4.0,-6.0,260,17,,4.35,29.704725,,,,,,TRUE,,,,,OVC,1300,,,,,,,MVFR,,,,,,,,,,,,METAR,227.0
UATG 221500Z 23006MPS 5000 -SHRA BR BKN033CB 03/03 Q1011 R32/19//65 NOSIG RMK QFE760/1014,UATG,2018-03-22T15:00:00Z,47.12,51.83,3.0,3.0,230,12,,3.11,29.852362,,,,,,TRUE,,,,-SHRA BR,BKN,3300,,,,,,,MVFR,,,,,,,,,,,,METAR,-22.0
UATE 221500Z 34001MPS CAVOK 12/04 Q1013 R30/0///70 NOSIG RMK QFE758/1011,UATE,2018-03-22T15:00:00Z,43.87,51.1,12.0,4.0,340,2,,6.21,29.911417,,,,,,TRUE,,,,,CAVOK,,,,,,,,VFR,,,,,,,,,,,,METAR,22.0
UARR 221500Z 24007MPS 9999 BKN011 OVC021 M05/M07 Q1004 R22/710255 TEMPO 1500 -SN BR BKN005 RMK QFE750/1000,UARR,2018-03-22T15:00:00Z,51.15,51.53,-5.0,-7.0,240,14,,6.21,29.64567,,,,,,,,,,,BKN,1100,OVC,2100,,,,,MVFR,,,,,,,,,,,,METAR,38.0
UASP 221500Z 16004MPS CAVOK 04/03 Q1000 R21/0///60 NOSIG RMK QFE738/0985,UASP,2018-03-22T15:00:00Z,52.2,77.07,4.0,3.0,160,8,,6.21,29.52756,,,,,,TRUE,,,,,CAVOK,,,,,,,,VFR,,,,,,,,,,,,METAR,125.0
UASK 221500Z 12002MPS 9999 NSC 05/01 Q1009 R12/810150 NOSIG RMK QFE732/0976,UASK,2018-03-22T15:00:00Z,50.03,82.5,5.0,1.0,120,4,,6.21,29.793306,,,,,,TRUE,,,,,CLR,,,,,,,,VFR,,,,,,,,,,,,METAR,286.0
UAOO 221500Z 31009MPS 9000 -RA OVC007 08/07 Q1010 R23/CLRD70 NOSIG RMK QFE746/0994,UAOO,2018-03-22T15:00:00Z,44.7,65.6,8.0,7.0,310,17,,5.59,29.822834,,,,,,TRUE,,,,-RA,OVC,700,,,,,,,IFR,,,,,,,,,,,,METAR,129.0
UAKK 221500Z 17006MPS CAVOK 04/03 Q1000 R23/910560 NOSIG RMK QFE704/0939,UAKK,2018-03-22T15:00:00Z,49.67,73.33,4.0,3.0,170,12,,6.21,29.52756,,,,,,TRUE,,,,,CAVOK,,,,,,,,VFR,,,,,,,,,,,,METAR,538.0
UAII 221500Z 18003G08MPS 9999 SCT050CB OVC100 19/10 Q1009 R10/0///70 NOSIG RMK QFE721/0962,UAII,2018-03-22T15:00:00Z,42.37,69.48,19.0,10.0,180,6,16,6.21,29.793306,,,,,,TRUE,,,,,SCT,5000,OVC,10000,,,,,VFR,,,,,,,,,,,,METAR,422.0
UACC 221500Z 24009MPS 9999 SCT007 OVC050CB 05/04 Q0999 R22/250355 TEMPO 23008G13MPS 3000 SHRA BKN020CB RMK QFE718/0958,UACC,2018-03-22T15:00:00Z,51.02,71.47,5.0,4.0,240,17,,6.21,29.498032,,,,,,,,,,,SCT,700,OVC,5000,,,,,VFR,,,,,,,,,,,,METAR,355.0
UADD 221500Z 20005MPS 9999 BKN050CB OVC100 18/07 Q1008 R13/0///65 NOSIG RMK QFE699/0933,UADD,2018-03-22T15:00:00Z,42.85,71.3,18.0,7.0,200,10,,6.21,29.763779,,,,,,TRUE,,,,,BKN,5000,OVC,10000,,,,,VFR,,,,,,,,,,,,METAR,665.0
UAAA 221500Z 16002MPS 1200 R23R/P2000N R23L/P2000U FU SCT100 OVC200 14/05 Q1008 R88/65D NOSIG,UAAA,2018-03-22T15:00:00Z,43.35,77.03,14.0,5.0,160,4,,0.75,29.763779,,,,,,TRUE,,,,FU,SCT,10000,OVC,20000,,,,,LIFR,,,,,,,,,,,,METAR,681.0
OPSK 221500Z 00000KT 4000 HZ NSC 27/15 1008 NOSIG,OPSK,2018-03-22T15:00:00Z,27.72,68.8,27.0,15.0,0,0,,2.49,,,,,,,TRUE,,,,HZ,CLR,,,,,,,,IFR,,,,,,,,,,,,METAR,58.0
OPRN 221500Z 05006KT 9999 FEW050 20/10 Q1013 NOSIG RMK A2994,OPRN,2018-03-22T15:00:00Z,33.62,73.08,20.0,10.0,50,6,,6.21,29.911417,,,,,,TRUE,,,,,FEW,5000,,,,,,,VFR,,,,,,,,,,,,METAR,508.0
OPNH 221500Z 13504KT 5000 NSC 30/11 Q1009 NOSIG,OPNH,2018-03-22T15:00:00Z,26.22,68.37,30.0,11.0,135,4,,3.11,29.793306,,,,,,TRUE,,,,,CLR,,,,,,,,MVFR,,,,,,,,,,,,METAR,38.0
OPLA 221500Z 00000KT 5000 FU NSE 22/13 Q1011 A29.84 NOSIG,OPLA,2018-03-22T15:00:00Z,31.52,74.4,22.0,13.0,0,0,,3.11,29.852362,,,,,,TRUE,,,,FU,,,,,,,,,,,,,,,,,,,,,METAR,217.0
UDSG 221500Z 20007KT 9999 SCT040CB OVC046 11/M04 Q1015 R02/CLRD70 NOSIG,UDSG,2018-03-22T15:00:00Z,40.75,43.87,11.0,-4.0,200,7,,6.21,29.970472,,,,,,TRUE,,,,,SCT,4000,OVC,4600,,,,,VFR,,,,,,,,,,,,METAR,1524.0
UDYZ 221500Z 00000KT 9999 NSC 14/03 Q1014 R09/000070 NOSIG,UDYZ,2018-03-22T15:00:00Z,40.15,44.4,14.0,3.0,0,0,,6.21,29.940945,,,,,,TRUE,,,,,CLR,,,,,,,,VFR,,,,,,,,,,,,METAR,865.0
FYWE 221500Z 00000KT 9999 -SH FEW040CB SCT045TCU 24/14 Q1021,FYWE,2018-03-22T15:00:00Z,-22.62,17.08,24.0,14.0,0,0,,6.21,30.147638,,,,,,,,,,-SH,FEW,4000,SCT,4500,,,,,VFR,,,,,,,,,,,,METAR,1700.0
FYWB 221500Z AUTO 24010KT //// // ////// 21/12 Q1012,FYWB,2018-03-22T15:00:00Z,-22.98,14.65,21.0,12.0,240,10,,,29.88189,,,TRUE,,,,,,,,,,,,,,,,,,,,,,,,,,,,METAR,46.0
FYKT 221500Z 00000KT 9999 SCT045TCU 33/10 Q1015,FYKT,2018-03-22T15:00:00Z,-26.52,18.12,33.0,10.0,0,0,,6.21,29.970472,,,,,,,,,,,SCT,4500,,,,,,,VFR,,,,,,,,,,,,METAR,1061.0
MNMG 221500Z 08012KT 9999 SCT025 29/19 Q1015 A2999 1CI300 NOSIG,MNMG,2018-03-22T15:00:00Z,12.15,-86.17,29.0,19.0,80,12,,6.21,29.970472,,,,,,TRUE,,,,,SCT,2500,,,,,,,VFR,,,,,,,,,,,,METAR,59.0
ZUUU 221500Z 00000MPS 8000 NSC 15/12 Q1014 NOSIG,ZUUU,2018-03-22T15:00:00Z,30.58,103.95,15.0,12.0,0,0,,4.97,29.940945,,,,,,TRUE,,,,,CLR,,,,,,,,MVFR,,,,,,,,,,,,METAR,508.0
ZUGY 221500Z 17002MPS 9999 BKN046 11/07 Q1018 NOSIG,ZUGY,2018-03-22T15:00:00Z,26.53,106.8,11.0,7.0,170,4,,6.21,30.059055,,,,,,TRUE,,,,,BKN,4600,,,,,,,VFR,,,,,,,,,,,,METAR,1074.0
ZSQD 221500Z 20003MPS CAVOK 07/M16 Q1016 NOSIG,ZSQD,2018-03-22T15:00:00Z,36.27,120.38,7.0,-16.0,200,6,,6.21,30.0,,,,,,TRUE,,,,,CAVOK,,,,,,,,VFR,,,,,,,,,,,,METAR,77.0
ZSNB 221500Z 18003MPS 5000 -SHRA BR FEW030TCU SCT030 10/08 Q1019 NOSIG,ZSNB,2018-03-22T15:00:00Z,29.83,121.47,10.0,8.0,180,6,,3.11,30.088583,,,,,,TRUE,,,,-SHRA BR,FEW,3000,SCT,3000,,,,,MVFR,,,,,,,,,,,,METAR,4.0
ZSFZ 221500Z 33002MPS CAVOK 11/06 Q1019 NOSIG,ZSFZ,2018-03-22T15:00:00Z,25.93,119.67,11.0,6.0,330,4,,6.21,30.088583,,,,,,TRUE,,,,,CAVOK,,,,,,,,VFR,,,,,,,,,,,,METAR,85.0
ZSAM 221500Z 08003MPS 050V110 CAVOK 14/09 Q1019 NOSIG,ZSAM,2018-03-22T15:00:00Z,24.53,118.13,14.0,9.0,80,6,,6.21,30.088583,,,,,,TRUE,,,,,CAVOK,,,,,,,,VFR,,,,,,,,,,,,METAR,18.0
ZPPP 221500Z 18003MPS 130V210 9999 FEW026 14/08 Q1019 NOSIG,ZPPP,2018-03-22T15:00:00Z,25.0,102.75,14.0,8.0,180,6,,6.21,30.088583,,,,,,TRUE,,,,,FEW,2600,,,,,,,VFR,,,,,,,,,,,,METAR,1892.0
ZLXY 221500Z 04002MPS CAVOK 10/02 Q1012 NOSIG,ZLXY,2018-03-22T15:00:00Z,34.43,108.75,10.0,2.0,40,4,,6.21,29.88189,,,,,,TRUE,,,,,CAVOK,,,,,,,,VFR,,,,,,,,,,,,METAR,479.0
ZGSZ 221500Z 18003MPS CAVOK 19/15 Q1017 NOSIG,ZGSZ,2018-03-22T15:00:00Z,22.63,113.8,19.0,15.0,180,6,,6.21,30.029528,,,,,,TRUE,,,,,CAVOK,,,,,,,,VFR,,,,,,,,,,,,METAR,18.0
ZGOW 221500Z 00000MPS CAVOK 14/10 Q1018 NOSIG,ZGOW,2018-03-22T15:00:00Z,23.55,116.5,14.0,10.0,0,0,,6.21,30.059055,,,,,,TRUE,,,,,CAVOK,,,,,,,,VFR,,,,,,,,,,,,METAR,3.0
ZGNN 221500Z 00000MPS CAVOK 16/11 Q1017 NOSIG,ZGNN,2018-03-22T15:00:00Z,22.62,108.17,16.0,11.0,0,0,,6.21,30.029528,,,,,,TRUE,,,,,CAVOK,,,,,,,,VFR,,,,,,,,,,,,METAR,73.0
ZGKL 221500Z 27002MPS 7000 NSC 13/11 Q1017 NOSIG,ZGKL,2018-03-22T15:00:00Z,25.22,110.03,13.0,11.0,270,4,,4.35,30.029528,,,,,,TRUE,,,,,CLR,,,,,,,,MVFR,,,,,,,,,,,,METAR,166.0
ROAH 221500Z 34010KT 9999 FEW040 15/07 Q1016 RMK 2SC040 A3002,ROAH,2018-03-22T15:00:00Z,26.17,127.65,15.0,7.0,340,10,,6.21,30.0,,,,,,,,,,,FEW,4000,,,,,,,VFR,,,,,,,,,,,,METAR,8.0
RJTT 221500Z 33008KT 9999 -RA FEW020 SCT060 BKN070 13/04 Q1002 NOSIG RMK 1CU020 3SC060 7AC070 A2961,RJTT,2018-03-22T15:00:00Z,35.53,139.77,13.0,4.0,330,8,,6.21,29.586615,,,,,,TRUE,,,,-RA,FEW,2000,SCT,6000,BKN,7000,,,VFR,,,,,,,,,,,,METAR,8.0
RJFF 221500Z AUTO VRB01KT 9999 NCD 03/01 Q1016 RMK A3001,RJFF,2018-03-22T15:00:00Z,33.57,130.43,3.0,1.0,0,1,,6.21,30.0,,,TRUE,,,,,,,,CLR,,,,,,,,VFR,,,,,,,,,,,,METAR,12.0
RJCC 221500Z 34015KT 9999 FEW025 BKN090 01/M05 Q1005 RMK 1CU025 7AC090 A2970,RJCC,2018-03-22T15:00:00Z,42.77,141.67,1.0,-5.0,340,15,,6.21,29.675198,,,,,,,,,,,FEW,2500,BKN,9000,,,,,VFR,,,,,,,,,,,,METAR,30.0
LFRC 221500Z AUTO 25014KT 9999 OVC026 07/01 Q1020,LFRC,2018-03-22T15:00:00Z,49.63,-1.47,7.0,1.0,250,14,,6.21,30.11811,,,TRUE,,,,,,,,OVC,2600,,,,,,,MVFR,,,,,,,,,,,,METAR,138.0
ZYTX 221500Z 18002MPS 150V210 7000 NSC 02/M07 Q1014 NOSIG,ZYTX,2018-03-22T15:00:00Z,41.63,123.48,2.0,-7.0,180,4,,4.35,29.940945,,,,,,TRUE,,,,,CLR,,,,,,,,MVFR,,,,,,,,,,,,METAR,35.0
ZYTL 221500Z 00000MPS CAVOK 05/M09 Q1015 NOSIG,ZYTL,2018-03-22T15:00:00Z,38.97,121.53,5.0,-9.0,0,0,,6.21,29.970472,,,,,,TRUE,,,,,CAVOK,,,,,,,,VFR,,,,,,,,,,,,METAR,97.0
ZWWW 221500Z 17002MPS CAVOK 15/03 Q1012 NOSIG,ZWWW,2018-03-22T15:00:00Z,43.88,87.47,15.0,3.0,170,4,,6.21,29.88189,,,,,,TRUE,,,,,CAVOK,,,,,,,,VFR,,,,,,,,,,,,METAR,654.0
ZWSH 221500Z 34002MPS 6000 NSC 16/M11 Q1014 NOSIG,ZWSH,2018-03-22T15:00:00Z,39.55,76.02,16.0,-11.0,340,4,,3.73,29.940945,,,,,,TRUE,,,,,CLR,,,,,,,,MVFR,,,,,,,,,,,,METAR,1380.0
ZSSS 221500Z 13003MPS 7000 NSC 10/06 Q1018 NOSIG,ZSSS,2018-03-22T15:00:00Z,31.2,121.33,10.0,6.0,130,6,,4.35,30.059055,,,,,,TRUE,,,,,CLR,,,,,,,,MVFR,,,,,,,,,,,,METAR,7.0
ZSPD 221500Z 17003MPS 4000 BR SCT030 07/05 Q1019 NOSIG,ZSPD,2018-03-22T15:00:00Z,31.15,121.8,7.0,5.0,170,6,,2.49,30.088583,,,,,,TRUE,,,,BR,SCT,3000,,,,,,,IFR,,,,,,,,,,,,METAR,4.0
ZSHC 221500Z 17001MPS 6000 -RA SCT040 11/10 Q1018 NOSIG,ZSHC,2018-03-22T15:00:00Z,30.22,120.43,11.0,10.0,170,2,,3.73,30.059055,,,,,,TRUE,,,,-RA,SCT,4000,,,,,,,MVFR,,,,,,,,,,,,METAR,43.0
ZGGG 221500Z 05002MPS CAVOK 17/11 Q1016 NOSIG,ZGGG,2018-03-22T15:00:00Z,23.4,113.3,17.0,11.0,50,4,,6.21,30.0,,,,,,TRUE,,,,,CAVOK,,,,,,,,VFR,,,,,,,,,,,,METAR,15.0
ZBYN 221500Z 10002MPS 060V130 9999 FEW040 08/M02 Q1014 NOSIG,ZBYN,2018-03-22T15:00:00Z,37.77,112.63,8.0,-2.0,100,4,,6.21,29.940945,,,,,,TRUE,,,,,FEW,4000,,,,,,,VFR,,,,,,,,,,,,METAR,779.0
ZBTJ 221500Z 20003MPS 6000 NSC 10/M02 Q1014 NOSIG,ZBTJ,2018-03-22T15:00:00Z,39.12,117.35,10.0,-2.0,200,6,,3.73,29.940945,,,,,,TRUE,,,,,CLR,,,,,,,,MVFR,,,,,,,,,,,,METAR,3.0
ZBSJ 221500Z 17002MPS 6000 NSC 10/02 Q1013 NOSIG,ZBSJ,2018-03-22T15:00:00Z,38.28,114.7,10.0,2.0,170,4,,3.73,29.911417,,,,,,TRUE,,,,,CLR,,,,,,,,MVFR,,,,,,,,,,,,METAR,71.0
ZBAA 221500Z 15003MPS CAVOK 12/M04 Q1012 NOSIG,ZBAA,2018-03-22T15:00:00Z,40.07,116.58,12.0,-4.0,150,6,,6.21,29.88189,,,,,,TRUE,,,,,CAVOK,,,,,,,,VFR,,,,,,,,,,,,METAR,30.0
FAUT 221500Z AUTO 11009KT //// 15/14 Q1024,FAUT,2018-03-22T15:00:00Z,-31.52,28.67,15.0,14.0,110,9,,,30.236221,,,TRUE,,,,,,,,,,,,,,,,,,,,,,,,,,,,METAR,732.0
FAMM 221500Z AUTO 02005KT //// // ////// 20/17 Q1018,FAMM,2018-03-22T15:00:00Z,-25.8,25.52,20.0,17.0,20,5,,,30.059055,,,TRUE,,,,,,,,,,,,,,,,,,,,,,,,,,,,METAR,1277.0
GMMC 221500Z 32006KT 9999 FEW016 17/06 Q1026,GMMC,2018-03-22T15:00:00Z,33.57,-7.67,17.0,6.0,320,6,,6.21,30.295275,,,,,,,,,,,FEW,1600,,,,,,,VFR,,,,,,,,,,,,METAR,62.0
FAOR 221500Z 04006KT 340V080 4500 SHRA BKN004 OVC013 FEW030TCU 14/14 Q1023 BECMG 5000,FAOR,2018-03-22T15:00:00Z,-26.12,28.22,14.0,14.0,40,6,,2.8,30.206694,,,,,,,,,,SHRA,BKN,400,OVC,1300,FEW,3000,,,LIFR,,,,,,,,,,,,METAR,1700.0
ORSU 221500Z 32008KT CAVOK 14/06 Q1019,ORSU,2018-03-22T15:00:00Z,35.57,45.32,14.0,6.0,320,8,,6.21,30.088583,,,,,,,,,,,CAVOK,,,,,,,,VFR,,,,,,,,,,,,METAR,761.0
DAUH 221500Z 28020KT 5000 BKN040 17/M07 Q1014,DAUH,2018-03-22T15:00:00Z,31.67,6.15,17.0,-7.0,280,20,,3.11,29.940945,,,,,,,,,,,BKN,4000,,,,,,,MVFR,,,,,,,,,,,,METAR,142.0
DAOO 221500Z 36006KT 9999 FEW023 SCT026 12/03 Q1022,DAOO,2018-03-22T15:00:00Z,35.62,-0.6,12.0,3.0,360,6,,6.21,30.177166,,,,,,,,,,,FEW,2300,SCT,2600,,,,,VFR,,,,,,,,,,,,METAR,90.0
DAON 221500Z 30008KT 9999 FEW020 SCT026 12/04 Q1022,DAON,2018-03-22T15:00:00Z,35.02,-1.47,12.0,4.0,300,8,,6.21,30.177166,,,,,,,,,,,FEW,2000,SCT,2600,,,,,VFR,,,,,,,,,,,,METAR,247.0
DABC 221500Z 31023KT 1000 SN FEW003 FEW016CB OVC020 01/00 Q1012,DABC,2018-03-22T15:00:00Z,36.27,6.62,1.0,0.0,310,23,,0.62,29.88189,,,,,,,,,,SN,FEW,300,FEW,1600,OVC,2000,,,LIFR,,,,,,,,,,,,METAR,694.0
DABB 221500Z 34020G32KT 6000 -SHRA FEW020TCU FEW026CB BKN030 10/07 Q1010,DABB,2018-03-22T15:00:00Z,36.82,7.82,10.0,7.0,340,20,32,3.73,29.822834,,,,,,,,,,-SHRA,FEW,2000,FEW,2600,BKN,3000,,,MVFR,,,,,,,,,,,,METAR,4.0
DAAT 221500Z 30022KT 7000 NSC 21/// Q1014,DAAT,2018-03-22T15:00:00Z,22.82,5.47,,,300,22,,4.35,29.940945,,,,,,,,,,,CLR,,,,,,,,MVFR,,,0.0,,,,,,,,,METAR,1377.0
DAAG 221500Z 26012KT 9999 FEW020TCU FEW026CB SCT036 10/07 Q1019,DAAG,2018-03-22T15:00:00Z,36.72,3.22,10.0,7.0,260,12,,6.21,30.088583,,,,,,,,,,,FEW,2000,FEW,2600,SCT,3600,,,VFR,,,,,,,,,,,,METAR,25.0
RJFS 221500Z 35003KT 310V070 9999 FEW030 02/01 Q1016,RJFS,2018-03-22T15:00:00Z,33.15,130.3,2.0,1.0,350,3,,6.21,30.0,,,,,,,,,,,FEW,3000,,,,,,,VFR,,,,,,,,,,,,METAR,5.0
RJOH 221500Z 20004KT 9999 FEW035 03/M01 Q1014,RJOH,2018-03-22T15:00:00Z,35.47,133.25,3.0,-1.0,200,4,,6.21,29.940945,,,,,,,,,,,FEW,3500,,,,,,,VFR,,,,,,,,,,,,METAR,9.0
RJFR 221500Z 28004KT 9999 FEW030 07/02 Q1015,RJFR,2018-03-22T15:00:00Z,33.82,131.03,7.0,2.0,280,4,,6.21,29.970472,,,,,,,,,,,FEW,3000,,,,,,,VFR,,,,,,,,,,,,METAR,6.0
FEFF 221500Z 26004KT 9999 SCT020 FEW040CB 33/21 Q1006 NOSIG,FEFF,2018-03-22T15:00:00Z,4.4,18.52,33.0,21.0,260,4,,6.21,29.704725,,,,,,TRUE,,,,,SCT,2000,FEW,4000,,,,,VFR,,,,,,,,,,,,METAR,366.0
FKKN 221500Z 22008KT 9999 TS BKN020 FEW023CB 24/20 Q1014,FKKN,2018-03-22T15:00:00Z,7.33,13.57,24.0,20.0,220,8,,6.21,29.940945,,,,,,,,,,TS,BKN,2000,FEW,2300,,,,,MVFR,,,,,,,,,,,,METAR,1104.0
FKKR 221500Z 08008KT 9999 FEW023TCU FEW026CB 41/15 Q1004 NOSIG,FKKR,2018-03-22T15:00:00Z,9.32,13.37,41.0,15.0,80,8,,6.21,29.64567,,,,,,TRUE,,,,,FEW,2300,FEW,2600,,,,,VFR,,,,,,,,,,,,METAR,244.0
FKYS 221500Z /////KT 9999 TS FEW009 BKN012 FEW020CB 26/23 Q1013 NOSIG,FKYS,2018-03-22T15:00:00Z,3.82,11.52,26.0,23.0,,,,6.21,29.911417,,,,,,TRUE,,,,TS,FEW,900,BKN,1200,FEW,2000,,,MVFR,,,,,,,,,,,,METAR,760.0
FKKD 221500Z VRB04KT 9999 SCT016 FEW020CB 32/24 Q1007 NOSIG,FKKD,2018-03-22T15:00:00Z,4.0,9.72,32.0,24.0,0,4,,6.21,29.734253,,,,,,TRUE,,,,,SCT,1600,FEW,2000,,,,,VFR,,,,,,,,,,,,METAR,9.0
FCPP 221500Z 28006KT 4000 -TSRA SCT006 BKN020 FEW026CB 24/23 Q1010 BECMG 6000 NSW,FCPP,2018-03-22T15:00:00Z,-4.82,11.9,24.0,23.0,280,6,,2.49,29.822834,,,,,,,,,,-TSRA,SCT,600,BKN,2000,FEW,2600,,,IFR,,,,,,,,,,,,METAR,17.0
FCBB 221500Z 24006KT 210V280 9999 BKN020 FEW030CB 31/22 Q1009 NOSIG,FCBB,2018-03-22T15:00:00Z,-4.25,15.25,31.0,22.0,240,6,,6.21,29.793306,,,,,,TRUE,,,,,BKN,2000,FEW,3000,,,,,MVFR,,,,,,,,,,,,METAR,316.0
RJNK 221500Z 32011KT 9999 -SHRA FEW008 BKN010 BKN040 07/04 Q1010,RJNK,2018-03-22T15:00:00Z,36.37,136.42,7.0,4.0,320,11,,6.21,29.822834,,,,,,,,,,-SHRA,FEW,800,BKN,1000,BKN,4000,,,MVFR,,,,,,,,,,,,METAR,9.0
RJGG 221500Z 31029KT 9999 FEW020 09/05 Q1008 NOSIG,RJGG,2018-03-22T15:00:00Z,34.87,136.8,9.0,5.0,310,29,,6.21,29.763779,,,,,,TRUE,,,,,FEW,2000,,,,,,,VFR,,,,,,,,,,,,METAR,5.0
RJBB 221500Z AUTO 31017KT 9999 FEW032 SCT036 OVC044 08/02 Q1012 BECMG 33010KT,RJBB,2018-03-22T15:00:00Z,34.42,135.25,8.0,2.0,310,17,,6.21,29.88189,,,TRUE,,,,,,,,FEW,3200,SCT,3600,OVC,4400,,,VFR,,,,,,,,,,,,METAR,8.0
RJAA 221500Z VRB01KT 9999 FEW030 BKN080 11/09 Q1002 NOSIG RMK 1CU030 7AC080 A2960,RJAA,2018-03-22T15:00:00Z,35.77,140.37,11.0,9.0,0,1,,6.21,29.586615,,,,,,TRUE,,,,,FEW,3000,BKN,8000,,,,,VFR,,,,,,,,,,,,METAR,44.0
RJAW 221500Z 35009KT 9999 SCT012 BKN100 21/19 Q1011 RMK 3CU012 6AC100 A2988,RJAW,2018-03-22T15:00:00Z,24.77,141.32,21.0,19.0,350,9,,6.21,29.852362,,,,,,,,,,,SCT,1200,BKN,10000,,,,,VFR,,,,,,,,,,,,METAR,116.0
ZYHB 221500Z 17003MPS 6000 NSC 02/M08 Q1011 NOSIG,ZYHB,2018-03-22T15:00:00Z,45.62,126.25,2.0,-8.0,170,6,,3.73,29.852362,,,,,,TRUE,,,,,CLR,,,,,,,,MVFR,,,,,,,,,,,,METAR,140.0
ZYCC 221500Z 23002MPS 4000 FU NSC M00/M11 Q1013 NOSIG,ZYCC,2018-03-22T15:00:00Z,43.98,125.68,0.0,-11.0,230,4,,2.49,29.911417,,,,,,TRUE,,,,FU,CLR,,,,,,,,IFR,,,,,,,,,,,,METAR,238.0
ZUCK 221500Z 01003MPS CAVOK 17/10 Q1014 NOSIG,ZUCK,2018-03-22T15:00:00Z,29.72,106.63,17.0,10.0,10,6,,6.21,29.940945,,,,,,TRUE,,,,,CAVOK,,,,,,,,VFR,,,,,,,,,,,,METAR,416.0
ZSOF 221500Z 13001MPS CAVOK 09/07 Q1017 NOSIG,ZSOF,2018-03-22T15:00:00Z,31.98,116.97,9.0,7.0,130,2,,6.21,30.029528,,,,,,TRUE,,,,,CAVOK,,,,,,,,VFR,,,,,,,,,,,,METAR,63.0
ZSNJ 221500Z 25001MPS 6000 NSC 10/08 Q1017 NOSIG,ZSNJ,2018-03-22T15:00:00Z,31.75,118.87,10.0,8.0,250,2,,3.73,30.029528,,,,,,TRUE,,,,,CLR,,,,,,,,MVFR,,,,,,,,,,,,METAR,33.0
ZLLL 221500Z 36004MPS CAVOK 08/M15 Q1015 NOSIG,ZLLL,2018-03-22T15:00:00Z,36.52,103.62,8.0,-15.0,360,8,,6.21,29.970472,,,,,,TRUE,,,,,CAVOK,,,,,,,,VFR,,,,,,,,,,,,METAR,1947.0
ZJSY 221500Z 09005MPS 9999 BKN050 22/15 Q1016 NOSIG,ZJSY,2018-03-22T15:00:00Z,18.3,109.42,22.0,15.0,90,10,,6.21,30.0,,,,,,TRUE,,,,,BKN,5000,,,,,,,VFR,,,,,,,,,,,,METAR,27.0
ZJHK 221500Z 10002MPS 080V140 CAVOK 17/16 Q1016 NOSIG,ZJHK,2018-03-22T15:00:00Z,19.93,110.47,17.0,16.0,100,4,,6.21,30.0,,,,,,TRUE,,,,,CAVOK,,,,,,,,VFR,,,,,,,,,,,,METAR,23.0
ZHHH 221500Z 13003MPS 6000 NSC 13/08 Q1017 NOSIG,ZHHH,2018-03-22T15:00:00Z,30.78,114.22,13.0,8.0,130,6,,3.73,30.029528,,,,,,TRUE,,,,,CLR,,,,,,,,MVFR,,,,,,,,,,,,METAR,33.0
ZHCC 221500Z VRB01MPS 4000 HZ NSC 13/02 Q1016 NOSIG,ZHCC,2018-03-22T15:00:00Z,34.52,113.83,13.0,2.0,0,2,,2.49,30.0,,,,,,TRUE,,,,HZ,CLR,,,,,,,,IFR,,,,,,,,,,,,METAR,151.0
ZGHA 221500Z VRB01MPS 8000 NSC 12/08 Q1017 NOSIG,ZGHA,2018-03-22T15:00:00Z,28.18,113.22,12.0,8.0,0,2,,4.97,30.029528,,,,,,TRUE,,,,,CLR,,,,,,,,MVFR,,,,,,,,,,,,METAR,66.0
ZBHH 221500Z 08002MPS 020V100 CAVOK 04/00 Q1013 NOSIG,ZBHH,2018-03-22T15:00:00Z,40.85,111.82,4.0,0.0,80,4,,6.21,29.911417,,,,,,TRUE,,,,,CAVOK,,,,,,,,VFR,,,,,,,,,,,,METAR,1065.0
VTSM 221500Z 13008KT 9999 FEW020 29/24 Q1010,VTSM,2018-03-22T15:00:00Z,9.55,100.07,29.0,24.0,130,8,,6.21,29.822834,,,,,,,,,,,FEW,2000,,,,,,,VFR,,,,,,,,,,,,METAR,17.0
VTSB 221500Z 31003KT 8000 FEW020 26/23 Q1009,VTSB,2018-03-22T15:00:00Z,9.12,99.13,26.0,23.0,310,3,,4.97,29.793306,,,,,,,,,,,FEW,2000,,,,,,,MVFR,,,,,,,,,,,,METAR,11.0
FMEP 221500Z AUTO 13011KT CAVOK 27/24 Q1013 BECMG 04005KT,FMEP,2018-03-22T15:00:00Z,-21.32,55.42,27.0,24.0,130,11,,6.21,29.911417,,,TRUE,,,,,,,,CAVOK,,,,,,,,VFR,,,,,,,,,,,,METAR,18.0
FMEE 221500Z AUTO 11008KT 9999 BKN054 27/23 Q1012 NOSIG,FMEE,2018-03-22T15:00:00Z,-20.87,55.52,27.0,23.0,110,8,,6.21,29.88189,,,TRUE,,,TRUE,,,,,BKN,5400,,,,,,,VFR,,,,,,,,,,,,METAR,25.0
YBDV 221500Z AUTO 12014KT //// // ////// 25/17 Q1010,YBDV,2018-03-22T15:00:00Z,-25.9,139.35,25.0,17.0,120,14,,,29.822834,,,TRUE,,,,,,,,,,,,,,,,,,,,,,,,,,,,METAR,47.0
YBCV 221500Z AUTO 10011KT 9999 // BKN120 25/13 Q1013,YBCV,2018-03-22T15:00:00Z,-26.38,146.27,25.0,13.0,100,11,,6.21,29.911417,,,TRUE,,,,,,,,BKN,12000,,,,,,,VFR,,,,,,,,,,,,METAR,304.0
YAYE 221500Z AUTO 12004KT 9999 // NCD 23/03 Q1013,YAYE,2018-03-22T15:00:00Z,-25.18,130.98,23.0,3.0,120,4,,6.21,29.911417,,,TRUE,,,,,,,,CLR,,,,,,,,VFR,,,,,,,,,,,,METAR,496.0
YARG 221500Z AUTO 25005KT 9999 // NCD 30/15 Q1006,YARG,2018-03-22T15:00:00Z,-16.63,128.45,30.0,15.0,250,5,,6.21,29.704725,,,TRUE,,,,,,,,CLR,,,,,,,,VFR,,,,,,,,,,,,METAR,165.0
YSSY 221500Z 10016KT 9999 SCT035 BKN055 21/15 Q1024 INTER 1600/1800 4000 SHRA BKN015,YSSY,2018-03-22T15:00:00Z,-33.95,151.17,21.0,15.0,100,16,,6.21,30.236221,,,,,,,,,,,SCT,3500,BKN,5500,,,,,VFR,,,,,,,,,,,,METAR,3.0
YPXM 221500Z AUTO 28007KT 9999 // SCT015 SCT020 BKN026 26/23 Q1009,YPXM,2018-03-22T15:00:00Z,-10.45,105.67,26.0,23.0,280,7,,6.21,29.793306,,,TRUE,,,,,,,,SCT,1500,SCT,2000,BKN,2600,,,MVFR,,,,,,,,,,,,METAR,259.0
YPTN 221500Z AUTO 15005KT 9999 // SCT094 25/22 Q1006,YPTN,2018-03-22T15:00:00Z,-14.52,132.38,25.0,22.0,150,5,,6.21,29.704725,,,TRUE,,,,,,,,SCT,9400,,,,,,,VFR,,,,,,,,,,,,METAR,109.0
YPPH 221500Z 20005KT 9999 FEW013 18/17 Q1013 FM1700 18005KT 9999 BKN010,YPPH,2018-03-22T15:00:00Z,-31.93,115.98,18.0,17.0,200,5,,6.21,29.911417,,,,,,,,,,,FEW,1300,,,,,,,VFR,,,,,,,,,,,,METAR,13.0
YPLM 221500Z AUTO 27007KT 9999 // NCD 29/22 Q1009,YPLM,2018-03-22T15:00:00Z,-22.22,114.07,29.0,22.0,270,7,,6.21,29.793306,,,TRUE,,,,,,,,CLR,,,,,,,,VFR,,,,,,,,,,,,METAR,6.0
YPDN 221500Z 13003KT CAVOK 27/24 Q1005,YPDN,2018-03-22T15:00:00Z,-12.42,130.9,27.0,24.0,130,3,,6.21,29.675198,,,,,,,,,,,CAVOK,,,,,,,,VFR,,,,,,,,,,,,METAR,30.0
YPAD 221500Z 05008KT CAVOK 22/12 Q1015 NOSIG,YPAD,2018-03-22T15:00:00Z,-34.95,138.52,22.0,12.0,50,8,,6.21,29.970472,,,,,,TRUE,,,,,CAVOK,,,,,,,,VFR,,,,,,,,,,,,METAR,4.0
YBCS 221500Z 18013KT 9999 FEW002 SCT020 BKN190 24/22 Q1007,YBCS,2018-03-22T15:00:00Z,-16.87,145.75,24.0,22.0,180,13,,6.21,29.734253,,,,,,,,,,,FEW,200,SCT,2000,BKN,19000,,,VFR,,,,,,,,,,,,METAR,7.0
YBBN 221500Z 17004KT 9999 VCSH FEW025 SCT035 BKN085 21/20 Q1016 INTER 1500/1800 3000 SHRA SCT012,YBBN,2018-03-22T15:00:00Z,-27.38,153.13,21.0,20.0,170,4,,6.21,30.0,,,,,,,,,,VCSH,FEW,2500,SCT,3500,BKN,8500,,,VFR,,,,,,,,,,,,METAR,5.0
YBAS 221500Z AUTO 00000KT 9999 // NCD 21/11 Q1013 RF00.0/000.0,YBAS,2018-03-22T15:00:00Z,-23.8,133.9,21.0,11.0,0,0,,6.21,29.911417,,,TRUE,,,,,,,,CLR,,,,,,,,VFR,,,,,,,,,,,,SPECI,541.0
LPAR 221500Z /////KT 9999 FEW035 16/06 Q1026,LPAR,2018-03-22T15:00:00Z,38.88,-9.03,16.0,6.0,,,,6.21,30.295275,,,,,,,,,,,FEW,3500,,,,,,,VFR,,,,,,,,,,,,METAR,3.0
LPST 221500Z 32013KT 9999 SCT022 12/07 Q1027,LPST,2018-03-22T15:00:00Z,38.82,-9.32,12.0,7.0,320,13,,6.21,30.324802,,,,,,,,,,,SCT,2200,,,,,,,VFR,,,,,,,,,,,,METAR,130.0
LPMT 221500Z 33009KT 310V010 9999 FEW035 16/06 Q1026,LPMT,2018-03-22T15:00:00Z,38.7,-9.05,16.0,6.0,330,9,,6.21,30.295275,,,,,,,,,,,FEW,3500,,,,,,,VFR,,,,,,,,,,,,METAR,11.0
LPMR 221500Z 33010KT 300V360 9999 FEW022 SCT030 12/06 Q1027,LPMR,2018-03-22T15:00:00Z,39.82,-8.87,12.0,6.0,330,10,,6.21,30.324802,,,,,,,,,,,FEW,2200,SCT,3000,,,,,VFR,,,,,,,,,,,,METAR,54.0
LPOV 221500Z 33009KT 290V360 9999 FEW020 13/06 Q1026,LPOV,2018-03-22T15:00:00Z,40.92,-8.65,13.0,6.0,330,9,,6.21,30.295275,,,,,,,,,,,FEW,2000,,,,,,,VFR,,,,,,,,,,,,METAR,17.0
DTTN 221500Z 33010KT 290V020 9999 SCT020 SCT030 09/06 Q1009,DTTN,2018-03-22T15:00:00Z,36.47,8.8,9.0,6.0,330,10,,6.21,29.793306,,,,,,,,,,,SCT,2000,SCT,3000,,,,,VFR,,,,,,,,,,,,METAR,144.0
DTTL 221500Z 30009KT 200V350 9999 -SHRA SCT020 SCT030 10/10 Q1003,DTTL,2018-03-22T15:00:00Z,36.85,11.07,10.0,10.0,300,9,,6.21,29.616142,,,,,,,,,,-SHRA,SCT,2000,SCT,3000,,,,,VFR,,,,,,,,,,,,METAR,30.0
DTTK 221500Z 29010G19KT 9999 SCT023 SCT030 16/03 Q1006,DTTK,2018-03-22T15:00:00Z,35.67,10.08,16.0,3.0,290,10,19,6.21,29.704725,,,,,,,,,,,SCT,2300,SCT,3000,,,,,VFR,,,,,,,,,,,,METAR,68.0
DTTD 221500Z 31017G27KT 8000 FEW026 14/M07 Q1010,DTTD,2018-03-22T15:00:00Z,32.32,10.4,14.0,-7.0,310,17,27,4.97,29.822834,,,,,,,,,,,FEW,2600,,,,,,,MVFR,,,,,,,,,,,,METAR,301.0
DTTB 221500Z 30017KT 6000 -RA SCT016 FEW023CB BKN030 09/07 Q1007 RMK CB/W,DTTB,2018-03-22T15:00:00Z,37.25,9.8,9.0,7.0,300,17,,3.73,29.734253,,,,,,,,,,-RA,SCT,1600,FEW,2300,BKN,3000,,,MVFR,,,,,,,,,,,,METAR,3.0
EIWF 221500Z 21021KT 180V240 4000 RA BKN006 08/07 Q1010 R21/1/////,EIWF,2018-03-22T15:00:00Z,52.18,-7.08,8.0,7.0,210,21,,2.49,29.822834,,,,,,,,,,RA,BKN,600,,,,,,,IFR,,,,,,,,,,,,METAR,36.0
EIME 221500Z 21021G36KT 9999 -RA SCT021 BKN060 BKN100 08/05 Q1008,EIME,2018-03-22T15:00:00Z,53.3,-6.45,8.0,5.0,210,21,36,6.21,29.763779,,,,,,,,,,-RA,SCT,2100,BKN,6000,BKN,10000,,,VFR,,,,,,,,,,,,METAR,93.0
EIKY 221500Z 19015KT 9999 -RA BKN022 11/09 Q1005,EIKY,2018-03-22T15:00:00Z,52.18,-9.52,11.0,9.0,190,15,,6.21,29.675198,,,,,,,,,,-RA,BKN,2200,,,,,,,MVFR,,,,,,,,,,,,METAR,34.0
EIDL 221500Z 18020KT 9999 -RA FEW019 BKN034 OVC042 08/06 Q1002,EIDL,2018-03-22T15:00:00Z,55.05,-8.33,8.0,6.0,180,20,,6.21,29.586615,,,,,,,,,,-RA,FEW,1900,BKN,3400,OVC,4200,,,VFR,,,,,,,,,,,,METAR,9.0
TTCP 221500Z 09017KT 9999 FEW022 30/21 Q1016 NOSIG,TTCP,2018-03-22T15:00:00Z,11.15,-60.85,30.0,21.0,90,17,,6.21,30.0,,,,,,TRUE,,,,,FEW,2200,,,,,,,VFR,,,,,,,,,,,,METAR,8.0
TTPP 221500Z 12018KT 9999 FEW020 30/31 Q1015 NOSIG,TTPP,2018-03-22T15:00:00Z,10.58,-61.35,30.0,31.0,120,18,,6.21,29.970472,,,,,,TRUE,,,,,FEW,2000,,,,,,,VFR,,,,,,,,,,,,METAR,15.0
VOMD 221500Z 16008KT 4000 HZ FEW020 34/17 Q1009 NOSIG,VOMD,2018-03-22T15:00:00Z,9.82,78.07,34.0,17.0,160,8,,2.49,29.793306,,,,,,TRUE,,,,HZ,FEW,2000,,,,,,,IFR,,,,,,,,,,,,METAR,131.0
FAVV 221500Z AUTO /////KT //// // ////// 15/14 Q1021,FAVV,2018-03-22T15:00:00Z,-26.57,27.97,15.0,14.0,,,,,30.147638,,,TRUE,,,,,,,,,,,,,,,,,,,,,,,,,,,,METAR,1483.0
FAJB 221500Z AUTO 06002KT //// // ////// 16/14 Q1021,FAJB,2018-03-22T15:00:00Z,-26.15,28.0,16.0,14.0,60,2,,,30.147638,,,TRUE,,,,,,,,,,,,,,,,,,,,,,,,,,,,METAR,1626.0
SLET 221500Z 33015G25KT 9999 BKN17 BKN200 28/21 Q1010,SLET,2018-03-22T15:00:00Z,-17.8,-63.17,28.0,21.0,330,15,25,6.21,29.822834,,,,,,,,,,,BKN,20000,,,,,,,VFR,,,,,,,,,,,,METAR,414.0
SUDU 221500Z 05006KT CAVOK 23/11 Q1014,SUDU,2018-03-22T15:00:00Z,-33.35,-56.5,23.0,11.0,50,6,,6.21,29.940945,,,,,,,,,,,CAVOK,,,,,,,,VFR,,,,,,,,,,,,METAR,93.0
SUSO 221500Z 07008KT CAVOK 25/14 Q1012,SUSO,2018-03-22T15:00:00Z,-31.43,-57.98,25.0,14.0,70,8,,6.21,29.88189,,,,,,,,,,,CAVOK,,,,,,,,VFR,,,,,,,,,,,,METAR,34.0
SUMU 221500Z 36006KT CAVOK 21/11 Q1015 NOSIG,SUMU,2018-03-22T15:00:00Z,-34.82,-56.0,21.0,11.0,360,6,,6.21,29.970472,,,,,,TRUE,,,,,CAVOK,,,,,,,,VFR,,,,,,,,,,,,METAR,32.0
SULS 221500Z 04006KT 9999 FEW023 21/10 Q1015,SULS,2018-03-22T15:00:00Z,-34.87,-55.1,21.0,10.0,40,6,,6.21,29.970472,,,,,,,,,,,FEW,2300,,,,,,,VFR,,,,,,,,,,,,METAR,30.0
SUAA 221500Z 03010KT CAVOK 21/09 Q1015,SUAA,2018-03-22T15:00:00Z,-34.77,-56.25,21.0,9.0,30,10,,6.21,29.970472,,,,,,,,,,,CAVOK,,,,,,,,VFR,,,,,,,,,,,,METAR,54.0
SLVR 221500Z 34012G22KT 9999 SCT013 BKN017 27/21 Q1011,SLVR,2018-03-22T15:00:00Z,-17.63,-63.12,27.0,21.0,340,12,22,6.21,29.852362,,,,,,,,,,,SCT,1300,BKN,1700,,,,,MVFR,,,,,,,,,,,,METAR,373.0
SLTR 221500Z 32006KT 9999 SCT015 29/24 Q1013,SLTR,2018-03-22T15:00:00Z,-14.83,-64.92,29.0,24.0,320,6,,6.21,29.911417,,,,,,,,,,,SCT,1500,,,,,,,VFR,,,,,,,,,,,,METAR,157.0
SLTJ 221500Z 00000KT 9999 NSC 24/15 Q1013,SLTJ,2018-03-22T15:00:00Z,-21.55,-64.72,24.0,15.0,0,0,,6.21,29.911417,,,,,,,,,,,CLR,,,,,,,,VFR,,,,,,,,,,,,METAR,1858.0
SLLP 221500Z 25005KT 9999 SCT017 SCT200 13/04 Q1039,SLLP,2018-03-22T15:00:00Z,-16.52,-68.17,13.0,4.0,250,5,,6.21,30.679134,,,,,,,,,,,SCT,1700,SCT,20000,,,,,VFR,,,,,,,,,,,,METAR,4014.0
SLCB 221500Z 22004KT 9999 FEW027 BKN200 23/04 Q1023,SLCB,2018-03-22T15:00:00Z,-17.42,-66.18,23.0,4.0,220,4,,6.21,30.206694,,,,,,,,,,,FEW,2700,BKN,20000,,,,,VFR,,,,,,,,,,,,METAR,2548.0
SGES 221500Z 36010KT 9999 SCT030 BKN070 31/21 Q1011,SGES,2018-03-22T15:00:00Z,-25.45,-54.85,31.0,21.0,360,10,,6.21,29.852362,,,,,,,,,,,SCT,3000,BKN,7000,,,,,VFR,,,,,,,,,,,,METAR,849.0
SGAS 221500Z VRB05KT CAVOK 29/22 Q1009,SGAS,2018-03-22T15:00:00Z,-25.25,-57.52,29.0,22.0,0,5,,6.21,29.793306,,,,,,,,,,,CAVOK,,,,,,,,VFR,,,,,,,,,,,,METAR,101.0
LETU 221500Z AUTO 31019KT 9999 NCD 11/M04 Q1021,LETU,2018-03-22T15:00:00Z,,,11.0,-4.0,310,19,,6.21,30.147638,,,TRUE,,,,,,,,CLR,,,,,,,,VFR,,,,,,,,,,,,METAR,
LEBR 221500Z AUTO 31020KT 9999 NCD 11/M03 Q1020,LEBR,2018-03-22T15:00:00Z,42.2,-1.43,11.0,-3.0,310,20,,6.21,30.11811,,,TRUE,,,,,,,,CLR,,,,,,,,VFR,,,,,,,,,,,,METAR,295.0
VABP 221500Z 29005KT 6000 NSC 26/05 Q1010 NOSIG,VABP,2018-03-22T15:00:00Z,23.27,77.33,26.0,5.0,290,5,,3.73,29.822834,,,,,,TRUE,,,,,CLR,,,,,,,,MVFR,,,,,,,,,,,,METAR,523.0
VAAH 221500Z 33003KT 4000 FU NSC 29/07 Q1009 NOSIG,VAAH,2018-03-22T15:00:00Z,23.07,72.62,29.0,7.0,330,3,,2.49,29.793306,,,,,,TRUE,,,,FU,CLR,,,,,,,,IFR,,,,,,,,,,,,METAR,55.0
LELO 221500Z 30009KT 260V340 CAVOK 10/M00 Q1022,LELO,2018-03-22T15:00:00Z,42.45,-2.32,10.0,0.0,300,9,,6.21,30.177166,,,,,,,,,,,CAVOK,,,,,,,,VFR,,,,,,,,,,,,METAR,363.0
LECV 221500Z 11003KT CAVOK 11/M04 Q1020,LECV,2018-03-22T15:00:00Z,40.63,-3.72,11.0,-4.0,110,3,,6.21,30.11811,,,,,,,,,,,CAVOK,,,,,,,,VFR,,,,,,,,,,,,METAR,710.0
LEBT 221500Z AUTO 10009KT 050V160 9999 NCD 15/M03 Q1018,LEBT,2018-03-22T15:00:00Z,39.58,-0.45,15.0,-3.0,100,9,,6.21,30.059055,,,TRUE,,,,,,,,CLR,,,,,,,,VFR,,,,,,,,,,,,METAR,50.0
LEAO 221500Z 29004KT CAVOK 13/M06 Q1021,LEAO,2018-03-22T15:00:00Z,38.95,-3.73,13.0,-6.0,290,4,,6.21,30.147638,,,,,,,,,,,CAVOK,,,,,,,,VFR,,,,,,,,,,,,METAR,629.0
SBTF 221500Z 20004KT 9999 BKN012 29/25 Q1013,SBTF,2018-03-22T15:00:00Z,-3.37,-64.72,29.0,25.0,200,4,,6.21,29.911417,,,,,,,,,,,BKN,1200,,,,,,,MVFR,,,,,,,,,,,,METAR,47.0
SAZN 221500Z 27005KT CAVOK 23/05 Q1006,SAZN,2018-03-22T15:00:00Z,-38.95,-68.15,23.0,5.0,270,5,,6.21,29.704725,,,,,,,,,,,CAVOK,,,,,,,,VFR,,,,,,,,,,,,METAR,271.0
SAWG 221500Z 25009KT 9999 SCT040 BKN100 14/05 Q0980,SAWG,2018-03-22T15:00:00Z,-51.62,-69.32,14.0,5.0,250,9,,6.21,28.937008,,,,,,,,,,,SCT,4000,BKN,10000,,,,,VFR,,,,,,,,,,,,METAR,19.0
SAWE 221500Z 27023G33KT 9999 FEW016 14/08 Q0977,SAWE,2018-03-22T15:00:00Z,-53.78,-67.75,14.0,8.0,270,23,33,6.21,28.848425,,,,,,,,,,,FEW,1600,,,,,,,VFR,,,,,,,,,,,,METAR,22.0
SBPP 221500Z 33008KT 9999 BKN025 29/21 Q1013,SBPP,2018-03-22T15:00:00Z,-22.55,-55.7,29.0,21.0,330,8,,6.21,29.911417,,,,,,,,,,,BKN,2500,,,,,,,MVFR,,,,,,,,,,,,METAR,660.0
SBTT 221500Z 12002KT 9999 SCT016 28/22 Q1015,SBTT,2018-03-22T15:00:00Z,-4.25,-69.93,28.0,22.0,120,2,,6.21,29.970472,,,,,,,,,,,SCT,1600,,,,,,,VFR,,,,,,,,,,,,METAR,85.0
SBSG 221500Z 13014KT 100V160 9999 BKN020 31/22 Q1012,SBSG,2018-03-22T15:00:00Z,-5.77,-35.37,31.0,22.0,130,14,,6.21,29.88189,,,,,,,,,,,BKN,2000,,,,,,,MVFR,,,,,,,,,,,,METAR,83.0
SBBE 221500Z 06008KT 9999 BKN030 30/23 Q1012,SBBE,2018-03-22T15:00:00Z,-1.37,-48.47,30.0,23.0,60,8,,6.21,29.88189,,,,,,,,,,,BKN,3000,,,,,,,MVFR,,,,,,,,,,,,METAR,16.0
SLYA 221500Z 04008KT 9999 BKN015 OVC070 21/19 Q1009,SLYA,2018-03-22T15:00:00Z,-21.97,-63.65,21.0,19.0,40,8,,6.21,29.793306,,,,,,,,,,,BKN,1500,OVC,7000,,,,,MVFR,,,,,,,,,,,,METAR,645.0
SLVM 221500Z 36008KT 9999 SCT020 BKN070 25/19 Q1008,SLVM,2018-03-22T15:00:00Z,-21.25,-63.4,25.0,19.0,360,8,,6.21,29.763779,,,,,,,,,,,SCT,2000,BKN,7000,,,,,VFR,,,,,,,,,,,,METAR,400.0
SLSI 221500Z 33006KT 9999 BKN015 27/24 Q1013,SLSI,2018-03-22T15:00:00Z,-16.37,-60.95,27.0,24.0,330,6,,6.21,29.911417,,,,,,,,,,,BKN,1500,,,,,,,MVFR,,,,,,,,,,,,METAR,413.0
SLSA 221500Z 34006KT 9999 SCT017 28/23 Q1013,SLSA,2018-03-22T15:00:00Z,-13.77,-65.43,28.0,23.0,340,6,,6.21,29.911417,,,,,,,,,,,SCT,1700,,,,,,,VFR,,,,,,,,,,,,METAR,144.0
SLRY 221500Z 32205KT 9999 SCT016 27/23 Q1011,SLRY,2018-03-22T15:00:00Z,-14.3,-67.37,27.0,23.0,322,5,,6.21,29.852362,,,,,,,,,,,SCT,1600,,,,,,,VFR,,,,,,,,,,,,METAR,280.0
SLRQ 221500Z 00000KT 9999 SCT016 SCT200 28/24 Q1012,SLRQ,2018-03-22T15:00:00Z,-14.42,-67.5,28.0,24.0,0,0,,6.21,29.88189,,,,,,,,,,,SCT,1600,SCT,20000,,,,,VFR,,,,,,,,,,,,METAR,203.0
SLRI 221500Z 34006KT 9999 SCT015 BKN080 28/24 Q1014,SLRI,2018-03-22T15:00:00Z,-11.02,-66.08,28.0,24.0,340,6,,6.21,29.940945,,,,,,,,,,,SCT,1500,BKN,8000,,,,,VFR,,,,,,,,,,,,METAR,135.0
SLRB 221500Z 36015KT 9999 SCT020 29/24 Q1014,SLRB,2018-03-22T15:00:00Z,-18.32,-59.75,29.0,24.0,360,15,,6.21,29.940945,,,,,,,,,,,SCT,2000,,,,,,,VFR,,,,,,,,,,,,METAR,284.0
SLPS 221500Z 09006KT 9999 BKN017 30/26 Q1011,SLPS,2018-03-22T15:00:00Z,-18.98,-57.82,30.0,26.0,90,6,,6.21,29.852362,,,,,,,,,,,BKN,1700,,,,,,,MVFR,,,,,,,,,,,,METAR,135.0
SLPO 221500Z 24005KT 9999 NSC 14/09 Q1036,SLPO,2018-03-22T15:00:00Z,-19.52,-65.72,14.0,9.0,240,5,,6.21,30.590551,,,,,,,,,,,CLR,,,,,,,,VFR,,,,,,,,,,,,METAR,3934.0
SLOR 221500Z 30008KT 9999 FEW017 SCT200 15/07 Q1035,SLOR,2018-03-22T15:00:00Z,-17.97,-67.08,15.0,7.0,300,8,,6.21,30.561024,,,,,,,,,,,FEW,1700,SCT,20000,,,,,VFR,,,,,,,,,,,,METAR,3702.0
SLMG 221500Z 32006KT 9999 SCT017 BKN200 28/24 Q1012,SLMG,2018-03-22T15:00:00Z,-13.27,-64.07,28.0,24.0,320,6,,6.21,29.88189,,,,,,,,,,,SCT,1700,BKN,20000,,,,,VFR,,,,,,,,,,,,METAR,141.0
SLJO 221500Z 34005KT 9999 BKN015 28/23 Q1012,SLJO,2018-03-22T15:00:00Z,-13.07,-64.67,28.0,23.0,340,5,,6.21,29.88189,,,,,,,,,,,BKN,1500,,,,,,,MVFR,,,,,,,,,,,,METAR,140.0
SLJE 221500Z 33005KT 9999 BKN017 31/24 Q1013,SLJE,2018-03-22T15:00:00Z,-17.82,-60.75,31.0,24.0,330,5,,6.21,29.911417,,,,,,,,,,,BKN,1700,,,,,,,MVFR,,,,,,,,,,,,METAR,284.0
SLCP 221500Z 33010KT 9999 BKN015 26/23 Q1015,SLCP,2018-03-22T15:00:00Z,-16.15,-62.02,26.0,23.0,330,10,,6.21,29.970472,,,,,,,,,,,BKN,1500,,,,,,,MVFR,,,,,,,,,,,,METAR,497.0
SLCO 221500Z VRB02KT 9999 BKN008 27/24 Q1014,SLCO,2018-03-22T15:00:00Z,-11.03,-68.78,27.0,24.0,0,2,,6.21,29.940945,,,,,,,,,,,BKN,800,,,,,,,IFR,,,,,,,,,,,,METAR,272.0
SLCA 221500Z 36008KT 9999 BKN036 25/19 Q1011,SLCA,2018-03-22T15:00:00Z,-20.0,-63.53,25.0,19.0,360,8,,6.21,29.852362,,,,,,,,,,,BKN,3600,,,,,,,VFR,,,,,,,,,,,,METAR,798.0
BIVM 221500Z 25020KT 9999 VCSH SCT030 05/04 Q0986,BIVM,2018-03-22T15:00:00Z,63.42,-20.27,5.0,4.0,250,20,,6.21,29.114174,,,,,,,,,,VCSH,SCT,3000,,,,,,,VFR,,,,,,,,,,,,METAR,124.0
DTTZ 221500Z 30015KT 8000 BKN030 13/04 Q1010 NOSIG,DTTZ,2018-03-22T15:00:00Z,33.92,8.08,13.0,4.0,300,15,,4.97,29.822834,,,,,,TRUE,,,,,BKN,3000,,,,,,,MVFR,,,,,,,,,,,,METAR,93.0
DTTX 221500Z 28017G28KT 250V310 9999 FEW020 SCT030 17/M00 Q1006 NOSIG,DTTX,2018-03-22T15:00:00Z,34.72,10.67,17.0,0.0,280,17,28,6.21,29.704725,,,,,,TRUE,,,,,FEW,2000,SCT,3000,,,,,VFR,,,,,,,,,,,,METAR,23.0
DTTJ 221500Z 25023KT 8000 FEW020 16/01 Q1007 NOSIG,DTTJ,2018-03-22T15:00:00Z,33.87,10.77,16.0,1.0,250,23,,4.97,29.734253,,,,,,TRUE,,,,,FEW,2000,,,,,,,MVFR,,,,,,,,,,,,METAR,4.0
DTTG 221500Z 26021KT 8000 SCT020 15/01 Q1008 NOISIG,DTTG,2018-03-22T15:00:00Z,33.73,9.92,15.0,1.0,260,21,,4.97,29.763779,,,,,,,,,,,SCT,2000,,,,,,,MVFR,,,,,,,,,,,,METAR,5.0
DTTF 221500Z /////KT 8000 SCT023 13/03 Q1008 NOSIG,DTTF,2018-03-22T15:00:00Z,34.42,8.82,13.0,3.0,,,,4.97,29.763779,,,,,,TRUE,,,,,SCT,2300,,,,,,,MVFR,,,,,,,,,,,,METAR,314.0
DTTA 221500Z 32017KT 270V340 8000 -RA BKN026TCU 09/07 Q1006 NOSIG,DTTA,2018-03-22T15:00:00Z,36.85,10.22,9.0,7.0,320,17,,4.97,29.704725,,,,,,TRUE,,,,-RA,BKN,2600,,,,,,,MVFR,,,,,,,,,,,,METAR,4.0
DTNH 221500Z 33014KT 8000 -RA SCT023 SCT030 12/06 Q1005,DTNH,2018-03-22T15:00:00Z,36.07,10.43,12.0,6.0,330,14,,4.97,29.675198,,,,,,,,,,-RA,SCT,2300,SCT,3000,,,,,MVFR,,,,,,,,,,,,METAR,2.0
DTMB 221500Z 28020G30KT 9999 BKN026 FEW030CB SCT040 13/06 Q1005,DTMB,2018-03-22T15:00:00Z,35.77,10.75,13.0,6.0,280,20,30,6.21,29.675198,,,,,,,,,,,BKN,2600,FEW,3000,SCT,4000,,,MVFR,,,,,,,,,,,,METAR,2.0
DTKA 221500Z 31016KT 9999 SCT020 SCT030 12/05 Q1009 NOSIG,DTKA,2018-03-22T15:00:00Z,36.98,8.88,12.0,5.0,310,16,,6.21,29.793306,,,,,,TRUE,,,,,SCT,2000,SCT,3000,,,,,VFR,,,,,,,,,,,,METAR,21.0
UTDL 221500Z 16003MPS 110V200 9999 -SHRA BKN058CB OVC086 17/12 Q1012 R26/29//50 NOSIG RMK QFE721/0962,UTDL,2018-03-22T15:00:00Z,40.22,69.7,17.0,12.0,160,6,,6.21,29.88189,,,,,,TRUE,,,,-SHRA,BKN,5800,OVC,8600,,,,,VFR,,,,,,,,,,,,METAR,442.0
UTDT 221500Z VRB01MPS 9999 FEW050CB SCT150 21/09 Q1012 35////// RMK QFE720/0960,UTDT,2018-03-22T15:00:00Z,37.87,68.87,21.0,9.0,0,2,,6.21,29.88189,,,,,,,,,,,FEW,5000,SCT,15000,,,,,VFR,,,,,,,,,,,,METAR,449.0
DXSK 221500Z 18002KT CAVOK 36/19 Q////,DXSK,2018-03-22T15:00:00Z,9.0,1.15,36.0,19.0,180,2,,6.21,,,,,,,,,,,,CAVOK,,,,,,,,VFR,,,,,,,,,,,,METAR,387.0
HRYR 221500Z 02003KT 9999 FEW025 SCT100 23/16 Q1018 NOSIG,HRYR,2018-03-22T15:00:00Z,-1.97,30.12,23.0,16.0,20,3,,6.21,30.059055,,,,,,TRUE,,,,,FEW,2500,SCT,10000,,,,,VFR,,,,,,,,,,,,METAR,1497.0
CYAB 221500Z 30004KT 250V320 20SM FEW005 FEW018 SCT080 BKN220 M27/M31 A3024 RMK ST1SC2AC1CI3 ST TR SLP245,CYAB,2018-03-22T15:00:00Z,73.0,-85.05,-27.0,-31.0,300,4,,20.0,30.239174,1024.5,,,,,,,,,,FEW,500,FEW,1800,SCT,8000,BKN,22000,VFR,,,,,,,,,,,,METAR,22.0
CYLL 221500Z CCA 10017KT 5SM BR BKN005 OVC030 M02/M03 A3015 RMK SC7SC1 CIG RAG SLP251,CYLL,2018-03-22T15:00:00Z,53.32,-110.07,-2.0,-3.0,100,17,,5.0,30.15059,1025.1,,,,,,,,,BR,BKN,500,OVC,3000,,,,,IFR,,,,,,,,,,,,METAR,669.0
VGHS 221500Z 21005KT 4000 HZ NSC 27/17 Q1006 NOSIG,VGHS,2018-03-22T15:00:00Z,23.85,90.4,27.0,17.0,210,5,,2.49,29.704725,,,,,,TRUE,,,,HZ,CLR,,,,,,,,IFR,,,,,,,,,,,,METAR,10.0
NZCH 221500Z AUTO 28004KT 9999 -RA BKN040/// 09/06 Q1027 NOSIG,NZCH,2018-03-22T15:00:00Z,-43.47,172.55,9.0,6.0,280,4,,6.21,30.324802,,,TRUE,,,TRUE,,,,-RA,BKN,4000,,,,,,,VFR,,,,,,,,,,,,METAR,34.0
NZWN 221500Z AUTO 18017KT 3900 -RA BR BKN007/// 13/12 Q1025 TEMPO 9999 BKN012,NZWN,2018-03-22T15:00:00Z,-41.32,174.8,13.0,12.0,180,17,,2.42,30.265747,,,TRUE,,,,,,,-RA BR,BKN,700,,,,,,,IFR,,,,,,,,,,,,METAR,7.0
NZAA 221500Z AUTO 11003KT 9999 NCD 16/14 Q1020 NOSIG,NZAA,2018-03-22T15:00:00Z,-37.02,174.8,16.0,14.0,110,3,,6.21,30.11811,,,TRUE,,,TRUE,,,,,CLR,,,,,,,,VFR,,,,,,,,,,,,METAR,6.0
CYBQ 221500Z AUTO 03007KT 9SM CLR M25/M30 A3077 RMK SLP460,CYBQ,2018-03-22T15:00:00Z,58.7,-98.5,-25.0,-30.0,30,7,,9.0,30.77067,1046.0,,TRUE,,,,,,,,CLR,,,,,,,,VFR,,,,,,,,,,,,METAR,262.0
CYBK 221500Z 30014KT 20SM IC DRSN FEW100 FEW210 M31/M36 A3092 RMK AC1CI1 SLP475,CYBK,2018-03-22T15:00:00Z,64.28,-96.07,-31.0,-36.0,300,14,,20.0,30.921259,1047.5,,,,,,,,,IC DRSN,FEW,10000,FEW,21000,,,,,VFR,,,,,,,,,,,,METAR,18.0
CWBZ 221500Z AUTO 24004KT M01/M08 RMK AO1 SLP159 T10071079 51005,CWBZ,2018-03-22T15:00:00Z,45.12,-74.27,-0.7,-7.9,240,4,,,,1015.9,,TRUE,TRUE,,,,,,,,,,,,,,,,0.5,,,,,,,,,,,METAR,49.0
CWBS 221500Z AUTO 01006KT M00/M05 RMK AO1 T10031051,CWBS,2018-03-22T15:00:00Z,46.18,-72.92,-0.3,-5.1,10,6,,,,,,TRUE,TRUE,,,,,,,,,,,,,,,,,,,,,,,,,,,METAR,16.0
CWAV 221500Z AUTO 16002KT M06/M06 RMK AO1 SOG 40 8001 SLP184 T10571064,CWAV,2018-03-22T15:00:00Z,51.77,-114.67,-5.7,-6.4,160,2,,,,1018.4,,TRUE,TRUE,,,,,,,,,,,,,,,,,,,,,,,,,,,METAR,1114.0
CWAQ 221500Z AUTO 11008KT M03/M04 RMK AO1 SOG 00 2006 SLP226 T10251036,CWAQ,2018-03-22T15:00:00Z,49.05,-105.48,-2.5,-3.6,110,8,,,,1022.6,,TRUE,TRUE,,,,,,,,,,,,,,,,,,,,,,,,,,,METAR,756.0
CWAF 221500Z AUTO 03022KT M01/M03 RMK AO1 PK WND 03026/1425 T10081031,CWAF,2018-03-22T15:00:00Z,48.07,-69.53,-0.8,-3.1,30,22,,,,,,TRUE,TRUE,,,,,,,,,,,,,,,,,,,,,,,,,,,METAR,5.0
CWJH 221500Z AUTO 06006KT M13/ RMK AO1 SOG 63 1022 SLP372 T1129 50002,CWJH,2018-03-22T15:00:00Z,56.32,-103.27,-12.9,,60,6,,,,1037.2,,TRUE,TRUE,,,,,,,,,,,,,,,,0.2,,,,,,,,,,,METAR,344.0
CWJC 221500Z AUTO 03003KT M30/M34 RMK AO1 SOG 21 1004 SLP482 T13041341 50002,CWJC,2018-03-22T15:00:00Z,61.13,-100.9,-30.4,-34.1,30,3,,,,1048.2,,TRUE,TRUE,,,,,,,,,,,,,,,,0.2,,,,,,,,,,,METAR,357.0
CWJB 221500Z AUTO 04009G16KT 01/ RMK AO1 SOG 62 T0009,CWJB,2018-03-22T15:00:00Z,46.78,-71.27,0.9,,40,9,16,,,,,TRUE,TRUE,,,,,,,,,,,,,,,,,,,,,,,,,,,METAR,91.0
CWIZ 221500Z AUTO 01004KT M00/M06 RMK AO1 SOG 11 T10011063,CWIZ,2018-03-22T15:00:00Z,45.28,-73.33,-0.1,-6.3,10,4,,,,,,TRUE,TRUE,,,,,,,,,,,,,,,,,,,,,,,,,,,METAR,45.0
CWIW 221500Z AUTO 07001KT M13/M14 RMK AO1 SOG 14 1015 SLP289 T11281140,CWIW,2018-03-22T15:00:00Z,51.67,-105.4,-12.8,-14.0,70,1,,,,1028.9,,TRUE,TRUE,,,,,,,,,,,,,,,,,,,,,,,,,,,METAR,526.0
CWIT 221500Z AUTO 35004KT M00/M07 RMK AO1 SOG 10 0005 SLP142 T10011067,CWIT,2018-03-22T15:00:00Z,45.17,-73.67,-0.1,-6.7,350,4,,,,1014.2,,TRUE,TRUE,,,,,,,,,,,,,,,,,,,,,,,,,,,METAR,52.0
CWIP 221500Z AUTO 06006KT 01/ RMK AO1 T0007,CWIP,2018-03-22T15:00:00Z,50.17,-66.43,0.7,,60,6,,,,,,TRUE,TRUE,,,,,,,,,,,,,,,,,,,,,,,,,,,METAR,25.0
CWIJ 221500Z AUTO 22008KT M30/M33 RMK AO1 SOG 47 8015 SLP441 T13001331,CWIJ,2018-03-22T15:00:00Z,65.77,-111.23,-30.0,-33.1,220,8,,,,1044.1,,TRUE,TRUE,,,,,,,,,,,,,,,,,,,,,,,,,,,METAR,500.0
CWII 221500Z AUTO 05003KT 01/M02 RMK AO1 T00141015,CWII,2018-03-22T15:00:00Z,50.7,-96.57,1.4,-1.5,50,3,,,,,,TRUE,TRUE,,,,,,,,,,,,,,,,,,,,,,,,,,,METAR,220.0
CWIG 221500Z AUTO 04022G31KT RMK AO1 PK WND 05031/1459,CWIG,2018-03-22T15:00:00Z,47.07,-70.53,,,40,22,31,,,,,TRUE,TRUE,,,,,,,,,,,,,,,,,,,,,,,,,,,METAR,18.0
CWID 221500Z AUTO 06001KT M24/M28 RMK AO1 SLP404 T12411278 58007,CWID,2018-03-22T15:00:00Z,61.32,-117.6,-24.1,-27.8,60,1,,,,1040.4,,TRUE,TRUE,,,,,,,,,,,,,,,,-0.7,,,,,,,,,,,METAR,161.0
CWHV 221500Z AUTO 33005KT M01/M07 RMK AO1 SLP122 T10121073 56014,CWHV,2018-03-22T15:00:00Z,46.2,-70.77,-1.2,-7.3,330,5,,,,1012.2,,TRUE,TRUE,,,,,,,,,,,,,,,,-1.4,,,,,,,,,,,METAR,229.0
CWHT 221500Z AUTO 31011G18KT M09/M16 RMK AO1 SOG 24 8003 PK WND 28019/1447 SLP289 T10891155,CWHT,2018-03-22T15:00:00Z,60.77,-137.58,-8.9,-15.5,310,11,18,,,1028.9,,TRUE,TRUE,,,,,,,,,,,,,,,,,,,,,,,,,,,METAR,599.0
CWHL 221500Z AUTO 03008KT 04/02 RMK AO1 2PAST HR 8021 SLP933 P0001 T00350024 50012,CWHL,2018-03-22T15:00:00Z,54.17,-130.35,3.5,2.4,30,8,,,,993.3,,TRUE,TRUE,,,,,,,,,,,,,,,,1.2,,,,,0.01,,,,,,METAR,5.0
CWHI 221500Z AUTO 09003KT M07/M08 RMK AO1 T10701078,CWHI,2018-03-22T15:00:00Z,51.7,-113.22,-7.0,-7.8,90,3,,,,,,TRUE,TRUE,,,,,,,,,,,,,,,,,,,,,,,,,,,METAR,907.0
CWGY 221500Z AUTO 08011KT M06/M08 RMK AO1 SLP229 T10601075 50002,CWGY,2018-03-22T15:00:00Z,51.67,-110.2,-6.0,-7.5,80,11,,,,1022.9,,TRUE,TRUE,,,,,,,,,,,,,,,,0.2,,,,,,,,,,,METAR,707.0
CWCJ 221500Z AUTO 01003KT M07/M17 RMK AO1 SOG 51 1005 SLP289 T10661166,CWCJ,2018-03-22T15:00:00Z,48.6,-86.28,-6.6,-16.6,10,3,,,,1028.9,,TRUE,TRUE,,,,,,,,,,,,,,,,,,,,,,,,,,,METAR,206.0
SVVA 221500Z 09005KT 9999 BKN016 30/22 Q1016,SVVA,2018-03-22T15:00:00Z,10.15,-67.92,30.0,22.0,90,5,,6.21,30.0,,,,,,,,,,,BKN,1600,,,,,,,MVFR,,,,,,,,,,,,METAR,431.0
MTPP 221500Z 09014KT 9000 FEW02632/20 Q1016 A3003,MTPP,2018-03-22T15:00:00Z,18.57,-72.28,32.0,20.0,90,14,,5.59,30.0,,,,,,,,,,,,,,,,,,,,,,,,,,,,,,,SPECI,37.0
SBSM 221500Z 12008KT 070V150 CAVOK 23/15 Q1013,SBSM,2018-03-22T15:00:00Z,-29.72,-53.7,23.0,15.0,120,8,,6.21,29.911417,,,,,,,,,,,CAVOK,,,,,,,,VFR,,,,,,,,,,,,METAR,85.0
SBMG 221500Z 03012KT 9999 BKN025 26/21 Q1013,SBMG,2018-03-22T15:00:00Z,-23.48,-52.02,26.0,21.0,30,12,,6.21,29.911417,,,,,,,,,,,BKN,2500,,,,,,,MVFR,,,,,,,,,,,,METAR,542.0
SBJV 221500Z 09001KT 9999 BKN015 BKN040 25/20 Q1015,SBJV,2018-03-22T15:00:00Z,-26.22,-48.8,25.0,20.0,90,1,,6.21,29.970472,,,,,,,,,,,BKN,1500,BKN,4000,,,,,MVFR,,,,,,,,,,,,METAR,4.0
SBCH 221500Z 02014KT 9999 VCSH FEW020 SCT070 24/18 Q1015,SBCH,2018-03-22T15:00:00Z,-27.13,-52.67,24.0,18.0,20,14,,6.21,29.970472,,,,,,,,,,VCSH,FEW,2000,SCT,7000,,,,,VFR,,,,,,,,,,,,METAR,650.0
SBCA 221500Z 02018KT 9999 SCT009 BKN015 25/22 Q1015,SBCA,2018-03-22T15:00:00Z,-25.0,-53.5,25.0,22.0,20,18,,6.21,29.970472,,,,,,,,,,,SCT,900,BKN,1500,,,,,MVFR,,,,,,,,,,,,METAR,754.0
SBQV 221500Z 06006KT 9999 BKN030 27/18 Q1018,SBQV,2018-03-22T15:00:00Z,-14.87,-40.87,27.0,18.0,60,6,,6.21,30.059055,,,,,,,,,,,BKN,3000,,,,,,,MVFR,,,,,,,,,,,,METAR,893.0
SBLP 221500Z 32004KT 9999 FEW020 SCT030 32/22 Q1014,SBLP,2018-03-22T15:00:00Z,-13.27,-43.42,32.0,22.0,320,4,,6.21,29.940945,,,,,,,,,,,FEW,2000,SCT,3000,,,,,VFR,,,,,,,,,,,,METAR,440.0
SBLE 221500Z 05003KT 9999 BKN025 ///// Q1016,SBLE,2018-03-22T15:00:00Z,-12.48,-41.28,,,50,3,,6.21,30.0,,,,,,,,,,,BKN,2500,,,,,,,MVFR,,,,,,,,,,,,METAR,511.0
SBKG 221500Z 07011KT 9999 BKN036 29/20 Q1014,SBKG,2018-03-22T15:00:00Z,-7.27,-35.87,29.0,20.0,70,11,,6.21,29.940945,,,,,,,,,,,BKN,3600,,,,,,,VFR,,,,,,,,,,,,METAR,560.0
SBIL 221500Z 05006KT 9999 FEW020 FEW025TCU SCT070 30/25 Q1013,SBIL,2018-03-22T15:00:00Z,-14.8,-39.02,30.0,25.0,50,6,,6.21,29.911417,,,,,,,,,,,FEW,2000,FEW,2500,SCT,7000,,,VFR,,,,,,,,,,,,METAR,5.0
SBYS 221500Z 14003KT 9999 BKN025 28/19 Q1016,SBYS,2018-03-22T15:00:00Z,-21.97,-47.32,28.0,19.0,140,3,,6.21,30.0,,,,,,,,,,,BKN,2500,,,,,,,MVFR,,,,,,,,,,,,METAR,598.0
SBUL 221500Z 34005KT 9999 SCT030 28/20 Q1017,SBUL,2018-03-22T15:00:00Z,-18.87,-48.22,28.0,20.0,340,5,,6.21,30.029528,,,,,,,,,,,SCT,3000,,,,,,,VFR,,,,,,,,,,,,METAR,922.0
SBTA 221500Z 02003KT 9000 SCT025 27/23 Q1015,SBTA,2018-03-22T15:00:00Z,-23.03,-45.5,27.0,23.0,20,3,,5.59,29.970472,,,,,,,,,,,SCT,2500,,,,,,,VFR,,,,,,,,,,,,METAR,586.0
SBST 221500Z 14004KT 6000 BKN006 BKN040 25/23 Q1014,SBST,2018-03-22T15:00:00Z,-23.92,-46.28,25.0,23.0,140,4,,3.73,29.940945,,,,,,,,,,,BKN,600,BKN,4000,,,,,IFR,,,,,,,,,,,,METAR,3.0
SBSC 221500Z 14008KT 9999 SCT010 OVC025 25/22 Q1014,SBSC,2018-03-22T15:00:00Z,-22.92,-43.72,25.0,22.0,140,8,,6.21,29.940945,,,,,,,,,,,SCT,1000,OVC,2500,,,,,MVFR,,,,,,,,,,,,METAR,3.0
SBPR 221500Z 32004KT 9999 BKN025 SCT080 27/19 Q1017,SBPR,2018-03-22T15:00:00Z,-19.9,-43.98,27.0,19.0,320,4,,6.21,30.029528,,,,,,,,,,,BKN,2500,SCT,8000,,,,,MVFR,,,,,,,,,,,,METAR,927.0
SBPC 221500Z 05006KT 9999 SCT015 29/22 Q1019,SBPC,2018-03-22T15:00:00Z,-21.85,-46.57,29.0,22.0,50,6,,6.21,30.088583,,,,,,,,,,,SCT,1500,,,,,,,VFR,,,,,,,,,,,,METAR,1260.0
SBMT 221500Z 06006KT 020V090 9999 BKN018 BKN022 OVC035 24/18 Q1017,SBMT,2018-03-22T15:00:00Z,-23.52,-46.62,24.0,18.0,60,6,,6.21,30.029528,,,,,,,,,,,BKN,1800,BKN,2200,OVC,3500,,,MVFR,,,,,,,,,,,,METAR,722.0
SBMK 221500Z 26005KT 220V330 9999 FEW048 27/17 Q1016,SBMK,2018-03-22T15:00:00Z,-16.7,-43.82,27.0,17.0,260,5,,6.21,30.0,,,,,,,,,,,FEW,4800,,,,,,,VFR,,,,,,,,,,,,METAR,646.0
SBME 221500Z 19005KT 6000 -RA BKN015 OVC080 28/24 Q1013,SBME,2018-03-22T15:00:00Z,-22.35,-41.77,28.0,24.0,190,5,,3.73,29.911417,,,,,,,,,,-RA,BKN,1500,OVC,8000,,,,,MVFR,,,,,,,,,,,,METAR,2.0
SBLS 221500Z VRB04KT 9999 BKN030 SCT100 26/19 Q1017,SBLS,2018-03-22T15:00:00Z,-19.67,-43.88,26.0,19.0,0,4,,6.21,30.029528,,,,,,,,,,,BKN,3000,SCT,10000,,,,,MVFR,,,,,,,,,,,,METAR,852.0
SBJR 221500Z 19002KT 1500 -RA BR BKN005 BKN015 OVC020 24/23 Q1014,SBJR,2018-03-22T15:00:00Z,-22.97,-43.37,24.0,23.0,190,2,,0.93,29.940945,,,,,,,,,,-RA BR,BKN,500,BKN,1500,OVC,2000,,,LIFR,,,,,,,,,,,,METAR,3.0
SBIP 221500Z 13003KT 9999 SCT020 BKN080 28/22 Q1015,SBIP,2018-03-22T15:00:00Z,-19.47,-42.48,28.0,22.0,130,3,,6.21,29.970472,,,,,,,,,,,SCT,2000,BKN,8000,,,,,VFR,,,,,,,,,,,,METAR,239.0
SBGW 221500Z 06004KT 9999 SCT020 28/21 Q1015,SBGW,2018-03-22T15:00:00Z,-22.77,-45.2,28.0,21.0,60,4,,6.21,29.970472,,,,,,,,,,,SCT,2000,,,,,,,VFR,,,,,,,,,,,,METAR,533.0
SBES 221500Z 15008KT 7000 3000NE -RA BKN006 BKN030 24/24 Q1014,SBES,2018-03-22T15:00:00Z,-22.82,-42.1,24.0,24.0,150,8,,4.35,29.940945,,,,,,,,,,-RA,BKN,600,BKN,3000,,,,,IFR,,,,,,,,,,,,SPECI,11.0
SBDN 221500Z VRB08004KT 9999 BKN020 29/19 Q1014,SBDN,2018-03-22T15:00:00Z,-22.18,-51.43,29.0,19.0,0,80,,6.21,29.940945,,,,,,,,,,,BKN,2000,,,,,,,MVFR,,,,,,,,,,,,METAR,435.0
SBCO 221500Z 10008KT 9999 FEW040 24/15 Q1014,SBCO,2018-03-22T15:00:00Z,-29.95,-51.15,24.0,15.0,100,8,,6.21,29.940945,,,,,,,,,,,FEW,4000,,,,,,,VFR,,,,,,,,,,,,METAR,47.0
SBBU 221500Z 01004KT 9999 BKN026 28/24 Q1015,SBBU,2018-03-22T15:00:00Z,-22.32,-49.07,28.0,24.0,10,4,,6.21,29.970472,,,,,,,,,,,BKN,2600,,,,,,,MVFR,,,,,,,,,,,,METAR,590.0
SBBQ 221500Z 10005KT 070V140 9999 -RA BKN018 FEW025TCU BKN100 23/19 Q1020,SBBQ,2018-03-22T15:00:00Z,-21.25,-43.77,23.0,19.0,100,5,,6.21,30.11811,,,,,,,,,,-RA,BKN,1800,FEW,2500,BKN,10000,,,MVFR,,,,,,,,,,,,METAR,1171.0
SBBI 221500Z 01006KT 9999 BKN015 19/16 Q1018,SBBI,2018-03-22T15:00:00Z,-25.4,-49.23,19.0,16.0,10,6,,6.21,30.059055,,,,,,,,,,,BKN,1500,,,,,,,MVFR,,,,,,,,,,,,METAR,923.0
SBBH 221500Z 22003KT 9999 BKN033 FEW035TCU 27/18 Q1016,SBBH,2018-03-22T15:00:00Z,-19.85,-43.95,27.0,18.0,220,3,,6.21,30.0,,,,,,,,,,,BKN,3300,FEW,3500,,,,,VFR,,,,,,,,,,,,METAR,785.0
SBAF 221500Z 28002KT 1000 RA BR BKN010 OVC020 24/23 Q1014,SBAF,2018-03-22T15:00:00Z,-22.87,-43.37,24.0,23.0,280,2,,0.62,29.940945,,,,,,,,,,RA BR,BKN,1000,OVC,2000,,,,,LIFR,,,,,,,,,,,,METAR,34.0
SBPJ 221500Z 20004KT 9999 FEW030 FEW035TCU BKN100 28/24 Q1013,SBPJ,2018-03-22T15:00:00Z,-10.28,-48.37,28.0,24.0,200,4,,6.21,29.911417,,,,,,,,,,,FEW,3000,FEW,3500,BKN,10000,,,VFR,,,,,,,,,,,,METAR,236.0
SBBW 221500Z 03003KT 9999 FEW020 FEW025TCU SCT090 32/24 Q1012,SBBW,2018-03-22T15:00:00Z,-15.87,-52.37,32.0,24.0,30,3,,6.21,29.88189,,,,,,,,,,,FEW,2000,FEW,2500,SCT,9000,,,VFR,,,,,,,,,,,,METAR,350.0
SBAN 221500Z 32003KT 9999 VCSH FEW011 BKN030 FEW035TCU 23/20 Q1019,SBAN,2018-03-22T15:00:00Z,-16.22,-48.97,23.0,20.0,320,3,,6.21,30.088583,,,,,,,,,,VCSH,FEW,1100,BKN,3000,FEW,3500,,,MVFR,,,,,,,,,,,,METAR,1137.0
SBVH 221500Z 32007KT 290V350 9999 SCT020 27/23 Q1016,SBVH,2018-03-22T15:00:00Z,-12.72,-60.12,27.0,23.0,320,7,,6.21,30.0,,,,,,,,,,,SCT,2000,,,,,,,VFR,,,,,,,,,,,,METAR,652.0
SBUA 221500Z 34002KT 9999 BKN020 FEW025TCU 29/25 Q1013,SBUA,2018-03-22T15:00:00Z,-0.15,-66.98,29.0,25.0,340,2,,6.21,29.911417,,,,,,,,,,,BKN,2000,FEW,2500,,,,,MVFR,,,,,,,,,,,,METAR,79.0
SBTU 221500Z /////KT 9999 BKN020 ///// Q1015,SBTU,2018-03-22T15:00:00Z,-3.78,-49.72,,,,,,6.21,29.970472,,,,,,,,,,,BKN,2000,,,,,,,MVFR,,,,,,,,,,,,SPECI,40.0
SBTK 221500Z 27003KT CAVOK 25/23 Q1015,SBTK,2018-03-22T15:00:00Z,-8.17,-70.77,25.0,23.0,270,3,,6.21,29.970472,,,,,,,,,,,CAVOK,,,,,,,,VFR,,,,,,,,,,,,METAR,188.0
SBMY 221500Z 17002KT 9999 SCT015 32/25 Q1013,SBMY,2018-03-22T15:00:00Z,-5.82,-61.28,32.0,25.0,170,2,,6.21,29.911417,,,,,,,,,,,SCT,1500,,,,,,,VFR,,,,,,,,,,,,METAR,49.0
SBMD 221500Z 10004KT 9999 BKN018 28/25 Q1014,SBMD,2018-03-22T15:00:00Z,-0.87,-52.6,28.0,25.0,100,4,,6.21,29.940945,,,,,,,,,,,BKN,1800,,,,,,,MVFR,,,,,,,,,,,,METAR,206.0
SBIZ 221500Z 09002KT 9999 SCT018 BKN070 30/25 Q1012,SBIZ,2018-03-22T15:00:00Z,-5.52,-47.45,30.0,25.0,90,2,,6.21,29.88189,,,,,,,,,,,SCT,1800,BKN,7000,,,,,VFR,,,,,,,,,,,,METAR,123.0
SBHT 221500Z 03006KT 9999 BKN017 30/25 Q1013,SBHT,2018-03-22T15:00:00Z,-3.25,-52.27,30.0,25.0,30,6,,6.21,29.911417,,,,,,,,,,,BKN,1700,,,,,,,MVFR,,,,,,,,,,,,METAR,74.0
SBGM 221500Z 31002KT 9999 BKN020 28/24 Q1014,SBGM,2018-03-22T15:00:00Z,-10.78,-65.28,28.0,24.0,310,2,,6.21,29.940945,,,,,,,,,,,BKN,2000,,,,,,,MVFR,,,,,,,,,,,,METAR,146.0
SBEK 221500Z 00000KT 9999 -TSRA FEW020 FEW025CB BKN080 24/24 Q1013,SBEK,2018-03-22T15:00:00Z,-6.23,-57.78,24.0,24.0,0,0,,6.21,29.911417,,,,,,,,,,-TSRA,FEW,2000,FEW,2500,BKN,8000,,,VFR,,,,,,,,,,,,METAR,98.0
SBCI 221500Z 18003KT 9999 SCT020 FEW023TCU 30/25 Q1013,SBCI,2018-03-22T15:00:00Z,-7.32,-47.47,30.0,25.0,180,3,,6.21,29.911417,,,,,,,,,,,SCT,2000,FEW,2300,,,,,VFR,,,,,,,,,,,,METAR,183.0
SBCC 221500Z 28008KT 9999 TS VCSH BKN040 FEW048CB 29/21 Q1014,SBCC,2018-03-22T15:00:00Z,-9.32,-54.95,29.0,21.0,280,8,,6.21,29.940945,,,,,,,,,,TS VCSH,BKN,4000,FEW,4800,,,,,VFR,,,,,,,,,,,,METAR,536.0
SBAT 221500Z 25004KT 9999 BKN025 33/25 Q1014,SBAT,2018-03-22T15:00:00Z,-9.87,-56.1,33.0,25.0,250,4,,6.21,29.940945,,,,,,,,,,,BKN,2500,,,,,,,MVFR,,,,,,,,,,,,METAR,288.0
SBAA 221500Z 09005KT 9999 BKN025 35/23 Q1012,SBAA,2018-03-22T15:00:00Z,-8.35,-49.3,35.0,23.0,90,5,,6.21,29.88189,,,,,,,,,,,BKN,2500,,,,,,,MVFR,,,,,,,,,,,,METAR,199.0
RPMZ 221500Z 00000KT 9999 FEW017 SCT300 24/23 Q1008 RMK A2977,RPMZ,2018-03-22T15:00:00Z,6.92,122.07,24.0,23.0,0,0,,6.21,29.763779,,,,,,,,,,,FEW,1700,SCT,30000,,,,,VFR,,,,,,,,,,,,METAR,6.0
RPLI 221500Z 03002KT 9999 FEW019 23/17 Q1011 NOSIG RMK A2985,RPLI,2018-03-22T15:00:00Z,18.17,120.52,23.0,17.0,30,2,,6.21,29.852362,,,,,,TRUE,,,,,FEW,1900,,,,,,,VFR,,,,,,,,,,,,METAR,5.0
RPLB 221500Z 07004KT 9999 FEW020 26/19 Q1010 NOSIG RMK A2983,RPLB,2018-03-22T15:00:00Z,14.8,120.27,26.0,19.0,70,4,,6.21,29.822834,,,,,,TRUE,,,,,FEW,2000,,,,,,,VFR,,,,,,,,,,,,SPECI,17.0
RPMD 221500Z 36003KT 9999 FEW016 BKN090 OVC290 25/24 Q1010 RMK A2983,RPMD,2018-03-22T15:00:00Z,7.12,125.65,25.0,24.0,360,3,,6.21,29.822834,,,,,,,,,,,FEW,1600,BKN,9000,OVC,29000,,,VFR,,,,,,,,,,,,SPECI,18.0
RPVM 221500Z 36003KT 8000 -SHRA FEW018CB OVC090 26/23 Q1010 RMK A2983 CB OVHD,RPVM,2018-03-22T15:00:00Z,10.32,123.98,26.0,23.0,360,3,,4.97,29.822834,,,,,,,,,,-SHRA,FEW,1800,OVC,9000,,,,,MVFR,,,,,,,,,,,,SPECI,10.0
RPLL 221500Z 10009KT 070V130 9999 FEW025 BKN100 26/23 Q1011 NOSIG RMK A2985,RPLL,2018-03-22T15:00:00Z,14.52,121.0,26.0,23.0,100,9,,6.21,29.852362,,,,,,TRUE,,,,,FEW,2500,BKN,10000,,,,,VFR,,,,,,,,,,,,SPECI,21.0
VIJP 221500Z 30006KT 3000 HZ NSC 27/05 Q1010 NOSIG,VIJP,2018-03-22T15:00:00Z,26.82,75.78,27.0,5.0,300,6,,1.86,29.822834,,,,,,TRUE,,,,HZ,CLR,,,,,,,,IFR,,,,,,,,,,,,METAR,390.0
CYCX 221500Z 03015G27KT 15SM OVC018 M00/M03 A2971 RMK SC8 DA-1337FT SLP064,CYCX,2018-03-22T15:00:00Z,45.82,-66.42,0.0,-3.0,30,15,27,15.0,29.71063,1006.4,,,,,,,,,,OVC,1800,,,,,,,MVFR,,,,,,,,,,,,METAR,51.0
CYZG 221500Z 03010KT 2 1/2SM -SN OVC007 M17/M19 A3033 RMK SN1SC7 SLP301,CYZG,2018-03-22T15:00:00Z,62.17,-75.67,-17.0,-19.0,30,10,,2.5,30.33071,1030.1,,,,,,,,,-SN,OVC,700,,,,,,,IFR,,,,,,,,,,,,METAR,226.0
CYWK 221500Z 01003KT 320V090 15SM -SN OVC035 M09/M13 A3017 RMK SC8 SLP268,CYWK,2018-03-22T15:00:00Z,52.92,-66.87,-9.0,-13.0,10,3,,15.0,30.171259,1026.8,,,,,,,,,-SN,OVC,3500,,,,,,,VFR,,,,,,,,,,,,METAR,551.0
CYUY 221500Z 34006KT 310V020 15SM FEW230 M08/M15 A3018 RMK CI1 SLP247,CYUY,2018-03-22T15:00:00Z,48.2,-78.82,-8.0,-15.0,340,6,,15.0,30.180119,1024.7,,,,,,,,,,FEW,23000,,,,,,,VFR,,,,,,,,,,,,METAR,301.0
CYSK 221500Z 36002KT 15SM SCT200 M17/M19 A3042 RMK CS4 SLP306,CYSK,2018-03-22T15:00:00Z,56.53,-79.25,-17.0,-19.0,360,2,,15.0,30.41929,1030.6,,,,,,,,,,SCT,20000,,,,,,,VFR,,,,,,,,,,,,METAR,26.0
CYOY 221500Z 00000KT 15SM BKN220 03/M08 A2993 RMK CI6 DA-768FT SLP145,CYOY,2018-03-22T15:00:00Z,46.88,-71.5,3.0,-8.0,0,0,,15.0,29.929134,1014.5,,,,,,,,,,BKN,22000,,,,,,,VFR,,,,,,,,,,,,METAR,168.0
CYNM 221500Z AUTO 33011KT 9SM CLR M11/M15 A3019 RMK ICG INTMT SLP252,CYNM,2018-03-22T15:00:00Z,49.77,-77.82,-11.0,-15.0,330,11,,9.0,30.188976,1025.2,,TRUE,,,,,,,,CLR,,,,,,,,VFR,,,,,,,,,,,,METAR,281.0
CYMU 221500Z 11005KT 15SM FEW120 SCT300 M11/M15 A3037 RMK AC2CI2 SLP295,CYMU,2018-03-22T15:00:00Z,56.52,-76.52,-11.0,-15.0,110,5,,15.0,30.369095,1029.5,,,,,,,,,,FEW,12000,SCT,30000,,,,,VFR,,,,,,,,,,,,METAR,71.0
CYMT 221500Z AUTO 35005KT 9SM OVC110 M03/M11 A3005 RMK SLP205,CYMT,2018-03-22T15:00:00Z,49.77,-74.52,-3.0,-11.0,350,5,,9.0,30.050198,1020.5,,TRUE,,,,,,,,OVC,11000,,,,,,,VFR,,,,,,,,,,,,METAR,387.0
CYMH 221500Z AUTO 35009KT 9SM OVC016 M01/M04 A3025 RMK SLP246,CYMH,2018-03-22T15:00:00Z,52.28,-55.85,-1.0,-4.0,350,9,,9.0,30.250984,1024.6,,TRUE,,,,,,,,OVC,1600,,,,,,,MVFR,,,,,,,,,,,,METAR,11.0
CYLA 221500Z 25009KT 15SM SCT025 BKN095 M15/M20 A3038 RMK SC4AC2 SLP294,CYLA,2018-03-22T15:00:00Z,59.28,-69.58,-15.0,-20.0,250,9,,15.0,30.380905,1029.4,,,,,,,,,,SCT,2500,BKN,9500,,,,,VFR,,,,,,,,,,,,METAR,35.0
CYKG 221500Z 35009KT 6SM -SN BR SCT015 BKN023 OVC100 M15/M19 A3029 RMK SC3SC4AC1 SLP278,CYKG,2018-03-22T15:00:00Z,61.57,-71.92,-15.0,-19.0,350,9,,6.0,30.28937,1027.8,,,,,,,,,-SN BR,SCT,1500,BKN,2300,OVC,10000,,,MVFR,,,,,,,,,,,,METAR,151.0
CYGV 221500Z AUTO 08010G17KT 9SM SCT032 02/M06 A3015 RMK SLP213,CYGV,2018-03-22T15:00:00Z,50.27,-63.62,2.0,-6.0,80,10,17,9.0,30.15059,1021.3,,TRUE,,,,,,,,SCT,3200,,,,,,,VFR,,,,,,,,,,,,METAR,33.0
CYBX 221500Z 06013KT 15SM BKN018 M01/M05 A3021 RMK SC7 SLP235,CYBX,2018-03-22T15:00:00Z,51.45,-57.17,-1.0,-5.0,60,13,,15.0,30.209646,1023.5,,,,,,,,,,BKN,1800,,,,,,,MVFR,,,,,,,,,,,,METAR,35.0
CYAS 221500Z 28010G15KT 15SM FEW029 SCT045 M18/M22 A3033 RMK SC2SC2 SLP289,CYAS,2018-03-22T15:00:00Z,60.02,-70.0,-18.0,-22.0,280,10,15,15.0,30.33071,1028.9,,,,,,,,,,FEW,2900,SCT,4500,,,,,VFR,,,,,,,,,,,,METAR,117.0
CYAH 221500Z AUTO 02005KT 9SM CLR M08/M13 A3022 RMK SLP262,CYAH,2018-03-22T15:00:00Z,53.75,-73.67,-8.0,-13.0,20,5,,9.0,30.221457,1026.2,,TRUE,,,,,,,,CLR,,,,,,,,VFR,,,,,,,,,,,,METAR,306.0
CYZV 221500Z 10008KT 30SM BKN034 M01/M07 A3017 RMK SC7 SLP222,CYZV,2018-03-22T15:00:00Z,50.22,-66.27,-1.0,-7.0,100,8,,30.0,30.171259,1022.2,,,,,,,,,,BKN,3400,,,,,,,VFR,,,,,,,,,,,,METAR,55.0
CYZF 221500Z 07007KT 15SM SKC M25/M30 A3070 RMK SLP426,CYZF,2018-03-22T15:00:00Z,62.47,-114.45,-25.0,-30.0,70,7,,15.0,30.699802,1042.6,,,,,,,,,,SKC,,,,,,,,VFR,,,,,,,,,,,,METAR,206.0
CYYZ 221500Z 35016G21KT 15SM FEW160 BKN280 01/M11 A3011 RMK AC1CI7 AC TR SLP204,CYYZ,2018-03-22T15:00:00Z,43.67,-79.62,1.0,-11.0,350,16,21,15.0,30.109253,1020.4,,,,,,,,,,FEW,16000,BKN,28000,,,,,VFR,,,,,,,,,,,,METAR,173.0
CYYT 221500Z 07015G21KT 15SM OVC006 M03/M04 A3011 RMK SF8 SLP207,CYYT,2018-03-22T15:00:00Z,47.62,-52.72,-3.0,-4.0,70,15,21,15.0,30.109253,1020.7,,,,,,,,,,OVC,600,,,,,,,IFR,,,,,,,,,,,,METAR,140.0
CYYR 221500Z 00000KT 15SM SCT022 BKN045 M01/M06 A3029 RMK SC4SC2 SLP261,CYYR,2018-03-22T15:00:00Z,53.32,-60.42,-1.0,-6.0,0,0,,15.0,30.28937,1026.1,,,,,,,,,,SCT,2200,BKN,4500,,,,,VFR,,,,,,,,,,,,METAR,49.0
CYYQ 221500Z 36011KT 15SM FEW250 M22/M25 A3082 RMK CI1 CI TR SLP442,CYYQ,2018-03-22T15:00:00Z,58.75,-94.07,-22.0,-25.0,360,11,,15.0,30.820866,1044.2,,,,,,,,,,FEW,25000,,,,,,,VFR,,,,,,,,,,,,METAR,29.0
CYYJ 221500Z 18002KT 15SM -RA FEW007 FEW029 BKN041 OVC059 06/06 A2943 RMK SF1SC1SC4SC3 SF TR VIS LWR NE-E SLP968,CYYJ,2018-03-22T15:00:00Z,48.63,-123.42,6.0,6.0,180,2,,15.0,29.430119,996.8,,,,,,,,,-RA,FEW,700,FEW,2900,BKN,4100,OVC,5900,VFR,,,,,,,,,,,,METAR,19.0
CYXX 221500Z VRB02KT 20SM -RA BKN045 BKN055 OVC120 07/05 A2943 RMK SC6SC1AC1 SLP970,CYXX,2018-03-22T15:00:00Z,49.03,-122.38,7.0,5.0,0,2,,20.0,29.430119,997.0,,,,,,,,,-RA,BKN,4500,BKN,5500,OVC,12000,,,VFR,,,,,,,,,,,,METAR,58.0
CYWG 221500Z 02004KT 15SM -SN BKN026 OVC038 00/M02 A3038 RMK SC7SC1 SLP302,CYWG,2018-03-22T15:00:00Z,49.88,-97.22,0.0,-2.0,20,4,,15.0,30.380905,1030.2,,,,,,,,,-SN,BKN,2600,OVC,3800,,,,,MVFR,,,,,,,,,,,,METAR,239.0
CYUL 221500Z 04013KT 15SM SCT200 BKN250 01/M06 A2997 RMK CS4CI2 SLP151,CYUL,2018-03-22T15:00:00Z,45.47,-73.73,1.0,-6.0,40,13,,15.0,29.970472,1015.1,,,,,,,,,,SCT,20000,BKN,25000,,,,,VFR,,,,,,,,,,,,METAR,36.0
CYTR 221500Z 30006KT 15SM BKN220 01/M09 A3005 RMK CI7 SLP180,CYTR,2018-03-22T15:00:00Z,44.12,-77.52,1.0,-9.0,300,6,,15.0,30.050198,1018.0,,,,,,,,,,BKN,22000,,,,,,,VFR,,,,,,,,,,,,METAR,86.0
CYQX 221500Z 07015G23KT 20SM -SHSN OVC014 M02/M05 A3012 RMK SC8 CVCTV CLD EMBD SLP211,CYQX,2018-03-22T15:00:00Z,48.95,-54.58,-2.0,-5.0,70,15,23,20.0,30.121063,1021.1,,,,,,,,,-SHSN,OVC,1400,,,,,,,MVFR,,,,,,,,,,,,METAR,151.0
CYQQ 221500Z 21003KT 20SM FEW006 FEW036 OVC050 06/05 A2939 RMK SF1SC2SC6 SLP952,CYQQ,2018-03-22T15:00:00Z,49.72,-124.9,6.0,5.0,210,3,,20.0,29.388779,995.2,,,,,,,,,,FEW,600,FEW,3600,OVC,5000,,,VFR,,,,,,,,,,,,METAR,24.0
CYQM 221500Z 03023G33KT 15SM BKN009 OVC024 M01/M03 A2967 RMK SF7SC1 PRESFR SLP053,CYQM,2018-03-22T15:00:00Z,46.12,-64.67,-1.0,-3.0,30,23,33,15.0,29.66929,1005.3,,,,,,,,,,BKN,900,OVC,2400,,,,,IFR,,,,,,,,,,,,METAR,71.0
CYQG 221500Z 34010KT 15SM FEW044 FEW220 FEW250 02/M10 A3023 RMK CU1CS1CI1 CU TR SLP246,CYQG,2018-03-22T15:00:00Z,42.27,-82.97,2.0,-10.0,340,10,,15.0,30.230314,1024.6,,,,,,,,,,FEW,4400,FEW,22000,FEW,25000,,,VFR,,,,,,,,,,,,METAR,190.0
CYQB 221500Z 08014KT 30SM FEW050 BKN200 01/M07 A2995 RMK SC1CS6 SLP148,CYQB,2018-03-22T15:00:00Z,46.78,-71.37,1.0,-7.0,80,14,,30.0,29.949802,1014.8,,,,,,,,,,FEW,5000,BKN,20000,,,,,VFR,,,,,,,,,,,,METAR,73.0
CYOW 221500Z 30008KT 15SM FEW180 FEW210 FEW250 M01/M09 A3001 RMK AC1CI1CI1 AC TR CI TR SLP170,CYOW,2018-03-22T15:00:00Z,45.32,-75.67,-1.0,-9.0,300,8,,15.0,30.008858,1017.0,,,,,,,,,,FEW,18000,FEW,21000,FEW,25000,,,VFR,,,,,,,,,,,,METAR,114.0
CYMX 221500Z 06006KT 030V090 45SM FEW220 BKN260 02/M08 A2997 RMK CI2CI4 SLP156,CYMX,2018-03-22T15:00:00Z,45.67,-74.02,2.0,-8.0,60,6,,45.0,29.970472,1015.6,,,,,,,,,,FEW,22000,BKN,26000,,,,,VFR,,,,,,,,,,,,METAR,82.0
CYJT 221500Z 07019G26KT 15SM SCT020 BKN100 01/M05 A3003 RMK SC3AS4 SLP171,CYJT,2018-03-22T15:00:00Z,48.55,-58.57,1.0,-5.0,70,19,26,15.0,30.029528,1017.1,,,,,,,,,,SCT,2000,BKN,10000,,,,,VFR,,,,,,,,,,,,METAR,26.0
CYGL 221500Z 05004KT 15SM SCT200 M08/M13 A3027 RMK CI3 SLP269,CYGL,2018-03-22T15:00:00Z,53.62,-77.7,-8.0,-13.0,50,4,,15.0,30.268702,1026.9,,,,,,,,,,SCT,20000,,,,,,,VFR,,,,,,,,,,,,METAR,195.0
CYFC 221500Z AUTO 02020G29KT 9SM OVC020 00/M04 A2973 RMK SLP070,CYFC,2018-03-22T15:00:00Z,45.87,-66.52,0.0,-4.0,20,20,29,9.0,29.731298,1007.0,,TRUE,,,,,,,,OVC,2000,,,,,,,MVFR,,,,,,,,,,,,METAR,20.0
CYFB 221500Z 33015KT 30SM SCT017 M22/M27 A3034 RMK SC4 SLP279,CYFB,2018-03-22T15:00:00Z,63.75,-68.55,-22.0,-27.0,330,15,,30.0,30.339567,1027.9,,,,,,,,,,SCT,1700,,,,,,,VFR,,,,,,,,,,,,METAR,34.0
CYEG 221500Z 10017G24KT 6SM BR OVC005 M03/M04 A3005 RMK ST8 PRESFR SLP213,CYEG,2018-03-22T15:00:00Z,53.28,-113.57,-3.0,-4.0,100,17,24,6.0,30.050198,1021.3,,,,,,,,,BR,OVC,500,,,,,,,IFR,,,,,,,,,,,,METAR,723.0
CYBG 221500Z 00000KT 25SM FEW030 SCT240 M01/M04 A3005 RMK SC1CI2 SLP186,CYBG,2018-03-22T15:00:00Z,48.33,-70.98,-1.0,-4.0,0,0,,25.0,30.050198,1018.6,,,,,,,,,,FEW,3000,SCT,24000,,,,,VFR,,,,,,,,,,,,METAR,159.0
CYAW 221500Z 04014KT 3/4SM -SHSN OVC005 00/00 A2945 RMK SN4SF4 DA-977FT SLP975,CYAW,2018-03-22T15:00:00Z,44.63,-63.5,0.0,0.0,40,14,,0.75,29.450787,997.5,,,,,,,,,-SHSN,OVC,500,,,,,,,LIFR,,,,,,,,,,,,METAR,51.0
CZSJ 221500Z AUTO 36004KT 340V040 9SM OVC018 M01/M04 A3037 RMK SLP307,CZSJ,2018-03-22T15:00:00Z,53.07,-93.35,-1.0,-4.0,360,4,,9.0,30.369095,1030.7,,TRUE,,,,,,,,OVC,1800,,,,,,,MVFR,,,,,,,,,,,,METAR,290.0
CZMD 221500Z AUTO 04009G15KT 9SM BKN055 OVC071 M04/M17 A3039 RMK SLP313,CZMD,2018-03-22T15:00:00Z,53.43,-91.77,-4.0,-17.0,40,9,15,9.0,30.389763,1031.3,,TRUE,,,,,,,,BKN,5500,OVC,7100,,,,,VFR,,,,,,,,,,,,METAR,278.0
CYYW 221500Z AUTO 15002KT 9SM CLR M08/M24 A3034 RMK SLP311,CYYW,2018-03-22T15:00:00Z,50.3,-88.9,-8.0,-24.0,150,2,,9.0,30.339567,1031.1,,TRUE,,,,,,,,CLR,,,,,,,,VFR,,,,,,,,,,,,METAR,351.0
CYYU 221500Z 36009G15KT 15SM BKN170 BKN250 M09/M17 A3031 RMK AC5CI1 SLP285,CYYU,2018-03-22T15:00:00Z,49.42,-82.47,-9.0,-17.0,360,9,15,15.0,30.31004,1028.5,,,,,,,,,,BKN,17000,BKN,25000,,,,,VFR,,,,,,,,,,,,METAR,227.0
CYYH 221500Z 20012KT 1SM BR FEW010 BKN100 M30/M34 A3063 RMK ST1AC5 FROIN SLP379,CYYH,2018-03-22T15:00:00Z,69.53,-93.57,-30.0,-34.0,200,12,,1.0,30.628937,1037.9,,,,,,,,,BR,FEW,1000,BKN,10000,,,,,IFR,,,,,,,,,,,,METAR,28.0
CYYB 221500Z 35007KT 310V030 30SM SCT320 M05/M12 A3012 RMK CI3 SLP226,CYYB,2018-03-22T15:00:00Z,46.35,-79.42,-5.0,-12.0,350,7,,30.0,30.121063,1022.6,,,,,,,,,,SCT,32000,,,,,,,VFR,,,,,,,,,,,,METAR,371.0
CYXZ 221500Z 04008KT 15SM FEW100 BKN140 BKN240 M08/M14 A3030 RMK AC1AC5CC1 CC TR SLP283,CYXZ,2018-03-22T15:00:00Z,47.97,-84.77,-8.0,-14.0,40,8,,15.0,30.301182,1028.3,,,,,,,,,,FEW,10000,BKN,14000,BKN,24000,,,VFR,,,,,,,,,,,,METAR,287.0
CYXU 221500Z 33012KT 15SM FEW015 BKN220 M01/M09 A3016 RMK SC1CI6 SLP226,CYXU,2018-03-22T15:00:00Z,43.02,-81.15,-1.0,-9.0,330,12,,15.0,30.159449,1022.6,,,,,,,,,,FEW,1500,BKN,22000,,,,,VFR,,,,,,,,,,,,METAR,278.0
CYXL 221500Z 32003KT 15SM BKN120 M04/M11 A3033 RMK AC6 SLP303,CYXL,2018-03-22T15:00:00Z,50.12,-91.9,-4.0,-11.0,320,3,,15.0,30.33071,1030.3,,,,,,,,,,BKN,12000,,,,,,,VFR,,,,,,,,,,,,METAR,390.0
CYVQ 221500Z 00000KT 5SM -SN SCT010 OVC032 M21/M23 A3068 RMK SC3SC5 SLP402,CYVQ,2018-03-22T15:00:00Z,65.27,-126.78,-21.0,-23.0,0,0,,5.0,30.679134,1040.2,,,,,,,,,-SN,SCT,1000,OVC,3200,,,,,MVFR,,,,,,,,,,,,METAR,74.0
CYVO 221500Z 35008KT 15SM FEW230 M09/M13 A3013 RMK CI1 SLP233,CYVO,2018-03-22T15:00:00Z,48.07,-77.77,-9.0,-13.0,350,8,,15.0,30.129921,1023.3,,,,,,,,,,FEW,23000,,,,,,,VFR,,,,,,,,,,,,METAR,337.0
CYSP 221500Z 05007KT 020V090 15SM FEW032 BKN075 M08/M16 A3032 RMK SC1AC5 SLP294,CYSP,2018-03-22T15:00:00Z,48.75,-86.35,-8.0,-16.0,50,7,,15.0,30.318897,1029.4,,,,,,,,,,FEW,3200,BKN,7500,,,,,VFR,,,,,,,,,,,,METAR,315.0
CYSN 221500Z 32016G21KT 15SM BKN180 BKN220 00/M07 A3011 RMK AC5CI2 SLP201,CYSN,2018-03-22T15:00:00Z,43.2,-79.17,0.0,-7.0,320,16,21,15.0,30.109253,1020.1,,,,,,,,,,BKN,18000,BKN,22000,,,,,VFR,,,,,,,,,,,,METAR,98.0
CYSC 221500Z AUTO 03009KT 360V060 9SM CLR 00/M08 A2985 RMK SLP120,CYSC,2018-03-22T15:00:00Z,45.43,-71.68,0.0,-8.0,30,9,,9.0,29.84941,1012.0,,TRUE,,,,,,,,CLR,,,,,,,,VFR,,,,,,,,,,,,METAR,241.0
CYSB 221500Z 02010KT 20SM FEW140 BKN200 M08/M14 A3017 RMK AC2CI4 SLP244,CYSB,2018-03-22T15:00:00Z,46.63,-80.8,-8.0,-14.0,20,10,,20.0,30.171259,1024.4,,,,,,,,,,FEW,14000,BKN,20000,,,,,VFR,,,,,,,,,,,,METAR,348.0
CYRQ 221500Z AUTO 03010KT 9SM CLR 00/M06 A2997 RMK SLP152,CYRQ,2018-03-22T15:00:00Z,46.35,-72.68,0.0,-6.0,30,10,,9.0,29.970472,1015.2,,TRUE,,,,,,,,CLR,,,,,,,,VFR,,,,,,,,,,,,METAR,61.0
CYRB 221500Z 30009KT 15SM IC FEW230 M32/M36 A3036 RMK CC1 CC TR SLP296,CYRB,2018-03-22T15:00:00Z,74.72,-94.97,-32.0,-36.0,300,9,,15.0,30.360237,1029.6,,,,,,,,,IC,FEW,23000,,,,,,,VFR,,,,,,,,,,,,METAR,67.0
CYQK 221500Z 08002KT 15SM BKN065 M01/M07 A3035 RMK SC7 VIRGA E SLP302,CYQK,2018-03-22T15:00:00Z,49.77,-94.37,-1.0,-7.0,80,2,,15.0,30.351377,1030.2,,,,,,,,,,BKN,6500,,,,,,,VFR,,,,,,,,,,,,METAR,411.0
CYQA 221500Z AUTO 33009KT 290V040 9SM FEW180 M03/M12 A3009 RMK SLP206,CYQA,2018-03-22T15:00:00Z,44.97,-79.28,-3.0,-12.0,330,9,,9.0,30.088583,1020.6,,TRUE,,,,,,,,FEW,18000,,,,,,,VFR,,,,,,,,,,,,METAR,282.0
CYPO 221500Z AUTO VRB02KT 9SM CLR M11/M22 A3042 RMK SLP309,CYPO,2018-03-22T15:00:00Z,54.98,-85.43,-11.0,-22.0,0,2,,9.0,30.41929,1030.9,,TRUE,,,,,,,,CLR,,,,,,,,VFR,,,,,,,,,,,,METAR,53.0
CYPL 221500Z 00000KT 15SM FEW080 SCT220 M07/M20 A3033 RMK AC1CI3 SLP302,CYPL,2018-03-22T15:00:00Z,51.47,-90.2,-7.0,-20.0,0,0,,15.0,30.33071,1030.2,,,,,,,,,,FEW,8000,SCT,22000,,,,,VFR,,,,,,,,,,,,METAR,373.0
CYOO 221500Z AUTO 34013KT 9SM CLR 02/M11 A3008 RMK SLP192,CYOO,2018-03-22T15:00:00Z,43.92,-78.9,2.0,-11.0,340,13,,9.0,30.079725,1019.2,,TRUE,,,,,,,,CLR,,,,,,,,VFR,,,,,,,,,,,,METAR,139.0
CYLH 221500Z AUTO 22004KT 9SM CLR M09/M23 A3036 RMK SLP305,CYLH,2018-03-22T15:00:00Z,52.2,-87.93,-9.0,-23.0,220,4,,9.0,30.360237,1030.5,,TRUE,,,,,,,,CLR,,,,,,,,VFR,,,,,,,,,,,,METAR,254.0
CYLD 221500Z 36004KT 310V020 15SM BKN140 M09/M15 A3023 RMK AC5 SLP277,CYLD,2018-03-22T15:00:00Z,47.82,-83.33,-9.0,-15.0,360,4,,15.0,30.230314,1027.7,,,,,,,,,,BKN,14000,,,,,,,VFR,,,,,,,,,,,,METAR,447.0
CYKZ 221500Z CCA 33012G18KT 15SM FEW180 FEW200 BKN260 M00/M10 A3009 RMK AC1CI2CS4 AC TR HALO CONTRAILS SLP200,CYKZ,2018-03-22T15:00:00Z,43.87,-79.37,0.0,-10.0,330,12,18,15.0,30.088583,1020.0,,,,,,,,,,FEW,18000,FEW,20000,BKN,26000,,,VFR,,,,,,,,,,,,METAR,198.0
CYKP 221500Z AUTO 24003KT 9SM CLR M08/M21 A3037 RMK SLP306,CYKP,2018-03-22T15:00:00Z,51.67,-85.9,-8.0,-21.0,240,3,,9.0,30.369095,1030.6,,TRUE,,,,,,,,CLR,,,,,,,,VFR,,,,,,,,,,,,METAR,179.0
CYKL 221500Z AUTO 33006KT 310V020 9SM CLR M09/M11 A3021 RMK SLP279,CYKL,2018-03-22T15:00:00Z,54.78,-66.82,-9.0,-11.0,330,6,,9.0,30.209646,1027.9,,TRUE,,,,,,,,CLR,,,,,,,,VFR,,,,,,,,,,,,METAR,521.0
CYKF 221500Z AUTO 33012G18KT 9SM FEW240 00/M08 A3010 RMK SLP209,CYKF,2018-03-22T15:00:00Z,43.47,-80.38,0.0,-8.0,330,12,18,9.0,30.100393,1020.9,,TRUE,,,,,,,,FEW,24000,,,,,,,VFR,,,,,,,,,,,,METAR,317.0
CYHM 221500Z 30010KT 280V340 15SM SCT150 BKN160 BKN220 00/M09 A3011 RMK AC3AS2CS2 HALO SLP209,CYHM,2018-03-22T15:00:00Z,43.17,-79.93,0.0,-9.0,300,10,,15.0,30.109253,1020.9,,,,,,,,,,SCT,15000,BKN,16000,BKN,22000,,,VFR,,,,,,,,,,,,METAR,238.0
CYGQ 221500Z 00000KT 15SM BKN076 M08/M19 A3034 RMK AC7 SLP302,CYGQ,2018-03-22T15:00:00Z,49.77,-86.92,-8.0,-19.0,0,0,,15.0,30.339567,1030.2,,,,,,,,,,BKN,7600,,,,,,,VFR,,,,,,,,,,,,METAR,351.0
CYGK 221500Z 34006KT 15SM SCT240 01/M10 A3002 RMK CI4 SLP172,CYGK,2018-03-22T15:00:00Z,44.22,-76.58,1.0,-10.0,340,6,,15.0,30.02067,1017.2,,,,,,,,,,SCT,24000,,,,,,,VFR,,,,,,,,,,,,METAR,93.0
CYFR 221500Z 10005KT 15SM SKC M23/M28 A3066 RMK SLP407,CYFR,2018-03-22T15:00:00Z,61.17,-113.67,-23.0,-28.0,100,5,,15.0,30.661417,1040.7,,,,,,,,,,SKC,,,,,,,,VFR,,,,,,,,,,,,METAR,164.0
CYCK 221500Z AUTO 34014G20KT 9SM FEW150 01/M06 A3020 RMK SLP236,CYCK,2018-03-22T15:00:00Z,42.3,-82.08,1.0,-6.0,340,14,20,9.0,30.200787,1023.6,,TRUE,,,,,,,,FEW,15000,,,,,,,VFR,,,,,,,,,,,,METAR,198.0
CYBN 221500Z AUTO 32012G19KT 300V360 9SM CLR M02/M09 A3013 RMK SLP215,CYBN,2018-03-22T15:00:00Z,44.27,-79.92,-2.0,-9.0,320,12,19,9.0,30.129921,1021.5,,TRUE,,,,,,,,CLR,,,,,,,,VFR,,,,,,,,,,,,METAR,223.0
CYBC 221500Z AUTO 06017G24KT 9SM FEW026 OVC034 01/M06 A3009 RMK SLP191,CYBC,2018-03-22T15:00:00Z,49.12,-68.2,1.0,-6.0,60,17,24,9.0,30.088583,1019.1,,TRUE,,,,,,,,FEW,2600,OVC,3400,,,,,VFR,,,,,,,,,,,,METAR,22.0
CYAT 221500Z AUTO /////KT 9SM CLR M10/M14 A3042 RMK WND MISG SLP303,CYAT,2018-03-22T15:00:00Z,52.93,-82.43,-10.0,-14.0,,,,9.0,30.41929,1030.3,,TRUE,,,,,,,,CLR,,,,,,,,VFR,,,,,,,,,,,,METAR,9.0
CZVL 221500Z AUTO 10010G15KT 9SM OVC009 M01/M02 A3006 RMK SLP212,CZVL,2018-03-22T15:00:00Z,53.67,-113.85,-1.0,-2.0,100,10,15,9.0,30.059055,1021.2,,TRUE,,,,,,,,OVC,900,,,,,,,IFR,,,,,,,,,,,,METAR,686.0
CYZH 221500Z AUTO 09009KT 9SM OVC012 M06/M08 A3016 RMK SLP250,CYZH,2018-03-22T15:00:00Z,55.28,-114.77,-6.0,-8.0,90,9,,9.0,30.159449,1025.0,,TRUE,,,,,,,,OVC,1200,,,,,,,MVFR,,,,,,,,,,,,METAR,581.0
CYYL 221500Z AUTO 08012G17KT 9SM -SN CLR M17/M21 A3061 RMK SLP401,CYYL,2018-03-22T15:00:00Z,56.87,-101.07,-17.0,-21.0,80,12,17,9.0,30.611221,1040.1,,TRUE,,,,,,,-SN,CLR,,,,,,,,VFR,,,,,,,,,,,,METAR,357.0
CYVC 221500Z 05013G19KT 15SM -SN OVC010 M04/M06 A3039 RMK SC8 SLP319,CYVC,2018-03-22T15:00:00Z,55.15,-105.27,-4.0,-6.0,50,13,19,15.0,30.389763,1031.9,,,,,,,,,-SN,OVC,1000,,,,,,,MVFR,,,,,,,,,,,,METAR,379.0
CYQL 221500Z 36005KT 3SM BR BKN060 OVC100 M04/M05 A2993 RMK SC5AC3 SLP181,CYQL,2018-03-22T15:00:00Z,49.63,-112.8,-4.0,-5.0,360,5,,3.0,29.929134,1018.1,,,,,,,,,BR,BKN,6000,OVC,10000,,,,,MVFR,,,,,,,,,,,,METAR,929.0
CYQF 221500Z 11006KT 1SM BR VV003 M06/M07 A2998 RMK FG8 SLP203,CYQF,2018-03-22T15:00:00Z,52.17,-113.9,-6.0,-7.0,110,6,,1.0,29.97933,1020.3,,,,,,,,,BR,OVX,0,,,,,,,LIFR,,,,,,,,,,,300,METAR,905.0
CYPY 221500Z AUTO 05010KT 9SM CLR M20/M23 A3055 RMK SLP376,CYPY,2018-03-22T15:00:00Z,58.77,-111.12,-20.0,-23.0,50,10,,9.0,30.549213,1037.6,,TRUE,,,,,,,,CLR,,,,,,,,VFR,,,,,,,,,,,,METAR,232.0
CYPG 221500Z 31006KT 1SM BR OVC003 M02/M02 A3039 RMK FG3SF5 SLP306,CYPG,2018-03-22T15:00:00Z,49.88,-98.27,-2.0,-2.0,310,6,,1.0,30.389763,1030.6,,,,,,,,,BR,OVC,300,,,,,,,LIFR,,,,,,,,,,,,METAR,269.0
CYPA 221500Z 09007KT 5SM BR SCT003 SCT050 M07/M08 A3033 RMK ST3SC1 SLP305,CYPA,2018-03-22T15:00:00Z,53.22,-105.67,-7.0,-8.0,90,7,,5.0,30.33071,1030.5,,,,,,,,,BR,SCT,300,SCT,5000,,,,,MVFR,,,,,,,,,,,,METAR,428.0
CYOJ 221500Z 36007KT 15SM BKN025 BKN260 M21/M24 A3045 RMK SC6CI1 SLP351,CYOJ,2018-03-22T15:00:00Z,58.62,-117.17,-21.0,-24.0,360,7,,15.0,30.448818,1035.1,,,,,,,,,,BKN,2500,BKN,26000,,,,,MVFR,,,,,,,,,,,,METAR,338.0
CYNE 221500Z AUTO 05005KT 340V100 9SM M06/M08 A3048 RMK CLD MISG SLP340,CYNE,2018-03-22T15:00:00Z,53.97,-97.82,-6.0,-8.0,50,5,,9.0,30.481298,1034.0,,TRUE,,,,,,,,,,,,,,,,,,,,,,,,,,,,METAR,223.0
CYMM 221500Z AUTO 08008KT 9SM -SN OVC015 M10/M14 A3039 RMK SLP325,CYMM,2018-03-22T15:00:00Z,56.65,-111.22,-10.0,-14.0,80,8,,9.0,30.389763,1032.5,,TRUE,,,,,,,-SN,OVC,1500,,,,,,,MVFR,,,,,,,,,,,,METAR,369.0
CYGX 221500Z 03010G16KT 15SM BKN200 M18/M22 A3068 RMK CS7 SLP409,CYGX,2018-03-22T15:00:00Z,56.35,-94.7,-18.0,-22.0,30,10,16,15.0,30.679134,1040.9,,,,,,,,,,BKN,20000,,,,,,,VFR,,,,,,,,,,,,METAR,145.0
CYEN 221500Z 09011G18KT 1/8SM FZFG VV000 M04/M05 A3025 RMK FG8 SLP278,CYEN,2018-03-22T15:00:00Z,49.22,-102.97,-4.0,-5.0,90,11,18,0.13,30.250984,1027.8,,,,,,,,,FZFG,OVX,0,,,,,,,LIFR,,,,,,,,,,,0,METAR,581.0
CYDN 221500Z AUTO 29007KT 9SM CLR M08/M09 A3038 RMK SLP313,CYDN,2018-03-22T15:00:00Z,51.1,-100.03,-8.0,-9.0,290,7,,9.0,30.380905,1031.3,,TRUE,,,,,,,,CLR,,,,,,,,VFR,,,,,,,,,,,,METAR,305.0
CYBU 221500Z AUTO 00000KT 7SM CLR M08/M09 A3035 RMK SLP307,CYBU,2018-03-22T15:00:00Z,53.32,-104.0,-8.0,-9.0,0,0,,7.0,30.351377,1030.7,,TRUE,,,,,,,,CLR,,,,,,,,VFR,,,,,,,,,,,,METAR,374.0
VEGY 221500Z 34005KT 3000 HZ NSC 26/17 Q1006,VEGY,2018-03-22T15:00:00Z,24.75,84.95,26.0,17.0,340,5,,1.86,29.704725,,,,,,,,,,HZ,CLR,,,,,,,,IFR,,,,,,,,,,,,METAR,116.0
RPVD 221500Z 00000KT 9999 FEW015 SCT220 25/24 Q1009 RMK A2980,RPVD,2018-03-22T15:00:00Z,9.33,123.3,25.0,24.0,0,0,,6.21,29.793306,,,,,,,,,,,FEW,1500,SCT,22000,,,,,VFR,,,,,,,,,,,,METAR,8.0
RPVP 221500Z 27006KT 9999 FEW019 BKN080 25/24 Q1009 RERA RMK A2980,RPVP,2018-03-22T15:00:00Z,9.75,118.72,25.0,24.0,270,6,,6.21,29.793306,,,,,,,,,,,FEW,1900,BKN,8000,,,,,VFR,,,,,,,,,,,,METAR,16.0
RPLC 221500Z 36005KT 9999 SCT020 BKN100 25/20 Q1013 NOSIG RMK A2991,RPLC,2018-03-22T15:00:00Z,15.17,120.58,25.0,20.0,360,5,,6.21,29.911417,,,,,,TRUE,,,,,SCT,2000,BKN,10000,,,,,VFR,,,,,,,,,,,,METAR,196.0
SKIP 221500Z 11007KT 9999 OVC016 13/08 A3049 RMK HZ,SKIP,2018-03-22T15:00:00Z,0.88,-77.67,13.0,8.0,110,7,,6.21,30.490158,,,,,,,,,,,OVC,1600,,,,,,,MVFR,,,,,,,,,,,,METAR,2961.0
SKPS 221500Z 04004KT 9999 8000N VCFG SCT020 BKN080 19/16 A3022,SKPS,2018-03-22T15:00:00Z,1.4,-77.28,19.0,16.0,40,4,,6.21,30.221457,,,,,,,,,,VCFG,SCT,2000,BKN,8000,,,,,VFR,,,,,,,,,,,,METAR,1826.0
SKNV 221500Z 09003KT 6000 FEW035 31/21 A2995 RMK HZ,SKNV,2018-03-22T15:00:00Z,2.97,-75.28,31.0,21.0,90,3,,3.73,29.949802,,,,,,,,,,,FEW,3500,,,,,,,MVFR,,,,,,,,,,,,METAR,443.0
SKVV 221500Z 21006KT 8000 SCT020 BKN090 26/19 A3002 RMK HZ,SKVV,2018-03-22T15:00:00Z,4.17,-73.62,26.0,19.0,210,6,,4.97,30.02067,,,,,,,,,,,SCT,2000,BKN,9000,,,,,MVFR,,,,,,,,,,,,METAR,431.0
SKIB 221500Z 25004KT 8000 VCFG SCT015 OVC080 25/22 A3013,SKIB,2018-03-22T15:00:00Z,4.42,-75.15,25.0,22.0,250,4,,4.97,30.129921,,,,,,,,,,VCFG,SCT,1500,OVC,8000,,,,,MVFR,,,,,,,,,,,,METAR,928.0
SKAR 221500Z 24004KT 6000 VCFG SCT017 BKN100 22/XX A3010,SKAR,2018-03-22T15:00:00Z,4.45,-75.77,22.0,,240,4,,3.73,30.100393,,,,,,,,,,VCFG,SCT,1700,BKN,10000,,,,,MVFR,,,,,,,,,,,,METAR,1219.0
SKMZ 221500Z 30005KT 7000 VCFG SCT010 OVC150 18/14 A3035 RMK VCFG/W,SKMZ,2018-03-22T15:00:00Z,5.03,-75.47,18.0,14.0,300,5,,4.35,30.351377,,,,,,,,,,VCFG,SCT,1000,OVC,15000,,,,,MVFR,,,,,,,,,,,,METAR,2080.0
SKUI 221500Z 00000KT 5000 -DZ OVC010 25/24 A2989,SKUI,2018-03-22T15:00:00Z,5.72,-76.62,25.0,24.0,0,0,,3.11,29.890747,,,,,,,,,,-DZ,OVC,1000,,,,,,,MVFR,,,,,,,,,,,,METAR,33.0
SKPC 221500Z 05011KT 9999 BKN070 32/22 A2990,SKPC,2018-03-22T15:00:00Z,6.17,-67.5,32.0,22.0,50,11,,6.21,29.899607,,,,,,,,,,,BKN,7000,,,,,,,VFR,,,,,,,,,,,,METAR,55.0
SKMD 221500Z 36012KT 9000 SCT025 BKN100 22/17 A3017 RMK HZ,SKMD,2018-03-22T15:00:00Z,6.22,-75.58,22.0,17.0,360,12,,5.59,30.171259,,,,,,,,,,,SCT,2500,BKN,10000,,,,,VFR,,,,,,,,,,,,SPECI,1499.0
SKUC 221500Z 08003KT 9999 SCT012 33/22 A2996,SKUC,2018-03-22T15:00:00Z,7.07,-70.72,33.0,22.0,80,3,,6.21,29.958662,,,,,,,,,,,SCT,1200,,,,,,,VFR,,,,,,,,,,,,METAR,128.0
SKEJ 221500Z VRB02KT 9000 SCT008 SCT100 27/25 A2988 RMK HZ,SKEJ,2018-03-22T15:00:00Z,7.02,-73.78,27.0,25.0,0,2,,5.59,29.878937,,,,,,,,,,,SCT,800,SCT,10000,,,,,VFR,,,,,,,,,,,,METAR,134.0
SKLC 221500Z 33014KT 7000 SCT017 BKN090 29/24 A2991 RMK HZ,SKLC,2018-03-22T15:00:00Z,7.82,-76.7,29.0,24.0,330,14,,4.35,29.911417,,,,,,,,,,,SCT,1700,BKN,9000,,,,,MVFR,,,,,,,,,,,,METAR,30.0
SKMR 221500Z 29007KT 9999 BKN020 31/23 A2989,SKMR,2018-03-22T15:00:00Z,8.82,-75.83,31.0,23.0,290,7,,6.21,29.890747,,,,,,,,,,,BKN,2000,,,,,,,MVFR,,,,,,,,,,,,METAR,26.0
SKVP 221500Z 06014KT 8000 FEW020 SCT200 31/21 A2994 RMK HZ,SKVP,2018-03-22T15:00:00Z,10.42,-73.25,31.0,21.0,60,14,,4.97,29.940945,,,,,,,,,,,FEW,2000,SCT,20000,,,,,MVFR,,,,,,,,,,,,METAR,138.0
SKRH 221500Z 08011KT 9999 BKN030 OVC040 29/22 A2993,SKRH,2018-03-22T15:00:00Z,11.52,-72.92,29.0,22.0,80,11,,6.21,29.929134,,,,,,,,,,,BKN,3000,OVC,4000,,,,,MVFR,,,,,,,,,,,,METAR,4.0
SKSM 221500Z 22006KT 8000 FEW020 BKN200 29/25 A2991 RMK HZ,SKSM,2018-03-22T15:00:00Z,11.12,-74.22,29.0,25.0,220,6,,4.97,29.911417,,,,,,,,,,,FEW,2000,BKN,20000,,,,,MVFR,,,,,,,,,,,,SPECI,4.0
SKPV 221500Z 04008KT 320V080 9999 FEW018 BKN200 28/24 A3004,SKPV,2018-03-22T15:00:00Z,13.37,-81.33,28.0,24.0,40,8,,6.21,30.041338,,,,,,,,,,,FEW,1800,BKN,20000,,,,,VFR,,,,,,,,,,,,METAR,6.0
CWCF 221500Z AUTO 03003KT M00/M03 RMK AO1 SOG 14 1015 SLP307 T10011027,CWCF,2018-03-22T15:00:00Z,52.35,-97.03,-0.1,-2.7,30,3,,,,1030.7,,TRUE,TRUE,,,,,,,,,,,,,,,,,,,,,,,,,,,METAR,222.0
CXYH 221500Z AUTO M15/M18 RMK AO1 SLP373 T11541175 56003,CXYH,2018-03-22T15:00:00Z,61.25,-123.75,-15.4,-17.5,,,,,,1037.3,,TRUE,TRUE,,,,,,,,,,,,,,,,-0.3,,,,,,,,,,,METAR,204.0
CXPA 221500Z AUTO 04009KT M08/M10 RMK AO1 PK WND 04024/1405 T10831095,CXPA,2018-03-22T15:00:00Z,55.62,-118.3,-8.3,-9.5,40,9,,,,,,TRUE,TRUE,,,,,,,,,,,,,,,,,,,,,,,,,,,METAR,621.0
CXOY 221500Z AUTO 08005KT M07/M08 RMK AO1 T10731081,CXOY,2018-03-22T15:00:00Z,51.38,-110.35,-7.3,-8.1,80,5,,,,,,TRUE,TRUE,,,,,,,,,,,,,,,,,,,,,,,,,,,METAR,767.0
CXHR 221500Z AUTO 06005KT M07/M07 RMK AO1 T10671070 50004,CXHR,2018-03-22T15:00:00Z,51.18,-112.5,-6.7,-7.0,60,5,,,,,,TRUE,TRUE,,,,,,,,,,,,,,,,0.4,,,,,,,,,,,METAR,971.0
CXDP 221500Z AUTO 09015KT M02/M03 RMK AO1 PK WND 09023/1409 T10231034,CXDP,2018-03-22T15:00:00Z,54.32,-113.95,-2.3,-3.4,90,15,,,,,,TRUE,TRUE,,,,,,,,,,,,,,,,,,,,,,,,,,,METAR,614.0
CXBR 221500Z AUTO 09004KT M04/M04 RMK AO1 T10361044,CXBR,2018-03-22T15:00:00Z,49.62,-113.82,-3.6,-4.4,90,4,,,,,,TRUE,TRUE,,,,,,,,,,,,,,,,,,,,,,,,,,,METAR,1073.0
CXAF 221500Z AUTO 10010KT M04/M05 RMK AO1 T10361051,CXAF,2018-03-22T15:00:00Z,54.28,-112.97,-3.6,-5.1,100,10,,,,,,TRUE,TRUE,,,,,,,,,,,,,,,,,,,,,,,,,,,METAR,664.0
CWZV 221500Z AUTO 10001KT 01/ RMK AO1 SLP935 T0009 58011,CWZV,2018-03-22T15:00:00Z,51.93,-131.02,0.9,,100,1,,,,993.5,,TRUE,TRUE,,,,,,,,,,,,,,,,-1.1,,,,,,,,,,,METAR,92.0
CWZL 221500Z AUTO 28007KT 02/01 RMK AO1 2PAST HR 6017 SLP943 P0001 T00180010 50008,CWZL,2018-03-22T15:00:00Z,53.03,-131.6,1.8,1.0,280,7,,,,994.3,,TRUE,TRUE,,,,,,,,,,,,,,,,0.8,,,,,0.01,,,,,,METAR,17.0
CWJO 221500Z AUTO 22002KT M02/M08 RMK AO1 SLP195 T10161084 58001,CWJO,2018-03-22T15:00:00Z,48.43,-71.15,-1.6,-8.4,220,2,,,,1019.5,,TRUE,TRUE,,,,,,,,,,,,,,,,-0.1,,,,,,,,,,,METAR,133.0
CXSC 221500Z AUTO 08009KT M01/M03 RMK AO1 5PAST HR M P0002 T10111026 50005,CXSC,2018-03-22T15:00:00Z,50.3,-110.08,-1.1,-2.6,80,9,,,,,,TRUE,TRUE,,,,,,,,,,,,,,,,0.5,,,,,0.02,,,,,,METAR,800.0
CWME 221500Z AUTO 19004KT 03/02 RMK AO1 6PAST HR 5001 SLP947 P0002 T00250022 50016,CWME,2018-03-22T15:00:00Z,52.18,-127.47,2.5,2.2,190,4,,,,994.7,,TRUE,TRUE,,,,,,,,,,,,,,,,1.6,,,,,0.02,,,,,,METAR,32.0
CWRU 221500Z AUTO 11007KT 02/01 RMK AO1 8PAST HR 8004 SLP941 P0003 T00170012 50044,CWRU,2018-03-22T15:00:00Z,50.12,-127.93,1.7,1.2,110,7,,,,994.1,,TRUE,TRUE,,,,,,,,,,,,,,,,4.4,,,,,0.03,,,,,,METAR,98.0
CWRO 221500Z AUTO 35008KT 03/02 RMK AO1 2PAST HR 8023 SLP936 P0001 T00280018 50012,CWRO,2018-03-22T15:00:00Z,54.17,-131.67,2.8,1.8,350,8,,,,993.6,,TRUE,TRUE,,,,,,,,,,,,,,,,1.2,,,,,0.01,,,,,,METAR,7.0
CXTV 221500Z AUTO 21023KT M19/M22 RMK AO1 SOG 42 6025 PK WND 21026/1450 SLP329 T11921220,CXTV,2018-03-22T15:00:00Z,68.75,-133.5,-19.2,-22.0,210,23,,,,1032.9,,TRUE,TRUE,,,,,,,,,,,,,,,,,,,,,,,,,,,METAR,85.0
CWHP 221500Z AUTO 06027KT M01/M04 RMK AO1 PK WND 06031/1454 SLP178 T10141039 58018,CWHP,2018-03-22T15:00:00Z,49.07,-61.7,-1.4,-3.9,60,27,,,,1017.8,,TRUE,TRUE,,,,,,,,,,,,,,,,-1.8,,,,,,,,,,,METAR,4.0
CWWX 221500Z AUTO 05008KT M04/M09 RMK AO1 SLP239 T10361086 51010,CWWX,2018-03-22T15:00:00Z,45.32,-81.73,-3.6,-8.6,50,8,,,,1023.9,,TRUE,TRUE,,,,,,,,,,,,,,,,1.0,,,,,,,,,,,METAR,181.0
HEIS 221500Z 04004KT CAVOK 33/M03 Q1009,HEIS,2018-03-22T15:00:00Z,30.58,32.25,33.0,-3.0,40,4,,6.21,29.793306,,,,,,,,,,,CAVOK,,,,,,,,VFR,,,,,,,,,,,,SPECI,3.0
HETR 221500Z 18003KT CAVOK 27/15 Q1009,HETR,2018-03-22T15:00:00Z,28.22,33.65,27.0,15.0,180,3,,6.21,29.793306,,,,,,,,,,,CAVOK,,,,,,,,VFR,,,,,,,,,,,,SPECI,35.0
CYDF 221500Z 07018G24KT 15SM BKN024 OVC100 00/M05 A3012 RMK SC7AC1 PRESRR SLP203,CYDF,2018-03-22T15:00:00Z,49.22,-57.4,0.0,-5.0,70,18,24,15.0,30.121063,1020.3,,,,,,,,,,BKN,2400,OVC,10000,,,,,MVFR,,,,,,,,,,,,METAR,22.0
CYGW 221500Z AUTO 30003KT 9SM CLR M19/M22 A3038 RMK SLP291,CYGW,2018-03-22T15:00:00Z,55.27,-77.77,-19.0,-22.0,300,3,,9.0,30.380905,1029.1,,TRUE,,,,,,,,CLR,,,,,,,,VFR,,,,,,,,,,,,METAR,12.0
CYDP 221500Z 30002KT 15SM SKC M08/M13 A3028 RMK SLP254,CYDP,2018-03-22T15:00:00Z,56.53,-61.67,-8.0,-13.0,300,2,,15.0,30.280512,1025.4,,,,,,,,,,SKC,,,,,,,,VFR,,,,,,,,,,,,METAR,7.0
DAFH 221500Z 31020KT 9999 FEW026CB SCT030 10/M03 Q1015,DAFH,2018-03-22T15:00:00Z,32.93,3.32,10.0,-3.0,310,20,,6.21,29.970472,,,,,,,,,,,FEW,2600,SCT,3000,,,,,VFR,,,,,,,,,,,,METAR,774.0
DAUI 221500Z 32013KT CAVOK 20/M06 Q1017,DAUI,2018-03-22T15:00:00Z,27.25,2.52,20.0,-6.0,320,13,,6.21,30.029528,,,,,,,,,,,CAVOK,,,,,,,,VFR,,,,,,,,,,,,METAR,269.0
DAUE 221500Z 30018KT 8000 DRSA BKN033 15/M06 Q1018,DAUE,2018-03-22T15:00:00Z,30.57,2.87,15.0,-6.0,300,18,,4.97,30.059055,,,,,,,,,,DRSA,BKN,3300,,,,,,,MVFR,,,,,,,,,,,,METAR,397.0
CYLU 221500Z 17007KT 150V220 15SM FEW024 SCT080 SCT210 M13/M18 A3037 RMK SC2AC1CI1 CI TR ACSL SLP295,CYLU,2018-03-22T15:00:00Z,58.72,-65.97,-13.0,-18.0,170,7,,15.0,30.369095,1029.5,,,,,,,,,,FEW,2400,SCT,8000,SCT,21000,,,VFR,,,,,,,,,,,,METAR,60.0
KMHV 221500Z 21011KT 10SM SCT010 BKN040 OVC060 13/13 A2998 RMK A01,KMHV,2018-03-22T15:00:00Z,35.07,-118.15,13.0,13.0,210,11,,10.0,29.97933,,,,TRUE,,,,,,,SCT,1000,BKN,4000,OVC,6000,,,VFR,,,,,,,,,,,,SPECI,849.0
KGZN 221500Z AUTO 19014G23KT 10SM CLR 17/11 A3020 RMK AO2,KGZN,2018-03-22T15:00:00Z,32.37,-99.02,17.0,11.0,190,14,23,10.0,30.200787,,,TRUE,TRUE,,,,,,,CLR,,,,,,,,VFR,,,,,,,,,,,,SPECI,522.0
K46U 221500Z AUTO 00000KT 10SM FEW034 SCT040 BKN060 02/01 A2999 RMK A01,K46U,2018-03-22T15:00:00Z,43.18,-111.05,2.0,1.0,0,0,,10.0,29.991142,,,TRUE,TRUE,,,,,,,FEW,3400,SCT,4000,BKN,6000,,,VFR,,,,,,,,,,,,SPECI,1717.0
RKSM 221500Z 36001KT 9999 SKC 02/M04 A3005,RKSM,2018-03-22T15:00:00Z,37.42,127.12,2.0,-4.0,360,1,,6.21,30.050198,,,,,,,,,,,SKC,,,,,,,,VFR,,,,,,,,,,,,METAR,20.0
GANR 221500Z 06008KT 1000 DU NSC 34/M07 Q1013,GANR,2018-03-22T15:00:00Z,15.23,-9.58,34.0,-7.0,60,8,,0.62,29.911417,,,,,,,,,,DU,CLR,,,,,,,,LIFR,,,,,,,,,,,,METAR,237.0
CWXC 221500Z AUTO 04006KT 01/M08 RMK AO1 SLP173 T00081084 58002,CWXC,2018-03-22T15:00:00Z,48.88,-71.03,0.8,-8.4,40,6,,,,1017.3,,TRUE,TRUE,,,,,,,,,,,,,,,,-0.2,,,,,,,,,,,METAR,300.0
CWXA 221500Z AUTO 08001KT M05/M06 RMK AO1 SLP154 T10491063 58004,CWXA,2018-03-22T15:00:00Z,51.07,-115.07,-4.9,-6.3,80,1,,,,1015.4,,TRUE,TRUE,,,,,,,,,,,,,,,,-0.4,,,,,,,,,,,METAR,1298.0
CWQS 221500Z AUTO 10004KT 02/M00 RMK AO1 SLP935 T00231003 56013,CWQS,2018-03-22T15:00:00Z,53.32,-132.77,2.3,-0.3,100,4,,,,993.5,,TRUE,TRUE,,,,,,,,,,,,,,,,-1.3,,,,,,,,,,,METAR,14.0
CWEK 221500Z AUTO 30006KT 05/03 RMK AO1 4PAST HR 8022 SLP933 P0002 T00450033 50012,CWEK,2018-03-22T15:00:00Z,54.58,-130.7,4.5,3.3,300,6,,,,993.3,,TRUE,TRUE,,,,,,,,,,,,,,,,1.2,,,,,0.02,,,,,,METAR,8.0
CWDC 221500Z AUTO 10006KT M16/M20 RMK AO1 SOG 53 2003 SLP401 T11591196,CWDC,2018-03-22T15:00:00Z,59.57,-108.47,-15.9,-19.6,100,6,,,,1040.1,,TRUE,TRUE,,,,,,,,,,,,,,,,,,,,,,,,,,,METAR,318.0
CWIS 221500Z AUTO 03011G21KT M04/M08 RMK AO1 SOG 108 8002 PK WND 03021/1418 SLP135 T10421077,CWIS,2018-03-22T15:00:00Z,47.28,-70.63,-4.2,-7.7,30,11,21,,,1013.5,,TRUE,TRUE,,,,,,,,,,,,,,,,,,,,,,,,,,,METAR,719.0
CWND 221500Z AUTO 05005KT M26/M29 RMK AO1 SLP301 T12591286 56022,CWND,2018-03-22T15:00:00Z,69.63,-135.43,-25.9,-28.6,50,5,,,,1030.1,,TRUE,TRUE,,,,,,,,,,,,,,,,-2.2,,,,,,,,,,,METAR,12.0
CXTN 221500Z AUTO 25015KT M23/M26 RMK AO1 PK WND 25018/1445 SLP378 T12331259 56014,CXTN,2018-03-22T15:00:00Z,69.2,-122.35,-23.3,-25.9,250,15,,,,1037.8,,TRUE,TRUE,,,,,,,,,,,,,,,,-1.4,,,,,,,,,,,METAR,552.0
CXMM 221500Z AUTO 09007KT M10/M14 RMK AO1 SOG 33 8001 SLP315 T11021143,CXMM,2018-03-22T15:00:00Z,56.65,-111.22,-10.2,-14.3,90,7,,,,1031.5,,TRUE,TRUE,,,,,,,,,,,,,,,,,,,,,,,,,,,METAR,369.0
CXLL 221500Z AUTO 36002KT M18/M22 RMK AO1 SOG 63 7006 SLP396 T11841217,CXLL,2018-03-22T15:00:00Z,61.12,-122.85,-18.4,-21.7,360,2,,,,1039.6,,TRUE,TRUE,,,,,,,,,,,,,,,,,,,,,,,,,,,METAR,183.0
CXLC 221500Z AUTO 03004KT M29/M32 RMK AO1 SOG 26 6011 SLP422 T12861323,CXLC,2018-03-22T15:00:00Z,63.6,-113.85,-28.6,-32.3,30,4,,,,1042.2,,TRUE,TRUE,,,,,,,,,,,,,,,,,,,,,,,,,,,METAR,373.0
MRLM 221500Z 03004KT 9999 -DZ BKN020 28/22 A3002,MRLM,2018-03-22T15:00:00Z,9.97,-83.03,28.0,22.0,30,4,,6.21,30.02067,,,,,,,,,,-DZ,BKN,2000,,,,,,,MVFR,,,,,,,,,,,,METAR,2.0
DAUL 221500Z 34026KT 8000 FEW023 BKN200 10/M08 Q1016,DAUL,2018-03-22T15:00:00Z,33.77,2.92,10.0,-8.0,340,26,,4.97,30.0,,,,,,,,,,,FEW,2300,BKN,20000,,,,,MVFR,,,,,,,,,,,,METAR,765.0
CYNC 221500Z VRB02KT 15SM FEW250 FEW300 M07/M14 A3031 RMK CS1CI1 SLP268,CYNC,2018-03-22T15:00:00Z,53.02,-78.82,-7.0,-14.0,0,2,,15.0,30.31004,1026.8,,,,,,,,,,FEW,25000,FEW,30000,,,,,VFR,,,,,,,,,,,,METAR,14.0
DAOY 221500Z 32012KT 8000 -SN OVC013 M00/M02 Q1017,DAOY,2018-03-22T15:00:00Z,33.72,1.08,0.0,-2.0,320,12,,4.97,30.029528,,,,,,,,,,-SN,OVC,1300,,,,,,,MVFR,,,,,,,,,,,,METAR,1347.0
DAOV 221500Z 01008KT 9999 SCT026 FEW030TCU 07/05 Q1020,DAOV,2018-03-22T15:00:00Z,35.2,0.15,7.0,5.0,10,8,,6.21,30.11811,,,,,,,,,,,SCT,2600,FEW,3000,,,,,VFR,,,,,,,,,,,,METAR,514.0
DAUT 221500Z 34009KT CAVOK 18/M03 Q1020,DAUT,2018-03-22T15:00:00Z,29.25,0.27,18.0,-3.0,340,9,,6.21,30.11811,,,,,,,,,,,CAVOK,,,,,,,,VFR,,,,,,,,,,,,METAR,312.0
DAUO 221500Z 33014KT 8000 BKN030 FEW033TCU 14/05 Q1012,DAUO,2018-03-22T15:00:00Z,33.5,6.78,14.0,5.0,330,14,,4.97,29.88189,,,,,,,,,,,BKN,3000,FEW,3300,,,,,MVFR,,,,,,,,,,,,METAR,63.0
DAUK 221500Z 33018KT 3000 DRSA SCT040 16/01 Q1012,DAUK,2018-03-22T15:00:00Z,33.08,6.12,16.0,1.0,330,18,,1.86,29.88189,,,,,,,,,,DRSA,SCT,4000,,,,,,,IFR,,,,,,,,,,,,METAR,85.0
DATM 221500Z 34030KT 1000 BLSA VV/// 25/// Q1014,DATM,2018-03-22T15:00:00Z,21.38,0.92,,,340,30,,0.62,29.940945,,,,,,,,,,BLSA,OVX,0,,,,,,,LIFR,,,,,,,,,,,,METAR,396.0
DABT 221500Z 29016KT 8000 FEW010 SCT020 BKN023 04/02 Q1012,DABT,2018-03-22T15:00:00Z,35.75,6.32,4.0,2.0,290,16,,4.97,29.88189,,,,,,,,,,,FEW,1000,SCT,2000,BKN,2300,,,MVFR,,,,,,,,,,,,METAR,823.0
DAAV 221500Z 29012KT 8000 TS SCT020 FEW026CB BKN030 11/05 Q1014,DAAV,2018-03-22T15:00:00Z,36.8,5.88,11.0,5.0,290,12,,4.97,29.940945,,,,,,,,,,TS,SCT,2000,FEW,2600,BKN,3000,,,MVFR,,,,,,,,,,,,METAR,11.0
DAAP 221500Z 31012KT CAVOK 17/01 Q1015,DAAP,2018-03-22T15:00:00Z,26.72,8.62,17.0,1.0,310,12,,6.21,29.970472,,,,,,,,,,,CAVOK,,,,,,,,VFR,,,,,,,,,,,,METAR,558.0
DAAJ 221500Z 26012KT 3000 HZ NSC 25/01 Q1011,DAAJ,2018-03-22T15:00:00Z,24.28,9.47,25.0,1.0,260,12,,1.86,29.852362,,,,,,,,,,HZ,CLR,,,,,,,,IFR,,,,,,,,,,,,METAR,968.0
DAAE 221500Z 22008KT 6000 -TSRA FEW016TCU SCT026CB BKN040 09/06 Q1016,DAAE,2018-03-22T15:00:00Z,36.72,5.07,9.0,6.0,220,8,,3.73,30.0,,,,,,,,,,-TSRA,FEW,1600,SCT,2600,BKN,4000,,,MVFR,,,,,,,,,,,,METAR,2.0
DAAD 221500Z 33024KT 4000 BLSA FEW026TCU 10/01 Q1016,DAAD,2018-03-22T15:00:00Z,35.32,4.2,10.0,1.0,330,24,,2.49,30.0,,,,,,,,,,BLSA,FEW,2600,,,,,,,IFR,,,,,,,,,,,,METAR,461.0
WBSB 221500Z 16003KT 8000 SCT015 BKN280 27/25 Q1010 NOSIG,WBSB,2018-03-22T15:00:00Z,4.92,114.92,27.0,25.0,160,3,,4.97,29.822834,,,,,,TRUE,,,,,SCT,1500,BKN,28000,,,,,MVFR,,,,,,,,,,,,METAR,15.0
WMSA 221500Z 00000KT 5000 HZ FEW026 BKN270 26/24 Q1009,WMSA,2018-03-22T15:00:00Z,3.13,101.55,26.0,24.0,0,0,,3.11,29.793306,,,,,,,,,,HZ,FEW,2600,BKN,27000,,,,,MVFR,,,,,,,,,,,,METAR,27.0
WBKW 221500Z 34003KT 9999 FEW017 SCT140 BKN300 25/24 Q1009,WBKW,2018-03-22T15:00:00Z,4.32,118.12,25.0,24.0,340,3,,6.21,29.793306,,,,,,,,,,,FEW,1700,SCT,14000,BKN,30000,,,VFR,,,,,,,,,,,,METAR,20.0
WBKT 221500Z 06003KT 340V120 9999 FEW013 BKN270 28/23 Q1009,WBKT,2018-03-22T15:00:00Z,6.92,116.82,28.0,23.0,60,3,,6.21,29.793306,,,,,,,,,,,FEW,1300,BKN,27000,,,,,VFR,,,,,,,,,,,,METAR,5.0
WBKS 221500Z 00000KT 9999 SCT015 BKN280 27/25 Q1008,WBKS,2018-03-22T15:00:00Z,5.9,118.07,27.0,25.0,0,0,,6.21,29.763779,,,,,,,,,,,SCT,1500,BKN,28000,,,,,VFR,,,,,,,,,,,,METAR,13.0
WBKL 221500Z 07007KT 020V120 7000 -RA SCT010 SCT140 BKN300 26/24 Q1009,WBKL,2018-03-22T15:00:00Z,5.28,115.25,26.0,24.0,70,7,,4.35,29.793306,,,,,,,,,,-RA,SCT,1000,SCT,14000,BKN,30000,,,MVFR,,,,,,,,,,,,METAR,30.0
WBGY 221500Z 00000KT 9999 FEW020 SCT150 BKN300 25/24 Q1009,WBGY,2018-03-22T15:00:00Z,1.22,111.43,25.0,24.0,0,0,,6.21,29.793306,,,,,,,,,,,FEW,2000,SCT,15000,BKN,30000,,,VFR,,,,,,,,,,,,METAR,34.0
WBGR 221500Z 11003KT 070V130 9999 SCT016 SCT150 BKN300 25/24 Q1008,WBGR,2018-03-22T15:00:00Z,4.32,113.97,25.0,24.0,110,3,,6.21,29.763779,,,,,,,,,,,SCT,1600,SCT,15000,BKN,30000,,,VFR,,,,,,,,,,,,METAR,18.0
WBGB 221500Z VRB02KT 9999 FEW016 SCT150 BKN300 25/25 Q1009,WBGB,2018-03-22T15:00:00Z,3.12,113.02,25.0,25.0,0,2,,6.21,29.793306,,,,,,,,,,,FEW,1600,SCT,15000,BKN,30000,,,VFR,,,,,,,,,,,,METAR,5.0
WMKP 221500Z 16007KT 130V200 9000 FEW025 SCT140 BKN270 29/25 Q1008 NOSIG,WMKP,2018-03-22T15:00:00Z,5.28,100.27,29.0,25.0,160,7,,5.59,29.763779,,,,,,TRUE,,,,,FEW,2500,SCT,14000,BKN,27000,,,VFR,,,,,,,,,,,,METAR,4.0
WMKK 221500Z 09004KT 060V140 9999 FEW017CB SCT140 BKN280 28/24 Q1008 NOSIG,WMKK,2018-03-22T15:00:00Z,2.75,101.72,28.0,24.0,90,4,,6.21,29.763779,,,,,,TRUE,,,,,FEW,1700,SCT,14000,BKN,28000,,,VFR,,,,,,,,,,,,METAR,22.0
WMKJ 221500Z 05003KT 9999 FEW023 BKN300 26/24 Q1009,WMKJ,2018-03-22T15:00:00Z,1.62,103.67,26.0,24.0,50,3,,6.21,29.793306,,,,,,,,,,,FEW,2300,BKN,30000,,,,,VFR,,,,,,,,,,,,METAR,40.0
WBKK 221500Z VRB03KT 9999 FEW014 FEW016CB SCT140 BKN270 25/23 Q1008 NOSIG,WBKK,2018-03-22T15:00:00Z,5.92,116.03,25.0,23.0,0,3,,6.21,29.763779,,,,,,TRUE,,,,,FEW,1400,FEW,1600,SCT,14000,BKN,27000,VFR,,,,,,,,,,,,METAR,3.0
WBGG 221500Z VRB03KT 9999 SCT020 BKN300 26/24 Q1009 NOSIG,WBGG,2018-03-22T15:00:00Z,1.47,110.35,26.0,24.0,0,3,,6.21,29.793306,,,,,,TRUE,,,,,SCT,2000,BKN,30000,,,,,VFR,,,,,,,,,,,,METAR,27.0
LERI 221500Z 31008KT 240V030 CAVOK 16/M07 Q1020 NOSIG,LERI,2018-03-22T15:00:00Z,37.95,-1.22,16.0,-7.0,310,8,,6.21,30.11811,,,,,,TRUE,,,,,CAVOK,,,,,,,,VFR,,,,,,,,,,,,METAR,75.0
LEGT 221500Z 28003KT CAVOK 13/M04 Q1021,LEGT,2018-03-22T15:00:00Z,40.28,-3.72,13.0,-4.0,280,3,,6.21,30.147638,,,,,,,,,,,CAVOK,,,,,,,,VFR,,,,,,,,,,,,METAR,612.0
CYTQ 221500Z 21010KT 15SM FEW025 FEW100 SCT240 M17/M22 A3042 RMK SC1AC2CI1 SC TR SLP307,CYTQ,2018-03-22T15:00:00Z,58.67,-69.95,-17.0,-22.0,210,10,,15.0,30.41929,1030.7,,,,,,,,,,FEW,2500,FEW,10000,SCT,24000,,,VFR,,,,,,,,,,,,METAR,31.0
CXTH 221500Z AUTO 08014KT M03/M03 RMK AO1 PK WND 07021/1426 T10261029,CXTH,2018-03-22T15:00:00Z,53.63,-111.68,-2.6,-2.9,80,14,,,,,,TRUE,TRUE,,,,,,,,,,,,,,,,,,,,,,,,,,,METAR,678.0
CXFM 221500Z AUTO 11016KT M01/M04 RMK AO1 PK WND 12021/1442 T10141035,CXFM,2018-03-22T15:00:00Z,49.48,-111.48,-1.4,-3.5,110,16,,,,,,TRUE,TRUE,,,,,,,,,,,,,,,,,,,,,,,,,,,METAR,881.0
CXDB 221500Z AUTO 17006KT M02/M05 RMK AO1 T10221048,CXDB,2018-03-22T15:00:00Z,49.05,-112.82,-2.2,-4.8,170,6,,,,,,TRUE,TRUE,,,,,,,,,,,,,,,,,,,,,,,,,,,METAR,1310.0
CXAK 221500Z AUTO 08005KT M06/M06 RMK AO1 T10591064,CXAK,2018-03-22T15:00:00Z,52.35,-112.6,-5.9,-6.4,80,5,,,,,,TRUE,TRUE,,,,,,,,,,,,,,,,,,,,,,,,,,,METAR,795.0
CPRY 221500Z AUTO 01004KT M04/M04 RMK AO1 T10391041,CPRY,2018-03-22T15:00:00Z,49.48,-112.68,-3.9,-4.1,10,4,,,,,,TRUE,TRUE,,,,,,,,,,,,,,,,,,,,,,,,,,,METAR,937.0
CXWM 221500Z AUTO 09009KT M03/M04 RMK AO1 T10261042,CXWM,2018-03-22T15:00:00Z,49.5,-112.12,-2.6,-4.2,90,9,,,,,,TRUE,TRUE,,,,,,,,,,,,,,,,,,,,,,,,,,,METAR,944.0
LEGA 221500Z 33012KT 270V360 CAVOK 12/M06 Q1021,LEGA,2018-03-22T15:00:00Z,37.12,-3.62,12.0,-6.0,330,12,,6.21,30.147638,,,,,,,,,,,CAVOK,,,,,,,,VFR,,,,,,,,,,,,METAR,686.0
CYOC 221500Z 00000KT 25SM IC VCFG FEW012 SCT034 SCT240 M28/M31 A3053 RMK ST1SC2CI1 CI TR IC FROIN/ VISNE 2 SLP375,CYOC,2018-03-22T15:00:00Z,67.57,-139.82,-28.0,-31.0,0,0,,25.0,30.528543,1037.5,,,,,,,,,IC VCFG,FEW,1200,SCT,3400,SCT,24000,,,VFR,,,,,,,,,,,,METAR,251.0
CYMA 221500Z 35007KT 20SM FEW100 M16/M23 A3040 RMK AC1 AC TR SLP349,CYMA,2018-03-22T15:00:00Z,63.62,-135.87,-16.0,-23.0,350,7,,20.0,30.398623,1034.9,,,,,,,,,,FEW,10000,,,,,,,VFR,,,,,,,,,,,,METAR,504.0
CYLW 221500Z AUTO 00000KT 9SM BKN046 OVC095 04/03 A2957 RMK SLP025,CYLW,2018-03-22T15:00:00Z,49.95,-119.37,4.0,3.0,0,0,,9.0,29.568897,1002.5,,TRUE,,,,,,,,BKN,4600,OVC,9500,,,,,VFR,,,,,,,,,,,,METAR,430.0
CYKA 221500Z 10008KT 40SM BKN056 BKN080 09/02 A2951 RMK SC5AC2 SLP003,CYKA,2018-03-22T15:00:00Z,50.7,-120.45,9.0,2.0,100,8,,40.0,29.509842,1000.3,,,,,,,,,,BKN,5600,BKN,8000,,,,,VFR,,,,,,,,,,,,METAR,346.0
CYIN 221500Z AUTO 10006KT 9SM -RA OVC015 01/00 A2941 RMK SLP983,CYIN,2018-03-22T15:00:00Z,51.27,-121.68,1.0,0.0,100,6,,9.0,29.409449,998.3,,TRUE,,,,,,,-RA,OVC,1500,,,,,,,MVFR,,,,,,,,,,,,METAR,1128.0
CYDL 221500Z AUTO 36013G24KT 320V040 9SM BKN190 M09/M16 A2982 RMK SLP135,CYDL,2018-03-22T15:00:00Z,58.42,-130.02,-9.0,-16.0,360,13,24,9.0,29.819881,1013.5,,TRUE,,,,,,,,BKN,19000,,,,,,,VFR,,,,,,,,,,,,METAR,816.0
CYDA 221500Z VRB02KT 20SM SKC M23/M26 A3050 RMK SLP370,CYDA,2018-03-22T15:00:00Z,64.03,-139.12,-23.0,-26.0,0,2,,20.0,30.499016,1037.0,,,,,,,,,,SKC,,,,,,,,VFR,,,,,,,,,,,,METAR,369.0
CYCG 221500Z 14003KT 130V220 10SM FEW002 SCT030 OVC045 04/03 A2970 RMK SF2SC2SC4 SLP071,CYCG,2018-03-22T15:00:00Z,49.28,-117.62,4.0,3.0,140,3,,10.0,29.698818,1007.1,,,,,,,,,,FEW,200,SCT,3000,OVC,4500,,,VFR,,,,,,,,,,,,METAR,495.0
CYCD 221500Z 05002KT 15SM -RA VCFG FEW005 SCT025 OVC050 06/06 A2941 RMK SF2SC2SC4 SLP961,CYCD,2018-03-22T15:00:00Z,49.05,-123.87,6.0,6.0,50,2,,15.0,29.409449,996.1,,,,,,,,,-RA VCFG,FEW,500,SCT,2500,OVC,5000,,,VFR,,,,,,,,,,,,METAR,30.0
CYBD 221500Z 29008KT 4SM BR SCT010 SCT040 OVC100 04/03 A2934 RMK SC3SC1AS5 SC TR VIS RDCD IN LO CLD SLP937,CYBD,2018-03-22T15:00:00Z,52.37,-126.57,4.0,3.0,290,8,,4.0,29.338583,993.7,,,,,,,,,BR,SCT,1000,SCT,4000,OVC,10000,,,MVFR,,,,,,,,,,,,METAR,35.0
CBBC 221500Z AUTO 16004KT 8SM -RA SCT008 OVC026 03/02 A2937 RMK SLP947,CBBC,2018-03-22T15:00:00Z,52.18,-128.15,3.0,2.0,160,4,,8.0,29.371063,994.7,,TRUE,,,,,,,-RA,SCT,800,OVC,2600,,,,,MVFR,,,,,,,,,,,,METAR,43.0
CYZT 221500Z VRB02KT 12SM -RA FEW009 OVC030 02/01 A2939 RMK SF2NS6 SLP954,CYZT,2018-03-22T15:00:00Z,50.67,-127.37,2.0,1.0,0,2,,12.0,29.388779,995.4,,,,,,,,,-RA,FEW,900,OVC,3000,,,,,MVFR,,,,,,,,,,,,METAR,22.0
CYXS 221500Z AUTO 02012G17KT 9SM OVC055 04/M03 A2951 RMK SLP015,CYXS,2018-03-22T15:00:00Z,53.9,-122.68,4.0,-3.0,20,12,17,9.0,29.509842,1001.5,,TRUE,,,,,,,,OVC,5500,,,,,,,VFR,,,,,,,,,,,,METAR,691.0
CYXE 221500Z 10010KT 12SM SKC M06/M06 A3024 RMK SLP277,CYXE,2018-03-22T15:00:00Z,52.17,-106.7,-6.0,-6.0,100,10,,12.0,30.239174,1027.7,,,,,,,,,,SKC,,,,,,,,VFR,,,,,,,,,,,,METAR,504.0
CYUA 221500Z AUTO 21022KT ////SM //// NCD M15/M18 A3047,CYUA,2018-03-22T15:00:00Z,68.95,-137.28,-15.0,-18.0,210,22,,,30.469488,,,TRUE,,,,,,,,CLR,,,,,,,,,,,,,,,,,,,,METAR,38.0
CYQZ 221500Z AUTO VRB04KT 9SM OVC065 01/M01 A2943 RMK SLP990,CYQZ,2018-03-22T15:00:00Z,53.02,-122.52,1.0,-1.0,0,4,,9.0,29.430119,999.0,,TRUE,,,,,,,,OVC,6500,,,,,,,VFR,,,,,,,,,,,,METAR,545.0
CYQD 221500Z 08010G19KT 15SM FEW012 OVC050 M05/M07 A3042 RMK SF2SC6 SLP321,CYQD,2018-03-22T15:00:00Z,53.97,-101.08,-5.0,-7.0,80,10,19,15.0,30.41929,1032.1,,,,,,,,,,FEW,1200,OVC,5000,,,,,VFR,,,,,,,,,,,,METAR,271.0
CYKY 221500Z 09006KT 020V120 1/4SM FZFG VV002 M08/M09 A3010 RMK FG8 FROIN SLP235,CYKY,2018-03-22T15:00:00Z,51.52,-109.17,-8.0,-9.0,90,6,,0.25,30.100393,1023.5,,,,,,,,,FZFG,OVX,0,,,,,,,LIFR,,,,,,,,,,,200,METAR,694.0
CYIV 221500Z 36012KT 15SM FEW075 FEW120 FEW220 M08/M12 A3048 RMK AC1AC1CC1 AC TR CC TR SLP342,CYIV,2018-03-22T15:00:00Z,53.85,-94.65,-8.0,-12.0,360,12,,15.0,30.481298,1034.2,,,,,,,,,,FEW,7500,FEW,12000,FEW,22000,,,VFR,,,,,,,,,,,,METAR,237.0
CYHE 221500Z AUTO 07007KT 9SM BKN120 06/03 A2944 RMK SLP972,CYHE,2018-03-22T15:00:00Z,49.37,-121.5,6.0,3.0,70,7,,9.0,29.438976,997.2,,TRUE,,,,,,,,BKN,12000,,,,,,,VFR,,,,,,,,,,,,METAR,39.0
CYFO 221500Z 06006KT 15SM FEW015 BKN033 BKN120 M03/M07 A3043 RMK SF1SC4AC2 SLP327,CYFO,2018-03-22T15:00:00Z,54.67,-101.67,-3.0,-7.0,60,6,,15.0,30.431103,1032.7,,,,,,,,,,FEW,1500,BKN,3300,BKN,12000,,,VFR,,,,,,,,,,,,METAR,304.0
CYEV 221500Z 18014G20KT 15SM SKC M18/M22 A3054 RMK SLP354,CYEV,2018-03-22T15:00:00Z,68.32,-133.5,-18.0,-22.0,180,14,20,15.0,30.540354,1035.4,,,,,,,,,,SKC,,,,,,,,VFR,,,,,,,,,,,,METAR,68.0
CYDQ 221500Z AUTO 06018G24KT 9SM -SN OVC018 M07/M09 A3000 RMK SLP199,CYDQ,2018-03-22T15:00:00Z,55.75,-120.17,-7.0,-9.0,60,18,24,9.0,30.0,1019.9,,TRUE,,,,,,,-SN,OVC,1800,,,,,,,MVFR,,,,,,,,,,,,METAR,655.0
CYDC 221500Z VRB02KT 20SM FEW050 BKN057 BKN070 BKN100 01/M01 A2949 RMK SC1SC4AC1AS1 AS TR SLP000,CYDC,2018-03-22T15:00:00Z,49.47,-120.52,1.0,-1.0,0,2,,20.0,29.489174,1000.0,,,,,,,,,,FEW,5000,BKN,5700,BKN,7000,BKN,10000,VFR,,,,,,,,,,,,METAR,700.0
CYDB 221500Z 30005KT 10SM -SN FEW035 OVC070 M13/M14 A3032 RMK CF2AC6 SLP338,CYDB,2018-03-22T15:00:00Z,61.37,-139.05,-13.0,-14.0,300,5,,10.0,30.318897,1033.8,,,,,,,,,-SN,FEW,3500,OVC,7000,,,,,VFR,,,,,,,,,,,,METAR,801.0
CYCP 221500Z VRB02KT 15SM VCSH BKN077 OVC120 M00/M01 A2963 RMK AC5AS3 SLP061,CYCP,2018-03-22T15:00:00Z,52.13,-119.28,0.0,-1.0,0,2,,15.0,29.630905,1006.1,,,,,,,,,VCSH,BKN,7700,OVC,12000,,,,,VFR,,,,,,,,,,,,METAR,683.0
CYBV 221500Z 05004KT 010V070 15SM FEW025 BKN060 00/M02 A3040 RMK SC1SC6 SLP310,CYBV,2018-03-22T15:00:00Z,52.35,-97.03,0.0,-2.0,50,4,,15.0,30.398623,1031.0,,,,,,,,,,FEW,2500,BKN,6000,,,,,VFR,,,,,,,,,,,,METAR,222.0
CYBL 221500Z VRB02KT 5SM PRFG FEW003 BKN060 05/04 A2937 RMK SF2SC5 SLP950,CYBL,2018-03-22T15:00:00Z,49.95,-125.27,5.0,4.0,0,2,,5.0,29.371063,995.0,,,,,,,,,PRFG,FEW,300,BKN,6000,,,,,MVFR,,,,,,,,,,,,METAR,106.0
CYAZ 221500Z 07004KT 15SM -RA FEW014 BKN017 OVC025 03/02 A2943 RMK SF2SC5NS1 /R14/ SLP967,CYAZ,2018-03-22T15:00:00Z,49.08,-125.77,3.0,2.0,70,4,,15.0,29.430119,996.7,,,,,,,,,-RA,FEW,1400,BKN,1700,OVC,2500,,,MVFR,,,,,,,,,,,,METAR,24.0
GOGK 221500Z 04006KT CAVOK 41/02 Q1008,GOGK,2018-03-22T15:00:00Z,12.9,-14.97,41.0,2.0,40,6,,6.21,29.763779,,,,,,,,,,,CAVOK,,,,,,,,VFR,,,,,,,,,,,,METAR,10.0
GOOD 221500Z 04006KT CAVOK 38/09 Q1011,GOOD,2018-03-22T15:00:00Z,14.65,-16.22,38.0,9.0,40,6,,6.21,29.852362,,,,,,,,,,,CAVOK,,,,,,,,VFR,,,,,,,,,,,,METAR,9.0
GOSM 221500Z 06004KT 7000 NSC 39/05 Q1010,GOSM,2018-03-22T15:00:00Z,15.6,-13.33,39.0,5.0,60,4,,4.35,29.822834,,,,,,,,,,,CLR,,,,,,,,MVFR,,,,,,,,,,,,METAR,17.0
GOOG 221500Z 04004KT CAVOK 37/12 Q////,GOOG,2018-03-22T15:00:00Z,15.4,-15.08,37.0,12.0,40,4,,6.21,,,,,,,,,,,,CAVOK,,,,,,,,VFR,,,,,,,,,,,,METAR,21.0
GOSP 221500Z 04004KT 7000 NSC 36/00 Q1012,GOSP,2018-03-22T15:00:00Z,16.68,-14.97,36.0,0.0,40,4,,4.35,29.88189,,,,,,,,,,,CLR,,,,,,,,MVFR,,,,,,,,,,,,METAR,7.0
TRPG 221500Z 11016KT 9999 FEW021 27/24 Q1018,TRPG,2018-03-22T15:00:00Z,16.78,-62.2,27.0,24.0,110,16,,6.21,30.059055,,,,,,,,,,,FEW,2100,,,,,,,VFR,,,,,,,,,,,,METAR,168.0
DNPO 221500Z 36010KT 3000 -TSRA BKN007 FEW018CB 25/23 Q1008 NOSIG,DNPO,2018-03-22T15:00:00Z,4.83,7.02,25.0,23.0,360,10,,1.86,29.763779,,,,,,TRUE,,,,-TSRA,BKN,700,FEW,1800,,,,,IFR,,,,,,,,,,,,METAR,18.0
TDCF 221500Z 11009G21KT 9999 FEW021 30/19 Q1016,TDCF,2018-03-22T15:00:00Z,15.33,-61.4,30.0,19.0,110,9,21,6.21,30.0,,,,,,,,,,,FEW,2100,,,,,,,VFR,,,,,,,,,,,,METAR,5.0
HTZA 221500Z 09008KT 9999 FEW020 31/24 Q1009 NOSIG,HTZA,2018-03-22T15:00:00Z,-6.22,39.22,31.0,24.0,90,8,,6.21,29.793306,,,,,,TRUE,,,,,FEW,2000,,,,,,,VFR,,,,,,,,,,,,METAR,15.0
HTMW 221500Z 33006KT 9999 FEW026 FEW027CB 27/20 Q1013 NOSIG,HTMW,2018-03-22T15:00:00Z,-2.47,32.92,27.0,20.0,330,6,,6.21,29.911417,,,,,,TRUE,,,,,FEW,2600,FEW,2700,,,,,VFR,,,,,,,,,,,,METAR,1140.0
HTKJ 221500Z 03006KT 9999 FEW034CB SCT035 29/18 Q1014 NOSIG,HTKJ,2018-03-22T15:00:00Z,-3.42,37.07,29.0,18.0,30,6,,6.21,29.940945,,,,,,TRUE,,,,,FEW,3400,SCT,3500,,,,,VFR,,,,,,,,,,,,METAR,896.0
HTDA 221500Z 03006KT 9999 FEW020 FEW022CB 29/25 Q1010 NOSIG,HTDA,2018-03-22T15:00:00Z,-6.88,39.2,29.0,25.0,30,6,,6.21,29.822834,,,,,,TRUE,,,,,FEW,2000,FEW,2200,,,,,VFR,,,,,,,,,,,,METAR,55.0
DNKN 221500Z 28006KT 9999 SCT019 38/19 Q1009 NOSIG,DNKN,2018-03-22T15:00:00Z,12.05,8.52,38.0,19.0,280,6,,6.21,29.793306,,,,,,TRUE,,,,,SCT,1900,,,,,,,VFR,,,,,,,,,,,,METAR,481.0
GOTK 221500Z 36006KT 4000 HZ NSC 39/12 Q1009,GOTK,2018-03-22T15:00:00Z,12.57,-12.22,39.0,12.0,360,6,,2.49,29.793306,,,,,,,,,,HZ,CLR,,,,,,,,IFR,,,,,,,,,,,,METAR,167.0
GOGS 221500Z VRB08KT CAVOK 29/14 Q1010,GOGS,2018-03-22T15:00:00Z,12.4,-16.75,29.0,14.0,0,8,,6.21,29.822834,,,,,,,,,,,CAVOK,,,,,,,,VFR,,,,,,,,,,,,METAR,13.0
GOGG 221500Z 06007KT CAVOK 29/06 Q1010,GOGG,2018-03-22T15:00:00Z,12.55,-16.27,29.0,6.0,60,7,,6.21,29.822834,,,,,,,,,,,CAVOK,,,,,,,,VFR,,,,,,,,,,,,METAR,23.0
GOTT 221500Z 06006KT CAVOK 40/08 Q1009,GOTT,2018-03-22T15:00:00Z,13.73,-13.65,40.0,8.0,60,6,,6.21,29.793306,,,,,,,,,,,CAVOK,,,,,,,,VFR,,,,,,,,,,,,METAR,50.0
GOOK 221500Z 00000KT CAVOK 40/24 Q1013,GOOK,2018-03-22T15:00:00Z,14.15,-16.07,40.0,24.0,0,0,,6.21,29.911417,,,,,,,,,,,CAVOK,,,,,,,,VFR,,,,,,,,,,,,METAR,7.0
GOOY 221500Z 34008KT 7000 NSC 23/16 Q1012,GOOY,2018-03-22T15:00:00Z,14.72,-17.5,23.0,16.0,340,8,,4.35,29.88189,,,,,,,,,,,CLR,,,,,,,,MVFR,,,,,,,,,,,,METAR,24.0
GOSS 221500Z 06008KT 5000 DU NSC 35/04 Q1011,GOSS,2018-03-22T15:00:00Z,16.05,-16.43,35.0,4.0,60,8,,3.11,29.852362,,,,,,,,,,DU,CLR,,,,,,,,MVFR,,,,,,,,,,,,METAR,4.0
VRMM 221500Z 28005KT 9999 FEW018 29/24 Q1010 NOSIG,VRMM,2018-03-22T15:00:00Z,4.2,73.52,29.0,24.0,280,5,,6.21,29.822834,,,,,,TRUE,,,,,FEW,1800,,,,,,,VFR,,,,,,,,,,,,METAR,2.0
MYGF 221500Z 36016KT 9999 FEW020 20/10 A3018,MYGF,2018-03-22T15:00:00Z,26.55,-78.7,20.0,10.0,360,16,,6.21,30.180119,,,,,,,,,,,FEW,2000,,,,,,,VFR,,,,,,,,,,,,METAR,2.0
SBRJ 221500Z 14006KT 7000 -RA BKN007 OVC020 25/24 Q1013,SBRJ,2018-03-22T15:00:00Z,-22.88,-43.17,25.0,24.0,140,6,,4.35,29.911417,,,,,,,,,,-RA,BKN,700,OVC,2000,,,,,IFR,,,,,,,,,,,,METAR,3.0
SBKP 221500Z 09003KT 9999 BKN030 27/19 Q1015,SBKP,2018-03-22T15:00:00Z,-23.0,-47.12,27.0,19.0,90,3,,6.21,29.970472,,,,,,,,,,,BKN,3000,,,,,,,MVFR,,,,,,,,,,,,METAR,661.0
SBNF 221500Z 12003KT 9999 FEW020 BKN042 24/18 Q1015,SBNF,2018-03-22T15:00:00Z,-26.88,-48.65,24.0,18.0,120,3,,6.21,29.970472,,,,,,,,,,,FEW,2000,BKN,4200,,,,,VFR,,,,,,,,,,,,METAR,5.0
SBCR 221500Z 07006KT 9999 SCT017 SCT022 30/24 Q1011,SBCR,2018-03-22T15:00:00Z,-19.0,-57.67,30.0,24.0,70,6,,6.21,29.852362,,,,,,,,,,,SCT,1700,SCT,2200,,,,,VFR,,,,,,,,,,,,METAR,141.0
SBPA 221500Z 08009KT 040V140 9999 SCT040 24/14 Q1014,SBPA,2018-03-22T15:00:00Z,-30.0,-51.17,24.0,14.0,80,9,,6.21,29.940945,,,,,,,,,,,SCT,4000,,,,,,,VFR,,,,,,,,,,,,METAR,3.0
SBEG 221500Z 02008KT 9999 SCT020 30/23 Q1013,SBEG,2018-03-22T15:00:00Z,-3.02,-60.03,30.0,23.0,20,8,,6.21,29.911417,,,,,,,,,,,SCT,2000,,,,,,,VFR,,,,,,,,,,,,METAR,2.0
FIMP 221500Z 14006KT 9999 VCSH SCT014 27/25 Q1013,FIMP,2018-03-22T15:00:00Z,-20.42,57.67,27.0,25.0,140,6,,6.21,29.911417,,,,,,,,,,VCSH,SCT,1400,,,,,,,VFR,,,,,,,,,,,,METAR,57.0
SBFL 221500Z 11005KT 9999 SCT040 SCT060 25/18 Q1015,SBFL,2018-03-22T15:00:00Z,-27.67,-48.53,25.0,18.0,110,5,,6.21,29.970472,,,,,,,,,,,SCT,4000,SCT,6000,,,,,VFR,,,,,,,,,,,,METAR,5.0
SBCZ 221500Z 20001KT 9999 BKN016 BKN100 27/23 Q1015,SBCZ,2018-03-22T15:00:00Z,-7.62,-72.77,27.0,23.0,200,1,,6.21,29.970472,,,,,,,,,,,BKN,1600,BKN,10000,,,,,MVFR,,,,,,,,,,,,METAR,170.0
OLBA 221500Z 05007KT 8000 NSC 22/14 Q1013 NOSIG,OLBA,2018-03-22T15:00:00Z,33.82,35.47,22.0,14.0,50,7,,4.97,29.911417,,,,,,TRUE,,,,,CLR,,,,,,,,MVFR,,,,,,,,,,,,METAR,19.0
LRCT 221500Z 14005KT 9999 FEW025 BKN030 01/M04 Q1016 BLU BLU,LRCT,2018-03-22T15:00:00Z,46.5,23.88,1.0,-4.0,140,5,,6.21,30.0,,,,,,,,,,,FEW,2500,BKN,3000,,,,,MVFR,,,,,,,,,,,,METAR,331.0
SBCF 221500Z 32003KT 9999 BKN030 BKN100 26/18 Q1017,SBCF,2018-03-22T15:00:00Z,-19.63,-43.97,26.0,18.0,320,3,,6.21,30.029528,,,,,,,,,,,BKN,3000,BKN,10000,,,,,MVFR,,,,,,,,,,,,METAR,828.0
MDAB 221500Z 22006KT 9999 FEW020 BKN300 27/23 Q1020,MDAB,2018-03-22T15:00:00Z,19.2,-69.43,27.0,23.0,220,6,,6.21,30.11811,,,,,,,,,,,FEW,2000,BKN,30000,,,,,VFR,,,,,,,,,,,,METAR,35.0
MDCY 221500Z 18005KT 9999 BKN018 SCT300 28/25 Q1019,MDCY,2018-03-22T15:00:00Z,19.27,-69.73,28.0,25.0,180,5,,6.21,30.088583,,,,,,,,,,,BKN,1800,SCT,30000,,,,,MVFR,,,,,,,,,,,,METAR,10.0
MDLR 221500Z 13006KT 9999 SCT020 BKN300 30/23 Q1018,MDLR,2018-03-22T15:00:00Z,18.45,-68.92,30.0,23.0,130,6,,6.21,30.059055,,,,,,,,,,,SCT,2000,BKN,30000,,,,,VFR,,,,,,,,,,,,METAR,8.0
MDSD 221500Z 15007KT 8000 VCSH SCT018 28/24 Q1018 VCSH/E,MDSD,2018-03-22T15:00:00Z,18.42,-69.67,28.0,24.0,150,7,,4.97,30.059055,,,,,,,,,,VCSH VCSH,SCT,1800,,,,,,,MVFR,,,,,,,,,,,,METAR,18.0
MDJB 221500Z 06006KT 9999 SCT020 29/22 Q1019,MDJB,2018-03-22T15:00:00Z,18.57,-69.98,29.0,22.0,60,6,,6.21,30.088583,,,,,,,,,,,SCT,2000,,,,,,,VFR,,,,,,,,,,,,METAR,30.0
MDBH 221500Z 11012KT 9999 FEW024 SCT300 30/22 Q1020,MDBH,2018-03-22T15:00:00Z,18.25,-71.12,30.0,22.0,110,12,,6.21,30.11811,,,,,,,,,,,FEW,2400,SCT,30000,,,,,VFR,,,,,,,,,,,,METAR,3.0
MDPC 221500Z 11010KT 9999 FEW025 SCT300 28/22 Q1018,MDPC,2018-03-22T15:00:00Z,18.57,-68.37,28.0,22.0,110,10,,6.21,30.059055,,,,,,,,,,,FEW,2500,SCT,30000,,,,,VFR,,,,,,,,,,,,METAR,12.0
MDST 221500Z 10004KT 040V160 9999 SCT020 BKN300 27/22 Q1019,MDST,2018-03-22T15:00:00Z,19.4,-70.6,27.0,22.0,100,4,,6.21,30.088583,,,,,,,,,,,SCT,2000,BKN,30000,,,,,VFR,,,,,,,,,,,,METAR,184.0
MDPP 221500Z 00000KT 9999 FEW020 29/23 Q1018,MDPP,2018-03-22T15:00:00Z,19.75,-70.57,29.0,23.0,0,0,,6.21,30.059055,,,,,,,,,,,FEW,2000,,,,,,,VFR,,,,,,,,,,,,METAR,5.0
ORBI 221500Z 28007KT CAVOK 27/05 Q1015 NOSIG,ORBI,2018-03-22T15:00:00Z,33.27,44.23,27.0,5.0,280,7,,6.21,29.970472,,,,,,TRUE,,,,,CAVOK,,,,,,,,VFR,,,,,,,,,,,,METAR,35.0
NFFN 221500Z 08004KT 9999 FEW027 SCT048 BKN280 25/24 Q1007 NOSIG,NFFN,2018-03-22T15:00:00Z,-17.75,177.45,25.0,24.0,80,4,,6.21,29.734253,,,,,,TRUE,,,,,FEW,2700,SCT,4800,BKN,28000,,,VFR,,,,,,,,,,,,METAR,18.0
OPST 221500Z 05004KT 4000 FU NSC 22/13 Q1011 NOSIG RH58,OPST,2018-03-22T15:00:00Z,32.53,74.37,22.0,13.0,50,4,,2.49,29.852362,,,,,,TRUE,,,,FU,CLR,,,,,,,,IFR,,,,,,,,,,,,METAR,247.0
MMIO 221500Z 00000KT 1 1/2SM BR SKC 11/09 A3033,MMIO,2018-03-22T15:00:00Z,25.55,-100.93,11.0,9.0,0,0,,1.5,30.33071,,,,,,,,,,BR,SKC,,,,,,,,IFR,,,,,,,,,,,,SPECI,1790.0
SMZO 221500Z 08010KT 9999 SCT020 31/21 Q1015 NOSIG,SMZO,2018-03-22T15:00:00Z,5.82,-55.18,31.0,21.0,80,10,,6.21,29.970472,,,,,,TRUE,,,,,SCT,2000,,,,,,,VFR,,,,,,,,,,,,METAR,10.0
SMJP 221500Z 06012KT 9999 SCT022 31/21 Q1015 NOSIG,SMJP,2018-03-22T15:00:00Z,5.45,-55.17,31.0,21.0,60,12,,6.21,29.970472,,,,,,TRUE,,,,,SCT,2200,,,,,,,VFR,,,,,,,,,,,,METAR,16.0
GBYD 221500Z 32009KT 8000 NSC 35/16 Q1010,GBYD,2018-03-22T15:00:00Z,13.33,-16.65,35.0,16.0,320,9,,4.97,29.822834,,,,,,,,,,,CLR,,,,,,,,MVFR,,,,,,,,,,,,METAR,36.0
CZPC 221500Z AUTO 15006KT 2SM -SN OVC016 M04/M04 A2990 RMK SLP172,CZPC,2018-03-22T15:00:00Z,49.52,-114.0,-4.0,-4.0,150,6,,2.0,29.899607,1017.2,,TRUE,,,,,,,-SN,OVC,1600,,,,,,,IFR,,,,,,,,,,,,METAR,1190.0
CZFN 221500Z 05004KT 20SM FEW029 SCT092 M20/M22 A3066 RMK SC2AC2 -12.2 / -19.5 / TR / SNOW CVR / MEDIUM PACK SLP396,CZFN,2018-03-22T15:00:00Z,64.92,-125.57,-20.0,-22.0,50,4,,20.0,30.661417,1039.6,,,,,,,,,,FEW,2900,SCT,9200,,,,,VFR,,,,,,,,,,,,METAR,98.0
CZFM 221500Z 15006KT 35SM SKC M24/M27 A3056 RMK SLP354,CZFM,2018-03-22T15:00:00Z,67.4,-134.87,-24.0,-27.0,150,6,,35.0,30.561024,1035.4,,,,,,,,,,SKC,,,,,,,,VFR,,,,,,,,,,,,METAR,43.0
CZEM 221500Z 27005KT 15SM SCT220 M14/M18 A3031 RMK CI3 SLP265,CZEM,2018-03-22T15:00:00Z,52.22,-78.52,-14.0,-18.0,270,5,,15.0,30.31004,1026.5,,,,,,,,,,SCT,22000,,,,,,,VFR,,,,,,,,,,,,METAR,7.0
CWYM 221500Z AUTO ///// M25/ A2988 RMK SLP202,CWYM,2018-03-22T15:00:00Z,64.95,-63.57,-25.0,,,,,,29.878937,1020.2,,TRUE,,,,,,,,,,,,,,,,,,,,,,,,,,,,METAR,583.0
CWXR 221500Z AUTO 20009KT M25/ A3061 RMK SLP381,CWXR,2018-03-22T15:00:00Z,69.27,-119.22,-25.0,,200,9,,,30.611221,1038.1,,TRUE,,,,,,,,,,,,,,,,,,,,,,,,,,,,METAR,69.0
CWTU 221500Z AUTO ///// A3012,CWTU,2018-03-22T15:00:00Z,54.72,-58.35,,,,,,,30.121063,,,TRUE,,,,,,,,,,,,,,,,,,,,,,,,,,,,METAR,683.0
CWRH 221500Z AUTO ///// M18/ A3011 RMK SLP242,CWRH,2018-03-22T15:00:00Z,61.57,-64.65,-18.0,,,,,,30.109253,1024.2,,TRUE,,,,,,,,,,,,,,,,,,,,,,,,,,,,METAR,369.0
CWKP 221500Z AUTO 22025KT M22/ A3044 RMK SLP363,CWKP,2018-03-22T15:00:00Z,69.67,-121.67,-22.0,,220,25,,,30.43996,1036.3,,TRUE,,,,,,,,,,,,,,,,,,,,,,,,,,,,METAR,330.0
CWGZ 221500Z 00000KT 15SM FEW025 FEW060 SCT130 M34/M38 A3016 RMK SC1SC1AC1 ROTOR CLD NE SLP223,CWGZ,2018-03-22T15:00:00Z,76.42,-82.9,-34.0,-38.0,0,0,,15.0,30.159449,1022.3,,,,,,,,,,FEW,2500,FEW,6000,SCT,13000,,,VFR,,,,,,,,,,,,METAR,45.0
CWFD 221500Z AUTO 35005KT 320V020 ////SM //// NCD ///// A////,CWFD,2018-03-22T15:00:00Z,66.57,-61.58,,,350,5,,,,,,TRUE,,,,,,,,CLR,,,,,,,,,,,,,,,,,,,,METAR,393.0
CWEU 221500Z 16004KT 10SM FEW100 BKN150 BKN210 M38/M42 A3023 RMK AC1AC4CI2 VIS W 2 BR SLP240,CWEU,2018-03-22T15:00:00Z,80.0,-85.92,-38.0,-42.0,160,4,,10.0,30.230314,1024.0,,,,,,,,,,FEW,10000,BKN,15000,BKN,21000,,,VFR,,,,,,,,,,,,METAR,10.0
CYXP 221500Z 17004KT 150V260 15SM FEW035 M25/M29 A3022 RMK CF1 CF TR SLP240,CYXP,2018-03-22T15:00:00Z,66.15,-65.72,-25.0,-29.0,170,4,,15.0,30.221457,1024.0,,,,,,,,,,FEW,3500,,,,,,,VFR,,,,,,,,,,,,METAR,23.0
CYXN 221500Z 36013KT 15SM IC SKC M29/M33 A3084 RMK SLP446,CYXN,2018-03-22T15:00:00Z,62.22,-92.58,-29.0,-33.0,360,13,,15.0,30.838583,1044.6,,,,,,,,,IC,SKC,,,,,,,,VFR,,,,,,,,,,,,METAR,20.0
CYWY 221500Z 14008KT 15SM BKN031 M17/M23 A3064 RMK SC7 SLP396,CYWY,2018-03-22T15:00:00Z,63.22,-123.42,-17.0,-23.0,140,8,,15.0,30.640747,1039.6,,,,,,,,,,BKN,3100,,,,,,,VFR,,,,,,,,,,,,METAR,150.0
CYWE 221500Z AUTO 06005KT 9SM CLR M29/M32 A3065 RMK SLP440,CYWE,2018-03-22T15:00:00Z,64.18,-114.08,-29.0,-32.0,60,5,,9.0,30.649607,1044.0,,TRUE,,,,,,,,CLR,,,,,,,,VFR,,,,,,,,,,,,METAR,371.0
CYVM 221500Z 05006KT 15SM IC FEW045 M25/M28 A3011 RMK SC1 SC TR SLP197,CYVM,2018-03-22T15:00:00Z,67.53,-64.02,-25.0,-28.0,50,6,,15.0,30.109253,1019.7,,,,,,,,,IC,FEW,4500,,,,,,,VFR,,,,,,,,,,,,METAR,6.0
CYUT 221500Z 30012KT 25SM FEW170 M28/M33 A3063 RMK AC1 AC TR SLP380,CYUT,2018-03-22T15:00:00Z,66.52,-86.25,-28.0,-33.0,300,12,,25.0,30.628937,1038.0,,,,,,,,,,FEW,17000,,,,,,,VFR,,,,,,,,,,,,METAR,24.0
CYTE 221500Z 28011KT 15SM SKC M23/M26 A3039 RMK SF TR SC TR CI TR SLP300,CYTE,2018-03-22T15:00:00Z,64.22,-76.52,-23.0,-26.0,280,11,,15.0,30.389763,1030.0,,,,,,,,,,SKC,,,,,,,,VFR,,,,,,,,,,,,METAR,47.0
CYSY 221500Z 14004KT 10SM -SN PRFG FEW020 SCT100 BKN210 M29/M32 A3053 RMK SC1AC3CC2 VIS NNE 6 MILES SLP354,CYSY,2018-03-22T15:00:00Z,72.0,-125.27,-29.0,-32.0,140,4,,10.0,30.528543,1035.4,,,,,,,,,-SN PRFG,FEW,2000,SCT,10000,BKN,21000,,,VFR,,,,,,,,,,,,METAR,86.0
CYRT 221500Z 34009KT 290V360 1 3/4SM IC BLSN SKC M30/M33 A3082 RMK BLSN2 SLP443,CYRT,2018-03-22T15:00:00Z,62.82,-92.12,-30.0,-33.0,340,9,,1.75,30.820866,1044.3,,,,,,,,,IC BLSN,SKC,,,,,,,,IFR,,,,,,,,,,,,METAR,32.0
CYRA 221500Z 00000KT 15SM FEW150 M27/M31 A3070 RMK AC1 SLP430,CYRA,2018-03-22T15:00:00Z,64.12,-117.32,-27.0,-31.0,0,0,,15.0,30.699802,1043.0,,,,,,,,,,FEW,15000,,,,,,,VFR,,,,,,,,,,,,METAR,213.0
CYPC 221500Z 20012KT 15SM SCT020 BKN030 OVC200 M21/M24 A3065 RMK SC4SC3CI1 SLP382,CYPC,2018-03-22T15:00:00Z,69.37,-124.07,-21.0,-24.0,200,12,,15.0,30.649607,1038.2,,,,,,,,,,SCT,2000,BKN,3000,OVC,20000,,,MVFR,,,,,,,,,,,,METAR,6.0
CYLK 221500Z 06007KT 020V120 15SM SKC M26/M31 A3075 RMK SLP443,CYLK,2018-03-22T15:00:00Z,62.42,-110.67,-26.0,-31.0,60,7,,15.0,30.75,1044.3,,,,,,,,,,SKC,,,,,,,,VFR,,,,,,,,,,,,METAR,179.0
CYLC 221500Z 33008KT 15SM FEW150 SCT400 M21/M26 A3030 RMK AS2CS1 SLP270,CYLC,2018-03-22T15:00:00Z,62.85,-69.87,-21.0,-26.0,330,8,,15.0,30.301182,1027.0,,,,,,,,,,FEW,15000,SCT,40000,,,,,VFR,,,,,,,,,,,,METAR,53.0
CYKD 221500Z 13006KT 15SM FEW120 M24/M26 A3054 RMK AC1 SLP345,CYKD,2018-03-22T15:00:00Z,68.22,-135.0,-24.0,-26.0,130,6,,15.0,30.540354,1034.5,,,,,,,,,,FEW,12000,,,,,,,VFR,,,,,,,,,,,,METAR,7.0
CYJF 221500Z 06009KT 15SM BKN040 M16/M20 A3059 RMK SC7 SLP380,CYJF,2018-03-22T15:00:00Z,60.22,-123.47,-16.0,-20.0,60,9,,15.0,30.590551,1038.0,,,,,,,,,,BKN,4000,,,,,,,VFR,,,,,,,,,,,,METAR,215.0
CYHY 221500Z 07007KT 15SM FEW080 M25/M29 A3063 RMK AC1 AC TR SLP398,CYHY,2018-03-22T15:00:00Z,60.82,-115.77,-25.0,-29.0,70,7,,15.0,30.628937,1039.8,,,,,,,,,,FEW,8000,,,,,,,VFR,,,,,,,,,,,,METAR,166.0
CYHK 221500Z 23015KT 15SM IC SCT100 M31/M34 A3067 RMK AC3 SLP398,CYHK,2018-03-22T15:00:00Z,68.62,-95.83,-31.0,-34.0,230,15,,15.0,30.670275,1039.8,,,,,,,,,IC,SCT,10000,,,,,,,VFR,,,,,,,,,,,,METAR,46.0
CYHI 221500Z 32005KT 15SM -SG BKN010 M23/M26 A3058 RMK ST7 VIS SOUTH 8 SLP364,CYHI,2018-03-22T15:00:00Z,70.77,-117.78,-23.0,-26.0,320,5,,15.0,30.578741,1036.4,,,,,,,,,-SG,BKN,1000,,,,,,,MVFR,,,,,,,,,,,,METAR,36.0
CYGH 221500Z 19005KT 20SM IC FEW054 SCT085 BKN250 M19/M21 A3065 RMK SC1AC4CI2 SC TR SLP390,CYGH,2018-03-22T15:00:00Z,66.27,-128.62,-19.0,-21.0,190,5,,20.0,30.649607,1039.0,,,,,,,,,IC,FEW,5400,SCT,8500,BKN,25000,,,VFR,,,,,,,,,,,,METAR,66.0
CYFS 221500Z 00000KT 15SM FEW090 M26/M29 A3067 RMK AC1 SLP409,CYFS,2018-03-22T15:00:00Z,61.75,-121.22,-26.0,-29.0,0,0,,15.0,30.670275,1040.9,,,,,,,,,,FEW,9000,,,,,,,VFR,,,,,,,,,,,,METAR,169.0
CYCS 221500Z 29013KT 15SM IC DRSN SKC M29/M33 A3081 RMK SLP437,CYCS,2018-03-22T15:00:00Z,63.35,-90.72,-29.0,-33.0,290,13,,15.0,30.809055,1043.7,,,,,,,,,IC DRSN,SKC,,,,,,,,VFR,,,,,,,,,,,,METAR,11.0
CYCO 221500Z 23010KT 15SM FEW020 FEW040 BKN110 M24/M27 A3070 RMK SC1SC1AS7 SC TR SC TR SLP400,CYCO,2018-03-22T15:00:00Z,67.82,-115.15,-24.0,-27.0,230,10,,15.0,30.699802,1040.0,,,,,,,,,,FEW,2000,FEW,4000,BKN,11000,,,VFR,,,,,,,,,,,,METAR,22.0
CYCB 221500Z 24006KT 15SM SCT090 BKN200 M29/M32 A3060 RMK AC3CI3 SLP371,CYCB,2018-03-22T15:00:00Z,69.08,-105.12,-29.0,-32.0,240,6,,15.0,30.59941,1037.1,,,,,,,,,,SCT,9000,BKN,20000,,,,,VFR,,,,,,,,,,,,METAR,27.0
CYBB 221500Z 20024G30KT 1 1/4SM IC DRSN SCT140 SCT250 M26/M30 A3064 RMK IC3AC1CI1 CI TR SLP380,CYBB,2018-03-22T15:00:00Z,68.52,-89.82,-26.0,-30.0,200,24,30,1.25,30.640747,1038.0,,,,,,,,,IC DRSN,SCT,14000,SCT,25000,,,,,IFR,,,,,,,,,,,,METAR,15.0
CZMT 221500Z 00000KT 15SM -RA FEW008 BKN012 OVC020 01/01 A2936 RMK CF1SC5SC2 SLP945,CZMT,2018-03-22T15:00:00Z,54.03,-132.13,1.0,1.0,0,0,,15.0,29.359253,994.5,,,,,,,,,-RA,FEW,800,BKN,1200,OVC,2000,,,MVFR,,,,,,,,,,,,METAR,8.0
CZFA 221500Z 29004KT 15SM -SN BKN040 BKN060 OVC075 M10/M12 A3020 RMK SC5SC1AC2 SLP287,CZFA,2018-03-22T15:00:00Z,62.2,-133.37,-10.0,-12.0,290,4,,15.0,30.200787,1028.7,,,,,,,,,-SN,BKN,4000,BKN,6000,OVC,7500,,,VFR,,,,,,,,,,,,METAR,717.0
CYYF 221500Z 02003KT 4SM -RA BR SCT004 BKN011 OVC025 05/05 A2958 RMK SF3SF4SC1 SLP025,CYYF,2018-03-22T15:00:00Z,49.47,-119.58,5.0,5.0,20,3,,4.0,29.58071,1002.5,,,,,,,,,-RA BR,SCT,400,BKN,1100,OVC,2500,,,MVFR,,,,,,,,,,,,METAR,344.0
CYYD 221500Z 20007KT 150V230 3SM -SN OVC025 01/M02 A2949 RMK SC8 SLP003,CYYD,2018-03-22T15:00:00Z,54.82,-127.18,1.0,-2.0,200,7,,3.0,29.489174,1000.3,,,,,,,,,-SN,OVC,2500,,,,,,,MVFR,,,,,,,,,,,,METAR,523.0
CYXY 221500Z 35009G17KT 330V080 6SM -SN DRSN BKN026 BKN050 M10/M13 A3015 RMK SC6SC1 SLP267,CYXY,2018-03-22T15:00:00Z,60.72,-135.07,-10.0,-13.0,350,9,17,6.0,30.15059,1026.7,,,,,,,,,-SN DRSN,BKN,2600,BKN,5000,,,,,MVFR,,,,,,,,,,,,METAR,703.0
CYXT 221500Z 01014G20KT 20SM -RA FEW010 FEW025 OVC040 04/01 A2937 RMK SF1SC2SC6 SF TR SLP956,CYXT,2018-03-22T15:00:00Z,54.47,-128.57,4.0,1.0,10,14,20,20.0,29.371063,995.6,,,,,,,,,-RA,FEW,1000,FEW,2500,OVC,4000,,,VFR,,,,,,,,,,,,METAR,217.0
CYWL 221500Z 10017G23KT 15SM BKN040 05/M02 A2943 RMK SC7 SLP989 DENSITY ALT 3200FT,CYWL,2018-03-22T15:00:00Z,52.18,-122.07,5.0,-2.0,100,17,23,15.0,29.430119,998.9,,,,,,,,,,BKN,4000,,,,,,,VFR,,,,,,,,,,,,METAR,940.0
CYQU 221500Z 05018G26KT 20SM OVC012 M06/M09 A2997 RMK SC8 SLP189,CYQU,2018-03-22T15:00:00Z,55.18,-118.88,-6.0,-9.0,50,18,26,20.0,29.970472,1018.9,,,,,,,,,,OVC,1200,,,,,,,MVFR,,,,,,,,,,,,METAR,669.0
CYQH 221500Z 10010KT 15SM -SN OVC035 M11/M17 A3021 RMK SC8 SLP282,CYQH,2018-03-22T15:00:00Z,60.12,-128.82,-11.0,-17.0,100,10,,15.0,30.209646,1028.2,,,,,,,,,-SN,OVC,3500,,,,,,,VFR,,,,,,,,,,,,METAR,690.0
CWDJ 221500Z AUTO 12011KT M06/M07 RMK AO1 SOG 08 1012 SLP267 T10561071,CWDJ,2018-03-22T15:00:00Z,50.4,-104.58,-5.6,-7.1,120,11,,,,1026.7,,TRUE,TRUE,,,,,,,,,,,,,,,,,,,,,,,,,,,METAR,573.0
YEML 221500Z AUTO 16008KT 9999 // OVC087 22/21 Q1012,YEML,2018-03-22T15:00:00Z,-23.57,148.18,22.0,21.0,160,8,,6.21,29.88189,,,TRUE,,,,,,,,OVC,8700,,,,,,,VFR,,,,,,,,,,,,METAR,190.0
YDBY 221500Z AUTO 20006KT 9999 // NCD 29/26 Q1006,YDBY,2018-03-22T15:00:00Z,-17.37,123.67,29.0,26.0,200,6,,6.21,29.704725,,,TRUE,,,,,,,,CLR,,,,,,,,VFR,,,,,,,,,,,,METAR,7.0
YCNM 221500Z AUTO 09010KT //// // ////// 21/12 Q1019,YCNM,2018-03-22T15:00:00Z,-30.98,148.38,21.0,12.0,90,10,,,30.088583,,,TRUE,,,,,,,,,,,,,,,,,,,,,,,,,,,,METAR,184.0
YCDU 221500Z AUTO 11004KT 9999 // NCD 12/11 Q1015,YCDU,2018-03-22T15:00:00Z,-32.12,133.7,12.0,11.0,110,4,,6.21,29.970472,,,TRUE,,,,,,,,CLR,,,,,,,,VFR,,,,,,,,,,,,METAR,15.0
YLEC 221500Z AUTO 05008KT //// // ////// 25/13 Q1015,YLEC,2018-03-22T15:00:00Z,-30.6,138.43,25.0,13.0,50,8,,,29.970472,,,TRUE,,,,,,,,,,,,,,,,,,,,,,,,,,,,METAR,262.0
YHUG 221500Z AUTO 11006KT 9999 // NCD 23/16 Q1009,YHUG,2018-03-22T15:00:00Z,-20.82,144.23,23.0,16.0,110,6,,6.21,29.793306,,,TRUE,,,,,,,,CLR,,,,,,,,VFR,,,,,,,,,,,,METAR,318.0
YGTH 221500Z AUTO 09014KT 9999 // NCD 19/10 Q1021,YGTH,2018-03-22T15:00:00Z,-34.25,146.07,19.0,10.0,90,14,,6.21,30.147638,,,TRUE,,,,,,,,CLR,,,,,,,,VFR,,,,,,,,,,,,METAR,134.0
YGTE 221500Z AUTO 12005KT 9999 // NCD 27/23 Q1003,YGTE,2018-03-22T15:00:00Z,-13.97,136.45,27.0,23.0,120,5,,6.21,29.616142,,,TRUE,,,,,,,,CLR,,,,,,,,VFR,,,,,,,,,,,,METAR,14.0
YPBO 221500Z AUTO 06003KT 9999 // NCD 31/10 Q1010,YPBO,2018-03-22T15:00:00Z,-23.2,117.75,31.0,10.0,60,3,,6.21,29.822834,,,TRUE,,,,,,,,CLR,,,,,,,,VFR,,,,,,,,,,,,METAR,1292.0
YOLD 221500Z AUTO 10002KT 9999 // SCT100 22/05 Q1013,YOLD,2018-03-22T15:00:00Z,-30.48,136.88,22.0,5.0,100,2,,6.21,29.911417,,,TRUE,,,,,,,,SCT,10000,,,,,,,VFR,,,,,,,,,,,,METAR,105.0
YNWN 221500Z AUTO 06005KT 9999 // NCD 30/06 Q1011,YNWN,2018-03-22T15:00:00Z,-23.42,119.8,30.0,6.0,60,5,,6.21,29.852362,,,TRUE,,,,,,,,CLR,,,,,,,,VFR,,,,,,,,,,,,METAR,525.0
YNTN 221500Z AUTO 06007KT 9999 // BKN043 OVC094 24/23 Q1006 RESHRA,YNTN,2018-03-22T15:00:00Z,-17.68,141.07,24.0,23.0,60,7,,6.21,29.704725,,,TRUE,,,,,,,,BKN,4300,OVC,9400,,,,,VFR,,,,,,,,,,,,METAR,22.0
YNBR 221500Z AUTO 15012KT 9999 // NCD 19/12 Q1018,YNBR,2018-03-22T15:00:00Z,-30.32,149.83,19.0,12.0,150,12,,6.21,30.059055,,,TRUE,,,,,,,,CLR,,,,,,,,VFR,,,,,,,,,,,,METAR,240.0
YNAR 221500Z AUTO 08017KT //// // ////// 19/10 Q1022,YNAR,2018-03-22T15:00:00Z,-34.7,146.52,19.0,10.0,80,17,,,30.177166,,,TRUE,,,,,,,,,,,,,,,,,,,,,,,,,,,,METAR,145.0
YMTG 221500Z AUTO 04006KT 9999 // NCD 18/12 Q1018,YMTG,2018-03-22T15:00:00Z,-37.75,140.78,18.0,12.0,40,6,,6.21,30.059055,,,TRUE,,,,,,,,CLR,,,,,,,,VFR,,,,,,,,,,,,METAR,65.0
YSNW 221500Z AUTO 23004KT 9999 // SCT038 BKN043 BKN049 16/16 Q1025,YSNW,2018-03-22T15:00:00Z,-34.95,150.52,16.0,16.0,230,4,,6.21,30.265747,,,TRUE,,,,,,,,SCT,3800,BKN,4300,BKN,4900,,,VFR,,,,,,,,,,,,METAR,110.0
YRMD 221500Z AUTO 10007KT 9999 // NCD 24/17 Q1007,YRMD,2018-03-22T15:00:00Z,-20.7,143.12,24.0,17.0,100,7,,6.21,29.734253,,,TRUE,,,,,,,,CLR,,,,,,,,VFR,,,,,,,,,,,,METAR,207.0
YBPN 221500Z AUTO 19007KT 9999 // SCT022 BKN051 BKN063 23/21 Q1008,YBPN,2018-03-22T15:00:00Z,-20.5,148.55,23.0,21.0,190,7,,6.21,29.763779,,,TRUE,,,,,,,,SCT,2200,BKN,5100,BKN,6300,,,VFR,,,,,,,,,,,,METAR,25.0
YBOK 221500Z AUTO 11013KT 9999 // BKN011 OVC028 OVC035 18/17 Q1017,YBOK,2018-03-22T15:00:00Z,-27.42,151.72,18.0,17.0,110,13,,6.21,30.029528,,,TRUE,,,,,,,,BKN,1100,OVC,2800,OVC,3500,,,MVFR,,,,,,,,,,,,METAR,407.0
YBNA 221500Z AUTO 09005KT 9999 // SCT022 SCT041 BKN125 22/19 Q1017,YBNA,2018-03-22T15:00:00Z,-28.83,153.57,22.0,19.0,90,5,,6.21,30.029528,,,TRUE,,,,,,,,SCT,2200,SCT,4100,BKN,12500,,,VFR,,,,,,,,,,,,METAR,2.0
YBMK 221500Z AUTO 13013KT 9999 // SCT014 BKN038 OVC049 25/23 Q1009,YBMK,2018-03-22T15:00:00Z,-21.17,149.17,25.0,23.0,130,13,,6.21,29.793306,,,TRUE,,,,,,,,SCT,1400,BKN,3800,OVC,4900,,,VFR,,,,,,,,,,,,METAR,31.0
YBHI 221500Z AUTO 07008KT 9999 // NCD 20/14 Q1017,YBHI,2018-03-22T15:00:00Z,-32.0,141.47,20.0,14.0,70,8,,6.21,30.029528,,,TRUE,,,,,,,,CLR,,,,,,,,VFR,,,,,,,,,,,,METAR,292.0
SVMI 221500Z 23005KT 9999 BKN016 27/24 Q1012,SVMI,2018-03-22T15:00:00Z,10.58,-67.0,27.0,24.0,230,5,,6.21,29.88189,,,,,,,,,,,BKN,1600,,,,,,,MVFR,,,,,,,,,,,,METAR,48.0
VARK 221500Z 32010KT 6000 NSC 28/11 Q1010,VARK,2018-03-22T15:00:00Z,22.3,70.77,28.0,11.0,320,10,,3.73,29.822834,,,,,,,,,,,CLR,,,,,,,,MVFR,,,,,,,,,,,,METAR,138.0
VERP 221500Z 30004KT 6000 FEW100 29/12 Q1008 NOSIG,VERP,2018-03-22T15:00:00Z,21.18,81.73,29.0,12.0,300,4,,3.73,29.763779,,,,,,TRUE,,,,,FEW,10000,,,,,,,MVFR,,,,,,,,,,,,METAR,316.0
VAID 221500Z 32008KT 6000 NSC 28/06 Q1011 NOSIG,VAID,2018-03-22T15:00:00Z,22.72,75.78,28.0,6.0,320,8,,3.73,29.852362,,,,,,TRUE,,,,,CLR,,,,,,,,MVFR,,,,,,,,,,,,METAR,567.0
VAJB 221500Z 00000KT 6000 NSC 27/07 Q1009,VAJB,2018-03-22T15:00:00Z,23.18,80.05,27.0,7.0,0,0,,3.73,29.793306,,,,,,,,,,,CLR,,,,,,,,MVFR,,,,,,,,,,,,METAR,494.0
VIGR 221500Z 00000KT 4000 HZ NSC 26/14 Q1008,VIGR,2018-03-22T15:00:00Z,26.28,78.22,26.0,14.0,0,0,,2.49,29.763779,,,,,,,,,,HZ,CLR,,,,,,,,IFR,,,,,,,,,,,,METAR,189.0
OEKJ 221500Z 06012KT CAVOK 32/00 Q1016,OEKJ,2018-03-22T15:00:00Z,24.07,47.58,32.0,0.0,60,12,,6.21,30.0,,,,,,,,,,,CAVOK,,,,,,,,VFR,,,,,,,,,,,,METAR,503.0
MNBL 221500Z 06004KT 9999 SCT019 28/24 Q1017,MNBL,2018-03-22T15:00:00Z,12.0,-83.77,28.0,24.0,60,4,,6.21,30.029528,,,,,,,,,,,SCT,1900,,,,,,,VFR,,,,,,,,,,,,METAR,5.0
MNJU 221500Z 00000KT 9999 SCT020 28/23 Q1016 1AC090,MNJU,2018-03-22T15:00:00Z,12.08,-85.37,28.0,23.0,0,0,,6.21,30.0,,,,,,,,,,,SCT,2000,,,,,,,VFR,,,,,,,,,,,,METAR,90.0
MNJG 221500Z 36012KT 9999 SCT019 20/16 Q1017,MNJG,2018-03-22T15:00:00Z,13.08,-86.02,20.0,16.0,360,12,,6.21,30.029528,,,,,,,,,,,SCT,1900,,,,,,,VFR,,,,,,,,,,,,METAR,985.0
MNPC 221500Z 08010KT 6000 VCRA BKN016TCU 29/26 Q1016 TCURA/E/SE/SW,MNPC,2018-03-22T15:00:00Z,14.05,-83.38,29.0,26.0,80,10,,3.73,30.0,,,,,,,,,,VCRA RA,BKN,1600,,,,,,,MVFR,,,,,,,,,,,,METAR,16.0
CWNE 221500Z AUTO 05027G33KT M01/M03 RMK AO1 PK WND 05033/1455 SLP093 T10061031 58033,CWNE,2018-03-22T15:00:00Z,47.07,-64.0,-0.6,-3.1,50,27,33,,,1009.3,,TRUE,TRUE,,,,,,,,,,,,,,,,-3.3,,,,,,,,,,,METAR,15.0
CWDQ 221500Z AUTO 36006KT 01/M08 RMK AO1 SOG 53 8008 SLP163 T00081083,CWDQ,2018-03-22T15:00:00Z,47.42,-72.78,0.8,-8.3,360,6,,,,1016.3,,TRUE,TRUE,,,,,,,,,,,,,,,,,,,,,,,,,,,METAR,169.0
CWDM 221500Z AUTO 06013G20KT M01/M05 RMK AO1 SOG 51 5007 PK WND 05022/1425 SLP227 T10091048,CWDM,2018-03-22T15:00:00Z,50.47,-59.62,-0.9,-4.8,60,13,20,,,1022.7,,TRUE,TRUE,,,,,,,,,,,,,,,,,,,,,,,,,,,METAR,6.0
CWDO 221500Z AUTO 05014G20KT M01/M04 RMK AO1 SOG 76 8016 PK WND 06022/1442 SLP217 T10051044,CWDO,2018-03-22T15:00:00Z,49.67,-54.78,-0.5,-4.4,50,14,20,,,1021.7,,TRUE,TRUE,,,,,,,,,,,,,,,,,,,,,,,,,,,METAR,92.0
CXHF 221500Z AUTO M02/M09 RMK AO1 T10171088,CXHF,2018-03-22T15:00:00Z,45.83,-75.65,-1.7,-8.8,,,,,,,,TRUE,TRUE,,,,,,,,,,,,,,,,,,,,,,,,,,,METAR,190.0
CXDE 221500Z AUTO 11003KT M20/M22 RMK AO1 SLP404 T12001223 56014,CXDE,2018-03-22T15:00:00Z,65.22,-123.43,-20.0,-22.3,110,3,,,,1040.4,,TRUE,TRUE,,,,,,,,,,,,,,,,-1.4,,,,,,,,,,,METAR,213.0
CWHQ 221500Z AUTO 31005KT 04/M05 RMK AO1 T00441047,CWHQ,2018-03-22T15:00:00Z,46.68,-71.97,4.4,-4.7,310,5,,,,,,TRUE,TRUE,,,,,,,,,,,,,,,,,,,,,,,,,,,METAR,55.0
CWRT 221500Z AUTO 15006KT M01/M03 RMK AO1 T10081027,CWRT,2018-03-22T15:00:00Z,49.62,-114.47,-0.8,-2.7,150,6,,,,,,TRUE,TRUE,,,,,,,,,,,,,,,,,,,,,,,,,,,METAR,1303.0
CWFF 221500Z AUTO 14004KT M08/M09 RMK AO1 SOG 24 3013 SLP298 T10751086,CWFF,2018-03-22T15:00:00Z,52.82,-104.58,-7.5,-8.6,140,4,,,,1029.8,,TRUE,TRUE,,,,,,,,,,,,,,,,,,,,,,,,,,,METAR,490.0
CWEZ 221500Z AUTO 22001KT 07/06 RMK AO1 2PAST HR 5007 SLP966 P0009 T00670058 50034,CWEZ,2018-03-22T15:00:00Z,48.78,-123.05,6.7,5.8,220,1,,,,996.6,,TRUE,TRUE,,,,,,,,,,,,,,,,3.4,,,,,0.09,,,,,,METAR,7.0
CWWK 221500Z AUTO 13001KT 08/06 RMK AO1 SLP973 T00750055 55011,CWWK,2018-03-22T15:00:00Z,49.02,-122.78,7.5,5.5,130,1,,,,997.3,,TRUE,TRUE,,,,,,,,,,,,,,,,-1.1,,,,,,,,,,,METAR,15.0
CWVU 221500Z AUTO 01033G44KT M00/M00 RMK AO1 2PAST HR 8024 PK WND 02045/1441 SLP002 P0001 T10031003 50005,CWVU,2018-03-22T15:00:00Z,44.28,-66.33,-0.3,-0.3,10,33,44,,,1000.2,,TRUE,TRUE,,,,,,,,,,,,,,,,0.5,,,,,0.01,,,,,,METAR,16.0
CXNP 221500Z AUTO 03019G28KT M00/M02 RMK AO1 SOG 08 8049 PK WND 04028/1451 SLP035 T10011015,CXNP,2018-03-22T15:00:00Z,45.75,-64.23,-0.1,-1.5,30,19,28,,,1003.5,,TRUE,TRUE,,,,,,,,,,,,,,,,,,,,,,,,,,,METAR,20.0
CXSE 221500Z AUTO 24009KT M32/M35 RMK AO1 2PAST HR SOG 49 8013 SLP313 P0001 T13191353 50002,CXSE,2018-03-22T15:00:00Z,73.77,-105.28,-31.9,-35.3,240,9,,,,1031.3,,TRUE,TRUE,,,,,,,,,,,,,,,,0.2,,,,,0.01,,,,,,METAR,11.0
CXDK 221500Z AUTO M12/M17 RMK AO1 SLP362 T11241171 58009,CXDK,2018-03-22T15:00:00Z,61.27,-124.47,-12.4,-17.1,,,,,,1036.2,,TRUE,TRUE,,,,,,,,,,,,,,,,-0.9,,,,,,,,,,,METAR,283.0
CWBO 221500Z AUTO 01004KT M08/M09 RMK AO1 SOG 16 7007 SLP186 T10831093,CWBO,2018-03-22T15:00:00Z,50.53,-111.83,-8.3,-9.3,10,4,,,,1018.6,,TRUE,TRUE,,,,,,,,,,,,,,,,,,,,,,,,,,,METAR,747.0
CWBA 221500Z AUTO 33009KT M06/M10 RMK AO1 SOG 49 T10601095,CWBA,2018-03-22T15:00:00Z,46.72,-79.1,-6.0,-9.5,330,9,,,,,,TRUE,TRUE,,,,,,,,,,,,,,,,,,,,,,,,,,,METAR,181.0
CWIK 221500Z AUTO 13008KT M03/M04 RMK AO1 SLP289 T10321039 51015,CWIK,2018-03-22T15:00:00Z,50.37,-102.58,-3.2,-3.9,130,8,,,,1028.9,,TRUE,TRUE,,,,,,,,,,,,,,,,1.5,,,,,,,,,,,SPECI,602.0
CWWS 221500Z AUTO 02007KT M02/M03 RMK AO1 SOG 84 1015 SLP314 T10211032,CWWS,2018-03-22T15:00:00Z,52.82,-97.62,-2.1,-3.2,20,7,,,,1031.4,,TRUE,TRUE,,,,,,,,,,,,,,,,,,,,,,,,,,,METAR,223.0
WMKC 221500Z 10006KT 060V150 9999 FEW020 BKN280 27/24 Q1009,WMKC,2018-03-22T15:00:00Z,6.17,102.27,27.0,24.0,100,6,,6.21,29.793306,,,,,,,,,,,FEW,2000,BKN,28000,,,,,VFR,,,,,,,,,,,,METAR,5.0
DRRM 221500Z 28008KT CAVOK 39/15 Q1008,DRRM,2018-03-22T15:00:00Z,13.5,7.12,39.0,15.0,280,8,,6.21,29.763779,,,,,,,,,,,CAVOK,,,,,,,,VFR,,,,,,,,,,,,METAR,373.0
DRZR 221500Z 24008KT 9999 SCT040TCU 40/15 Q1006,DRZR,2018-03-22T15:00:00Z,13.77,8.97,40.0,15.0,240,8,,6.21,29.704725,,,,,,,,,,,SCT,4000,,,,,,,VFR,,,,,,,,,,,,METAR,453.0
NVVA 221500Z AUTO 02004KT //// // NCD 24/23 Q1007 RMK NIL,NVVA,2018-03-22T15:00:00Z,-20.25,169.77,24.0,23.0,20,4,,,29.734253,,,TRUE,,,,,,,,CLR,,,,,,,,,,,,,,,,,,,,METAR,3.0
NVVW 221500Z AUTO 10001KT //// // NCD 22/21 Q1006 RMK NIL,NVVW,2018-03-22T15:00:00Z,-19.45,169.22,22.0,21.0,100,1,,,29.704725,,,TRUE,,,,,,,,CLR,,,,,,,,,,,,,,,,,,,,METAR,6.0
NVVV 221500Z 07004KT 9999 SCT02 24/23 Q1006 RMK NIL,NVVV,2018-03-22T15:00:00Z,-17.68,168.3,24.0,23.0,70,4,,6.21,29.704725,,,,,,,,,,,,,,,,,,,,,,,,,,,,,,,METAR,21.0
NVSL 221500Z AUTO 32004KT //// // NCD 26/23 Q1004 RMK NIL,NVSL,2018-03-22T15:00:00Z,-16.45,167.83,26.0,23.0,320,4,,,29.64567,,,TRUE,,,,,,,,CLR,,,,,,,,,,,,,,,,,,,,METAR,26.0
NVSP 221500Z AUTO 30002KT //// // NCD 25/23 Q1004 RMK NIL,NVSP,2018-03-22T15:00:00Z,-16.08,167.4,25.0,23.0,300,2,,,29.64567,,,TRUE,,,,,,,,CLR,,,,,,,,,,,,,,,,,,,,METAR,7.0
NVSG 221500Z AUTO 09001KT //// // NCD 24/23 Q1006 RMK NIL,NVSG,2018-03-22T15:00:00Z,-15.3,167.97,24.0,23.0,90,1,,,29.704725,,,TRUE,,,,,,,,CLR,,,,,,,,,,,,,,,,,,,,METAR,51.0
NVSC 221500Z AUTO 03003KT //// // NCD 25/24 Q1006 RMK NIL,NVSC,2018-03-22T15:00:00Z,-13.83,167.55,25.0,24.0,30,3,,,29.704725,,,TRUE,,,,,,,,CLR,,,,,,,,,,,,,,,,,,,,METAR,18.0
CWHN 221500Z AUTO 06011KT 9SM OVC006 M10/M12 A3026 RMK SLP291,CWHN,2018-03-22T15:00:00Z,54.88,-109.97,-10.0,-12.0,60,11,,9.0,30.259842,1029.1,,TRUE,,,,,,,,OVC,600,,,,,,,IFR,,,,,,,,,,,,METAR,636.0
CYIK 221500Z 01010KT 15SM DRSN BKN013 M19/M22 A3046 RMK SC5 SLP323,CYIK,2018-03-22T15:00:00Z,62.42,-77.93,-19.0,-22.0,10,10,,15.0,30.46063,1032.3,,,,,,,,,DRSN,BKN,1300,,,,,,,MVFR,,,,,,,,,,,,SPECI,42.0
CYHA 221500Z 34007KT 3SM -SG BR FEW008 BKN015 M14/M17 A3033 RMK SF1ST6 SF TR SLP276,CYHA,2018-03-22T15:00:00Z,61.03,-69.62,-14.0,-17.0,340,7,,3.0,30.33071,1027.6,,,,,,,,,-SG BR,FEW,800,BKN,1500,,,,,MVFR,,,,,,,,,,,,SPECI,30.0
CYWH 221500Z CCA 18005KT 15SM -RA FEW015 BKN024 OVC045 07/05 A2944 RMK SF1SC4SC3 SLP970,CYWH,2018-03-22T15:00:00Z,48.42,-123.38,7.0,5.0,180,5,,15.0,29.438976,997.0,,,,,,,,,-RA,FEW,1500,BKN,2400,OVC,4500,,,MVFR,,,,,,,,,,,,METAR,10.0
FOOG 221500Z 14006KT 8000 -TSRA FEW008 FEW016CB 25/24 Q1009,FOOG,2018-03-22T15:00:00Z,-0.7,8.75,25.0,24.0,140,6,,4.97,29.793306,,,,,,,,,,-TSRA,FEW,800,FEW,1600,,,,,MVFR,,,,,,,,,,,,SPECI,4.0
SBPK 221500Z 10006KT 9999 FEW030 24/12 Q1015,SBPK,2018-03-22T15:00:00Z,-31.72,-52.33,24.0,12.0,100,6,,6.21,29.970472,,,,,,,,,,,FEW,3000,,,,,,,VFR,,,,,,,,,,,,METAR,13.0
UTTT 221500Z 19006KT 150V250 9999 BKN066CB 20/10 Q1011 R08R/CLRD70 NOSIG RMK FLASHES,UTTT,2018-03-22T15:00:00Z,41.27,69.27,20.0,10.0,190,6,,6.21,29.852362,,,,,,TRUE,,,,,BKN,6600,,,,,,,VFR,,,,,,,,,,,,METAR,489.0
UTFF 221500Z 26008KT 9999 TS BKN060CB 20/06 Q1012 R18/CLRD70,UTFF,2018-03-22T15:00:00Z,40.37,71.77,20.0,6.0,260,8,,6.21,29.88189,,,,,,,,,,TS,BKN,6000,,,,,,,VFR,,,,,,,,,,,,METAR,577.0
UTST 221500Z 24014KT 3000 -DS FEW066CB 23/05 Q1013 R88/CLRD70 TEMPO 24019G29KT 1500 DS,UTST,2018-03-22T15:00:00Z,37.28,67.32,23.0,5.0,240,14,,1.86,29.911417,,,,,,,,,,-DS,FEW,6600,,,,,,,IFR,,,,,,,,,,,,SPECI,302.0
UTSS 221500Z 22006KT 6000 SCT065CB 17/04 Q1014 R27/70D NOSIG RMK FLASHES E SE,UTSS,2018-03-22T15:00:00Z,39.7,66.98,17.0,4.0,220,6,,3.73,29.940945,,,,,,TRUE,,,,,SCT,6500,,,,,,,MVFR,,,,,,,,,,,,METAR,724.0
UTSK 221500Z 29016KT CAVOK 16/08 Q1017 R16/CLRD70,UTSK,2018-03-22T15:00:00Z,38.83,65.77,16.0,8.0,290,16,,6.21,30.029528,,,,,,,,,,,CAVOK,,,,,,,,VFR,,,,,,,,,,,,SPECI,1365.0
UTSB 221500Z 29012KT 6000 NSC 14/06 Q1016 R01/CLRD70 NOSIG,UTSB,2018-03-22T15:00:00Z,39.77,64.48,14.0,6.0,290,12,,3.73,30.0,,,,,,TRUE,,,,,CLR,,,,,,,,MVFR,,,,,,,,,,,,SPECI,226.0
UTSA 221500Z 29012KT 9999 NSC 12/06 Q1015 R25/CLRD70 NOSIG,UTSA,2018-03-22T15:00:00Z,40.12,65.17,12.0,6.0,290,12,,6.21,29.970472,,,,,,TRUE,,,,,CLR,,,,,,,,VFR,,,,,,,,,,,,SPECI,346.0
UTNU 221500Z 00000KT CAVOK 10/01 Q1016 R31/CLRD70 NOSIG,UTNU,2018-03-22T15:00:00Z,41.58,60.63,10.0,1.0,0,0,,6.21,30.0,,,,,,TRUE,,,,,CAVOK,,,,,,,,VFR,,,,,,,,,,,,SPECI,98.0
UTNN 221500Z 24002KT CAVOK 13/01 Q1016 R33/CLRD60 NOSIG,UTNN,2018-03-22T15:00:00Z,42.48,59.63,13.0,1.0,240,2,,6.21,30.0,,,,,,TRUE,,,,,CAVOK,,,,,,,,VFR,,,,,,,,,,,,SPECI,67.0
UTFN 221500Z 28004KT 250V310 7000 NSC 20/08 Q1010 R28/CLRD70 NOSIG,UTFN,2018-03-22T15:00:00Z,40.98,71.57,20.0,8.0,280,4,,4.35,29.822834,,,,,,TRUE,,,,,CLR,,,,,,,,MVFR,,,,,,,,,,,,METAR,490.0
HUEN 221500Z 19012KT 9999 FEW023 FEW025CB 25/19 Q1015,HUEN,2018-03-22T15:00:00Z,0.03,32.45,25.0,19.0,190,12,,6.21,29.970472,,,,,,,,,,,FEW,2300,FEW,2500,,,,,VFR,,,,,,,,,,,,METAR,1155.0
HKNW 221500Z 07011KT 9999 FEW023CB SCT024 22/15 Q1019,HKNW,2018-03-22T15:00:00Z,-1.32,36.82,22.0,15.0,70,11,,6.21,30.088583,,,,,,,,,,,FEW,2300,SCT,2400,,,,,VFR,,,,,,,,,,,,METAR,1679.0
HKMO 221500Z 11007KT 9999 FEW026 29/23 Q1010 NOSIG,HKMO,2018-03-22T15:00:00Z,-4.02,39.62,29.0,23.0,110,7,,6.21,29.822834,,,,,,TRUE,,,,,FEW,2600,,,,,,,VFR,,,,,,,,,,,,METAR,55.0
HKML 221500Z 12008KT 9999 FEW023 33/24 Q1010,HKML,2018-03-22T15:00:00Z,-3.22,40.1,33.0,24.0,120,8,,6.21,29.822834,,,,,,,,,,,FEW,2300,,,,,,,VFR,,,,,,,,,,,,METAR,23.0
HKKI 221500Z 10007KT 9999 FEW024CB BKN080 26/17 Q1015,HKKI,2018-03-22T15:00:00Z,-0.1,34.75,26.0,17.0,100,7,,6.21,29.970472,,,,,,,,,,,FEW,2400,BKN,8000,,,,,VFR,,,,,,,,,,,,METAR,1146.0
HKJK 221500Z 08017KT 9999 FEW025CB SCT026 22/16 Q1019,HKJK,2018-03-22T15:00:00Z,-1.32,36.92,22.0,16.0,80,17,,6.21,30.088583,,,,,,,,,,,FEW,2500,SCT,2600,,,,,VFR,,,,,,,,,,,,METAR,1624.0
HKEL 221500Z 06013KT 9999 FEW021CB 21/09 Q1022,HKEL,2018-03-22T15:00:00Z,0.4,35.23,21.0,9.0,60,13,,6.21,30.177166,,,,,,,,,,,FEW,2100,,,,,,,VFR,,,,,,,,,,,,METAR,2133.0
SBFI 221500Z 01008KT 9999 SCT030 BKN100 30/24 Q1011,SBFI,2018-03-22T15:00:00Z,-25.6,-54.48,30.0,24.0,10,8,,6.21,29.852362,,,,,,,,,,,SCT,3000,BKN,10000,,,,,VFR,,,,,,,,,,,,METAR,243.0
LYUZ 221500Z 03006KT 0400 SN FZFG VV002 M06/M06 Q1007 R10///////,LYUZ,2018-03-22T15:00:00Z,43.9,19.7,-6.0,-6.0,30,6,,0.25,29.734253,,,,,,,,,,SN FZFG,OVX,0,,,,,,,LIFR,,,,,,,,,,,200,METAR,904.0
DFFD 221500Z 28006KT 9999 FEW026 37/19 Q1010 NOSIG,DFFD,2018-03-22T15:00:00Z,12.33,-1.52,37.0,19.0,280,6,,6.21,29.822834,,,,,,TRUE,,,,,FEW,2600,,,,,,,VFR,,,,,,,,,,,,METAR,306.0
DFOO 221500Z 32006KT 9999 FEW020 32/22 Q1011,DFOO,2018-03-22T15:00:00Z,11.17,-4.32,32.0,22.0,320,6,,6.21,29.852362,,,,,,,,,,,FEW,2000,,,,,,,VFR,,,,,,,,,,,,METAR,460.0
FTTA 221500Z 24006KT 9999 FEW040 37/18 Q1008,FTTA,2018-03-22T15:00:00Z,9.15,18.37,37.0,18.0,240,6,,6.21,29.763779,,,,,,,,,,,FEW,4000,,,,,,,VFR,,,,,,,,,,,,METAR,365.0
FTTJ 221500Z 22009KT 220V340 CAVOK 42/M01 Q1003 NOSIG,FTTJ,2018-03-22T15:00:00Z,12.12,15.02,42.0,-1.0,220,9,,6.21,29.616142,,,,,,TRUE,,,,,CAVOK,,,,,,,,VFR,,,,,,,,,,,,METAR,295.0
DBBB 221500Z 21011KT 9999 FEW013 FEW023CB 30/25 Q1009 TEMPO TS,DBBB,2018-03-22T15:00:00Z,6.33,2.37,30.0,25.0,210,11,,6.21,29.793306,,,,,,,,,,,FEW,1300,FEW,2300,,,,,VFR,,,,,,,,,,,,METAR,9.0
DGAA 221500Z 20013KT 9999 FEW030CB 30/24 Q1009 NOSIG,DGAA,2018-03-22T15:00:00Z,5.58,-0.17,30.0,24.0,200,13,,6.21,29.793306,,,,,,TRUE,,,,,FEW,3000,,,,,,,VFR,,,,,,,,,,,,METAR,69.0
DRZA 221500Z 28010KT CAVOK 39/03 Q1008,DRZA,2018-03-22T15:00:00Z,16.97,8.0,39.0,3.0,280,10,,6.21,29.763779,,,,,,,,,,,CAVOK,,,,,,,,VFR,,,,,,,,,,,,METAR,502.0
DRRT 221500Z 32012KT CAVOK 38/02 Q1008,DRRT,2018-03-22T15:00:00Z,14.9,5.25,38.0,2.0,320,12,,6.21,29.763779,,,,,,,,,,,CAVOK,,,,,,,,VFR,,,,,,,,,,,,METAR,391.0
DXNG 221500Z 30007KT 260V350 9999 FEW010 32/20 Q1012 NOSIG,DXNG,2018-03-22T15:00:00Z,9.77,1.1,32.0,20.0,300,7,,6.21,29.88189,,,,,,TRUE,,,,,FEW,1000,,,,,,,VFR,,,,,,,,,,,,METAR,343.0
DXXX 221500Z 21013KT 9999 FEW015 FEW020CB SCT040 30/24 Q1011 NOSIG,DXXX,2018-03-22T15:00:00Z,6.17,1.25,30.0,24.0,210,13,,6.21,29.852362,,,,,,TRUE,,,,,FEW,1500,FEW,2000,SCT,4000,,,VFR,,,,,,,,,,,,METAR,25.0
DNMM 221500Z 22009KT 9999 FEW013 30/25 Q1011 NOSIG,DNMM,2018-03-22T15:00:00Z,6.57,3.32,30.0,25.0,220,9,,6.21,29.852362,,,,,,TRUE,,,,,FEW,1300,,,,,,,VFR,,,,,,,,,,,,METAR,38.0
VYYY 221500Z 29003KT 7000 NSC 28/23 Q1008,VYYY,2018-03-22T15:00:00Z,16.9,96.13,28.0,23.0,290,3,,4.35,29.763779,,,,,,,,,,,CLR,,,,,,,,MVFR,,,,,,,,,,,,METAR,33.0
FDPP 221500Z AUTO 20009G22KT //// // ////// 14/14 Q1024,FDPP,2018-03-22T15:00:00Z,-25.97,31.25,14.0,14.0,200,9,22,,30.236221,,,TRUE,,,,,,,,,,,,,,,,,,,,,,,,,,,,METAR,1099.0
FDMY 221500Z AUTO 23001KT //// // ////// 18/17 Q1029,FDMY,2018-03-22T15:00:00Z,-25.87,31.52,18.0,17.0,230,1,,,30.383858,,,TRUE,,,,,,,,,,,,,,,,,,,,,,,,,,,,METAR,480.0
LKVO 221500Z 23011KT 9999 FEW033 OVC043 03/M04 Q1012,LKVO,2018-03-22T15:00:00Z,50.22,14.4,3.0,-4.0,230,11,,6.21,29.88189,,,,,,,,,,,FEW,3300,OVC,4300,,,,,VFR,,,,,,,,,,,,METAR,280.0
LKKU 221500Z 20009KT CAVOK 06/M09 Q1014,LKKU,2018-03-22T15:00:00Z,49.05,17.45,6.0,-9.0,200,9,,6.21,29.940945,,,,,,,,,,,CAVOK,,,,,,,,VFR,,,,,,,,,,,,METAR,177.0
YCFS 221500Z AUTO 23013KT 9999 -SHRA SCT010 SCT018 BKN024 20/19 Q1019,YCFS,2018-03-22T15:00:00Z,-30.32,153.12,20.0,19.0,230,13,,6.21,30.088583,,,TRUE,,,,,,,-SHRA,SCT,1000,SCT,1800,BKN,2400,,,MVFR,,,,,,,,,,,,METAR,5.0
YGLA 221500Z AUTO 16007KT 9999 // BKN047 24/19 Q1012,YGLA,2018-03-22T15:00:00Z,-23.87,151.22,24.0,19.0,160,7,,6.21,29.88189,,,TRUE,,,,,,,,BKN,4700,,,,,,,VFR,,,,,,,,,,,,METAR,52.0
YPJT 221500Z AUTO 16004KT 9999 // NCD 18/17 Q1013 RF00.0/000.0,YPJT,2018-03-22T15:00:00Z,-32.1,115.88,18.0,17.0,160,4,,6.21,29.911417,,,TRUE,,,,,,,,CLR,,,,,,,,VFR,,,,,,,,,,,,METAR,30.0
YPWR 221500Z AUTO 14012KT 9999 // NCD 25/05 Q1014,YPWR,2018-03-22T15:00:00Z,-31.12,136.82,25.0,5.0,140,12,,6.21,29.940945,,,TRUE,,,,,,,,CLR,,,,,,,,VFR,,,,,,,,,,,,METAR,167.0
VMMC 221500Z 12006KT CAVOK 19/14 Q1017 NOSIG,VMMC,2018-03-22T15:00:00Z,22.15,113.58,19.0,14.0,120,6,,6.21,30.029528,,,,,,TRUE,,,,,CAVOK,,,,,,,,VFR,,,,,,,,,,,,METAR,6.0
RCNN 221500Z 03007KT 9999 FEW012 15/10 Q1016 RMK A3003,RCNN,2018-03-22T15:00:00Z,22.93,120.2,15.0,10.0,30,7,,6.21,30.0,,,,,,,,,,,FEW,1200,,,,,,,VFR,,,,,,,,,,,,SPECI,19.0
RCMQ 221500Z 02002KT 9999 FEW012 SCT050 13/09 Q1016 RMK A3003,RCMQ,2018-03-22T15:00:00Z,24.27,120.62,13.0,9.0,20,2,,6.21,30.0,,,,,,,,,,,FEW,1200,SCT,5000,,,,,VFR,,,,,,,,,,,,SPECI,5.0
RCSS 221500Z 10007KT 9999 FEW020 12/08 Q1018 NOSIG RMK A3008,RCSS,2018-03-22T15:00:00Z,25.07,121.53,12.0,8.0,100,7,,6.21,30.059055,,,,,,TRUE,,,,,FEW,2000,,,,,,,VFR,,,,,,,,,,,,SPECI,6.0
RCKH 221500Z 02005KT 340V100 9999 FEW016 BKN035 20/12 Q1016 NOSIG RMK A3003,RCKH,2018-03-22T15:00:00Z,22.57,120.33,20.0,12.0,20,5,,6.21,30.0,,,,,,TRUE,,,,,FEW,1600,BKN,3500,,,,,VFR,,,,,,,,,,,,METAR,9.0
RCTP 221500Z 09008KT 9999 FEW025 14/08 Q1018 NOSIG RMK A3007,RCTP,2018-03-22T15:00:00Z,25.07,121.22,14.0,8.0,90,8,,6.21,30.059055,,,,,,TRUE,,,,,FEW,2500,,,,,,,VFR,,,,,,,,,,,,METAR,33.0
LOAV 221500Z VRB02KT 30KM FEW030CU 06/M07,LOAV,2018-03-22T15:00:00Z,47.97,16.27,6.0,-7.0,0,2,,18.64,,,,,,,,,,,,FEW,3000,,,,,,,VFR,,,,,,,,,,,,METAR,233.0
LOAN 221500Z 10003KT 40KM FEW050CU,LOAN,2018-03-22T15:00:00Z,47.85,16.25,,,100,3,,24.86,,,,,,,,,,,,FEW,5000,,,,,,,VFR,,,,,,,,,,,,METAR,272.0
UMKK 221500Z 24006MPS 9999 BKN019 03/M02 Q1009 R24/19//60 NOSIG RMK QFE756/1008,UMKK,2018-03-22T15:00:00Z,54.88,20.6,3.0,-2.0,240,12,,6.21,29.793306,,,,,,TRUE,,,,,BKN,1900,,,,,,,MVFR,,,,,,,,,,,,METAR,21.0
ULOO 221500Z AUTO 21005MPS 7000 // ///021/// 01/M02 Q1003 RMK QFE748,ULOO,2018-03-22T15:00:00Z,57.78,28.4,1.0,-2.0,210,10,,4.35,29.616142,,,TRUE,,,,,,,,,,,,,,,,,,,,,,,,,,,,METAR,47.0
OEYN 221500Z 24010KT 6000 FEW030 SCT100 31/23 Q1007 NOSIG,OEYN,2018-03-22T15:00:00Z,24.13,38.07,31.0,23.0,240,10,,3.73,29.734253,,,,,,TRUE,,,,,FEW,3000,SCT,10000,,,,,MVFR,,,,,,,,,,,,METAR,8.0
OEWJ 221500Z 30012KT CAVOK 28/24 Q1008 NOSIG,OEWJ,2018-03-22T15:00:00Z,26.18,36.47,28.0,24.0,300,12,,6.21,29.763779,,,,,,TRUE,,,,,CAVOK,,,,,,,,VFR,,,,,,,,,,,,METAR,16.0
OEWD 221500Z 09006KT CAVOK 34/13 Q1012 NOSIG,OEWD,2018-03-22T15:00:00Z,20.5,45.2,34.0,13.0,90,6,,6.21,29.88189,,,,,,TRUE,,,,,CAVOK,,,,,,,,VFR,,,,,,,,,,,,METAR,617.0
OETR 221500Z 32002KT CAVOK 27/M02 Q1016,OETR,2018-03-22T15:00:00Z,31.7,38.73,27.0,-2.0,320,2,,6.21,30.0,,,,,,,,,,,CAVOK,,,,,,,,VFR,,,,,,,,,,,,METAR,855.0
OETF 221500Z 29010KT 9999 FEW030 27/05 Q1018 NOSIG,OETF,2018-03-22T15:00:00Z,21.47,40.53,27.0,5.0,290,10,,6.21,30.059055,,,,,,TRUE,,,,,FEW,3000,,,,,,,VFR,,,,,,,,,,,,METAR,1449.0
OETB 221500Z 19014KT CAVOK 33/M03 Q1012 NOSIG,OETB,2018-03-22T15:00:00Z,28.37,36.62,33.0,-3.0,190,14,,6.21,29.88189,,,,,,TRUE,,,,,CAVOK,,,,,,,,VFR,,,,,,,,,,,,METAR,770.0
OESK 221500Z 13010KT CAVOK 29/M05 Q1018,OESK,2018-03-22T15:00:00Z,29.77,40.1,29.0,-5.0,130,10,,6.21,30.059055,,,,,,,,,,,CAVOK,,,,,,,,VFR,,,,,,,,,,,,METAR,684.0
OESH 221500Z 08007KT CAVOK 33/06 Q1013 NOSIG,OESH,2018-03-22T15:00:00Z,17.47,47.12,33.0,6.0,80,7,,6.21,29.911417,,,,,,TRUE,,,,,CAVOK,,,,,,,,VFR,,,,,,,,,,,,METAR,722.0
OERR 221500Z 13007KT CAVOK 28/08 Q1016 NOSIG,OERR,2018-03-22T15:00:00Z,30.88,41.12,28.0,8.0,130,7,,6.21,30.0,,,,,,TRUE,,,,,CAVOK,,,,,,,,VFR,,,,,,,,,,,,METAR,552.0
OERF 221500Z 03009KT CAVOK 28/M07 Q1015,OERF,2018-03-22T15:00:00Z,29.62,43.47,28.0,-7.0,30,9,,6.21,29.970472,,,,,,,,,,,CAVOK,,,,,,,,VFR,,,,,,,,,,,,METAR,447.0
OEPA 221500Z 36012KT CAVOK 30/09 Q1015 NOSIG,OEPA,2018-03-22T15:00:00Z,28.32,46.12,30.0,9.0,360,12,,6.21,29.970472,,,,,,TRUE,,,,,CAVOK,,,,,,,,VFR,,,,,,,,,,,,METAR,355.0
OENG 221500Z 09006KT CAVOK 29/M01 Q1016 NOSIG,OENG,2018-03-22T15:00:00Z,17.62,44.42,29.0,-1.0,90,6,,6.21,30.0,,,,,,TRUE,,,,,CAVOK,,,,,,,,VFR,,,,,,,,,,,,METAR,1203.0
OEMK 221500Z 24004KT CAVOK 35/16 Q1009,OEMK,2018-03-22T15:00:00Z,21.43,40.0,35.0,16.0,240,4,,6.21,29.793306,,,,,,,,,,,CAVOK,,,,,,,,VFR,,,,,,,,,,,,METAR,369.0
OEKM 221500Z 05004KT 9999 SCT025 24/M07 Q1022 NOSIG,OEKM,2018-03-22T15:00:00Z,18.3,42.78,24.0,-7.0,50,4,,6.21,30.177166,,,,,,TRUE,,,,,SCT,2500,,,,,,,VFR,,,,,,,,,,,,METAR,2054.0
UUYY 221500Z 00000MPS 9000 NSC M13/M20 Q1004 R36/450251 NOSIG RMK QFE744/0992,UUYY,2018-03-22T15:00:00Z,61.65,50.82,-13.0,-20.0,0,0,,5.59,29.64567,,,,,,TRUE,,,,,CLR,,,,,,,,VFR,,,,,,,,,,,,METAR,119.0
UUOO 221500Z 28005MPS 9000 BKN040CB M01/M03 Q1009 R30/290150 NOSIG RMK QFE743,UUOO,2018-03-22T15:00:00Z,51.82,39.23,-1.0,-3.0,280,10,,5.59,29.793306,,,,,,TRUE,,,,,BKN,4000,,,,,,,VFR,,,,,,,,,,,,METAR,157.0
ULMM 221500Z 29004MPS 9999 -SHSN SCT030CB M04/M10 Q0998 R31/420165 NOSIG RMK QFE741,ULMM,2018-03-22T15:00:00Z,68.78,32.75,-4.0,-10.0,290,8,,6.21,29.468504,,,,,,TRUE,,,,-SHSN,SCT,3000,,,,,,,VFR,,,,,,,,,,,,METAR,51.0
ULAA 221500Z 06002MPS 3800 -SN BKN014 M08/M09 Q0997 R26/490742 NOSIG RMK QFE747/0996,ULAA,2018-03-22T15:00:00Z,64.6,40.72,-8.0,-9.0,60,4,,2.36,29.438976,,,,,,TRUE,,,,-SN,BKN,1400,,,,,,,IFR,,,,,,,,,,,,METAR,19.0
GGOV 221500Z 16006KT 7000 NSC 37/12 Q1009 NOSIG,GGOV,2018-03-22T15:00:00Z,11.87,-15.65,37.0,12.0,160,6,,4.35,29.793306,,,,,,TRUE,,,,,CLR,,,,,,,,MVFR,,,,,,,,,,,,METAR,36.0
WBGS 221500Z VRB02KT 9999 SCT018 SCT150 BKN300 24/23 Q1009,WBGS,2018-03-22T15:00:00Z,2.27,111.98,24.0,23.0,0,2,,6.21,29.793306,,,,,,,,,,,SCT,1800,SCT,15000,BKN,30000,,,VFR,,,,,,,,,,,,METAR,8.0
OEHL 221500Z 08012KT 8000 SKC 27/01 Q1018 NOSIG,OEHL,2018-03-22T15:00:00Z,27.42,41.67,27.0,1.0,80,12,,4.97,30.059055,,,,,,TRUE,,,,,SKC,,,,,,,,MVFR,,,,,,,,,,,,METAR,1013.0
OEGT 221500Z 08010KT CAVOK 30/M05 Q1013,OEGT,2018-03-22T15:00:00Z,31.42,37.27,30.0,-5.0,80,10,,6.21,29.911417,,,,,,,,,,,CAVOK,,,,,,,,VFR,,,,,,,,,,,,METAR,499.0
OEGS 221500Z 06012KT 8000 SKC 30/08 Q1016,OEGS,2018-03-22T15:00:00Z,26.3,43.77,30.0,8.0,60,12,,4.97,30.0,,,,,,,,,,,SKC,,,,,,,,MVFR,,,,,,,,,,,,METAR,650.0
OEGN 221500Z 21006KT 9999 FEW030 32/23 Q1009 NOSIG,OEGN,2018-03-22T15:00:00Z,16.88,42.57,32.0,23.0,210,6,,6.21,29.793306,,,,,,TRUE,,,,,FEW,3000,,,,,,,VFR,,,,,,,,,,,,METAR,3.0
OEDM 221500Z 03015KT CAVOK 32/M03 Q1015,OEDM,2018-03-22T15:00:00Z,24.45,44.12,32.0,-3.0,30,15,,6.21,29.970472,,,,,,,,,,,CAVOK,,,,,,,,VFR,,,,,,,,,,,,METAR,922.0
OEBH 221500Z 11006KT CAVOK 30/M01 Q1016 NOSIG,OEBH,2018-03-22T15:00:00Z,19.97,42.62,30.0,-1.0,110,6,,6.21,30.0,,,,,,TRUE,,,,,CAVOK,,,,,,,,VFR,,,,,,,,,,,,METAR,1157.0
OEBA 221500Z 09010KT 9999 FEW030 27/02 Q1019 NOSIG,OEBA,2018-03-22T15:00:00Z,20.3,41.62,27.0,2.0,90,10,,6.21,30.088583,,,,,,TRUE,,,,,FEW,3000,,,,,,,VFR,,,,,,,,,,,,METAR,1656.0
OEAR 221500Z 27008KT CAVOK 34/15 Q1010,OEAR,2018-03-22T15:00:00Z,,,34.0,15.0,270,8,,6.21,29.822834,,,,,,,,,,,CAVOK,,,,,,,,VFR,,,,,,,,,,,,METAR,
OEAO 221500Z 22002KT CAVOK 36/M03 Q1014,OEAO,2018-03-22T15:00:00Z,26.48,38.12,36.0,-3.0,220,2,,6.21,29.940945,,,,,,,,,,,CAVOK,,,,,,,,VFR,,,,,,,,,,,,METAR,624.0
OEAH 221500Z 01007KT CAVOK 32/M04 Q1011 NOSIG,OEAH,2018-03-22T15:00:00Z,25.27,49.47,32.0,-4.0,10,7,,6.21,29.852362,,,,,,TRUE,,,,,CAVOK,,,,,,,,VFR,,,,,,,,,,,,METAR,172.0
OEAB 221500Z 21010KT 9999 FEW022CB SCT024 21/14 Q1023 NOSIG,OEAB,2018-03-22T15:00:00Z,18.22,42.63,21.0,14.0,210,10,,6.21,30.206694,,,,,,TRUE,,,,,FEW,2200,SCT,2400,,,,,VFR,,,,,,,,,,,,METAR,2084.0
FPST 221500Z 14010KT 9999 FEW025CB BKN110 31/26 Q1010 NOSIG,FPST,2018-03-22T15:00:00Z,0.37,6.72,31.0,26.0,140,10,,6.21,29.822834,,,,,,TRUE,,,,,FEW,2500,BKN,11000,,,,,VFR,,,,,,,,,,,,METAR,13.0
FGBT 221500Z 27009KT 9999 SCT010 30/25 Q1008,FGBT,2018-03-22T15:00:00Z,1.88,9.8,30.0,25.0,270,9,,6.21,29.763779,,,,,,,,,,,SCT,1000,,,,,,,VFR,,,,,,,,,,,,METAR,8.0
FGSL 221500Z 29003KT 230V360 9999 FEW012 FEW020CB 30/24 Q1009 NOSIG,FGSL,2018-03-22T15:00:00Z,3.75,8.72,30.0,24.0,290,3,,6.21,29.793306,,,,,,TRUE,,,,,FEW,1200,FEW,2000,,,,,VFR,,,,,,,,,,,,METAR,56.0
FNLU 221500Z 25008KT 9999 FEW020 FEW022CB 30/23 Q1008,FNLU,2018-03-22T15:00:00Z,-8.83,13.22,30.0,23.0,250,8,,6.21,29.763779,,,,,,,,,,,FEW,2000,FEW,2200,,,,,VFR,,,,,,,,,,,,METAR,70.0
FOON 221500Z 30006KT 9999 BKN020 29/22 Q1010,FOON,2018-03-22T15:00:00Z,-1.63,13.42,29.0,22.0,300,6,,6.21,29.822834,,,,,,,,,,,BKN,2000,,,,,,,MVFR,,,,,,,,,,,,METAR,441.0
FMNA 221500Z 00000KT 9999 SCT020CB 27/24 Q1010,FMNA,2018-03-22T15:00:00Z,-12.33,49.28,27.0,24.0,0,0,,6.21,29.822834,,,,,,,,,,,SCT,2000,,,,,,,VFR,,,,,,,,,,,,METAR,105.0
NIUE 221500Z AUTO 00000KT //// ////// 23/23 Q1009,NIUE,2018-03-22T15:00:00Z,-19.07,-169.92,23.0,23.0,0,0,,,29.793306,,,TRUE,,,,,,,,,,,,,,,,,,,,,,,,,,,,METAR,20.0
GQNI 221500Z 04022KT 0200 SS NSC 31/M01 Q////,GQNI,2018-03-22T15:00:00Z,16.6,-7.27,31.0,-1.0,40,22,,0.12,,,,,,,,,,,SS,CLR,,,,,,,,LIFR,,,,,,,,,,,,METAR,269.0
LFQG 221500Z AUTO 30009KT 260V320 9999 OVC035 07/M00 Q1020,LFQG,2018-03-22T15:00:00Z,47.0,3.1,7.0,0.0,300,9,,6.21,30.11811,,,TRUE,,,,,,,,OVC,3500,,,,,,,VFR,,,,,,,,,,,,METAR,181.0
LFLW 221500Z AUTO 36010KT 320V030 CAVOK 07/M05 Q1018,LFLW,2018-03-22T15:00:00Z,44.88,2.42,7.0,-5.0,360,10,,6.21,30.059055,,,TRUE,,,,,,,,CAVOK,,,,,,,,VFR,,,,,,,,,,,,METAR,639.0
EISG 221500Z 15012G22KT 9999 OVC014 08/06 Q1003,EISG,2018-03-22T15:00:00Z,54.28,-8.6,8.0,6.0,150,12,22,6.21,29.616142,,,,,,,,,,,OVC,1400,,,,,,,MVFR,,,,,,,,,,,,METAR,3.0
UEEE 221500Z 01003MPS CAVOK M12/M17 Q1009 R23L/450150 NOSIG RMK QFE748,UEEE,2018-03-22T15:00:00Z,62.08,129.77,-12.0,-17.0,10,6,,6.21,29.793306,,,,,,TRUE,,,,,CAVOK,,,,,,,,VFR,,,,,,,,,,,,METAR,103.0
VTUQ 221500Z AUTO 02006KT 340V050 ////NDV ////// 25/19 Q1011 A2987,VTUQ,2018-03-22T15:00:00Z,14.95,102.32,25.0,19.0,20,6,,,29.852362,,,TRUE,,,,,,,,,,,,,,,,,,,,,,,,,,,,METAR,234.0
WMKA 221500Z 06003KT 350V110 9999 FEW030 SCT140 BKN300 29/24 Q1007,WMKA,2018-03-22T15:00:00Z,6.2,100.4,29.0,24.0,60,3,,6.21,29.734253,,,,,,,,,,,FEW,3000,SCT,14000,BKN,30000,,,VFR,,,,,,,,,,,,METAR,5.0
WMKN 221500Z VRB04KT 9999 FEW022 BKN300 28/24 Q1009,WMKN,2018-03-22T15:00:00Z,5.37,103.08,28.0,24.0,0,4,,6.21,29.793306,,,,,,,,,,,FEW,2200,BKN,30000,,,,,VFR,,,,,,,,,,,,METAR,6.0
WMKM 221500Z VRB01KT 9999 FEW017CB SCT140 BKN270 26/24 Q1009,WMKM,2018-03-22T15:00:00Z,2.27,102.25,26.0,24.0,0,1,,6.21,29.793306,,,,,,,,,,,FEW,1700,SCT,14000,BKN,27000,,,VFR,,,,,,,,,,,,METAR,9.0
WMKL 221500Z VRB02KT 9999 FEW026 BKN280 28/25 Q1008,WMKL,2018-03-22T15:00:00Z,6.32,99.72,28.0,25.0,0,2,,6.21,29.763779,,,,,,,,,,,FEW,2600,BKN,28000,,,,,VFR,,,,,,,,,,,,METAR,7.0
WMKI 221500Z 03003KT 350V070 9000 FEW006 SCT140 BKN270 24/24 Q1009,WMKI,2018-03-22T15:00:00Z,4.57,101.08,24.0,24.0,30,3,,5.59,29.793306,,,,,,,,,,,FEW,600,SCT,14000,BKN,27000,,,VFR,,,,,,,,,,,,METAR,39.0
WMKE 221500Z AUTO VRB02KT //// // 27/24 Q1009,WMKE,2018-03-22T15:00:00Z,4.53,103.43,27.0,24.0,0,2,,,29.793306,,,TRUE,,,,,,,,,,,,,,,,,,,,,,,,,,,,METAR,5.0
WMKD 221500Z 36003KT 340V040 9999 FEW025 BKN280 25/24 Q1010 NOSIG,WMKD,2018-03-22T15:00:00Z,3.77,103.22,25.0,24.0,360,3,,6.21,29.822834,,,,,,TRUE,,,,,FEW,2500,BKN,28000,,,,,VFR,,,,,,,,,,,,METAR,16.0
WMKB 221500Z 17005KT 120V230 9000 FEW024 SCT140 BKN270 29/24 Q1007 NOSIG,WMKB,2018-03-22T15:00:00Z,5.47,100.37,29.0,24.0,170,5,,5.59,29.734253,,,,,,TRUE,,,,,FEW,2400,SCT,14000,BKN,27000,,,VFR,,,,,,,,,,,,METAR,4.0
WMBA 221500Z 00000KT 9000 FEW010 SCT140 BKN260 25/24 Q1008,WMBA,2018-03-22T15:00:00Z,4.22,100.7,25.0,24.0,0,0,,5.59,29.763779,,,,,,,,,,,FEW,1000,SCT,14000,BKN,26000,,,VFR,,,,,,,,,,,,METAR,8.0
WMAU 221500Z AUTO 35008KT 290V060 //// // 28/24 Q//// QFF1009,WMAU,2018-03-22T15:00:00Z,2.38,103.88,28.0,24.0,350,8,,0.63,,,,TRUE,,,,,,,,,,,,,,,,,,,,,,,,,,,,METAR,45.0
DTTR 221500Z 26023KT 7000 NSC 15/M09 Q1012,DTTR,2018-03-22T15:00:00Z,31.7,9.27,15.0,-9.0,260,23,,4.35,29.88189,,,,,,,,,,,CLR,,,,,,,,MVFR,,,,,,,,,,,,METAR,259.0
GOBD 221500Z 35011KT 320V030 8000 NSC 34/07 Q1011 NOSIG,GOBD,2018-03-22T15:00:00Z,14.67,-17.07,34.0,7.0,350,11,,4.97,29.852362,,,,,,TRUE,,,,,CLR,,,,,,,,MVFR,,,,,,,,,,,,METAR,88.0
GFLL 221500Z 28008KT 9999 FEW015 30/22 Q1009,GFLL,2018-03-22T15:00:00Z,8.62,-13.18,30.0,22.0,280,8,,6.21,29.793306,,,,,,,,,,,FEW,1500,,,,,,,VFR,,,,,,,,,,,,METAR,27.0
GAMB 221500Z 04010KT 1200 R05/1000D DU NSC 35/M07 Q1011,GAMB,2018-03-22T15:00:00Z,14.52,-4.08,35.0,-7.0,40,10,,0.75,29.852362,,,,,,,,,,DU,CLR,,,,,,,,LIFR,,,,,,,,,,,,METAR,272.0
GABS 221500Z 04005KT CAVOK 38/M02 Q1011 NOSIG,GABS,2018-03-22T15:00:00Z,12.52,-7.95,38.0,-2.0,40,5,,6.21,29.852362,,,,,,TRUE,,,,,CAVOK,,,,,,,,VFR,,,,,,,,,,,,METAR,381.0
GUCY 221500Z 27010KT 9999 FEW016 SCT110 33/21 Q1009 NOSIG,GUCY,2018-03-22T15:00:00Z,9.57,-13.62,33.0,21.0,270,10,,6.21,29.793306,,,,,,TRUE,,,,,FEW,1600,SCT,11000,,,,,VFR,,,,,,,,,,,,METAR,26.0
GQPZ 221500Z 06012KT 5000 BLDU NSC 27/M05 Q1019,GQPZ,2018-03-22T15:00:00Z,22.75,-12.48,27.0,-5.0,60,12,,3.11,30.088583,,,,,,,,,,BLDU,CLR,,,,,,,,MVFR,,,,,,,,,,,,METAR,344.0
GQPA 221500Z 10015KT 070V130 2000 BLSA NSC 30/M02 Q1017,GQPA,2018-03-22T15:00:00Z,20.52,-13.07,30.0,-2.0,100,15,,1.24,30.029528,,,,,,,,,,BLSA,CLR,,,,,,,,IFR,,,,,,,,,,,,METAR,224.0
GQNO 221500Z 07015KT 040V100 2800 BLSA NSC 33/M07 Q1012 NOSIG,GQNO,2018-03-22T15:00:00Z,18.3,-15.97,33.0,-7.0,70,15,,1.74,29.88189,,,,,,TRUE,,,,BLSA,CLR,,,,,,,,IFR,,,,,,,,,,,,METAR,4.0
VEBN 221500Z 31003KT 2000 HZ NSC 29/12 Q1005 NOSIG,VEBN,2018-03-22T15:00:00Z,25.45,82.85,29.0,12.0,310,3,,1.24,29.675198,,,,,,TRUE,,,,HZ,CLR,,,,,,,,IFR,,,,,,,,,,,,METAR,83.0
VILK 221500Z VRB02KT 4000 HZ NSC 30/13 Q1006 NOSIG,VILK,2018-03-22T15:00:00Z,26.75,80.87,30.0,13.0,0,2,,2.49,29.704725,,,,,,TRUE,,,,HZ,CLR,,,,,,,,IFR,,,,,,,,,,,,METAR,128.0
VIDP 221500Z 33009KT 5000 HZ NSC 25/14 Q1010 NOSIG,VIDP,2018-03-22T15:00:00Z,28.57,77.12,25.0,14.0,330,9,,3.11,29.822834,,,,,,TRUE,,,,HZ,CLR,,,,,,,,MVFR,,,,,,,,,,,,METAR,233.0
UWGG 221500Z 32002MPS CAVOK M01/M15 Q1004 R36L/550145 NOSIG RMK QFE746,UWGG,2018-03-22T15:00:00Z,56.23,43.78,-1.0,-15.0,320,4,,6.21,29.64567,,,,,,TRUE,,,,,CAVOK,,,,,,,,VFR,,,,,,,,,,,,METAR,73.0
UUOK 221500Z 30007MPS 9999 BKN030 M02/M08 Q1012 R30/650547 NOSIG RMK QFE740/0987,UUOK,2018-03-22T15:00:00Z,51.75,36.28,-2.0,-8.0,300,14,,6.21,29.88189,,,,,,TRUE,,,,,BKN,3000,,,,,,,MVFR,,,,,,,,,,,,METAR,209.0
UUOB 221500Z 29006MPS 9999 BKN013 M02/M07 Q1013 R29/190057 NOSIG,UUOB,2018-03-22T15:00:00Z,50.65,36.58,-2.0,-7.0,290,12,,6.21,29.911417,,,,,,TRUE,,,,,BKN,1300,,,,,,,MVFR,,,,,,,,,,,,METAR,224.0
UUBP 221500Z 23002MPS CAVOK M02/M11 Q1010 R34/490235 NOSIG RMK QFE740/0987,UUBP,2018-03-22T15:00:00Z,53.22,34.18,-2.0,-11.0,230,4,,6.21,29.822834,,,,,,TRUE,,,,,CAVOK,,,,,,,,VFR,,,,,,,,,,,,METAR,202.0
UUBC 221500Z 25004MPS 220V280 9999 SCT040 M00/M08 Q1008 R31/190155 NOSIG RMK QFE739/0985,UUBC,2018-03-22T15:00:00Z,54.55,36.37,0.0,-8.0,250,8,,6.21,29.763779,,,,,,TRUE,,,,,SCT,4000,,,,,,,VFR,,,,,,,,,,,,METAR,199.0
ULWC 221500Z 19004MPS 9999 BKN024 M02/M07 Q1001 R21/710160 NOSIG RMK QFE741/0988,ULWC,2018-03-22T15:00:00Z,59.28,38.02,-2.0,-7.0,190,8,,6.21,29.557087,,,,,,TRUE,,,,,BKN,2400,,,,,,,MVFR,,,,,,,,,,,,METAR,115.0
UWWW 221500Z 28002MPS 250V320 4300 -SN SCT026 M04/M05 Q0998 R33/450540 NOSIG RMK QFE738/0984,UWWW,2018-03-22T15:00:00Z,53.5,50.17,-4.0,-5.0,280,4,,2.67,29.468504,,,,,,TRUE,,,,-SN,SCT,2600,,,,,,,IFR,,,,,,,,,,,,METAR,146.0
UWSS 221500Z 26005MPS 5000 -SHSN BKN021CB M04/M08 Q1002 R30/450255 NOSIG RMK QFE738,UWSS,2018-03-22T15:00:00Z,51.57,46.07,-4.0,-8.0,260,10,,3.11,29.586615,,,,,,TRUE,,,,-SHSN,BKN,2100,,,,,,,MVFR,,,,,,,,,,,,METAR,166.0
UWOO 221500Z 23008MPS 9999 OVC014 M05/M08 Q1003 R26/820245 NOSIG RMK QFE742/0989 MOD ICE INC 1700M-2500M,UWOO,2018-03-22T15:00:00Z,51.8,55.47,-5.0,-8.0,230,16,,6.21,29.616142,,,,,,TRUE,,,,,OVC,1400,,,,,,,MVFR,,,,,,,,,,,,METAR,109.0
UWOR 221500Z 27010MPS 4000 BLSN OVC015 M04/M06 Q1003 R25/410150 NOSIG RMK QFE729/0972,UWOR,2018-03-22T15:00:00Z,51.07,58.6,-4.0,-6.0,270,19,,2.49,29.616142,,,,,,TRUE,,,,BLSN,OVC,1500,,,,,,,IFR,,,,,,,,,,,,METAR,277.0
UWLW 221500Z 35005MPS 2300 -SN OVC008 M03/M04 Q1000 R02/290145 NOSIG RMK QFE743,UWLW,2018-03-22T15:00:00Z,54.4,48.8,-3.0,-4.0,350,10,,1.43,29.52756,,,,,,TRUE,,,,-SN,OVC,800,,,,,,,IFR,,,,,,,,,,,,METAR,66.0
UWKS 221500Z 03003MPS CAVOK M03/M16 Q1001 R06/810555 NOSIG RMK QFE736,UWKS,2018-03-22T15:00:00Z,56.08,47.35,-3.0,-16.0,30,6,,6.21,29.557087,,,,,,TRUE,,,,,CAVOK,,,,,,,,VFR,,,,,,,,,,,,METAR,170.0
UWKE 221500Z 04004MPS 9999 -SN OVC011 M05/M07 Q0998 R03/390042 NOSIG RMK QFE732/0976,UWKE,2018-03-22T15:00:00Z,55.57,52.08,-5.0,-7.0,40,8,,6.21,29.468504,,,,,,TRUE,,,,-SN,OVC,1100,,,,,,,MVFR,,,,,,,,,,,,METAR,196.0
UWKD 221500Z 36004MPS CAVOK M02/M09 Q1000 R29/50D NOSIG RMK QFE739/0985,UWKD,2018-03-22T15:00:00Z,55.62,49.28,-2.0,-9.0,360,8,,6.21,29.52756,,,,,,TRUE,,,,,CAVOK,,,,,,,,VFR,,,,,,,,,,,,METAR,126.0
USPP 221500Z 36004MPS 4600 -SN BKN023 M06/M10 Q1000 R03/390140 NOSIG RMK QFE739,USPP,2018-03-22T15:00:00Z,57.92,56.02,-6.0,-10.0,360,8,,2.86,29.52756,,,,,,TRUE,,,,-SN,BKN,2300,,,,,,,IFR,,,,,,,,,,,,METAR,123.0
USSS 221500Z VRB01MPS 1600 R08R/P2000U SHSN OVC015CB M05/M06 Q0995 R08R/590330 R08L/490530 NOSIG RMK QFE727/0969,USSS,2018-03-22T15:00:00Z,56.75,60.82,-5.0,-6.0,0,2,,0.99,29.379921,,,,,,TRUE,,,,SHSN,OVC,1500,,,,,,,LIFR,,,,,,,,,,,,METAR,233.0
USRR 221500Z 06004MPS 2100 -SHSN SCT031CB SCT046 M16/M18 Q1005 R07/420255 TEMPO 1600 SHSN RMK OBST OBSC QFE749,USRR,2018-03-22T15:00:00Z,61.33,73.42,-16.0,-18.0,60,8,,1.3,29.675198,,,,,,,,,,-SHSN,SCT,3100,SCT,4600,,,,,IFR,,,,,,,,,,,,METAR,44.0
USNN 221500Z 05005MPS CAVOK M09/M12 Q1005 R03/0///65 NOSIG RMK QFE750,USNN,2018-03-22T15:00:00Z,60.95,76.48,-9.0,-12.0,50,10,,6.21,29.675198,,,,,,TRUE,,,,,CAVOK,,,,,,,,VFR,,,,,,,,,,,,METAR,54.0
USCC 221500Z 16001MPS 5000 -SHSN BR SCT009CB M06/M07 Q0995 R27/420345 TEMPO 1100 SHSN VV004 RMK QFE727,USCC,2018-03-22T15:00:00Z,55.3,61.5,-6.0,-7.0,160,2,,3.11,29.379921,,,,,,,,,,-SHSN BR,SCT,900,,,,,,,MVFR,,,,,,,,,,,,METAR,234.0
UWUU 221500Z 28004MPS 2100 -SN OVC007 M04/M05 Q0996 R32L/690238 TEMPO 0500 +SN OVC004 RMK QBB210 QFE735/0980,UWUU,2018-03-22T15:00:00Z,54.57,55.87,-4.0,-5.0,280,8,,1.3,29.409449,,,,,,,,,,-SN,OVC,700,,,,,,,IFR,,,,,,,,,,,,METAR,137.0
UIUU 221500Z 23002MPS 190V270 9999 NSC 00/M06 Q1014 R26/811060 NOSIG RMK QFE716/0955,UIUU,2018-03-22T15:00:00Z,51.8,107.45,0.0,-6.0,230,4,,6.21,29.940945,,,,,,TRUE,,,,,CLR,,,,,,,,VFR,,,,,,,,,,,,METAR,515.0
UIII 221500Z VRB01MPS CAVOK 00/M05 Q1013 R30/60D NOSIG RMK QFE715/0953,UIII,2018-03-22T15:00:00Z,52.27,104.4,0.0,-5.0,0,2,,6.21,29.911417,,,,,,TRUE,,,,,CAVOK,,,,,,,,VFR,,,,,,,,,,,,METAR,513.0
UIBB 221500Z 23005MPS 200V270 9999 BKN032CB 00/M05 Q1008 R30/821050 NOSIG RMK QFE714/0952,UIBB,2018-03-22T15:00:00Z,56.37,101.7,0.0,-5.0,230,10,,6.21,29.763779,,,,,,TRUE,,,,,BKN,3200,,,,,,,VFR,,,,,,,,,,,,METAR,490.0
UIAA 221500Z VRB01MPS 9999 NSC M04/M10 Q1011 R29/70D NOSIG RMK QFE700/0933,UIAA,2018-03-22T15:00:00Z,52.02,113.32,-4.0,-10.0,0,2,,6.21,29.852362,,,,,,TRUE,,,,,CLR,,,,,,,,VFR,,,,,,,,,,,,METAR,685.0
URWW 221500Z 27008MPS 9999 -SN OVC014 M02/M05 Q1009 R24/420150 NOSIG,URWW,2018-03-22T15:00:00Z,48.78,44.33,-2.0,-5.0,270,16,,6.21,29.793306,,,,,,TRUE,,,,-SN,OVC,1400,,,,,,,MVFR,,,,,,,,,,,,METAR,147.0
URWI 221500Z AUTO 27008MPS 9999 // NCD M00/M03 Q1014,URWI,2018-03-22T15:00:00Z,46.37,44.33,0.0,-3.0,270,16,,6.21,29.940945,,,TRUE,,,,,,,,CLR,,,,,,,,VFR,,,,,,,,,,,,METAR,150.0
URWA 221500Z 27007MPS 5000 -RA OVC009 02/01 Q1013 R27/290350 NOSIG RMK QFE762/1016,URWA,2018-03-22T15:00:00Z,46.28,48.02,2.0,1.0,270,14,,3.11,29.911417,,,,,,TRUE,,,,-RA,OVC,900,,,,,,,IFR,,,,,,,,,,,,METAR,-20.0
URSS 221500Z 32001MPS 5000 -SHRA BKN007 OVC036CB 08/07 Q1018 WS ALL RWY R06/250250 R02/////// NOSIG RMK R02/32001MPS QBB210 MT OBSC QFE762,URSS,2018-03-22T15:00:00Z,43.45,39.95,8.0,7.0,320,2,,3.11,30.059055,,,,,,TRUE,,,,-SHRA,BKN,700,OVC,3600,,,,,IFR,,,,,,,,,,,,METAR,16.0
URMT 221500Z 32006MPS 2500 BR OVC004 M02/M02 Q1016 R25/290155 NOSIG RMK QFE723,URMT,2018-03-22T15:00:00Z,45.12,42.12,-2.0,-2.0,320,12,,1.55,30.0,,,,,,TRUE,,,,BR,OVC,400,,,,,,,LIFR,,,,,,,,,,,,METAR,453.0
URMO 221500Z 24001MPS 9999 BKN020 08/05 Q1013 R09/010070 NOSIG RMK QFE716/0955,URMO,2018-03-22T15:00:00Z,43.2,44.6,8.0,5.0,240,2,,6.21,29.911417,,,,,,TRUE,,,,,BKN,2000,,,,,,,MVFR,,,,,,,,,,,,METAR,510.0
URMN 221500Z 05001MPS 9999 OVC026 08/04 Q1013 R24/010070 NOSIG RMK QFE723,URMN,2018-03-22T15:00:00Z,43.52,43.63,8.0,4.0,50,2,,6.21,29.911417,,,,,,TRUE,,,,,OVC,2600,,,,,,,MVFR,,,,,,,,,,,,METAR,445.0
URMM 221500Z 29007MPS 9999 -SHRA BKN008 OVC029CB 02/01 Q1016 R30/090070 NOSIG RMK MT OBSC QFE733/0978,URMM,2018-03-22T15:00:00Z,44.22,43.1,2.0,1.0,290,14,,6.21,30.0,,,,,,TRUE,,,,-SHRA,BKN,800,OVC,2900,,,,,IFR,,,,,,,,,,,,METAR,314.0
URML 221500Z 01006MPS 9999 NSC 08/05 Q1013 R32/01//70 BECMG 34012G18MPS RMK QFE759/1012,URML,2018-03-22T15:00:00Z,42.82,47.65,8.0,5.0,10,12,,6.21,29.911417,,,,,,,,,,,CLR,,,,,,,,VFR,,,,,,,,,,,,METAR,4.0
URMG 221500Z 01004MPS CAVOK 09/05 Q1014 R26/000070 NOSIG RMK QFE745/0994,URMG,2018-03-22T15:00:00Z,43.37,45.7,9.0,5.0,10,8,,6.21,29.940945,,,,,,TRUE,,,,,CAVOK,,,,,,,,VFR,,,,,,,,,,,,METAR,263.0
URKK 221500Z 28003MPS CAVOK 02/M04 Q1020 R23L/CLRD70 NOSIG RMK QFE761,URKK,2018-03-22T15:00:00Z,45.03,39.15,2.0,-4.0,280,6,,6.21,30.11811,,,,,,TRUE,,,,,CAVOK,,,,,,,,VFR,,,,,,,,,,,,METAR,34.0
URKA 221500Z 04004MPS 9999 SCT/// 01/M03 Q1019 R04/010070 NOSIG RMK QFE761/1014,URKA,2018-03-22T15:00:00Z,45.0,37.35,1.0,-3.0,40,8,,6.21,30.088583,,,,,,TRUE,,,,,,,,,,,,,,,,,,,,,,,,,METAR,53.0
LQSA 221500Z 35006KT 1000 R12/1100N +SN SCT010 BKN020 BKN030 M03/M03 Q1009 TEMPO 0800,LQSA,2018-03-22T15:00:00Z,43.82,18.32,-3.0,-3.0,350,6,,0.62,29.793306,,,,,,,,,,+SN,SCT,1000,BKN,2000,BKN,3000,,,LIFR,,,,,,,,,,,,METAR,511.0
USHH 221500Z 04004G09MPS 8000 -SHSN DRSN BKN029CB M17/M20 Q1004 R06/410555 TEMPO 1000 SHSN BKN005CB RMK QFE750,USHH,2018-03-22T15:00:00Z,61.03,69.08,-17.0,-20.0,40,8,17,4.97,29.64567,,,,,,,,,,-SHSN DRSN,BKN,2900,,,,,,,MVFR,,,,,,,,,,,,METAR,23.0
USTR 221500Z 05003MPS 7000 -SHSN FEW010 OVC018CB M05/M06 Q0995 R03/490550 TEMPO 1200 SHSN BR VV004 RMK QFE736/0982,USTR,2018-03-22T15:00:00Z,57.17,65.32,-5.0,-6.0,50,6,,4.35,29.379921,,,,,,,,,,-SHSN,FEW,1000,OVC,1800,,,,,MVFR,,,,,,,,,,,,METAR,115.0
UNTT 221500Z 13002MPS 9999 SCT014 M05/M07 Q1008 NOSIG RMK QFE741,UNTT,2018-03-22T15:00:00Z,56.38,85.22,-5.0,-7.0,130,4,,6.21,29.763779,,,,,,TRUE,,,,,SCT,1400,,,,,,,VFR,,,,,,,,,,,,METAR,182.0
UNOO 221500Z 13007MPS 0400 R07/0900U FZFG VV003 M02/M03 Q0994 R07/190155 NOSIG RMK QBB090 OBST OBSC QFE737,UNOO,2018-03-22T15:00:00Z,54.97,73.32,-2.0,-3.0,130,14,,0.25,29.350393,,,,,,TRUE,,,,FZFG,OVX,0,,,,,,,LIFR,,,,,,,,,,,300,METAR,95.0
UNNT 221500Z 13003MPS 6000 OVC011 00/M01 Q1006 R25/150065 R16/150065 NOSIG RMK QFE745/0993,UNNT,2018-03-22T15:00:00Z,55.02,82.63,0.0,-1.0,130,6,,3.73,29.704725,,,,,,TRUE,,,,,OVC,1100,,,,,,,MVFR,,,,,,,,,,,,METAR,111.0
UNKL 221500Z 28001MPS 7000 SCT015CB M01/M01 Q1010 R29/120060 NOSIG RMK QFE732,UNKL,2018-03-22T15:00:00Z,56.17,92.48,-1.0,-1.0,280,2,,4.35,29.822834,,,,,,TRUE,,,,,SCT,1500,,,,,,,MVFR,,,,,,,,,,,,METAR,276.0
UNEE 221500Z 12002MPS 5000 BR OVC008 M01/M02 Q1008 R23/921045 NOSIG RMK QFE733,UNEE,2018-03-22T15:00:00Z,55.27,86.08,-1.0,-2.0,120,4,,3.11,29.763779,,,,,,TRUE,,,,BR,OVC,800,,,,,,,IFR,,,,,,,,,,,,METAR,260.0
UNBB 221500Z 14005MPS CAVOK 04/02 Q1006 R24/290150 NOSIG RMK QFE732,UNBB,2018-03-22T15:00:00Z,53.37,83.53,4.0,2.0,140,10,,6.21,29.704725,,,,,,TRUE,,,,,CAVOK,,,,,,,,VFR,,,,,,,,,,,,METAR,255.0
UNAA 221500Z 00000MPS 6000 NSC 04/01 Q1011 R20/090065 NOSIG RMK QFE736,UNAA,2018-03-22T15:00:00Z,53.75,91.4,4.0,1.0,0,0,,3.73,29.852362,,,,,,TRUE,,,,,CLR,,,,,,,,MVFR,,,,,,,,,,,,METAR,245.0
FBMN 221500Z VRB02KT 9999 FEW025 FEW030CB BKN070 25/22 Q1015,FBMN,2018-03-22T15:00:00Z,-19.97,23.42,25.0,22.0,0,2,,6.21,29.970472,,,,,,,,,,,FEW,2500,FEW,3000,BKN,7000,,,VFR,,,,,,,,,,,,METAR,900.0
FBSP 221500Z 27005KT CAVOK 23/22 Q1015,FBSP,2018-03-22T15:00:00Z,-22.05,27.82,23.0,22.0,270,5,,6.21,29.970472,,,,,,,,,,,CAVOK,,,,,,,,VFR,,,,,,,,,,,,METAR,892.0
FBKE 221500Z VRB01KT 9999 SCT030 30/19 Q1014,FBKE,2018-03-22T15:00:00Z,-17.82,25.17,30.0,19.0,0,1,,6.21,29.940945,,,,,,,,,,,SCT,3000,,,,,,,VFR,,,,,,,,,,,,METAR,1000.0
FBFT 221500Z 08009KT 9999 TS SCT025 FEW030CB SCT065 24/19 Q1015,FBFT,2018-03-22T15:00:00Z,-21.17,27.48,24.0,19.0,80,9,,6.21,29.970472,,,,,,,,,,TS,SCT,2500,FEW,3000,SCT,6500,,,VFR,,,,,,,,,,,,METAR,1000.0
USCM 221500Z 23007MPS 6000 -SHSN OVC015CB M02/M04 Q0996 R18/090060 TEMPO 27013MPS 2000 SHSN VV003 RMK QFE710,USCM,2018-03-22T15:00:00Z,53.4,58.75,-2.0,-4.0,230,14,,3.73,29.409449,,,,,,,,,,-SHSN,OVC,1500,,,,,,,MVFR,,,,,,,,,,,,METAR,435.0
UUMO 221500Z 28005MPS 9999 BKN040 M02/M09 Q1007 R26/090060 NOSIG RMK QFE740/0987,UUMO,2018-03-22T15:00:00Z,55.52,37.5,-2.0,-9.0,280,10,,6.21,29.734253,,,,,,TRUE,,,,,BKN,4000,,,,,,,VFR,,,,,,,,,,,,METAR,174.0
UUWW 221500Z 25005MPS 9999 BKN043 M01/M09 Q1006 R24/290050 NOSIG,UUWW,2018-03-22T15:00:00Z,55.6,37.27,-1.0,-9.0,250,10,,6.21,29.704725,,,,,,TRUE,,,,,BKN,4300,,,,,,,VFR,,,,,,,,,,,,METAR,203.0
UUEE 221500Z 23004MPS CAVOK M01/M08 Q1006 R24L/150051 R24R/190051 NOSIG,UUEE,2018-03-22T15:00:00Z,55.97,37.42,-1.0,-8.0,230,8,,6.21,29.704725,,,,,,TRUE,,,,,CAVOK,,,,,,,,VFR,,,,,,,,,,,,METAR,190.0
UUDL 221500Z 22005MPS CAVOK M01/M10 Q1004 R23/010060 NOSIG RMK QFE745,UUDL,2018-03-22T15:00:00Z,57.57,40.17,-1.0,-10.0,220,10,,6.21,29.64567,,,,,,TRUE,,,,,CAVOK,,,,,,,,VFR,,,,,,,,,,,,METAR,88.0
UUDD 221500Z 28004MPS 250V310 9999 SCT037 M01/M08 Q1006 R88/520295 NOSIG,UUDD,2018-03-22T15:00:00Z,55.4,37.9,-1.0,-8.0,280,8,,6.21,29.704725,,,,,,TRUE,,,,,SCT,3700,,,,,,,VFR,,,,,,,,,,,,METAR,168.0
UUBW 221500Z 26003MPS 9999 SCT043 M00/M06 Q1007 R30/110055 NOSIG,UUBW,2018-03-22T15:00:00Z,55.55,38.15,0.0,-6.0,260,6,,6.21,29.734253,,,,,,TRUE,,,,,SCT,4300,,,,,,,VFR,,,,,,,,,,,,METAR,115.0
ULLI 221500Z 21005G10MPS 160V280 9999 SCT017CB BKN036 01/M02 Q0997 R88/290050 NOSIG,ULLI,2018-03-22T15:00:00Z,59.8,30.27,1.0,-2.0,210,10,19,6.21,29.438976,,,,,,TRUE,,,,,SCT,1700,BKN,3600,,,,,VFR,,,,,,,,,,,,METAR,4.0
FYWW 221500Z AUTO 06002KT //// // ////// 20/16 Q1020,FYWW,2018-03-22T15:00:00Z,-22.57,17.1,20.0,16.0,60,2,,,30.11811,,,TRUE,,,,,,,,,,,,,,,,,,,,,,,,,,,,METAR,1725.0
FYOW 221500Z AUTO 36006G16KT //// // ////// 21/19 Q1017,FYOW,2018-03-22T15:00:00Z,-20.43,16.67,21.0,19.0,360,6,16,,30.029528,,,TRUE,,,,,,,,,,,,,,,,,,,,,,,,,,,,METAR,1481.0
FYOO 221500Z AUTO 00000KT //// // ////// 26/21 Q1015,FYOO,2018-03-22T15:00:00Z,-19.15,15.92,26.0,21.0,0,0,,,29.970472,,,TRUE,,,,,,,,,,,,,,,,,,,,,,,,,,,,METAR,1192.0
FYML 221500Z AUTO 15001KT //// // ////// 35/07 Q1016,FYML,2018-03-22T15:00:00Z,-24.6,17.93,35.0,7.0,150,1,,,30.0,,,TRUE,,,,,,,,,,,,,,,,,,,,,,,,,,,,METAR,1113.0
FYLZ 221500Z AUTO 21014KT //// // ////// 23/14 Q1011,FYLZ,2018-03-22T15:00:00Z,-26.67,15.25,23.0,14.0,210,14,,,29.852362,,,TRUE,,,,,,,,,,,,,,,,,,,,,,,,,,,,METAR,130.0
FYKM 221500Z 22007KT 9999 SCT020 25/21 Q1015,FYKM,2018-03-22T15:00:00Z,-17.63,24.18,25.0,21.0,220,7,,6.21,29.970472,,,,,,,,,,,SCT,2000,,,,,,,VFR,,,,,,,,,,,,METAR,958.0
FYGB 221500Z AUTO 16003KT //// // ////// 31/12 Q1019,FYGB,2018-03-22T15:00:00Z,-22.5,18.97,31.0,12.0,160,3,,,30.088583,,,TRUE,,,,,,,,,,,,,,,,,,,,,,,,,,,,METAR,1442.0
TDPD 221500Z 12015KT 9999 SCT025 29/21 Q1018,TDPD,2018-03-22T15:00:00Z,15.55,-61.3,29.0,21.0,120,15,,6.21,30.059055,,,,,,,,,,,SCT,2500,,,,,,,VFR,,,,,,,,,,,,METAR,14.0
ROYN 221500Z AUTO 04007KT 9999 SCT040 BKN044 BKN046 17/09 Q1018,ROYN,2018-03-22T15:00:00Z,24.47,122.97,17.0,9.0,40,7,,6.21,30.059055,,,TRUE,,,,,,,,SCT,4000,BKN,4400,BKN,4600,,,VFR,,,,,,,,,,,,METAR,17.0
RORY 221500Z AUTO 33011KT 290V350 9999 FEW042 BKN050 15/06 Q1016,RORY,2018-03-22T15:00:00Z,27.05,128.4,15.0,6.0,330,11,,6.21,30.0,,,TRUE,,,,,,,,FEW,4200,BKN,5000,,,,,VFR,,,,,,,,,,,,METAR,16.0
VDPP 221500Z 25004KT 210V300 9000 FEW017 SCT040 27/23 Q1008,VDPP,2018-03-22T15:00:00Z,11.55,104.83,27.0,23.0,250,4,,5.59,29.763779,,,,,,,,,,,FEW,1700,SCT,4000,,,,,VFR,,,,,,,,,,,,METAR,10.0
CZZJ 221500Z AUTO 08012G17KT M02/M04 RMK AO1 SOG 27 8004 PK WND 08019/1427 SLP175 T10151036,CZZJ,2018-03-22T15:00:00Z,53.58,-116.47,-1.5,-3.6,80,12,17,,,1017.5,,TRUE,TRUE,,,,,,,,,,,,,,,,,,,,,,,,,,,METAR,927.0
CZTB 221500Z AUTO 21004KT M05/M12 RMK AO1 SOG 26 1009 SLP303 T10501115,CZTB,2018-03-22T15:00:00Z,48.37,-89.32,-5.0,-11.5,210,4,,,,1030.3,,TRUE,TRUE,,,,,,,,,,,,,,,,,,,,,,,,,,,METAR,199.0
CZMJ 221500Z AUTO 13011KT M04/M04 RMK AO1 SLP263 T10371044 51012,CZMJ,2018-03-22T15:00:00Z,50.33,-105.57,-3.7,-4.4,130,11,,,,1026.3,,TRUE,TRUE,,,,,,,,,,,,,,,,1.2,,,,,,,,,,,METAR,577.0
CZKD 221500Z AUTO 04008KT M17/M21 RMK AO1 SOG 55 1024 SLP395 T11711210,CZKD,2018-03-22T15:00:00Z,56.03,-96.52,-17.1,-21.0,40,8,,,,1039.5,,TRUE,TRUE,,,,,,,,,,,,,,,,,,,,,,,,,,,METAR,183.0
CXZV 221500Z AUTO 10006KT M00/M07 RMK AO1 SOG 111 0003 SLP220 T10011068,CXZV,2018-03-22T15:00:00Z,50.22,-66.25,-0.1,-6.8,100,6,,,,1022.0,,TRUE,TRUE,,,,,,,,,,,,,,,,,,,,,,,,,,,METAR,52.0
CXVN 221500Z AUTO 32010G15KT 01/M08 RMK AO1 SOG 00 3011 PK WND 32017/1426 SLP201 T00061075,CXVN,2018-03-22T15:00:00Z,43.18,-79.4,0.6,-7.5,320,10,15,,,1020.1,,TRUE,TRUE,,,,,,,,,,,,,,,,,,,,,,,,,,,METAR,79.0
CXTO 221500Z AUTO M00/M12 RMK AO1 SLP200 T10021115 52009,CXTO,2018-03-22T15:00:00Z,43.67,-79.4,-0.2,-11.5,,,,,,1020.0,,TRUE,TRUE,,,,,,,,,,,,,,,,0.9,,,,,,,,,,,METAR,113.0
CXTD 221500Z AUTO 05016G23KT M00/M01 RMK AO1 2PAST HR SOG 00 6055 PK WND 06028/1440 SLP028 P0005 T10041010 50012,CXTD,2018-03-22T15:00:00Z,45.62,-61.68,-0.4,-1.0,50,16,23,,,1002.8,,TRUE,TRUE,,,,,,,,,,,,,,,,1.2,,,,,0.05,,,,,,METAR,68.0
CXRL 221500Z AUTO 10011KT M06/M06 RMK AO1 T10581063,CXRL,2018-03-22T15:00:00Z,54.5,-111.7,-5.8,-6.3,100,11,,,,,,TRUE,TRUE,,,,,,,,,,,,,,,,,,,,,,,,,,,METAR,585.0
CXRB 221500Z AUTO M34/M37 RMK AO1 SOG 03 8005 SLP283 T13381370,CXRB,2018-03-22T15:00:00Z,74.72,-94.98,-33.8,-37.0,,,,,,1028.3,,TRUE,TRUE,,,,,,,,,,,,,,,,,,,,,,,,,,,METAR,68.0
CXLB 221500Z AUTO 33010KT 00/00 RMK AO1 SLP969 T00000000 56041,CXLB,2018-03-22T15:00:00Z,44.37,-64.3,0.0,0.0,330,10,,,,996.9,,TRUE,TRUE,,,,,,,,,,,,,,,,-4.1,,,,,,,,,,,METAR,4.0
CXKM 221500Z AUTO 11014KT M05/M05 RMK AO1 PK WND 10022/1431 T10471051,CXKM,2018-03-22T15:00:00Z,52.82,-111.85,-4.7,-5.1,110,14,,,,,,TRUE,TRUE,,,,,,,,,,,,,,,,,,,,,,,,,,,METAR,675.0
CXKI 221500Z AUTO M07/M14 RMK AO1 SOG 34 0001 SLP251 T10721142,CXKI,2018-03-22T15:00:00Z,48.22,-80.0,-7.2,-14.2,,,,,,1025.1,,TRUE,TRUE,,,,,,,,,,,,,,,,,,,,,,,,,,,METAR,324.0
CXFR 221500Z AUTO 04021KT M11/M12 RMK AO1 PK WND 05027/1426 T11051124,CXFR,2018-03-22T15:00:00Z,56.08,-118.43,-10.5,-12.4,40,21,,,,,,TRUE,TRUE,,,,,,,,,,,,,,,,,,,,,,,,,,,METAR,655.0
CXCP 221500Z AUTO 05005KT M06/M07 RMK AO1 T10631066,CXCP,2018-03-22T15:00:00Z,50.28,-113.35,-6.3,-6.6,50,5,,,,,,TRUE,TRUE,,,,,,,,,,,,,,,,,,,,,,,,,,,METAR,1006.0
CWWF 221500Z AUTO 12008KT M05/M06 RMK AO1 SOG 14 1009 SLP267 T10501059,CWWF,2018-03-22T15:00:00Z,49.7,-103.8,-5.0,-5.9,120,8,,,,1026.7,,TRUE,TRUE,,,,,,,,,,,,,,,,,,,,,,,,,,,METAR,589.0
CWWA 221500Z AUTO 31002KT 06/04 RMK AO1 SLP965 T00610041 55011,CWWA,2018-03-22T15:00:00Z,49.35,-123.17,6.1,4.1,310,2,,,,996.5,,TRUE,TRUE,,,,,,,,,,,,,,,,-1.1,,,,,,,,,,,METAR,178.0
CWVQ 221500Z AUTO 03009KT 01/M06 RMK AO1 SOG 16 1006 PK WND 03017/1413 SLP153 T00121062,CWVQ,2018-03-22T15:00:00Z,45.42,-73.92,1.2,-6.2,30,9,,,,1015.3,,TRUE,TRUE,,,,,,,,,,,,,,,,,,,,,,,,,,,METAR,39.0
CWVP 221500Z AUTO 12009G17KT M00/M07 RMK AO1 SOG 39 6004 PK WND 12017/1455 SLP175 T10021066,CWVP,2018-03-22T15:00:00Z,49.63,-109.52,-0.2,-6.6,120,9,17,,,1017.5,,TRUE,TRUE,,,,,,,,,,,,,,,,,,,,,,,,,,,METAR,1271.0
CWVN 221500Z AUTO 06007KT M08/M09 RMK AO1 SOG 09 7007 SLP214 T10761089,CWVN,2018-03-22T15:00:00Z,49.07,-107.57,-7.6,-8.9,60,7,,,,1021.4,,TRUE,TRUE,,,,,,,,,,,,,,,,,,,,,,,,,,,METAR,785.0
CWVI 221500Z AUTO 09014G20KT M01/M02 RMK AO1 PK WND 09020/1407 SLP231 T10131024 53005,CWVI,2018-03-22T15:00:00Z,53.52,-112.1,-1.3,-2.4,90,14,20,,,1023.1,,TRUE,TRUE,,,,,,,,,,,,,,,,0.5,,,,,,,,,,,METAR,639.0
CWUS 221500Z AUTO 29002KT 04/04 RMK AO1 2PAST HR 8011 SLP023 P0001 T00430039 50014,CWUS,2018-03-22T15:00:00Z,49.57,-119.65,4.3,3.9,290,2,,,,1002.3,,TRUE,TRUE,,,,,,,,,,,,,,,,1.4,,,,,0.01,,,,,,METAR,454.0
CWTY 221500Z AUTO 05008KT M00/M05 RMK AO1 SLP150 T10031051 50001,CWTY,2018-03-22T15:00:00Z,46.35,-72.52,-0.3,-5.1,50,8,,,,1015.0,,TRUE,TRUE,,,,,,,,,,,,,,,,0.1,,,,,,,,,,,METAR,6.0
CWTT 221500Z AUTO 02010G15KT 02/M08 RMK AO1 PK WND 03017/1446 T00161077,CWTT,2018-03-22T15:00:00Z,45.27,-72.17,1.6,-7.7,20,10,15,,,,,TRUE,TRUE,,,,,,,,,,,,,,,,,,,,,,,,,,,METAR,209.0
CWTN 221500Z AUTO 09015G24KT 01/M06 RMK AO1 PK WND 09026/1413 SLP146 T00131061 58010,CWTN,2018-03-22T15:00:00Z,47.07,-70.78,1.3,-6.1,90,15,24,,,1014.6,,TRUE,TRUE,,,,,,,,,,,,,,,,-1.0,,,,,,,,,,,METAR,6.0
CWTG 221500Z AUTO 04018G25KT M01/M04 RMK AO1 PK WND 05028/1408 SLP194 T10101043 50001,CWTG,2018-03-22T15:00:00Z,49.32,-67.37,-1.0,-4.3,40,18,25,,,1019.4,,TRUE,TRUE,,,,,,,,,,,,,,,,0.1,,,,,,,,,,,METAR,5.0
CWTA 221500Z AUTO 03007KT M00/M07 RMK AO1 SOG 72 1005 SLP149 T10021070,CWTA,2018-03-22T15:00:00Z,45.5,-73.58,-0.2,-7.0,30,7,,,,1014.9,,TRUE,TRUE,,,,,,,,,,,,,,,,,,,,,,,,,,,METAR,63.0
CXZC 221500Z AUTO 29005KT M09/M13 RMK AO1 SOG 52 6001 SLP287 T10851134,CXZC,2018-03-22T15:00:00Z,51.3,-80.62,-8.5,-13.4,290,5,,,,1028.7,,TRUE,TRUE,,,,,,,,,,,,,,,,,,,,,,,,,,,METAR,9.0
CXBI 221500Z AUTO 32009KT M02/M11 RMK AO1 SOG 04 1011 SLP209 T10231112,CXBI,2018-03-22T15:00:00Z,44.48,-79.55,-2.3,-11.2,320,9,,,,1020.9,,TRUE,TRUE,,,,,,,,,,,,,,,,,,,,,,,,,,,METAR,289.0
CTRA 221500Z AUTO 32003KT 02/M12 RMK AO1 SOG 39 1009 SLP294 T00191122,CTRA,2018-03-22T15:00:00Z,49.67,-93.73,1.9,-12.2,320,3,,,,1029.4,,TRUE,TRUE,,,,,,,,,,,,,,,,,,,,,,,,,,,METAR,435.0
CTNK 221500Z AUTO 35003KT M02/M12 RMK AO1 SOG 22 1004 SLP193 T10231123,CTNK,2018-03-22T15:00:00Z,45.53,-78.27,-2.3,-12.3,350,3,,,,1019.3,,TRUE,TRUE,,,,,,,,,,,,,,,,,,,,,,,,,,,METAR,410.0
CWDZ 221500Z AUTO 31002KT M07/M08 RMK AO1 T10721080,CWDZ,2018-03-22T15:00:00Z,51.42,-112.67,-7.2,-8.0,310,2,,,,,,TRUE,TRUE,,,,,,,,,,,,,,,,,,,,,,,,,,,METAR,678.0
CWDK 221500Z AUTO 03007KT M06/M07 RMK AO1 SOG 07 4000 SLP181 T10551067,CWDK,2018-03-22T15:00:00Z,50.02,-113.62,-5.5,-6.7,30,7,,,,1018.1,,TRUE,TRUE,,,,,,,,,,,,,,,,,,,,,,,,,,,METAR,1012.0
FAPP 221500Z 07012KT 9999 FEW025 22/16 Q1019 NOSIG,FAPP,2018-03-22T15:00:00Z,-23.83,29.45,22.0,16.0,70,12,,6.21,30.088583,,,,,,TRUE,,,,,FEW,2500,,,,,,,VFR,,,,,,,,,,,,METAR,1242.0
KNGU 221459Z 33012KT 10SM FEW130 SCT280 07/M03 A3001 RMK AO2 SLP163 T00671028 51018,KNGU,2018-03-22T14:59:00Z,36.92,-76.27,6.7,-2.8,330,12,,10.0,30.008858,1016.3,,,TRUE,,,,,,,FEW,13000,SCT,28000,,,,,VFR,1.8,,,,,,,,,,,SPECI,5.0
KNOZ 221459Z AUTO 10005KT 10SM CLR 20/M04 A2996 RMK AO2 SLP095 T02001044 53005,KNOZ,2018-03-22T14:59:00Z,32.5,-114.45,20.0,-4.4,100,5,,10.0,29.958662,1009.5,,TRUE,TRUE,,,,,,,CLR,,,,,,,,VFR,0.5,,,,,,,,,,,SPECI,103.0
KBLU 221459Z AUTO 18013G32KT 1/4SM RA FG VV003 05/05 A2973 RMK AO2 P0006 T00500050,KBLU,2018-03-22T14:59:00Z,39.28,-120.7,5.0,5.0,180,13,32,0.25,29.731298,,,TRUE,TRUE,,,,,,RA FG,OVX,0,,,,,,,LIFR,,,,,,0.06,,,,,300,METAR,1609.0
KSTS 221459Z 18010KT 4SM -RA BR BKN008 OVC014 14/13 A2969 RMK AO2 P0000 T01390128,KSTS,2018-03-22T14:59:00Z,38.5,-122.82,13.9,12.8,180,10,,4.0,29.68996,,,,TRUE,,,,,,-RA BR,BKN,800,OVC,1400,,,,,IFR,,,,,,0.005,,,,,,SPECI,39.0
KBOW 221459Z 32008KT 10SM SKC 13/M01 A3027,KBOW,2018-03-22T14:59:00Z,27.93,-81.77,13.0,-1.0,320,8,,10.0,30.268702,,,,,,,,,,,SKC,,,,,,,,VFR,,,,,,,,,,,,METAR,39.0
KEUF 221458Z AUTO VRB06KT 10SM CLR 11/M03 A3033 RMK AO2 SLP268 T01061033 51012,KEUF,2018-03-22T14:58:00Z,31.95,-85.13,10.6,-3.3,0,6,,10.0,30.33071,1026.8,,TRUE,TRUE,,,,,,,CLR,,,,,,,,VFR,1.2,,,,,,,,,,,METAR,87.0
KPOE 221458Z AUTO 13009KT 10SM CLR 15/03 A3037 RMK AO2 SLP286 T01510032 52016,KPOE,2018-03-22T14:58:00Z,31.05,-93.2,15.1,3.2,130,9,,10.0,30.369095,1028.6,,TRUE,TRUE,,,,,,,CLR,,,,,,,,VFR,1.6,,,,,,,,,,,METAR,101.0
KSXS 221458Z AUTO 01011G16KT 9SM CLR 10/M02 A3034 RMK AO2 SLP277 T01001019 51011,KSXS,2018-03-22T14:58:00Z,31.37,-85.85,10.0,-1.9,10,11,16,9.0,30.339567,1027.7,,TRUE,TRUE,,,,,,,CLR,,,,,,,,VFR,1.1,,,,,,,,,,,METAR,122.0
KLOR 221458Z AUTO 35007G15KT 9SM CLR 11/M02 A3034 RMK AO2 SLP258 T01061021 51010,KLOR,2018-03-22T14:58:00Z,31.35,-85.75,10.6,-2.1,350,7,15,9.0,30.339567,1025.8,,TRUE,TRUE,,,,,,,CLR,,,,,,,,VFR,1.0,,,,,,,,,,,METAR,74.0
KHUA 221458Z AUTO 01009KT 9SM CLR 09/M03 A3035 RMK AO2 SLP281 T00861031 52019 $,KHUA,2018-03-22T14:58:00Z,34.68,-86.68,8.6,-3.1,10,9,,9.0,30.351377,1028.1,,TRUE,TRUE,TRUE,,,,,,CLR,,,,,,,,VFR,1.9,,,,,,,,,,,METAR,209.0
KHEY 221458Z AUTO 35007G14KT 10SM CLR 11/M02 A3033 RMK AO2 SLP274 T01091024 51010,KHEY,2018-03-22T14:58:00Z,31.35,-85.65,10.9,-2.4,350,7,14,10.0,30.33071,1027.4,,TRUE,TRUE,,,,,,,CLR,,,,,,,,VFR,1.0,,,,,,,,,,,METAR,97.0
KGRK 221458Z AUTO 15012KT 10SM FEW017 17/13 A3026 RMK AO2 SLP243 T01660125 52015,KGRK,2018-03-22T14:58:00Z,31.07,-97.83,16.6,12.5,150,12,,10.0,30.259842,1024.3,,TRUE,TRUE,,,,,,,FEW,1700,,,,,,,VFR,1.5,,,,,,,,,,,METAR,309.0
KBKF 221458Z 20007KT 10SM FEW090 FEW130 SCT220 11/M03 A3013 RMK AO2A SLP169 T01081030 53007,KBKF,2018-03-22T14:58:00Z,39.72,-104.75,10.8,-3.0,200,7,,10.0,30.129921,1016.9,,,TRUE,,,,,,,FEW,9000,FEW,13000,SCT,22000,,,VFR,0.7,,,,,,,,,,,METAR,1726.0
KAPG 221458Z 32012KT 7SM SCT150 04/M05 2995 RMK SLPNO $,KAPG,2018-03-22T14:58:00Z,39.47,-76.17,4.0,-5.0,320,12,,7.0,,,,,,TRUE,,,,,,SCT,15000,,,,,,,VFR,,,,,,,,,,,,METAR,18.0
KFTG 221458Z 18006KT 10SM FEW090 FEW180 13/M01 A3013,KFTG,2018-03-22T14:58:00Z,39.78,-104.55,13.0,-1.0,180,6,,10.0,30.129921,,,,,,,,,,,FEW,9000,FEW,18000,,,,,VFR,,,,,,,,,,,,METAR,1675.0
KLBE 221458Z 22008KTKT 10SMSM BKN016 M02/M04 A3012,KLBE,2018-03-22T14:58:00Z,40.27,-79.4,-2.0,-4.0,,,,,30.121063,,,,,,,,,,,BKN,1600,,,,,,,,,,,,,,,,,,,METAR,361.0
KSKA 221458Z 08009KT 10SM BKN049 OVC060 06/06 A2959 RMK AO2A SLP031 60000 T00570057 58007 $,KSKA,2018-03-22T14:58:00Z,47.62,-117.65,5.7,5.7,80,9,,10.0,29.589567,1003.1,,,TRUE,TRUE,,,,,,BKN,4900,OVC,6000,,,,,VFR,-0.7,,,,,,,,,,,SPECI,750.0
KFHU 221458Z 00000KT 7SM 10SM 16/M03 A3024 RMK AO2A SLP188 WND DATA/ALSTG ESTMD T01571026 53015 $,KFHU,2018-03-22T14:58:00Z,31.58,-110.35,15.7,-2.6,0,0,,10.0,30.239174,1018.8,,,TRUE,TRUE,,,,,,,,,,,,,,,1.5,,,,,,,,,,,SPECI,1438.0
KGXF 221458Z 07003KT 10SM SCT180 BKN250 17/M07 A3000 RMK AO2A SLP151 T01701067 52015,KGXF,2018-03-22T14:58:00Z,32.87,-112.72,17.0,-6.7,70,3,,10.0,30.0,1015.1,,,TRUE,,,,,,,SCT,18000,BKN,25000,,,,,VFR,1.5,,,,,,,,,,,METAR,262.0
RKSO 221458Z 00000KT 5SM BR CLR 01/00 A3004 RMK AO2A SLP176 T00111001 401051002 51005 $,RKSO,2018-03-22T14:58:00Z,37.07,127.02,1.1,-0.1,0,0,,5.0,30.041338,1017.6,,,TRUE,TRUE,,,,,BR,CLR,,,,,,,,MVFR,0.5,,,10.5,-0.2,,,,,,,METAR,12.0
MHSC 221458Z VRB06KT 9999 CLR 26/16 A3015 RMK AO2A SLP170 ALSTG/SLP ESTMD WND DATA ESTMD T02620163 51018 $,MHSC,2018-03-22T14:58:00Z,14.37,-87.62,26.2,16.3,0,6,,6.21,30.15059,1017.0,,,TRUE,TRUE,,,,,,CLR,,,,,,,,VFR,1.8,,,,,,,,,,,SPECI,626.0
KDPG 221458Z 18019G30KT 35SM FEW050 SCT080 BKN150 OVC250 13/04 A2991 RMK PK WND 18030/55 SLP097 T01320044 57008,KDPG,2018-03-22T14:58:00Z,40.2,-112.92,13.2,4.4,180,19,30,35.0,29.911417,1009.7,,,,,,,,,,FEW,5000,SCT,8000,BKN,15000,OVC,25000,VFR,-0.8,,,,,,,,,,,SPECI,1326.0
KMUO 221458Z COR 10019G28KT 10SM FEW043 BKN055 OVC070 09/09 RMK AO2 PK WND 11028/55 SHRAE1358 SLP068 60001 T00930093 $ COR 1519,KMUO,2018-03-22T14:58:00Z,43.03,-115.87,9.3,9.3,100,19,28,10.0,,1006.8,TRUE,,TRUE,TRUE,,,,,,FEW,4300,BKN,5500,OVC,7000,,,VFR,,,,,,,,,,,,SPECI,913.0
KMRH 221458Z AUTO 32013G22KT 10SM CLR 09/M01 A3004 RMK AO2 SLP174 T00891011 50005,KMRH,2018-03-22T14:58:00Z,34.73,-76.65,8.9,-1.1,320,13,22,10.0,30.041338,1017.4,,TRUE,TRUE,,,,,,,CLR,,,,,,,,VFR,0.5,,,,,,,,,,,METAR,3.0
KMEI 221458Z 00000KT 10SM CLR 12/03 A3040 RMK AO2 SLP293 T01220028 53016,KMEI,2018-03-22T14:58:00Z,32.33,-88.75,12.2,2.8,0,0,,10.0,30.398623,1029.3,,,TRUE,,,,,,,CLR,,,,,,,,VFR,1.6,,,,,,,,,,,METAR,89.0
KT70 221458Z AUTO 19010KT 8SM FEW014 18/13 A3018 RMK AO2 SLP212 T01800126 52013,KT70,2018-03-22T14:58:00Z,29.12,-100.48,18.0,12.6,190,10,,8.0,30.180119,1021.2,,TRUE,TRUE,,,,,,,FEW,1400,,,,,,,VFR,1.3,,,,,,,,,,,METAR,298.0
K1OW 221458Z AUTO 22003KT 10SM BKN120 11/M06 A3010 RMK AO2 SLP169 T01141059 51006 PWINO $,K1OW,2018-03-22T14:58:00Z,,,11.4,-5.9,220,3,,10.0,30.100393,1016.9,,TRUE,TRUE,TRUE,,,,TRUE,,BKN,12000,,,,,,,VFR,0.6,,,,,,,,,,,METAR,
KRIV 221458Z 08004KT 10SM VCSH FEW050 SCT100 BKN200 15/15 A3001 RMK AO2A SLP156 60000 T01540146 52020,KRIV,2018-03-22T14:58:00Z,33.87,-117.27,15.4,14.6,80,4,,10.0,30.008858,1015.6,,,TRUE,,,,,,VCSH,FEW,5000,SCT,10000,BKN,20000,,,VFR,2.0,,,,,,0.005,,,,,METAR,469.0
KLUF 221458Z AUTO 00000KT 10SM CLR 18/02 A3002 RMK AO2 SLP158 T01760015 52015 $,KLUF,2018-03-22T14:58:00Z,33.52,-112.37,17.6,1.5,0,0,,10.0,30.02067,1015.8,,TRUE,TRUE,TRUE,,,,,,CLR,,,,,,,,VFR,1.5,,,,,,,,,,,METAR,332.0
KDMA 221458Z AUTO 16009KT 10SM CLR 18/M02 A3011 RMK AO2 SLP167 T01801018 52014 $,KDMA,2018-03-22T14:58:00Z,32.17,-110.87,18.0,-1.8,160,9,,10.0,30.109253,1016.7,,TRUE,TRUE,TRUE,,,,,,CLR,,,,,,,,VFR,1.4,,,,,,,,,,,METAR,824.0
KCWN 221458Z AUTO 00000KT 10SM CLR 12/M07 A3014 RMK AO2 SLP070 T01201072 52011 $,KCWN,2018-03-22T14:58:00Z,38.75,-104.85,12.0,-7.2,0,0,,10.0,30.138779,1007.0,,TRUE,TRUE,TRUE,,,,,,CLR,,,,,,,,VFR,1.1,,,,,,,,,,,METAR,2040.0
KCVS 221458Z AUTO 28012KT 10SM CLR 17/M04 A3016 RMK AO2 SLP178 T01701043 52013 $,KCVS,2018-03-22T14:58:00Z,34.37,-103.32,17.0,-4.3,280,12,,10.0,30.159449,1017.8,,TRUE,TRUE,TRUE,,,,,,CLR,,,,,,,,VFR,1.3,,,,,,,,,,,METAR,1309.0
K4MR 221458Z AUTO 28008KT 10SM CLR 17/M03 A3017 RMK AO2 SLP177 T01691034 52017 $,K4MR,2018-03-22T14:58:00Z,34.3,-103.8,16.9,-3.4,280,8,,10.0,30.171259,1017.7,,TRUE,TRUE,TRUE,,,,,,CLR,,,,,,,,VFR,1.7,,,,,,,,,,,METAR,1326.0
K0J4 221458Z AUTO 01008KT 10SM CLR 11/M01 A3038 RMK AO2 SLP286 T01111011 50012 $,K0J4,2018-03-22T14:58:00Z,31.05,-86.32,11.1,-1.1,10,8,,10.0,30.380905,1028.6,,TRUE,TRUE,TRUE,,,,,,CLR,,,,,,,,VFR,1.2,,,,,,,,,,,METAR,96.0
KNKT 221458Z 29014G20KT 7SM SCT041 09/M01 A3006 RMK SLP175 T00891006 51008,KNKT,2018-03-22T14:58:00Z,34.9,-76.88,8.9,-0.6,290,14,20,7.0,30.059055,1017.5,,,,,,,,,,SCT,4100,,,,,,,VFR,0.8,,,,,,,,,,,METAR,9.0
KFCS 221458Z AUTO 36004KT 10SM CLR 11/M06 A3014 RMK AO2 SLP199 T01111063 52011 $,KFCS,2018-03-22T14:58:00Z,38.67,-104.77,11.1,-6.3,360,4,,10.0,30.138779,1019.9,,TRUE,TRUE,TRUE,,,,,,CLR,,,,,,,,VFR,1.1,,,,,,,,,,,METAR,1789.0
KBIF 221458Z AUTO 00000KT 9SM CLR 16/M02 A3019 RMK AO2 SLP171 T01621024 52019 $,KBIF,2018-03-22T14:58:00Z,31.85,-106.38,16.2,-2.4,0,0,,9.0,30.188976,1017.1,,TRUE,TRUE,TRUE,,,,,,CLR,,,,,,,,VFR,1.9,,,,,,,,,,,METAR,1203.0
KROG 221458Z 15009KT 10SM CLR 10/01 A3031 RMK AO2 SLP265 T01000006 53009,KROG,2018-03-22T14:58:00Z,36.37,-94.08,10.0,0.6,150,9,,10.0,30.31004,1026.5,,,TRUE,,,,,,,CLR,,,,,,,,VFR,0.9,,,,,,,,,,,METAR,415.0
PWAK 221458Z AUTO 07015KT 9999 FEW036 OVC060 24/19 A2993 RMK AO2 RAB22E31 SLP142 58004,PWAK,2018-03-22T14:58:00Z,19.28,166.65,24.0,19.0,70,15,,6.21,29.929134,1014.2,,TRUE,TRUE,,,,,,,FEW,3600,OVC,6000,,,,,VFR,-0.4,,,,,,,,,,,METAR,4.0
PAFR 221458Z AUTO 00000KT 10SM CLR M09/M15 A3019 RMK AO2 SLP235 T10891153 57008,PAFR,2018-03-22T14:58:00Z,61.27,-149.65,-8.9,-15.3,0,0,,10.0,30.188976,1023.5,,TRUE,TRUE,,,,,,,CLR,,,,,,,,VFR,-0.8,,,,,,,,,,,METAR,115.0
PAFB 221458Z AUTO 00000KT 10SM CLR M22/M24 A3056 RMK AO2 SLP364 T12161239 57013,PAFB,2018-03-22T14:58:00Z,64.83,-147.62,-21.6,-23.9,0,0,,10.0,30.561024,1036.4,,TRUE,TRUE,,,,,,,CLR,,,,,,,,VFR,-1.3,,,,,,,,,,,METAR,137.0
KGOV 221458Z AUTO 33007KT 10SM CLR M01/M09 A3024 RMK AO2 SLP262 T10111092 51007 $,KGOV,2018-03-22T14:58:00Z,44.68,-84.73,-1.1,-9.2,330,7,,10.0,30.239174,1026.2,,TRUE,TRUE,TRUE,,,,,,CLR,,,,,,,,VFR,0.7,,,,,,,,,,,METAR,353.0
KFEW 221458Z AUTO 24004KT 10SM OVC095 08/M01 A3013 RMK AO2 SLP188 T00831012 50006 $,KFEW,2018-03-22T14:58:00Z,41.13,-104.87,8.3,-1.2,240,4,,10.0,30.129921,1018.8,,TRUE,TRUE,TRUE,,,,,,OVC,9500,,,,,,,VFR,0.6,,,,,,,,,,,METAR,1878.0
KHMN 221458Z AUTO 14006KT 10SM CLR 14/M03 A3022 RMK AO2 SLP185 T01401033 52019 $,KHMN,2018-03-22T14:58:00Z,32.85,-106.08,14.0,-3.3,140,6,,10.0,30.221457,1018.5,,TRUE,TRUE,TRUE,,,,,,CLR,,,,,,,,VFR,1.9,,,,,,,,,,,SPECI,1248.0
KGFA 221458Z AUTO 02007KT 10SM SCT080 BKN100 M01/M02 A2988 RMK AO2 SLP149 T10101017 56006 $,KGFA,2018-03-22T14:58:00Z,47.5,-111.17,-1.0,-1.7,20,7,,10.0,29.878937,1014.9,,TRUE,TRUE,TRUE,,,,,,SCT,8000,BKN,10000,,,,,VFR,-0.6,,,,,,,,,,,SPECI,1075.0
PAJC 221457Z AUTO 13003KT 10SM CLR M02/M07 RMK AO2 SLPNO T10171067 FZRANO $,PAJC,2018-03-22T14:57:00Z,56.32,-158.37,-1.7,-6.7,130,3,,10.0,,,,TRUE,TRUE,TRUE,,,TRUE,,,CLR,,,,,,,,VFR,,,,,,,,,,,,METAR,15.0
KLKV 221457Z AUTO 16021G33KT 10SM FEW022 BKN070 OVC085 04/02 A2960 RMK AO2 PK WND 15029/1457,KLKV,2018-03-22T14:57:00Z,42.17,-120.4,4.0,2.0,160,21,33,10.0,29.601377,,,TRUE,TRUE,,,,,,,FEW,2200,BKN,7000,OVC,8500,,,VFR,,,,,,,,,,,,METAR,1441.0
EQYG 221457Z AUTO 30008KT 5SM HZ OVC027 18/ A2952 RMK AO2 SLP990 T0178 53007 $ ,EQYG,2018-03-22T14:57:00Z,,,17.8,,300,8,,5.0,29.518702,999.0,,TRUE,TRUE,TRUE,,,,,HZ,OVC,2700,,,,,,,MVFR,0.7,,,,,,,,,,,METAR,
KMIB 221457Z 12003KT 1/8SM R30/1200V1400FT FZFG VV001 M05/M06 A3027 RMK SLP281 T10511057 52016 $,KMIB,2018-03-22T14:57:00Z,48.42,-101.33,-5.1,-5.7,120,3,,0.13,30.268702,1028.1,,,,TRUE,,,,,FZFG,OVX,0,,,,,,,LIFR,1.6,,,,,,,,,,100,METAR,508.0
KDOV 221457Z 29013KT 10SM SCT047 03/M03 A2991 RMK AO2A SLP132 T00321033 50012 $,KDOV,2018-03-22T14:57:00Z,39.12,-75.47,3.2,-3.3,290,13,,10.0,29.911417,1013.2,,,TRUE,TRUE,,,,,,SCT,4700,,,,,,,VFR,1.2,,,,,,,,,,,SPECI,9.0
KNYL 221457Z 04006KT 7SM BKN100 OVC200 19/03 A2995 RMK AO2 SLP141 T01940028 53006,KNYL,2018-03-22T14:57:00Z,32.63,-114.62,19.4,2.8,40,6,,7.0,29.949802,1014.1,,,TRUE,,,,,,,BKN,10000,OVC,20000,,,,,VFR,0.6,,,,,,,,,,,METAR,65.0
KNJM 221457Z AUTO 29008G19KT 260V330 10SM BKN041 08/M01 A3007 RMK AO2 SLP185 T00781006 51009 $,KNJM,2018-03-22T14:57:00Z,34.67,-77.02,7.8,-0.6,290,8,19,10.0,30.070866,1018.5,,TRUE,TRUE,TRUE,,,,,,BKN,4100,,,,,,,VFR,0.9,,,,,,,,,,,METAR,7.0
KFLG 221457Z 25003KT 10SM CLR 08/M03 A3026 RMK AO2 SLP198 T00781028 53005,KFLG,2018-03-22T14:57:00Z,35.13,-111.67,7.8,-2.8,250,3,,10.0,30.259842,1019.8,,,TRUE,,,,,,,CLR,,,,,,,,VFR,0.5,,,,,,,,,,,METAR,2134.0
PHNG 221457Z AUTO 09010G21KT 10SM FEW024 BKN048 OVC055 A2996 RMK AO2 RAE28 SLP142 P0000 60000 55000 $,PHNG,2018-03-22T14:57:00Z,21.43,-157.77,,,90,10,21,10.0,29.958662,1014.2,,TRUE,TRUE,TRUE,,,,,,FEW,2400,BKN,4800,OVC,5500,,,VFR,0.0,,,,,0.005,0.005,,,,,METAR,3.0
KSKF 221456Z AUTO 13008KT 10SM BKN029 18/14 A3026 RMK AO2 SLP244 T01790138 52018 $,KSKF,2018-03-22T14:56:00Z,29.37,-98.57,17.9,13.8,130,8,,10.0,30.259842,1024.4,,TRUE,TRUE,TRUE,,,,,,BKN,2900,,,,,,,MVFR,1.8,,,,,,,,,,,METAR,210.0
PAEI 221456Z 00000KT 8SM CLR M24/M27 A3053 RMK AO2A SLP357 T12371267 57014 VISNO RWY32 $,PAEI,2018-03-22T14:56:00Z,64.67,-147.1,-23.7,-26.7,0,0,,8.0,30.528543,1035.7,,,TRUE,TRUE,,,,,,CLR,,,,,,,,VFR,-1.4,,,,,,,,,,,METAR,167.0
PAED 221456Z AUTO 32011G18KT 10SM CLR M07/M16 A3021 RMK AO2 SLP228 T10701159 57015,PAED,2018-03-22T14:56:00Z,61.25,-149.8,-7.0,-15.9,320,11,18,10.0,30.209646,1022.8,,TRUE,TRUE,,,,,,,CLR,,,,,,,,VFR,-1.5,,,,,,,,,,,METAR,59.0
KSVN 221456Z AUTO 33008G15KT 10SM CLR 11/M02 A3018 RMK AO2 SLP223 T01061024 $,KSVN,2018-03-22T14:56:00Z,32.02,-81.15,10.6,-2.4,330,8,15,10.0,30.180119,1022.3,,TRUE,TRUE,TRUE,,,,,,CLR,,,,,,,,VFR,,,,,,,,,,,,METAR,13.0
PGUA 221456Z 07013KT 10SM SCT013 BKN019 26/23 A2980 RMK AO2A SLP082 T02600234 58007 CHINO RWY24L $,PGUA,2018-03-22T14:56:00Z,13.57,144.92,26.0,23.4,70,13,,10.0,29.799213,1008.2,,,TRUE,TRUE,,,,,,SCT,1300,BKN,1900,,,,,MVFR,-0.7,,,,,,,,,,,METAR,187.0
K79J 221456Z AUTO 35009KT 10SM CLR 13/M02 A3035 RMK AO2 SLP277 T01281017 51014,K79J,2018-03-22T14:56:00Z,31.32,-86.4,12.8,-1.7,350,9,,10.0,30.351377,1027.7,,TRUE,TRUE,,,,,,,CLR,,,,,,,,VFR,1.4,,,,,,,,,,,METAR,94.0
KNDZ 221456Z 36010KT 10SM FEW250 12/00 A3037 RMK AO2 SLP272 T01220000 51013 $,KNDZ,2018-03-22T14:56:00Z,30.7,-87.02,12.2,0.0,360,10,,10.0,30.369095,1027.2,,,TRUE,TRUE,,,,,,FEW,25000,,,,,,,VFR,1.3,,,,,,,,,,,METAR,54.0
KNMM 221456Z 04005KT 10SM CLR 13/02 A3040 RMK AO2 SLP307 T01280017 53017 $,KNMM,2018-03-22T14:56:00Z,32.53,-88.57,12.8,1.7,40,5,,10.0,30.398623,1030.7,,,TRUE,TRUE,,,,,,CLR,,,,,,,,VFR,1.7,,,,,,,,,,,METAR,97.0
KNSE 221456Z 01007KT 320V040 10SM CLR 12/00 A3037 RMK AO2 SLP272 T01170000 $,KNSE,2018-03-22T14:56:00Z,30.73,-87.02,11.7,0.0,10,7,,10.0,30.369095,1027.2,,,TRUE,TRUE,,,,,,CLR,,,,,,,,VFR,,,,,,,,,,,,METAR,61.0
KNPA 221456Z 02011KT 10SM FEW250 13/M02 A3037 RMK AO2 SLP285 T01331017 51015,KNPA,2018-03-22T14:56:00Z,30.35,-87.32,13.3,-1.7,20,11,,10.0,30.369095,1028.5,,,TRUE,,,,,,,FEW,25000,,,,,,,VFR,1.5,,,,,,,,,,,METAR,9.0
KNUW 221456Z 16003KT 7SM -RA FEW015 BKN022 OVC043 08/06 A2949 RMK AO2 SLP986 P0004 60005 T00830061 55001 $,KNUW,2018-03-22T14:56:00Z,48.35,-122.65,8.3,6.1,160,3,,7.0,29.489174,998.6,,,TRUE,TRUE,,,,,-RA,FEW,1500,BKN,2200,OVC,4300,,,MVFR,-0.1,,,,,0.04,0.05,,,,,METAR,14.0
KNCA 221456Z 33015G21KT 10SM BKN030 09/M01 A3007 RMK AO2 SLP186 T00891006 51008,KNCA,2018-03-22T14:56:00Z,34.72,-77.45,8.9,-0.6,330,15,21,10.0,30.070866,1018.6,,,TRUE,,,,,,,BKN,3000,,,,,,,MVFR,0.8,,,,,,,,,,,METAR,8.0
KNTU 221456Z 33017KT 10SM BKN060 06/M02 A2999 RMK AO2 SLP157 T00561022 51019,KNTU,2018-03-22T14:56:00Z,36.82,-76.02,5.6,-2.2,330,17,,10.0,29.991142,1015.7,,,TRUE,,,,,,,BKN,6000,,,,,,,VFR,1.9,,,,,,,,,,,METAR,7.0
KNXP 221456Z AUTO 25004KT 10SM OVC100 14/07 A3005 RMK AO2 SLP151 T01440067 52009,KNXP,2018-03-22T14:56:00Z,34.28,-116.17,14.4,6.7,250,4,,10.0,30.050198,1015.1,,TRUE,TRUE,,,,,,,OVC,10000,,,,,,,VFR,0.9,,,,,,,,,,,SPECI,626.0
PHBK 221456Z AUTO 00000KT 8SM RA OVC042 20/20 A2994 RMK AO2 SLP139 P0002 60005 T02000200 55003 $,PHBK,2018-03-22T14:56:00Z,22.03,-159.78,20.0,20.0,0,0,,8.0,29.940945,1013.9,,TRUE,TRUE,TRUE,,,,,RA,OVC,4200,,,,,,,VFR,-0.3,,,,,0.02,0.05,,,,,METAR,8.0
KALK 221456Z AUTO 00000KT 10SM CLR 16/M04 A3024 RMK AO2 SLP167 T01611039 53015,KALK,2018-03-22T14:56:00Z,31.6,-110.43,16.1,-3.9,0,0,,10.0,30.239174,1016.7,,TRUE,TRUE,,,,,,,CLR,,,,,,,,VFR,1.5,,,,,,,,,,,METAR,1453.0
KNRS 221456Z 22006KT 6SM BR FEW080 BKN120 BKN200 14/13 A3006 RMK AO2 SLP179 T01440128 53033 PNO $,KNRS,2018-03-22T14:56:00Z,32.57,-117.12,14.4,12.8,220,6,,6.0,30.059055,1017.9,,,TRUE,TRUE,,,,,BR,FEW,8000,BKN,12000,BKN,20000,,,VFR,3.3,,,,,,,,,,,METAR,7.0
KWRI 221456Z AUTO 30017G20KT 10SM CLR 03/M05 A2981 RMK AO2 SLP096 T00271047 52012 $,KWRI,2018-03-22T14:56:00Z,40.02,-74.58,2.7,-4.7,300,17,20,10.0,29.811024,1009.6,,TRUE,TRUE,TRUE,,,,,,CLR,,,,,,,,VFR,1.2,,,,,,,,,,,METAR,41.0
KTTS 221456Z AUTO 31013KT 10SM CLR 14/M02 A3022 RMK AO2 SLP238 T01391017 51012 $,KTTS,2018-03-22T14:56:00Z,28.62,-80.72,13.9,-1.7,310,13,,10.0,30.221457,1023.8,,TRUE,TRUE,TRUE,,,,,,CLR,,,,,,,,VFR,1.2,,,,,,,,,,,METAR,3.0
KPOB 221456Z AUTO 34010KT 10SM CLR 08/M04 A3011 RMK AO2 SLP200 T00751043 51013 $,KPOB,2018-03-22T14:56:00Z,35.17,-79.02,7.5,-4.3,340,10,,10.0,30.109253,1020.0,,TRUE,TRUE,TRUE,,,,,,CLR,,,,,,,,VFR,1.3,,,,,,,,,,,METAR,66.0
KOFF 221456Z AUTO 12010KT 10SM SCT095 07/01 A3022 RMK AO2 SLP243 T00690010 53003 $,KOFF,2018-03-22T14:56:00Z,41.12,-95.92,6.9,1.0,120,10,,10.0,30.221457,1024.3,,TRUE,TRUE,TRUE,,,,,,SCT,9500,,,,,,,VFR,0.3,,,,,,,,,,,METAR,319.0
KMTC 221456Z 33011KT 10SM SCT200 02/M07 A3022 RMK AO2A SLP244 T00171071 51012,KMTC,2018-03-22T14:56:00Z,42.62,-82.82,1.7,-7.1,330,11,,10.0,30.221457,1024.4,,,TRUE,,,,,,,SCT,20000,,,,,,,VFR,1.2,,,,,,,,,,,METAR,177.0
KGUS 221456Z AUTO 35011KT 10SM CLR 02/M05 A3030 RMK AO2 SLP272 T00191046 52014 RVRNO $,KGUS,2018-03-22T14:56:00Z,40.63,-86.15,1.9,-4.6,350,11,,10.0,30.301182,1027.2,,TRUE,TRUE,TRUE,,,,,,CLR,,,,,,,,VFR,1.4,,,,,,,,,,,METAR,247.0
KFRI 221456Z AUTO 16009KT 10SM OVC130 10/02 A3019 RMK AO2 SLP224 T00960015 50004,KFRI,2018-03-22T14:56:00Z,39.03,-96.77,9.6,1.5,160,9,,10.0,30.188976,1022.4,,TRUE,TRUE,,,,,,,OVC,13000,,,,,,,VFR,0.4,,,,,,,,,,,METAR,325.0
KDAA 221456Z AUTO 32012G23KT 10SM CLR 04/M06 A3001 RMK AO2 PK WND 32026/17 SLP166 T00421061 52020 $,KDAA,2018-03-22T14:56:00Z,38.72,-77.17,4.2,-6.1,320,12,23,10.0,30.008858,1016.6,,TRUE,TRUE,TRUE,,,,,,CLR,,,,,,,,VFR,2.0,,,,,,,,,,,METAR,21.0
KBLV 221456Z AUTO 00000KT 10SM CLR 07/M02 A3038 RMK AO2 SLP294 T00691018 52019 $,KBLV,2018-03-22T14:56:00Z,38.53,-89.83,6.9,-1.8,0,0,,10.0,30.380905,1029.4,,TRUE,TRUE,TRUE,,,,,,CLR,,,,,,,,VFR,1.9,,,,,,,,,,,METAR,138.0
KNBC 221456Z 31010KT 10SM CLR 10/M01 A3020 RMK AO2 SLP226 T01001006 51009 $,KNBC,2018-03-22T14:56:00Z,32.47,-80.72,10.0,-0.6,310,10,,10.0,30.200787,1022.6,,,TRUE,TRUE,,,,,,CLR,,,,,,,,VFR,0.9,,,,,,,,,,,METAR,12.0
KNYG 221456Z 34013G18KT 10SM SCT140 BKN250 05/M04 A3004 RMK AO2 PK WND 36026/1430 SLP175 WND WRNG T00501044 51022,KNYG,2018-03-22T14:56:00Z,38.5,-77.28,5.0,-4.4,340,13,18,10.0,30.041338,1017.5,,,TRUE,,,,,,,SCT,14000,BKN,25000,,,,,VFR,2.2,,,,,,,,,,,METAR,4.0
KNID 221456Z 17010KT 10SM -RA FEW024 BKN041 OVC060 14/12 A2996 RMK AO2 RAB03 SLP141 P0000 60000 T01390122 53008 $,KNID,2018-03-22T14:56:00Z,35.67,-117.67,13.9,12.2,170,10,,10.0,29.958662,1014.1,,,TRUE,TRUE,,,,,-RA,FEW,2400,BKN,4100,OVC,6000,,,VFR,0.8,,,,,0.005,0.005,,,,,METAR,696.0
KNLC 221456Z 15015KT 10SM -RA SCT065 OVC090 16/14 A2986 RMK AO2 SLP109 RH/90 P0002 60035 T01610144 51015,KNLC,2018-03-22T14:56:00Z,36.32,-119.95,16.1,14.4,150,15,,10.0,29.861221,1010.9,,,TRUE,,,,,,-RA,SCT,6500,OVC,9000,,,,,VFR,1.5,,,,,0.02,0.35,,,,,METAR,72.0
KLRF 221456Z AUTO 08003KT 10SM FEW150 11/02 A3039 RMK AO2 SLP295 T01100020 52018,KLRF,2018-03-22T14:56:00Z,34.92,-92.15,11.0,2.0,80,3,,10.0,30.389763,1029.5,,TRUE,TRUE,,,,,,,FEW,15000,,,,,,,VFR,1.8,,,,,,,,,,,METAR,95.0
KHST 221456Z AUTO 35014KT 10SM CLR 18/03 A3021 RMK AO2 SLP233 T01840031 52014,KHST,2018-03-22T14:56:00Z,25.47,-80.37,18.4,3.1,350,14,,10.0,30.209646,1023.3,,TRUE,TRUE,,,,,,,CLR,,,,,,,,VFR,1.4,,,,,,,,,,,METAR,2.0
KHOP 221456Z AUTO 33006KT 10SM CLR 06/M03 A3038 RMK AO2 SLP293 T00621035 52023,KHOP,2018-03-22T14:56:00Z,36.67,-87.5,6.2,-3.5,330,6,,10.0,30.380905,1029.3,,TRUE,TRUE,,,,,,,CLR,,,,,,,,VFR,2.3,,,,,,,,,,,METAR,174.0
KHFF 221456Z AUTO 32013KT 10SM CLR 08/M06 A3012 RMK AO2 SLP217 T00751063 51012 $,KHFF,2018-03-22T14:56:00Z,35.02,-79.5,7.5,-6.3,320,13,,10.0,30.121063,1021.7,,TRUE,TRUE,TRUE,,,,,,CLR,,,,,,,,VFR,1.2,,,,,,,,,,,METAR,115.0
KDYS 221456Z AUTO 18015G22KT 10SM CLR 18/07 A3015 RMK AO2 PK WND 17028/33 SLP184 T01760068 52009 $,KDYS,2018-03-22T14:56:00Z,32.42,-99.83,17.6,6.8,180,15,22,10.0,30.15059,1018.4,,TRUE,TRUE,TRUE,,,,,,CLR,,,,,,,,VFR,0.9,,,,,,,,,,,METAR,545.0
KGNR 221456Z AUTO 34012G21KT M03/M08 A2973 RMK AO1 SLP087 T10331083 56008,KGNR,2018-03-22T14:56:00Z,45.47,-69.55,-3.3,-8.3,340,12,21,,29.731298,1008.7,,TRUE,TRUE,,,,,,,,,,,,,,,,-0.8,,,,,,,,,,,METAR,427.0
KISO 221456Z 33014G21KT 10SM CLR 08/M02 A3008 RMK AO2,KISO,2018-03-22T14:56:00Z,35.32,-77.62,8.0,-2.0,330,14,21,10.0,30.079725,,,,TRUE,,,,,,,CLR,,,,,,,,VFR,,,,,,,,,,,,METAR,29.0
KNFE 221456Z AUTO 33011G17KT 290V360 10SM SCT070 08/M03 A3000 RMK AO2 SLP160 T00781028 51018,KNFE,2018-03-22T14:56:00Z,36.7,-76.13,7.8,-2.8,330,11,17,10.0,30.0,1016.0,,TRUE,TRUE,,,,,,,SCT,7000,,,,,,,VFR,1.8,,,,,,,,,,,METAR,5.0
KNGP 221456Z 12011KT 10SM FEW035 BKN075 23/16 A3028 RMK AO2 SLP252 T02330161 53026 $,KNGP,2018-03-22T14:56:00Z,27.68,-97.27,23.3,16.1,120,11,,10.0,30.280512,1025.2,,,TRUE,TRUE,,,,,,FEW,3500,BKN,7500,,,,,VFR,2.6,,,,,,,,,,,METAR,6.0
KD07 221456Z AUTO 12011KT 02/M01 A3013 RMK AO1 SLP227 T00171011 50010,KD07,2018-03-22T14:56:00Z,45.03,-102.02,1.7,-1.1,120,11,,,30.129921,1022.7,,TRUE,TRUE,,,,,,,,,,,,,,,,1.0,,,,,,,,,,,METAR,784.0
KPRN 221456Z AUTO 01014G20KT 10SM CLR 11/M04 A3035 RMK AO2 SLP277 T01111039 52017,KPRN,2018-03-22T14:56:00Z,31.85,-86.62,11.1,-3.9,10,14,20,10.0,30.351377,1027.7,,TRUE,TRUE,,,,,,,CLR,,,,,,,,VFR,1.7,,,,,,,,,,,METAR,138.0
KNQI 221456Z 13010KT 10SM SCT035 BKN080 OVC250 23/17 A3027 RMK AO2 SLP246 T02280172 53022,KNQI,2018-03-22T14:56:00Z,27.5,-97.82,22.8,17.2,130,10,,10.0,30.268702,1024.6,,,TRUE,,,,,,,SCT,3500,BKN,8000,OVC,25000,,,VFR,2.2,,,,,,,,,,,SPECI,15.0
KQBF 221456Z AUTO 00000KT 9999 FEW065 36/15 A2980 RMK AO2 SLPNO WND DATA ESTMD T03570154 57027,KQBF,2018-03-22T14:56:00Z,,,35.7,15.4,0,0,,6.21,29.799213,,,TRUE,TRUE,,,,,,,FEW,6500,,,,,,,VFR,-2.7,,,,,,,,,,,METAR,
KQND 221456Z AUTO 00000KT 9999 CLR 43/00 A2970 RMK AO2 SLPNO WND DATA ESTMD T04260002 57023,KQND,2018-03-22T14:56:00Z,,,42.6,0.2,0,0,,6.21,29.698818,,,TRUE,TRUE,,,,,,,CLR,,,,,,,,VFR,-2.3,,,,,,,,,,,METAR,
KQRH 221456Z AUTO VRB05KT 9999 CLR 29/17 A2983 RMK AO2 SLP088 WND DATA ESTMD T02910168 55003,KQRH,2018-03-22T14:56:00Z,,,29.1,16.8,0,5,,6.21,29.828741,1008.8,,TRUE,TRUE,,,,,,,CLR,,,,,,,,VFR,-0.3,,,,,,,,,,,METAR,
KOFK 221456Z AUTO 14009KT 10SM SCT110 06/02 A3014 RMK AO2 SLP215 T00610017 53007,KOFK,2018-03-22T14:56:00Z,41.98,-97.43,6.1,1.7,140,9,,10.0,30.138779,1021.5,,TRUE,TRUE,,,,,,,SCT,11000,,,,,,,VFR,0.7,,,,,,,,,,,METAR,470.0
KNUQ 221456Z 14006KT 3SM RA BR FEW024 OVC031 14/14 A2977 RMK AO2 SLP082 P0006 60020 T01440139 53009,KNUQ,2018-03-22T14:56:00Z,37.4,-122.05,14.4,13.9,140,6,,3.0,29.769686,1008.2,,,TRUE,,,,,,RA BR,FEW,2400,OVC,3100,,,,,MVFR,0.9,,,,,0.06,0.2,,,,,METAR,12.0
KMEH 221456Z AUTO 00000KT 9SM -RA OVC041 06/05 A2958 RMK AO2 SLP019 P0006 60006 T00610050 58002,KMEH,2018-03-22T14:56:00Z,45.52,-118.42,6.1,5.0,0,0,,9.0,29.58071,1001.9,,TRUE,TRUE,,,,,,-RA,OVC,4100,,,,,,,VFR,-0.2,,,,,0.06,0.06,,,,,METAR,1136.0
KQVF 221456Z AUTO 09007KT 040V160 9999 CLR 28/25 A2986 RMK AO2 SLPNO WND DATA ESTMD T02840246 55003,KQVF,2018-03-22T14:56:00Z,,,28.4,24.6,90,7,,6.21,29.861221,,,TRUE,TRUE,,,,,,,CLR,,,,,,,,VFR,-0.3,,,,,,,,,,,METAR,
KRDM 221456Z 15008KT 10SM CLR 07/04 A2945 RMK AO2 SLP967 T00720039 58017,KRDM,2018-03-22T14:56:00Z,44.25,-121.15,7.2,3.9,150,8,,10.0,29.450787,996.7,,,TRUE,,,,,,,CLR,,,,,,,,VFR,-1.7,,,,,,,,,,,METAR,938.0
KSBP 221456Z 17008KT 3SM RA BR BKN010 OVC014 16/14 A2990 RMK AO2 CIG 007V012 SLP122 P0008 60073 T01560139 51009,KSBP,2018-03-22T14:56:00Z,35.23,-120.63,15.6,13.9,170,8,,3.0,29.899607,1012.2,,,TRUE,,,,,,RA BR,BKN,1000,OVC,1400,,,,,MVFR,0.9,,,,,0.08,0.73,,,,,METAR,59.0
KSFO 221456Z 21020G28KT 9SM -RA FEW009 BKN020 OVC041 15/12 A2974 RMK AO2 PK WND 18030/1409 SLP069 P0006 60027 T01500122 53008,KSFO,2018-03-22T14:56:00Z,37.62,-122.37,15.0,12.2,210,20,28,9.0,29.740158,1006.9,,,TRUE,,,,,,-RA,FEW,900,BKN,2000,OVC,4100,,,MVFR,0.8,,,,,0.06,0.27,,,,,METAR,3.0
KSDF 221456Z 33006KT 10SM CLR 03/M07 A3034 RMK AO2 SLP278 T00281067 51021,KSDF,2018-03-22T14:56:00Z,38.18,-85.73,2.8,-6.7,330,6,,10.0,30.339567,1027.8,,,TRUE,,,,,,,CLR,,,,,,,,VFR,2.1,,,,,,,,,,,METAR,146.0
KEED 221456Z AUTO 28004KT 10SM CLR 21/08 A2997 RMK AO2 SLP125 60000 T02060083 52005 $,KEED,2018-03-22T14:56:00Z,34.77,-114.62,20.6,8.3,280,4,,10.0,29.970472,1012.5,,TRUE,TRUE,TRUE,,,,,,CLR,,,,,,,,VFR,0.5,,,,,,0.005,,,,,METAR,302.0
KEAU 221456Z 04004KT 10SM SCT075 M01/M06 A3037 RMK AO2 SLP296 T10061061 51015,KEAU,2018-03-22T14:56:00Z,44.87,-91.47,-0.6,-6.1,40,4,,10.0,30.369095,1029.6,,,TRUE,,,,,,,SCT,7500,,,,,,,VFR,1.5,,,,,,,,,,,METAR,276.0
KDUG 221456Z AUTO 00000KT 10SM CLR 13/M02 A3022 RMK AO2 SLP187 T01281022 53014,KDUG,2018-03-22T14:56:00Z,31.47,-109.58,12.8,-2.2,0,0,,10.0,30.221457,1018.7,,TRUE,TRUE,,,,,,,CLR,,,,,,,,VFR,1.4,,,,,,,,,,,METAR,1265.0
KDIK 221456Z AUTO 10006KT 5SM BR CLR M01/M02 A3013 RMK AO2 SLP233 I3000 T10061022 53012,KDIK,2018-03-22T14:56:00Z,46.8,-102.8,-0.6,-2.2,100,6,,5.0,30.129921,1023.3,,TRUE,TRUE,,,,,,BR,CLR,,,,,,,,MVFR,1.2,,,,,,,,,,,METAR,788.0
KDAY 221456Z 34007KT 10SM CLR M01/M04 A3028 RMK AO2 SLP263 T10111044 51018,KDAY,2018-03-22T14:56:00Z,39.9,-84.22,-1.1,-4.4,340,7,,10.0,30.280512,1026.3,,,TRUE,,,,,,,CLR,,,,,,,,VFR,1.8,,,,,,,,,,,METAR,305.0
KVPZ 221456Z AUTO 01013G17KT 10SM CLR 04/M08 A3033 RMK AO2 SLP279 T00391078 51016,KVPZ,2018-03-22T14:56:00Z,41.45,-87.0,3.9,-7.8,10,13,17,10.0,30.33071,1027.9,,TRUE,TRUE,,,,,,,CLR,,,,,,,,VFR,1.6,,,,,,,,,,,METAR,231.0
KUKI 221456Z AUTO 27007KT 10SM -RA FEW021 BKN046 OVC070 11/07 A2967 RMK AO2 RAB17 SLP044 P0007 60007 T01110072 53005,KUKI,2018-03-22T14:56:00Z,39.12,-123.2,11.1,7.2,270,7,,10.0,29.66929,1004.4,,TRUE,TRUE,,,,,,-RA,FEW,2100,BKN,4600,OVC,7000,,,VFR,0.5,,,,,0.07,0.07,,,,,METAR,187.0
KSLE 221456Z 23008KT 7SM -RA OVC036 06/04 A2960 RMK AO2 SLP022 P0005 60015 T00610039 53022,KSLE,2018-03-22T14:56:00Z,44.9,-123.0,6.1,3.9,230,8,,7.0,29.601377,1002.2,,,TRUE,,,,,,-RA,OVC,3600,,,,,,,VFR,2.2,,,,,0.05,0.15,,,,,METAR,59.0
KSHV 221456Z 14007KT 10SM SCT280 16/04 A3036 RMK AO2 SLP280 T01610039 51016,KSHV,2018-03-22T14:56:00Z,32.45,-93.83,16.1,3.9,140,7,,10.0,30.360237,1028.0,,,TRUE,,,,,,,SCT,28000,,,,,,,VFR,1.6,,,,,,,,,,,METAR,83.0
KEKO 221456Z AUTO 18011G14KT 10SM FEW050 OVC090 17/06 A2978 RMK AO2 SLP041 T01720061 56014,KEKO,2018-03-22T14:56:00Z,40.82,-115.78,17.2,6.1,180,11,14,10.0,29.778543,1004.1,,TRUE,TRUE,,,,,,,FEW,5000,OVC,9000,,,,,VFR,-1.4,,,,,,,,,,,METAR,1547.0
RJTY 221456Z AUTO 01007KT 10SM OVC065 10/04 M RMK AO2 SLPNO 60000 T00960044 401400043 FZRANO $,RJTY,2018-03-22T14:56:00Z,35.75,139.33,9.6,4.4,10,7,,10.0,,,,TRUE,TRUE,TRUE,,,TRUE,,,OVC,6500,,,,,,,VFR,,,,14.0,4.3,,0.005,,,,,METAR,139.0
K8D3 221456Z AUTO 15007KT M01/M01 A3030 RMK AO1 SLP281 T10061006 51017,K8D3,2018-03-22T14:56:00Z,45.67,-96.98,-0.6,-0.6,150,7,,,30.301182,1028.1,,TRUE,TRUE,,,,,,,,,,,,,,,,1.7,,,,,,,,,,,METAR,354.0
K2WX 221456Z AUTO 13006KT 01/M03 A3003 RMK AO1 SLP197 T00061033 51006,K2WX,2018-03-22T14:56:00Z,45.6,-103.55,0.6,-3.3,130,6,,,30.029528,1019.7,,TRUE,TRUE,,,,,,,,,,,,,,,,0.6,,,,,,,,,,,METAR,915.0
KTVF 221456Z AUTO 07006KT 9SM OVC008 01/M01 A3035 RMK AO2 SLP294 T00111006 53009 FZRANO,KTVF,2018-03-22T14:56:00Z,48.07,-96.17,1.1,-0.6,70,6,,9.0,30.351377,1029.4,,TRUE,TRUE,,,,TRUE,,,OVC,800,,,,,,,IFR,0.9,,,,,,,,,,,METAR,340.0
PAIG 221456Z AUTO 20003KT 10SM CLR M12/M13 A3029 RMK AO2 SLP269 T11171128 58029 FZRANO $,PAIG,2018-03-22T14:56:00Z,59.32,-155.9,-11.7,-12.8,200,3,,10.0,30.28937,1026.9,,TRUE,TRUE,TRUE,,,TRUE,,,CLR,,,,,,,,VFR,-2.9,,,,,,,,,,,METAR,28.0
PAHY 221456Z AUTO 10SM -RA OVC009 02/01 A2940 RMK AO2 CIG 005V013 SLP054 P0002 60004 T00220011 57008 FZRANO $,PAHY,2018-03-22T14:56:00Z,55.2,-132.83,2.2,1.1,,,,10.0,29.40059,1005.4,,TRUE,TRUE,TRUE,,,TRUE,,-RA,OVC,900,,,,,,,IFR,-0.8,,,,,0.02,0.04,,,,,METAR,1.0
KELZ 221456Z AUTO M01/M09 A2998 RMK AO2 SLP179 I3/// T10111089 51011 PWINO FZRANO $,KELZ,2018-03-22T14:56:00Z,42.1,-77.98,-1.1,-8.9,,,,,29.97933,1017.9,,TRUE,TRUE,TRUE,,,TRUE,TRUE,,,,,,,,,,,1.1,,,,,,,,,,,METAR,646.0
KFSD 221456Z 09007KT 10SM FEW250 04/00 A3022 RMK AO2 SLP247 T00390000 51008,KFSD,2018-03-22T14:56:00Z,43.58,-96.75,3.9,0.0,90,7,,10.0,30.221457,1024.7,,,TRUE,,,,,,,FEW,25000,,,,,,,VFR,0.8,,,,,,,,,,,METAR,436.0
KGON 221456Z 35012G20KT 10SM BKN018 OVC025 04/00 A2968 RMK AO2 RAE09 SLP052 P0000 60001 T00390000 51010,KGON,2018-03-22T14:56:00Z,41.33,-72.05,3.9,0.0,350,12,20,10.0,29.681103,1005.2,,,TRUE,,,,,,,BKN,1800,OVC,2500,,,,,MVFR,1.0,,,,,0.005,0.01,,,,,METAR,3.0
KY50 221456Z AUTO 00000KT 10SM CLR 00/M07 A3035 RMK AO2 SLP306 T00001067 51012,KY50,2018-03-22T14:56:00Z,44.03,-89.3,0.0,-6.7,0,0,,10.0,30.351377,1030.6,,TRUE,TRUE,,,,,,,CLR,,,,,,,,VFR,1.2,,,,,,,,,,,METAR,262.0
KWVL 221456Z AUTO 03014G21KT 4SM -SN SCT019 OVC028 M01/M05 A2969 RMK AO2 PK WND 03026/1424 SNB1359 SLP086 P0000 60000 T10111050 56005 FZRANO,KWVL,2018-03-22T14:56:00Z,44.52,-69.67,-1.1,-5.0,30,14,21,4.0,29.68996,1008.6,,TRUE,TRUE,,,,TRUE,,-SN,SCT,1900,OVC,2800,,,,,MVFR,-0.5,,,,,0.005,0.005,,,,,METAR,101.0
KVIS 221456Z AUTO 22008KT 6SM RA BR BKN033 OVC049 15/14 A2990 RMK AO2 SLP132 P0003 60013 T01500144 53029,KVIS,2018-03-22T14:56:00Z,36.32,-119.4,15.0,14.4,220,8,,6.0,29.899607,1013.2,,TRUE,TRUE,,,,,,RA BR,BKN,3300,OVC,4900,,,,,VFR,2.9,,,,,0.03,0.13,,,,,METAR,89.0
KVBT 221456Z AUTO 15006KT 9SM CLR 09/01 A3032 RMK AO2 SLP275 T00890011 53010,KVBT,2018-03-22T14:56:00Z,36.35,-94.22,8.9,1.1,150,6,,9.0,30.318897,1027.5,,TRUE,TRUE,,,,,,,CLR,,,,,,,,VFR,1.0,,,,,,,,,,,METAR,395.0
KASH 221456Z 34008KT 3SM -SN SCT027 OVC037 03/00 A2970 RMK AO2 SNB1359 SLP070 P0000 60004 T00280000 58003,KASH,2018-03-22T14:56:00Z,42.78,-71.52,2.8,0.0,340,8,,3.0,29.698818,1007.0,,,TRUE,,,,,,-SN,SCT,2700,OVC,3700,,,,,MVFR,-0.3,,,,,0.005,0.04,,,,,METAR,61.0
KARG 221456Z AUTO 09004KT 10SM CLR 07/01 A3041 RMK AO2 SLP301 T00670011 51018,KARG,2018-03-22T14:56:00Z,36.12,-90.92,6.7,1.1,90,4,,10.0,30.410433,1030.1,,TRUE,TRUE,,,,,,,CLR,,,,,,,,VFR,1.8,,,,,,,,,,,METAR,83.0
KAJO 221456Z AUTO 09004KT 10SM FEW070 BKN090 OVC110 16/14 A3002 RMK AO2 SLP174 60000 T01560139 53018 $,KAJO,2018-03-22T14:56:00Z,33.9,-117.6,15.6,13.9,90,4,,10.0,30.02067,1017.4,,TRUE,TRUE,TRUE,,,,,,FEW,7000,BKN,9000,OVC,11000,,,VFR,1.8,,,,,,0.005,,,,,METAR,163.0
KAIZ 221456Z AUTO 14004KT 10SM OVC090 04/01 A3036 RMK AO2 SLP286 T00390006 53010,KAIZ,2018-03-22T14:56:00Z,38.1,-92.53,3.9,0.6,140,4,,10.0,30.360237,1028.6,,TRUE,TRUE,,,,,,,OVC,9000,,,,,,,VFR,1.0,,,,,,,,,,,METAR,265.0
KHWV 221456Z AUTO 31010KT 10SM FEW029 OVC090 03/M01 A2975 RMK AO2 SLP073 60002 T00281011 51014,KHWV,2018-03-22T14:56:00Z,40.82,-72.87,2.8,-1.1,310,10,,10.0,29.749016,1007.3,,TRUE,TRUE,,,,,,,FEW,2900,OVC,9000,,,,,VFR,1.4,,,,,,0.02,,,,,METAR,21.0
KHPN 221456Z 33017G28KT 10SM CLR 04/M05 A2976 RMK AO2 PK WND 33028/1450 SLP083 T00391050 51009,KHPN,2018-03-22T14:56:00Z,41.07,-73.7,3.9,-5.0,330,17,28,10.0,29.760826,1008.3,,,TRUE,,,,,,,CLR,,,,,,,,VFR,0.9,,,,,,,,,,,METAR,121.0
KGRD 221456Z AUTO 32007KT 10SM CLR 07/M05 A3022 RMK AO2 SLP235 T00721050 50013,KGRD,2018-03-22T14:56:00Z,34.25,-82.15,7.2,-5.0,320,7,,10.0,30.221457,1023.5,,TRUE,TRUE,,,,,,,CLR,,,,,,,,VFR,1.3,,,,,,,,,,,METAR,185.0
PAIN 221456Z AUTO 00000KT 10SM CLR M28/M31 A3041 RMK AO2 SLP359 T12831311 56017 FZRANO,PAIN,2018-03-22T14:56:00Z,63.73,-148.92,-28.3,-31.1,0,0,,10.0,30.410433,1035.9,,TRUE,TRUE,,,,TRUE,,,CLR,,,,,,,,VFR,-1.7,,,,,,,,,,,METAR,524.0
PAIK 221456Z AUTO 10013G21KT 9SM -SN OVC038 M08/M11 A3040 RMK AO2 SLP302 P0000 60000 T10831111 56019 FZRANO,PAIK,2018-03-22T14:56:00Z,66.98,-160.43,-8.3,-11.1,100,13,21,9.0,30.398623,1030.2,,TRUE,TRUE,,,,TRUE,,-SN,OVC,3800,,,,,,,VFR,-1.9,,,,,0.005,0.005,,,,,METAR,51.0
KAND 221456Z AUTO 27006KT 10SM CLR 08/M05 A3021 RMK AO2 SLP231 T00781050 51011,KAND,2018-03-22T14:56:00Z,34.5,-82.72,7.8,-5.0,270,6,,10.0,30.209646,1023.1,,TRUE,TRUE,,,,,,,CLR,,,,,,,,VFR,1.1,,,,,,,,,,,METAR,239.0
KART 221456Z AUTO 04006KT 10SM CLR M01/M08 A3002 RMK AO2 SLP170 T10061083 51009 $,KART,2018-03-22T14:56:00Z,43.98,-76.03,-0.6,-8.3,40,6,,10.0,30.02067,1017.0,,TRUE,TRUE,TRUE,,,,,,CLR,,,,,,,,VFR,0.9,,,,,,,,,,,METAR,100.0
KBIH 221456Z AUTO 15021G27KT 5SM -RA BR FEW020 BKN044 OVC060 11/09 A2983 RMK AO2 PK WND 16027/1449 SLP078 P0006 60016 T01060089 53002,KBIH,2018-03-22T14:56:00Z,37.37,-118.35,10.6,8.9,150,21,27,5.0,29.828741,1007.8,,TRUE,TRUE,,,,,,-RA BR,FEW,2000,BKN,4400,OVC,6000,,,MVFR,0.2,,,,,0.06,0.16,,,,,METAR,1253.0
KBJJ 221456Z AUTO 33012KT 10SM CLR 00/M06 A3020 RMK AO2 SLP238 T00001056 51015,KBJJ,2018-03-22T14:56:00Z,40.87,-81.88,0.0,-5.6,330,12,,10.0,30.200787,1023.8,,TRUE,TRUE,,,,,,,CLR,,,,,,,,VFR,1.5,,,,,,,,,,,METAR,343.0
KBZN 221456Z 31003KT 10SM CLR 03/00 A2987 RMK AO2 SLP124 T00330000 58012,KBZN,2018-03-22T14:56:00Z,45.78,-111.17,3.3,0.0,310,3,,10.0,29.870079,1012.4,,,TRUE,,,,,,,CLR,,,,,,,,VFR,-1.2,,,,,,,,,,,METAR,1361.0
KCAE 221456Z 28009KT 10SM CLR 08/M03 A3019 RMK AO2 SLP225 T00831028 51017,KCAE,2018-03-22T14:56:00Z,33.93,-81.12,8.3,-2.8,280,9,,10.0,30.188976,1022.5,,,TRUE,,,,,,,CLR,,,,,,,,VFR,1.7,,,,,,,,,,,METAR,70.0
KCTB 221456Z AUTO 15004KT 10SM FEW070 M02/M04 A2988 RMK AO2 SLP150 T10221044 56004,KCTB,2018-03-22T14:56:00Z,48.6,-112.37,-2.2,-4.4,150,4,,10.0,29.878937,1015.0,,TRUE,TRUE,,,,,,,FEW,7000,,,,,,,VFR,-0.4,,,,,,,,,,,METAR,1175.0
KCHS 221456Z 32010KT 10SM CLR 11/M02 A3017 RMK AO2 SLP216 T01061022 50009,KCHS,2018-03-22T14:56:00Z,32.9,-80.03,10.6,-2.2,320,10,,10.0,30.171259,1021.6,,,TRUE,,,,,,,CLR,,,,,,,,VFR,0.9,,,,,,,,,,,METAR,13.0
KCXY 221456Z 32014KT 10SM CLR 04/M06 A2998 RMK AO2 SLP156 T00441056 51015,KCXY,2018-03-22T14:56:00Z,40.22,-76.85,4.4,-5.6,320,14,,10.0,29.97933,1015.6,,,TRUE,,,,,,,CLR,,,,,,,,VFR,1.5,,,,,,,,,,,METAR,106.0
KHYA 221456Z 01018G28KT 3SM -SN BR BKN007 OVC015 02/02 A2955 RMK AO2 PK WND 01030/1400 UPB1359E31RAB00E27SNE1359B31 SLP009 P0000 60001 T00170017 51010,KHYA,2018-03-22T14:56:00Z,41.67,-70.27,1.7,1.7,10,18,28,3.0,29.551182,1000.9,,,TRUE,,,,,,-SN BR,BKN,700,OVC,1500,,,,,IFR,1.0,,,,,0.005,0.01,,,,,METAR,22.0
KISP 221456Z 33011KT 10SM FEW030 FEW070 BKN090 OVC250 03/M02 A2974 RMK AO2 SLP072 60001 T00281022 51013,KISP,2018-03-22T14:56:00Z,40.8,-73.1,2.8,-2.2,330,11,,10.0,29.740158,1007.2,,,TRUE,,,,,,,FEW,3000,FEW,7000,BKN,9000,OVC,25000,VFR,1.3,,,,,,0.01,,,,,METAR,43.0
KINW 221456Z AUTO 11005KT 10SM CLR 12/M04 A3021 RMK AO2 SLP189 T01171044 51016,KINW,2018-03-22T14:56:00Z,35.03,-110.72,11.7,-4.4,110,5,,10.0,30.209646,1018.9,,TRUE,TRUE,,,,,,,CLR,,,,,,,,VFR,1.6,,,,,,,,,,,METAR,1490.0
KIGX 221456Z AUTO 30007G15KT 10SM CLR 06/M06 A3011 RMK AO2 SLP198 T00611056 51020,KIGX,2018-03-22T14:56:00Z,35.93,-79.07,6.1,-5.6,300,7,15,10.0,30.109253,1019.8,,TRUE,TRUE,,,,,,,CLR,,,,,,,,VFR,2.0,,,,,,,,,,,METAR,155.0
KMOB 221456Z 02008KT 10SM FEW005 13/01 A3039 RMK AO2 SLP290 FU FEW005 T01330006 51017,KMOB,2018-03-22T14:56:00Z,30.68,-88.25,13.3,0.6,20,8,,10.0,30.389763,1029.0,,,TRUE,,,,,,,FEW,500,,,,,,,VFR,1.7,,,,,,,,,,,METAR,63.0
KMDT 221456Z 31013KT 10SM BKN200 02/M06 A2997 RMK AO2 SLP152 T00221056 51013,KMDT,2018-03-22T14:56:00Z,40.2,-76.77,2.2,-5.6,310,13,,10.0,29.970472,1015.2,,,TRUE,,,,,,,BKN,20000,,,,,,,VFR,1.3,,,,,,,,,,,METAR,95.0
KLWS 221456Z 13004KT 10SM CLR 08/05 A2960 RMK AO2 SLP023 T00780050 56011,KLWS,2018-03-22T14:56:00Z,46.37,-117.02,7.8,5.0,130,4,,10.0,29.601377,1002.3,,,TRUE,,,,,,,CLR,,,,,,,,VFR,-1.1,,,,,,,,,,,METAR,438.0
KLNR 221456Z AUTO 26004KT 10SM CLR 02/M05 A3037 RMK AO2 SLP286 T00171050 51012,KLNR,2018-03-22T14:56:00Z,43.22,-90.18,1.7,-5.0,260,4,,10.0,30.369095,1028.6,,TRUE,TRUE,,,,,,,CLR,,,,,,,,VFR,1.2,,,,,,,,,,,METAR,217.0
KLAS 221456Z 27004KT 10SM -RA FEW065 BKN085 OVC140 16/13 A2998 RMK AO2 RAE10B41 SLP137 P0000 60001 T01610128 53006,KLAS,2018-03-22T14:56:00Z,36.07,-115.17,16.1,12.8,270,4,,10.0,29.97933,1013.7,,,TRUE,,,,,,-RA,FEW,6500,BKN,8500,OVC,14000,,,VFR,0.6,,,,,0.005,0.01,,,,,METAR,636.0
KJXN 221456Z 29010KT 10SM CLR 01/M12 A3026 RMK AO2 SLP257 T00111117 51012,KJXN,2018-03-22T14:56:00Z,42.27,-84.47,1.1,-11.7,290,10,,10.0,30.259842,1025.7,,,TRUE,,,,,,,CLR,,,,,,,,VFR,1.2,,,,,,,,,,,METAR,305.0
KJMS 221456Z AUTO 05005KT 7SM OVC013 00/M02 A3029 RMK AO2 SLP279 T00001017 51016,KJMS,2018-03-22T14:56:00Z,46.93,-98.67,0.0,-1.7,50,5,,7.0,30.28937,1027.9,,TRUE,TRUE,,,,,,,OVC,1300,,,,,,,MVFR,1.6,,,,,,,,,,,METAR,455.0
KJAX 221456Z 34007KT 10SM CLR 11/M02 A3024 RMK AO2 SLP239 T01061017 50015,KJAX,2018-03-22T14:56:00Z,30.5,-81.68,10.6,-1.7,340,7,,10.0,30.239174,1023.9,,,TRUE,,,,,,,CLR,,,,,,,,VFR,1.5,,,,,,,,,,,METAR,10.0
KWJF 221456Z 28003KT 10SM -RA FEW024 BKN065 OVC090 13/12 A2999 RMK AO2 SLP155 P0001 60006 T01280117 53002,KWJF,2018-03-22T14:56:00Z,34.72,-118.22,12.8,11.7,280,3,,10.0,29.991142,1015.5,,,TRUE,,,,,,-RA,FEW,2400,BKN,6500,OVC,9000,,,VFR,0.2,,,,,0.01,0.06,,,,,METAR,715.0
KP28 221456Z AUTO 16012G22KT 11/01 A3013 RMK AO1 SLP204 T01060006 58004,KP28,2018-03-22T14:56:00Z,37.28,-98.55,10.6,0.6,160,12,22,,30.129921,1020.4,,TRUE,TRUE,,,,,,,,,,,,,,,,-0.4,,,,,,,,,,,METAR,469.0
TJSJ 221456Z 09005KT 10SM FEW030 SCT038 SCT060 29/22 A3007 RMK AO2 SLP182 T02940217 50004,TJSJ,2018-03-22T14:56:00Z,18.43,-66.02,29.4,21.7,90,5,,10.0,30.070866,1018.2,,,TRUE,,,,,,,FEW,3000,SCT,3800,SCT,6000,,,VFR,0.4,,,,,,,,,,,METAR,21.0
KWMC 221456Z AUTO 21004KT 8SM -RA OVC044 08/06 A2972 RMK AO2 SLP047 P0002 60005 T00830061 55005,KWMC,2018-03-22T14:56:00Z,40.9,-117.8,8.3,6.1,210,4,,8.0,29.719488,1004.7,,TRUE,TRUE,,,,,,-RA,OVC,4400,,,,,,,VFR,-0.5,,,,,0.02,0.05,,,,,METAR,1310.0
KUDG 221456Z AUTO 31011KT 10SM CLR 08/M03 A3016 RMK AO2 SLP219 T00781033 50009,KUDG,2018-03-22T14:56:00Z,34.45,-79.88,7.8,-3.3,310,11,,10.0,30.159449,1021.9,,TRUE,TRUE,,,,,,,CLR,,,,,,,,VFR,0.9,,,,,,,,,,,METAR,59.0
KUCP 221456Z AUTO 32010KT 10SM CLR 00/M08 A3015 RMK AO2 SLP236 T00001078 53012,KUCP,2018-03-22T14:56:00Z,41.03,-80.42,0.0,-7.8,320,10,,10.0,30.15059,1023.6,,TRUE,TRUE,,,,,,,CLR,,,,,,,,VFR,1.2,,,,,,,,,,,METAR,327.0
KP53 221456Z AUTO 32011KT M03/M06 A3032 RMK AO1 SLP281 T10281061 53007,KP53,2018-03-22T14:56:00Z,46.42,-86.65,-2.8,-6.1,320,11,,,30.318897,1028.1,,TRUE,TRUE,,,,,,,,,,,,,,,,0.7,,,,,,,,,,,METAR,187.0
PFYU 221456Z 00000KT 5SM HZ CLR M27/M29 A3055 RMK AO2 SLP376 6//// T12671294 $,PFYU,2018-03-22T14:56:00Z,66.57,-145.27,-26.7,-29.4,0,0,,5.0,30.549213,1037.6,,,TRUE,TRUE,,,,,HZ,CLR,,,,,,,,MVFR,,,,,,,,,,,,METAR,131.0
PFKT 221456Z AUTO 14018KT 10SM OVC029 00/M02 A3017 RMK AO2 PK WND 15026/1404 SLP216 60000 T00001022 58001 FZRANO,PFKT,2018-03-22T14:56:00Z,65.33,-166.47,0.0,-2.2,140,18,,10.0,30.171259,1021.6,,TRUE,TRUE,,,,TRUE,,,OVC,2900,,,,,,,MVFR,-0.1,,,,,,0.005,,,,,METAR,9.0
PAVD 221456Z 02027G44KT 10SM CLR 01/M18 A3012 RMK AO2 PK WND 34044/1452 SLP224 1451Z WEA: NONE PK WND 13055/49 TWR WND 08035G55KT 030V130 T00061183 56035 $,PAVD,2018-03-22T14:56:00Z,61.13,-146.25,0.6,-18.3,20,27,44,10.0,30.121063,1022.4,,,TRUE,TRUE,,,,,,CLR,,,,,,,,VFR,-3.5,,,,,,,,,,,METAR,37.0
PAVA 221456Z AUTO 13021KT 10SM CLR M06/M07 A3012 RMK AO2 PK WND 12028/1431 SLP289 T10561067 56037 FZRANO,PAVA,2018-03-22T14:56:00Z,61.53,-165.6,-5.6,-6.7,130,21,,10.0,30.121063,1028.9,,TRUE,TRUE,,,,TRUE,,,CLR,,,,,,,,VFR,-3.7,,,,,,,,,,,METAR,23.0
PAUN 221456Z AUTO 07024KT 10SM CLR M07/M10 A3034 RMK AO2 PK WND 07030/1453 SLP280 T10671100 58025 FZRANO,PAUN,2018-03-22T14:56:00Z,63.88,-160.8,-6.7,-10.0,70,24,,10.0,30.339567,1028.0,,TRUE,TRUE,,,,TRUE,,,CLR,,,,,,,,VFR,-2.5,,,,,,,,,,,METAR,6.0
PATE 221456Z AUTO 16032KT 6SM -SN BR CLR M01/M03 A3010 RMK AO2 PK WND 16036/1454 SNE23B44 SLP200 P0000 60000 T10061028 50006 FZRANO,PATE,2018-03-22T14:56:00Z,65.23,-166.33,-0.6,-2.8,160,32,,6.0,30.100393,1020.0,,TRUE,TRUE,,,,TRUE,,-SN BR,CLR,,,,,,,,VFR,0.6,,,,,0.005,0.005,,,,,METAR,90.0
PASX 221456Z AUTO 05008KT 10SM CLR M06/M14 A3027 RMK AO2 SLP260 T10561139 57023 FZRANO,PASX,2018-03-22T14:56:00Z,60.48,-151.03,-5.6,-13.9,50,8,,10.0,30.268702,1026.0,,TRUE,TRUE,,,,TRUE,,,CLR,,,,,,,,VFR,-2.3,,,,,,,,,,,METAR,32.0
PASM 221456Z AUTO 11016KT 10SM CLR M07/M08 A3022 RMK AO2 SLP253 6//// T10671078 56036 FZRANO,PASM,2018-03-22T14:56:00Z,62.07,-163.3,-6.7,-7.8,110,16,,10.0,30.221457,1025.3,,TRUE,TRUE,,,,TRUE,,,CLR,,,,,,,,VFR,-3.6,,,,,,,,,,,METAR,92.0
PASK 221456Z AUTO 08016KT 9SM -SN OVC036 M08/M09 A3040 RMK AO2 SLP292 P0000 60000 T10781094 58019 FZRANO $,PASK,2018-03-22T14:56:00Z,66.6,-160.0,-7.8,-9.4,80,16,,9.0,30.398623,1029.2,,TRUE,TRUE,TRUE,,,TRUE,,-SN,OVC,3600,,,,,,,VFR,-1.9,,,,,0.005,0.005,,,,,METAR,8.0
PARY 221456Z AUTO 09014KT 10SM CLR M13/M17 A3045 RMK AO2 SLP342 T11331167 56023 FZRANO,PARY,2018-03-22T14:56:00Z,64.73,-155.47,-13.3,-16.7,90,14,,10.0,30.448818,1034.2,,TRUE,TRUE,,,,TRUE,,,CLR,,,,,,,,VFR,-2.3,,,,,,,,,,,METAR,199.0
PARS 221456Z AUTO 07005KT 10SM CLR M08/M09 A3030 RMK AO2 SLP263 T10831094 58032 FZRANO $,PARS,2018-03-22T14:56:00Z,61.77,-161.32,-8.3,-9.4,70,5,,10.0,30.301182,1026.3,,TRUE,TRUE,TRUE,,,TRUE,,,CLR,,,,,,,,VFR,-3.2,,,,,,,,,,,METAR,16.0
PARC 221456Z AUTO 33004KT 10SM FEW120 M27/M30 A3036 RMK AO2 SLP372 T12721300 56015 FZRANO,PARC,2018-03-22T14:56:00Z,68.12,-145.58,-27.2,-30.0,330,4,,10.0,30.360237,1037.2,,TRUE,TRUE,,,,TRUE,,,FEW,12000,,,,,,,VFR,-1.5,,,,,,,,,,,METAR,636.0
PAPM 221456Z AUTO 09007G21KT 10SM CLR M01/M07 A3024 RMK AO2 PK WND 12031/1415 SLP242 T10111072 56031 FZRANO,PAPM,2018-03-22T14:56:00Z,59.02,-161.82,-1.1,-7.2,90,7,21,10.0,30.239174,1024.2,,TRUE,TRUE,,,,TRUE,,,CLR,,,,,,,,VFR,-3.1,,,,,,,,,,,METAR,5.0
PAPH 221456Z AUTO 05014KT 10SM CLR M02/M05 A3023 RMK AO2 SLP240 T10221050 58034 FZRANO,PAPH,2018-03-22T14:56:00Z,56.95,-158.62,-2.2,-5.0,50,14,,10.0,30.230314,1024.0,,TRUE,TRUE,,,,TRUE,,,CLR,,,,,,,,VFR,-3.4,,,,,,,,,,,METAR,29.0
PAPG 221456Z 25003KT 10SM CLR 03/M02 A2948 RMK AO2 SLP988 T00281022 $,PAPG,2018-03-22T14:56:00Z,56.82,-132.97,2.8,-2.2,250,3,,10.0,29.480314,998.8,,,TRUE,TRUE,,,,,,CLR,,,,,,,,VFR,,,,,,,,,,,,METAR,15.0
PANW 221456Z AUTO 02008KT 10SM CLR M09/M12 A3030 RMK AO2 SLP276 T10941122 56031 FZRANO,PANW,2018-03-22T14:56:00Z,59.45,-157.37,-9.4,-12.2,20,8,,10.0,30.301182,1027.6,,TRUE,TRUE,,,,TRUE,,,CLR,,,,,,,,VFR,-3.1,,,,,,,,,,,METAR,92.0
PAMM 221456Z AUTO 34010KT 10SM FEW034 SCT042 05/03 A2938 RMK AO2 RAE46 SLP940 P0000 60002 T00500028 56023,PAMM,2018-03-22T14:56:00Z,55.13,-131.58,5.0,2.8,340,10,,10.0,29.379921,994.0,,TRUE,TRUE,,,,,,,FEW,3400,SCT,4200,,,,,VFR,-2.3,,,,,0.005,0.02,,,,,METAR,1.0
PAMK 221456Z AUTO 21003KT 10SM CLR M03/M07 A3028 RMK AO2 SLP256 T10331067 58027 FZRANO $,PAMK,2018-03-22T14:56:00Z,63.48,-162.12,-3.3,-6.7,210,3,,10.0,30.280512,1025.6,,TRUE,TRUE,TRUE,,,TRUE,,,CLR,,,,,,,,VFR,-2.7,,,,,,,,,,,METAR,28.0
PAMH 221456Z AUTO VRB04KT 10SM CLR M09/M14 A3042 RMK AO2 SLP146 T10941144 56022 FZRANO,PAMH,2018-03-22T14:56:00Z,63.9,-152.32,-9.4,-14.4,0,4,,10.0,30.41929,1014.6,,TRUE,TRUE,,,,TRUE,,,CLR,,,,,,,,VFR,-2.2,,,,,,,,,,,METAR,214.0
PAMB 221456Z AUTO 04008KT 10SM CLR M08/M09 A3029 RMK AO2 SLP264 T10781094 58034 FZRANO $,PAMB,2018-03-22T14:56:00Z,58.98,-159.05,-7.8,-9.4,40,8,,10.0,30.28937,1026.4,,TRUE,TRUE,TRUE,,,TRUE,,,CLR,,,,,,,,VFR,-3.4,,,,,,,,,,,METAR,16.0
PALG 221456Z AUTO 08013G19KT 10SM CLR M06/M10 A3027 RMK AO2 SLP257 T10561100 58037 FZRANO,PALG,2018-03-22T14:56:00Z,61.53,-160.33,-5.6,-10.0,80,13,19,10.0,30.268702,1025.7,,TRUE,TRUE,,,,TRUE,,,CLR,,,,,,,,VFR,-3.7,,,,,,,,,,,METAR,17.0
KAFF 221456Z AUTO 36004KT 10SM CLR 09/M05 A3017 RMK AO2 SLP189 T00891050 52007,KAFF,2018-03-22T14:56:00Z,38.97,-104.82,8.9,-5.0,360,4,,10.0,30.171259,1018.9,,TRUE,TRUE,,,,,,,CLR,,,,,,,,VFR,0.7,,,,,,,,,,,METAR,2003.0
KP60 221456Z AUTO 00000KT 00/M01 A3003 RMK AO1 SLP166 P0001 60003 T00001006 58003 $,KP60,2018-03-22T14:56:00Z,44.55,-110.42,0.0,-0.6,0,0,,,30.029528,1016.6,,TRUE,TRUE,TRUE,,,,,,,,,,,,,,,-0.3,,,,,0.01,,,,,,SPECI,2388.0
PAWG 221456Z 08012G18KT 10SM BKN050 BKN080 07/M03 A2945 RMK (KB),PAWG,2018-03-22T14:56:00Z,56.48,-132.37,7.0,-3.0,80,12,18,10.0,29.450787,,,,,,,,,,,BKN,5000,BKN,8000,,,,,VFR,,,,,,,,,,,,METAR,11.0
KEND 221456Z 14020G26KT 10SM CLR 15/00 A3014 RMK AO2A PK WND 15027/30 SLP207 T01530003 56004 $,KEND,2018-03-22T14:56:00Z,36.32,-97.92,15.3,0.3,140,20,26,10.0,30.138779,1020.7,,,TRUE,TRUE,,,,,,CLR,,,,,,,,VFR,-0.4,,,,,,,,,,,METAR,398.0
KCEF 221456Z 02015G22KT 10SM FEW030 BKN050 BKN085 OVC180 06/M05 A2971 RMK AO2A PK WND 35027/28 SLP068 T00561051 50002,KCEF,2018-03-22T14:56:00Z,42.2,-72.52,5.6,-5.1,20,15,22,10.0,29.71063,1006.8,,,TRUE,,,,,,,FEW,3000,BKN,5000,BKN,8500,OVC,18000,VFR,0.2,,,,,,,,,,,METAR,75.0
KOYM 221456Z AUTO 31006KT 10SM CLR M02/M08 A3003 RMK AO2,KOYM,2018-03-22T14:56:00Z,,,-2.0,-8.0,310,6,,10.0,30.029528,,,TRUE,TRUE,,,,,,,CLR,,,,,,,,VFR,,,,,,,,,,,,METAR,
PAJZ 221456Z AUTO 03007KT 9SM CLR M08/M12 A3035 RMK AO2 SLP286 T10781117 56034 FZRANO $,PAJZ,2018-03-22T14:56:00Z,59.73,-157.27,-7.8,-11.7,30,7,,9.0,30.351377,1028.6,,TRUE,TRUE,TRUE,,,TRUE,,,CLR,,,,,,,,VFR,-3.4,,,,,,,,,,,METAR,82.0
KGTB 221456Z AUTO 03005KT 10SM CLR M02/M10 A2999 RMK AO2 SLP166 T10181097 52011,KGTB,2018-03-22T14:56:00Z,44.07,-75.72,-1.8,-9.7,30,5,,10.0,29.991142,1016.6,,TRUE,TRUE,,,,,,,CLR,,,,,,,,VFR,1.1,,,,,,,,,,,METAR,207.0
KFFO 221456Z AUTO 29006KT 10SM CLR M01/M07 A3027 RMK AO2 SLP262 T10071067 52019,KFFO,2018-03-22T14:56:00Z,39.82,-84.03,-0.7,-6.7,290,6,,10.0,30.268702,1026.2,,TRUE,TRUE,,,,,,,CLR,,,,,,,,VFR,1.9,,,,,,,,,,,METAR,251.0
KFSI 221456Z AUTO 17011KT 10SM CLR 16/06 A3017 RMK AO2 SLP214 T01590061 51006,KFSI,2018-03-22T14:56:00Z,34.65,-98.4,15.9,6.1,170,11,,10.0,30.171259,1021.4,,TRUE,TRUE,,,,,,,CLR,,,,,,,,VFR,0.6,,,,,,,,,,,METAR,362.0
KBIX 221456Z AUTO 05006KT 10SM CLR 14/02 A3038 RMK AO2 SLP291 T01350024 52013,KBIX,2018-03-22T14:56:00Z,30.42,-88.92,13.5,2.4,50,6,,10.0,30.380905,1029.1,,TRUE,TRUE,,,,,,,CLR,,,,,,,,VFR,1.3,,,,,,,,,,,METAR,10.0
KADW 221456Z AUTO 31016KT 10SM CLR 03/M06 A2998 RMK AO2 SLP161 T00301057 51015 $,KADW,2018-03-22T14:56:00Z,38.82,-76.87,3.0,-5.7,310,16,,10.0,29.97933,1016.1,,TRUE,TRUE,TRUE,,,,,,CLR,,,,,,,,VFR,1.5,,,,,,,,,,,METAR,86.0
SVBM 221456Z 09011KT 9999 BKN016 28/19 Q1017,SVBM,2018-03-22T14:56:00Z,10.05,-69.37,28.0,19.0,90,11,,6.21,30.029528,,,,,,,,,,,BKN,1600,,,,,,,MVFR,,,,,,,,,,,,METAR,614.0
PAKI 221456Z AUTO 12016KT 10SM CLR M05/M06 A3014 RMK AO2 SLP207 T10501061 58042 FZRANO,PAKI,2018-03-22T14:56:00Z,59.93,-164.03,-5.0,-6.1,120,16,,10.0,30.138779,1020.7,,TRUE,TRUE,,,,TRUE,,,CLR,,,,,,,,VFR,-4.2,,,,,,,,,,,METAR,4.0
PAKH 221456Z AUTO 10SM CLR M02/M11 A3020 RMK AO2 SLP229 T10171106 56020 FZRANO $,PAKH,2018-03-22T14:56:00Z,56.93,-154.18,-1.7,-10.6,,,,10.0,30.200787,1022.9,,TRUE,TRUE,TRUE,,,TRUE,,,CLR,,,,,,,,VFR,-2.0,,,,,,,,,,,METAR,14.0
PHHI 221456Z AUTO 11003KT 10SM SCT018 BKN090 20/18 A2998 RMK AO2 DZB1359E09 SLP145 P0000 60000 T02040176 53002 RVRNO $,PHHI,2018-03-22T14:56:00Z,21.48,-158.05,20.4,17.6,110,3,,10.0,29.97933,1014.5,,TRUE,TRUE,TRUE,,,,,,SCT,1800,BKN,9000,,,,,VFR,0.2,,,,,0.005,0.005,,,,,METAR,255.0
KRCA 221456Z AUTO 00000KT 10SM CLR 03/01 A3008 RMK AO2 SLP208 T00330005 52010 $,KRCA,2018-03-22T14:56:00Z,44.13,-103.08,3.3,0.5,0,0,,10.0,30.079725,1020.8,,TRUE,TRUE,TRUE,,,,,,CLR,,,,,,,,VFR,1.0,,,,,,,,,,,METAR,999.0
KIAB 221456Z AUTO 19014KT 10SM SCT140 13/M02 A3018 RMK AO2 PK WND 18026/15 SLP222 T01281019 53003,KIAB,2018-03-22T14:56:00Z,37.62,-97.27,12.8,-1.9,190,14,,10.0,30.180119,1022.2,,TRUE,TRUE,,,,,,,SCT,14000,,,,,,,VFR,0.3,,,,,,,,,,,METAR,418.0
KFTK 221456Z AUTO 30006KT 10SM CLR 02/M08 A3034 RMK AO2 SLP284 T00241081 52020,KFTK,2018-03-22T14:56:00Z,37.88,-85.97,2.4,-8.1,300,6,,10.0,30.339567,1028.4,,TRUE,TRUE,,,,,,,CLR,,,,,,,,VFR,2.0,,,,,,,,,,,METAR,230.0
RODN 221456Z AUTO 33004KT 10SM BKN033 OVC050 15/08 A3002 RMK AO2 SLP173 T01470077 401840138 50002,RODN,2018-03-22T14:56:00Z,26.35,127.77,14.7,7.7,330,4,,10.0,30.02067,1017.3,,TRUE,TRUE,,,,,,,BKN,3300,OVC,5000,,,,,VFR,0.2,,,18.4,13.8,,,,,,,METAR,45.0
RKJK 221456Z AUTO 32004KT 6SM BR CLR 03/03 A3005 RMK AO2 SLP181 T00280027 400720008 51007,RKJK,2018-03-22T14:56:00Z,35.9,126.62,2.8,2.7,320,4,,6.0,30.050198,1018.1,,TRUE,TRUE,,,,,,BR,CLR,,,,,,,,VFR,0.7,,,7.2,0.8,,,,,,,METAR,9.0
KLHW 221456Z AUTO 32010KT 10SM CLR 10/M02 A3020 RMK AO2 SLP230 T00991021 $,KLHW,2018-03-22T14:56:00Z,31.87,-81.57,9.9,-2.1,320,10,,10.0,30.200787,1023.0,,TRUE,TRUE,TRUE,,,,,,CLR,,,,,,,,VFR,,,,,,,,,,,,METAR,14.0
KNXF 221456Z AUTO 15005KT 5SM HZ CLR 16/13 A3004 RMK AO2 SLP259 60000 T01610133 51014 $,KNXF,2018-03-22T14:56:00Z,33.28,-117.45,16.1,13.3,150,5,,5.0,30.041338,1025.9,,TRUE,TRUE,TRUE,,,,,HZ,CLR,,,,,,,,MVFR,1.4,,,,,,0.005,,,,,METAR,27.0
KNJK 221456Z 00000KT 10SM BKN160 BKN200 17/06 A2995 RMK AO2 SLP157 T01720056 51009,KNJK,2018-03-22T14:56:00Z,32.82,-115.67,17.2,5.6,0,0,,10.0,29.949802,1015.7,,,TRUE,,,,,,,BKN,16000,BKN,20000,,,,,VFR,0.9,,,,,,,,,,,METAR,-13.0
PHNY 221456Z AUTO 34004KT 10SM BKN080 18/17 A3001 RMK AO2 SLP145 T01830167 55003,PHNY,2018-03-22T14:56:00Z,20.77,-156.93,18.3,16.7,340,4,,10.0,30.008858,1014.5,,TRUE,TRUE,,,,,,,BKN,8000,,,,,,,VFR,-0.3,,,,,,,,,,,METAR,399.0
PABL 221456Z AUTO 12020G24KT 10SM BKN043 OVC080 M04/M07 A3033 RMK AO2 SLP274 T10391067 56017 FZRANO,PABL,2018-03-22T14:56:00Z,65.98,-161.15,-3.9,-6.7,120,20,24,10.0,30.33071,1027.4,,TRUE,TRUE,,,,TRUE,,,BKN,4300,OVC,8000,,,,,VFR,-1.7,,,,,,,,,,,METAR,7.0
PAGM 221456Z AUTO 6SM UP BR OVC004 00/M01 A2983 RMK AO2 SLP109 P0000 60000 T00001006 58032 FZRANO $,PAGM,2018-03-22T14:56:00Z,63.77,-171.73,0.0,-0.6,,,,6.0,29.828741,1010.9,,TRUE,TRUE,TRUE,,,TRUE,,BR UP,OVC,400,,,,,,,LIFR,-3.2,,,,,0.005,0.005,,,,,METAR,8.0
PAGA 221456Z AUTO 11005KT 10SM CLR M13/M16 A3049 RMK AO2 SLP327 T11281156 58020 FZRANO,PAGA,2018-03-22T14:56:00Z,64.73,-156.93,-12.8,-15.6,110,5,,10.0,30.490158,1032.7,,TRUE,TRUE,,,,TRUE,,,CLR,,,,,,,,VFR,-2.0,,,,,,,,,,,METAR,46.0
PAEM 221456Z AUTO 14015KT 10SM CLR M04/M06 A3020 RMK AO2 SLP288 T10391061 58031 FZRANO,PAEM,2018-03-22T14:56:00Z,62.78,-164.48,-3.9,-6.1,140,15,,10.0,30.200787,1028.8,,TRUE,TRUE,,,,TRUE,,,CLR,,,,,,,,VFR,-3.1,,,,,,,,,,,METAR,3.0
PADU 221456Z 15019G27KT 10SM -RA OVC021 07/03 A2995 RMK AO2 PK WND 13030/1422 SLP147 CS P0001 60002 T00670028 56042,PADU,2018-03-22T14:56:00Z,53.9,-166.53,6.7,2.8,150,19,27,10.0,29.949802,1014.7,,,TRUE,,,,,,-RA,OVC,2100,,,,,,,MVFR,-4.2,,,,,0.01,0.02,,,,,METAR,4.0
PADM 221456Z AUTO 07023KT 10SM CLR M04/M07 A3028 RMK AO2 PK WND 07028/1436 SLP263 T10441072 58031 FZRANO,PADM,2018-03-22T14:56:00Z,61.87,-162.03,-4.4,-7.2,70,23,,10.0,30.280512,1026.3,,TRUE,TRUE,,,,TRUE,,,CLR,,,,,,,,VFR,-3.1,,,,,,,,,,,METAR,31.0
PADL 221456Z AUTO 00000KT 10SM CLR M06/M09 A3031 RMK AO2 SLP268 T10611089 58029 FZRANO,PADL,2018-03-22T14:56:00Z,59.05,-158.5,-6.1,-8.9,0,0,,10.0,30.31004,1026.8,,TRUE,TRUE,,,,TRUE,,,CLR,,,,,,,,VFR,-2.9,,,,,,,,,,,METAR,26.0
ETIC 221456Z AUTO 24006KT 9999 OVC033 03/M03 A2990 RMK AO2 SNE06RAB06E10 SLP156 P0000 60000 T00261035 57023 $,ETIC,2018-03-22T14:56:00Z,49.7,11.93,2.6,-3.5,240,6,,6.21,29.899607,1015.6,,TRUE,TRUE,TRUE,,,,,,OVC,3300,,,,,,,VFR,-2.3,,,,,0.005,0.005,,,,,METAR,415.0
ETIH 221456Z AUTO 25007KT 9999 FEW021 BKN050 04/M05 A2993 RMK AO2 RAB06E18 SLP165 P0000 60000 T00381052 57023 $,ETIH,2018-03-22T14:56:00Z,49.22,11.82,3.8,-5.2,250,7,,6.21,29.929134,1016.5,,TRUE,TRUE,TRUE,,,,,,FEW,2100,BKN,5000,,,,,VFR,-2.3,,,,,0.005,0.005,,,,,METAR,442.0
K1M4 221456Z AUTO 33009KT 10SM CLR 08/M02 A3040 RMK AO2 SLP321 T00831022 51024,K1M4,2018-03-22T14:56:00Z,34.28,-87.6,8.3,-2.2,330,9,,10.0,30.398623,1032.1,,TRUE,TRUE,,,,,,,CLR,,,,,,,,VFR,2.4,,,,,,,,,,,METAR,284.0
K7N0 221456Z AUTO 04007KT 10SM CLR 15/03 A3041 RMK AO2 SLP297 T01500033 51018,K7N0,2018-03-22T14:56:00Z,29.95,-90.07,15.0,3.3,40,7,,10.0,30.410433,1029.7,,TRUE,TRUE,,,,,,,CLR,,,,,,,,VFR,1.8,,,,,,,,,,,METAR,0.0
KADF 221456Z AUTO 23003KT 10SM CLR 11/04 A3040 RMK AO2 SLP300 T01110044 51016,KADF,2018-03-22T14:56:00Z,34.1,-93.07,11.1,4.4,230,3,,10.0,30.398623,1030.0,,TRUE,TRUE,,,,,,,CLR,,,,,,,,VFR,1.6,,,,,,,,,,,METAR,56.0
KAFJ 221456Z AUTO 31006KT 10SM CLR M01/M06 A3017 RMK AO2 UPB21E23SNB23E41 SLP229 P0000 60000 T10111061 51012 FZRANO,KAFJ,2018-03-22T14:56:00Z,40.12,-80.27,-1.1,-6.1,310,6,,10.0,30.171259,1022.9,,TRUE,TRUE,,,,TRUE,,,CLR,,,,,,,,VFR,1.2,,,,,0.005,0.005,,,,,METAR,361.0
PAGS 221456Z AUTO 36018G25KT 10SM CLR 03/M11 A2977 RMK AO2 PK WND 02030/1404 SLP081 T00281106 56015,PAGS,2018-03-22T14:56:00Z,58.42,-135.73,2.8,-10.6,360,18,25,10.0,29.769686,1008.1,,TRUE,TRUE,,,,,,,CLR,,,,,,,,VFR,-1.5,,,,,,,,,,,METAR,9.0
KYKN 221456Z AUTO 09007KT 10SM CLR 04/01 A3019 RMK AO2 RAB27E37 SLP246 P0000 60000 T00390011 51009,KYKN,2018-03-22T14:56:00Z,42.92,-97.37,3.9,1.1,90,7,,10.0,30.188976,1024.6,,TRUE,TRUE,,,,,,,CLR,,,,,,,,VFR,0.9,,,,,0.005,0.005,,,,,METAR,398.0
KSLI 221456Z COR 00000KT 10SM -RA FEW030 SCT070 OVC100 16/16 A2999 RMK AO2A RAB16E25RAB51 SLP159 T01620159 52017 COR 1505,KSLI,2018-03-22T14:56:00Z,33.77,-118.03,16.2,15.9,0,0,,10.0,29.991142,1015.9,TRUE,,TRUE,,,,,,-RA,FEW,3000,SCT,7000,OVC,10000,,,VFR,1.7,,,,,,,,,,,METAR,11.0
KNOG 221456Z AUTO 16014KT 10SM FEW070 22/16 A3028 RMK AO2 SLP232 T02170161 53021,KNOG,2018-03-22T14:56:00Z,27.9,-98.05,21.7,16.1,160,14,,10.0,30.280512,1023.2,,TRUE,TRUE,,,,,,,FEW,7000,,,,,,,VFR,2.1,,,,,,,,,,,METAR,78.0
PAHL 221456Z AUTO 06005KT 10SM BKN070 M17/M19 A3050 RMK AO2 SLP340 T11671189 56016 FZRANO,PAHL,2018-03-22T14:56:00Z,65.7,-156.35,-16.7,-18.9,60,5,,10.0,30.499016,1034.0,,TRUE,TRUE,,,,TRUE,,,BKN,7000,,,,,,,VFR,-1.6,,,,,,,,,,,METAR,65.0
PHSF 221456Z AUTO 00000KT M M M M M RMK AO2 SLPNO WND DATA ESTMD PWINO PNO TSNO $,PHSF,2018-03-22T14:56:00Z,19.77,-155.55,,,0,0,,,,,,TRUE,TRUE,TRUE,,TRUE,,TRUE,,,,,,,,,,,,,,,,,,,,,,METAR,1887.0
KLFI 221456Z AUTO 30015G19KT 10SM CLR 05/M02 A3000 RMK AO2 SLP166 T00531025 52017,KLFI,2018-03-22T14:56:00Z,37.07,-76.37,5.3,-2.5,300,15,19,10.0,30.0,1016.6,,TRUE,TRUE,,,,,,,CLR,,,,,,,,VFR,1.7,,,,,,,,,,,SPECI,3.0
KFAF 221456Z AUTO 32012KT 10SM CLR 06/M02 A2999 RMK AO2 SLP159 T00601024 52019 $,KFAF,2018-03-22T14:56:00Z,37.12,-76.62,6.0,-2.4,320,12,,10.0,29.991142,1015.9,,TRUE,TRUE,TRUE,,,,,,CLR,,,,,,,,VFR,1.9,,,,,,,,,,,SPECI,4.0
PANA 221456Z AUTO 08005KT 10SM CLR M09/M11 A3023 RMK AO2 SLP237 T10891106 58035 FZRANO,PANA,2018-03-22T14:56:00Z,60.68,-161.98,-8.9,-10.6,80,5,,10.0,30.230314,1023.7,,TRUE,TRUE,,,,TRUE,,,CLR,,,,,,,,VFR,-3.5,,,,,,,,,,,METAR,5.0
PAKP 221456Z AUTO 23017KT 10SM OVC070 M17/M21 A3032 RMK AO2 SLP346 T11721211 56016 FZRANO,PAKP,2018-03-22T14:56:00Z,68.13,-151.73,-17.2,-21.1,230,17,,10.0,30.318897,1034.6,,TRUE,TRUE,,,,TRUE,,,OVC,7000,,,,,,,VFR,-1.6,,,,,,,,,,,METAR,642.0
PAKK 221456Z AUTO 00000KT 10SM OVC039 M03/M06 A3029 RMK AO2 SLP273 T10331061 58025 FZRANO,PAKK,2018-03-22T14:56:00Z,64.93,-161.15,-3.3,-6.1,0,0,,10.0,30.28937,1027.3,,TRUE,TRUE,,,,TRUE,,,OVC,3900,,,,,,,VFR,-2.5,,,,,,,,,,,METAR,47.0
PAII 221456Z AUTO 03005KT 10SM CLR M07/M08 A3029 RMK AO2 SLP259 T10671078 56030 FZRANO,PAII,2018-03-22T14:56:00Z,58.18,-157.38,-6.7,-7.8,30,5,,10.0,30.28937,1025.9,,TRUE,TRUE,,,,TRUE,,,CLR,,,,,,,,VFR,-3.0,,,,,,,,,,,METAR,30.0
PAHX 221456Z AUTO 01005KT 10SM CLR M13/M14 A3038 RMK AO2 SLP291 T11281139 56028 FZRANO,PAHX,2018-03-22T14:56:00Z,62.7,-159.57,-12.8,-13.9,10,5,,10.0,30.380905,1029.1,,TRUE,TRUE,,,,TRUE,,,CLR,,,,,,,,VFR,-2.8,,,,,,,,,,,METAR,24.0
PAGN 221456Z AUTO 21003KT 10SM OVC090 03/M05 A2963 RMK AO2 SLP024 T00331050 56012,PAGN,2018-03-22T14:56:00Z,57.5,-134.58,3.3,-5.0,210,3,,10.0,29.630905,1002.4,,TRUE,TRUE,,,,,,,OVC,9000,,,,,,,VFR,-1.2,,,,,,,,,,,METAR,2.0
PAGL 221456Z AUTO 14014G20KT 10SM BKN035 OVC043 M03/M06 A3031 RMK AO2 SLP261 60000 T10331056 58013 FZRANO,PAGL,2018-03-22T14:56:00Z,64.55,-163.03,-3.3,-5.6,140,14,20,10.0,30.31004,1026.1,,TRUE,TRUE,,,,TRUE,,,BKN,3500,OVC,4300,,,,,VFR,-1.3,,,,,,0.005,,,,,METAR,8.0
PAFM 221456Z AUTO 09004KT 10SM OVC055 M09/M14 A3051 RMK AO2 SLP346 60000 T10941139 56017 FZRANO,PAFM,2018-03-22T14:56:00Z,67.1,-157.85,-9.4,-13.9,90,4,,10.0,30.510826,1034.6,,TRUE,TRUE,,,,TRUE,,,OVC,5500,,,,,,,VFR,-1.7,,,,,,0.005,,,,,METAR,88.0
PAFE 221456Z AUTO 36012G18KT 330V040 10SM SCT070 BKN085 BKN120 04/M06 A2952 RMK AO2 SLP010 T00441061 58009,PAFE,2018-03-22T14:56:00Z,56.97,-133.92,4.4,-6.1,360,12,18,10.0,29.518702,1001.0,,TRUE,TRUE,,,,,,,SCT,7000,BKN,8500,BKN,12000,,,VFR,-0.9,,,,,,,,,,,METAR,9.0
PADK 221456Z AUTO 25033G37KT 10SM BKN021 01/M02 A2992 RMK AO2 PK WND 25040/1418 RAB02E46SNB23E35 SLP130 P0000 60000 T00111022 51052 FZRANO,PADK,2018-03-22T14:56:00Z,51.88,-176.65,1.1,-2.2,250,33,37,10.0,29.920275,1013.0,,TRUE,TRUE,,,,TRUE,,,BKN,2100,,,,,,,MVFR,5.2,,,,,0.005,0.005,,,,,METAR,4.0
PABV 221456Z AUTO 11003KT 10SM CLR M06/M17 A3024 RMK AO2 SLP247 T10611167 56017 FZRANO $,PABV,2018-03-22T14:56:00Z,61.42,-149.52,-6.1,-16.7,110,3,,10.0,30.239174,1024.7,,TRUE,TRUE,TRUE,,,TRUE,,,CLR,,,,,,,,VFR,-1.7,,,,,,,,,,,METAR,29.0
PAAK 221456Z AUTO 24010G19KT 10SM FEW055 02/M06 A2992 RMK AO2 RAE02 SLP133 6//// T00221056 51049 FZRANO PNO $,PAAK,2018-03-22T14:56:00Z,52.22,-174.2,2.2,-5.6,240,10,19,10.0,29.920275,1013.3,,TRUE,TRUE,TRUE,,,TRUE,,,FEW,5500,,,,,,,VFR,4.9,,,,,,,,,,,METAR,17.0
PAPN 221456Z AUTO 00000KT 10SM CLR M07/M08 A3028 RMK AO2 SLP255 T10721078 56028 FZRANO,PAPN,2018-03-22T14:56:00Z,57.58,-157.57,-7.2,-7.8,0,0,,10.0,30.280512,1025.5,,TRUE,TRUE,,,,TRUE,,,CLR,,,,,,,,VFR,-2.8,,,,,,,,,,,METAR,18.0
PAOH 221456Z AUTO 04004KT 10SM CLR 03/M08 A2973 RMK AO2 SLP069 T00281083 55015,PAOH,2018-03-22T14:56:00Z,58.1,-135.45,2.8,-8.3,40,4,,10.0,29.731298,1006.9,,TRUE,TRUE,,,,,,,CLR,,,,,,,,VFR,-1.5,,,,,,,,,,,METAR,9.0
KAQV 221456Z AUTO VRB03KT 10SM CLR 14/04 A3037 RMK AO2 SLP283 60000 T01440044 51017,KAQV,2018-03-22T14:56:00Z,31.4,-93.3,14.4,4.4,0,3,,10.0,30.369095,1028.3,,TRUE,TRUE,,,,,,,CLR,,,,,,,,VFR,1.7,,,,,,0.005,,,,,METAR,111.0
KCVO 221456Z AUTO 21008KT 10SM -RA BKN040 OVC049 06/04 A2963 RMK AO2 SLP035 P0004 60005 T00560039 53021,KCVO,2018-03-22T14:56:00Z,44.5,-123.27,5.6,3.9,210,8,,10.0,29.630905,1003.5,,TRUE,TRUE,,,,,,-RA,BKN,4000,OVC,4900,,,,,VFR,2.1,,,,,0.04,0.05,,,,,METAR,75.0
KCVN 221456Z AUTO 27014KT 10SM CLR 17/M02 A3015 RMK AO2 SLP190 T01671022 53010,KCVN,2018-03-22T14:56:00Z,34.42,-103.07,16.7,-2.2,270,14,,10.0,30.15059,1019.0,,TRUE,TRUE,,,,,,,CLR,,,,,,,,VFR,1.0,,,,,,,,,,,METAR,1284.0
KCOE 221456Z AUTO 02010KT 10SM -RA OVC055 06/04 A2965 RMK AO2 RAB34 SLP064 P0001 60001 T00560039 58010,KCOE,2018-03-22T14:56:00Z,47.77,-116.82,5.6,3.9,20,10,,10.0,29.648623,1006.4,,TRUE,TRUE,,,,,,-RA,OVC,5500,,,,,,,VFR,-1.0,,,,,0.01,0.01,,,,,METAR,707.0
KCOD 221456Z AUTO 00000KT 10SM CLR 06/M02 A2997 RMK AO2 SLP153 T00561022 50001,KCOD,2018-03-22T14:56:00Z,44.52,-109.02,5.6,-2.2,0,0,,10.0,29.970472,1015.3,,TRUE,TRUE,,,,,,,CLR,,,,,,,,VFR,0.1,,,,,,,,,,,METAR,1553.0
PFNO 221456Z AUTO 09018G25KT 8SM OVC030 M06/M08 A3037 RMK AO2 PK WND 09027/1441 SNE07B40E51 SLP283 P0000 60000 T10561083 58014 FZRANO,PFNO,2018-03-22T14:56:00Z,66.82,-161.02,-5.6,-8.3,90,18,25,8.0,30.369095,1028.3,,TRUE,TRUE,,,,TRUE,,,OVC,3000,,,,,,,MVFR,-1.4,,,,,0.005,0.005,,,,,METAR,17.0
PFKW 221456Z AUTO 08006KT 10SM CLR M11/M12 A3024 RMK AO2 SLP240 T11061117 57034 FZRANO,PFKW,2018-03-22T14:56:00Z,60.8,-161.43,-10.6,-11.7,80,6,,10.0,30.239174,1024.0,,TRUE,TRUE,,,,TRUE,,,CLR,,,,,,,,VFR,-3.4,,,,,,,,,,,METAR,8.0
PFEL 221456Z AUTO VRB03KT 10SM OVC039 M04/M07 A3034 RMK AO2 SLP276 T10391067 56023 FZRANO,PFEL,2018-03-22T14:56:00Z,64.62,-162.27,-3.9,-6.7,0,3,,10.0,30.339567,1027.6,,TRUE,TRUE,,,,TRUE,,,OVC,3900,,,,,,,VFR,-2.3,,,,,,,,,,,METAR,49.0
PFCL 221456Z AUTO 10SM CLR M07/M09 A3030 RMK AO2 SLPNO T10721089 58033 FZRANO TSNO $,PFCL,2018-03-22T14:56:00Z,58.83,-158.53,-7.2,-8.9,,,,10.0,30.301182,,,TRUE,TRUE,TRUE,,TRUE,TRUE,,,CLR,,,,,,,,VFR,-3.3,,,,,,,,,,,METAR,24.0
PAZK 221456Z AUTO 01003KT 10SM CLR M17/M21 A3019 RMK AO2 SLP316 T11671206 56015 FZRANO,PAZK,2018-03-22T14:56:00Z,61.93,-147.17,-16.7,-20.6,10,3,,10.0,30.188976,1031.6,,TRUE,TRUE,,,,TRUE,,,CLR,,,,,,,,VFR,-1.5,,,,,,,,,,,METAR,1003.0
KNFL 221456Z 14005KT 10SM FEW030 BKN055 OVC085 08/07 A2972 RMK AO2 RAB18E39 SLP045 WR// P0001 60001 T00830067 55003,KNFL,2018-03-22T14:56:00Z,39.42,-118.7,8.3,6.7,140,5,,10.0,29.719488,1004.5,,,TRUE,,,,,,,FEW,3000,BKN,5500,OVC,8500,,,VFR,-0.3,,,,,0.01,,,,,,SPECI,1199.0
KHYS 221456Z AUTO 18007KT 9SM CLR 10/02 A3012 RMK AO2 SLP204 T01000022 50003,KHYS,2018-03-22T14:56:00Z,38.85,-99.27,10.0,2.2,180,7,,9.0,30.121063,1020.4,,TRUE,TRUE,,,,,,,CLR,,,,,,,,VFR,0.3,,,,,,,,,,,METAR,609.0
KHYI 221456Z 16011KT 10SM BKN033 18/13 A3029 RMK AO2 SLP252 T01830133 51016 $,KHYI,2018-03-22T14:56:00Z,29.88,-97.87,18.3,13.3,160,11,,10.0,30.28937,1025.2,,,TRUE,TRUE,,,,,,BKN,3300,,,,,,,VFR,1.6,,,,,,,,,,,METAR,182.0
KHND 221456Z 21007KT 10SM -RA OVC095 15/10 A3000 RMK AO2 RAE22B39 SLP150 P0001 60001 T01500100 53006 $,KHND,2018-03-22T14:56:00Z,35.98,-115.13,15.0,10.0,210,7,,10.0,30.0,1015.0,,,TRUE,TRUE,,,,,-RA,OVC,9500,,,,,,,VFR,0.6,,,,,0.01,0.01,,,,,METAR,749.0
KHNB 221456Z AUTO 31006KT 10SM CLR 04/M04 A3037 RMK AO2 SLP289 T00391044 51020,KHNB,2018-03-22T14:56:00Z,38.25,-86.95,3.9,-4.4,310,6,,10.0,30.369095,1028.9,,TRUE,TRUE,,,,,,,CLR,,,,,,,,VFR,2.0,,,,,,,,,,,METAR,161.0
KHEZ 221456Z AUTO VRB03KT 10SM CLR 14/03 A3041 RMK AO2 SLP302 T01440033 51022,KHEZ,2018-03-22T14:56:00Z,31.62,-91.3,14.4,3.3,0,3,,10.0,30.410433,1030.2,,TRUE,TRUE,,,,,,,CLR,,,,,,,,VFR,2.2,,,,,,,,,,,METAR,83.0
KHEF 221456Z 32017G25KT 10SM CLR 03/M05 A3003 RMK AO2 PK WND 32027/1400 SLP182 6//// T00281050 51015 PNO $,KHEF,2018-03-22T14:56:00Z,38.72,-77.52,2.8,-5.0,320,17,25,10.0,30.029528,1018.2,,,TRUE,TRUE,,,,,,CLR,,,,,,,,VFR,1.5,,,,,,,,,,,METAR,59.0
KENV 221456Z AUTO 22003KT 10SM SCT065 08/02 A2988 RMK AO2 SLP117 60000 T00780022 58007,KENV,2018-03-22T14:56:00Z,40.72,-114.02,7.8,2.2,220,3,,10.0,29.878937,1011.7,,TRUE,TRUE,,,,,,,SCT,6500,,,,,,,VFR,-0.7,,,,,,0.005,,,,,METAR,1292.0
KEKY 221456Z AUTO 32009KT 10SM CLR 08/M02 A3038 RMK AO2 SLP311 T00831022 51023,KEKY,2018-03-22T14:56:00Z,33.32,-86.93,8.3,-2.2,320,9,,10.0,30.380905,1031.1,,TRUE,TRUE,,,,,,,CLR,,,,,,,,VFR,2.3,,,,,,,,,,,METAR,213.0
KEKQ 221456Z AUTO 32008G16KT 280V340 10SM CLR 03/M03 A3032 RMK AO2 SLP296 6//// T00331028 53013 PNO $,KEKQ,2018-03-22T14:56:00Z,36.85,-84.85,3.3,-2.8,320,8,16,10.0,30.318897,1029.6,,TRUE,TRUE,TRUE,,,,,,CLR,,,,,,,,VFR,1.3,,,,,,,,,,,METAR,294.0
KEHR 221456Z AUTO 00000KT 10SM CLR 06/M06 A3039 RMK AO2 SLP305 60052 T00561061 52020,KEHR,2018-03-22T14:56:00Z,37.82,-87.67,5.6,-6.1,0,0,,10.0,30.389763,1030.5,,TRUE,TRUE,,,,,,,CLR,,,,,,,,VFR,2.0,,,,,,0.52,,,,,METAR,117.0
KEGE 221456Z 26003KT 10SM CLR 01/M04 A3025 RMK AO2 SLP254 T00061044 51006,KEGE,2018-03-22T14:56:00Z,39.63,-106.92,0.6,-4.4,260,3,,10.0,30.250984,1025.4,,,TRUE,,,,,,,CLR,,,,,,,,VFR,0.6,,,,,,,,,,,METAR,1993.0
KEEN 221456Z AUTO 35013KT 10SM OVC075 04/M06 A2973 RMK AO2 SLP090 T00391056 58003,KEEN,2018-03-22T14:56:00Z,42.88,-72.27,3.9,-5.6,350,13,,10.0,29.731298,1009.0,,TRUE,TRUE,,,,,,,OVC,7500,,,,,,,VFR,-0.3,,,,,,,,,,,METAR,149.0
KEAR 221456Z AUTO 15008KT 10SM CLR 07/02 A3012 RMK AO2 SLP203 T00720022 51003,KEAR,2018-03-22T14:56:00Z,40.72,-99.0,7.2,2.2,150,8,,10.0,30.121063,1020.3,,TRUE,TRUE,,,,,,,CLR,,,,,,,,VFR,0.3,,,,,,,,,,,METAR,649.0
KDYR 221456Z AUTO 00000KT 10SM CLR 09/M03 RMK AO2 SLPNO 6//// T00891033 PNO $,KDYR,2018-03-22T14:56:00Z,36.0,-89.4,8.9,-3.3,0,0,,10.0,,,,TRUE,TRUE,TRUE,,,,,,CLR,,,,,,,,VFR,,,,,,,,,,,,METAR,103.0
KDWU 221456Z AUTO VRB05KT 10SM CLR 03/M02 A3026 RMK AO2 SLP252 T00281022 51013,KDWU,2018-03-22T14:56:00Z,38.55,-82.73,2.8,-2.2,0,5,,10.0,30.259842,1025.2,,TRUE,TRUE,,,,,,,CLR,,,,,,,,VFR,1.3,,,,,,,,,,,METAR,166.0
KDIJ 221456Z AUTO 09004KT 10SM FEW038 SCT070 BKN090 03/01 A2998 RMK AO2 SLP157 60000 T00280006 58012,KDIJ,2018-03-22T14:56:00Z,43.75,-111.1,2.8,0.6,90,4,,10.0,29.97933,1015.7,,TRUE,TRUE,,,,,,,FEW,3800,SCT,7000,BKN,9000,,,VFR,-1.2,,,,,,0.005,,,,,METAR,1899.0
KCWI 221456Z AUTO 10SM CLR 03/M05 A3037 RMK AO2 SLP313 T00331050 51013 $,KCWI,2018-03-22T14:56:00Z,41.82,-90.32,3.3,-5.0,,,,10.0,30.369095,1031.3,,TRUE,TRUE,TRUE,,,,,,CLR,,,,,,,,VFR,1.3,,,,,,,,,,,METAR,216.0
RKSG 221456Z AUTO 00000KT 8SM CLR 03/03 A3005 RMK AO2 SLP180 T00270027 401080004 52008 PWINO $,RKSG,2018-03-22T14:56:00Z,36.97,127.02,2.7,2.7,0,0,,8.0,30.050198,1018.0,,TRUE,TRUE,TRUE,,,,TRUE,,CLR,,,,,,,,VFR,0.8,,,10.8,0.4,,,,,,,METAR,16.0
KNUC 221456Z 16007KT 10SM SCT080 BKN110 OVC150 17/14 A3001 RMK SLP161 T01720139 53007,KNUC,2018-03-22T14:56:00Z,33.02,-118.57,17.2,13.9,160,7,,10.0,30.008858,1016.1,,,,,,,,,,SCT,8000,BKN,11000,OVC,15000,,,VFR,0.7,,,,,,,,,,,METAR,55.0
EGVA 221456Z AUTO 25013G20KT M M OVC031 08/01 A3002 RMK AO2 SLP172 T00810013 57028 RVRNO $,EGVA,2018-03-22T14:56:00Z,51.67,-1.77,8.1,1.3,250,13,20,,30.02067,1017.2,,TRUE,TRUE,TRUE,,,,,,OVC,3100,,,,,,,,-2.8,,,,,,,,,,,METAR,87.0
EGUN 221456Z AUTO 26012KT 9999 OVC026 10/07 A2999 RMK AO2 SLP159 T00950074 57016 .,EGUN,2018-03-22T14:56:00Z,52.37,0.47,9.5,7.4,260,12,,6.21,29.991142,1015.9,,TRUE,TRUE,,,,,,,OVC,2600,,,,,,,MVFR,-1.6,,,,,,,,,,,SPECI,10.0
EGUL 221456Z AUTO 26012KT 9999 OVC026 10/09 A2998 RMK AO2 SLP156 60000 T00950092 57017 $,EGUL,2018-03-22T14:56:00Z,52.42,0.57,9.5,9.2,260,12,,6.21,29.97933,1015.6,,TRUE,TRUE,TRUE,,,,,,OVC,2600,,,,,,,MVFR,-1.7,,,,,,0.005,,,,,METAR,10.0
KLCI 221456Z AUTO 32007KT 10SM BKN050 OVC060 06/M08 A2970 RMK AO2 SLP077 T00561078 58010,KLCI,2018-03-22T14:56:00Z,43.57,-71.42,5.6,-7.8,320,7,,10.0,29.698818,1007.7,,TRUE,TRUE,,,,,,,BKN,5000,OVC,6000,,,,,VFR,-1.0,,,,,,,,,,,METAR,166.0
KLBL 221456Z AUTO 20007KT 10SM CLR 10/M01 A3008 RMK AO2 SLP184 T01001011 53002,KLBL,2018-03-22T14:56:00Z,37.03,-100.97,10.0,-1.1,200,7,,10.0,30.079725,1018.4,,TRUE,TRUE,,,,,,,CLR,,,,,,,,VFR,0.2,,,,,,,,,,,METAR,879.0
KKLS 221456Z AUTO 00000KT 5SM RA BR BKN013 OVC018 07/06 A2956 RMK AO2 SLP014 P0005 60021 T00670061 53012,KKLS,2018-03-22T14:56:00Z,46.12,-122.9,6.7,6.1,0,0,,5.0,29.56004,1001.4,,TRUE,TRUE,,,,,,RA BR,BKN,1300,OVC,1800,,,,,MVFR,1.2,,,,,0.05,0.21,,,,,METAR,5.0
KJHW 221456Z AUTO 32009KT 10SM CLR M03/M08 A3005 RMK AO2 SLP202 T10281083 51012 FZRANO,KJHW,2018-03-22T14:56:00Z,42.13,-79.27,-2.8,-8.3,320,9,,10.0,30.050198,1020.2,,TRUE,TRUE,,,,TRUE,,,CLR,,,,,,,,VFR,1.2,,,,,,,,,,,METAR,525.0
KJAC 221456Z 10003KT 10SM -RA FEW003 OVC034 01/01 A3002 RMK AO2 RAE12B56 SLP182 P0000 6//// T00110006 58003,KJAC,2018-03-22T14:56:00Z,43.62,-110.73,1.1,0.6,100,3,,10.0,30.02067,1018.2,,,TRUE,,,,,,-RA,FEW,300,OVC,3400,,,,,VFR,-0.3,,,,,0.005,,,,,,METAR,1961.0
KIWD 221456Z AUTO 00000KT 10SM CLR 00/M04 A3036 RMK AO2 SLP302 T00001044 51010 FZRANO,KIWD,2018-03-22T14:56:00Z,46.52,-90.12,0.0,-4.4,0,0,,10.0,30.360237,1030.2,,TRUE,TRUE,,,,TRUE,,,CLR,,,,,,,,VFR,1.0,,,,,,,,,,,METAR,375.0
KITH 221456Z 32012KT 10SM CLR M01/M06 A2998 RMK AO2 SLP166 T10111061 51012,KITH,2018-03-22T14:56:00Z,42.47,-76.45,-1.1,-6.1,320,12,,10.0,29.97933,1016.6,,,TRUE,,,,,,,CLR,,,,,,,,VFR,1.2,,,,,,,,,,,METAR,335.0
KISM 221456Z 35009KT 10SM CLR 14/M01 A3026 RMK AO2 SLP250 T01391006 51012,KISM,2018-03-22T14:56:00Z,28.28,-81.43,13.9,-0.6,350,9,,10.0,30.259842,1025.0,,,TRUE,,,,,,,CLR,,,,,,,,VFR,1.2,,,,,,,,,,,METAR,25.0
KILE 221456Z AUTO 18013G19KT 10SM CLR 18/13 A3028 RMK AO2 SLP267 6//// T01780128 53015 PNO $,KILE,2018-03-22T14:56:00Z,31.07,-97.67,17.8,12.8,180,13,19,10.0,30.280512,1026.7,,TRUE,TRUE,TRUE,,,,,,CLR,,,,,,,,VFR,1.5,,,,,,,,,,,METAR,258.0
KLEW 221456Z AUTO 36018G23KT 10SM -RA BKN041 OVC048 01/M06 A2971 RMK AO2 RAB19E29B45SNB29E45 SLP078 P0000 60000 T00061061 56007 FZRANO,KLEW,2018-03-22T14:56:00Z,44.03,-70.27,0.6,-6.1,360,18,23,10.0,29.71063,1007.8,,TRUE,TRUE,,,,TRUE,,-RA,BKN,4100,OVC,4800,,,,,VFR,-0.7,,,,,0.005,0.005,,,,,METAR,88.0
KFCI 221456Z AUTO 31017G22KT 10SM CLR 06/M04 A3005 RMK AO2 SLP196 T00611039 52021 $,KFCI,2018-03-22T14:56:00Z,37.4,-77.52,6.1,-3.9,310,17,22,10.0,30.050198,1019.6,,TRUE,TRUE,TRUE,,,,,,CLR,,,,,,,,VFR,2.1,,,,,,,,,,,METAR,72.0
KFAM 221456Z AUTO 11003KT 10SM BKN100 OVC110 06/01 A3038 RMK AO2 SLP291 T00610011 50015,KFAM,2018-03-22T14:56:00Z,37.77,-90.42,6.1,1.1,110,3,,10.0,30.380905,1029.1,,TRUE,TRUE,,,,,,,BKN,10000,OVC,11000,,,,,VFR,1.5,,,,,,,,,,,METAR,288.0
KEWK 221456Z AUTO 18016G21KT 10SM CLR 13/00 A3018 RMK AO2 SLP218 T01280000 50006,KEWK,2018-03-22T14:56:00Z,38.03,-97.27,12.8,0.0,180,16,21,10.0,30.180119,1021.8,,TRUE,TRUE,,,,,,,CLR,,,,,,,,VFR,0.6,,,,,,,,,,,METAR,467.0
KEUL 221456Z AUTO 15007KT 10SM -RA FEW037 BKN049 OVC060 09/08 A2971 RMK AO2 SLP058 P0002 60003 T00940083 55008,KEUL,2018-03-22T14:56:00Z,43.62,-116.62,9.4,8.3,150,7,,10.0,29.71063,1005.8,,TRUE,TRUE,,,,,,-RA,FEW,3700,BKN,4900,OVC,6000,,,VFR,-0.8,,,,,0.02,0.03,,,,,METAR,740.0
KESC 221456Z AUTO 33007KT 10SM CLR M02/M10 A3034 RMK AO2 SLP301 T10171100 51004 FZRANO,KESC,2018-03-22T14:56:00Z,45.75,-87.08,-1.7,-10.0,330,7,,10.0,30.339567,1030.1,,TRUE,TRUE,,,,TRUE,,,CLR,,,,,,,,VFR,0.4,,,,,,,,,,,METAR,187.0
KOKK 221456Z AUTO 35010G17KT 10SM CLR 02/M05 A3031 RMK AO2 SLP276 T00221050 51014 FZRANO,KOKK,2018-03-22T14:56:00Z,40.53,-86.07,2.2,-5.0,350,10,17,10.0,30.31004,1027.6,,TRUE,TRUE,,,,TRUE,,,CLR,,,,,,,,VFR,1.4,,,,,,,,,,,METAR,253.0
KOCH 221456Z AUTO 11004KT 10SM 16/09 A3036 RMK AO2 SLP284 T01610094 53018 $,KOCH,2018-03-22T14:56:00Z,31.57,-94.72,16.1,9.4,110,4,,10.0,30.360237,1028.4,,TRUE,TRUE,TRUE,,,,,,,,,,,,,,,1.8,,,,,,,,,,,METAR,108.0
KOAJ 221456Z AUTO VRB05G16KT 10SM FEW041 08/M01 A3009 RMK AO2 SLP194 T00831011 51010,KOAJ,2018-03-22T14:56:00Z,34.82,-77.62,8.3,-1.1,0,5,16,10.0,30.088583,1019.4,,TRUE,TRUE,,,,,,,FEW,4100,,,,,,,VFR,1.0,,,,,,,,,,,METAR,29.0
KMYR 221456Z 32011G16KT 10SM CLR 08/M02 A3015 RMK AO2 SLP208 T00831022 50007,KMYR,2018-03-22T14:56:00Z,33.67,-78.92,8.3,-2.2,320,11,16,10.0,30.15059,1020.8,,,TRUE,,,,,,,CLR,,,,,,,,VFR,0.7,,,,,,,,,,,METAR,8.0
KMVN 221456Z AUTO 20003KT 10SM CLR 06/M03 A3039 RMK AO2 SLP293 T00611028 51010,KMVN,2018-03-22T14:56:00Z,38.32,-88.87,6.1,-2.8,200,3,,10.0,30.389763,1029.3,,TRUE,TRUE,,,,,,,CLR,,,,,,,,VFR,1.0,,,,,,,,,,,METAR,146.0
KMTW 221456Z AUTO 36006KT 10SM CLR M01/M09 A3036 RMK AO2 SLP305 T10111094 51012 FZRANO,KMTW,2018-03-22T14:56:00Z,44.12,-87.67,-1.1,-9.4,360,6,,10.0,30.360237,1030.5,,TRUE,TRUE,,,,TRUE,,,CLR,,,,,,,,VFR,1.2,,,,,,,,,,,METAR,198.0
KMSV 221456Z AUTO 32010G17KT 10SM CLR M01/M07 A2984 RMK AO2 SLP118 T10061072 51013 FZRANO,KMSV,2018-03-22T14:56:00Z,41.7,-74.78,-0.6,-7.2,320,10,17,10.0,29.840551,1011.8,,TRUE,TRUE,,,,TRUE,,,CLR,,,,,,,,VFR,1.3,,,,,,,,,,,METAR,428.0
KMRF 221456Z AUTO 18005KT 10SM CLR 17/04 A3029 RMK AO2 SLP213 T01670039 53019,KMRF,2018-03-22T14:56:00Z,30.37,-104.02,16.7,3.9,180,5,,10.0,30.28937,1021.3,,TRUE,TRUE,,,,,,,CLR,,,,,,,,VFR,1.9,,,,,,,,,,,METAR,1481.0
KMQY 221456Z 31010KT 10SM CLR 07/M03 A3038 RMK AO2 SLP286 T00721033 51021,KMQY,2018-03-22T14:56:00Z,36.02,-86.52,7.2,-3.3,310,10,,10.0,30.380905,1028.6,,,TRUE,,,,,,,CLR,,,,,,,,VFR,2.1,,,,,,,,,,,METAR,166.0
KMNM 221456Z AUTO 36006KT 10SM CLR M01/M06 A3036 RMK AO2 SLP304 T10061061 51009 FZRANO $,KMNM,2018-03-22T14:56:00Z,45.12,-87.62,-0.6,-6.1,360,6,,10.0,30.360237,1030.4,,TRUE,TRUE,TRUE,,,TRUE,,,CLR,,,,,,,,VFR,0.9,,,,,,,,,,,METAR,191.0
KMML 221456Z AUTO 12008KT 10SM OVC048 02/00 A3030 RMK AO2 SLP275 T00170000 51015 FZRANO,KMML,2018-03-22T14:56:00Z,44.45,-95.82,1.7,0.0,120,8,,10.0,30.301182,1027.5,,TRUE,TRUE,,,,TRUE,,,OVC,4800,,,,,,,VFR,1.5,,,,,,,,,,,METAR,359.0
KMKY 221456Z AUTO 36012G18KT 10SM CLR 17/04 A3026 RMK AO2 SLP247 T01670039 51020,KMKY,2018-03-22T14:56:00Z,26.0,-81.67,16.7,3.9,360,12,18,10.0,30.259842,1024.7,,TRUE,TRUE,,,,,,,CLR,,,,,,,,VFR,2.0,,,,,,,,,,,METAR,2.0
KMKT 221456Z AUTO 13008KT 10SM OVC044 01/M02 A3035 RMK AO2 SLP291 T00111022 51012 FZRANO,KMKT,2018-03-22T14:56:00Z,44.22,-93.92,1.1,-2.2,130,8,,10.0,30.351377,1029.1,,TRUE,TRUE,,,,TRUE,,,OVC,4400,,,,,,,VFR,1.2,,,,,,,,,,,METAR,311.0
KMJX 221456Z AUTO 30008KT 10SM OVC085 02/M01 A2985 RMK AO2 SLP113 P0010 60019 T00171011 53016 FZRANO,KMJX,2018-03-22T14:56:00Z,39.93,-74.3,1.7,-1.1,300,8,,10.0,29.84941,1011.3,,TRUE,TRUE,,,,TRUE,,,OVC,8500,,,,,,,VFR,1.6,,,,,0.1,0.19,,,,,METAR,25.0
KMBL 221456Z AUTO 34008KT 10SM CLR 01/M07 A3032 RMK AO2 SLP289 T00111072 53008 FZRANO,KMBL,2018-03-22T14:56:00Z,44.27,-86.25,1.1,-7.2,340,8,,10.0,30.318897,1028.9,,TRUE,TRUE,,,,TRUE,,,CLR,,,,,,,,VFR,0.8,,,,,,,,,,,METAR,189.0
KM19 221456Z AUTO 10003KT 10SM 08/01 A3042 RMK AO2 SLP307 T00830011 51017 $,KM19,2018-03-22T14:56:00Z,35.65,-91.17,8.3,1.1,100,3,,10.0,30.41929,1030.7,,TRUE,TRUE,TRUE,,,,,,,,,,,,,,,1.7,,,,,,,,,,,METAR,73.0
KLZU 221456Z VRB04KT 10SM CLR 07/M04 A3025 RMK AO2 SLP259 T00671044 51014,KLZU,2018-03-22T14:56:00Z,33.98,-83.97,6.7,-4.4,0,4,,10.0,30.250984,1025.9,,,TRUE,,,,,,,CLR,,,,,,,,VFR,1.4,,,,,,,,,,,METAR,323.0
KLRD 221456Z 14017G22KT 10SM CLR 22/16 A3023 RMK AO2 SLP241 T02220156 51019,KLRD,2018-03-22T14:56:00Z,27.55,-99.47,22.2,15.6,140,17,22,10.0,30.230314,1024.1,,,TRUE,,,,,,,CLR,,,,,,,,VFR,1.9,,,,,,,,,,,METAR,155.0
KLPC 221456Z AUTO 08003KT 3SM -RA BR FEW012 OVC024 15/14 A2993 RMK AO2 SLP138 P0032 60062 T01500144 53009,KLPC,2018-03-22T14:56:00Z,34.67,-120.47,15.0,14.4,80,3,,3.0,29.929134,1013.8,,TRUE,TRUE,,,,,,-RA BR,FEW,1200,OVC,2400,,,,,MVFR,0.9,,,,,0.32,0.62,,,,,METAR,27.0
PPIT 221456Z AUTO 08009KT 10SM CLR M11/M12 A3023 RMK AO2 SLP236 T11111117 56034 FZRANO TSNO,PPIT,2018-03-22T14:56:00Z,60.9,-162.43,-11.1,-11.7,80,9,,10.0,30.230314,1023.6,,TRUE,TRUE,,,TRUE,TRUE,,,CLR,,,,,,,,VFR,-3.4,,,,,,,,,,,METAR,4.0
PFWS 221456Z AUTO 03011KT 10SM CLR M08/M09 A3029 RMK AO2 SLP263 T10781089 58028 FZRANO,PFWS,2018-03-22T14:56:00Z,58.7,-157.0,-7.8,-8.9,30,11,,10.0,30.28937,1026.3,,TRUE,TRUE,,,,TRUE,,,CLR,,,,,,,,VFR,-2.8,,,,,,,,,,,METAR,49.0
PFSH 221456Z AUTO 13013KT 10SM CLR M06/M08 A3033 RMK AO2 SLP271 T10561083 58027 PWINO FZRANO $,PFSH,2018-03-22T14:56:00Z,64.37,-161.22,-5.6,-8.3,130,13,,10.0,30.33071,1027.1,,TRUE,TRUE,TRUE,,,TRUE,TRUE,,CLR,,,,,,,,VFR,-2.7,,,,,,,,,,,METAR,7.0
KRUT 221456Z AUTO 36009KT 10SM CLR M02/M07 A2983 RMK AO2 SLP126 T10221067 58001 FZRANO $,KRUT,2018-03-22T14:56:00Z,43.52,-72.95,-2.2,-6.7,360,9,,10.0,29.828741,1012.6,,TRUE,TRUE,TRUE,,,TRUE,,,CLR,,,,,,,,VFR,-0.1,,,,,,,,,,,METAR,240.0
KPWG 221456Z AUTO 15011KT 10SM CLR 17/12 A3029 RMK AO2 SLP270 T01670117 51020,KPWG,2018-03-22T14:56:00Z,31.47,-97.32,16.7,11.7,150,11,,10.0,30.28937,1027.0,,TRUE,TRUE,,,,,,,CLR,,,,,,,,VFR,2.0,,,,,,,,,,,METAR,180.0
KPVU 221456Z 13013G18KT 10SM -RA BKN060 BKN120 12/03 A2998 RMK AO2 RAB34 SLP129 P0000 60000 T01220028 58003,KPVU,2018-03-22T14:56:00Z,40.22,-111.72,12.2,2.8,130,13,18,10.0,29.97933,1012.9,,,TRUE,,,,,,-RA,BKN,6000,BKN,12000,,,,,VFR,-0.3,,,,,0.005,0.005,,,,,METAR,1369.0
KPVG 221456Z AUTO 33008KT 10SM CLR A3002 RMK AO2 SLPNO 6//// 51017 FZRANO PNO $,KPVG,2018-03-22T14:56:00Z,36.78,-76.45,,,330,8,,10.0,30.02067,,,TRUE,TRUE,TRUE,,,TRUE,,,CLR,,,,,,,,VFR,1.7,,,,,,,,,,,METAR,7.0
KPTV 221456Z AUTO 07008KT 10SM -RA OVC070 16/14 A2989 RMK AO2 SLP132 P0003 60007 T01610139 53017,KPTV,2018-03-22T14:56:00Z,36.02,-119.07,16.1,13.9,70,8,,10.0,29.890747,1013.2,,TRUE,TRUE,,,,,,-RA,OVC,7000,,,,,,,VFR,1.7,,,,,0.03,0.07,,,,,METAR,135.0
KPTN 221456Z AUTO 08010KT 10SM CLR 16/03 A3040 RMK AO2 SLP295 T01610028 51017 TSNO,KPTN,2018-03-22T14:56:00Z,29.72,-91.32,16.1,2.8,80,10,,10.0,30.398623,1029.5,,TRUE,TRUE,,,TRUE,,,,CLR,,,,,,,,VFR,1.7,,,,,,,,,,,METAR,3.0
KPRX 221456Z AUTO 16012KT 10SM FEW110 16/03 A3033 RMK AO2 SLP285 T01610028 52009,KPRX,2018-03-22T14:56:00Z,33.62,-95.45,16.1,2.8,160,12,,10.0,30.33071,1028.5,,TRUE,TRUE,,,,,,,FEW,11000,,,,,,,VFR,0.9,,,,,,,,,,,METAR,167.0
KPIB 221456Z AUTO 00000KT 10SM CLR 11/03 A3042 RMK AO2 SLP301 T01110033 51020,KPIB,2018-03-22T14:56:00Z,31.47,-89.32,11.1,3.3,0,0,,10.0,30.41929,1030.1,,TRUE,TRUE,,,,,,,CLR,,,,,,,,VFR,2.0,,,,,,,,,,,METAR,91.0
KOWB 221456Z VRB03KT 10SM CLR 06/M06 A3038 RMK AO2 SLP303 T00561056 51021,KOWB,2018-03-22T14:56:00Z,37.72,-87.17,5.6,-5.6,0,3,,10.0,30.380905,1030.3,,,TRUE,,,,,,,CLR,,,,,,,,VFR,2.1,,,,,,,,,,,METAR,124.0
KOTH 221456Z 17005KT 10SM FEW031 BKN042 OVC060 05/04 A2971 RMK AO2 RAE48 SLP060 P0005 60015 T00500039 53027,KOTH,2018-03-22T14:56:00Z,43.42,-124.25,5.0,3.9,170,5,,10.0,29.71063,1006.0,,,TRUE,,,,,,,FEW,3100,BKN,4200,OVC,6000,,,VFR,2.7,,,,,0.05,0.15,,,,,METAR,4.0
KOTG 221456Z AUTO 13011KT 10SM SCT080 02/M01 A3026 RMK AO2 SLP268 T00221006 51009 FZRANO,KOTG,2018-03-22T14:56:00Z,43.63,-95.57,2.2,-0.6,130,11,,10.0,30.259842,1026.8,,TRUE,TRUE,,,,TRUE,,,SCT,8000,,,,,,,VFR,0.9,,,,,,,,,,,METAR,480.0
KOLU 221456Z AUTO 17010KT 10SM BKN110 08/02 A3017 RMK AO2 SLP225 T00780017 53008,KOLU,2018-03-22T14:56:00Z,41.45,-97.32,7.8,1.7,170,10,,10.0,30.171259,1022.5,,TRUE,TRUE,,,,,,,BKN,11000,,,,,,,VFR,0.8,,,,,,,,,,,METAR,440.0
KLGD 221456Z AUTO 14009KT 9SM -RA BKN031 09/07 A2961 RMK AO2 SLP172 P0001 60001 T00890072 51008,KLGD,2018-03-22T14:56:00Z,45.27,-118.0,8.9,7.2,140,9,,9.0,29.610237,1017.2,,TRUE,TRUE,,,,,,-RA,BKN,3100,,,,,,,VFR,0.8,,,,,0.01,0.01,,,,,METAR,827.0
KFKL 221456Z AUTO 31008KT 280V350 10SM CLR M01/M07 A3009 RMK AO2 SLP207 T10111072 53012 FZRANO,KFKL,2018-03-22T14:56:00Z,41.37,-79.87,-1.1,-7.2,310,8,,10.0,30.088583,1020.7,,TRUE,TRUE,,,,TRUE,,,CLR,,,,,,,,VFR,1.2,,,,,,,,,,,METAR,469.0
KFOD 221456Z AUTO 11008KT 10SM -RA BKN050 BKN065 OVC090 02/M01 A3032 RMK AO2 RAB00 SLP307 P0000 60000 T00171011 51010 FZRANO,KFOD,2018-03-22T14:56:00Z,42.53,-94.17,1.7,-1.1,110,8,,10.0,30.318897,1030.7,,TRUE,TRUE,,,,TRUE,,-RA,BKN,5000,BKN,6500,OVC,9000,,,VFR,1.0,,,,,0.005,0.005,,,,,METAR,355.0
KFNL 221456Z AUTO 00000KT 10SM CLR 08/01 A3010 RMK AO2 SLP174 T00780006 50004,KFNL,2018-03-22T14:56:00Z,40.45,-105.02,7.8,0.6,0,0,,10.0,30.100393,1017.4,,TRUE,TRUE,,,,,,,CLR,,,,,,,,VFR,0.4,,,,,,,,,,,METAR,1529.0
KFLP 221456Z AUTO 10003KT 10SM CLR 07/01 A3039 RMK AO2 SLP291 T00670011 50016,KFLP,2018-03-22T14:56:00Z,36.28,-92.58,6.7,1.1,100,3,,10.0,30.389763,1029.1,,TRUE,TRUE,,,,,,,CLR,,,,,,,,VFR,1.6,,,,,,,,,,,METAR,219.0
KBVX 221456Z AUTO VRB03KT 10SM CLR 09/01 A3041 RMK AO2 SLP301 T00940011 51017,KBVX,2018-03-22T14:56:00Z,35.73,-91.65,9.4,1.1,0,3,,10.0,30.410433,1030.1,,TRUE,TRUE,,,,,,,CLR,,,,,,,,VFR,1.7,,,,,,,,,,,METAR,141.0
KBTP 221456Z AUTO 28006KT 10SM CLR M01/M06 A3012 RMK AO2 SLP221 T10111061 53012 FZRANO,KBTP,2018-03-22T14:56:00Z,40.77,-79.95,-1.1,-6.1,280,6,,10.0,30.121063,1022.1,,TRUE,TRUE,,,,TRUE,,,CLR,,,,,,,,VFR,1.2,,,,,,,,,,,METAR,380.0
KBOK 221456Z AUTO 00000KT 6SM -RA BR OVC012 02/02 A2977 RMK AO2 PRESRR SLP097 P0003 60028 T00220022 51026,KBOK,2018-03-22T14:56:00Z,42.07,-124.28,2.2,2.2,0,0,,6.0,29.769686,1009.7,,TRUE,TRUE,,,,,,-RA BR,OVC,1200,,,,,,,MVFR,2.6,,,,,0.03,0.28,,,,,METAR,140.0
KBMI 221456Z 00000KT 10SM CLR 04/M07 A3036 RMK AO2 SLP308 T00391072 51015 $,KBMI,2018-03-22T14:56:00Z,40.47,-88.92,3.9,-7.2,0,0,,10.0,30.360237,1030.8,,,TRUE,TRUE,,,,,,CLR,,,,,,,,VFR,1.5,,,,,,,,,,,METAR,267.0
KBLM 221456Z AUTO 30013KT 10SM BKN041 OVC085 02/M03 A2982 RMK AO2 SLP104 P0012 60022 T00221028 51015 FZRANO,KBLM,2018-03-22T14:56:00Z,40.17,-74.12,2.2,-2.8,300,13,,10.0,29.819881,1010.4,,TRUE,TRUE,,,,TRUE,,,BKN,4100,OVC,8500,,,,,VFR,1.5,,,,,0.12,0.22,,,,,METAR,48.0
KBKX 221456Z AUTO 12009KT 10SM CLR 03/02 A3024 RMK AO2 SLP269 T00330017 51010,KBKX,2018-03-22T14:56:00Z,44.28,-96.82,3.3,1.7,120,9,,10.0,30.239174,1026.9,,TRUE,TRUE,,,,,,,CLR,,,,,,,,VFR,1.0,,,,,,,,,,,METAR,502.0
KBID 221456Z AUTO 36013G23KT 10SM FEW012 BKN018 OVC024 03/01 A2967 RMK AO2 RAE28 SLP051 P0000 60000 T00280006 51015,KBID,2018-03-22T14:56:00Z,41.17,-71.58,2.8,0.6,360,13,23,10.0,29.66929,1005.1,,TRUE,TRUE,,,,,,,FEW,1200,BKN,1800,OVC,2400,,,MVFR,1.5,,,,,0.005,0.005,,,,,METAR,33.0
KAUO 221456Z AUTO 34010KT 10SM CLR 08/M03 A3033 RMK AO2 SLP298 T00831028 52013,KAUO,2018-03-22T14:56:00Z,32.62,-85.42,8.3,-2.8,340,10,,10.0,30.33071,1029.8,,TRUE,TRUE,,,,,,,CLR,,,,,,,,VFR,1.3,,,,,,,,,,,METAR,236.0
KHDN 221456Z AUTO 10009KT 10SM FEW060 OVC095 03/M02 A3017 RMK AO2 SLP210 T00331017 50004,KHDN,2018-03-22T14:56:00Z,40.47,-107.22,3.3,-1.7,100,9,,10.0,30.171259,1021.0,,TRUE,TRUE,,,,,,,FEW,6000,OVC,9500,,,,,VFR,0.4,,,,,,,,,,,METAR,2012.0
KGXY 221456Z AUTO 00000KT 10SM CLR 07/M01 A3011 RMK AO2 SLP204 T00671006 50010,KGXY,2018-03-22T14:56:00Z,40.42,-104.62,6.7,-0.6,0,0,,10.0,30.109253,1020.4,,TRUE,TRUE,,,,,,,CLR,,,,,,,,VFR,1.0,,,,,,,,,,,METAR,1420.0
KGUC 221456Z AUTO 00000KT 10SM OVC060 M04/M06 A3034 RMK AO2 SLP297 T10391061 52010 FZRANO,KGUC,2018-03-22T14:56:00Z,38.52,-106.92,-3.9,-6.1,0,0,,10.0,30.339567,1029.7,,TRUE,TRUE,,,,TRUE,,,OVC,6000,,,,,,,VFR,1.0,,,,,,,,,,,METAR,2339.0
KGTU 221456Z 15011G14KT 10SM CLR 17/12 A3029 RMK AO2 SLP257 T01720122 51013,KGTU,2018-03-22T14:56:00Z,30.68,-97.68,17.2,12.2,150,11,14,10.0,30.28937,1025.7,,,TRUE,,,,,,,CLR,,,,,,,,VFR,1.3,,,,,,,,,,,METAR,240.0
KGTR 221456Z 01006KT 10SM CLR 10/03 A3042 RMK AO2 SLP302 T01000033 51022,KGTR,2018-03-22T14:56:00Z,33.45,-88.57,10.0,3.3,10,6,,10.0,30.41929,1030.2,,,TRUE,,,,,,,CLR,,,,,,,,VFR,2.2,,,,,,,,,,,METAR,80.0
KGPZ 221456Z AUTO 00000KT 10SM BKN070 M02/M06 A3036 RMK AO2 SLP302 T10171061 51011 FZRANO,KGPZ,2018-03-22T14:56:00Z,47.22,-93.52,-1.7,-6.1,0,0,,10.0,30.360237,1030.2,,TRUE,TRUE,,,,TRUE,,,BKN,7000,,,,,,,VFR,1.1,,,,,,,,,,,METAR,413.0
KGDV 221456Z AUTO 04007KT 10SM CLR M01/M03 A3009 RMK AO2 SLP215 T10111028 50003 FZRANO,KGDV,2018-03-22T14:56:00Z,47.12,-104.78,-1.1,-2.8,40,7,,10.0,30.088583,1021.5,,TRUE,TRUE,,,,TRUE,,,CLR,,,,,,,,VFR,0.3,,,,,,,,,,,METAR,749.0
KGBD 221456Z AUTO 18017KT 10SM CLR 12/01 A3012 RMK AO2 SLP201 T01170011 50001,KGBD,2018-03-22T14:56:00Z,38.35,-98.87,11.7,1.1,180,17,,10.0,30.121063,1020.1,,TRUE,TRUE,,,,,,,CLR,,,,,,,,VFR,0.1,,,,,,,,,,,METAR,575.0
KGAI 221456Z AUTO 31011G18KT 290V360 10SM CLR 02/M05 A2999 RMK AO2 SLP189 T00171050 51017 FZRANO,KGAI,2018-03-22T14:56:00Z,39.17,-77.17,1.7,-5.0,310,11,18,10.0,29.991142,1018.9,,TRUE,TRUE,,,,TRUE,,,CLR,,,,,,,,VFR,1.7,,,,,,,,,,,METAR,165.0
KGAD 221456Z AUTO 34007KT 300V360 10SM CLR 09/M01 A3036 RMK AO2 SLP289 T00891011 53019,KGAD,2018-03-22T14:56:00Z,33.97,-86.07,8.9,-1.1,340,7,,10.0,30.360237,1028.9,,TRUE,TRUE,,,,,,,CLR,,,,,,,,VFR,1.9,,,,,,,,,,,METAR,173.0
KFRM 221456Z AUTO 14011KT 10SM OVC039 01/M02 A3033 RMK AO2 SLP287 T00111017 53012 FZRANO,KFRM,2018-03-22T14:56:00Z,43.63,-94.42,1.1,-1.7,140,11,,10.0,30.33071,1028.7,,TRUE,TRUE,,,,TRUE,,,OVC,3900,,,,,,,VFR,1.2,,,,,,,,,,,METAR,354.0
KSMP 221456Z AUTO VRB03KT M1/4SM FG VV001 02/02 A2943 RMK AO2 SLP975 T00220017 58009 $,KSMP,2018-03-22T14:56:00Z,47.28,-121.33,2.2,1.7,0,3,,0.25,29.430119,997.5,,TRUE,TRUE,TRUE,,,,,FG,OVX,0,,,,,,,LIFR,-0.9,,,,,,,,,,100,SPECI,1208.0
KSKX 221456Z AUTO 00000KT 10SM CLR 07/M06 A3031 RMK AO2 SLP243 T00721056 51006 $,KSKX,2018-03-22T14:56:00Z,36.45,-105.67,7.2,-5.6,0,0,,10.0,30.31004,1024.3,,TRUE,TRUE,TRUE,,,,,,CLR,,,,,,,,VFR,0.6,,,,,,,,,,,METAR,2161.0
KSGU 221456Z AUTO 14007KT 10SM -RA FEW050 OVC080 16/05 A3005 RMK AO2 RAB19 SLP156 P0000 60000 T01560050 53008,KSGU,2018-03-22T14:56:00Z,37.07,-113.52,15.6,5.0,140,7,,10.0,30.050198,1015.6,,TRUE,TRUE,,,,,,-RA,FEW,5000,OVC,8000,,,,,VFR,0.8,,,,,0.005,0.005,,,,,METAR,896.0
KSGT 221456Z AUTO 09005KT 10SM CLR 11/03 A3041 RMK AO2 SLP297 T01110028 51016,KSGT,2018-03-22T14:56:00Z,34.6,-91.57,11.1,2.8,90,5,,10.0,30.410433,1029.7,,TRUE,TRUE,,,,,,,CLR,,,,,,,,VFR,1.6,,,,,,,,,,,METAR,68.0
KSGJ 221456Z 31011KT 10SM CLR 11/M01 A3025 RMK AO2 SLP241 T01111011 50014,KSGJ,2018-03-22T14:56:00Z,29.97,-81.32,11.1,-1.1,310,11,,10.0,30.250984,1024.1,,,TRUE,,,,,,,CLR,,,,,,,,VFR,1.4,,,,,,,,,,,METAR,3.0
KSGH 221456Z AUTO 32007KT 10SM M01/M06 A3026 RMK AO2 SLP260 T10061056 51018 $,KSGH,2018-03-22T14:56:00Z,39.83,-83.83,-0.6,-5.6,320,7,,10.0,30.259842,1026.0,,TRUE,TRUE,TRUE,,,,,,,,,,,,,,,1.8,,,,,,,,,,,METAR,321.0
KCIU 221456Z AUTO 33004KT 10SM CLR M04/M12 A3028 RMK AO2 SLP282 T10391122 51004 FZRANO,KCIU,2018-03-22T14:56:00Z,46.25,-84.47,-3.9,-12.2,330,4,,10.0,30.280512,1028.2,,TRUE,TRUE,,,,TRUE,,,CLR,,,,,,,,VFR,0.4,,,,,,,,,,,METAR,244.0
KCGZ 221456Z AUTO 00000KT 10SM 18/M03 A3006 RMK AO2 SLP170 6//// T01781028 53016 $,KCGZ,2018-03-22T14:56:00Z,32.95,-111.77,17.8,-2.8,0,0,,10.0,30.059055,1017.0,,TRUE,TRUE,TRUE,,,,,,,,,,,,,,,1.6,,,,,,,,,,,METAR,446.0
KDLF 221456Z 15012KT 10SM FEW014 BKN019 17/13 A3021 RMK AO2A SLP224 CLRING LINE VC W AND DSNT E-SE T01740129 52011,KDLF,2018-03-22T14:56:00Z,29.37,-100.77,17.4,12.9,150,12,,10.0,30.209646,1022.4,,,TRUE,,,,,,,FEW,1400,BKN,1900,,,,,MVFR,1.1,,,,,,,,,,,METAR,330.0
KSXT 221456Z AUTO 21008KT M1/4SM SN FZFG VV002 M01/M01 A2958 RMK AO2 SLP030 P0009 60027 T10111011 51030,KSXT,2018-03-22T14:56:00Z,42.6,-123.37,-1.1,-1.1,210,8,,0.25,29.58071,1003.0,,TRUE,TRUE,,,,,,SN FZFG,OVX,0,,,,,,,LIFR,3.0,,,,,0.09,,,,,200,SPECI,1170.0
KWRB 221456Z 32012KT 10SM CLR 10/M05 A3026 RMK AO2A SLP250 T00981046 52008,KWRB,2018-03-22T14:56:00Z,32.62,-83.58,9.8,-4.6,320,12,,10.0,30.259842,1025.0,,,TRUE,,,,,,,CLR,,,,,,,,VFR,0.8,,,,,,,,,,,METAR,90.0
KMMT 221456Z 32013KT 10SM CLR 10/M05 A3018 RMK AO2A SLP223 T00961051 50013 $,KMMT,2018-03-22T14:56:00Z,33.92,-80.78,9.6,-5.1,320,13,,10.0,30.180119,1022.3,,,TRUE,TRUE,,,,,,CLR,,,,,,,,VFR,1.3,,,,,,,,,,,METAR,77.0
KMGE 221456Z 31009G20KT 10SM CLR 07/M04 A3028 RMK AO2A SLP260 T00651043 52017 $,KMGE,2018-03-22T14:56:00Z,33.92,-84.52,6.5,-4.3,310,9,20,10.0,30.280512,1026.0,,,TRUE,TRUE,,,,,,CLR,,,,,,,,VFR,1.7,,,,,,,,,,,METAR,326.0
KSPD 221456Z AUTO 31017KT 14/M04 A3010 RMK AO1 SLP166 T01441039 53011,KSPD,2018-03-22T14:56:00Z,37.28,-102.62,14.4,-3.9,310,17,,,30.100393,1016.6,,TRUE,TRUE,,,,,,,,,,,,,,,,1.1,,,,,,,,,,,METAR,1335.0
KXMR 221456Z AUTO 34013KT 10SM CLR 14/M03 A3021 RMK AO2 SLP233 T01441030 52012 FZRANO $,KXMR,2018-03-22T14:56:00Z,28.47,-80.57,14.4,-3.0,340,13,,10.0,30.209646,1023.3,,TRUE,TRUE,TRUE,,,TRUE,,,CLR,,,,,,,,VFR,1.2,,,,,,,,,,,METAR,3.0
KOZR 221456Z AUTO 35011KT 10SM CLR 11/M01 A3034 RMK AO2 SLP277 T01071011 51012 $,KOZR,2018-03-22T14:56:00Z,31.28,-85.72,10.7,-1.1,350,11,,10.0,30.339567,1027.7,,TRUE,TRUE,TRUE,,,,,,CLR,,,,,,,,VFR,1.2,,,,,,,,,,,METAR,93.0
KCOF 221456Z AUTO 32013KT 10SM CLR 15/M02 A3022 RMK AO2 SLP238 T01471023 51013,KCOF,2018-03-22T14:56:00Z,28.23,-80.6,14.7,-2.3,320,13,,10.0,30.221457,1023.8,,TRUE,TRUE,,,,,,,CLR,,,,,,,,VFR,1.3,,,,,,,,,,,METAR,3.0
KBAD 221456Z AUTO 16009KT 10SM CLR 14/05 A3037 RMK AO2 SLP287 T01440047 52018,KBAD,2018-03-22T14:56:00Z,32.5,-93.67,14.4,4.7,160,9,,10.0,30.369095,1028.7,,TRUE,TRUE,,,,,,,CLR,,,,,,,,VFR,1.8,,,,,,,,,,,METAR,51.0
KMHS 221456Z AUTO 00000KT 10SM FEW060 07/04 A2953 RMK AO2 RAE25 SLP012 P0002 60002 T00720039 58004,KMHS,2018-03-22T14:56:00Z,41.32,-122.32,7.2,3.9,0,0,,10.0,29.530512,1001.2,,TRUE,TRUE,,,,,,,FEW,6000,,,,,,,VFR,-0.4,,,,,0.02,0.02,,,,,METAR,1078.0
KVAD 221456Z AUTO 34007G14KT 10SM CLR 10/M03 A3026 RMK AO2 SLP250 T01001027 51012 $,KVAD,2018-03-22T14:56:00Z,30.97,-83.2,10.0,-2.7,340,7,14,10.0,30.259842,1025.0,,TRUE,TRUE,TRUE,,,,,,CLR,,,,,,,,VFR,1.2,,,,,,,,,,,METAR,71.0
KSZL 221456Z 15006KT 10SM BKN100 08/01 A3029 RMK AO2A SLP265 T00790011 50015 $,KSZL,2018-03-22T14:56:00Z,38.72,-93.53,7.9,1.1,150,6,,10.0,30.28937,1026.5,,,TRUE,TRUE,,,,,,BKN,10000,,,,,,,VFR,1.5,,,,,,,,,,,METAR,265.0
KMCF 221456Z AUTO 01008KT 10SM CLR 15/02 A3027 RMK AO2 SLP253 T01480020 51013 FZRANO $,KMCF,2018-03-22T14:56:00Z,27.85,-82.52,14.8,2.0,10,8,,10.0,30.268702,1025.3,,TRUE,TRUE,TRUE,,,TRUE,,,CLR,,,,,,,,VFR,1.3,,,,,,,,,,,METAR,4.0
KLTS 221456Z AUTO 17016KT 10SM CLR 15/03 A3015 RMK AO2 SLP205 T01530025 51005 $,KLTS,2018-03-22T14:56:00Z,34.67,-99.27,15.3,2.5,170,16,,10.0,30.15059,1020.5,,TRUE,TRUE,TRUE,,,,,,CLR,,,,,,,,VFR,0.5,,,,,,,,,,,METAR,420.0
ETAD 221456Z 24004KT 3200 -RA BR BKN003 OVC005 02/02 A2995 RMK AO2A RAE1356RAB1358E25RAB42 SLP152 P0002 6//// T00240023 57017 $,ETAD,2018-03-22T14:56:00Z,49.98,6.7,2.4,2.3,240,4,,1.99,29.949802,1015.2,,,TRUE,TRUE,,,,,-RA BR,BKN,300,OVC,500,,,,,LIFR,-1.7,,,,,0.02,,,,,,METAR,365.0
KGNA 221456Z AUTO 00000KT M01/M08 A3038 RMK AO1 SLP302 T10111083 51008,KGNA,2018-03-22T14:56:00Z,47.75,-90.35,-1.1,-8.3,0,0,,,30.380905,1030.2,,TRUE,TRUE,,,,,,,,,,,,,,,,0.8,,,,,,,,,,,METAR,185.0
KXNO 221456Z AUTO 35008KT 10SM CLR 09/M06 A3019 RMK AO2 SLP227 T00861056 50014 $,KXNO,2018-03-22T14:56:00Z,33.62,-81.07,8.6,-5.6,350,8,,10.0,30.188976,1022.7,,TRUE,TRUE,TRUE,,,,,,CLR,,,,,,,,VFR,1.4,,,,,,,,,,,METAR,98.0
KVOK 221456Z 35004KT 10SM FEW070 02/M08 A3034 RMK AO2A SLP290 51015,KVOK,2018-03-22T14:56:00Z,43.92,-90.27,2.0,-8.0,350,4,,10.0,30.339567,1029.0,,,TRUE,,,,,,,FEW,7000,,,,,,,VFR,1.5,,,,,,,,,,,METAR,277.0
KTDR 221456Z AUTO 36011KT 10SM CLR 13/00 A3034 RMK AO2 SLP278 T01271004 50013 $,KTDR,2018-03-22T14:56:00Z,30.05,-85.52,12.7,-0.4,360,11,,10.0,30.339567,1027.8,,TRUE,TRUE,TRUE,,,,,,CLR,,,,,,,,VFR,1.3,,,,,,,,,,,METAR,5.0
BGTL 221456Z 11008KT 9999 FEW002 BKN009 M29/M32 A2980 RMK AO2A SLPNO ALSTG ESTMD T12941323 TSNO $,BGTL,2018-03-22T14:56:00Z,76.53,-68.7,-29.4,-32.3,110,8,,6.21,29.799213,,,,TRUE,TRUE,,TRUE,,,,FEW,200,BKN,900,,,,,IFR,,,,,,,,,,,,METAR,77.0
KMXF 221456Z AUTO 01010KT 10SM CLR 10/M03 A3036 RMK AO2 SLP284 T00971026 52016 $,KMXF,2018-03-22T14:56:00Z,32.37,-86.37,9.7,-2.6,10,10,,10.0,30.360237,1028.4,,TRUE,TRUE,TRUE,,,,,,CLR,,,,,,,,VFR,1.6,,,,,,,,,,,METAR,51.0
KTIK 221456Z AUTO 16011G19KT 10SM CLR 15/00 A3019 RMK AO2 SLP229 T01481005 58002,KTIK,2018-03-22T14:56:00Z,35.42,-97.37,14.8,-0.5,160,11,19,10.0,30.188976,1022.9,,TRUE,TRUE,,,,,,,CLR,,,,,,,,VFR,-0.2,,,,,,,,,,,METAR,394.0
KTBN 221456Z AUTO 13005KT 10SM OVC090 05/00 A3034 RMK AO2 SLP285 T00471003 53012 $,KTBN,2018-03-22T14:56:00Z,37.72,-92.12,4.7,-0.3,130,5,,10.0,30.339567,1028.5,,TRUE,TRUE,TRUE,,,,,,OVC,9000,,,,,,,VFR,1.2,,,,,,,,,,,METAR,353.0
KMUI 221456Z 34009G19KT 280V060 10SM FEW140 BKN200 03/M07 A2994 RMK AO2A PK WND 34026/22 SLP146 T00301072 51012,KMUI,2018-03-22T14:56:00Z,40.42,-76.57,3.0,-7.2,340,9,19,10.0,29.940945,1014.6,,,TRUE,,,,,,,FEW,14000,BKN,20000,,,,,VFR,1.2,,,,,,,,,,,METAR,149.0
KLSF 221456Z AUTO 32013KT 10SM CLR 09/M03 A3032 RMK AO2 SLP274 T00941032 52011 $,KLSF,2018-03-22T14:56:00Z,32.32,-84.97,9.4,-3.2,320,13,,10.0,30.318897,1027.4,,TRUE,TRUE,TRUE,,,,,,CLR,,,,,,,,VFR,1.1,,,,,,,,,,,METAR,71.0
KFBG 221456Z AUTO 31013KT 10SM CLR 08/M05 A3011 RMK AO2 SLP200 T00801048 52013 $,KFBG,2018-03-22T14:56:00Z,35.12,-78.92,8.0,-4.8,310,13,,10.0,30.109253,1020.0,,TRUE,TRUE,TRUE,,,,,,CLR,,,,,,,,VFR,1.3,,,,,,,,,,,METAR,74.0
KCBM 221456Z AUTO 05005KT 10SM CLR 10/03 A3040 RMK AO2 SLP298 T00970025 52021 TSNO $,KCBM,2018-03-22T14:56:00Z,33.63,-88.45,9.7,2.5,50,5,,10.0,30.398623,1029.8,,TRUE,TRUE,TRUE,,TRUE,,,,CLR,,,,,,,,VFR,2.1,,,,,,,,,,,METAR,67.0
KPAM 221456Z AUTO 01010G16KT 10SM CLR 12/M01 A3034 RMK AO2 SLP277 T01221010 50013 $,KPAM,2018-03-22T14:56:00Z,30.07,-85.57,12.2,-1.0,10,10,16,10.0,30.339567,1027.7,,TRUE,TRUE,TRUE,,,,,,CLR,,,,,,,,VFR,1.3,,,,,,,,,,,METAR,5.0
KGSB 221456Z AUTO 30009G18KT 10SM CLR 08/M03 A3007 RMK AO2 SLP186 T00801032 52013 $,KGSB,2018-03-22T14:56:00Z,35.32,-77.97,8.0,-3.2,300,9,18,10.0,30.070866,1018.6,,TRUE,TRUE,TRUE,,,,,,CLR,,,,,,,,VFR,1.3,,,,,,,,,,,METAR,33.0
KSOP 221456Z AUTO 33010G14KT 290V350 10SM CLR 07/M06 A3013 RMK AO2 SLP222 T00721056 51015,KSOP,2018-03-22T14:56:00Z,35.22,-79.4,7.2,-5.6,330,10,14,10.0,30.129921,1022.2,,TRUE,TRUE,,,,,,,CLR,,,,,,,,VFR,1.5,,,,,,,,,,,METAR,141.0
KSMN 221456Z AUTO 00000KT 10SM OVC070 04/02 A2982 RMK AO2 SLP107 T00440017 56013,KSMN,2018-03-22T14:56:00Z,45.12,-113.87,4.4,1.7,0,0,,10.0,29.819881,1010.7,,TRUE,TRUE,,,,,,,OVC,7000,,,,,,,VFR,-1.3,,,,,,,,,,,METAR,1233.0
KSLG 221456Z AUTO 16004KT 10SM CLR 12/02 A3031 RMK AO2 SLP265 T01170017 53012,KSLG,2018-03-22T14:56:00Z,36.2,-94.47,11.7,1.7,160,4,,10.0,30.31004,1026.5,,TRUE,TRUE,,,,,,,CLR,,,,,,,,VFR,1.2,,,,,,,,,,,METAR,300.0
KSUE 221456Z AUTO 34008KT 10SM CLR M03/M09 A3035 RMK AO2 SLP303 T10281089 51010 FZRANO,KSUE,2018-03-22T14:56:00Z,44.85,-87.42,-2.8,-8.9,340,8,,10.0,30.351377,1030.3,,TRUE,TRUE,,,,TRUE,,,CLR,,,,,,,,VFR,1.0,,,,,,,,,,,METAR,221.0
KSRC 221456Z AUTO 05006KT 10SM CLR 11/03 A3041 RMK AO2 SLP309 6//// T01060028 51016,KSRC,2018-03-22T14:56:00Z,35.22,-91.73,10.6,2.8,50,6,,10.0,30.410433,1030.9,,TRUE,TRUE,,,,,,,CLR,,,,,,,,VFR,1.6,,,,,,,,,,,METAR,80.0
KSQI 221456Z AUTO 04003KT 10SM CLR 03/M04 A3037 RMK AO2 SLP307 T00331044 51012 $,KSQI,2018-03-22T14:56:00Z,41.75,-89.67,3.3,-4.4,40,3,,10.0,30.369095,1030.7,,TRUE,TRUE,TRUE,,,,,,CLR,,,,,,,,VFR,1.2,,,,,,,,,,,METAR,197.0
MUGM 221456Z VRB03KT 9999 FEW030 SCT140 BKN280 29/23 A3009 RMK SLP188 T02940228 51010,MUGM,2018-03-22T14:56:00Z,19.9,-75.2,29.4,22.8,0,3,,6.21,30.088583,1018.8,,,,,,,,,,FEW,3000,SCT,14000,BKN,28000,,,VFR,1.0,,,,,,,,,,,SPECI,17.0
KHRT 221456Z AUTO 02010KT 10SM CLR 13/M01 A3034 RMK AO2 SLP276 60000 T01331011 50010 FZRANO $,KHRT,2018-03-22T14:56:00Z,30.42,-86.67,13.3,-1.1,20,10,,10.0,30.339567,1027.6,,TRUE,TRUE,TRUE,,,TRUE,,,CLR,,,,,,,,VFR,1.0,,,,,,,,,,,SPECI,12.0
KBYS 221455Z AUTO 10SM FEW080 SCT095 BKN160 14/11 A2999 RMK AO2 SLP154 WND DATA ESTMD 60001 T01370105 53006,KBYS,2018-03-22T14:55:00Z,35.28,-116.62,13.7,10.5,,,,10.0,29.991142,1015.4,,TRUE,TRUE,,,,,,,FEW,8000,SCT,9500,BKN,16000,,,VFR,0.6,,,,,,0.01,,,,,METAR,716.0
MUHA 221455Z 02013KT 9000 SCT030 22/13 Q1023,MUHA,2018-03-22T14:55:00Z,22.97,-82.42,22.0,13.0,20,13,,5.59,30.206694,,,,,,,,,,,SCT,3000,,,,,,,VFR,,,,,,,,,,,,METAR,64.0
KGLY 221455Z AUTO 14006KT 10SM CLR 08/02 A3033 RMK AO2,KGLY,2018-03-22T14:55:00Z,38.35,-93.68,8.0,2.0,140,6,,10.0,30.33071,,,TRUE,TRUE,,,,,,,CLR,,,,,,,,VFR,,,,,,,,,,,,METAR,251.0
KWWD 221455Z AUTO 31009G19KT 10SM OVC090 02/M03 A2990 RMK AO2 SLP127 60000 T00221033 51017 FZRANO,KWWD,2018-03-22T14:55:00Z,39.02,-74.92,2.2,-3.3,310,9,19,10.0,29.899607,1012.7,,TRUE,TRUE,,,,TRUE,,,OVC,9000,,,,,,,VFR,1.7,,,,,,0.005,,,,,METAR,7.0
KVPS 221455Z 02013KT 10SM CLR 12/M03 A3034 RMK AO2A SLP281 T01241030 50011 $,KVPS,2018-03-22T14:55:00Z,30.47,-86.52,12.4,-3.0,20,13,,10.0,30.339567,1028.1,,,TRUE,TRUE,,,,,,CLR,,,,,,,,VFR,1.1,,,,,,,,,,,METAR,26.0
RJOI 221455Z 30007KT 9999 SKC 04/01 A2998 RMK SLP151 T00440006 401220044 52017,RJOI,2018-03-22T14:55:00Z,34.13,132.22,4.4,0.6,300,7,,6.21,29.97933,1015.1,,,,,,,,,,SKC,,,,,,,,VFR,1.7,,,12.2,4.4,,,,,,,METAR,2.0
PATC 221455Z AUTO 17037G44KT 1/2SM SN BKN002 M02/M02 A3003 RMK AO2 SNB1355 SLP175 P0000 60000 T10171016 58010 $,PATC,2018-03-22T14:55:00Z,65.57,-167.92,-1.7,-1.6,170,37,44,0.5,30.029528,1017.5,,TRUE,TRUE,TRUE,,,,,SN,BKN,200,,,,,,,LIFR,-1.0,,,,,0.005,0.005,,,,,METAR,83.0
PALU 221455Z AUTO 18045G54KT 1/2SM SN FG OVC019 00/M02 A3002 RMK AO2 PK WND 17059/1412 SNB1255 SLP165 P0000 60000 T00001018 57006,PALU,2018-03-22T14:55:00Z,68.88,-166.1,0.0,-1.8,180,45,54,0.5,30.02067,1016.5,,TRUE,TRUE,,,,,,SN FG,OVC,1900,,,,,,,LIFR,-0.6,,,,,0.005,0.005,,,,,METAR,3.0
PAIM 221455Z AUTO 00000KT 10SM CLR M18/M19 A3045 RMK AO2 SLP358 T11801195 57016,PAIM,2018-03-22T14:55:00Z,66.0,-153.7,-18.0,-19.5,0,0,,10.0,30.448818,1035.8,,TRUE,TRUE,,,,,,,CLR,,,,,,,,VFR,-1.6,,,,,,,,,,,METAR,389.0
KUGN 221455Z VRB03KT 10SM CLR 03/M07 A3034 RMK AO2 SLP289 T00281067 51012,KUGN,2018-03-22T14:55:00Z,42.42,-87.87,2.8,-6.7,0,3,,10.0,30.339567,1028.9,,,TRUE,,,,,,,CLR,,,,,,,,VFR,1.2,,,,,,,,,,,METAR,222.0
KAST 221455Z AUTO 25008KT 10SM -RA FEW016 BKN022 OVC029 06/04 A2954 RMK AO2 SLP004 P0006 60009 T00610044 53013,KAST,2018-03-22T14:55:00Z,46.15,-123.88,6.1,4.4,250,8,,10.0,29.53937,1000.4,,TRUE,TRUE,,,,,,-RA,FEW,1600,BKN,2200,OVC,2900,,,MVFR,1.3,,,,,0.06,0.09,,,,,METAR,3.0
KANJ 221455Z AUTO 00000KT 10SM CLR M02/M13 A3028 RMK AO2 SLP261 T10171128 50003,KANJ,2018-03-22T14:55:00Z,46.47,-84.37,-1.7,-12.8,0,0,,10.0,30.280512,1026.1,,TRUE,TRUE,,,,,,,CLR,,,,,,,,VFR,0.3,,,,,,,,,,,METAR,218.0
OAHR 221455Z 27003KT CAVOK 18/07 Q1016 RMK A3003 BLU,OAHR,2018-03-22T14:55:00Z,34.22,62.22,18.0,7.0,270,3,,6.21,30.0,,,,,,,,,,,CAVOK,,,,,,,,VFR,,,,,,,,,,,,METAR,964.0
KEGI 221455Z 36010KT 10SM CLR 12/M01 A3035 RMK AO2A SLP279 T01161015 50011 $,KEGI,2018-03-22T14:55:00Z,30.63,-86.52,11.6,-1.5,360,10,,10.0,30.351377,1027.9,,,TRUE,TRUE,,,,,,CLR,,,,,,,,VFR,1.1,,,,,,,,,,,METAR,59.0
KQZF 221455Z AUTO VRB02KT 10SM CLR 41/M06 A2974 RMK AO2 SLP045 WND DATA ESTMD T04131063 56029 $,KQZF,2018-03-22T14:55:00Z,,,41.3,-6.3,0,2,,10.0,29.740158,1004.5,,TRUE,TRUE,TRUE,,,,,,CLR,,,,,,,,VFR,-2.9,,,,,,,,,,,METAR,
KGPI 221455Z 01011KT 10SM BKN070 OVC100 04/01 A2976 RMK AO2 SLP093 T00440011 58007,KGPI,2018-03-22T14:55:00Z,48.32,-114.25,4.4,1.1,10,11,,10.0,29.760826,1009.3,,,TRUE,,,,,,,BKN,7000,OVC,10000,,,,,VFR,-0.7,,,,,,,,,,,METAR,908.0
KBJC 221455Z 11004KT 40SM SCT090 10/M02 A3013,KBJC,2018-03-22T14:55:00Z,39.9,-105.1,10.0,-2.0,110,4,,40.0,30.129921,,,,,,,,,,,SCT,9000,,,,,,,VFR,,,,,,,,,,,,METAR,1724.0
KCKC 221455Z AUTO 00000KT 10SM CLR M03/M12 A3031 RMK AO2,KCKC,2018-03-22T14:55:00Z,47.83,-90.37,-3.0,-12.0,0,0,,10.0,30.31004,,,TRUE,TRUE,,,,,,,CLR,,,,,,,,VFR,,,,,,,,,,,,METAR,548.0
KNBG 221455Z 08007KT 10SM BKN250 16/07 A3039 RMK AO2 SLP291 T01560067 51016 $,KNBG,2018-03-22T14:55:00Z,29.82,-90.02,15.6,6.7,80,7,,10.0,30.389763,1029.1,,,TRUE,TRUE,,,,,,BKN,25000,,,,,,,VFR,1.6,,,,,,,,,,,METAR,1.0
FJDG 221455Z 24010KT 9999 FEW020 SCT090 BKN250 28/26 A2981 RMK SLP091 60001 8/132 T02810260 52024,FJDG,2018-03-22T14:55:00Z,-7.32,72.42,28.1,26.0,240,10,,6.21,29.811024,1009.1,,,,,,,,,,FEW,2000,SCT,9000,BKN,25000,,,VFR,2.4,,,,,,0.01,,,,,METAR,3.0
TXKF 221455Z 26016KT 9999 FEW034 BKN090 20/13 Q1013 ,TXKF,2018-03-22T14:55:00Z,32.37,-64.68,20.0,13.0,260,16,,6.21,29.911417,,,,,,,,,,,FEW,3400,BKN,9000,,,,,VFR,,,,,,,,,,,,METAR,6.0
OPMT 221455Z 00000KT 5000 HZ NSC 26/13 Q1010 NOSIG,OPMT,2018-03-22T14:55:00Z,30.18,71.42,26.0,13.0,0,0,,3.11,29.822834,,,,,,TRUE,,,,HZ,CLR,,,,,,,,MVFR,,,,,,,,,,,,METAR,123.0
OAKN 221455Z 00000KT 9999 SCT240 21/06 A2997 RMK AO2A SLP105 Q1015 PA3263 DA4700,OAKN,2018-03-22T14:55:00Z,31.5,65.83,21.0,6.0,0,0,,6.21,29.970472,1010.5,,,TRUE,,,,,,,SCT,24000,,,,,,,VFR,,,,,,,,,,,,SPECI,1010.0
PASV 221455Z AUTO 00000KT 10SM CLR M12/M15 A3020 RMK AO2 SLP271 T11251149 57019,PASV,2018-03-22T14:55:00Z,61.1,-155.57,-12.5,-14.9,0,0,,10.0,30.200787,1027.1,,TRUE,TRUE,,,,,,,CLR,,,,,,,,VFR,-1.9,,,,,,,,,,,METAR,484.0
PATL 221455Z AUTO 07005KT 10SM CLR M10/M13 A3040 RMK AO2 SLP319 T11021132 57027,PATL,2018-03-22T14:55:00Z,62.9,-155.97,-10.2,-13.2,70,5,,10.0,30.398623,1031.9,,TRUE,TRUE,,,,,,,CLR,,,,,,,,VFR,-2.7,,,,,,,,,,,METAR,294.0
KDRA 221455Z AUTO 19025G35KT 10SM BKN080 OVC095 16/08 A2993 RMK AO2 PK WND 19035/1454 RAB08E52 SLP105 P0000 60001 T01610083 55008,KDRA,2018-03-22T14:55:00Z,36.62,-116.03,16.1,8.3,190,25,35,10.0,29.929134,1010.5,,TRUE,TRUE,,,,,,,BKN,8000,OVC,9500,,,,,VFR,-0.8,,,,,0.005,,,,,,SPECI,1006.0
KNFG 221455Z 00000KT 10SM BKN070 OVC110 16/13 A3003 RMK AO2 SLP169 60000 T01560128 51030,KNFG,2018-03-22T14:55:00Z,33.28,-117.33,15.6,12.8,0,0,,10.0,30.029528,1016.9,,,TRUE,,,,,,,BKN,7000,OVC,11000,,,,,VFR,3.0,,,,,,0.005,,,,,METAR,24.0
KAAT 221455Z AUTO 14012KT 10SM FEW031 SCT039 OVC070 05/03 A2963 RMK AO2 RAE52 SLPNO P0003 60024 T00500028 58004,KAAT,2018-03-22T14:55:00Z,41.48,-120.57,5.0,2.8,140,12,,10.0,29.630905,,,TRUE,TRUE,,,,,,,FEW,3100,SCT,3900,OVC,7000,,,VFR,-0.4,,,,,0.03,0.24,,,,,METAR,1331.0
KNKX 221455Z 28004KT 10SM FEW090 BKN110 18/13 A3002 RMK AO2 SLP160 T01780133 51022,KNKX,2018-03-22T14:55:00Z,32.87,-117.13,17.8,13.3,280,4,,10.0,30.02067,1016.0,,,TRUE,,,,,,,FEW,9000,BKN,11000,,,,,VFR,2.2,,,,,,,,,,,METAR,146.0
KADM 221455Z 13009KT 10SM SKC 15/05 A3026,KADM,2018-03-22T14:55:00Z,34.28,-97.02,15.0,5.0,130,9,,10.0,30.259842,,,,,,,,,,,SKC,,,,,,,,VFR,,,,,,,,,,,,METAR,232.0
EBLB 221455Z AUTO 32007KT 1200 DZ VV002/// 02/02 Q1013 AMB,EBLB,2018-03-22T14:55:00Z,50.47,6.17,2.0,2.0,320,7,,0.75,29.911417,,,TRUE,,,,,,,DZ,,,,,,,,,,,,,,,,,,,,,METAR,570.0
EBFS 221455Z 29007KT 4000 -RADZ BKN004 BKN006 05/04 Q1016 YLO YLO TEMPO AMB,EBFS,2018-03-22T14:55:00Z,50.22,4.65,5.0,4.0,290,7,,2.49,30.0,,,,,,,,,,-RA -DZ,BKN,400,BKN,600,,,,,LIFR,,,,,,,,,,,,METAR,299.0
EBFN 221455Z 27011KT 9999 FEW008 BKN022 08/05 Q1017 WHT WHT TEMPO BLU,EBFN,2018-03-22T14:55:00Z,51.07,2.63,8.0,5.0,270,11,,6.21,30.029528,,,,,,,,,,,FEW,800,BKN,2200,,,,,MVFR,,,,,,,,,,,,METAR,9.0
EBCV 221455Z AUTO 30009KT 4200 BR OVC005/// 06/06 Q1017 YLO,EBCV,2018-03-22T14:55:00Z,50.57,3.82,6.0,6.0,300,9,,2.61,30.029528,,,TRUE,,,,,,,BR,OVC,500,,,,,,,IFR,,,,,,,,,,,,METAR,63.0
EBBL 221455Z 26006KT 6000 FEW009 BKN012 OVC022 07/06 Q1015 GRN GRN,EBBL,2018-03-22T14:55:00Z,51.17,5.47,7.0,6.0,260,6,,3.73,29.970472,,,,,,,,,,,FEW,900,BKN,1200,OVC,2200,,,MVFR,,,,,,,,,,,,METAR,64.0
EBBE 221455Z 28010KT 9000 FEW004 BKN006 OVC009 06/05 Q1016 YLO YLO,EBBE,2018-03-22T14:55:00Z,50.75,4.77,6.0,5.0,280,10,,5.59,30.0,,,,,,,,,,,FEW,400,BKN,600,OVC,900,,,IFR,,,,,,,,,,,,METAR,127.0
PAEH 221455Z 15043G48KT 080V160 10SM CLR 00/M08 A3009 RMK AO2A SLP201 5////,PAEH,2018-03-22T14:55:00Z,58.65,-162.07,0.0,-8.0,150,43,48,10.0,30.088583,1020.1,,,TRUE,,,,,,,CLR,,,,,,,,VFR,,,,,,,,,,,,METAR,161.0
LIVT 221455Z 04005G28KT CAVOK 10/M11 Q1009 RMK SKC QUK 2 QUL 1 NE VIS MAR 20 KM VIS MIN 9999,LIVT,2018-03-22T14:55:00Z,45.68,13.75,10.0,-11.0,40,5,28,6.21,29.793306,,,,,,,,,,,CAVOK,,,,,,,,VFR,,,,,,,,,,,,METAR,20.0
LIVR 221455Z 01007KT CAVOK M03/M21 Q1005 RMK SKC MON LIB VIS MIN 9999,LIVR,2018-03-22T14:55:00Z,46.28,11.77,-3.0,-21.0,10,7,,6.21,29.675198,,,,,,,,,,,CAVOK,,,,,,,,VFR,,,,,,,,,,,,METAR,2006.0
LIVO 221455Z 10005KT CAVOK 03/M08 Q1008 RMK SKC VIS MIN 9999,LIVO,2018-03-22T14:55:00Z,46.5,13.57,3.0,-8.0,100,5,,6.21,29.763779,,,,,,,,,,,CAVOK,,,,,,,,VFR,,,,,,,,,,,,METAR,778.0
LIVF 221455Z 05011KT CAVOK 01/M12 Q1005 RMK SKC MON LIB VAL NIL VIS MIN 9999,LIVF,2018-03-22T14:55:00Z,43.52,12.72,1.0,-12.0,50,11,,6.21,29.675198,,,,,,,,,,,CAVOK,,,,,,,,VFR,,,,,,,,,,,,METAR,574.0
LIVE 221455Z 01012G23KT CAVOK 03/M19 Q1007 RMK BKN SCT060 SCT180 VIS MIN 9999,LIVE,2018-03-22T14:55:00Z,46.85,10.5,3.0,-19.0,10,12,23,6.21,29.734253,,,,,,,,,,,CAVOK,,,,,,,,VFR,,,,,,,,,,,,METAR,1800.0
LIVC 221455Z 02050KT CAVOK M11/M16 Q0999 RMK SKC MON LIB VAL NIL VIS MIN 9999,LIVC,2018-03-22T14:55:00Z,44.2,10.68,-11.0,-16.0,20,50,,6.21,29.498032,,,,,,,,,,,CAVOK,,,,,,,,VFR,,,,,,,,,,,,METAR,2173.0
LIRX 221455Z 36020KT CAVOK 08/M05 Q1004 RMK SKC VIS MIN 9999 VIS MAR 30 KM,LIRX,2018-03-22T14:55:00Z,42.73,10.38,8.0,-5.0,360,20,,6.21,29.64567,,,,,,,,,,,CAVOK,,,,,,,,VFR,,,,,,,,,,,,METAR,297.0
LIRT 221455Z 04012KT 0000 -SN FZFG VV/// M04/M05 Q0998 RMK MON INVIS VAL INVIS VIS MIN 0000,LIRT,2018-03-22T14:55:00Z,41.03,15.22,-4.0,-5.0,40,12,,0.0,29.468504,,,,,,,,,,-SN FZFG,OVX,0,,,,,,,LIFR,,,,,,,,,,,,METAR,1093.0
LIRK 221455Z AUTO /////KT //// ///// Q////,LIRK,2018-03-22T14:55:00Z,42.47,12.97,,,,,,,,,,TRUE,,,,,,,,,,,,,,,,,,,,,,,,,,,,METAR,1875.0
LIRE 221455Z 35013KT CAVOK 12/M01 Q1001 RMK BKN SCT090 SCT200 VIS MIN 9999 WIND THR13 36014KT WIND THR31 34015KT BLU,LIRE,2018-03-22T14:55:00Z,41.63,12.42,12.0,-1.0,350,13,,6.21,29.557087,,,,,,,,,,,CAVOK,,,,,,,,VFR,,,,,,,,,,,,METAR,12.0
LIQO 221455Z 03027KT CAVOK 06/M10 Q1002 RMK FEW FEW200 VAL NIL NC VIS MIN 9999,LIQO,2018-03-22T14:55:00Z,42.37,11.17,6.0,-10.0,30,27,,6.21,29.586615,,,,,,,,,,,CAVOK,,,,,,,,VFR,,,,,,,,,,,,METAR,632.0
LIQC 221455Z 03009KT 7000 -RA SCT038 06/04 Q0999 RMK OVC OVC070 QUK 3 QUL 1 E VIS MAR 7 KM VIS MIN 7000,LIQC,2018-03-22T14:55:00Z,40.55,14.2,6.0,4.0,30,9,,4.35,29.498032,,,,,,,,,,-RA,SCT,3800,,,,,,,MVFR,,,,,,,,,,,,METAR,269.0
LIED 221455Z 31020KT 9999 SCT030 11/07 Q1006 RMK BKN SCT100 VIS MIN 9999 WIND THR35 31016KT WIND THR17 /////KT BLU,LIED,2018-03-22T14:55:00Z,39.35,8.97,11.0,7.0,310,20,,6.21,29.704725,,,,,,,,,,,SCT,3000,,,,,,,VFR,,,,,,,,,,,,METAR,28.0
LIEB 221455Z 36010KT 9999 FEW025 08/M05 Q1005 RMK OVC SCT070 BKN090 QUK 3 QUL 1 NE VIS MAR 18 KM MON LIB VIS MIN 9999,LIEB,2018-03-22T14:55:00Z,39.93,9.72,8.0,-5.0,360,10,,6.21,29.675198,,,,,,,,,,,FEW,2500,,,,,,,VFR,,,,,,,,,,,,METAR,156.0
LICZ 221455Z /////KT 9999 SCT032 13/05 Q0998 RMK BKN VIS MIN 9999 WIND THR28 24017KT WIND THR10 24016KT A2949 BLU,LICZ,2018-03-22T14:55:00Z,37.38,14.92,13.0,5.0,,,,6.21,29.468504,,,,,,,,,,,SCT,3200,,,,,,,VFR,,,,,,,,,,,,METAR,22.0
LICF 221455Z 18004KT 9999 SCT020 11/09 Q0997 RMK OVC SCT080 OVC090 QUK 2 QUL 0 VIS MAR 10 KM MON CIME INC NC VIS MIN 9999,LICF,2018-03-22T14:55:00Z,38.2,15.55,11.0,9.0,180,4,,6.21,29.438976,,,,,,,,,,,SCT,2000,,,,,,,VFR,,,,,,,,,,,,METAR,51.0
LIBY 221455Z 36017KT 9999 -RA BKN015 FEW018CB 09/07 Q0990 RMK OVC BKN070 QUK 5 QUL 3 NE VIS MAR 10 KM VIS MIN 9999,LIBY,2018-03-22T14:55:00Z,39.82,18.35,9.0,7.0,360,17,,6.21,29.232283,,,,,,,,,,-RA,BKN,1500,FEW,1800,,,,,MVFR,,,,,,,,,,,,METAR,112.0
LIBQ 221455Z 03010KT 0000 -SN FZFG VV/// M02/M02 Q0994 RMK MON INVIS VAL INVIS VIS MIN 0000,LIBQ,2018-03-22T14:55:00Z,39.32,16.38,-2.0,-2.0,30,10,,0.0,29.350393,,,,,,,,,,-SN FZFG,OVX,0,,,,,,,LIFR,,,,,,,,,,,,METAR,1720.0
LIBN 221455Z 34022G32KT 5000 BR SCT012 BKN028 09/07 Q0992 RMK OVC BKN070 VIS MIN 5000 WIND THR14 34020G30KT WIND THR32 34022KT WHT,LIBN,2018-03-22T14:55:00Z,40.22,18.13,9.0,7.0,340,22,32,3.11,29.291338,,,,,,,,,,BR,SCT,1200,BKN,2800,,,,,MVFR,,,,,,,,,,,,METAR,61.0
LIBA 221455Z 31021G32KT 4500 BR SCT010 BKN055 06/01 Q0999 RMK OVC OVC120 VIS MIN 4500 WIND THR11 32016G26KT WIND THR29 /////KT GRN,LIBA,2018-03-22T14:55:00Z,41.52,15.72,6.0,1.0,310,21,32,2.8,29.498032,,,,,,,,,,BR,SCT,1000,BKN,5500,,,,,IFR,,,,,,,,,,,,METAR,60.0
LIPS 221455Z 09005KT CAVOK 10/M05 Q1009 RMK SKC VIS MIN 9999 WIND THR26 10004KT WIND THR08 09005KT BLU,LIPS,2018-03-22T14:55:00Z,45.67,12.08,10.0,-5.0,90,5,,6.21,29.793306,,,,,,,,,,,CAVOK,,,,,,,,VFR,,0.4,,,,,,,,,,METAR,41.0
LIPA 221455Z 17004KT CAVOK 11/M04 Q1008 RMK SKC VIS MIN 9999 WIND THR05 /////KT WIND THR23 /////KT A2977 BLU,LIPA,2018-03-22T14:55:00Z,46.02,12.58,11.0,-4.0,170,4,,6.21,29.763779,,,,,,,,,,,CAVOK,,,,,,,,VFR,,,,,,,,,,,,METAR,126.0
LIMY 221455Z 34003KT CAVOK 08/01 Q1009 RMK SKC VAL NIL VIS MIN 9999,LIMY,2018-03-22T14:55:00Z,44.25,7.78,8.0,1.0,340,3,,6.21,29.793306,,,,,,,,,,,CAVOK,,,,,,,,VFR,,,,,,,,,,,,METAR,1742.0
LIMV 221455Z /////KT CAVOK 06/M06 Q1008 RMK FEW FEW200 MON LIB VAL NIL VIS MIN 9999,LIMV,2018-03-22T14:55:00Z,44.55,8.92,6.0,-6.0,,,,6.21,29.763779,,,,,,,,,,,CAVOK,,,,,,,,VFR,,,,,,,,,,,,METAR,475.0
LIMU 221455Z 21011KT CAVOK 13/02 Q1011 RMK SKC QUK 3 QUL 1 E VIS MAR 20 KM VIS MIN 9999,LIMU,2018-03-22T14:55:00Z,43.95,8.17,13.0,2.0,210,11,,6.21,29.852362,,,,,,,,,,,CAVOK,,,,,,,,VFR,,,,,,,,,,,,METAR,221.0
LIMK 221455Z 00000KT CAVOK 07/M00 Q1008 RMK SCT SCT200 VAL NIL VIS MIN 9999,LIMK,2018-03-22T14:55:00Z,45.02,7.72,7.0,0.0,0,0,,6.21,29.763779,,,,,,,,,,,CAVOK,,,,,,,,VFR,,,,,,,,,,,,METAR,710.0
LIMH 221455Z /////KT 9999 SCT030 M13/M13 Q1004 RMK BKN BKN100 MON CLD CIME VAL NIL VIS MIN 9999,LIMH,2018-03-22T14:55:00Z,45.93,7.7,-13.0,-13.0,,,,6.21,29.64567,,,,,,,,,,,SCT,3000,,,,,,,VFR,,,,,,,,,,,,METAR,3488.0
TNCE 221455Z AUTO 08013KT 040V120 //// // ///////// 29/22 Q1018 RE//,TNCE,2018-03-22T14:55:00Z,17.47,-62.97,29.0,22.0,80,13,,,30.059055,,,TRUE,,,,,,,,,,,,,,,,,,,,,,,,,,,,METAR,39.0
TNCB 221455Z 10021KT 060V140 9999 SCT018 29/23 Q1015,TNCB,2018-03-22T14:55:00Z,12.13,-68.28,29.0,23.0,100,21,,6.21,29.970472,,,,,,,,,,,SCT,1800,,,,,,,VFR,,,,,,,,,,,,METAR,6.0
EHFS 221455Z AUTO 29009KT 260V320 6000 OVC009 06/05 Q1016 W///H///,EHFS,2018-03-22T14:55:00Z,51.45,3.6,6.0,5.0,290,9,,3.73,30.0,,,TRUE,,,,,,,,OVC,900,,,,,,,IFR,,,,,,,,,,,,METAR,32.0
RJSH 221455Z 28008KT 5000 -SN BR FEW005 SCT010 BKN020 01/M00 Q1005 RMK 2ST005 4ST010 7SC020 A2968,RJSH,2018-03-22T14:55:00Z,40.53,141.47,1.0,0.0,280,8,,3.11,29.675198,,,,,,,,,,-SN BR,FEW,500,SCT,1000,BKN,2000,,,MVFR,,,,,,,,,,,,METAR,49.0
ORBD 221455Z 32006KT 9000 HZ FEW200 25/06 A2996 RMK WND DATA ALSTG ESTMD,ORBD,2018-03-22T14:55:00Z,33.93,44.37,25.0,6.0,320,6,,5.59,29.958662,,,,,,,,,,HZ,FEW,20000,,,,,,,VFR,,,,,,,,,,,,METAR,49.0
KCNK 221455Z AUTO 15007KT 9SM CLR 11/02 A3016 RMK AO2 SLP214 T01060022 50007,KCNK,2018-03-22T14:55:00Z,39.55,-97.65,10.6,2.2,150,7,,9.0,30.159449,1021.4,,TRUE,TRUE,,,,,,,CLR,,,,,,,,VFR,0.7,,,,,,,,,,,METAR,447.0
LIRV 221455Z 04026G37KT CAVOK 07/M06 Q1000 RMK BKN BKN200 MON E SE LIB NC VIS MIN 9999 BLU,LIRV,2018-03-22T14:55:00Z,42.42,12.07,7.0,-6.0,40,26,37,6.21,29.52756,,,,,,,,,,,CAVOK,,,,,,,,VFR,,,,,,,,,,,,METAR,300.0
LIRS 221455Z 02015KT CAVOK 10/M07 Q1003 RMK SKC VIS MIN 9999 WIND THR03 02015KT WIND THR21 04017KT BLU,LIRS,2018-03-22T14:55:00Z,42.75,11.07,10.0,-7.0,20,15,,6.21,29.616142,,,,,,,,,,,CAVOK,,,,,,,,VFR,,,,,,,,,,,,METAR,7.0
LIRM 221455Z /////KT 9999 SCT035 BKN060 08/03 Q1000,LIRM,2018-03-22T14:55:00Z,41.03,14.07,8.0,3.0,,,,6.21,29.52756,,,,,,,,,,,SCT,3500,BKN,6000,,,,,VFR,,,,,,,,,,,,METAR,10.0
LIRL 221455Z 19003KT 9999 FEW030 SCT080 11/02 Q0999 RMK OVC BKN160 MON LIB NC VIS MIN 9999 WIND THR12 18002KT WIND THR30 /////KT BLU,LIRL,2018-03-22T14:55:00Z,41.53,12.9,11.0,2.0,190,3,,6.21,29.498032,,,,,,,,,,,FEW,3000,SCT,8000,,,,,VFR,,,,,,,,,,,,METAR,26.0
LIRH 221455Z 15005KT 9999 SCT035 11/M01 Q0998 RMK OVC OVC080 MON LIB NC VIS MIN 9999 WIND THR16 18006KT BLU,LIRH,2018-03-22T14:55:00Z,41.65,13.3,11.0,-1.0,150,5,,6.21,29.468504,,,,,,,,,,,SCT,3500,,,,,,,VFR,,,,,,,,,,,,METAR,181.0
LIRG 221455Z 35011KT 9999 FEW040 10/M02 Q1000 RMK OVC BKN120 MON NE LIB NC VIS MIN 9999 BLU,LIRG,2018-03-22T14:55:00Z,42.0,12.72,10.0,-2.0,350,11,,6.21,29.52756,,,,,,,,,,,FEW,4000,,,,,,,VFR,,,,,,,,,,,,METAR,89.0
LIQW 221455Z 17006KT 110V240 CAVOK 12/M09 Q1007 RMK SKC VIS MIN 9999 WIND THR18 17007KT BLU,LIQW,2018-03-22T14:55:00Z,44.07,9.97,12.0,-9.0,170,6,,6.21,29.734253,,,,,,,,,,,CAVOK,,,,,,,,VFR,,,,,,,,,,,,METAR,10.0
LIMS 221455Z 17001KT CAVOK 08/M05 Q1009 RMK FEW FEW200 VIS MIN 9999 WIND THR30 09002KT BLU,LIMS,2018-03-22T14:55:00Z,44.92,9.72,8.0,-5.0,170,1,,6.21,29.793306,,,,,,,,,,,CAVOK,,,,,,,,VFR,,,,,,,,,,,,SPECI,138.0
LICG 221455Z 29018KT 9999 FEW015TCU SCT025 09/07 Q1001 RMK BKN VIS MIN 9999 WIND THR08 /////KT WIND THR21 30016KT BLU,LICG,2018-03-22T14:55:00Z,36.82,11.97,9.0,7.0,290,18,,6.21,29.557087,,,,,,,,,,,FEW,1500,SCT,2500,,,,,VFR,,,,,,,,,,,,METAR,191.0
LIPF 221455Z /////KT CAVOK 10/M03 Q1010 RMK SKC VIS MIN 9999,LIPF,2018-03-22T14:55:00Z,44.82,11.62,10.0,-3.0,,,,6.21,29.822834,,,,,,,,,,,CAVOK,,,,,,,,VFR,,,,,,,,,,,,SPECI,10.0
LIPC 221455Z 03014KT CAVOK 07/M03 Q1009 RMK SKC VIS MIN 9999 WIND THR11 04016KT WIND THR29 /////KT BLU,LIPC,2018-03-22T14:55:00Z,44.22,12.3,7.0,-3.0,30,14,,6.21,29.793306,,,,,,,,,,,CAVOK,,,,,,,,VFR,,,,,,,,,,,,METAR,10.0
KHON 221455Z AUTO 08007KT 9SM CLR 03/01 A3022 RMK AO2 SLP246 T00330011 51015,KHON,2018-03-22T14:55:00Z,44.38,-98.23,3.3,1.1,80,7,,9.0,30.221457,1024.6,,TRUE,TRUE,,,,,,,CLR,,,,,,,,VFR,1.5,,,,,,,,,,,METAR,390.0
KEAT 221455Z AUTO 29003KT 10SM OVC020 05/05 A2953 RMK AO2 SLP004 T00500050 58017,KEAT,2018-03-22T14:55:00Z,47.4,-120.2,5.0,5.0,290,3,,10.0,29.530512,1000.4,,TRUE,TRUE,,,,,,,OVC,2000,,,,,,,MVFR,-1.7,,,,,,,,,,,METAR,377.0
KDLH 221455Z 00000KT 10SM OVC055 M02/M09 A3033 RMK AO2 SLP297 T10171089 51010,KDLH,2018-03-22T14:55:00Z,46.85,-92.2,-1.7,-8.9,0,0,,10.0,30.33071,1029.7,,,TRUE,,,,,,,OVC,5500,,,,,,,VFR,1.0,,,,,,,,,,,METAR,435.0
OPKC 221455Z 24010KT 6000 NSC 25/20 Q1010 NOSIG,OPKC,2018-03-22T14:55:00Z,24.88,67.17,25.0,20.0,240,10,,3.73,29.822834,,,,,,TRUE,,,,,CLR,,,,,,,,MVFR,,,,,,,,,,,,METAR,22.0
KHME 221455Z AUTO 03006KT //// // ////// 21/01 Q1015,KHME,2018-03-22T14:55:00Z,,,21.0,1.0,30,6,,,29.970472,,,TRUE,,,,,,,,,,,,,,,,,,,,,,,,,,,,METAR,
KIRK 221455Z AUTO 11005KT 10SM SCT036 OVC060 02/01 A3037 RMK AO2 UPB30E40 SLP297 P0000 60001 T00220006 51014,KIRK,2018-03-22T14:55:00Z,40.1,-92.55,2.2,0.6,110,5,,10.0,30.369095,1029.7,,TRUE,TRUE,,,,,,,SCT,3600,OVC,6000,,,,,VFR,1.4,,,,,0.005,0.01,,,,,METAR,293.0
KINL 221455Z AUTO 00000KT 10SM OVC065 M03/M10 A3035 RMK AO2 SLP300 T10281100 51013,KINL,2018-03-22T14:55:00Z,48.57,-93.4,-2.8,-10.0,0,0,,10.0,30.351377,1030.0,,TRUE,TRUE,,,,,,,OVC,6500,,,,,,,VFR,1.3,,,,,,,,,,,METAR,360.0
KMKG 221455Z 32009KT 10SM CLR 02/M07 A3032 RMK AO2 SLP276 T00221067 51008,KMKG,2018-03-22T14:55:00Z,43.17,-86.23,2.2,-6.7,320,9,,10.0,30.318897,1027.6,,,TRUE,,,,,,,CLR,,,,,,,,VFR,0.8,,,,,,,,,,,METAR,191.0
KMHR 221455Z 19015KT 9SM FEW014 BKN040 OVC065 15/14 A2971,KMHR,2018-03-22T14:55:00Z,38.53,-121.28,15.0,14.0,190,15,,9.0,29.71063,,,,,,,,,,,FEW,1400,BKN,4000,OVC,6500,,,VFR,,,,,,,,,,,,METAR,29.0
KLLJ 221455Z AUTO 00000KT 10SM SCT055 OVC080 04/02 A2981 RMK AO2 SLP081 T00440022 58013 $,KLLJ,2018-03-22T14:55:00Z,44.52,-114.22,4.4,2.2,0,0,,10.0,29.811024,1008.1,,TRUE,TRUE,TRUE,,,,,,SCT,5500,OVC,8000,,,,,VFR,-1.3,,,,,,,,,,,METAR,1536.0
KLIC 221455Z AUTO 00000KT 10SM CLR 10/M03 A3014 RMK AO2 SLP187 T01001028 53010,KLIC,2018-03-22T14:55:00Z,39.27,-103.67,10.0,-2.8,0,0,,10.0,30.138779,1018.7,,TRUE,TRUE,,,,,,,CLR,,,,,,,,VFR,1.0,,,,,,,,,,,METAR,1630.0
KRNO 221455Z 21006KT 8SM -RA FEW012 BKN040 OVC055 06/04 A2972 RMK AO2 SLP045 P0003 60016 T00610039 53000,KRNO,2018-03-22T14:55:00Z,39.5,-119.77,6.1,3.9,210,6,,8.0,29.719488,1004.5,,,TRUE,,,,,,-RA,FEW,1200,BKN,4000,OVC,5500,,,VFR,0.0,,,,,0.03,0.16,,,,,METAR,1342.0
KPHP 221455Z AUTO 09004KT 10SM CLR 01/M01 A3014 RMK AO2 SLP223 T00111006 51013,KPHP,2018-03-22T14:55:00Z,44.05,-101.6,1.1,-0.6,90,4,,10.0,30.138779,1022.3,,TRUE,TRUE,,,,,,,CLR,,,,,,,,VFR,1.3,,,,,,,,,,,METAR,672.0
KCAO 221455Z AUTO VRB05KT 10SM CLR 18/M07 A3012 RMK AO2 SLP168 T01781072 53014,KCAO,2018-03-22T14:55:00Z,36.45,-103.15,17.8,-7.2,0,5,,10.0,30.121063,1016.8,,TRUE,TRUE,,,,,,,CLR,,,,,,,,VFR,1.4,,,,,,,,,,,METAR,1514.0
KO22 221455Z AUTO 13011G18KT 3SM BKN010 12/12 A2982 RMK AO1 P0009,KO22,2018-03-22T14:55:00Z,38.03,-120.42,12.0,12.0,130,11,18,3.0,29.819881,,,TRUE,TRUE,,,,,,,BKN,1000,,,,,,,MVFR,,,,,,0.09,,,,,,SPECI,646.0
KRHP 221455Z AUTO 04012G16KT 10SM CLR 05/M05 A3023 RMK AO2 T00451050,KRHP,2018-03-22T14:55:00Z,35.18,-83.85,4.5,-5.0,40,12,16,10.0,30.230314,,,TRUE,TRUE,,,,,,,CLR,,,,,,,,VFR,,,,,,,,,,,,METAR,518.0
KCNW 221455Z 16007KT 10SM SKC 16/10 A3030,KCNW,2018-03-22T14:55:00Z,31.63,-97.07,16.0,10.0,160,7,,10.0,30.301182,,,,,,,,,,,SKC,,,,,,,,VFR,,,,,,,,,,,,METAR,156.0
KFBL 221455Z AUTO 00000KT 10SM CLR 03/M03 A3035 RMK AO2,KFBL,2018-03-22T14:55:00Z,44.33,-93.32,3.0,-3.0,0,0,,10.0,30.351377,,,TRUE,TRUE,,,,,,,CLR,,,,,,,,VFR,,,,,,,,,,,,SPECI,322.0
LIVP 221455Z 34008KT CAVOK M05/M19 Q1004 RMK SKC MON LIB VAL NIL VIS MIN 9999,LIVP,2018-03-22T14:55:00Z,46.15,11.03,-5.0,-19.0,340,8,,6.21,29.64567,,,,,,,,,,,CAVOK,,,,,,,,VFR,,,,,,,,,,,,SPECI,2129.0
LIPL 221455Z 25006KT CAVOK 10/M08 Q1009 RMK SCT 200 WTHR31 25008KT WTHR13 26008KT BLU,LIPL,2018-03-22T14:55:00Z,45.42,10.27,10.0,-8.0,250,6,,6.21,29.793306,,,,,,,,,,,CAVOK,,,,,,,,VFR,,,,,,,,,,,,SPECI,92.0
LIPI 221455Z 15003KT CAVOK 12/M03 Q1008 RMK SKC VIS MIN 9999 WIND THR06 17003KT WIND THR24 19003KT BLU,LIPI,2018-03-22T14:55:00Z,45.97,13.05,12.0,-3.0,150,3,,6.21,29.763779,,,,,,,,,,,CAVOK,,,,,,,,VFR,,,,,,,,,,,,SPECI,53.0
LIMT 221455Z 01022KT CAVOK 00/M12 Q1005 RMK SKC MON LIB VAL NIL VIS MIN 9999,LIMT,2018-03-22T14:55:00Z,44.47,9.92,0.0,-12.0,10,22,,6.21,29.675198,,,,,,,,,,,CAVOK,,,,,,,,VFR,,,,,,,,,,,,SPECI,1040.0
LIMN 221455Z VRB03KT CAVOK 09/M02 Q1009 RMK BKN SCT100 SCT200 VIS MIN 9999 BLU,LIMN,2018-03-22T14:55:00Z,45.52,8.67,9.0,-2.0,0,3,,6.21,29.793306,,,,,,,,,,,CAVOK,,,,,,,,VFR,,,,,,,,,,,,SPECI,169.0
KSYR 221454Z 31009KT 10SM BKN180 BKN220 01/M07 A3000 RMK AO2 SLP159 T00061067 51010,KSYR,2018-03-22T14:54:00Z,43.12,-76.1,0.6,-6.7,310,9,,10.0,30.0,1015.9,,,TRUE,,,,,,,BKN,18000,BKN,22000,,,,,VFR,1.0,,,,,,,,,,,METAR,127.0
KSJN 221454Z AUTO 00000KT 10SM CLR 10/00 A3024 RMK AO2 SLP184 T01000000 53010 TSNO,KSJN,2018-03-22T14:54:00Z,34.52,-109.38,10.0,0.0,0,0,,10.0,30.239174,1018.4,,TRUE,TRUE,,,TRUE,,,,CLR,,,,,,,,VFR,1.0,,,,,,,,,,,METAR,1745.0
KSBY 221454Z 32017G22KT 10SM CLR 04/M02 A2993 RMK AO2 SLP139 T00391017 51016,KSBY,2018-03-22T14:54:00Z,38.33,-75.5,3.9,-1.7,320,17,22,10.0,29.929134,1013.9,,,TRUE,,,,,,,CLR,,,,,,,,VFR,1.6,,,,,,,,,,,METAR,19.0
KRST 221454Z 00000KT 8SM OVC026 01/M03 A3035 RMK AO2 SLP296 T00061033 51014,KRST,2018-03-22T14:54:00Z,43.9,-92.5,0.6,-3.3,0,0,,8.0,30.351377,1029.6,,,TRUE,,,,,,,OVC,2600,,,,,,,MVFR,1.4,,,,,,,,,,,METAR,403.0
KROA 221454Z 28012KT 10SM SCT130 02/M07 A3013 RMK AO2 SLP210 T00221072 51021,KROA,2018-03-22T14:54:00Z,37.32,-79.97,2.2,-7.2,280,12,,10.0,30.129921,1021.0,,,TRUE,,,,,,,SCT,13000,,,,,,,VFR,2.1,,,,,,,,,,,METAR,362.0
KRIC 221454Z 33018G27KT 10SM FEW200 SCT300 06/M04 A3004 RMK AO2 PK WND 33027/1445 SLP177 T00561044 51019,KRIC,2018-03-22T14:54:00Z,37.52,-77.32,5.6,-4.4,330,18,27,10.0,30.041338,1017.7,,,TRUE,,,,,,,FEW,20000,SCT,30000,,,,,VFR,1.9,,,,,,,,,,,METAR,50.0
KIZG 221454Z AUTO 36009KT 10SM OVC060 04/M07 A2971 RMK AO2 SLP066 T00391067 58010,KIZG,2018-03-22T14:54:00Z,43.98,-70.95,3.9,-6.7,360,9,,10.0,29.71063,1006.6,,TRUE,TRUE,,,,,,,OVC,6000,,,,,,,VFR,-1.0,,,,,,,,,,,METAR,135.0
KISW 221454Z AUTO 31004KT 10SM CLR 01/M08 A3035 RMK AO2 SLP290 T00111083 51014 TSNO,KISW,2018-03-22T14:54:00Z,44.37,-89.83,1.1,-8.3,310,4,,10.0,30.351377,1029.0,,TRUE,TRUE,,,TRUE,,,,CLR,,,,,,,,VFR,1.4,,,,,,,,,,,METAR,307.0
KIPT 221454Z 32014G21KT 10SM CLR 04/M08 A2998 RMK AO2 SLP158 T00441083 51010,KIPT,2018-03-22T14:54:00Z,41.25,-76.92,4.4,-8.3,320,14,21,10.0,29.97933,1015.8,,,TRUE,,,,,,,CLR,,,,,,,,VFR,1.0,,,,,,,,,,,METAR,164.0
KINT 221454Z 34013G22KT 10SM CLR 05/M08 A3013 RMK AO2 SLP205 T00501078 51016,KINT,2018-03-22T14:54:00Z,36.13,-80.22,5.0,-7.8,340,13,22,10.0,30.129921,1020.5,,,TRUE,,,,,,,CLR,,,,,,,,VFR,1.6,,,,,,,,,,,METAR,291.0
KIND 221454Z 34011KT 10SM FEW028 03/M04 A3033 RMK AO2 SLP277 T00281044 51017,KIND,2018-03-22T14:54:00Z,39.72,-86.3,2.8,-4.4,340,11,,10.0,30.33071,1027.7,,,TRUE,,,,,,,FEW,2800,,,,,,,VFR,1.7,,,,,,,,,,,METAR,241.0
KIMT 221454Z AUTO 34007KT 10SM CLR M03/M14 A3031 RMK AO2 SLP283 T10281144 52009,KIMT,2018-03-22T14:54:00Z,45.82,-88.12,-2.8,-14.4,340,7,,10.0,30.31004,1028.3,,TRUE,TRUE,,,,,,,CLR,,,,,,,,VFR,0.9,,,,,,,,,,,METAR,349.0
KILN 221454Z AUTO 32007KT 10SM CLR M01/M06 A3026 RMK AO2 SLP271 T10061061 51018,KILN,2018-03-22T14:54:00Z,39.43,-83.8,-0.6,-6.1,320,7,,10.0,30.259842,1027.1,,TRUE,TRUE,,,,,,,CLR,,,,,,,,VFR,1.8,,,,,,,,,,,METAR,322.0
KGED 221454Z AUTO 31009G18KT 10SM FEW080 03/M02 A2993 RMK AO2 SLP135 T00331022 51018,KGED,2018-03-22T14:54:00Z,38.68,-75.37,3.3,-2.2,310,9,18,10.0,29.929134,1013.5,,TRUE,TRUE,,,,,,,FEW,8000,,,,,,,VFR,1.8,,,,,,,,,,,METAR,19.0
KGCN 221454Z 00000KT 10SM SCT060 BKN080 OVC110 07/02 A3024 RMK AO2 SLP189 T00670017 53008,KGCN,2018-03-22T14:54:00Z,35.95,-112.15,6.7,1.7,0,0,,10.0,30.239174,1018.9,,,TRUE,,,,,,,SCT,6000,BKN,8000,OVC,11000,,,VFR,0.8,,,,,,,,,,,METAR,2016.0
KFZY 221454Z AUTO 31008KT 10SM CLR 01/M08 A3002 RMK AO2 SLP169 T00111078 51013,KFZY,2018-03-22T14:54:00Z,43.35,-76.38,1.1,-7.8,310,8,,10.0,30.02067,1016.9,,TRUE,TRUE,,,,,,,CLR,,,,,,,,VFR,1.3,,,,,,,,,,,METAR,138.0
KEWN 221454Z 29011G17KT 10SM SCT041 08/00 A3007 RMK AO2 SLP181 T00780000 51010,KEWN,2018-03-22T14:54:00Z,35.07,-77.05,7.8,0.0,290,11,17,10.0,30.070866,1018.1,,,TRUE,,,,,,,SCT,4100,,,,,,,VFR,1.0,,,,,,,,,,,METAR,3.0
KEVV 221454Z 06003KT 10SM CLR 05/M05 A3039 RMK AO2 SLP293 T00501050 51021,KEVV,2018-03-22T14:54:00Z,38.05,-87.52,5.0,-5.0,60,3,,10.0,30.389763,1029.3,,,TRUE,,,,,,,CLR,,,,,,,,VFR,2.1,,,,,,,,,,,METAR,117.0
KECG 221454Z 32014G21KT 10SM BKN075 07/00 A3001 RMK AO2 SLP161 T00720000 51015,KECG,2018-03-22T14:54:00Z,36.27,-76.18,7.2,0.0,320,14,21,10.0,30.008858,1016.1,,,TRUE,,,,,,,BKN,7500,,,,,,,VFR,1.5,,,,,,,,,,,METAR,11.0
KDYL 221454Z AUTO 33012G21KT 10SM CLR 02/M04 A2986 RMK AO2 SLP117 T00221044 $,KDYL,2018-03-22T14:54:00Z,40.33,-75.12,2.2,-4.4,330,12,21,10.0,29.861221,1011.7,,TRUE,TRUE,TRUE,,,,,,CLR,,,,,,,,VFR,,,,,,,,,,,,METAR,117.0
KQFR 221454Z AUTO 32005KT 10SM CLR M08/M15 A3021 RMK AO1,KQFR,2018-03-22T14:54:00Z,,,-8.0,-15.0,320,5,,10.0,30.209646,,,TRUE,TRUE,,,,,,,CLR,,,,,,,,VFR,,,,,,,,,,,,METAR,
PGUM 221454Z 07009KT 10SM FEW017 FEW023 27/25 A2979 RMK AO2 SLP080 T02720250 58007,PGUM,2018-03-22T14:54:00Z,13.48,144.8,27.2,25.0,70,9,,10.0,29.790354,1008.0,,,TRUE,,,,,,,FEW,1700,FEW,2300,,,,,VFR,-0.7,,,,,,,,,,,METAR,91.0
K12N 221454Z AUTO VRB06KT 03/M07 A2985 RMK AO1 SLP116 T00281067 51012,K12N,2018-03-22T14:54:00Z,41.02,-74.73,2.8,-6.7,0,6,,,29.84941,1011.6,,TRUE,TRUE,,,,,,,,,,,,,,,,1.2,,,,,,,,,,,METAR,177.0
KNAK 221454Z AUTO 31010KT 10SM CLR 05/M03 A2997 RMK AO2 SLP149 T00501033 51017,KNAK,2018-03-22T14:54:00Z,38.98,-76.48,5.0,-3.3,310,10,,10.0,29.970472,1014.9,,TRUE,TRUE,,,,,,,CLR,,,,,,,,VFR,1.7,,,,,,,,,,,METAR,2.0
KDMH 221454Z AUTO 05/M06 A2999 RMK AO1 SLP155 T00501061 51025,KDMH,2018-03-22T14:54:00Z,39.28,-76.62,5.0,-6.1,,,,,29.991142,1015.5,,TRUE,TRUE,,,,,,,,,,,,,,,,2.5,,,,,,,,,,,METAR,5.0
KTQE 221454Z AUTO 14013KT 10SM FEW120 07/03 A3020 RMK AO2 SLP230 T00670028 53005,KTQE,2018-03-22T14:54:00Z,41.77,-96.18,6.7,2.8,140,13,,10.0,30.200787,1023.0,,TRUE,TRUE,,,,,,,FEW,12000,,,,,,,VFR,0.5,,,,,,,,,,,METAR,312.0
KACY 221454Z 31011KT 10SM CLR 02/M01 A2986 RMK AO2 SLP110 T00221011 51015,KACY,2018-03-22T14:54:00Z,39.45,-74.57,2.2,-1.1,310,11,,10.0,29.861221,1011.0,,,TRUE,,,,,,,CLR,,,,,,,,VFR,1.5,,,,,,,,,,,METAR,23.0
KWAL 221454Z 32015G23KT 10SM FEW065 06/M01 A2994 RMK AO2 SLP135 T00561006 51016,KWAL,2018-03-22T14:54:00Z,37.93,-75.47,5.6,-0.6,320,15,23,10.0,29.940945,1013.5,,,TRUE,,,,,,,FEW,6500,,,,,,,VFR,1.6,,,,,,,,,,,METAR,14.0
KVTA 221454Z AUTO 30006KT 10SM BKN110 01/M06 A3022 RMK AO2 SLP243 T00111061 51014,KVTA,2018-03-22T14:54:00Z,40.02,-82.47,1.1,-6.1,300,6,,10.0,30.221457,1024.3,,TRUE,TRUE,,,,,,,BKN,11000,,,,,,,VFR,1.4,,,,,,,,,,,METAR,268.0
KVSF 221454Z AUTO 01007G15KT 10SM CLR 06/M08 A2976 RMK AO2 SLP084 T00561083 58006,KVSF,2018-03-22T14:54:00Z,43.35,-72.52,5.6,-8.3,10,7,15,10.0,29.760826,1008.4,,TRUE,TRUE,,,,,,,CLR,,,,,,,,VFR,-0.6,,,,,,,,,,,METAR,175.0
KVAY 221454Z AUTO 30010G17KT 10SM CLR 03/M04 A2987 RMK AO2 SLP115 T00281039 51013,KVAY,2018-03-22T14:54:00Z,39.93,-74.83,2.8,-3.9,300,10,17,10.0,29.870079,1011.5,,TRUE,TRUE,,,,,,,CLR,,,,,,,,VFR,1.3,,,,,,,,,,,METAR,15.0
KUZA 221454Z AUTO 34013G18KT 10SM CLR 07/M05 A3017 RMK AO2 SLP221 T00671050 51014,KUZA,2018-03-22T14:54:00Z,34.98,-81.05,6.7,-5.0,340,13,18,10.0,30.171259,1022.1,,TRUE,TRUE,,,,,,,CLR,,,,,,,,VFR,1.4,,,,,,,,,,,METAR,202.0
KAUW 221454Z AUTO 00000KT 10SM CLR M02/M11 A3032 RMK AO2 SLP289 T10221106 51014,KAUW,2018-03-22T14:54:00Z,44.93,-89.62,-2.2,-10.6,0,0,,10.0,30.318897,1028.9,,TRUE,TRUE,,,,,,,CLR,,,,,,,,VFR,1.4,,,,,,,,,,,METAR,362.0
KAPN 221454Z AUTO 36010KT 10SM CLR M01/M09 A3027 RMK AO2 SLP260 T10061089 51009,KAPN,2018-03-22T14:54:00Z,45.07,-83.57,-0.6,-8.9,360,10,,10.0,30.268702,1026.0,,TRUE,TRUE,,,,,,,CLR,,,,,,,,VFR,0.9,,,,,,,,,,,METAR,210.0
KAKQ 221454Z AUTO 34009G17KT 310V020 10SM CLR 06/M03 A3004 RMK AO2 SLP173 T00611033 51018,KAKQ,2018-03-22T14:54:00Z,36.98,-77.0,6.1,-3.3,340,9,17,10.0,30.041338,1017.3,,TRUE,TRUE,,,,,,,CLR,,,,,,,,VFR,1.8,,,,,,,,,,,METAR,34.0
KAKH 221454Z AUTO 31007KT 290V350 10SM CLR 07/M06 A3016 RMK AO2 SLP216 T00721056 51015,KAKH,2018-03-22T14:54:00Z,35.2,-81.15,7.2,-5.6,310,7,,10.0,30.159449,1021.6,,TRUE,TRUE,,,,,,,CLR,,,,,,,,VFR,1.5,,,,,,,,,,,METAR,243.0
KAVL 221454Z 01012G20KT 10SM CLR 03/M06 A3016 RMK AO2 PK WND 36028/1417 SLP223 T00281061 51014,KAVL,2018-03-22T14:54:00Z,35.43,-82.53,2.8,-6.1,10,12,20,10.0,30.159449,1022.3,,,TRUE,,,,,,,CLR,,,,,,,,VFR,1.4,,,,,,,,,,,METAR,670.0
KAVP 221454Z 36010KT 10SM CLR 01/M07 A2991 RMK AO2 SLP136 T00111067 51010,KAVP,2018-03-22T14:54:00Z,41.33,-75.72,1.1,-6.7,360,10,,10.0,29.911417,1013.6,,,TRUE,,,,,,,CLR,,,,,,,,VFR,1.0,,,,,,,,,,,METAR,291.0
KCAR 221454Z AUTO 02011G18KT 10SM OVC029 01/M07 A2985 RMK AO2 SLP119 T00061067 58013,KCAR,2018-03-22T14:54:00Z,46.87,-68.02,0.6,-6.7,20,11,18,10.0,29.84941,1011.9,,TRUE,TRUE,,,,,,,OVC,2900,,,,,,,MVFR,-1.3,,,,,,,,,,,METAR,191.0
KBWI 221454Z 34010G20KT 10SM FEW160 SCT250 04/M05 A2997 RMK AO2 SLP149 T00391050 51016,KBWI,2018-03-22T14:54:00Z,39.17,-76.68,3.9,-5.0,340,10,20,10.0,29.970472,1014.9,,,TRUE,,,,,,,FEW,16000,SCT,25000,,,,,VFR,1.6,,,,,,,,,,,METAR,59.0
KBUY 221454Z AUTO 32012G16KT 10SM FEW100 06/M06 A3011 RMK AO2 SLP200 T00611061 51021,KBUY,2018-03-22T14:54:00Z,36.05,-79.47,6.1,-6.1,320,12,16,10.0,30.109253,1020.0,,TRUE,TRUE,,,,,,,FEW,10000,,,,,,,VFR,2.1,,,,,,,,,,,METAR,180.0
KBTV 221454Z 34011KT 10SM FEW080 SCT120 BKN200 M01/M07 A2991 RMK AO2 SLP132 T10061067 50002,KBTV,2018-03-22T14:54:00Z,44.47,-73.15,-0.6,-6.7,340,11,,10.0,29.911417,1013.2,,,TRUE,,,,,,,FEW,8000,SCT,12000,BKN,20000,,,VFR,0.2,,,,,,,,,,,METAR,105.0
KBFL 221454Z 15007KT 10SM OVC085 19/12 A2987 RMK AO2 SLP109 60003 T01890117 51015,KBFL,2018-03-22T14:54:00Z,35.43,-119.05,18.9,11.7,150,7,,10.0,29.870079,1010.9,,,TRUE,,,,,,,OVC,8500,,,,,,,VFR,1.5,,,,,,0.03,,,,,METAR,151.0
KRDG 221454Z 32015KT 10SM CLR 03/M04 A2992 RMK AO2 SLP139 T00331039 51010,KRDG,2018-03-22T14:54:00Z,40.37,-75.97,3.3,-3.9,320,15,,10.0,29.920275,1013.9,,,TRUE,,,,,,,CLR,,,,,,,,VFR,1.0,,,,,,,,,,,METAR,109.0
KPTW 221454Z AUTO 30011G17KT 10SM CLR 02/M05 A2990 RMK AO2 SLP127 T00221050 51007,KPTW,2018-03-22T14:54:00Z,40.23,-75.55,2.2,-5.0,300,11,17,10.0,29.899607,1012.7,,TRUE,TRUE,,,,,,,CLR,,,,,,,,VFR,0.7,,,,,,,,,,,METAR,92.0
KPSF 221454Z AUTO 34012G19KT 10SM SCT095 03/M07 A2975 RMK AO2 SLP078 T00281067 51006,KPSF,2018-03-22T14:54:00Z,42.43,-73.28,2.8,-6.7,340,12,19,10.0,29.749016,1007.8,,TRUE,TRUE,,,,,,,SCT,9500,,,,,,,VFR,0.6,,,,,,,,,,,METAR,355.0
KPNE 221454Z 33017G22KT 10SM CLR 04/M04 A2988 RMK AO2 SLP120 T00391039 51011,KPNE,2018-03-22T14:54:00Z,40.08,-75.02,3.9,-3.9,330,17,22,10.0,29.878937,1012.0,,,TRUE,,,,,,,CLR,,,,,,,,VFR,1.1,,,,,,,,,,,METAR,28.0
KPLN 221454Z AUTO 32006KT 10SM CLR M02/M11 A3029 RMK AO2 SLP268 T10171106 51007,KPLN,2018-03-22T14:54:00Z,45.57,-84.8,-1.7,-10.6,320,6,,10.0,30.28937,1026.8,,TRUE,TRUE,,,,,,,CLR,,,,,,,,VFR,0.7,,,,,,,,,,,METAR,217.0
KPHL 221454Z 31016KT 10SM FEW085 SCT190 BKN260 03/M04 A2990 RMK AO2 SLP124 T00281044 53012,KPHL,2018-03-22T14:54:00Z,39.87,-75.23,2.8,-4.4,310,16,,10.0,29.899607,1012.4,,,TRUE,,,,,,,FEW,8500,SCT,19000,BKN,26000,,,VFR,1.2,,,,,,,,,,,METAR,18.0
KPHF 221454Z 30013KT 10SM CLR 06/M03 A3001 RMK AO2 SLP162 T00611028 51018,KPHF,2018-03-22T14:54:00Z,37.13,-76.5,6.1,-2.8,300,13,,10.0,30.008858,1016.2,,,TRUE,,,,,,,CLR,,,,,,,,VFR,1.8,,,,,,,,,,,METAR,12.0
KOLS 221454Z AUTO 00000KT 10SM CLR 14/M01 A3017 RMK AO2 SLP170 T01441006 53012,KOLS,2018-03-22T14:54:00Z,31.42,-110.85,14.4,-0.6,0,0,,10.0,30.171259,1017.0,,TRUE,TRUE,,,,,,,CLR,,,,,,,,VFR,1.2,,,,,,,,,,,METAR,1184.0
KOFP 221454Z AUTO 31014G23KT 10SM CLR 04/M05 A3005 RMK AO2 SLP177 T00441050 51020,KOFP,2018-03-22T14:54:00Z,37.7,-77.43,4.4,-5.0,310,14,23,10.0,30.050198,1017.7,,TRUE,TRUE,,,,,,,CLR,,,,,,,,VFR,2.0,,,,,,,,,,,METAR,62.0
KMVL 221454Z AUTO 03007KT 10SM CLR 00/M07 A2985 RMK AO2 SLP119 T00001067 58006,KMVL,2018-03-22T14:54:00Z,44.53,-72.62,0.0,-6.7,30,7,,10.0,29.84941,1011.9,,TRUE,TRUE,,,,,,,CLR,,,,,,,,VFR,-0.6,,,,,,,,,,,METAR,234.0
KMOT 221454Z 09005KT M1/4SM FZFG VV001 M04/M06 A3028 RMK AO2 SLP280 I1000 I3000 T10441061 51015,KMOT,2018-03-22T14:54:00Z,48.25,-101.27,-4.4,-6.1,90,5,,0.25,30.280512,1028.0,,,TRUE,,,,,,FZFG,OVX,0,,,,,,,LIFR,1.5,,,,,,,,,,100,METAR,519.0
KMIV 221454Z AUTO 29010KT 10SM SCT090 02/M02 A2988 RMK AO2 SLP119 T00171022 51013,KMIV,2018-03-22T14:54:00Z,39.37,-75.08,1.7,-2.2,290,10,,10.0,29.878937,1011.9,,TRUE,TRUE,,,,,,,SCT,9000,,,,,,,VFR,1.3,,,,,,,,,,,METAR,23.0
KMGJ 221454Z AUTO 30009KT 10SM CLR 04/M06 A2980 RMK AO2 SLP094 60000 T00391056 51007,KMGJ,2018-03-22T14:54:00Z,41.52,-74.27,3.9,-5.6,300,9,,10.0,29.799213,1009.4,,TRUE,TRUE,,,,,,,CLR,,,,,,,,VFR,0.7,,,,,,0.005,,,,,METAR,108.0
KMFI 221454Z AUTO 33005KT 10SM CLR 00/M08 A3032 RMK AO2 SLP286 T00001083 51017 TSNO,KMFI,2018-03-22T14:54:00Z,44.63,-90.18,0.0,-8.3,330,5,,10.0,30.318897,1028.6,,TRUE,TRUE,,,TRUE,,,,CLR,,,,,,,,VFR,1.7,,,,,,,,,,,METAR,389.0
KLYH 221454Z 32009G21KT 280V350 10SM CLR 04/M08 A3008 RMK AO2 SLP191 T00391078 51021,KLYH,2018-03-22T14:54:00Z,37.32,-79.2,3.9,-7.8,320,9,21,10.0,30.079725,1019.1,,,TRUE,,,,,,,CLR,,,,,,,,VFR,2.1,,,,,,,,,,,METAR,295.0
KLNK 221454Z 18015KT 9SM BKN120 10/02 A3019 RMK AO2 SLP227 T01000017 53004,KLNK,2018-03-22T14:54:00Z,40.85,-96.77,10.0,1.7,180,15,,9.0,30.188976,1022.7,,,TRUE,,,,,,,BKN,12000,,,,,,,VFR,0.4,,,,,,,,,,,METAR,364.0
KLEX 221454Z 33005KT 10SM CLR 00/M05 A3030 RMK AO2 SLP268 T00001050 51020,KLEX,2018-03-22T14:54:00Z,38.03,-84.6,0.0,-5.0,330,5,,10.0,30.301182,1026.8,,,TRUE,,,,,,,CLR,,,,,,,,VFR,2.0,,,,,,,,,,,METAR,300.0
KLBT 221454Z AUTO 32013G20KT 10SM CLR 08/M02 A3012 RMK AO2 SLP200 T00781022 51009,KLBT,2018-03-22T14:54:00Z,34.6,-79.07,7.8,-2.2,320,13,20,10.0,30.121063,1020.0,,TRUE,TRUE,,,,,,,CLR,,,,,,,,VFR,0.9,,,,,,,,,,,METAR,37.0
PHMK 221454Z AUTO 05006KT 10SM FEW075 21/17 A2998 RMK AO2 SLP153 T02060172 55001 TSNO $,PHMK,2018-03-22T14:54:00Z,21.15,-157.1,20.6,17.2,50,6,,10.0,29.97933,1015.3,,TRUE,TRUE,TRUE,,TRUE,,,,FEW,7500,,,,,,,VFR,-0.1,,,,,,,,,,,METAR,141.0
PHOG 221454Z AUTO 00000KT 10SM CLR 17/16 A2997 RMK AO2 SLP152 T01720161 55000 TSNO,PHOG,2018-03-22T14:54:00Z,20.9,-156.43,17.2,16.1,0,0,,10.0,29.970472,1015.2,,TRUE,TRUE,,,TRUE,,,,CLR,,,,,,,,VFR,0.0,,,,,,,,,,,METAR,12.0
PGSN 221454Z 09012KT 10SM FEW024 SCT030 27/24 A2980 RMK AO2 RAB21E32 SLP114 P0000 60000 T02670244 58003,PGSN,2018-03-22T14:54:00Z,15.12,145.72,26.7,24.4,90,12,,10.0,29.799213,1011.4,,,TRUE,,,,,,,FEW,2400,SCT,3000,,,,,VFR,-0.3,,,,,0.005,0.005,,,,,METAR,65.0
KJAN 221454Z 00000KT 10SM CLR 12/03 A3039 RMK AO2 SLP291 T01170028 51019,KJAN,2018-03-22T14:54:00Z,32.32,-90.08,11.7,2.8,0,0,,10.0,30.389763,1029.1,,,TRUE,,,,,,,CLR,,,,,,,,VFR,1.9,,,,,,,,,,,METAR,91.0
KHWD 221454Z 18005KT 4SM RA BR BKN019 OVC025 14/12 A2976 RMK AO2 SLP086 P0007 60023 T01440122 53009,KHWD,2018-03-22T14:54:00Z,37.67,-122.12,14.4,12.2,180,5,,4.0,29.760826,1008.6,,,TRUE,,,,,,RA BR,BKN,1900,OVC,2500,,,,,MVFR,0.9,,,,,0.07,0.23,,,,,METAR,21.0
KGSO 221454Z 34007KT 310V010 10SM BKN130 BKN250 06/M06 A3011 RMK AO2 SLP199 T00561061 51018,KGSO,2018-03-22T14:54:00Z,36.1,-79.95,5.6,-6.1,340,7,,10.0,30.109253,1019.9,,,TRUE,,,,,,,BKN,13000,BKN,25000,,,,,VFR,1.8,,,,,,,,,,,METAR,275.0
KLAF 221454Z 32011KT 10SM CLR 02/M04 A3035 RMK AO2 SLP282 T00221039 51017,KLAF,2018-03-22T14:54:00Z,40.42,-86.93,2.2,-3.9,320,11,,10.0,30.351377,1028.2,,,TRUE,,,,,,,CLR,,,,,,,,VFR,1.7,,,,,,,,,,,METAR,182.0
KJST 221454Z AUTO 30009KT 10SM CLR M04/M07 A3000 RMK AO2 SLP189 T10391072 51012,KJST,2018-03-22T14:54:00Z,40.32,-78.83,-3.9,-7.2,300,9,,10.0,30.0,1018.9,,TRUE,TRUE,,,,,,,CLR,,,,,,,,VFR,1.2,,,,,,,,,,,METAR,694.0
KLWT 221454Z AUTO 10007KT 10SM OVC100 03/M02 A2990 RMK AO2 SLP141 T00281022 58005,KLWT,2018-03-22T14:54:00Z,47.03,-109.47,2.8,-2.2,100,7,,10.0,29.899607,1014.1,,TRUE,TRUE,,,,,,,OVC,10000,,,,,,,VFR,-0.5,,,,,,,,,,,METAR,1270.0
KMEM 221454Z 08005KT 10SM CLR 10/01 A3040 RMK AO2 SLP293 T01000011 51018,KMEM,2018-03-22T14:54:00Z,35.07,-89.98,10.0,1.1,80,5,,10.0,30.398623,1029.3,,,TRUE,,,,,,,CLR,,,,,,,,VFR,1.8,,,,,,,,,,,METAR,86.0
KMKC 221454Z 09005KT 10SM BKN120 10/00 A3029 RMK AO2 SLP259 T01000000 53006,KMKC,2018-03-22T14:54:00Z,39.12,-94.6,10.0,0.0,90,5,,10.0,30.28937,1025.9,,,TRUE,,,,,,,BKN,12000,,,,,,,VFR,0.6,,,,,,,,,,,METAR,227.0
KBUF 221454Z 31011KT 10SM FEW160 FEW200 BKN250 01/M07 A3008 RMK AO2 SLP195 T00061072 51011,KBUF,2018-03-22T14:54:00Z,42.93,-78.73,0.6,-7.2,310,11,,10.0,30.079725,1019.5,,,TRUE,,,,,,,FEW,16000,FEW,20000,BKN,25000,,,VFR,1.1,,,,,,,,,,,METAR,211.0
KALO 221454Z 18003KT 10SM OVC046 02/M03 A3036 RMK AO2 SLP293 T00221033 52012,KALO,2018-03-22T14:54:00Z,42.55,-92.4,2.2,-3.3,180,3,,10.0,30.360237,1029.3,,,TRUE,,,,,,,OVC,4600,,,,,,,VFR,1.2,,,,,,,,,,,METAR,264.0
KAKR 221454Z AUTO 32015KT 10SM CLR 01/M08 A3017 RMK AO2 SLP226 T00111078 53015,KAKR,2018-03-22T14:54:00Z,41.03,-81.47,1.1,-7.8,320,15,,10.0,30.171259,1022.6,,TRUE,TRUE,,,,,,,CLR,,,,,,,,VFR,1.5,,,,,,,,,,,METAR,363.0
KAAO 221454Z AUTO 17017G24KT 10SM CLR 13/M01 A3017 RMK AO2 SLP219 T01331011 50002,KAAO,2018-03-22T14:54:00Z,37.75,-97.22,13.3,-1.1,170,17,24,10.0,30.171259,1021.9,,TRUE,TRUE,,,,,,,CLR,,,,,,,,VFR,0.2,,,,,,,,,,,METAR,434.0
KOLM 221454Z 20005KT 5SM -RA BR FEW021 OVC033 06/06 A2951 RMK AO2 SLP995 P0006 60020 T00560056 53009 $,KOLM,2018-03-22T14:54:00Z,46.97,-122.9,5.6,5.6,200,5,,5.0,29.509842,999.5,,,TRUE,TRUE,,,,,-RA BR,FEW,2100,OVC,3300,,,,,MVFR,0.9,,,,,0.06,0.2,,,,,METAR,58.0
KDEC 221454Z 32004KT 10SM CLR 05/M05 A3036 RMK AO2 SLP287 T00501050 51014,KDEC,2018-03-22T14:54:00Z,39.83,-88.85,5.0,-5.0,320,4,,10.0,30.360237,1028.7,,,TRUE,,,,,,,CLR,,,,,,,,VFR,1.4,,,,,,,,,,,METAR,207.0
KCOU 221454Z 12003KT 10SM BKN075 BKN090 OVC110 06/01 A3037 RMK AO2 SLP290 T00560011 53020,KCOU,2018-03-22T14:54:00Z,38.82,-92.22,5.6,1.1,120,3,,10.0,30.369095,1029.0,,,TRUE,,,,,,,BKN,7500,BKN,9000,OVC,11000,,,VFR,2.0,,,,,,,,,,,METAR,271.0
KCOS 221454Z 00000KT 10SM FEW100 SCT250 13/M06 A3017 RMK AO2 SLP179 T01331056 53011,KCOS,2018-03-22T14:54:00Z,38.82,-104.68,13.3,-5.6,0,0,,10.0,30.171259,1017.9,,,TRUE,,,,,,,FEW,10000,SCT,25000,,,,,VFR,1.1,,,,,,,,,,,METAR,1856.0
KMTP 221454Z AUTO 35012KT 04/01 A2970 RMK AO1 SLP055 60004 T00440011 51016 $,KMTP,2018-03-22T14:54:00Z,41.07,-71.92,4.4,1.1,350,12,,,29.698818,1005.5,,TRUE,TRUE,TRUE,,,,,,,,,,,,,,,1.6,,,,,,0.04,,,,,METAR,2.0
KDSV 221454Z AUTO 32011KT 10SM CLR 03/M07 A3004 RMK AO2 SLP189 T00281072 51006,KDSV,2018-03-22T14:54:00Z,42.57,-77.72,2.8,-7.2,320,11,,10.0,30.041338,1018.9,,TRUE,TRUE,,,,,,,CLR,,,,,,,,VFR,0.6,,,,,,,,,,,METAR,198.0
KFIG 221454Z AUTO 32007KT 280V360 10SM CLR 01/M08 A3002 RMK AO2 SLP180 T00111078 51010,KFIG,2018-03-22T14:54:00Z,41.05,-78.42,1.1,-7.8,320,7,,10.0,30.02067,1018.0,,TRUE,TRUE,,,,,,,CLR,,,,,,,,VFR,1.0,,,,,,,,,,,METAR,462.0
KGCK 221454Z 19010KT 10SM CLR 07/01 A3008 RMK AO2 SLP188 T00720006 50010,KGCK,2018-03-22T14:54:00Z,37.92,-100.72,7.2,0.6,190,10,,10.0,30.079725,1018.8,,,TRUE,,,,,,,CLR,,,,,,,,VFR,1.0,,,,,,,,,,,METAR,877.0
KFWA 221454Z VRB05KT 10SM CLR 02/M05 A3029 RMK AO2 SLP265 T00221050 51013,KFWA,2018-03-22T14:54:00Z,40.98,-85.18,2.2,-5.0,0,5,,10.0,30.28937,1026.5,,,TRUE,,,,,,,CLR,,,,,,,,VFR,1.3,,,,,,,,,,,METAR,248.0
KPIA 221454Z 00000KT 10SM CLR 04/M04 A3037 RMK AO2 SLP289 T00441039 51013 $,KPIA,2018-03-22T14:54:00Z,40.67,-89.68,4.4,-3.9,0,0,,10.0,30.369095,1028.9,,,TRUE,TRUE,,,,,,CLR,,,,,,,,VFR,1.3,,,,,,,,,,,METAR,205.0
KRBL 221454Z AUTO 15020G28KT 10SM BKN011 14/13 A2958 RMK AO2 PK WND 14030/1432 SLP013 T01390128 58004,KRBL,2018-03-22T14:54:00Z,40.15,-122.25,13.9,12.8,150,20,28,10.0,29.58071,1001.3,,TRUE,TRUE,,,,,,,BKN,1100,,,,,,,MVFR,-0.4,,,,,,,,,,,METAR,104.0
KRFD 221454Z 22003KT 10SM CLR 01/M05 A3038 RMK AO2 SLP295 T00111050 51012,KRFD,2018-03-22T14:54:00Z,42.2,-89.1,1.1,-5.0,220,3,,10.0,30.380905,1029.5,,,TRUE,,,,,,,CLR,,,,,,,,VFR,1.2,,,,,,,,,,,METAR,221.0
KROC 221454Z 33009KT 10SM FEW180 BKN250 01/M06 A3005 RMK AO2 SLP187 T00111061 51009,KROC,2018-03-22T14:54:00Z,43.12,-77.68,1.1,-6.1,330,9,,10.0,30.050198,1018.7,,,TRUE,,,,,,,FEW,18000,BKN,25000,,,,,VFR,0.9,,,,,,,,,,,METAR,178.0
KRKS 221454Z AUTO 06003KT 10SM SCT100 03/00 A3006 RMK AO2 SLP169 T00330000 56005,KRKS,2018-03-22T14:54:00Z,41.6,-109.07,3.3,0.0,60,3,,10.0,30.059055,1016.9,,TRUE,TRUE,,,,,,,SCT,10000,,,,,,,VFR,-0.5,,,,,,,,,,,METAR,2060.0
KSBN 221454Z 01010KT 10SM CLR 02/M07 A3032 RMK AO2 SLP278 T00171067 51019 $,KSBN,2018-03-22T14:54:00Z,41.7,-86.32,1.7,-6.7,10,10,,10.0,30.318897,1027.8,,,TRUE,TRUE,,,,,,CLR,,,,,,,,VFR,1.9,,,,,,,,,,,METAR,237.0
KWLD 221454Z AUTO 15012G21KT 10SM CLR 12/01 A3020 RMK AO2 SLP225 T01220006 58001,KWLD,2018-03-22T14:54:00Z,37.17,-97.03,12.2,0.6,150,12,21,10.0,30.200787,1022.5,,TRUE,TRUE,,,,,,,CLR,,,,,,,,VFR,-0.1,,,,,,,,,,,METAR,350.0
KUIN 221454Z AUTO 06007KT 10SM BKN095 OVC120 04/M03 A3037 RMK AO2 SLP289 T00441028 51015,KUIN,2018-03-22T14:54:00Z,39.95,-91.2,4.4,-2.8,60,7,,10.0,30.369095,1028.9,,TRUE,TRUE,,,,,,,BKN,9500,OVC,12000,,,,,VFR,1.5,,,,,,,,,,,METAR,234.0
KTAD 221454Z AUTO 25006KT 10SM CLR 12/M07 A3017 RMK AO2 SLP169 T01171072 51011,KTAD,2018-03-22T14:54:00Z,37.27,-104.33,11.7,-7.2,250,6,,10.0,30.171259,1016.9,,TRUE,TRUE,,,,,,,CLR,,,,,,,,VFR,1.1,,,,,,,,,,,METAR,1756.0
KSUS 221454Z VRB03KT 10SM BKN100 06/01 A3038 RMK AO2 SLP293 T00560011 50015,KSUS,2018-03-22T14:54:00Z,38.65,-90.65,5.6,1.1,0,3,,10.0,30.380905,1029.3,,,TRUE,,,,,,,BKN,10000,,,,,,,VFR,1.5,,,,,,,,,,,METAR,141.0
KSLC 221454Z 16013KT 10SM FEW070 BKN095 BKN120 14/03 A2992 RMK AO2 SLP101 SH DSNT NE AND SE 60000 T01440033 58001,KSLC,2018-03-22T14:54:00Z,40.77,-111.97,14.4,3.3,160,13,,10.0,29.920275,1010.1,,,TRUE,,,,,,,FEW,7000,BKN,9500,BKN,12000,,,VFR,-0.1,,,,,,0.005,,,,,METAR,1286.0
KSET 221454Z AUTO 28003KT 10SM CLR 04/01 A3039 RMK AO2 SLP294 T00440006 51021,KSET,2018-03-22T14:54:00Z,38.93,-90.43,4.4,0.6,280,3,,10.0,30.389763,1029.4,,TRUE,TRUE,,,,,,,CLR,,,,,,,,VFR,2.1,,,,,,,,,,,METAR,134.0
PAKN 221454Z AUTO 36010KT 10SM CLR M08/M10 A3023 RMK AO2 SLP239 I3000 T10831100 58035 TSNO,PAKN,2018-03-22T14:54:00Z,58.68,-156.65,-8.3,-10.0,360,10,,10.0,30.230314,1023.9,,TRUE,TRUE,,,TRUE,,,,CLR,,,,,,,,VFR,-3.5,,,,,,,,,,,METAR,17.0
PAHN 221454Z AUTO 30012G16KT 10SM OVC075 M01/M11 A3004 RMK AO2 SLP174 T10061106 56008 TSNO,PAHN,2018-03-22T14:54:00Z,59.25,-135.52,-0.6,-10.6,300,12,16,10.0,30.041338,1017.4,,TRUE,TRUE,,,TRUE,,,,OVC,7500,,,,,,,VFR,-0.8,,,,,,,,,,,METAR,5.0
KDSM 221454Z 12007KT 10SM -RA SCT049 BKN065 OVC080 02/00 A3032 RMK AO2 SLP275 P0003 60005 T00220000 50004,KDSM,2018-03-22T14:54:00Z,41.53,-93.67,2.2,0.0,120,7,,10.0,30.318897,1027.5,,,TRUE,,,,,,-RA,SCT,4900,BKN,6500,OVC,8000,,,VFR,0.4,,,,,0.03,0.05,,,,,METAR,295.0
KDDH 221454Z AUTO 32009KT 10SM CLR 01/M07 A2980 RMK AO2 SLP101 T00111067 50003,KDDH,2018-03-22T14:54:00Z,42.9,-73.25,1.1,-6.7,320,9,,10.0,29.799213,1010.1,,TRUE,TRUE,,,,,,,CLR,,,,,,,,VFR,0.3,,,,,,,,,,,METAR,244.0
KCRW 221454Z 30009KT 10SM FEW024 SCT120 03/M03 A3020 RMK AO2 SLP234 T00281033 51014,KCRW,2018-03-22T14:54:00Z,38.38,-81.58,2.8,-3.3,300,9,,10.0,30.200787,1023.4,,,TRUE,,,,,,,FEW,2400,SCT,12000,,,,,VFR,1.4,,,,,,,,,,,METAR,309.0
KCEU 221454Z AUTO VRB06G18KT 10SM CLR 07/M07 A3021 RMK AO2 SLP233 T00721072 51013,KCEU,2018-03-22T14:54:00Z,34.67,-82.88,7.2,-7.2,0,6,18,10.0,30.209646,1023.3,,TRUE,TRUE,,,,,,,CLR,,,,,,,,VFR,1.3,,,,,,,,,,,METAR,268.0
K1V4 221454Z AUTO 02/M07 A2979 RMK AO1 SLP097 T00221067 56004,K1V4,2018-03-22T14:54:00Z,44.42,-72.02,2.2,-6.7,,,,,29.790354,1009.7,,TRUE,TRUE,,,,,,,,,,,,,,,,-0.4,,,,,,,,,,,METAR,210.0
KBKB 221454Z AUTO VRB04KT 10SM CLR 16/04 A3035 RMK AO2 SLP308 T01560044 51014 $,KBKB,2018-03-22T14:54:00Z,31.0,-92.92,15.6,4.4,0,4,,10.0,30.351377,1030.8,,TRUE,TRUE,TRUE,,,,,,CLR,,,,,,,,VFR,1.4,,,,,,,,,,,METAR,94.0
KRSP 221454Z AUTO 33009G28KT 280V350 CLR M01/M08 A2993 RMK AO2 PK WND 33029/1441 SLP159 T10111078 51020 PWINO FZRANO $,KRSP,2018-03-22T14:54:00Z,39.65,-77.47,-1.1,-7.8,330,9,28,,29.929134,1015.9,,TRUE,TRUE,TRUE,,,TRUE,TRUE,,CLR,,,,,,,,,2.0,,,,,,,,,,,METAR,561.0
KBFI 221453Z 17006KT 7SM -RA FEW013 BKN020 OVC041 07/05 A2950 RMK AO2 SLP990 P0006 60007 T00670050 51014 $,KBFI,2018-03-22T14:53:00Z,47.55,-122.32,6.7,5.0,170,6,,7.0,29.500984,999.0,,,TRUE,TRUE,,,,,-RA,FEW,1300,BKN,2000,OVC,4100,,,MVFR,1.4,,,,,0.06,,,,,,SPECI,4.0
KBFF 221453Z AUTO 00000KT 10SM CLR 07/01 A3008 RMK AO2 SLP178 T00670011 51008,KBFF,2018-03-22T14:53:00Z,41.87,-103.58,6.7,1.1,0,0,,10.0,30.079725,1017.8,,TRUE,TRUE,,,,,,,CLR,,,,,,,,VFR,0.8,,,,,,,,,,,METAR,1203.0
KBFD 221453Z AUTO 31011KT 10SM CLR M01/M09 A2999 RMK AO2 SLP178 T10111089 51012,KBFD,2018-03-22T14:53:00Z,41.8,-78.63,-1.1,-8.9,310,11,,10.0,29.991142,1017.8,,TRUE,TRUE,,,,,,,CLR,,,,,,,,VFR,1.2,,,,,,,,,,,METAR,647.0
KBEH 221453Z AUTO 32006KT 10SM CLR 02/M09 A3033 RMK AO2 SLP278 T00221089 51018,KBEH,2018-03-22T14:53:00Z,42.13,-86.42,2.2,-8.9,320,6,,10.0,30.33071,1027.8,,TRUE,TRUE,,,,,,,CLR,,,,,,,,VFR,1.8,,,,,,,,,,,METAR,191.0
KGIF 221453Z AUTO 33008KT 10SM CLR 15/00 A3027 RMK AO2 SLP249 T01500000 51013,KGIF,2018-03-22T14:53:00Z,28.07,-81.75,15.0,0.0,330,8,,10.0,30.268702,1024.9,,TRUE,TRUE,,,,,,,CLR,,,,,,,,VFR,1.3,,,,,,,,,,,METAR,43.0
KGJT 221453Z 11013KT 10SM OVC070 10/M01 A3013 RMK AO2 SLP177 T01001011 53006,KGJT,2018-03-22T14:53:00Z,39.12,-108.52,10.0,-1.1,110,13,,10.0,30.129921,1017.7,,,TRUE,,,,,,,OVC,7000,,,,,,,VFR,0.6,,,,,,,,,,,METAR,1475.0
KGKJ 221453Z AUTO 32009KT 10SM CLR M02/M07 A3010 RMK AO2 SLP209 T10171067 52013,KGKJ,2018-03-22T14:53:00Z,41.63,-80.22,-1.7,-6.7,320,9,,10.0,30.100393,1020.9,,TRUE,TRUE,,,,,,,CLR,,,,,,,,VFR,1.3,,,,,,,,,,,METAR,428.0
KGKY 221453Z 17011KT 10SM CLR 16/10 A3027 RMK AO2 SLP247 T01560100 51015,KGKY,2018-03-22T14:53:00Z,32.67,-97.1,15.6,10.0,170,11,,10.0,30.268702,1024.7,,,TRUE,,,,,,,CLR,,,,,,,,VFR,1.5,,,,,,,,,,,METAR,192.0
KGLD 221453Z AUTO 33007KT 10SM CLR 08/M02 A3007 RMK AO2 SLP183 T00831022 53006,KGLD,2018-03-22T14:53:00Z,39.37,-101.7,8.3,-2.2,330,7,,10.0,30.070866,1018.3,,TRUE,TRUE,,,,,,,CLR,,,,,,,,VFR,0.6,,,,,,,,,,,METAR,1113.0
KGLH 221453Z 17005KT 10SM CLR 13/03 A3040 RMK AO2 SLP301 T01280028 51016,KGLH,2018-03-22T14:53:00Z,33.5,-90.98,12.8,2.8,170,5,,10.0,30.398623,1030.1,,,TRUE,,,,,,,CLR,,,,,,,,VFR,1.6,,,,,,,,,,,METAR,45.0
KGLR 221453Z AUTO VRB05KT 10SM CLR M03/M11 A3023 RMK AO2 SLP257 T10281111 51008,KGLR,2018-03-22T14:53:00Z,45.02,-84.68,-2.8,-11.1,0,5,,10.0,30.230314,1025.7,,TRUE,TRUE,,,,,,,CLR,,,,,,,,VFR,0.8,,,,,,,,,,,METAR,407.0
KGMU 221453Z VRB05KT 10SM CLR 08/M06 A3019 RMK AO2 SLP228 T00781061 51013,KGMU,2018-03-22T14:53:00Z,34.85,-82.35,7.8,-6.1,0,5,,10.0,30.188976,1022.8,,,TRUE,,,,,,,CLR,,,,,,,,VFR,1.3,,,,,,,,,,,METAR,315.0
KGNV 221453Z 34008KT 10SM CLR 12/M01 A3028 RMK AO2 SLP252 T01221006 50009,KGNV,2018-03-22T14:53:00Z,29.7,-82.28,12.2,-0.6,340,8,,10.0,30.280512,1025.2,,,TRUE,,,,,,,CLR,,,,,,,,VFR,0.9,,,,,,,,,,,METAR,45.0
KGOK 221453Z AUTO 16018G26KT 10SM CLR 16/M01 A3017 RMK AO2 PK WND 15029/1433 SLP217 T01561011 56004,KGOK,2018-03-22T14:53:00Z,35.85,-97.4,15.6,-1.1,160,18,26,10.0,30.171259,1021.7,,TRUE,TRUE,,,,,,,CLR,,,,,,,,VFR,-0.4,,,,,,,,,,,METAR,324.0
KGPT 221453Z 04006KT 10SM CLR 14/03 A3038 RMK AO2 SLP288 T01440033 51012,KGPT,2018-03-22T14:53:00Z,30.42,-89.08,14.4,3.3,40,6,,10.0,30.380905,1028.8,,,TRUE,,,,,,,CLR,,,,,,,,VFR,1.2,,,,,,,,,,,METAR,14.0
KGRB 221453Z 04005KT 10SM CLR M01/M10 A3036 RMK AO2 SLP291 T10061100 53012,KGRB,2018-03-22T14:53:00Z,44.48,-88.13,-0.6,-10.0,40,5,,10.0,30.360237,1029.1,,,TRUE,,,,,,,CLR,,,,,,,,VFR,1.2,,,,,,,,,,,METAR,208.0
KGRR 221453Z 31008KT 10SM FEW250 02/M10 A3029 RMK AO2 SLP266 T00171100 51010,KGRR,2018-03-22T14:53:00Z,42.88,-85.52,1.7,-10.0,310,8,,10.0,30.28937,1026.6,,,TRUE,,,,,,,FEW,25000,,,,,,,VFR,1.0,,,,,,,,,,,METAR,237.0
KGRI 221453Z 17010KT 9SM CLR 07/01 A3013 RMK AO2 SLP213 T00720011 50000,KGRI,2018-03-22T14:53:00Z,40.97,-98.32,7.2,1.1,170,10,,9.0,30.129921,1021.3,,,TRUE,,,,,,,CLR,,,,,,,,VFR,0.0,,,,,,,,,,,METAR,561.0
KGSH 221453Z AUTO 34008KT 10SM CLR 02/M06 A3030 RMK AO2 SLP268 T00171056 51016,KGSH,2018-03-22T14:53:00Z,41.53,-85.78,1.7,-5.6,340,8,,10.0,30.301182,1026.8,,TRUE,TRUE,,,,,,,CLR,,,,,,,,VFR,1.6,,,,,,,,,,,METAR,252.0
KGSP 221453Z 32009G18KT 300V360 10SM CLR 07/M06 A3020 RMK AO2 SLP229 T00721056 53015,KGSP,2018-03-22T14:53:00Z,34.9,-82.22,7.2,-5.6,320,9,18,10.0,30.200787,1022.9,,,TRUE,,,,,,,CLR,,,,,,,,VFR,1.5,,,,,,,,,,,METAR,287.0
KGTF 221453Z 04005KT 10SM FEW095 00/M02 A2986 RMK AO2 SLP144 60000 T00001022 58007 $,KGTF,2018-03-22T14:53:00Z,47.47,-111.38,0.0,-2.2,40,5,,10.0,29.861221,1014.4,,,TRUE,TRUE,,,,,,FEW,9500,,,,,,,VFR,-0.7,,,,,,0.005,,,,,METAR,1119.0
KGUP 221453Z AUTO 00000KT 10SM FEW110 07/M02 A3028 RMK AO2 SLP202 T00671017 53009,KGUP,2018-03-22T14:53:00Z,35.52,-108.8,6.7,-1.7,0,0,,10.0,30.280512,1020.2,,TRUE,TRUE,,,,,,,FEW,11000,,,,,,,VFR,0.9,,,,,,,,,,,METAR,1971.0
KGUY 221453Z AUTO 27006KT 10SM CLR 09/M01 A3007 RMK AO2 SLP168 T00941011 53002,KGUY,2018-03-22T14:53:00Z,36.68,-101.5,9.4,-1.1,270,6,,10.0,30.070866,1016.8,,TRUE,TRUE,,,,,,,CLR,,,,,,,,VFR,0.2,,,,,,,,,,,METAR,948.0
KGVL 221453Z AUTO 33012KT 290V010 10SM CLR 07/M06 A3024 RMK AO2 SLP242 T00671061 51015,KGVL,2018-03-22T14:53:00Z,34.27,-83.83,6.7,-6.1,330,12,,10.0,30.239174,1024.2,,TRUE,TRUE,,,,,,,CLR,,,,,,,,VFR,1.5,,,,,,,,,,,METAR,386.0
KGWO 221453Z AUTO VRB03KT 10SM CLR 12/03 A3040 RMK AO2 SLP295 T01170028 51015,KGWO,2018-03-22T14:53:00Z,33.5,-90.08,11.7,2.8,0,3,,10.0,30.398623,1029.5,,TRUE,TRUE,,,,,,,CLR,,,,,,,,VFR,1.5,,,,,,,,,,,METAR,44.0
KGZH 221453Z AUTO 34007KT 10SM CLR 12/00 A3038 RMK AO2 SLP287 T01170000 51016,KGZH,2018-03-22T14:53:00Z,31.42,-87.05,11.7,0.0,340,7,,10.0,30.380905,1028.7,,TRUE,TRUE,,,,,,,CLR,,,,,,,,VFR,1.6,,,,,,,,,,,METAR,78.0
KBBW 221453Z AUTO 11004KT 10SM CLR 06/01 A3009 RMK AO2 SLP198 T00610011 51012,KBBW,2018-03-22T14:53:00Z,41.43,-99.63,6.1,1.1,110,4,,10.0,30.088583,1019.8,,TRUE,TRUE,,,,,,,CLR,,,,,,,,VFR,1.2,,,,,,,,,,,METAR,776.0
KAZO 221453Z 34014KT 10SM CLR 03/M09 A3030 RMK AO2 SLP268 T00281089 51014,KAZO,2018-03-22T14:53:00Z,42.23,-85.55,2.8,-8.9,340,14,,10.0,30.301182,1026.8,,,TRUE,,,,,,,CLR,,,,,,,,VFR,1.4,,,,,,,,,,,METAR,272.0
KAXN 221453Z AUTO 13006KT 10SM OVC035 01/M02 A3032 RMK AO2 SLP286 T00111017 51012,KAXN,2018-03-22T14:53:00Z,45.87,-95.4,1.1,-1.7,130,6,,10.0,30.318897,1028.6,,TRUE,TRUE,,,,,,,OVC,3500,,,,,,,VFR,1.2,,,,,,,,,,,METAR,433.0
KAWM 221453Z AUTO 07003KT 10SM CLR 09/03 A3040 RMK AO2 SLP293 T00940033 51018 $,KAWM,2018-03-22T14:53:00Z,35.13,-90.23,9.4,3.3,70,3,,10.0,30.398623,1029.3,,TRUE,TRUE,TRUE,,,,,,CLR,,,,,,,,VFR,1.8,,,,,,,,,,,METAR,65.0
KAUS 221453Z 17011KT 10SM FEW100 SCT200 BKN300 19/13 A3027 RMK AO2 SLP247 T01890133 51011,KAUS,2018-03-22T14:53:00Z,30.18,-97.68,18.9,13.3,170,11,,10.0,30.268702,1024.7,,,TRUE,,,,,,,FEW,10000,SCT,20000,BKN,30000,,,VFR,1.1,,,,,,,,,,,SPECI,166.0
KBGM 221453Z 32012G19KT 10SM CLR M01/M08 A2990 RMK AO2 SLP143 T10061078 51013,KBGM,2018-03-22T14:53:00Z,42.22,-75.98,-0.6,-7.8,320,12,19,10.0,29.899607,1014.3,,,TRUE,,,,,,,CLR,,,,,,,,VFR,1.3,,,,,,,,,,,METAR,490.0
KBFM 221453Z 02011KT 10SM CLR 13/01 A3040 RMK AO2 SLP294 T01330011 51015,KBFM,2018-03-22T14:53:00Z,30.62,-88.07,13.3,1.1,20,11,,10.0,30.398623,1029.4,,,TRUE,,,,,,,CLR,,,,,,,,VFR,1.5,,,,,,,,,,,METAR,20.0
KBHM 221453Z 34005KT 10SM CLR 08/M01 A3040 RMK AO2 SLP293 T00831011 51022,KBHM,2018-03-22T14:53:00Z,33.57,-86.75,8.3,-1.1,340,5,,10.0,30.398623,1029.3,,,TRUE,,,,,,,CLR,,,,,,,,VFR,2.2,,,,,,,,,,,METAR,197.0
KBIV 221453Z AUTO 35007KT 10SM CLR 02/M07 A3032 RMK AO2 SLP275 T00221072 51010,KBIV,2018-03-22T14:53:00Z,42.75,-86.1,2.2,-7.2,350,7,,10.0,30.318897,1027.5,,TRUE,TRUE,,,,,,,CLR,,,,,,,,VFR,1.0,,,,,,,,,,,METAR,208.0
KBKE 221453Z AUTO 10007KT 10SM -RA FEW031 BKN049 OVC070 09/05 A2964 RMK AO2 RAB40 SLP034 P0000 60000 T00940050 56008,KBKE,2018-03-22T14:53:00Z,44.85,-117.82,9.4,5.0,100,7,,10.0,29.639763,1003.4,,TRUE,TRUE,,,,,,-RA,FEW,3100,BKN,4900,OVC,7000,,,VFR,-0.8,,,,,0.005,0.005,,,,,METAR,1024.0
KHAO 221453Z AUTO 34005KT 10SM CLR 01/M04 A3031 RMK AO2 SLP271 T00111039 51018,KHAO,2018-03-22T14:53:00Z,39.37,-84.52,1.1,-3.9,340,5,,10.0,30.31004,1027.1,,TRUE,TRUE,,,,,,,CLR,,,,,,,,VFR,1.8,,,,,,,,,,,METAR,188.0
KHBG 221453Z AUTO 00000KT 10SM CLR 12/03 A3041 RMK AO2 SLP298 T01170033 51019,KHBG,2018-03-22T14:53:00Z,31.27,-89.25,11.7,3.3,0,0,,10.0,30.410433,1029.8,,TRUE,TRUE,,,,,,,CLR,,,,,,,,VFR,1.9,,,,,,,,,,,METAR,44.0
KHBR 221453Z AUTO 18023G27KT 10SM CLR 16/04 A3014 RMK AO2 PK WND 18028/1451 SLP201 T01560039 51005,KHBR,2018-03-22T14:53:00Z,34.98,-99.05,15.6,3.9,180,23,27,10.0,30.138779,1020.1,,TRUE,TRUE,,,,,,,CLR,,,,,,,,VFR,0.5,,,,,,,,,,,METAR,473.0
KHEI 221453Z AUTO 10007KT 10SM CLR 01/M02 A3015 RMK AO2 SLP238 T00111017 51011,KHEI,2018-03-22T14:53:00Z,46.02,-102.65,1.1,-1.7,100,7,,10.0,30.15059,1023.8,,TRUE,TRUE,,,,,,,CLR,,,,,,,,VFR,1.1,,,,,,,,,,,METAR,828.0
KHFD 221453Z 01012G24KT 10SM FEW042 OVC055 07/M03 A2972 RMK AO2 PK WND 33027/1434 SLP063 T00671028 50001,KHFD,2018-03-22T14:53:00Z,41.73,-72.65,6.7,-2.8,10,12,24,10.0,29.719488,1006.3,,,TRUE,,,,,,,FEW,4200,OVC,5500,,,,,VFR,0.1,,,,,,,,,,,METAR,4.0
KHGR 221453Z 32010KT 10SM CLR 03/M06 A3002 RMK AO2 SLP181 T00281061 51018,KHGR,2018-03-22T14:53:00Z,39.7,-77.73,2.8,-6.1,320,10,,10.0,30.02067,1018.1,,,TRUE,,,,,,,CLR,,,,,,,,VFR,1.8,,,,,,,,,,,METAR,224.0
KHHR 221453Z 00000KT 7SM -RA OVC090 17/15 A2999 RMK AO2 RAB1359 SLP154 P0002 60002 T01670150 50012,KHHR,2018-03-22T14:53:00Z,33.92,-118.33,16.7,15.0,0,0,,7.0,29.991142,1015.4,,,TRUE,,,,,,-RA,OVC,9000,,,,,,,VFR,1.2,,,,,0.02,0.02,,,,,METAR,18.0
KHKA 221453Z AUTO 08003KT 10SM FEW120 09/01 A3041 RMK AO2 SLP298 T00890011 51019,KHKA,2018-03-22T14:53:00Z,35.93,-89.83,8.9,1.1,80,3,,10.0,30.410433,1029.8,,TRUE,TRUE,,,,,,,FEW,12000,,,,,,,VFR,1.9,,,,,,,,,,,METAR,78.0
KHKS 221453Z 18004KT 10SM CLR 12/03 A3041 RMK AO2 SLP293 T01220028 51020,KHKS,2018-03-22T14:53:00Z,32.33,-90.22,12.2,2.8,180,4,,10.0,30.410433,1029.3,,,TRUE,,,,,,,CLR,,,,,,,,VFR,2.0,,,,,,,,,,,METAR,108.0
KHKY 221453Z 32009G16KT 10SM CLR 06/M08 A3014 RMK AO2 SLP200 T00611078 53016,KHKY,2018-03-22T14:53:00Z,35.75,-81.38,6.1,-7.8,320,9,16,10.0,30.138779,1020.0,,,TRUE,,,,,,,CLR,,,,,,,,VFR,1.6,,,,,,,,,,,METAR,354.0
KHLC 221453Z AUTO 20004KT 10SM CLR 08/02 A3012 RMK AO2 SLP200 T00830017 50010,KHLC,2018-03-22T14:53:00Z,39.37,-99.83,8.3,1.7,200,4,,10.0,30.121063,1020.0,,TRUE,TRUE,,,,,,,CLR,,,,,,,,VFR,1.0,,,,,,,,,,,METAR,669.0
KHLG 221453Z 28010KT 10SM CLR M01/M07 A3015 RMK AO2 SLP225 T10111067 51013,KHLG,2018-03-22T14:53:00Z,40.17,-80.65,-1.1,-6.7,280,10,,10.0,30.15059,1022.5,,,TRUE,,,,,,,CLR,,,,,,,,VFR,1.3,,,,,,,,,,,METAR,372.0
KHLN 221453Z 29003KT 10SM FEW110 04/00 A2985 RMK AO2 SLP136 T00390000 58008,KHLN,2018-03-22T14:53:00Z,46.6,-111.98,3.9,0.0,290,3,,10.0,29.84941,1013.6,,,TRUE,,,,,,,FEW,11000,,,,,,,VFR,-0.8,,,,,,,,,,,METAR,1182.0
KHOT 221453Z AUTO 11008KT 10SM CLR 12/03 A3038 RMK AO2 SLP286 T01170028 51014,KHOT,2018-03-22T14:53:00Z,34.48,-93.1,11.7,2.8,110,8,,10.0,30.380905,1028.6,,TRUE,TRUE,,,,,,,CLR,,,,,,,,VFR,1.4,,,,,,,,,,,METAR,162.0
KBDE 221453Z AUTO 09003KT 10SM OVC065 M01/M07 A3035 RMK AO2 SLP293 T10111067 51014,KBDE,2018-03-22T14:53:00Z,48.73,-94.62,-1.1,-6.7,90,3,,10.0,30.351377,1029.3,,TRUE,TRUE,,,,,,,OVC,6500,,,,,,,VFR,1.4,,,,,,,,,,,METAR,329.0
KBCE 221453Z AUTO 14014KT 10SM BKN030 06/02 A3018 RMK AO2 SLP152 T00610022 50003,KBCE,2018-03-22T14:53:00Z,37.7,-112.15,6.1,2.2,140,14,,10.0,30.180119,1015.2,,TRUE,TRUE,,,,,,,BKN,3000,,,,,,,MVFR,0.3,,,,,,,,,,,SPECI,2312.0
KHOU 221453Z 11007KT 10SM SCT300 19/14 A3033 RMK AO2 SLP275 T01940139 53020,KHOU,2018-03-22T14:53:00Z,29.63,-95.28,19.4,13.9,110,7,,10.0,30.33071,1027.5,,,TRUE,,,,,,,SCT,30000,,,,,,,VFR,2.0,,,,,,,,,,,METAR,36.0
KHRO 221453Z AUTO 13009KT 10SM CLR 07/01 A3034 RMK AO2 SLP278 T00670011 51011,KHRO,2018-03-22T14:53:00Z,36.27,-93.15,6.7,1.1,130,9,,10.0,30.339567,1027.8,,TRUE,TRUE,,,,,,,CLR,,,,,,,,VFR,1.1,,,,,,,,,,,METAR,417.0
KHSV 221453Z 36009KT 10SM CLR 09/M01 A3037 RMK AO2 SLP284 T00891006 51021 $,KHSV,2018-03-22T14:53:00Z,34.65,-86.78,8.9,-0.6,360,9,,10.0,30.369095,1028.4,,,TRUE,TRUE,,,,,,CLR,,,,,,,,VFR,2.1,,,,,,,,,,,METAR,191.0
KHTL 221453Z AUTO 35006KT 10SM CLR M01/M09 A3025 RMK AO2 SLP259 T10061089 50007,KHTL,2018-03-22T14:53:00Z,44.35,-84.67,-0.6,-8.9,350,6,,10.0,30.250984,1025.9,,TRUE,TRUE,,,,,,,CLR,,,,,,,,VFR,0.7,,,,,,,,,,,METAR,351.0
KHUF 221453Z 33008KT 10SM CLR 03/M04 A3037 RMK AO2 SLP287 T00331039 51018,KHUF,2018-03-22T14:53:00Z,39.45,-87.3,3.3,-3.9,330,8,,10.0,30.369095,1028.7,,,TRUE,,,,,,,CLR,,,,,,,,VFR,1.8,,,,,,,,,,,METAR,179.0
KHVN 221453Z 01013G20KT 10SM SCT036 BKN120 07/M01 A2972 RMK AO2 SLP064 T00721006 50007,KHVN,2018-03-22T14:53:00Z,41.27,-72.87,7.2,-0.6,10,13,20,10.0,29.719488,1006.4,,,TRUE,,,,,,,SCT,3600,BKN,12000,,,,,VFR,0.7,,,,,,,,,,,METAR,4.0
KHVR 221453Z AUTO 08016KT 9SM SCT095 M04/M06 A2993 RMK AO2 SLP170 T10441056 58003,KHVR,2018-03-22T14:53:00Z,48.55,-109.77,-4.4,-5.6,80,16,,9.0,29.929134,1017.0,,TRUE,TRUE,,,,,,,SCT,9500,,,,,,,VFR,-0.3,,,,,,,,,,,METAR,787.0
KHWO 221453Z 33016KT 10SM CLR 19/02 A3025 RMK AO2 SLP242 T01890022 51017,KHWO,2018-03-22T14:53:00Z,26.0,-80.23,18.9,2.2,330,16,,10.0,30.250984,1024.2,,,TRUE,,,,,,,CLR,,,,,,,,VFR,1.7,,,,,,,,,,,METAR,2.0
KHYR 221453Z AUTO 00000KT 10SM BKN050 M04/M08 A3036 RMK AO2 UPB18E44 SLP302 P0000 60000 T10391083 51015,KHYR,2018-03-22T14:53:00Z,46.02,-91.45,-3.9,-8.3,0,0,,10.0,30.360237,1030.2,,TRUE,TRUE,,,,,,,BKN,5000,,,,,,,VFR,1.5,,,,,0.005,0.005,,,,,METAR,370.0
KEYE 221453Z AUTO 34009KT 10SM CLR 02/M05 A3032 RMK AO2 SLP274 T00221050 51016,KEYE,2018-03-22T14:53:00Z,39.83,-86.3,2.2,-5.0,340,9,,10.0,30.318897,1027.4,,TRUE,TRUE,,,,,,,CLR,,,,,,,,VFR,1.6,,,,,,,,,,,METAR,248.0
KEYW 221453Z 01010G18KT 10SM CLR 21/11 A3024 RMK AO2 SLP238 T02060111 51020,KEYW,2018-03-22T14:53:00Z,24.55,-81.75,20.6,11.1,10,10,18,10.0,30.239174,1023.8,,,TRUE,,,,,,,CLR,,,,,,,,VFR,2.0,,,,,,,,,,,METAR,5.0
KFAT 221453Z 12012KT 3SM R29R/5500VP6000FT RA BR FEW045 BKN070 OVC100 15/14 A2986 RMK AO2 TWR VIS 4 SLP109 P0011 60033 T01500139 50016,KFAT,2018-03-22T14:53:00Z,36.78,-119.72,15.0,13.9,120,12,,3.0,29.861221,1010.9,,,TRUE,,,,,,RA BR,FEW,4500,BKN,7000,OVC,10000,,,MVFR,1.6,,,,,0.11,0.33,,,,,METAR,104.0
PASC 221453Z 09014KT 10SM OVC085 M26/M28 A3044 RMK AO2 SLP311 T12561283 57018,PASC,2018-03-22T14:53:00Z,70.2,-148.47,-25.6,-28.3,90,14,,10.0,30.43996,1031.1,,,TRUE,,,,,,,OVC,8500,,,,,,,VFR,-1.8,,,,,,,,,,,METAR,15.0
KFAY 221453Z 31012KT 10SM CLR 08/M04 A3011 RMK AO2 SLP191 T00781044 51012,KFAY,2018-03-22T14:53:00Z,34.98,-78.88,7.8,-4.4,310,12,,10.0,30.109253,1019.1,,,TRUE,,,,,,,CLR,,,,,,,,VFR,1.2,,,,,,,,,,,METAR,55.0
KFCM 221453Z 07004KT 6SM HZ OVC032 02/M04 A3035 RMK AO2 SLP289 T00171039 51013 $,KFCM,2018-03-22T14:53:00Z,44.83,-93.47,1.7,-3.9,70,4,,6.0,30.351377,1028.9,,,TRUE,TRUE,,,,,HZ,OVC,3200,,,,,,,VFR,1.3,,,,,,,,,,,METAR,280.0
KFDR 221453Z AUTO 16016G25KT 10SM CLR 16/05 A3014 RMK AO2 SLP198 T01610050 51007,KFDR,2018-03-22T14:53:00Z,34.35,-98.98,16.1,5.0,160,16,25,10.0,30.138779,1019.8,,TRUE,TRUE,,,,,,,CLR,,,,,,,,VFR,0.7,,,,,,,,,,,METAR,386.0
KFDY 221453Z AUTO VRB05KT 10SM CLR 03/M12 A3025 RMK AO2 SLP246 T00281122 51014,KFDY,2018-03-22T14:53:00Z,41.02,-83.67,2.8,-12.2,0,5,,10.0,30.250984,1024.6,,TRUE,TRUE,,,,,,,CLR,,,,,,,,VFR,1.4,,,,,,,,,,,METAR,247.0
KFFC 221453Z AUTO 33009KT 10SM CLR 08/M03 A3031 RMK AO2 SLP267 T00781033 53015,KFFC,2018-03-22T14:53:00Z,33.35,-84.57,7.8,-3.3,330,9,,10.0,30.31004,1026.7,,TRUE,TRUE,,,,,,,CLR,,,,,,,,VFR,1.5,,,,,,,,,,,METAR,262.0
KFFT 221453Z AUTO 31005KT 10SM CLR 01/M04 A3030 RMK AO2 SLP266 T00111044 51020,KFFT,2018-03-22T14:53:00Z,38.18,-84.9,1.1,-4.4,310,5,,10.0,30.301182,1026.6,,TRUE,TRUE,,,,,,,CLR,,,,,,,,VFR,2.0,,,,,,,,,,,METAR,236.0
KFHR 221453Z AUTO 04005KT 4SM -RA BR SCT033 OVC040 07/05 A2945 RMK AO2 SLP973 P0002 60002 T00670050 55006,KFHR,2018-03-22T14:53:00Z,48.52,-123.03,6.7,5.0,40,5,,4.0,29.450787,997.3,,TRUE,TRUE,,,,,,-RA BR,SCT,3300,OVC,4000,,,,,MVFR,-0.6,,,,,0.02,0.02,,,,,METAR,32.0
KFLD 221453Z AUTO VRB03KT 10SM CLR 01/M06 A3033 RMK AO2 SLP283 T00111056 51010 TSNO,KFLD,2018-03-22T14:53:00Z,43.77,-88.48,1.1,-5.6,0,3,,10.0,30.33071,1028.3,,TRUE,TRUE,,,TRUE,,,,CLR,,,,,,,,VFR,1.0,,,,,,,,,,,METAR,240.0
KFLL 221453Z 31013KT 10SM CLR 17/03 A3022 RMK AO2 SLP232 T01720028 51016,KFLL,2018-03-22T14:53:00Z,26.07,-80.15,17.2,2.8,310,13,,10.0,30.221457,1023.2,,,TRUE,,,,,,,CLR,,,,,,,,VFR,1.6,,,,,,,,,,,METAR,3.0
KFLO 221453Z 35013G19KT 10SM CLR 09/M04 A3015 RMK AO2 SLP209 T00941039 50009,KFLO,2018-03-22T14:53:00Z,34.18,-79.73,9.4,-3.9,350,13,19,10.0,30.15059,1020.9,,,TRUE,,,,,,,CLR,,,,,,,,VFR,0.9,,,,,,,,,,,METAR,44.0
KFMN 221453Z 11007KT 10SM CLR 06/M03 A3024 RMK AO2 SLP230 T00611028 53012,KFMN,2018-03-22T14:53:00Z,36.75,-108.23,6.1,-2.8,110,7,,10.0,30.239174,1023.0,,,TRUE,,,,,,,CLR,,,,,,,,VFR,1.2,,,,,,,,,,,METAR,1685.0
KFMY 221453Z 01014KT 10SM CLR 18/02 A3026 RMK AO2 SLP248 T01780017 51016,KFMY,2018-03-22T14:53:00Z,26.58,-81.87,17.8,1.7,10,14,,10.0,30.259842,1024.8,,,TRUE,,,,,,,CLR,,,,,,,,VFR,1.6,,,,,,,,,,,METAR,4.0
KFNB 221453Z AUTO 15012KT 10SM CLR 10/01 A3024 RMK AO2 SLP244 60000 T01000011 50005,KFNB,2018-03-22T14:53:00Z,40.07,-95.58,10.0,1.1,150,12,,10.0,30.239174,1024.4,,TRUE,TRUE,,,,,,,CLR,,,,,,,,VFR,0.5,,,,,,0.005,,,,,METAR,300.0
KFNT 221453Z 29007KT 260V330 10SM CLR 01/M09 A3025 RMK AO2 SLP255 T00061089 51012,KFNT,2018-03-22T14:53:00Z,42.97,-83.75,0.6,-8.9,290,7,,10.0,30.250984,1025.5,,,TRUE,,,,,,,CLR,,,,,,,,VFR,1.2,,,,,,,,,,,METAR,233.0
KFOE 221453Z 15015G20KT 10SM CLR 10/02 A3024 RMK AO2 SLP241 T01000017 53004,KFOE,2018-03-22T14:53:00Z,38.93,-95.65,10.0,1.7,150,15,20,10.0,30.239174,1024.1,,,TRUE,,,,,,,CLR,,,,,,,,VFR,0.4,,,,,,,,,,,METAR,320.0
KFOK 221453Z 34012KT 10SM FEW036 SCT045 OVC085 04/00 A2974 RMK AO2 RAE1358 SLP071 P0000 60001 T00390000 51017,KFOK,2018-03-22T14:53:00Z,40.85,-72.62,3.9,0.0,340,12,,10.0,29.740158,1007.1,,,TRUE,,,,,,,FEW,3600,SCT,4500,OVC,8500,,,VFR,1.7,,,,,0.005,0.01,,,,,METAR,33.0
KFRG 221453Z 34009KT 10SM SCT075 04/M03 A2977 RMK AO2 SLP080 T00391033 50008,KFRG,2018-03-22T14:53:00Z,40.73,-73.42,3.9,-3.3,340,9,,10.0,29.769686,1008.0,,,TRUE,,,,,,,SCT,7500,,,,,,,VFR,0.8,,,,,,,,,,,METAR,21.0
KFSM 221453Z 06008KT 10SM CLR 09/03 A3034 RMK AO2 SLP275 T00940033 51012,KFSM,2018-03-22T14:53:00Z,35.33,-94.37,9.4,3.3,60,8,,10.0,30.339567,1027.5,,,TRUE,,,,,,,CLR,,,,,,,,VFR,1.2,,,,,,,,,,,METAR,140.0
KFST 221453Z AUTO 18008KT 10SM CLR 20/05 A3014 RMK AO2 SLP169 T02000050 51010,KFST,2018-03-22T14:53:00Z,30.92,-102.92,20.0,5.0,180,8,,10.0,30.138779,1016.9,,TRUE,TRUE,,,,,,,CLR,,,,,,,,VFR,1.0,,,,,,,,,,,METAR,918.0
KFTW 221453Z 17010KT 10SM CLR 17/11 A3025 RMK AO2 SLP239 T01720106 51013,KFTW,2018-03-22T14:53:00Z,32.83,-97.37,17.2,10.6,170,10,,10.0,30.250984,1023.9,,,TRUE,,,,,,,CLR,,,,,,,,VFR,1.3,,,,,,,,,,,METAR,214.0
KFTY 221453Z 34010G20KT 10SM CLR 07/M03 A3029 RMK AO2 SLP261 T00671028 53015,KFTY,2018-03-22T14:53:00Z,33.78,-84.52,6.7,-2.8,340,10,20,10.0,30.28937,1026.1,,,TRUE,,,,,,,CLR,,,,,,,,VFR,1.5,,,,,,,,,,,METAR,263.0
KFUL 221453Z 00000KT 8SM FEW080 OVC100 17/16 A2998 RMK AO2 SLP152 60000 T01720161 51015,KFUL,2018-03-22T14:53:00Z,33.87,-117.98,17.2,16.1,0,0,,8.0,29.97933,1015.2,,,TRUE,,,,,,,FEW,8000,OVC,10000,,,,,VFR,1.5,,,,,,0.005,,,,,METAR,35.0
KFVE 221453Z AUTO 04014G22KT 10SM SCT030 01/M08 A2989 RMK AO2 SLP132 T00061078 55008,KFVE,2018-03-22T14:53:00Z,47.28,-68.3,0.6,-7.8,40,14,22,10.0,29.890747,1013.2,,TRUE,TRUE,,,,,,,SCT,3000,,,,,,,VFR,-0.8,,,,,,,,,,,METAR,301.0
KFWN 221453Z AUTO VRB04KT 10SM CLR 03/M06 A2983 RMK AO2 SLP104 T00331061 51012,KFWN,2018-03-22T14:53:00Z,41.2,-74.63,3.3,-6.1,0,4,,10.0,29.828741,1010.4,,TRUE,TRUE,,,,,,,CLR,,,,,,,,VFR,1.2,,,,,,,,,,,METAR,133.0
KFXE 221453Z 32009G18KT 10SM CLR 17/02 A3023 RMK AO2 SLP237 T01720022 51017,KFXE,2018-03-22T14:53:00Z,26.2,-80.18,17.2,2.2,320,9,18,10.0,30.230314,1023.7,,,TRUE,,,,,,,CLR,,,,,,,,VFR,1.7,,,,,,,,,,,METAR,6.0
KSAV 221453Z 31008G16KT 10SM CLR 11/M02 A3021 RMK AO2 SLP229 T01061022 50007,KSAV,2018-03-22T14:53:00Z,32.12,-81.2,10.6,-2.2,310,8,16,10.0,30.209646,1022.9,,,TRUE,,,,,,,CLR,,,,,,,,VFR,0.7,,,,,,,,,,,METAR,14.0
PAOM 221453Z AUTO 12014KT 10SM OVC025 M03/M03 A3021 RMK AO2 SLP229 60001 T10281033 58021 TSNO,PAOM,2018-03-22T14:53:00Z,64.5,-165.43,-2.8,-3.3,120,14,,10.0,30.209646,1022.9,,TRUE,TRUE,,,TRUE,,,,OVC,2500,,,,,,,MVFR,-2.1,,,,,,0.01,,,,,METAR,11.0
KSBM 221453Z AUTO VRB03KT 10SM CLR 01/M08 A3034 RMK AO2 SLP285 T00061078 51010 TSNO,KSBM,2018-03-22T14:53:00Z,43.78,-87.85,0.6,-7.8,0,3,,10.0,30.339567,1028.5,,TRUE,TRUE,,,TRUE,,,,CLR,,,,,,,,VFR,1.0,,,,,,,,,,,METAR,232.0
KSDL 221453Z 00000KT 10SM CLR 19/02 A3005 RMK AO2 SLP157 T01890022 53011,KSDL,2018-03-22T14:53:00Z,33.62,-111.92,18.9,2.2,0,0,,10.0,30.050198,1015.7,,,TRUE,,,,,,,CLR,,,,,,,,VFR,1.1,,,,,,,,,,,METAR,447.0
KSDM 221453Z 21009KT 10SM FEW110 16/13 A3005 RMK AO2 PRESRR SLP174 T01560128 53035,KSDM,2018-03-22T14:53:00Z,32.58,-117.0,15.6,12.8,210,9,,10.0,30.050198,1017.4,,,TRUE,,,,,,,FEW,11000,,,,,,,VFR,3.5,,,,,,,,,,,METAR,159.0
KSEG 221453Z AUTO 34010KT 10SM CLR 02/M08 A2999 RMK AO2 SLP158 T00221078 51013,KSEG,2018-03-22T14:53:00Z,40.82,-76.87,2.2,-7.8,340,10,,10.0,29.991142,1015.8,,TRUE,TRUE,,,,,,,CLR,,,,,,,,VFR,1.3,,,,,,,,,,,METAR,134.0
KSFB 221453Z 32008KT 10SM CLR 14/M02 A3024 RMK AO2 SLP239 T01391022 51012,KSFB,2018-03-22T14:53:00Z,28.77,-81.22,13.9,-2.2,320,8,,10.0,30.239174,1023.9,,,TRUE,,,,,,,CLR,,,,,,,,VFR,1.2,,,,,,,,,,,METAR,17.0
KSFF 221453Z 14006KT 10SM FEW060 BKN070 OVC110 07/05 A2962 RMK AO2 SLP031 60001 T00720050 57012,KSFF,2018-03-22T14:53:00Z,47.68,-117.32,7.2,5.0,140,6,,10.0,29.619095,1003.1,,,TRUE,,,,,,,FEW,6000,BKN,7000,OVC,11000,,,VFR,-1.2,,,,,,0.01,,,,,METAR,609.0
KSGR 221453Z 13010KT 10SM CLR 21/12 A3033 RMK AO2 SLP270 T02060122 53020,KSGR,2018-03-22T14:53:00Z,29.62,-95.65,20.6,12.2,130,10,,10.0,30.33071,1027.0,,,TRUE,,,,,,,CLR,,,,,,,,VFR,2.0,,,,,,,,,,,METAR,2.0
KSHN 221453Z AUTO 23004KT 6SM -RA BR BKN022 OVC033 06/04 A2949 RMK AO2 SLP988 P0005 60016 T00560039 51006,KSHN,2018-03-22T14:53:00Z,47.23,-123.13,5.6,3.9,230,4,,6.0,29.489174,998.8,,TRUE,TRUE,,,,,,-RA BR,BKN,2200,OVC,3300,,,,,MVFR,0.6,,,,,0.05,0.16,,,,,METAR,82.0
KSHR 221453Z AUTO 00000KT 10SM CLR 02/M03 A2998 RMK AO2 SLP174 T00221028 58006,KSHR,2018-03-22T14:53:00Z,44.77,-106.97,2.2,-2.8,0,0,,10.0,29.97933,1017.4,,TRUE,TRUE,,,,,,,CLR,,,,,,,,VFR,-0.6,,,,,,,,,,,METAR,1202.0
KSIY 221453Z AUTO 29030G39KT 5SM -RA SCT042 OVC055 05/02 A2955 RMK AO2 PK WND 29039/1452 WSHFT 1422 RAB37 PRESRR SLP015 P0000 60000 T00500022 53013,KSIY,2018-03-22T14:53:00Z,41.77,-122.47,5.0,2.2,290,30,39,5.0,29.551182,1001.5,,TRUE,TRUE,,,,,,-RA,SCT,4200,OVC,5500,,,,,MVFR,1.3,,,,,0.005,0.005,,,,,METAR,807.0
KSJC 221453Z 14008KT 3SM -RA BR FEW001 BKN015 OVC035 15/13 A2976 RMK AO2 SLP078 P0004 60014 T01500133 51010,KSJC,2018-03-22T14:53:00Z,37.37,-121.92,15.0,13.3,140,8,,3.0,29.760826,1007.8,,,TRUE,,,,,,-RA BR,FEW,100,BKN,1500,OVC,3500,,,MVFR,1.0,,,,,0.04,0.14,,,,,METAR,24.0
KSLN 221453Z 18011KT 8SM CLR 13/02 A3016 RMK AO2 SLP216 T01280017 50007,KSLN,2018-03-22T14:53:00Z,38.78,-97.65,12.8,1.7,180,11,,8.0,30.159449,1021.6,,,TRUE,,,,,,,CLR,,,,,,,,VFR,0.7,,,,,,,,,,,METAR,385.0
KSMF 221453Z 19014KT 10SM -RA FEW032 OVC080 14/14 A2971 RMK AO2 SLP059 P0002 60013 T01440139 53005,KSMF,2018-03-22T14:53:00Z,38.7,-121.6,14.4,13.9,190,14,,10.0,29.71063,1005.9,,,TRUE,,,,,,-RA,FEW,3200,OVC,8000,,,,,VFR,0.5,,,,,0.02,0.13,,,,,METAR,6.0
KSMQ 221453Z AUTO 32010G18KT 10SM CLR 04/M04 A2982 RMK AO2 UPB1358E24 SLP100 P0000 60000 T00391039 51009,KSMQ,2018-03-22T14:53:00Z,40.62,-74.67,3.9,-3.9,320,10,18,10.0,29.819881,1010.0,,TRUE,TRUE,,,,,,,CLR,,,,,,,,VFR,0.9,,,,,0.005,0.005,,,,,METAR,30.0
KSNA 221453Z 19003KT 10SM SCT039 OVC100 18/15 A2999 RMK AO2 RAB26E44 SLP154 P0000 60000 T01780150 51010,KSNA,2018-03-22T14:53:00Z,33.67,-117.87,17.8,15.0,190,3,,10.0,29.991142,1015.4,,,TRUE,,,,,,,SCT,3900,OVC,10000,,,,,VFR,1.0,,,,,0.005,0.005,,,,,METAR,16.0
KSNY 221453Z AUTO 32005KT 10SM CLR 09/M03 A3009 RMK AO2 SLP180 T00941028 53006 $,KSNY,2018-03-22T14:53:00Z,41.1,-102.98,9.4,-2.8,320,5,,10.0,30.088583,1018.0,,TRUE,TRUE,TRUE,,,,,,CLR,,,,,,,,VFR,0.6,,,,,,,,,,,METAR,1307.0
KSPB 221453Z AUTO 19004KT 10SM -RA OVC038 07/06 A2955 RMK AO2 SLP007 P0001 60010 T00670056 53019,KSPB,2018-03-22T14:53:00Z,45.77,-122.87,6.7,5.6,190,4,,10.0,29.551182,1000.7,,TRUE,TRUE,,,,,,-RA,OVC,3800,,,,,,,VFR,1.9,,,,,0.01,0.1,,,,,METAR,14.0
KSRQ 221453Z 01007KT 10SM CLR 16/03 A3026 RMK AO2 SLP246 T01610028 51013,KSRQ,2018-03-22T14:53:00Z,27.4,-82.57,16.1,2.8,10,7,,10.0,30.259842,1024.6,,,TRUE,,,,,,,CLR,,,,,,,,VFR,1.3,,,,,,,,,,,METAR,18.0
KSPG 221453Z 03009KT 10SM CLR 14/05 A3026 RMK AO2 SLP247 T01440050 51014,KSPG,2018-03-22T14:53:00Z,27.77,-82.63,14.4,5.0,30,9,,10.0,30.259842,1024.7,,,TRUE,,,,,,,CLR,,,,,,,,VFR,1.4,,,,,,,,,,,METAR,2.0
KSSF 221453Z 12008KT 10SM BKN030 18/14 A3026 RMK AO2 SLP243 T01830144 53017,KSSF,2018-03-22T14:53:00Z,29.33,-98.47,18.3,14.4,120,8,,10.0,30.259842,1024.3,,,TRUE,,,,,,,BKN,3000,,,,,,,MVFR,1.7,,,,,,,,,,,METAR,176.0
KSSI 221453Z AUTO 31007G15KT 270V350 10SM CLR 10/M01 A3022 RMK AO2 SLP234 T01001011 51010,KSSI,2018-03-22T14:53:00Z,31.15,-81.38,10.0,-1.1,310,7,15,10.0,30.221457,1023.4,,TRUE,TRUE,,,,,,,CLR,,,,,,,,VFR,1.0,,,,,,,,,,,METAR,6.0
KSTC 221453Z 13005KT 9SM OVC034 01/M03 A3035 RMK AO2 SLP297 T00061033 51012,KSTC,2018-03-22T14:53:00Z,45.55,-94.05,0.6,-3.3,130,5,,9.0,30.351377,1029.7,,,TRUE,,,,,,,OVC,3400,,,,,,,VFR,1.2,,,,,,,,,,,METAR,314.0
KSTJ 221453Z 15007KT 10SM BKN090 BKN110 08/02 A3028 RMK AO2 SLP257 T00780017 50007,KSTJ,2018-03-22T14:53:00Z,39.77,-94.92,7.8,1.7,150,7,,10.0,30.280512,1025.7,,,TRUE,,,,,,,BKN,9000,BKN,11000,,,,,VFR,0.7,,,,,,,,,,,METAR,247.0
KSTP 221453Z 18004KT 10SM OVC030 02/M04 A3038 RMK AO2 SLP295 T00171039 51013,KSTP,2018-03-22T14:53:00Z,44.93,-93.05,1.7,-3.9,180,4,,10.0,30.380905,1029.5,,,TRUE,,,,,,,OVC,3000,,,,,,,MVFR,1.3,,,,,,,,,,,METAR,219.0
KPAE 221453Z 17013KT 9SM -RA BKN009 BKN012 OVC027 07/06 A2947 RMK AO2 SLP981 P0004 60004 T00670056 53001,KPAE,2018-03-22T14:53:00Z,47.92,-122.28,6.7,5.6,170,13,,9.0,29.471457,998.1,,,TRUE,,,,,,-RA,BKN,900,BKN,1200,OVC,2700,,,IFR,0.1,,,,,0.04,0.04,,,,,METAR,180.0
KPAH 221453Z 00000KT 10SM CLR 08/M02 A3039 RMK AO2 SLP293 T00781017 51020,KPAH,2018-03-22T14:53:00Z,37.07,-88.77,7.8,-1.7,0,0,,10.0,30.389763,1029.3,,,TRUE,,,,,,,CLR,,,,,,,,VFR,2.0,,,,,,,,,,,METAR,119.0
KPBF 221453Z AUTO 12004KT 10SM CLR 11/05 A3039 RMK AO2 SLP290 T01110050 51013,KPBF,2018-03-22T14:53:00Z,34.18,-91.93,11.1,5.0,120,4,,10.0,30.389763,1029.0,,TRUE,TRUE,,,,,,,CLR,,,,,,,,VFR,1.3,,,,,,,,,,,METAR,62.0
KPBG 221453Z AUTO 35013KT 10SM CLR 01/M06 A2992 RMK AO2 SLP136 T00061061 50003,KPBG,2018-03-22T14:53:00Z,44.65,-73.47,0.6,-6.1,350,13,,10.0,29.920275,1013.6,,TRUE,TRUE,,,,,,,CLR,,,,,,,,VFR,0.3,,,,,,,,,,,METAR,72.0
KPBI 221453Z 31015KT 10SM CLR 17/M01 A3022 RMK AO2 SLP234 T01671006 51013,KPBI,2018-03-22T14:53:00Z,26.68,-80.1,16.7,-0.6,310,15,,10.0,30.221457,1023.4,,,TRUE,,,,,,,CLR,,,,,,,,VFR,1.3,,,,,,,,,,,METAR,6.0
KPDK 221453Z 33014KT 10SM CLR 07/M04 A3027 RMK AO2 SLP260 T00671039 51014,KPDK,2018-03-22T14:53:00Z,33.88,-84.3,6.7,-3.9,330,14,,10.0,30.268702,1026.0,,,TRUE,,,,,,,CLR,,,,,,,,VFR,1.4,,,,,,,,,,,METAR,302.0
KPDT 221453Z 16009KT 10SM -RA BKN065 OVC090 12/06 A2952 RMK AO2 RAB31 SLP989 P0000 60000 T01220061 56008,KPDT,2018-03-22T14:53:00Z,45.7,-118.83,12.2,6.1,160,9,,10.0,29.518702,998.9,,,TRUE,,,,,,-RA,BKN,6500,OVC,9000,,,,,VFR,-0.8,,,,,0.005,0.005,,,,,METAR,462.0
KPDX 221453Z 19010KT 10SM -RA SCT012 BKN026 OVC032 08/07 A2957 RMK AO2 SLP012 P0002 60014 T00830067 53020,KPDX,2018-03-22T14:53:00Z,45.6,-122.62,8.3,6.7,190,10,,10.0,29.568897,1001.2,,,TRUE,,,,,,-RA,SCT,1200,BKN,2600,OVC,3200,,,MVFR,2.0,,,,,0.02,0.14,,,,,METAR,7.0
KPEO 221453Z AUTO 32008KT 10SM CLR 00/M07 A3002 RMK AO2 SLP178 T00001072 51018,KPEO,2018-03-22T14:53:00Z,42.65,-77.05,0.0,-7.2,320,8,,10.0,30.02067,1017.8,,TRUE,TRUE,,,,,,,CLR,,,,,,,,VFR,1.8,,,,,,,,,,,METAR,256.0
KPGA 221453Z AUTO 05003KT 10SM FEW080 BKN110 13/03 A3011 RMK AO2 SLP155 T01330028 50007 TSNO,KPGA,2018-03-22T14:53:00Z,36.92,-111.45,13.3,2.8,50,3,,10.0,30.109253,1015.5,,TRUE,TRUE,,,TRUE,,,,FEW,8000,BKN,11000,,,,,VFR,0.7,,,,,,,,,,,METAR,1307.0
KPGD 221453Z 35013KT 10SM CLR 17/01 A3028 RMK AO2 SLP254 T01670006 50016,KPGD,2018-03-22T14:53:00Z,26.92,-82.0,16.7,0.6,350,13,,10.0,30.280512,1025.4,,,TRUE,,,,,,,CLR,,,,,,,,VFR,1.6,,,,,,,,,,,METAR,7.0
KPHD 221453Z AUTO 32010KT 300V360 10SM CLR 01/M07 A3019 RMK AO2 SLP234 T00061067 51012,KPHD,2018-03-22T14:53:00Z,40.47,-81.42,0.6,-6.7,320,10,,10.0,30.188976,1023.4,,TRUE,TRUE,,,,,,,CLR,,,,,,,,VFR,1.2,,,,,,,,,,,METAR,272.0
KPIE 221453Z 36011G16KT 10SM CLR 16/04 A3027 RMK AO2 SLP251 T01610039 50012,KPIE,2018-03-22T14:53:00Z,27.92,-82.68,16.1,3.9,360,11,16,10.0,30.268702,1025.1,,,TRUE,,,,,,,CLR,,,,,,,,VFR,1.2,,,,,,,,,,,METAR,4.0
KPIH 221453Z 35005KT 10SM OVC065 06/04 A2989 RMK AO2 RAB1355E20 SLP116 P0000 60000 T00610039 56014,KPIH,2018-03-22T14:53:00Z,42.92,-112.57,6.1,3.9,350,5,,10.0,29.890747,1011.6,,,TRUE,,,,,,,OVC,6500,,,,,,,VFR,-1.4,,,,,0.005,0.005,,,,,METAR,1359.0
KPIL 221453Z AUTO 12014G20KT 9SM SCT075 23/16 A3024 RMK AO2 SLP238 T02330161 51023,KPIL,2018-03-22T14:53:00Z,26.17,-97.33,23.3,16.1,120,14,20,9.0,30.239174,1023.8,,TRUE,TRUE,,,,,,,SCT,7500,,,,,,,VFR,2.3,,,,,,,,,,,METAR,5.0
KPIR 221453Z AUTO 08008KT 10SM CLR 03/01 A3016 RMK AO2 SLP228 T00280011 51014,KPIR,2018-03-22T14:53:00Z,44.38,-100.28,2.8,1.1,80,8,,10.0,30.159449,1022.8,,TRUE,TRUE,,,,,,,CLR,,,,,,,,VFR,1.4,,,,,,,,,,,METAR,526.0
KPKB 221453Z 32007KT 10SM FEW020 00/M04 A3023 RMK AO2 SLP246 T00001044 51014,KPKB,2018-03-22T14:53:00Z,39.35,-81.42,0.0,-4.4,320,7,,10.0,30.230314,1024.6,,,TRUE,,,,,,,FEW,2000,,,,,,,VFR,1.4,,,,,,,,,,,METAR,262.0
KPMD 221453Z AUTO 19009KT 10SM -RA BKN075 OVC090 14/10 A2999 RMK AO2 SLP143 P0002 60009 T01390100 53005 $,KPMD,2018-03-22T14:53:00Z,34.63,-118.08,13.9,10.0,190,9,,10.0,29.991142,1014.3,,TRUE,TRUE,TRUE,,,,,-RA,BKN,7500,OVC,9000,,,,,VFR,0.5,,,,,0.02,0.09,,,,,METAR,780.0
KPMP 221453Z 34013KT 10SM CLR 18/02 A3022 RMK AO2 SLP235 T01780022 51016,KPMP,2018-03-22T14:53:00Z,26.25,-80.12,17.8,2.2,340,13,,10.0,30.221457,1023.5,,,TRUE,,,,,,,CLR,,,,,,,,VFR,1.6,,,,,,,,,,,METAR,6.0
KPNC 221453Z AUTO 15019G24KT 9SM FEW090 13/M01 A3018 RMK AO2 PK WND 16026/1429 SLP218 T01281011 58005,KPNC,2018-03-22T14:53:00Z,36.73,-97.1,12.8,-1.1,150,19,24,9.0,30.180119,1021.8,,TRUE,TRUE,,,,,,,FEW,9000,,,,,,,VFR,-0.5,,,,,,,,,,,METAR,308.0
KPNS 221453Z 36011KT 10SM CLR 13/M01 A3037 RMK AO2 SLP285 T01281006 51015,KPNS,2018-03-22T14:53:00Z,30.48,-87.18,12.8,-0.6,360,11,,10.0,30.369095,1028.5,,,TRUE,,,,,,,CLR,,,,,,,,VFR,1.5,,,,,,,,,,,METAR,38.0
KPOF 221453Z AUTO 06004KT 10SM BKN120 08/01 A3040 RMK AO2 SLP296 T00780011 51015,KPOF,2018-03-22T14:53:00Z,36.77,-90.32,7.8,1.1,60,4,,10.0,30.398623,1029.6,,TRUE,TRUE,,,,,,,BKN,12000,,,,,,,VFR,1.5,,,,,,,,,,,METAR,99.0
KPOU 221453Z 35014G23KT 10SM CLR 04/M06 A2981 RMK AO2 SLP091 T00441061 50008,KPOU,2018-03-22T14:53:00Z,41.63,-73.88,4.4,-6.1,350,14,23,10.0,29.811024,1009.1,,,TRUE,,,,,,,CLR,,,,,,,,VFR,0.8,,,,,,,,,,,METAR,46.0
KPQL 221453Z 02009KT 10SM CLR 14/01 A3039 RMK AO2 SLP291 T01390011 51014,KPQL,2018-03-22T14:53:00Z,30.47,-88.53,13.9,1.1,20,9,,10.0,30.389763,1029.1,,,TRUE,,,,,,,CLR,,,,,,,,VFR,1.4,,,,,,,,,,,METAR,6.0
KPRB 221453Z AUTO 19012G18KT 8SM -RA FEW016 BKN045 OVC060 14/14 A2986 RMK AO2 SLP108 P0002 60033 T01440139 53008,KPRB,2018-03-22T14:53:00Z,35.67,-120.63,14.4,13.9,190,12,18,8.0,29.861221,1010.8,,TRUE,TRUE,,,,,,-RA,FEW,1600,BKN,4500,OVC,6000,,,VFR,0.8,,,,,0.02,0.33,,,,,METAR,245.0
KPRC 221453Z 18003KT 10SM BKN100 11/M01 A3019 RMK AO2 SLP176 T01111006 53012,KPRC,2018-03-22T14:53:00Z,34.65,-112.42,11.1,-0.6,180,3,,10.0,30.188976,1017.6,,,TRUE,,,,,,,BKN,10000,,,,,,,VFR,1.2,,,,,,,,,,,METAR,1524.0
KMCW 221453Z AUTO 14009KT 10SM FEW047 BKN095 02/M03 A3035 RMK AO2 SLP286 T00221028 51013,KMCW,2018-03-22T14:53:00Z,43.15,-93.33,2.2,-2.8,140,9,,10.0,30.351377,1028.6,,TRUE,TRUE,,,,,,,FEW,4700,BKN,9500,,,,,VFR,1.3,,,,,,,,,,,METAR,369.0
KMDW 221453Z 36006KT 10SM CLR 03/M07 A3036 RMK AO2 SLP290 T00331072 51013,KMDW,2018-03-22T14:53:00Z,41.78,-87.75,3.3,-7.2,360,6,,10.0,30.360237,1029.0,,,TRUE,,,,,,,CLR,,,,,,,,VFR,1.3,,,,,,,,,,,METAR,188.0
KMFE 221453Z 12015KT 10SM BKN065 25/18 A3023 RMK AO2 SLP236 T02500178 53022,KMFE,2018-03-22T14:53:00Z,26.18,-98.25,25.0,17.8,120,15,,10.0,30.230314,1023.6,,,TRUE,,,,,,,BKN,6500,,,,,,,VFR,2.2,,,,,,,,,,,METAR,38.0
KMFR 221453Z 16003KT 10SM -RA FEW027 SCT036 OVC045 07/04 A2966 RMK AO2 SLP043 P0001 60003 T00670044 53060,KMFR,2018-03-22T14:53:00Z,42.38,-122.87,6.7,4.4,160,3,,10.0,29.660433,1004.3,,,TRUE,,,,,,-RA,FEW,2700,SCT,3600,OVC,4500,,,VFR,6.0,,,,,0.01,0.03,,,,,METAR,396.0
KMGM 221453Z 01006KT 10SM CLR 11/M01 A3038 RMK AO2 SLP286 T01061011 51017,KMGM,2018-03-22T14:53:00Z,32.3,-86.4,10.6,-1.1,10,6,,10.0,30.380905,1028.6,,,TRUE,,,,,,,CLR,,,,,,,,VFR,1.7,,,,,,,,,,,METAR,63.0
KMGW 221453Z 27004KT 10SM BKN015 M01/M05 A3015 RMK AO2 SLP223 T10111050 51014,KMGW,2018-03-22T14:53:00Z,39.65,-79.92,-1.1,-5.0,270,4,,10.0,30.15059,1022.3,,,TRUE,,,,,,,BKN,1500,,,,,,,MVFR,1.4,,,,,,,,,,,METAR,378.0
KMGY 221453Z AUTO 30006KT 10SM CLR 00/M06 A3027 RMK AO2 SLP257 T00001056 51018,KMGY,2018-03-22T14:53:00Z,39.6,-84.23,0.0,-5.6,300,6,,10.0,30.268702,1025.7,,TRUE,TRUE,,,,,,,CLR,,,,,,,,VFR,1.8,,,,,,,,,,,METAR,289.0
KMHE 221453Z AUTO 12008KT 10SM CLR 04/01 A3020 RMK AO2 SLP240 T00390011 51012,KMHE,2018-03-22T14:53:00Z,43.77,-98.02,3.9,1.1,120,8,,10.0,30.200787,1024.0,,TRUE,TRUE,,,,,,,CLR,,,,,,,,VFR,1.2,,,,,,,,,,,METAR,397.0
KMHT 221453Z 35013KT 10SM OVC039 04/M02 A2969 RMK AO2 RAB33E35SNE33 SLP068 P0000 60000 T00441022 58005,KMHT,2018-03-22T14:53:00Z,42.93,-71.43,4.4,-2.2,350,13,,10.0,29.68996,1006.8,,,TRUE,,,,,,,OVC,3900,,,,,,,VFR,-0.5,,,,,0.005,0.005,,,,,METAR,81.0
KMIA 221453Z 35009G18KT 10SM FEW010 18/03 A3023 RMK AO2 SLP238 FU FEW010 T01780028 51019,KMIA,2018-03-22T14:53:00Z,25.8,-80.28,17.8,2.8,350,9,18,10.0,30.230314,1023.8,,,TRUE,,,,,,,FEW,1000,,,,,,,VFR,1.9,,,,,,,,,,,METAR,3.0
KMIE 221453Z 33009KT 10SM CLR 02/M03 A3029 RMK AO2 SLP262 T00171033 51014,KMIE,2018-03-22T14:53:00Z,40.23,-85.4,1.7,-3.3,330,9,,10.0,30.28937,1026.2,,,TRUE,,,,,,,CLR,,,,,,,,VFR,1.4,,,,,,,,,,,METAR,285.0
KMIW 221453Z AUTO 13006KT 10SM OVC070 02/M02 A3034 RMK AO2 SLP284 T00221017 51013,KMIW,2018-03-22T14:53:00Z,42.12,-92.92,2.2,-1.7,130,6,,10.0,30.339567,1028.4,,TRUE,TRUE,,,,,,,OVC,7000,,,,,,,VFR,1.3,,,,,,,,,,,METAR,296.0
KMKL 221453Z 00000KT 10SM CLR 09/00 A3040 RMK AO2 SLP297 T00940000 51020,KMKL,2018-03-22T14:53:00Z,35.6,-88.92,9.4,0.0,0,0,,10.0,30.398623,1029.7,,,TRUE,,,,,,,CLR,,,,,,,,VFR,2.0,,,,,,,,,,,METAR,128.0
KMKO 221453Z AUTO 15012KT 10SM FEW100 12/03 A3031 RMK AO2 SLP264 T01170028 51014,KMKO,2018-03-22T14:53:00Z,35.65,-95.37,11.7,2.8,150,12,,10.0,30.31004,1026.4,,TRUE,TRUE,,,,,,,FEW,10000,,,,,,,VFR,1.4,,,,,,,,,,,METAR,185.0
KMLB 221453Z 32014KT 10SM CLR 16/M02 A3023 RMK AO2 SLP235 T01561017 51012,KMLB,2018-03-22T14:53:00Z,28.1,-80.65,15.6,-1.7,320,14,,10.0,30.230314,1023.5,,,TRUE,,,,,,,CLR,,,,,,,,VFR,1.2,,,,,,,,,,,METAR,11.0
KMLC 221453Z AUTO 15011G19KT 10SM FEW110 15/M01 A3029 RMK AO2 SLP254 T01501006 50008,KMLC,2018-03-22T14:53:00Z,34.88,-95.78,15.0,-0.6,150,11,19,10.0,30.28937,1025.4,,TRUE,TRUE,,,,,,,FEW,11000,,,,,,,VFR,0.8,,,,,,,,,,,METAR,232.0
KMLS 221453Z AUTO 03007KT 10SM CLR M03/M05 A3003 RMK AO2 SLP194 T10281050 50002,KMLS,2018-03-22T14:53:00Z,46.43,-105.88,-2.8,-5.0,30,7,,10.0,30.029528,1019.4,,TRUE,TRUE,,,,,,,CLR,,,,,,,,VFR,0.2,,,,,,,,,,,METAR,801.0
KMLU 221453Z 19003KT 10SM CLR 13/07 A3041 RMK AO2 SLP297 T01330067 51021,KMLU,2018-03-22T14:53:00Z,32.52,-92.03,13.3,6.7,190,3,,10.0,30.410433,1029.7,,,TRUE,,,,,,,CLR,,,,,,,,VFR,2.1,,,,,,,,,,,METAR,29.0
KMMK 221453Z AUTO 35013G21KT 10SM SCT037 BKN050 BKN070 06/M02 A2972 RMK AO2 PK WND 35027/1441 SLP067 60000 T00611017 51004,KMMK,2018-03-22T14:53:00Z,41.52,-72.83,6.1,-1.7,350,13,21,10.0,29.719488,1006.7,,TRUE,TRUE,,,,,,,SCT,3700,BKN,5000,BKN,7000,,,VFR,0.4,,,,,,0.005,,,,,METAR,31.0
KMNN 221453Z AUTO 33007KT 10SM CLR 00/M07 A3024 RMK AO2 SLP254 T00001072 51017,KMNN,2018-03-22T14:53:00Z,40.62,-83.07,0.0,-7.2,330,7,,10.0,30.239174,1025.4,,TRUE,TRUE,,,,,,,CLR,,,,,,,,VFR,1.7,,,,,,,,,,,METAR,301.0
KMPO 221453Z AUTO 31018G25KT 10SM CLR M02/M07 A2981 RMK AO2 PK WND 31027/1435 SLP116 T10171072 51010,KMPO,2018-03-22T14:53:00Z,41.13,-75.38,-1.7,-7.2,310,18,25,10.0,29.811024,1011.6,,TRUE,TRUE,,,,,,,CLR,,,,,,,,VFR,1.0,,,,,,,,,,,METAR,577.0
KMRB 221453Z 30016G23KT 10SM CLR 03/M06 A3003 RMK AO2 SLP175 T00281061 51018,KMRB,2018-03-22T14:53:00Z,39.4,-77.98,2.8,-6.1,300,16,23,10.0,30.029528,1017.5,,,TRUE,,,,,,,CLR,,,,,,,,VFR,1.8,,,,,,,,,,,METAR,164.0
KMSN 221453Z VRB05KT 10SM CLR 02/M07 A3034 RMK AO2 SLP285 T00221072 51010,KMSN,2018-03-22T14:53:00Z,43.13,-89.35,2.2,-7.2,0,5,,10.0,30.339567,1028.5,,,TRUE,,,,,,,CLR,,,,,,,,VFR,1.0,,,,,,,,,,,METAR,261.0
KMSL 221453Z AUTO VRB05KT 10SM CLR 09/M02 A3040 RMK AO2 SLP294 T00891022 51024,KMSL,2018-03-22T14:53:00Z,34.75,-87.6,8.9,-2.2,0,5,,10.0,30.398623,1029.4,,TRUE,TRUE,,,,,,,CLR,,,,,,,,VFR,2.4,,,,,,,,,,,METAR,164.0
KMSO 221453Z 24006KT 10SM FEW120 01/M01 A2978 RMK AO2 SLP101 T00111006 55008,KMSO,2018-03-22T14:53:00Z,46.92,-114.1,1.1,-0.6,240,6,,10.0,29.778543,1010.1,,,TRUE,,,,,,,FEW,12000,,,,,,,VFR,-0.8,,,,,,,,,,,METAR,975.0
PAAQ 221453Z AUTO 03029G42KT 10SM CLR M03/M17 A3017 RMK AO2 PK WND 04051/1416 SLP222 T10281167 56023 TSNO,PAAQ,2018-03-22T14:53:00Z,61.6,-149.08,-2.8,-16.7,30,29,42,10.0,30.171259,1022.2,,TRUE,TRUE,,,TRUE,,,,CLR,,,,,,,,VFR,-2.3,,,,,,,,,,,METAR,73.0
PABE 221453Z 06003KT 10SM CLR M08/M10 A3024 RMK AO2 SLP244 T10831100 58033,PABE,2018-03-22T14:53:00Z,60.78,-161.83,-8.3,-10.0,60,3,,10.0,30.239174,1024.4,,,TRUE,,,,,,,CLR,,,,,,,,VFR,-3.3,,,,,,,,,,,METAR,41.0
PABI 221453Z 14005KT 10SM FEW200 M19/M21 A3050 RMK AO2 SLP376 T11941211 56011,PABI,2018-03-22T14:53:00Z,64.0,-145.72,-19.4,-21.1,140,5,,10.0,30.499016,1037.6,,,TRUE,,,,,,,FEW,20000,,,,,,,VFR,-1.1,,,,,,,,,,,METAR,386.0
PABR 221453Z 10021KT 1 1/4SM -SN BLSN OVC027 M19/M22 A3034 RMK AO2 PK WND 10027/1403 SLP277 P0000 60000 T11891217 56022 $,PABR,2018-03-22T14:53:00Z,71.28,-156.77,-18.9,-21.7,100,21,,1.25,30.339567,1027.7,,,TRUE,TRUE,,,,,-SN BLSN,OVC,2700,,,,,,,IFR,-2.2,,,,,0.005,0.005,,,,,METAR,7.0
PABT 221453Z 33006KT 10SM FEW160 M21/M24 A3054 RMK AO2 SLP367 T12111244 58017,PABT,2018-03-22T14:53:00Z,66.92,-151.52,-21.1,-24.4,330,6,,10.0,30.540354,1036.7,,,TRUE,,,,,,,FEW,16000,,,,,,,VFR,-1.7,,,,,,,,,,,METAR,195.0
PACV 221453Z 17004KT 10SM CLR M01/M17 A2997 RMK AO2 SLP149 T10111167 55020,PACV,2018-03-22T14:53:00Z,60.5,-145.47,-1.1,-16.7,170,4,,10.0,29.970472,1014.9,,,TRUE,,,,,,,CLR,,,,,,,,VFR,-2.0,,,,,,,,,,,METAR,12.0
PADE 221453Z AUTO 15021G30KT 5SM -SN BR OVC036 M01/M03 A3021 RMK AO2 PK WND 15031/1438 SNB14 SLP229 P0000 60000 T10111033 58008 TSNO $,PADE,2018-03-22T14:53:00Z,66.07,-162.77,-1.1,-3.3,150,21,30,5.0,30.209646,1022.9,,TRUE,TRUE,TRUE,,TRUE,,,-SN BR,OVC,3600,,,,,,,MVFR,-0.8,,,,,0.005,0.005,,,,,METAR,5.0
PADQ 221453Z 29012G17KT 10SM CLR 00/M12 A3016 RMK AO2 SLP215 T00001117 56017,PADQ,2018-03-22T14:53:00Z,57.75,-152.5,0.0,-11.7,290,12,17,10.0,30.159449,1021.5,,,TRUE,,,,,,,CLR,,,,,,,,VFR,-1.7,,,,,,,,,,,METAR,34.0
PAEG 221453Z AUTO 00000KT 8SM OVC023 M16/M18 A3054 RMK AO2 SLP364 T11611183 56010 TSNO,PAEG,2018-03-22T14:53:00Z,64.78,-141.15,-16.1,-18.3,0,0,,8.0,30.540354,1036.4,,TRUE,TRUE,,,TRUE,,,,OVC,2300,,,,,,,MVFR,-1.0,,,,,,,,,,,METAR,268.0
PAEN 221453Z 05013KT 10SM CLR M06/M13 A3025 RMK AO2 SLP246 T10561128 56025,PAEN,2018-03-22T14:53:00Z,60.57,-151.25,-5.6,-12.8,50,13,,10.0,30.250984,1024.6,,,TRUE,,,,,,,CLR,,,,,,,,VFR,-2.5,,,,,,,,,,,METAR,27.0
PAFA 221453Z 00000KT 10SM FEW100 M23/M24 A3055 RMK AO2 SLP360 T12281244 58012,PAFA,2018-03-22T14:53:00Z,64.8,-147.85,-22.8,-24.4,0,0,,10.0,30.549213,1036.0,,,TRUE,,,,,,,FEW,10000,,,,,,,VFR,-1.2,,,,,,,,,,,METAR,132.0
PAGK 221453Z AUTO 01018G27KT 10SM CLR M09/M18 A3025 RMK AO2 PK WND 01031/1412 SLP284 T10891183 56012 TSNO,PAGK,2018-03-22T14:53:00Z,62.15,-145.45,-8.9,-18.3,10,18,27,10.0,30.250984,1028.4,,TRUE,TRUE,,,TRUE,,,,CLR,,,,,,,,VFR,-1.2,,,,,,,,,,,METAR,481.0
PAGY 221453Z AUTO 03016KT 10SM BKN070 OVC080 M01/M09 A3009 RMK AO2 SLP188 T10061094 58003 TSNO $,PAGY,2018-03-22T14:53:00Z,59.47,-135.3,-0.6,-9.4,30,16,,10.0,30.088583,1018.8,,TRUE,TRUE,TRUE,,TRUE,,,,BKN,7000,OVC,8000,,,,,VFR,-0.3,,,,,,,,,,,METAR,5.0
PAHO 221453Z 10009KT 10SM CLR M04/M17 A3023 RMK AO2 SLP238 T10391167 56021,PAHO,2018-03-22T14:53:00Z,59.63,-151.47,-3.9,-16.7,100,9,,10.0,30.230314,1023.8,,,TRUE,,,,,,,CLR,,,,,,,,VFR,-2.1,,,,,,,,,,,METAR,28.0
PAIL 221453Z 36008KT 10SM CLR M08/M13 A3029 RMK AO2 SLP262 T10831133 58018,PAIL,2018-03-22T14:53:00Z,59.75,-154.92,-8.3,-13.3,360,8,,10.0,30.28937,1026.2,,,TRUE,,,,,,,CLR,,,,,,,,VFR,-1.8,,,,,,,,,,,METAR,49.0
PAJN 221453Z 05010G21KT 10SM FEW039 SCT048 BKN110 OVC200 03/M08 A2975 RMK AO2 SLP073 BLSN ON MTN TPS N-E AND W T00281078 55012,PAJN,2018-03-22T14:53:00Z,58.35,-134.58,2.8,-7.8,50,10,21,10.0,29.749016,1007.3,,,TRUE,,,,,,,FEW,3900,SCT,4800,BKN,11000,OVC,20000,VFR,-1.2,,,,,,,,,,,METAR,5.0
PAKT 221453Z 33010KT 10SM FEW034 SCT050 BKN080 04/03 A2937 RMK AO2 RAB1354E42 SLP946 HARBOR WIND 31009KT P0001 60002 T00390028 56026,PAKT,2018-03-22T14:53:00Z,55.35,-131.7,3.9,2.8,330,10,,10.0,29.371063,994.6,,,TRUE,,,,,,,FEW,3400,SCT,5000,BKN,8000,,,VFR,-2.6,,,,,0.01,0.02,,,,,METAR,28.0
PAKV 221453Z AUTO 00000KT 10SM CLR M15/M16 A3048 RMK AO2 UPB1356E47 SLP327 P0000 60000 T11501161 58021 TSNO $,PAKV,2018-03-22T14:53:00Z,64.33,-158.75,-15.0,-16.1,0,0,,10.0,30.481298,1032.7,,TRUE,TRUE,TRUE,,TRUE,,,,CLR,,,,,,,,VFR,-2.1,,,,,0.005,0.005,,,,,METAR,61.0
PALH 221453Z 35016G25KT 10SM CLR M07/M16 A3023 RMK AO2 PK WND 35026/1440 SLP239 T10721156 58019,PALH,2018-03-22T14:53:00Z,61.18,-149.97,-7.2,-15.6,350,16,25,10.0,30.230314,1023.9,,,TRUE,,,,,,,CLR,,,,,,,,VFR,-1.9,,,,,,,,,,,METAR,22.0
PAMC 221453Z AUTO 00000KT 10SM FEW001 M21/M23 A3043 RMK AO2 SLP317 I3000 T12061233 57024 TSNO,PAMC,2018-03-22T14:53:00Z,62.97,-155.62,-20.6,-23.3,0,0,,10.0,30.431103,1031.7,,TRUE,TRUE,,,TRUE,,,,FEW,100,,,,,,,VFR,-2.4,,,,,,,,,,,METAR,103.0
PAMR 221453Z 34015KT 10SM CLR M06/M15 A3022 RMK AO2 SLP234 T10611150 58017,PAMR,2018-03-22T14:53:00Z,61.22,-149.85,-6.1,-15.0,340,15,,10.0,30.221457,1023.4,,,TRUE,,,,,,,CLR,,,,,,,,VFR,-1.7,,,,,,,,,,,METAR,41.0
PANC 221453Z 36017G25KT 10SM CLR M07/M15 A3024 RMK AO2 PK WND 35026/1402 SLP243 T10671150 56021 $,PANC,2018-03-22T14:53:00Z,61.17,-150.0,-6.7,-15.0,360,17,25,10.0,30.239174,1024.3,,,TRUE,TRUE,,,,,,CLR,,,,,,,,VFR,-2.1,,,,,,,,,,,METAR,38.0
PANN 221453Z AUTO 08006KT 10SM CLR M17/M19 A3051 RMK AO2 SLP347 I1000 I3000 T11721194 56017 TSNO,PANN,2018-03-22T14:53:00Z,64.55,-149.08,-17.2,-19.4,80,6,,10.0,30.510826,1034.7,,TRUE,TRUE,,,TRUE,,,,CLR,,,,,,,,VFR,-1.7,,,,,,,,,,,METAR,110.0
PANT 221453Z AUTO 30004KT 10SM FEW031 BKN046 OVC060 04/04 A2936 RMK AO2 RAE47 SLP944 P0001 60001 T00440039 56022 TSNO $,PANT,2018-03-22T14:53:00Z,55.03,-131.57,4.4,3.9,300,4,,10.0,29.359253,994.4,,TRUE,TRUE,TRUE,,TRUE,,,,FEW,3100,BKN,4600,OVC,6000,,,VFR,-2.2,,,,,0.01,0.01,,,,,METAR,36.0
TISX 221453Z 13012KT 10SM SCT019 BKN095 29/24 A3009 RMK AO2 SLP188 T02890239 51009,TISX,2018-03-22T14:53:00Z,17.7,-64.8,28.9,23.9,130,12,,10.0,30.088583,1018.8,,,TRUE,,,,,,,SCT,1900,BKN,9500,,,,,VFR,0.9,,,,,,,,,,,METAR,19.0
TIST 221453Z 12011KT 10SM CLR 25/24 A3008 RMK AO2 SLP185 60000 T02500244 51009 $,TIST,2018-03-22T14:53:00Z,18.33,-64.98,25.0,24.4,120,11,,10.0,30.079725,1018.5,,,TRUE,TRUE,,,,,,CLR,,,,,,,,VFR,0.9,,,,,,0.005,,,,,METAR,7.0
KMSS 221453Z AUTO 31008KT 10SM CLR 00/M08 A3001 RMK AO2 SLP168 T00001078 51008,KMSS,2018-03-22T14:53:00Z,44.93,-74.85,0.0,-7.8,310,8,,10.0,30.008858,1016.8,,TRUE,TRUE,,,,,,,CLR,,,,,,,,VFR,0.8,,,,,,,,,,,METAR,66.0
KMSY 221453Z 09006KT 10SM FEW150 BKN250 16/03 A3040 RMK AO2 SLP296 T01610028 51017,KMSY,2018-03-22T14:53:00Z,30.0,-90.25,16.1,2.8,90,6,,10.0,30.398623,1029.6,,,TRUE,,,,,,,FEW,15000,BKN,25000,,,,,VFR,1.7,,,,,,,,,,,METAR,5.0
KMTH 221453Z AUTO A3023 RMK AO2 SLP238 PWINO,KMTH,2018-03-22T14:53:00Z,24.73,-81.05,,,,,,,30.230314,1023.8,,TRUE,TRUE,,,,,TRUE,,,,,,,,,,,,,,,,,,,,,,METAR,2.0
KMTJ 221453Z AUTO 15006KT 10SM SCT100 07/M03 A3020 RMK AO2 SLP198 T00721033 50005,KMTJ,2018-03-22T14:53:00Z,38.5,-107.9,7.2,-3.3,150,6,,10.0,30.200787,1019.8,,TRUE,TRUE,,,,,,,SCT,10000,,,,,,,VFR,0.5,,,,,,,,,,,METAR,1750.0
KMVY 221453Z 36016G26KT 6SM -SN BR BKN013 OVC018 02/01 A2959 RMK AO2 PK WND 35031/1423 SLP021 P0000 60001 T00170006 51017,KMVY,2018-03-22T14:53:00Z,41.4,-70.62,1.7,0.6,360,16,26,6.0,29.589567,1002.1,,,TRUE,,,,,,-SN BR,BKN,1300,OVC,1800,,,,,MVFR,1.7,,,,,0.005,0.01,,,,,METAR,16.0
KMWL 221453Z AUTO 16014KT 10SM CLR 16/10 A3022 RMK AO2 SLP227 T01610100 51012,KMWL,2018-03-22T14:53:00Z,32.78,-98.07,16.1,10.0,160,14,,10.0,30.221457,1022.7,,TRUE,TRUE,,,,,,,CLR,,,,,,,,VFR,1.2,,,,,,,,,,,METAR,284.0
KMYF 221453Z 00000KT 9SM OVC110 17/13 A3004 RMK AO2 SLP168 T01670133 51026,KMYF,2018-03-22T14:53:00Z,32.82,-117.13,16.7,13.3,0,0,,9.0,30.041338,1016.8,,,TRUE,,,,,,,OVC,11000,,,,,,,VFR,2.6,,,,,,,,,,,METAR,136.0
KMYV 221453Z AUTO 19016KT 9SM -RA FEW012 BKN060 OVC080 14/13 A2969 RMK AO2 SLP058 P0010 60025 T01440133 53000,KMYV,2018-03-22T14:53:00Z,39.1,-121.57,14.4,13.3,190,16,,9.0,29.68996,1005.8,,TRUE,TRUE,,,,,,-RA,FEW,1200,BKN,6000,OVC,8000,,,VFR,0.0,,,,,0.1,0.25,,,,,METAR,21.0
KNEW 221453Z 08008KT 10SM CLR 16/03 A3040 RMK AO2 SLP287 T01560033 51018,KNEW,2018-03-22T14:53:00Z,30.05,-90.03,15.6,3.3,80,8,,10.0,30.398623,1028.7,,,TRUE,,,,,,,CLR,,,,,,,,VFR,1.8,,,,,,,,,,,METAR,3.0
KODO 221453Z AUTO 19014KT 10SM CLR 16/07 A3015 RMK AO2 SLP175 T01610067 53012,KODO,2018-03-22T14:53:00Z,31.92,-102.4,16.1,6.7,190,14,,10.0,30.15059,1017.5,,TRUE,TRUE,,,,,,,CLR,,,,,,,,VFR,1.2,,,,,,,,,,,METAR,902.0
KOMK 221453Z AUTO 35007KT 10SM OVC024 06/06 A2958 RMK AO2 SLP022 T00610061 55007,KOMK,2018-03-22T14:53:00Z,48.47,-119.52,6.1,6.1,350,7,,10.0,29.58071,1002.2,,TRUE,TRUE,,,,,,,OVC,2400,,,,,,,MVFR,-0.7,,,,,,,,,,,METAR,395.0
KOJC 221453Z 15008KT 10SM FEW120 08/01 A3028 RMK AO2 SLP257 T00830011 53005,KOJC,2018-03-22T14:53:00Z,38.85,-94.73,8.3,1.1,150,8,,10.0,30.280512,1025.7,,,TRUE,,,,,,,FEW,12000,,,,,,,VFR,0.5,,,,,,,,,,,METAR,326.0
KOGD 221453Z 16013KT 10SM -RA OVC050 12/04 A2991 RMK AO2 SLP103 P0001 60001 T01170044 58003,KOGD,2018-03-22T14:53:00Z,41.2,-112.02,11.7,4.4,160,13,,10.0,29.911417,1010.3,,,TRUE,,,,,,-RA,OVC,5000,,,,,,,VFR,-0.3,,,,,0.01,0.01,,,,,METAR,1353.0
KOGB 221453Z AUTO 32009KT 10SM CLR 08/M04 A3019 RMK AO2 SLP222 T00831039 50013,KOGB,2018-03-22T14:53:00Z,33.47,-80.85,8.3,-3.9,320,9,,10.0,30.188976,1022.2,,TRUE,TRUE,,,,,,,CLR,,,,,,,,VFR,1.3,,,,,,,,,,,METAR,59.0
KODX 221453Z AUTO 00000KT 10SM CLR 07/02 A3010 RMK AO2 SLP199 T00720017 51006,KODX,2018-03-22T14:53:00Z,41.62,-98.95,7.2,1.7,0,0,,10.0,30.100393,1019.9,,TRUE,TRUE,,,,,,,CLR,,,,,,,,VFR,0.6,,,,,,,,,,,METAR,631.0
KONO 221453Z AUTO 14012KT 6SM -RA BR FEW043 OVC050 10/09 A2970 RMK AO2 SLP059 P0007 60008 T01000089 53000 TSNO,KONO,2018-03-22T14:53:00Z,44.02,-117.02,10.0,8.9,140,12,,6.0,29.698818,1005.9,,TRUE,TRUE,,,TRUE,,,-RA BR,FEW,4300,OVC,5000,,,,,VFR,0.0,,,,,0.07,0.08,,,,,METAR,667.0
KASE 221453Z 00000KT 10SM BKN065 OVC080 03/M03 A3022 RMK AO2 SLP190 T00331033 53005,KASE,2018-03-22T14:53:00Z,39.23,-106.87,3.3,-3.3,0,0,,10.0,30.221457,1019.0,,,TRUE,,,,,,,BKN,6500,OVC,8000,,,,,VFR,0.5,,,,,,,,,,,SPECI,2354.0
KASD 221453Z AUTO 04006KT 10SM CLR 14/02 A3039 RMK AO2 SLP291 T01440022 51016,KASD,2018-03-22T14:53:00Z,30.35,-89.82,14.4,2.2,40,6,,10.0,30.389763,1029.1,,TRUE,TRUE,,,,,,,CLR,,,,,,,,VFR,1.6,,,,,,,,,,,METAR,9.0
KARB 221453Z 30007KT 10SM CLR 02/M12 A3025 RMK AO2 SLP250 T00221117 51011,KARB,2018-03-22T14:53:00Z,42.22,-83.73,2.2,-11.7,300,7,,10.0,30.250984,1025.0,,,TRUE,,,,,,,CLR,,,,,,,,VFR,1.1,,,,,,,,,,,METAR,251.0
KARA 221453Z 08008KT 10SM CLR 16/05 A3039 RMK AO2 SLP291 T01610050 51016,KARA,2018-03-22T14:53:00Z,30.03,-91.88,16.1,5.0,80,8,,10.0,30.389763,1029.1,,,TRUE,,,,,,,CLR,,,,,,,,VFR,1.6,,,,,,,,,,,METAR,18.0
KAPF 221453Z 01011KT 10SM CLR 17/04 A3025 RMK AO2 SLP241 T01670039 51019,KAPF,2018-03-22T14:53:00Z,26.15,-81.77,16.7,3.9,10,11,,10.0,30.250984,1024.1,,,TRUE,,,,,,,CLR,,,,,,,,VFR,1.9,,,,,,,,,,,METAR,3.0
KASX 221453Z AUTO 00000KT 10SM BKN060 M04/M07 A3039 RMK AO2 SLP306 T10441067 51012,KASX,2018-03-22T14:53:00Z,46.55,-90.92,-4.4,-6.7,0,0,,10.0,30.389763,1030.6,,TRUE,TRUE,,,,,,,BKN,6000,,,,,,,VFR,1.2,,,,,,,,,,,METAR,251.0
KATY 221453Z AUTO 06004KT 10SM CLR 01/M01 A3024 RMK AO2 SLP261 I3000 T00061006 51017,KATY,2018-03-22T14:53:00Z,44.9,-97.15,0.6,-0.6,60,4,,10.0,30.239174,1026.1,,TRUE,TRUE,,,,,,,CLR,,,,,,,,VFR,1.7,,,,,,,,,,,METAR,532.0
KONT 221453Z 29006KT 10SM -RA FEW045 BKN075 OVC095 17/13 A3001 RMK AO2 RAB42 SLP157 P0000 60000 T01670133 53019,KONT,2018-03-22T14:53:00Z,34.05,-117.58,16.7,13.3,290,6,,10.0,30.008858,1015.7,,,TRUE,,,,,,-RA,FEW,4500,BKN,7500,OVC,9500,,,VFR,1.9,,,,,0.005,0.005,,,,,METAR,274.0
KOPF 221453Z 35014KT 10SM CLR 18/03 A3024 RMK AO2 SLP239 T01780028 51018,KOPF,2018-03-22T14:53:00Z,25.92,-80.28,17.8,2.8,350,14,,10.0,30.239174,1023.9,,,TRUE,,,,,,,CLR,,,,,,,,VFR,1.8,,,,,,,,,,,METAR,16.0
KORL 221453Z 34009KT 10SM CLR 14/M03 A3024 RMK AO2 SLP246 T01391028 51012,KORL,2018-03-22T14:53:00Z,28.55,-81.33,13.9,-2.8,340,9,,10.0,30.239174,1024.6,,,TRUE,,,,,,,CLR,,,,,,,,VFR,1.2,,,,,,,,,,,METAR,37.0
KOSH 221453Z 00000KT 10SM CLR M01/M07 A3034 RMK AO2 SLP288 T10061067 51011,KOSH,2018-03-22T14:53:00Z,43.97,-88.55,-0.6,-6.7,0,0,,10.0,30.339567,1028.8,,,TRUE,,,,,,,CLR,,,,,,,,VFR,1.1,,,,,,,,,,,METAR,248.0
KOSU 221453Z COR 36009KT 10SM CLR 01/M06 A3024 RMK AO2 SLP248 T00111056 51016,KOSU,2018-03-22T14:53:00Z,40.08,-83.08,1.1,-5.6,360,9,,10.0,30.239174,1024.8,TRUE,,TRUE,,,,,,,CLR,,,,,,,,VFR,1.6,,,,,,,,,,,METAR,280.0
KOTM 221453Z AUTO 19004KT 10SM BKN110 05/M02 A3035 RMK AO2 SLP286 T00501017 51010,KOTM,2018-03-22T14:53:00Z,41.1,-92.45,5.0,-1.7,190,4,,10.0,30.351377,1028.6,,TRUE,TRUE,,,,,,,BKN,11000,,,,,,,VFR,1.0,,,,,,,,,,,METAR,256.0
KOVE 221453Z AUTO 17015KT 10SM -RA BKN011 BKN049 OVC085 14/14 A2968 RMK AO2 SLP053 P0003 60012 T01440139 55001,KOVE,2018-03-22T14:53:00Z,39.5,-121.62,14.4,13.9,170,15,,10.0,29.681103,1005.3,,TRUE,TRUE,,,,,,-RA,BKN,1100,BKN,4900,OVC,8500,,,MVFR,-0.1,,,,,0.03,0.12,,,,,METAR,58.0
KOXB 221453Z AUTO 32009KT 10SM OVC034 02/M01 A2993 RMK AO2 SLP133 T00171006 51019 $,KOXB,2018-03-22T14:53:00Z,38.32,-75.12,1.7,-0.6,320,9,,10.0,29.929134,1013.3,,TRUE,TRUE,TRUE,,,,,,OVC,3400,,,,,,,VFR,1.9,,,,,,,,,,,METAR,3.0
KUNO 221453Z AUTO 18006KT 10SM SCT090 07/M01 A3038 RMK AO2 SLP292 T00671006 53020,KUNO,2018-03-22T14:53:00Z,36.88,-91.9,6.7,-0.6,180,6,,10.0,30.380905,1029.2,,TRUE,TRUE,,,,,,,SCT,9000,,,,,,,VFR,2.0,,,,,,,,,,,METAR,372.0
KUTS 221453Z AUTO 16007KT 10SM CLR 19/08 A3033 RMK AO2 SLP266 T01890083 53019,KUTS,2018-03-22T14:53:00Z,30.75,-95.58,18.9,8.3,160,7,,10.0,30.33071,1026.6,,TRUE,TRUE,,,,,,,CLR,,,,,,,,VFR,1.9,,,,,,,,,,,METAR,104.0
KVCB 221453Z AUTO 20011G22KT 5SM RA BR BKN012 OVC021 14/13 A2973 RMK AO2 SLP066 P0013 60044 T01440133 51007,KVCB,2018-03-22T14:53:00Z,38.38,-121.95,14.4,13.3,200,11,22,5.0,29.731298,1006.6,,TRUE,TRUE,,,,,,RA BR,BKN,1200,OVC,2100,,,,,MVFR,0.7,,,,,0.13,0.44,,,,,METAR,33.0
KVEL 221453Z AUTO 00000KT 10SM BKN080 OVC110 08/M01 A3009 RMK AO2 SLP175 T00831006 53001,KVEL,2018-03-22T14:53:00Z,40.45,-109.52,8.3,-0.6,0,0,,10.0,30.088583,1017.5,,TRUE,TRUE,,,,,,,BKN,8000,OVC,11000,,,,,VFR,0.1,,,,,,,,,,,METAR,1604.0
KVGT 221453Z 00000KT 10SM -RA FEW065 OVC085 15/13 A2998 RMK AO2 RAE10B51 SLP159 P0000 60002 T01500133 53005,KVGT,2018-03-22T14:53:00Z,36.22,-115.2,15.0,13.3,0,0,,10.0,29.97933,1015.9,,,TRUE,,,,,,-RA,FEW,6500,OVC,8500,,,,,VFR,0.5,,,,,0.005,0.02,,,,,METAR,671.0
KVRB 221453Z 35012G17KT 10SM CLR 16/M02 A3024 RMK AO2 SLP237 T01561017 51013 $,KVRB,2018-03-22T14:53:00Z,27.65,-80.42,15.6,-1.7,350,12,17,10.0,30.239174,1023.7,,,TRUE,TRUE,,,,,,CLR,,,,,,,,VFR,1.3,,,,,,,,,,,METAR,10.0
KVPC 221453Z AUTO 10SM CLR 07/M01 A3032 RMK AO2 SLP265 T00671011 53016 $,KVPC,2018-03-22T14:53:00Z,34.13,-84.85,6.7,-1.1,,,,10.0,30.318897,1026.5,,TRUE,TRUE,TRUE,,,,,,CLR,,,,,,,,VFR,1.6,,,,,,,,,,,METAR,222.0
KVLD 221453Z 34007KT 290V020 10SM CLR 11/M03 A3027 RMK AO2 SLP259 T01111028 51012,KVLD,2018-03-22T14:53:00Z,30.78,-83.27,11.1,-2.8,340,7,,10.0,30.268702,1025.9,,,TRUE,,,,,,,CLR,,,,,,,,VFR,1.2,,,,,,,,,,,METAR,62.0
KVIH 221453Z AUTO 15005KT 10SM CLR 07/00 A3036 RMK AO2 SLP288 T00720000 51015,KVIH,2018-03-22T14:53:00Z,38.13,-91.77,7.2,0.0,150,5,,10.0,30.360237,1028.8,,TRUE,TRUE,,,,,,,CLR,,,,,,,,VFR,1.5,,,,,,,,,,,METAR,333.0
KWRL 221453Z AUTO 00000KT 10SM CLR 03/M02 A2996 RMK AO2 SLP160 T00331017 58003,KWRL,2018-03-22T14:53:00Z,43.97,-107.95,3.3,-1.7,0,0,,10.0,29.958662,1016.0,,TRUE,TRUE,,,,,,,CLR,,,,,,,,VFR,-0.3,,,,,,,,,,,METAR,1271.0
KWST 221453Z AUTO 35015G20KT 10SM SCT019 OVC028 04/01 A2968 RMK AO2 UPE1358 SLP049 P0000 60001 T00440011 53006,KWST,2018-03-22T14:53:00Z,41.35,-71.8,4.4,1.1,350,15,20,10.0,29.681103,1004.9,,TRUE,TRUE,,,,,,,SCT,1900,OVC,2800,,,,,MVFR,0.6,,,,,0.005,0.01,,,,,METAR,21.0
KXNA 221453Z 15006KT 10SM CLR 10/01 A3030 RMK AO2 SLP264 T01000011 53009,KXNA,2018-03-22T14:53:00Z,36.28,-94.3,10.0,1.1,150,6,,10.0,30.301182,1026.4,,,TRUE,,,,,,,CLR,,,,,,,,VFR,0.9,,,,,,,,,,,METAR,392.0
KYIP 221453Z 34010KT 10SM CLR 03/M10 A3025 RMK AO2 SLP247 T00331100 51011,KYIP,2018-03-22T14:53:00Z,42.23,-83.53,3.3,-10.0,340,10,,10.0,30.250984,1024.7,,,TRUE,,,,,,,CLR,,,,,,,,VFR,1.1,,,,,,,,,,,METAR,215.0
KYKM 221453Z 00000KT 7SM BKN027 OVC100 07/06 A2951 RMK AO2 SLP997 T00720056 56012,KYKM,2018-03-22T14:53:00Z,46.57,-120.53,7.2,5.6,0,0,,7.0,29.509842,999.7,,,TRUE,,,,,,,BKN,2700,OVC,10000,,,,,MVFR,-1.2,,,,,,,,,,,METAR,324.0
KZZV 221453Z AUTO 34009KT 10SM CLR 00/M06 A3022 RMK AO2 SLP240 T00001061 51016,KZZV,2018-03-22T14:53:00Z,39.95,-81.9,0.0,-6.1,340,9,,10.0,30.221457,1024.0,,TRUE,TRUE,,,,,,,CLR,,,,,,,,VFR,1.6,,,,,,,,,,,METAR,268.0
PAPB 221453Z AUTO 16032G49KT 4SM -RA BR BKN008 OVC015 05/04 A2966 RMK AO2 PK WND 16049/1446 SLP031 P0003 60011 T00500044 56049 TSNO,PAPB,2018-03-22T14:53:00Z,56.58,-169.67,5.0,4.4,160,32,49,4.0,29.660433,1003.1,,TRUE,TRUE,,,TRUE,,,-RA BR,BKN,800,OVC,1500,,,,,IFR,-4.9,,,,,0.03,0.11,,,,,METAR,35.0
KLFT 221453Z VRB03KT 10SM CLR 16/06 A3039 RMK AO2 SLP291 T01560061 51016,KLFT,2018-03-22T14:53:00Z,30.2,-92.0,15.6,6.1,0,3,,10.0,30.389763,1029.1,,,TRUE,,,,,,,CLR,,,,,,,,VFR,1.6,,,,,,,,,,,METAR,11.0
KLGB 221453Z 07003KT 10SM -RA FEW075 OVC100 18/15 A2999 RMK AO2 RAB1359 SLP154 P0000 60001 T01780150 50011,KLGB,2018-03-22T14:53:00Z,33.82,-118.15,17.8,15.0,70,3,,10.0,29.991142,1015.4,,,TRUE,,,,,,-RA,FEW,7500,OVC,10000,,,,,VFR,1.1,,,,,0.005,0.01,,,,,METAR,10.0
KLHQ 221453Z AUTO 35008KT 10SM CLR 01/M05 A3024 RMK AO2 SLP248 T00111050 51016,KLHQ,2018-03-22T14:53:00Z,39.75,-82.67,1.1,-5.0,350,8,,10.0,30.239174,1024.8,,TRUE,TRUE,,,,,,,CLR,,,,,,,,VFR,1.6,,,,,,,,,,,METAR,260.0
KLHX 221453Z AUTO 27007KT 10SM CLR 11/M07 A3013 RMK AO2 SLP178 T01111067 53013,KLHX,2018-03-22T14:53:00Z,38.05,-103.52,11.1,-6.7,270,7,,10.0,30.129921,1017.8,,TRUE,TRUE,,,,,,,CLR,,,,,,,,VFR,1.3,,,,,,,,,,,METAR,1277.0
KLIT 221453Z 09007KT 10SM FEW130 FEW250 12/03 A3040 RMK AO2 SLP297 T01170028 51019,KLIT,2018-03-22T14:53:00Z,34.73,-92.23,11.7,2.8,90,7,,10.0,30.398623,1029.7,,,TRUE,,,,,,,FEW,13000,FEW,25000,,,,,VFR,1.9,,,,,,,,,,,METAR,79.0
KLLQ 221453Z AUTO 12003KT 10SM CLR 13/03 A3039 RMK AO2 SLP290 T01330033 51014,KLLQ,2018-03-22T14:53:00Z,33.63,-91.75,13.3,3.3,120,3,,10.0,30.389763,1029.0,,TRUE,TRUE,,,,,,,CLR,,,,,,,,VFR,1.4,,,,,,,,,,,METAR,83.0
KLOU 221453Z VRB04KT 10SM CLR 02/M05 A3035 RMK AO2 SLP281 I3001 T00221050 51022,KLOU,2018-03-22T14:53:00Z,38.22,-85.67,2.2,-5.0,0,4,,10.0,30.351377,1028.1,,,TRUE,,,,,,,CLR,,,,,,,,VFR,2.2,,,,,,,,,,,METAR,164.0
KLNS 221453Z 31012KT 10SM CLR 03/M06 A2994 RMK AO2 SLP142 T00281056 51012,KLNS,2018-03-22T14:53:00Z,40.12,-76.3,2.8,-5.6,310,12,,10.0,29.940945,1014.2,,,TRUE,,,,,,,CLR,,,,,,,,VFR,1.2,,,,,,,,,,,METAR,125.0
KLMT 221453Z 15013KT 10SM FEW009 BKN050 06/03 A2952 RMK AO2 SLP984 T00560033 55004,KLMT,2018-03-22T14:53:00Z,42.15,-121.72,5.6,3.3,150,13,,10.0,29.518702,998.4,,,TRUE,,,,,,,FEW,900,BKN,5000,,,,,VFR,-0.4,,,,,,,,,,,METAR,1246.0
KLOZ 221453Z AUTO 31009KT 10SM CLR 02/M04 A3027 RMK AO2 SLP259 T00171039 51015,KLOZ,2018-03-22T14:53:00Z,37.08,-84.07,1.7,-3.9,310,9,,10.0,30.268702,1025.9,,TRUE,TRUE,,,,,,,CLR,,,,,,,,VFR,1.5,,,,,,,,,,,METAR,362.0
KLSE 221453Z 00000KT 10SM FEW070 01/M03 A3038 RMK AO2 SLP298 T00111033 51014,KLSE,2018-03-22T14:53:00Z,43.88,-91.25,1.1,-3.3,0,0,,10.0,30.380905,1029.8,,,TRUE,,,,,,,FEW,7000,,,,,,,VFR,1.4,,,,,,,,,,,METAR,199.0
KLPR 221453Z AUTO 35013G20KT 10SM CLR 01/M08 A3022 RMK AO2 SLP243 T00061083 51015,KLPR,2018-03-22T14:53:00Z,41.35,-82.18,0.6,-8.3,350,13,20,10.0,30.221457,1024.3,,TRUE,TRUE,,,,,,,CLR,,,,,,,,VFR,1.5,,,,,,,,,,,METAR,241.0
KLUK 221453Z 26006KT 10SM CLR 02/M04 A3032 RMK AO2 SLP270 T00171039 51018,KLUK,2018-03-22T14:53:00Z,39.1,-84.42,1.7,-3.9,260,6,,10.0,30.318897,1027.0,,,TRUE,,,,,,,CLR,,,,,,,,VFR,1.8,,,,,,,,,,,METAR,155.0
KLVJ 221453Z AUTO 11009KT 10SM CLR 20/13 A3034 RMK AO2 SLP274 T02000133 53018,KLVJ,2018-03-22T14:53:00Z,29.52,-95.25,20.0,13.3,110,9,,10.0,30.339567,1027.4,,TRUE,TRUE,,,,,,,CLR,,,,,,,,VFR,1.8,,,,,,,,,,,METAR,12.0
KGGW 221453Z AUTO 11014KT 10SM CLR M03/M06 A3006 RMK AO2 SLP209 T10331056 53003,KGGW,2018-03-22T14:53:00Z,48.22,-106.62,-3.3,-5.6,110,14,,10.0,30.059055,1020.9,,TRUE,TRUE,,,,,,,CLR,,,,,,,,VFR,0.3,,,,,,,,,,,METAR,694.0
KGGG 221453Z 15008KT 10SM CLR 17/06 A3034 RMK AO2 SLP271 T01720061 53015,KGGG,2018-03-22T14:53:00Z,32.38,-94.72,17.2,6.1,150,8,,10.0,30.339567,1027.1,,,TRUE,,,,,,,CLR,,,,,,,,VFR,1.5,,,,,,,,,,,METAR,107.0
KGFK 221453Z 34003KT 4SM BR SCT007 OVC033 01/00 A3034 RMK AO2 SLP286 T00110000 51009,KGFK,2018-03-22T14:53:00Z,47.95,-97.18,1.1,0.0,340,3,,4.0,30.339567,1028.6,,,TRUE,,,,,,BR,SCT,700,OVC,3300,,,,,MVFR,0.9,,,,,,,,,,,METAR,258.0
KGEZ 221453Z AUTO 33012KT 10SM CLR 02/M04 A3031 RMK AO2 SLP271 T00221044 51017,KGEZ,2018-03-22T14:53:00Z,39.58,-85.8,2.2,-4.4,330,12,,10.0,30.31004,1027.1,,TRUE,TRUE,,,,,,,CLR,,,,,,,,VFR,1.7,,,,,,,,,,,METAR,245.0
KGEY 221453Z AUTO 00000KT 10SM OVC100 01/M02 A2997 RMK AO2 SLP162 T00111022 50001,KGEY,2018-03-22T14:53:00Z,44.52,-108.08,1.1,-2.2,0,0,,10.0,29.970472,1016.2,,TRUE,TRUE,,,,,,,OVC,10000,,,,,,,VFR,0.1,,,,,,,,,,,METAR,1191.0
KGEG 221453Z 07009KT 10SM FEW010 BKN055 OVC080 06/05 A2960 RMK AO2 SLP029 60000 T00610050 58007 $,KGEG,2018-03-22T14:53:00Z,47.62,-117.53,6.1,5.0,70,9,,10.0,29.601377,1002.9,,,TRUE,TRUE,,,,,,FEW,1000,BKN,5500,OVC,8000,,,VFR,-0.7,,,,,,0.005,,,,,METAR,735.0
KGCC 221453Z AUTO 14006KT 10SM CLR 03/M01 A3001 RMK AO2 SLP174 T00281006 50001,KGCC,2018-03-22T14:53:00Z,44.33,-105.55,2.8,-0.6,140,6,,10.0,30.008858,1017.4,,TRUE,TRUE,,,,,,,CLR,,,,,,,,VFR,0.1,,,,,,,,,,,METAR,1320.0
KGAG 221453Z AUTO 22016G19KT CLR 13/01 A3010 RMK AO2 SLP186 T01280011 51013,KGAG,2018-03-22T14:53:00Z,36.3,-99.77,12.8,1.1,220,16,19,,30.100393,1018.6,,TRUE,TRUE,,,,,,,CLR,,,,,,,,,1.3,,,,,,,,,,,METAR,668.0
KFYV 221453Z 18010KT 10SM CLR 13/M01 A3031 RMK AO2 SLP263 T01281006 53007 $,KFYV,2018-03-22T14:53:00Z,36.02,-94.17,12.8,-0.6,180,10,,10.0,30.31004,1026.3,,,TRUE,TRUE,,,,,,CLR,,,,,,,,VFR,0.7,,,,,,,,,,,METAR,379.0
KLVK 221453Z 22009KT 2SM -RA BR BKN015 BKN048 OVC070 14/14 A2974 RMK AO2 SLP069 6//// T01390139 53007 PNO $,KLVK,2018-03-22T14:53:00Z,37.7,-121.82,13.9,13.9,220,9,,2.0,29.740158,1006.9,,,TRUE,TRUE,,,,,-RA BR,BKN,1500,BKN,4800,OVC,7000,,,IFR,0.7,,,,,,,,,,,METAR,117.0
KLVM 221453Z AUTO 13008KT 10SM FEW044 BKN110 04/M02 A2992 RMK AO2 SLP134 T00391017 58001,KLVM,2018-03-22T14:53:00Z,45.7,-110.43,3.9,-1.7,130,8,,10.0,29.920275,1013.4,,TRUE,TRUE,,,,,,,FEW,4400,BKN,11000,,,,,VFR,-0.1,,,,,,,,,,,METAR,1418.0
KLVS 221453Z AUTO VRB03KT 10SM CLR 11/M06 A3022 RMK AO2 SLP171 T01061061 53009,KLVS,2018-03-22T14:53:00Z,35.65,-105.13,10.6,-6.1,0,3,,10.0,30.221457,1017.1,,TRUE,TRUE,,,,,,,CLR,,,,,,,,VFR,0.9,,,,,,,,,,,METAR,2091.0
KLWV 221453Z AUTO 00000KT 10SM CLR 04/M04 A3039 RMK AO2 SLP293 T00441044 51019,KLWV,2018-03-22T14:53:00Z,38.77,-87.6,4.4,-4.4,0,0,,10.0,30.389763,1029.3,,TRUE,TRUE,,,,,,,CLR,,,,,,,,VFR,1.9,,,,,,,,,,,METAR,131.0
KLWD 221453Z AUTO 14008KT 10SM OVC090 04/M02 A3031 RMK AO2 SLP272 T00391017 51005,KLWD,2018-03-22T14:53:00Z,40.63,-93.9,3.9,-1.7,140,8,,10.0,30.31004,1027.2,,TRUE,TRUE,,,,,,,OVC,9000,,,,,,,VFR,0.5,,,,,,,,,,,METAR,346.0
KLXV 221453Z AUTO 06006KT 10SM BKN050 02/M07 A3026 RMK AO2 SLP177 T00171067 53005,KLXV,2018-03-22T14:53:00Z,39.23,-106.32,1.7,-6.7,60,6,,10.0,30.259842,1017.7,,TRUE,TRUE,,,,,,,BKN,5000,,,,,,,VFR,0.5,,,,,,,,,,,METAR,3028.0
KMAE 221453Z AUTO 11014KT 7SM -RA OVC080 16/14 A2983 RMK AO2 SLP099 P0004 60009 T01560144 53005,KMAE,2018-03-22T14:53:00Z,36.98,-120.12,15.6,14.4,110,14,,7.0,29.828741,1009.9,,TRUE,TRUE,,,,,,-RA,OVC,8000,,,,,,,VFR,0.5,,,,,0.04,0.09,,,,,METAR,77.0
KMAI 221453Z AUTO 36007G15KT 10SM CLR 12/M02 A3033 RMK AO2 SLP271 T01171022 51013,KMAI,2018-03-22T14:53:00Z,30.83,-85.18,11.7,-2.2,360,7,15,10.0,30.33071,1027.1,,TRUE,TRUE,,,,,,,CLR,,,,,,,,VFR,1.3,,,,,,,,,,,METAR,32.0
KMAF 221453Z 18014KT 10SM CLR 17/07 A3015 RMK AO2 SLP176 T01670067 53012,KMAF,2018-03-22T14:53:00Z,31.95,-102.2,16.7,6.7,180,14,,10.0,30.15059,1017.6,,,TRUE,,,,,,,CLR,,,,,,,,VFR,1.2,,,,,,,,,,,METAR,874.0
KMBS 221453Z 34007KT 10SM CLR 01/M09 A3027 RMK AO2 SLP259 T00111094 51011,KMBS,2018-03-22T14:53:00Z,43.53,-84.08,1.1,-9.4,340,7,,10.0,30.268702,1025.9,,,TRUE,,,,,,,CLR,,,,,,,,VFR,1.1,,,,,,,,,,,METAR,202.0
KMCB 221453Z AUTO 10005KT 10SM CLR 13/02 A3040 RMK AO2 SLP291 T01330017 52020,KMCB,2018-03-22T14:53:00Z,31.18,-90.47,13.3,1.7,100,5,,10.0,30.398623,1029.1,,TRUE,TRUE,,,,,,,CLR,,,,,,,,VFR,2.0,,,,,,,,,,,METAR,124.0
KMCI 221453Z 12010KT 10SM BKN100 BKN180 09/01 A3028 RMK AO2 SLP257 T00890011 53006,KMCI,2018-03-22T14:53:00Z,39.3,-94.73,8.9,1.1,120,10,,10.0,30.280512,1025.7,,,TRUE,,,,,,,BKN,10000,BKN,18000,,,,,VFR,0.6,,,,,,,,,,,METAR,320.0
KMCK 221453Z AUTO 23004KT 10SM CLR 07/02 A3007 RMK AO2 SLP188 T00670022 55002,KMCK,2018-03-22T14:53:00Z,40.2,-100.58,6.7,2.2,230,4,,10.0,30.070866,1018.8,,TRUE,TRUE,,,,,,,CLR,,,,,,,,VFR,-0.2,,,,,,,,,,,METAR,782.0
KMCN 221453Z 33008G15KT 10SM CLR 10/M06 A3027 RMK AO2 SLP250 T01001056 51011,KMCN,2018-03-22T14:53:00Z,32.68,-83.65,10.0,-5.6,330,8,15,10.0,30.268702,1025.0,,,TRUE,,,,,,,CLR,,,,,,,,VFR,1.1,,,,,,,,,,,METAR,109.0
KMCO 221453Z 33008KT 10SM CLR 14/M02 A3025 RMK AO2 SLP242 T01441017 51010,KMCO,2018-03-22T14:53:00Z,28.42,-81.33,14.4,-1.7,330,8,,10.0,30.250984,1024.2,,,TRUE,,,,,,,CLR,,,,,,,,VFR,1.0,,,,,,,,,,,METAR,29.0
PAOR 221453Z 00000KT 10SM FEW020 M23/M24 A3043 RMK AO2 SLP365 MTN OBSC NE T12281244 55004,PAOR,2018-03-22T14:53:00Z,62.97,-141.93,-22.8,-24.4,0,0,,10.0,30.431103,1036.5,,,TRUE,,,,,,,FEW,2000,,,,,,,VFR,-0.4,,,,,,,,,,,METAR,523.0
PAOT 221453Z 11027KT 3/4SM R09/P6000FT -SN BR VV005 M07/M08 A3029 RMK AO2 PK WND 11035/1433 SLP255 P0001 60003 T10721083 58013 $,PAOT,2018-03-22T14:53:00Z,66.87,-162.58,-7.2,-8.3,110,27,,0.75,30.28937,1025.5,,,TRUE,TRUE,,,,,-SN BR,OVX,0,,,,,,,LIFR,-1.3,,,,,0.01,0.03,,,,500,METAR,3.0
PAQT 221453Z AUTO 07008KT 10SM FEW050 OVC065 M22/M24 A3043 RMK AO2 SLP306 T12221244 58020 TSNO,PAQT,2018-03-22T14:53:00Z,70.22,-151.0,-22.2,-24.4,70,8,,10.0,30.431103,1030.6,,TRUE,TRUE,,,TRUE,,,,FEW,5000,OVC,6500,,,,,VFR,-2.0,,,,,,,,,,,METAR,12.0
PTKR 221453Z 35004KT 15SM FEW017 FEW120 BKN300 26/23 A2975 RMK SLP074 8/171 T02610226 50000,PTKR,2018-03-22T14:53:00Z,7.33,134.48,26.1,22.6,350,4,,15.0,29.749016,1007.4,,,,,,,,,,FEW,1700,FEW,12000,BKN,30000,,,VFR,0.0,,,,,,,,,,,METAR,30.0
KUNV 221453Z 31012KT 10SM SKC 01/M08 A3000,KUNV,2018-03-22T14:53:00Z,40.85,-77.83,1.0,-8.0,310,12,,10.0,30.0,,,,,,,,,,,SKC,,,,,,,,VFR,,,,,,,,,,,,METAR,378.0
KJKL 221453Z AUTO 00000KT 10SM CLR 01/M03 A3024 RMK AO2 SLP251 T00061028 51015,KJKL,2018-03-22T14:53:00Z,37.6,-83.32,0.6,-2.8,0,0,,10.0,30.239174,1025.1,,TRUE,TRUE,,,,,,,CLR,,,,,,,,VFR,1.5,,,,,,,,,,,METAR,416.0
KLBF 221453Z AUTO 26003KT 10SM CLR 07/M01 A3008 RMK AO2 SLP190 T00721006 51008,KLBF,2018-03-22T14:53:00Z,41.12,-100.67,7.2,-0.6,260,3,,10.0,30.079725,1019.0,,TRUE,TRUE,,,,,,,CLR,,,,,,,,VFR,0.8,,,,,,,,,,,METAR,847.0
KHSI 221453Z AUTO 15006KT 10SM CLR 07/02 A3014 RMK AO2 SLP212 T00670017 51005,KHSI,2018-03-22T14:53:00Z,40.6,-98.43,6.7,1.7,150,6,,10.0,30.138779,1021.2,,TRUE,TRUE,,,,,,,CLR,,,,,,,,VFR,0.5,,,,,,,,,,,METAR,591.0
KGFL 221453Z AUTO 01008KT 10SM CLR 02/M06 A2986 RMK AO2 SLP117 T00221056 50001,KGFL,2018-03-22T14:53:00Z,43.33,-73.62,2.2,-5.6,10,8,,10.0,29.861221,1011.7,,TRUE,TRUE,,,,,,,CLR,,,,,,,,VFR,0.1,,,,,,,,,,,METAR,103.0
KLXT 221453Z AUTO 14006KT 10SM CLR 09/01 A3030 RMK AO2 SLP265 T00940006 53010,KLXT,2018-03-22T14:53:00Z,38.97,-94.37,9.4,0.6,140,6,,10.0,30.301182,1026.5,,TRUE,TRUE,,,,,,,CLR,,,,,,,,VFR,1.0,,,,,,,,,,,METAR,306.0
KMIC 221453Z 16004KT 10SM OVC031 02/M04 A3035 RMK AO2 SLP289 T00171039 51012,KMIC,2018-03-22T14:53:00Z,45.07,-93.35,1.7,-3.9,160,4,,10.0,30.351377,1028.9,,,TRUE,,,,,,,OVC,3100,,,,,,,VFR,1.2,,,,,,,,,,,METAR,265.0
KMLT 221453Z AUTO 02013G20KT 10SM OVC026 M01/M07 A2982 RMK AO2 SLP109 T10111072 58009,KMLT,2018-03-22T14:53:00Z,45.65,-68.7,-1.1,-7.2,20,13,20,10.0,29.819881,1010.9,,TRUE,TRUE,,,,,,,OVC,2600,,,,,,,MVFR,-0.9,,,,,,,,,,,METAR,123.0
KMTO 221453Z AUTO 00000KT 10SM CLR 03/M06 A3036 RMK AO2 SLP287 T00331061 51016,KMTO,2018-03-22T14:53:00Z,39.47,-88.27,3.3,-6.1,0,0,,10.0,30.360237,1028.7,,TRUE,TRUE,,,,,,,CLR,,,,,,,,VFR,1.6,,,,,,,,,,,METAR,214.0
KSPW 221453Z AUTO 13011KT 10SM OVC070 03/M01 A3027 RMK AO2 SLP265 T00281011 51008,KSPW,2018-03-22T14:53:00Z,43.17,-95.22,2.8,-1.1,130,11,,10.0,30.268702,1026.5,,TRUE,TRUE,,,,,,,OVC,7000,,,,,,,VFR,0.8,,,,,,,,,,,METAR,403.0
KRVS 221453Z 17011KT 10SM BKN110 13/M01 A3027 RMK AO2 SLP253 T01281006 51006,KRVS,2018-03-22T14:53:00Z,36.05,-95.98,12.8,-0.6,170,11,,10.0,30.268702,1025.3,,,TRUE,,,,,,,BKN,11000,,,,,,,VFR,0.6,,,,,,,,,,,METAR,200.0
KRHI 221453Z AUTO 10SM CLR M03/M09 A3032 RMK AO2 SLP293 T10331089 51013 $,KRHI,2018-03-22T14:53:00Z,45.63,-89.48,-3.3,-8.9,,,,10.0,30.318897,1029.3,,TRUE,TRUE,TRUE,,,,,,CLR,,,,,,,,VFR,1.3,,,,,,,,,,,METAR,485.0
KPUC 221453Z AUTO 07005KT 10SM OVC070 08/M02 A3012 RMK AO2 SLP188 T00831022 53010,KPUC,2018-03-22T14:53:00Z,39.62,-110.75,8.3,-2.2,70,5,,10.0,30.121063,1018.8,,TRUE,TRUE,,,,,,,OVC,7000,,,,,,,VFR,1.0,,,,,,,,,,,METAR,2091.0
KOVS 221453Z AUTO VRB03KT 10SM CLR 02/M04 A3038 RMK AO2 SLP295 T00221039 51011,KOVS,2018-03-22T14:53:00Z,43.15,-90.68,2.2,-3.9,0,3,,10.0,30.380905,1029.5,,TRUE,TRUE,,,,,,,CLR,,,,,,,,VFR,1.1,,,,,,,,,,,METAR,202.0
KBIL 221453Z 00000KT 10SM BKN090 BKN150 02/M03 A2995 RMK AO2 SLP159 T00221028 58001,KBIL,2018-03-22T14:53:00Z,45.8,-108.55,2.2,-2.8,0,0,,10.0,29.949802,1015.9,,,TRUE,,,,,,,BKN,9000,BKN,15000,,,,,VFR,-0.1,,,,,,,,,,,METAR,1091.0
KBAF 221453Z 01015G23KT 10SM FEW070 OVC085 07/M03 A2972 RMK AO2 PK WND 35026/1356 SLP067 T00671028 53001,KBAF,2018-03-22T14:53:00Z,42.17,-72.72,6.7,-2.8,10,15,23,10.0,29.719488,1006.7,,,TRUE,,,,,,,FEW,7000,OVC,8500,,,,,VFR,0.1,,,,,,,,,,,METAR,83.0
KLFK 221453Z AUTO 15005KT 10SM CLR 17/10 A3035 RMK AO2 SLP274 T01670100 52020,KLFK,2018-03-22T14:53:00Z,31.23,-94.75,16.7,10.0,150,5,,10.0,30.351377,1027.4,,TRUE,TRUE,,,,,,,CLR,,,,,,,,VFR,2.0,,,,,,,,,,,METAR,88.0
KLEE 221453Z 32009KT 10SM CLR 13/00 A3026 RMK AO2 SLP246 T01330000 51013,KLEE,2018-03-22T14:53:00Z,28.82,-81.82,13.3,0.0,320,9,,10.0,30.259842,1024.6,,,TRUE,,,,,,,CLR,,,,,,,,VFR,1.3,,,,,,,,,,,METAR,23.0
KLEB 221453Z 30007KT 10SM CLR 04/M07 A2976 RMK AO2 SLP083 T00391067 58007,KLEB,2018-03-22T14:53:00Z,43.63,-72.3,3.9,-6.7,300,7,,10.0,29.760826,1008.3,,,TRUE,,,,,,,CLR,,,,,,,,VFR,-0.7,,,,,,,,,,,METAR,171.0
KLCH 221453Z 10010KT 10SM FEW095 17/07 A3037 RMK AO2 SLP292 T01670067 53019,KLCH,2018-03-22T14:53:00Z,30.13,-93.22,16.7,6.7,100,10,,10.0,30.369095,1029.2,,,TRUE,,,,,,,FEW,9500,,,,,,,VFR,1.9,,,,,,,,,,,METAR,4.0
KLBX 221453Z AUTO 13009KT 10SM CLR 19/13 A3032 RMK AO2 SLP268 T01940133 53018,KLBX,2018-03-22T14:53:00Z,29.12,-95.47,19.4,13.3,130,9,,10.0,30.318897,1026.8,,TRUE,TRUE,,,,,,,CLR,,,,,,,,VFR,1.8,,,,,,,,,,,METAR,6.0
KLBB 221453Z 22014KT 10SM FEW250 SCT300 15/06 A3014 RMK AO2 SLP178 T01500056 51015,KLBB,2018-03-22T14:53:00Z,33.67,-101.82,15.0,5.6,220,14,,10.0,30.138779,1017.8,,,TRUE,,,,,,,FEW,25000,SCT,30000,,,,,VFR,1.5,,,,,,,,,,,METAR,993.0
KLAX 221453Z 09006KT 7SM -RA SCT050 OVC090 16/15 A2999 RMK AO2 SLP153 P0003 60003 T01610150 50012,KLAX,2018-03-22T14:53:00Z,33.93,-118.38,16.1,15.0,90,6,,7.0,29.991142,1015.3,,,TRUE,,,,,,-RA,SCT,5000,OVC,9000,,,,,VFR,1.2,,,,,0.03,0.03,,,,,METAR,46.0
KLAW 221453Z 17013KT 10SM CLR 16/05 A3018 RMK AO2 SLP216 T01610050 50005,KLAW,2018-03-22T14:53:00Z,34.55,-98.42,16.1,5.0,170,13,,10.0,30.180119,1021.6,,,TRUE,,,,,,,CLR,,,,,,,,VFR,0.5,,,,,,,,,,,METAR,337.0
KLAR 221453Z AUTO 23013KT 10SM CLR 05/M01 A3012 RMK AO2 SLP165 T00501011 53002,KLAR,2018-03-22T14:53:00Z,41.32,-105.67,5.0,-1.1,230,13,,10.0,30.121063,1016.5,,TRUE,TRUE,,,,,,,CLR,,,,,,,,VFR,0.2,,,,,,,,,,,SPECI,2216.0
KLAN 221453Z 33008KT 10SM CLR 01/M11 A3027 RMK AO2 SLP262 T00111106 51010,KLAN,2018-03-22T14:53:00Z,42.78,-84.58,1.1,-10.6,330,8,,10.0,30.268702,1026.2,,,TRUE,,,,,,,CLR,,,,,,,,VFR,1.0,,,,,,,,,,,METAR,264.0
KLAA 221453Z AUTO 26011KT 10SM CLR 09/M06 A3010 RMK AO2 SLP180 T00941056 53012,KLAA,2018-03-22T14:53:00Z,38.07,-102.68,9.4,-5.6,260,11,,10.0,30.100393,1018.0,,TRUE,TRUE,,,,,,,CLR,,,,,,,,VFR,1.2,,,,,,,,,,,METAR,1119.0
KJLN 221453Z 14006KT 10SM CLR 11/01 A3029 RMK AO2 SLP256 T01110011 53006,KJLN,2018-03-22T14:53:00Z,37.15,-94.5,11.1,1.1,140,6,,10.0,30.28937,1025.6,,,TRUE,,,,,,,CLR,,,,,,,,VFR,0.6,,,,,,,,,,,METAR,299.0
PASI 221453Z 02004KT 10SM BKN140 04/M04 A2950 RMK AO2 RAB09E19 SLP991 P0000 60000 T00391039 55015,PASI,2018-03-22T14:53:00Z,57.07,-135.35,3.9,-3.9,20,4,,10.0,29.500984,999.1,,,TRUE,,,,,,,BKN,14000,,,,,,,VFR,-1.5,,,,,0.005,0.005,,,,,METAR,5.0
PASO 221453Z AUTO 01014G22KT 10SM CLR M03/M12 A3021 RMK AO2 SLP229 T10331122 56023 TSNO,PASO,2018-03-22T14:53:00Z,59.45,-151.7,-3.3,-12.2,10,14,22,10.0,30.209646,1022.9,,TRUE,TRUE,,,TRUE,,,,CLR,,,,,,,,VFR,-2.3,,,,,,,,,,,METAR,9.0
PATK 221453Z AUTO 01008KT 10SM CLR M06/M19 A3030 RMK AO2 SLP266 T10611189 56024 TSNO,PATK,2018-03-22T14:53:00Z,62.3,-150.1,-6.1,-18.9,10,8,,10.0,30.301182,1026.6,,TRUE,TRUE,,,TRUE,,,,CLR,,,,,,,,VFR,-2.4,,,,,,,,,,,METAR,109.0
PAVL 221453Z AUTO 15027G32KT 3/4SM BR OVC026 M04/M05 A3015 RMK AO2 PK WND 14037/1415 SLP211 6//// T10391050 55008 PWINO FZRANO TSNO PNO $,PAVL,2018-03-22T14:53:00Z,67.73,-164.55,-3.9,-5.0,150,27,32,0.75,30.15059,1021.1,,TRUE,TRUE,TRUE,,TRUE,TRUE,TRUE,BR,OVC,2600,,,,,,,LIFR,-0.8,,,,,,,,,,,METAR,3.0
PATO 221453Z AUTO 27009KT 10SM CLR M07/M13 A3020 RMK AO2 SLP226 T10671133 56015 TSNO,PATO,2018-03-22T14:53:00Z,60.78,-148.85,-6.7,-13.3,270,9,,10.0,30.200787,1022.6,,TRUE,TRUE,,,TRUE,,,,CLR,,,,,,,,VFR,-1.5,,,,,,,,,,,METAR,31.0
PAWD 221453Z AUTO 35018G35KT 320V020 10SM CLR M03/M16 A3013 RMK AO2 PK WND 36035/1447 SLP202 T10331156 56021 TSNO,PAWD,2018-03-22T14:53:00Z,60.12,-149.42,-3.3,-15.6,350,18,35,10.0,30.129921,1020.2,,TRUE,TRUE,,,TRUE,,,,CLR,,,,,,,,VFR,-2.1,,,,,,,,,,,METAR,23.0
PAWI 221453Z AUTO 08016KT 1 1/4SM -SN BR OVC023 M16/M18 A3019 RMK AO2 SLP225 P0000 60000 T11611183 56024 TSNO,PAWI,2018-03-22T14:53:00Z,70.62,-159.85,-16.1,-18.3,80,16,,1.25,30.188976,1022.5,,TRUE,TRUE,,,TRUE,,,-SN BR,OVC,2300,,,,,,,IFR,-2.4,,,,,0.005,0.005,,,,,METAR,27.0
PAYA 221453Z AUTO 05012G17KT 10SM CLR 03/M12 A2978 RMK AO2 SLP085 T00281122 56019 TSNO,PAYA,2018-03-22T14:53:00Z,59.52,-139.67,2.8,-12.2,50,12,17,10.0,29.778543,1008.5,,TRUE,TRUE,,,TRUE,,,,CLR,,,,,,,,VFR,-1.9,,,,,,,,,,,METAR,11.0
PHJR 221453Z AUTO 05004KT 10SM BKN050 OVC110 22/18 A2998 RMK AO2 SLP159 T02220183 53002 TSNO,PHJR,2018-03-22T14:53:00Z,21.32,-158.07,22.2,18.3,50,4,,10.0,29.97933,1015.9,,TRUE,TRUE,,,TRUE,,,,BKN,5000,OVC,11000,,,,,VFR,0.2,,,,,,,,,,,METAR,15.0
PHTO 221453Z AUTO 24005KT 10SM SCT026 OVC035 23/18 A3001 RMK AO2 RAE15B24E43 SLP160 P0001 60008 T02330183 55003 TSNO,PHTO,2018-03-22T14:53:00Z,19.72,-155.05,23.3,18.3,240,5,,10.0,30.008858,1016.0,,TRUE,TRUE,,,TRUE,,,,SCT,2600,OVC,3500,,,,,VFR,-0.3,,,,,0.01,0.08,,,,,METAR,12.0
PHNL 221453Z 09011KT 10SM FEW026 SCT050 BKN110 23/18 A2997 RMK AO2 SLP149 T02280178 53001,PHNL,2018-03-22T14:53:00Z,21.33,-157.92,22.8,17.8,90,11,,10.0,29.970472,1014.9,,,TRUE,,,,,,,FEW,2600,SCT,5000,BKN,11000,,,VFR,0.1,,,,,,,,,,,METAR,4.0
PHKO 221453Z AUTO 09004KT 10SM CLR 22/17 A2993 RMK AO2 SLP134 T02220167 55004 TSNO,PHKO,2018-03-22T14:53:00Z,19.73,-156.05,22.2,16.7,90,4,,10.0,29.929134,1013.4,,TRUE,TRUE,,,TRUE,,,,CLR,,,,,,,,VFR,-0.4,,,,,,,,,,,METAR,27.0
KHIB 221453Z AUTO 00000KT 10SM BKN060 M03/M08 A3034 RMK AO2 SLP297 T10281078 51010,KHIB,2018-03-22T14:53:00Z,47.38,-92.83,-2.8,-7.8,0,0,,10.0,30.339567,1029.7,,TRUE,TRUE,,,,,,,BKN,6000,,,,,,,VFR,1.0,,,,,,,,,,,METAR,412.0
KP68 221453Z AUTO 14008KT 09/05 A2982 RMK AO1 SLP055 T00940050 58010,KP68,2018-03-22T14:53:00Z,39.6,-116.0,9.4,5.0,140,8,,,29.819881,1005.5,,TRUE,TRUE,,,,,,,,,,,,,,,,-1.0,,,,,,,,,,,METAR,1809.0
KP92 221453Z AUTO VRB04KT 16/04 A3037 RMK AO1 SLP285 T01610044 51015 $,KP92,2018-03-22T14:53:00Z,29.57,-91.53,16.1,4.4,0,4,,,30.369095,1028.5,,TRUE,TRUE,TRUE,,,,,,,,,,,,,,,1.5,,,,,,,,,,,METAR,1.0
KUAO 221453Z 21005KT 8SM -RA BKN013 OVC024 07/06 A2959 RMK AO2 SLP020 P0004 60016 T00670056 53020,KUAO,2018-03-22T14:53:00Z,45.25,-122.77,6.7,5.6,210,5,,8.0,29.589567,1002.0,,,TRUE,,,,,,-RA,BKN,1300,OVC,2400,,,,,MVFR,2.0,,,,,0.04,0.16,,,,,METAR,59.0
KTYS 221453Z 20003KT 10SM FEW034 04/M02 A3028 RMK AO2 SLP259 T00441022 51014,KTYS,2018-03-22T14:53:00Z,35.82,-83.98,4.4,-2.2,200,3,,10.0,30.280512,1025.9,,,TRUE,,,,,,,FEW,3400,,,,,,,VFR,1.4,,,,,,,,,,,METAR,302.0
KTYR 221453Z 15005KT 10SM CLR 17/06 A3033 RMK AO2 SLP266 T01720061 53018,KTYR,2018-03-22T14:53:00Z,32.37,-95.4,17.2,6.1,150,5,,10.0,30.33071,1026.6,,,TRUE,,,,,,,CLR,,,,,,,,VFR,1.8,,,,,,,,,,,METAR,165.0
KTXK 221453Z 17009KT 10SM CLR 16/02 A3037 RMK AO2 SLP282 T01560017 51019,KTXK,2018-03-22T14:53:00Z,33.45,-93.98,15.6,1.7,170,9,,10.0,30.369095,1028.2,,,TRUE,,,,,,,CLR,,,,,,,,VFR,1.9,,,,,,,,,,,METAR,111.0
KTWF 221453Z 10007KT 10SM FEW055 SCT070 OVC100 08/06 A2979 RMK AO2 SLP066 60000 T00780056 58014,KTWF,2018-03-22T14:53:00Z,42.48,-114.48,7.8,5.6,100,7,,10.0,29.790354,1006.6,,,TRUE,,,,,,,FEW,5500,SCT,7000,OVC,10000,,,VFR,-1.4,,,,,,0.005,,,,,METAR,1266.0
KTVR 221453Z AUTO 17004KT 10SM CLR 12/06 A3042 RMK AO2 SLP306 T01170056 51022,KTVR,2018-03-22T14:53:00Z,32.35,-91.03,11.7,5.6,170,4,,10.0,30.41929,1030.6,,TRUE,TRUE,,,,,,,CLR,,,,,,,,VFR,2.2,,,,,,,,,,,METAR,26.0
KTVC 221453Z 01010G15KT 10SM FEW030 00/M07 A3030 RMK AO2 SLP267 T00001067 51009,KTVC,2018-03-22T14:53:00Z,44.73,-85.57,0.0,-6.7,10,10,15,10.0,30.301182,1026.7,,,TRUE,,,,,,,FEW,3000,,,,,,,VFR,0.9,,,,,,,,,,,METAR,190.0
KTUS 221453Z 10SM CLR 18/M02 A3012 RMK AO2 SLP166 T01831017 53014 $,KTUS,2018-03-22T14:53:00Z,32.13,-110.95,18.3,-1.7,,,,10.0,30.121063,1016.6,,,TRUE,TRUE,,,,,,CLR,,,,,,,,VFR,1.4,,,,,,,,,,,METAR,776.0
KTUL 221453Z 16012KT 10SM SCT090 BKN150 OVC180 13/00 A3026 RMK AO2 SLP244 ACC SE-SW T01280000 51007,KTUL,2018-03-22T14:53:00Z,36.2,-95.88,12.8,0.0,160,12,,10.0,30.259842,1024.4,,,TRUE,,,,,,,SCT,9000,BKN,15000,OVC,18000,,,VFR,0.7,,,,,,,,,,,METAR,207.0
KTTN 221453Z 32013G23KT 10SM CLR 03/M04 A2985 RMK AO2 SLP102 T00281044 51012,KTTN,2018-03-22T14:53:00Z,40.28,-74.82,2.8,-4.4,320,13,23,10.0,29.84941,1010.2,,,TRUE,,,,,,,CLR,,,,,,,,VFR,1.2,,,,,,,,,,,METAR,59.0
KTRL 221453Z AUTO 16010KT 10SM CLR 17/08 A3031 RMK AO2 SLP260 T01720078 51016,KTRL,2018-03-22T14:53:00Z,32.72,-96.27,17.2,7.8,160,10,,10.0,30.31004,1026.0,,TRUE,TRUE,,,,,,,CLR,,,,,,,,VFR,1.6,,,,,,,,,,,METAR,145.0
KTRI 221453Z 26007KT 10SM FEW030 03/M03 A3022 RMK AO2 SLP232 T00331028 51008,KTRI,2018-03-22T14:53:00Z,36.48,-82.4,3.3,-2.8,260,7,,10.0,30.221457,1023.2,,,TRUE,,,,,,,FEW,3000,,,,,,,VFR,0.8,,,,,,,,,,,METAR,474.0
KTPA 221453Z 32008G15KT 10SM CLR 15/02 A3028 RMK AO2 SLP253 T01500017 50012,KTPA,2018-03-22T14:53:00Z,27.97,-82.53,15.0,1.7,320,8,15,10.0,30.280512,1025.3,,,TRUE,,,,,,,CLR,,,,,,,,VFR,1.2,,,,,,,,,,,METAR,11.0
KTOR 221453Z AUTO 00000KT 10SM CLR 04/01 A3007 RMK AO2 SLP183 T00440006 53011,KTOR,2018-03-22T14:53:00Z,42.07,-104.15,4.4,0.6,0,0,,10.0,30.070866,1018.3,,TRUE,TRUE,,,,,,,CLR,,,,,,,,VFR,1.1,,,,,,,,,,,METAR,1277.0
KTOP 221453Z 14012KT 10SM CLR 11/02 A3025 RMK AO2 SLP244 T01060017 51005,KTOP,2018-03-22T14:53:00Z,39.07,-95.63,10.6,1.7,140,12,,10.0,30.250984,1024.4,,,TRUE,,,,,,,CLR,,,,,,,,VFR,0.5,,,,,,,,,,,METAR,268.0
KTOI 221453Z AUTO 02014G18KT 10SM CLR 11/M02 A3036 RMK AO2 SLP279 T01061022 51014,KTOI,2018-03-22T14:53:00Z,31.85,-86.02,10.6,-2.2,20,14,18,10.0,30.360237,1027.9,,TRUE,TRUE,,,,,,,CLR,,,,,,,,VFR,1.4,,,,,,,,,,,METAR,118.0
KTMB 221453Z 36015G20KT 10SM CLR 18/04 A3023 RMK AO2 SLP236 T01830044 51017,KTMB,2018-03-22T14:53:00Z,25.65,-80.43,18.3,4.4,360,15,20,10.0,30.230314,1023.6,,,TRUE,,,,,,,CLR,,,,,,,,VFR,1.7,,,,,,,,,,,METAR,2.0
KTLH 221453Z 01013KT 10SM CLR 11/M03 A3031 RMK AO2 SLP263 T01111033 51013,KTLH,2018-03-22T14:53:00Z,30.4,-84.35,11.1,-3.3,10,13,,10.0,30.31004,1026.3,,,TRUE,,,,,,,CLR,,,,,,,,VFR,1.3,,,,,,,,,,,METAR,19.0
KTKI 221453Z 16011KT 10SM CLR 16/08 A3029 RMK AO2 SLP261 T01560078 51015,KTKI,2018-03-22T14:53:00Z,33.18,-96.58,15.6,7.8,160,11,,10.0,30.28937,1026.1,,,TRUE,,,,,,,CLR,,,,,,,,VFR,1.5,,,,,,,,,,,METAR,179.0
KTHV 221453Z AUTO 30009KT CLR 02/M06 A2998 RMK AO2 SLP158 T00171061 51017 $,KTHV,2018-03-22T14:53:00Z,39.92,-76.88,1.7,-6.1,300,9,,,29.97933,1015.8,,TRUE,TRUE,TRUE,,,,,,CLR,,,,,,,,,1.7,,,,,,,,,,,METAR,144.0
KTDZ 221453Z AUTO 32010KT 10SM CLR 03/M12 A3027 RMK AO2 SLP255 T00281117 51014,KTDZ,2018-03-22T14:53:00Z,41.57,-83.48,2.8,-11.7,320,10,,10.0,30.268702,1025.5,,TRUE,TRUE,,,,,,,CLR,,,,,,,,VFR,1.4,,,,,,,,,,,METAR,189.0
KTCL 221453Z 00000KT 10SM CLR 09/01 A3041 RMK AO2 SLP298 60000 T00890006 51025,KTCL,2018-03-22T14:53:00Z,33.22,-87.62,8.9,0.6,0,0,,10.0,30.410433,1029.8,,,TRUE,,,,,,,CLR,,,,,,,,VFR,2.5,,,,,,0.005,,,,,METAR,49.0
KTCC 221453Z AUTO 26004KT 10SM CLR 13/M07 A3012 RMK AO2 SLP171 T01331067 53014,KTCC,2018-03-22T14:53:00Z,35.18,-103.6,13.3,-6.7,260,4,,10.0,30.121063,1017.1,,TRUE,TRUE,,,,,,,CLR,,,,,,,,VFR,1.4,,,,,,,,,,,METAR,1235.0
KSWO 221453Z 16017G22KT 7SM FEW100 15/M01 A3020 RMK AO2 SLP222 T01501011 58003,KSWO,2018-03-22T14:53:00Z,36.17,-97.08,15.0,-1.1,160,17,22,7.0,30.200787,1022.2,,,TRUE,,,,,,,FEW,10000,,,,,,,VFR,-0.3,,,,,,,,,,,METAR,290.0
KSUN 221453Z 00000KT 5SM RA OVC027 03/02 A2987,KSUN,2018-03-22T14:53:00Z,43.5,-114.28,3.0,2.0,0,0,,5.0,29.870079,,,,,,,,,,RA,OVC,2700,,,,,,,MVFR,,,,,,,,,,,,METAR,1620.0
KSAF 221453Z 36013KT 10SM CLR 09/M05 A3026 RMK AO2 SLP194 T00891050 53009,KSAF,2018-03-22T14:53:00Z,35.62,-106.1,8.9,-5.0,360,13,,10.0,30.259842,1019.4,,,TRUE,,,,,,,CLR,,,,,,,,VFR,0.9,,,,,,,,,,,METAR,1930.0
KRXE 221453Z AUTO 08007KT 10SM BKN110 04/ A2993 RMK AO2 SLP136 60001 T0039 56017 $,KRXE,2018-03-22T14:53:00Z,43.83,-111.8,3.9,,80,7,,10.0,29.929134,1013.6,,TRUE,TRUE,TRUE,,,,,,BKN,11000,,,,,,,VFR,-1.7,,,,,,0.01,,,,,METAR,1480.0
KRWL 221453Z AUTO 23008KT 10SM OVC120 07/M02 A3010 RMK AO2 SLP156 T00721022 50001,KRWL,2018-03-22T14:53:00Z,41.78,-107.2,7.2,-2.2,230,8,,10.0,30.100393,1015.6,,TRUE,TRUE,,,,,,,OVC,12000,,,,,,,VFR,0.1,,,,,,,,,,,METAR,2077.0
KRWI 221453Z AUTO 30015G21KT 10SM CLR 07/M03 A3008 RMK AO2 SLP187 T00721033 51016,KRWI,2018-03-22T14:53:00Z,35.85,-77.9,7.2,-3.3,300,15,21,10.0,30.079725,1018.7,,TRUE,TRUE,,,,,,,CLR,,,,,,,,VFR,1.6,,,,,,,,,,,METAR,47.0
KRWF 221453Z AUTO 13009KT 10SM BKN044 01/M01 A3032 RMK AO2 SLP278 T00111011 53014,KRWF,2018-03-22T14:53:00Z,44.55,-95.08,1.1,-1.1,130,9,,10.0,30.318897,1027.8,,TRUE,TRUE,,,,,,,BKN,4400,,,,,,,VFR,1.4,,,,,,,,,,,METAR,311.0
KRUE 221453Z AUTO VRB05KT 10SM CLR 10/01 A3037 RMK AO2 SLP282 T01000006 51014,KRUE,2018-03-22T14:53:00Z,35.25,-93.1,10.0,0.6,0,5,,10.0,30.369095,1028.2,,TRUE,TRUE,,,,,,,CLR,,,,,,,,VFR,1.4,,,,,,,,,,,METAR,115.0
KRTN 221453Z AUTO 09008KT 10SM CLR 06/M08 A3018 RMK AO2 SLP187 T00611083 53009,KRTN,2018-03-22T14:53:00Z,36.73,-104.5,6.1,-8.3,90,8,,10.0,30.180119,1018.7,,TRUE,TRUE,,,,,,,CLR,,,,,,,,VFR,0.9,,,,,,,,,,,METAR,1936.0
KRSW 221453Z 01011G16KT 350V050 10SM CLR 16/02 A3026 RMK AO2 SLP245 T01610022 51017,KRSW,2018-03-22T14:53:00Z,26.53,-81.75,16.1,2.2,10,11,16,10.0,30.259842,1024.5,,,TRUE,,,,,,,CLR,,,,,,,,VFR,1.7,,,,,,,,,,,METAR,10.0
KRQE 221453Z AUTO 00000KT 10SM CLR 06/M03 A3028 RMK AO2 SLP202 T00561028 53011 TSNO,KRQE,2018-03-22T14:53:00Z,35.65,-109.07,5.6,-2.8,0,0,,10.0,30.280512,1020.2,,TRUE,TRUE,,,TRUE,,,,CLR,,,,,,,,VFR,1.1,,,,,,,,,,,METAR,2055.0
KRNT 221453Z 12006KT 6SM -RA BR BKN012 OVC041 07/06 A2951 RMK AO2 SLP997 P0005 60005 T00670056 53012,KRNT,2018-03-22T14:53:00Z,47.5,-122.22,6.7,5.6,120,6,,6.0,29.509842,999.7,,,TRUE,,,,,,-RA BR,BKN,1200,OVC,4100,,,,,MVFR,1.2,,,,,0.05,0.05,,,,,METAR,21.0
KRNM 221453Z 12005KT 10SM OVC110 17/11 A3002 RMK AO2 SLP154 T01670106 50016,KRNM,2018-03-22T14:53:00Z,33.03,-116.92,16.7,10.6,120,5,,10.0,30.02067,1015.4,,,TRUE,,,,,,,OVC,11000,,,,,,,VFR,1.6,,,,,,,,,,,METAR,427.0
KRMG 221453Z AUTO 36010G16KT 10SM CLR 08/M02 A3032 RMK AO2 SLP265 T00781022 53018,KRMG,2018-03-22T14:53:00Z,34.35,-85.17,7.8,-2.2,360,10,16,10.0,30.318897,1026.5,,TRUE,TRUE,,,,,,,CLR,,,,,,,,VFR,1.8,,,,,,,,,,,METAR,193.0
KRME 221453Z 30012KT 10SM CLR 00/M06 A2996 RMK AO2 SLP151 T00001061 50005,KRME,2018-03-22T14:53:00Z,43.22,-75.4,0.0,-6.1,300,12,,10.0,29.958662,1015.1,,,TRUE,,,,,,,CLR,,,,,,,,VFR,0.5,,,,,,,,,,,METAR,154.0
KRKP 221453Z AUTO 12013KT 9SM CLR 22/16 A3028 RMK AO2 SLP254 T02220161 53020,KRKP,2018-03-22T14:53:00Z,28.08,-97.05,22.2,16.1,120,13,,9.0,30.280512,1025.4,,TRUE,TRUE,,,,,,,CLR,,,,,,,,VFR,2.0,,,,,,,,,,,METAR,6.0
KRIW 221453Z AUTO 09003KT 10SM CLR 06/M04 A3000 RMK AO2 SLP147 T00561039 50001 $,KRIW,2018-03-22T14:53:00Z,43.07,-108.47,5.6,-3.9,90,3,,10.0,30.0,1014.7,,TRUE,TRUE,TRUE,,,,,,CLR,,,,,,,,VFR,0.1,,,,,,,,,,,METAR,1697.0
KRIL 221453Z AUTO 11003KT 10SM SCT075 BKN095 04/M01 A3017 RMK AO2 SLP204 T00391006 50003,KRIL,2018-03-22T14:53:00Z,39.53,-107.73,3.9,-0.6,110,3,,10.0,30.171259,1020.4,,TRUE,TRUE,,,,,,,SCT,7500,BKN,9500,,,,,VFR,0.3,,,,,,,,,,,METAR,1678.0
KRDD 221453Z 17019G25KT 10SM BKN015 14/12 A2955 RMK AO2 PK WND 16035/1432 SLP004 T01440122 56001,KRDD,2018-03-22T14:53:00Z,40.52,-122.3,14.4,12.2,170,19,25,10.0,29.551182,1000.4,,,TRUE,,,,,,,BKN,1500,,,,,,,MVFR,-0.1,,,,,,,,,,,METAR,155.0
KRBD 221453Z 16010KT 10SM CLR 15/08 A3028 RMK AO2 SLP249 T01500078 51016,KRBD,2018-03-22T14:53:00Z,32.68,-96.87,15.0,7.8,160,10,,10.0,30.280512,1024.9,,,TRUE,,,,,,,CLR,,,,,,,,VFR,1.6,,,,,,,,,,,METAR,203.0
KRAL 221453Z AUTO 00000KT 10SM FEW090 OVC110 16/14 A3001 RMK AO2 SLP149 60001 T01610139 51019,KRAL,2018-03-22T14:53:00Z,33.95,-117.45,16.1,13.9,0,0,,10.0,30.008858,1014.9,,TRUE,TRUE,,,,,,,FEW,9000,OVC,11000,,,,,VFR,1.9,,,,,,0.01,,,,,METAR,252.0
KRAC 221453Z AUTO 31005KT 10SM CLR 02/M07 A3036 RMK AO2 SLP289 T00171072 51011,KRAC,2018-03-22T14:53:00Z,42.77,-87.82,1.7,-7.2,310,5,,10.0,30.360237,1028.9,,TRUE,TRUE,,,,,,,CLR,,,,,,,,VFR,1.1,,,,,,,,,,,METAR,203.0
KPWA 221453Z 16020G30KT 10SM CLR 16/00 A3017 RMK AO2 PK WND 16033/1442 SLP212 T01560000 58001,KPWA,2018-03-22T14:53:00Z,35.53,-97.65,15.6,0.0,160,20,30,10.0,30.171259,1021.2,,,TRUE,,,,,,,CLR,,,,,,,,VFR,-0.1,,,,,,,,,,,METAR,397.0
KPUW 221453Z AUTO 10016KT 10SM BKN095 08/07 A2962 RMK AO2 SLP032 T00830067 56012,KPUW,2018-03-22T14:53:00Z,46.75,-117.12,8.3,6.7,100,16,,10.0,29.619095,1003.2,,TRUE,TRUE,,,,,,,BKN,9500,,,,,,,VFR,-1.2,,,,,,,,,,,METAR,773.0
KPUB 221453Z 28004KT 10SM CLR 09/M06 A3013 RMK AO2 SLP179 T00891056 53011,KPUB,2018-03-22T14:53:00Z,38.28,-104.5,8.9,-5.6,280,4,,10.0,30.129921,1017.9,,,TRUE,,,,,,,CLR,,,,,,,,VFR,1.1,,,,,,,,,,,METAR,1420.0
KPTK 221453Z 31009KT 10SM FEW180 FEW250 01/M09 A3022 RMK AO2 SLP244 T00061089 51012,KPTK,2018-03-22T14:53:00Z,42.67,-83.42,0.6,-8.9,310,9,,10.0,30.221457,1024.4,,,TRUE,,,,,,,FEW,18000,FEW,25000,,,,,VFR,1.2,,,,,,,,,,,METAR,299.0
KPSX 221453Z AUTO 12014KT 10SM CLR 21/14 A3031 RMK AO2 SLP262 T02110144 53018,KPSX,2018-03-22T14:53:00Z,28.72,-96.25,21.1,14.4,120,14,,10.0,30.31004,1026.2,,TRUE,TRUE,,,,,,,CLR,,,,,,,,VFR,1.8,,,,,,,,,,,METAR,5.0
KPSP 221453Z 02004KT 10SM SCT110 OVC180 22/11 A2996 RMK AO2 SLP141 60000 T02170111 53010,KPSP,2018-03-22T14:53:00Z,33.82,-116.5,21.7,11.1,20,4,,10.0,29.958662,1014.1,,,TRUE,,,,,,,SCT,11000,OVC,18000,,,,,VFR,1.0,,,,,,0.005,,,,,METAR,135.0
KPSC 221453Z 00000KT 9SM FEW100 06/05 A2955 RMK AO2 SLP008 T00610050 56013,KPSC,2018-03-22T14:53:00Z,46.27,-119.12,6.1,5.0,0,0,,9.0,29.551182,1000.8,,,TRUE,,,,,,,FEW,10000,,,,,,,VFR,-1.3,,,,,,,,,,,METAR,121.0
KNUI 221453Z AUTO 30009G17KT 10SM CLR 04/M04 A2998 RMK AO2 SLP151 T00441039 51018,KNUI,2018-03-22T14:53:00Z,38.15,-76.43,4.4,-3.9,300,9,17,10.0,29.97933,1015.1,,TRUE,TRUE,,,,,,,CLR,,,,,,,,VFR,1.8,,,,,,,,,,,METAR,7.0
MUCL 221453Z 04016KT 9000 FEW020 23/16 Q1022,MUCL,2018-03-22T14:53:00Z,21.63,-81.55,23.0,16.0,40,16,,5.59,30.177166,,,,,,,,,,,FEW,2000,,,,,,,VFR,,,,,,,,,,,,METAR,5.0
KLND 221453Z AUTO VRB04KT 10SM CLR 06/M02 A3000 RMK AO2 SLP140 T00561017 51002,KLND,2018-03-22T14:53:00Z,42.82,-108.73,5.6,-1.7,0,4,,10.0,30.0,1014.0,,TRUE,TRUE,,,,,,,CLR,,,,,,,,VFR,0.2,,,,,,,,,,,METAR,1694.0
PKMR 221453Z 10010KT 15SM FEW015 SCT050 BKN120 OVC300 27/24 A2972 RMK SLP066 8/878 T02690239 57015,PKMR,2018-03-22T14:53:00Z,7.08,171.38,26.9,23.9,100,10,,15.0,29.719488,1006.6,,,,,,,,,,FEW,1500,SCT,5000,BKN,12000,OVC,30000,VFR,-1.5,,,,,,,,,,,METAR,4.0
KTCS 221453Z AUTO 32006KT 10SM CLR 16/M02 A3023 RMK AO2 SLP171 T01611017 53013,KTCS,2018-03-22T14:53:00Z,33.23,-107.27,16.1,-1.7,320,6,,10.0,30.230314,1017.1,,TRUE,TRUE,,,,,,,CLR,,,,,,,,VFR,1.3,,,,,,,,,,,METAR,1469.0
KNIP 221453Z 34011KT 10SM CLR 11/M01 A3025 RMK AO2 SLP238 T01061011 50015 $,KNIP,2018-03-22T14:53:00Z,30.22,-81.67,10.6,-1.1,340,11,,10.0,30.250984,1023.8,,,TRUE,TRUE,,,,,,CLR,,,,,,,,VFR,1.5,,,,,,,,,,,METAR,7.0
KOQT 221453Z AUTO VRB03KT 10SM CLR 06/M02 A3029 RMK AO2 SLP268 T00561022 51010,KOQT,2018-03-22T14:53:00Z,36.02,-84.23,5.6,-2.2,0,3,,10.0,30.28937,1026.8,,TRUE,TRUE,,,,,,,CLR,,,,,,,,VFR,1.0,,,,,,,,,,,METAR,277.0
KNQX 221453Z 01017KT 10SM FEW035 20/11 A3024 RMK AO2 SLP237 T02000106 51020,KNQX,2018-03-22T14:53:00Z,24.57,-81.67,20.0,10.6,10,17,,10.0,30.239174,1023.7,,,TRUE,,,,,,,FEW,3500,,,,,,,VFR,2.0,,,,,,,,,,,METAR,2.0
KMWT 221453Z AUTO 00000KT 8SM CLR 09/04 A3035 RMK AO2 SLP281 T00890044 53016,KMWT,2018-03-22T14:53:00Z,34.55,-93.58,8.9,4.4,0,0,,8.0,30.351377,1028.1,,TRUE,TRUE,,,,,,,CLR,,,,,,,,VFR,1.6,,,,,,,,,,,METAR,214.0
KTUP 221453Z VRB03KT 10SM CLR 09/M02 A3040 RMK AO2 SLP296 I3000 T00941017 51019,KTUP,2018-03-22T14:53:00Z,34.27,-88.77,9.4,-1.7,0,3,,10.0,30.398623,1029.6,,,TRUE,,,,,,,CLR,,,,,,,,VFR,1.9,,,,,,,,,,,METAR,105.0
PAKW 221453Z AUTO 04005KT 10SM -RA OVC031 04/02 A2938 RMK UPB18E19 SLP949 P0002 60003 T00390022 56024 TSNO VIA AUTODIAL,PAKW,2018-03-22T14:53:00Z,55.58,-133.07,3.9,2.2,40,5,,10.0,29.379921,994.9,,TRUE,,,,TRUE,,,-RA,OVC,3100,,,,,,,VFR,-2.4,,,,,0.02,0.03,,,,,METAR,15.0
KBMQ 221453Z AUTO 18008G16KT 10SM CLR 17/13 A3028 RMK AO2 SLP244 T01720128 53012,KBMQ,2018-03-22T14:53:00Z,30.73,-98.23,17.2,12.8,180,8,16,10.0,30.280512,1024.4,,TRUE,TRUE,,,,,,,CLR,,,,,,,,VFR,1.2,,,,,,,,,,,SPECI,389.0
KBMG 221453Z 33006KT 10SM CLR 03/M06 A3033 RMK AO2 SLP277 T00281056 51017,KBMG,2018-03-22T14:53:00Z,39.15,-86.62,2.8,-5.6,330,6,,10.0,30.33071,1027.7,,,TRUE,,,,,,,CLR,,,,,,,,VFR,1.7,,,,,,,,,,,METAR,257.0
KBLI 221453Z 00000KT 10SM -RA OVC021 09/07 A2944 RMK AO2 RAB22 SLP974 P0000 60000 T00890072 55013,KBLI,2018-03-22T14:53:00Z,48.8,-122.53,8.9,7.2,0,0,,10.0,29.438976,997.4,,,TRUE,,,,,,-RA,OVC,2100,,,,,,,MVFR,-1.3,,,,,0.005,,,,,,SPECI,50.0
KBKV 221453Z 32011KT 10SM CLR 14/M01 A3027 RMK AO2 SLP250 T01441006 50008,KBKV,2018-03-22T14:53:00Z,28.47,-82.45,14.4,-0.6,320,11,,10.0,30.268702,1025.0,,,TRUE,,,,,,,CLR,,,,,,,,VFR,0.8,,,,,,,,,,,METAR,20.0
KBKL 221453Z 31014KT 10SM SCT025 02/M04 A3021 RMK AO2 SLP234 T00171039 52016,KBKL,2018-03-22T14:53:00Z,41.53,-81.67,1.7,-3.9,310,14,,10.0,30.209646,1023.4,,,TRUE,,,,,,,SCT,2500,,,,,,,VFR,1.6,,,,,,,,,,,METAR,184.0
KDVT 221453Z 06005KT 10SM CLR 21/M04 A3004 RMK AO2 SLP153 T02111039 53010,KDVT,2018-03-22T14:53:00Z,33.68,-112.07,21.1,-3.9,60,5,,10.0,30.041338,1015.3,,,TRUE,,,,,,,CLR,,,,,,,,VFR,1.0,,,,,,,,,,,METAR,443.0
KDUJ 221453Z AUTO 30009KT 10SM CLR M02/M08 A3002 RMK AO2 SLP184 T10171083 51010 TSNO,KDUJ,2018-03-22T14:53:00Z,41.17,-78.9,-1.7,-8.3,300,9,,10.0,30.02067,1018.4,,TRUE,TRUE,,,TRUE,,,,CLR,,,,,,,,VFR,1.0,,,,,,,,,,,METAR,554.0
KDTW 221453Z 31008KT 10SM SCT240 03/M11 A3025 RMK AO2 SLP250 T00281106 51012,KDTW,2018-03-22T14:53:00Z,42.23,-83.33,2.8,-10.6,310,8,,10.0,30.250984,1025.0,,,TRUE,,,,,,,SCT,24000,,,,,,,VFR,1.2,,,,,,,,,,,METAR,195.0
KDTS 221453Z 01010KT 10SM CLR 13/M02 A3035 RMK AO2 SLP278 T01331017 51011 $,KDTS,2018-03-22T14:53:00Z,30.4,-86.47,13.3,-1.7,10,10,,10.0,30.351377,1027.8,,,TRUE,TRUE,,,,,,CLR,,,,,,,,VFR,1.1,,,,,,,,,,,METAR,5.0
KDTO 221453Z 16012KT 10SM CLR 17/09 A3026 RMK AO2 SLP244 T01720094 51014,KDTO,2018-03-22T14:53:00Z,33.2,-97.2,17.2,9.4,160,12,,10.0,30.259842,1024.4,,,TRUE,,,,,,,CLR,,,,,,,,VFR,1.4,,,,,,,,,,,METAR,196.0
KDTN 221453Z 13006KT 10SM CLR 15/05 A3037 RMK AO2 SLP284 T01500050 51018,KDTN,2018-03-22T14:53:00Z,32.55,-93.75,15.0,5.0,130,6,,10.0,30.369095,1028.4,,,TRUE,,,,,,,CLR,,,,,,,,VFR,1.8,,,,,,,,,,,METAR,53.0
KDRT 221453Z AUTO 11011KT 10SM BKN018 17/13 A3021 RMK AO2 SLP219 T01670128 $,KDRT,2018-03-22T14:53:00Z,29.37,-100.92,16.7,12.8,110,11,,10.0,30.209646,1021.9,,TRUE,TRUE,TRUE,,,,,,BKN,1800,,,,,,,MVFR,,,,,,,,,,,,METAR,313.0
KDRO 221453Z AUTO VRB03KT 10SM CLR 04/M02 A3027 RMK AO2 SLP233 T00441017 51008,KDRO,2018-03-22T14:53:00Z,37.15,-107.77,4.4,-1.7,0,3,,10.0,30.268702,1023.3,,TRUE,TRUE,,,,,,,CLR,,,,,,,,VFR,0.8,,,,,,,,,,,METAR,2035.0
KDNL 221453Z AUTO CLR A3022 RMK AO2 SLPNO 6//// 51013 PWINO FZRANO RVRNO PNO $,KDNL,2018-03-22T14:53:00Z,33.47,-82.03,,,,,,,30.221457,,,TRUE,TRUE,TRUE,,,TRUE,TRUE,,CLR,,,,,,,,,1.3,,,,,,,,,,,METAR,130.0
KDMO 221453Z AUTO 13007KT 10SM SCT100 BKN120 08/02 A3035 RMK AO2 SLP281 T00780022 52013,KDMO,2018-03-22T14:53:00Z,38.72,-93.17,7.8,2.2,130,7,,10.0,30.351377,1028.1,,TRUE,TRUE,,,,,,,SCT,10000,BKN,12000,,,,,VFR,1.3,,,,,,,,,,,METAR,274.0
KDMN 221453Z AUTO 00000KT 10SM CLR 11/M02 A3022 RMK AO2 SLP186 T01061017 53014,KDMN,2018-03-22T14:53:00Z,32.27,-107.72,10.6,-1.7,0,0,,10.0,30.221457,1018.6,,TRUE,TRUE,,,,,,,CLR,,,,,,,,VFR,1.4,,,,,,,,,,,METAR,1311.0
KDLN 221453Z AUTO 24003KT 10SM BKN080 BKN100 02/00 A2987 RMK AO2 SLP116 T00170000 55007,KDLN,2018-03-22T14:53:00Z,45.25,-112.55,1.7,0.0,240,3,,10.0,29.870079,1011.6,,TRUE,TRUE,,,,,,,BKN,8000,BKN,10000,,,,,VFR,-0.7,,,,,,,,,,,METAR,1591.0
KDKK 221453Z AUTO 29007KT 10SM CLR M02/M07 A3012 RMK AO2 SLP209 T10171067 51013,KDKK,2018-03-22T14:53:00Z,42.5,-79.28,-1.7,-6.7,290,7,,10.0,30.121063,1020.9,,TRUE,TRUE,,,,,,,CLR,,,,,,,,VFR,1.3,,,,,,,,,,,METAR,202.0
KDHT 221453Z AUTO 30006KT 10SM CLR 12/M05 A3013 RMK AO2 SLP179 T01171050 53014,KDHT,2018-03-22T14:53:00Z,36.02,-102.55,11.7,-5.0,300,6,,10.0,30.129921,1017.9,,TRUE,TRUE,,,,,,,CLR,,,,,,,,VFR,1.4,,,,,,,,,,,METAR,1217.0
KDHN 221453Z 01012G17KT 10SM CLR 11/M02 A3036 RMK AO2 SLP279 6//// T01061022 50009 $,KDHN,2018-03-22T14:53:00Z,31.32,-85.45,10.6,-2.2,10,12,17,10.0,30.360237,1027.9,,,TRUE,TRUE,,,,,,CLR,,,,,,,,VFR,0.9,,,,,,,,,,,METAR,113.0
KDGW 221453Z AUTO 18003KT 10SM BKN110 05/01 A3006 RMK AO2 SLP178 T00500006 53007,KDGW,2018-03-22T14:53:00Z,42.8,-105.38,5.0,0.6,180,3,,10.0,30.059055,1017.8,,TRUE,TRUE,,,,,,,BKN,11000,,,,,,,VFR,0.7,,,,,,,,,,,METAR,1499.0
KDFW 221453Z 17008KT 10SM FEW005 FEW300 17/08 A3026 RMK AO2 SLP241 FU FEW005 W-NW T01720083 51014,KDFW,2018-03-22T14:53:00Z,32.9,-97.02,17.2,8.3,170,8,,10.0,30.259842,1024.1,,,TRUE,,,,,,,FEW,500,FEW,30000,,,,,VFR,1.4,,,,,,,,,,,METAR,174.0
KDFI 221453Z AUTO VRB03KT 10SM CLR 02/M11 A3028 RMK AO2 SLP262 T00171111 51016,KDFI,2018-03-22T14:53:00Z,41.33,-84.43,1.7,-11.1,0,3,,10.0,30.280512,1026.2,,TRUE,TRUE,,,,,,,CLR,,,,,,,,VFR,1.6,,,,,,,,,,,METAR,219.0
KDEW 221453Z AUTO 03009KT 10SM 06/05 A2962 RMK AO2 RAB27E40 SLP036 P0000 60000 T00610050 56013 PWINO $,KDEW,2018-03-22T14:53:00Z,47.97,-117.43,6.1,5.0,30,9,,10.0,29.619095,1003.6,,TRUE,TRUE,TRUE,,,,TRUE,,,,,,,,,,,-1.3,,,,,0.005,,,,,,SPECI,674.0
KDET 221453Z 32007KT 10SM CLR 02/M09 A3024 RMK AO2 SLP247 T00171094 51011,KDET,2018-03-22T14:53:00Z,42.4,-83.02,1.7,-9.4,320,7,,10.0,30.239174,1024.7,,,TRUE,,,,,,,CLR,,,,,,,,VFR,1.1,,,,,,,,,,,METAR,190.0
KDEQ 221453Z AUTO 10005KT 10SM SCT120 13/03 A3035 RMK AO2 SLP277 T01280033 50016,KDEQ,2018-03-22T14:53:00Z,34.05,-94.4,12.8,3.3,100,5,,10.0,30.351377,1027.7,,TRUE,TRUE,,,,,,,SCT,12000,,,,,,,VFR,1.6,,,,,,,,,,,METAR,106.0
KDEN 221453Z 23009KT 10SM FEW090 FEW120 SCT220 11/M03 A3012 RMK AO2 SLP163 T01111028 53007,KDEN,2018-03-22T14:53:00Z,39.85,-104.65,11.1,-2.8,230,9,,10.0,30.121063,1016.3,,,TRUE,,,,,,,FEW,9000,FEW,12000,SCT,22000,,,VFR,0.7,,,,,,,,,,,SPECI,1640.0
KDCU 221453Z AUTO 34009KT 10SM CLR 08/M03 A3038 RMK AO2 SLP289 T00831028 51021,KDCU,2018-03-22T14:53:00Z,34.65,-86.95,8.3,-2.8,340,9,,10.0,30.380905,1028.9,,TRUE,TRUE,,,,,,,CLR,,,,,,,,VFR,2.1,,,,,,,,,,,METAR,176.0
KDBQ 221453Z 05004KT 10SM CLR 02/M07 A3035 RMK AO2 SLP290 T00221072 51014,KDBQ,2018-03-22T14:53:00Z,42.4,-90.7,2.2,-7.2,50,4,,10.0,30.351377,1029.0,,,TRUE,,,,,,,CLR,,,,,,,,VFR,1.4,,,,,,,,,,,METAR,326.0
KDAN 221453Z AUTO 34012G18KT 10SM CLR 04/M06 A3012 RMK AO2 SLP196 T00441056 51023,KDAN,2018-03-22T14:53:00Z,36.57,-79.33,4.4,-5.6,340,12,18,10.0,30.121063,1019.6,,TRUE,TRUE,,,,,,,CLR,,,,,,,,VFR,2.3,,,,,,,,,,,METAR,175.0
KDAL 221453Z 15011KT 10SM FEW090 FEW250 16/08 A3028 RMK AO2 SLP251 T01610083 51016,KDAL,2018-03-22T14:53:00Z,32.85,-96.85,16.1,8.3,150,11,,10.0,30.280512,1025.1,,,TRUE,,,,,,,FEW,9000,FEW,25000,,,,,VFR,1.6,,,,,,,,,,,METAR,158.0
KDAB 221453Z 33012KT 10SM CLR 13/M01 A3024 RMK AO2 SLP239 T01331011 51014,KDAB,2018-03-22T14:53:00Z,29.18,-81.07,13.3,-1.1,330,12,,10.0,30.239174,1023.9,,,TRUE,,,,,,,CLR,,,,,,,,VFR,1.4,,,,,,,,,,,METAR,9.0
KCYS 221453Z 28009KT 10SM OVC100 09/M01 A3011 RMK AO2 SLP167 T00891011 50006,KCYS,2018-03-22T14:53:00Z,41.15,-104.8,8.9,-1.1,280,9,,10.0,30.109253,1016.7,,,TRUE,,,,,,,OVC,10000,,,,,,,VFR,0.6,,,,,,,,,,,SPECI,1868.0
KCXO 221453Z 13007KT 10SM CLR 17/12 A3034 RMK AO2 SLP273 T01720117 53019,KCXO,2018-03-22T14:53:00Z,30.35,-95.42,17.2,11.7,130,7,,10.0,30.339567,1027.3,,,TRUE,,,,,,,CLR,,,,,,,,VFR,1.9,,,,,,,,,,,METAR,75.0
KCUT 221453Z AUTO 04005KT 10SM CLR 06/M05 A3006 RMK AO2 SLP181 T00561050 51005,KCUT,2018-03-22T14:53:00Z,43.73,-103.62,5.6,-5.0,40,5,,10.0,30.059055,1018.1,,TRUE,TRUE,,,,,,,CLR,,,,,,,,VFR,0.5,,,,,,,,,,,METAR,1725.0
KCUB 221453Z AUTO 30009KT 10SM CLR 09/M05 A3020 RMK AO2 SLP227 T00891050 50014,KCUB,2018-03-22T14:53:00Z,33.97,-81.0,8.9,-5.0,300,9,,10.0,30.200787,1022.7,,TRUE,TRUE,,,,,,,CLR,,,,,,,,VFR,1.4,,,,,,,,,,,METAR,56.0
KCSV 221453Z AUTO 35008KT 10SM CLR 03/M06 A3027 RMK AO2 SLP262 T00281056 53016,KCSV,2018-03-22T14:53:00Z,35.95,-85.08,2.8,-5.6,350,8,,10.0,30.268702,1026.2,,TRUE,TRUE,,,,,,,CLR,,,,,,,,VFR,1.6,,,,,,,,,,,METAR,570.0
KCSM 221453Z 17020G29KT 10SM CLR 14/03 A3012 RMK AO2 PK WND 18029/1450 SLP191 T01390028 50000,KCSM,2018-03-22T14:53:00Z,35.35,-99.2,13.9,2.8,170,20,29,10.0,30.121063,1019.1,,,TRUE,,,,,,,CLR,,,,,,,,VFR,0.0,,,,,,,,,,,METAR,588.0
KCRS 221453Z AUTO 16010KT 10SM CLR 16/09 A3032 RMK AO2 SLP265 T01610094 51020,KCRS,2018-03-22T14:53:00Z,32.03,-96.4,16.1,9.4,160,10,,10.0,30.318897,1026.5,,TRUE,TRUE,,,,,,,CLR,,,,,,,,VFR,2.0,,,,,,,,,,,SPECI,133.0
KCRQ 221453Z 18003KT 10SM BKN120 17/12 A3002 RMK AO2 SLP164 60000 T01670122 51024,KCRQ,2018-03-22T14:53:00Z,33.13,-117.28,16.7,12.2,180,3,,10.0,30.02067,1016.4,,,TRUE,,,,,,,BKN,12000,,,,,,,VFR,2.4,,,,,,0.005,,,,,METAR,99.0
KCRG 221453Z 30010KT 10SM CLR 11/M01 A3024 RMK AO2 SLP240 T01111006 50017,KCRG,2018-03-22T14:53:00Z,30.33,-81.52,11.1,-0.6,300,10,,10.0,30.239174,1024.0,,,TRUE,,,,,,,CLR,,,,,,,,VFR,1.7,,,,,,,,,,,METAR,13.0
KCRE 221453Z 35009G22KT 10SM CLR 08/M03 A3012 RMK AO1 SLP201 T00831028 50010,KCRE,2018-03-22T14:53:00Z,33.82,-78.72,8.3,-2.8,350,9,22,10.0,30.121063,1020.1,,,TRUE,,,,,,,CLR,,,,,,,,VFR,1.0,,,,,,,,,,,METAR,10.0
KCPS 221453Z 00000KT 10SM FEW100 06/M01 A3039 RMK AO2 SLP292 T00561006 51019,KCPS,2018-03-22T14:53:00Z,38.57,-90.15,5.6,-0.6,0,0,,10.0,30.389763,1029.2,,,TRUE,,,,,,,FEW,10000,,,,,,,VFR,1.9,,,,,,,,,,,METAR,126.0
KCPR 221453Z 21008KT 10SM CLR 09/M01 A3002 RMK AO2 SLP147 T00891006 56002,KCPR,2018-03-22T14:53:00Z,42.9,-106.47,8.9,-0.6,210,8,,10.0,30.02067,1014.7,,,TRUE,,,,,,,CLR,,,,,,,,VFR,-0.2,,,,,,,,,,,METAR,1621.0
KCOT 221453Z AUTO 14013G17KT 10SM CLR 20/15 A3024 RMK AO2 SLP234 T02000150 51019,KCOT,2018-03-22T14:53:00Z,28.45,-99.22,20.0,15.0,140,13,17,10.0,30.239174,1023.4,,TRUE,TRUE,,,,,,,CLR,,,,,,,,VFR,1.9,,,,,,,,,,,METAR,140.0
KCNY 221453Z AUTO 13007KT 10SM SCT110 10/01 A3010 RMK AO2 SLP173 T01000006 53009,KCNY,2018-03-22T14:53:00Z,38.77,-109.75,10.0,0.6,130,7,,10.0,30.100393,1017.3,,TRUE,TRUE,,,,,,,SCT,11000,,,,,,,VFR,0.9,,,,,,,,,,,METAR,1390.0
KCNO 221453Z 31006KT 10SM -RA FEW060 OVC095 17/14 A3002 RMK AO2 RAB39 SLP160 P0000 60000 T01670139 53015,KCNO,2018-03-22T14:53:00Z,33.98,-117.62,16.7,13.9,310,6,,10.0,30.02067,1016.0,,,TRUE,,,,,,-RA,FEW,6000,OVC,9500,,,,,VFR,1.5,,,,,0.005,,,,,,SPECI,207.0
KCNM 221453Z AUTO VRB04KT 10SM CLR 15/06 A3014 RMK AO2 SLP169 T01500061 51014 $,KCNM,2018-03-22T14:53:00Z,32.33,-104.25,15.0,6.1,0,4,,10.0,30.138779,1016.9,,TRUE,TRUE,TRUE,,,,,,CLR,,,,,,,,VFR,1.4,,,,,,,,,,,METAR,985.0
KDXR 221453Z 32012KT 10SM CLR 03/M06 A2977 RMK AO2 SLP085 T00331056 51012,KDXR,2018-03-22T14:53:00Z,41.37,-73.48,3.3,-5.6,320,12,,10.0,29.769686,1008.5,,,TRUE,,,,,,,CLR,,,,,,,,VFR,1.2,,,,,,,,,,,METAR,139.0
KDWH 221453Z 12005KT 10SM CLR 18/13 A3033 RMK AO2 SLP270 T01830128 53020,KDWH,2018-03-22T14:53:00Z,30.07,-95.55,18.3,12.8,120,5,,10.0,30.33071,1027.0,,,TRUE,,,,,,,CLR,,,,,,,,VFR,2.0,,,,,,,,,,,METAR,46.0
KEQY 221453Z AUTO 31010G16KT 10SM CLR 07/M06 A3014 RMK AO2 SLP224 T00671056 51015,KEQY,2018-03-22T14:53:00Z,35.02,-80.62,6.7,-5.6,310,10,16,10.0,30.138779,1022.4,,TRUE,TRUE,,,,,,,CLR,,,,,,,,VFR,1.5,,,,,,,,,,,METAR,212.0
KENW 221453Z 30005KT 10SM CLR 03/M07 A3034 RMK AO2 SLP284 T00281072 51010,KENW,2018-03-22T14:53:00Z,42.6,-87.93,2.8,-7.2,300,5,,10.0,30.339567,1028.4,,,TRUE,,,,,,,CLR,,,,,,,,VFR,1.0,,,,,,,,,,,METAR,219.0
KEMP 221453Z AUTO 16012KT 10SM CLR 09/01 A3022 RMK AO2 SLP239 T00940011 51006,KEMP,2018-03-22T14:53:00Z,38.33,-96.2,9.4,1.1,160,12,,10.0,30.221457,1023.9,,TRUE,TRUE,,,,,,,CLR,,,,,,,,VFR,0.6,,,,,,,,,,,METAR,367.0
KELN 221453Z AUTO 19003KT 3SM BR SCT023 BKN049 OVC095 06/04 A2949 RMK AO2 SLP992 T00610044,KELN,2018-03-22T14:53:00Z,47.03,-120.53,6.1,4.4,190,3,,3.0,29.489174,999.2,,TRUE,TRUE,,,,,,BR,SCT,2300,BKN,4900,OVC,9500,,,MVFR,,,,,,,,,,,,METAR,519.0
KELM 221453Z 34013KT 10SM CLR 02/M08 A2999 RMK AO2 SLP167 T00221078 51012,KELM,2018-03-22T14:53:00Z,42.15,-76.9,2.2,-7.8,340,13,,10.0,29.991142,1016.7,,,TRUE,,,,,,,CLR,,,,,,,,VFR,1.2,,,,,,,,,,,METAR,302.0
KELD 221453Z AUTO 18004KT 10SM CLR 13/06 A3039 RMK AO2 SLP292 T01280056 51020,KELD,2018-03-22T14:53:00Z,33.22,-92.82,12.8,5.6,180,4,,10.0,30.389763,1029.2,,TRUE,TRUE,,,,,,,CLR,,,,,,,,VFR,2.0,,,,,,,,,,,METAR,81.0
KEET 221453Z AUTO 34007G15KT 10SM CLR 09/M01 A3037 RMK AO2 SLP285 T00941011 51021,KEET,2018-03-22T14:53:00Z,33.18,-86.78,9.4,-1.1,340,7,15,10.0,30.369095,1028.5,,TRUE,TRUE,,,,,,,CLR,,,,,,,,VFR,2.1,,,,,,,,,,,METAR,173.0
KEEO 221453Z AUTO 00000KT 10SM OVC080 08/01 A3014 RMK AO2 SLP179 T00780011 51005,KEEO,2018-03-22T14:53:00Z,40.05,-107.88,7.8,1.1,0,0,,10.0,30.138779,1017.9,,TRUE,TRUE,,,,,,,OVC,8000,,,,,,,VFR,0.5,,,,,,,,,,,METAR,1930.0
KECP 221453Z 36011KT 10SM CLR 12/M01 A3033 RMK AO2 SLP282 T01221006 50010,KECP,2018-03-22T14:53:00Z,30.35,-85.8,12.2,-0.6,360,11,,10.0,30.33071,1028.2,,,TRUE,,,,,,,CLR,,,,,,,,VFR,1.0,,,,,,,,,,,METAR,21.0
KAPA 221453Z 16003KT 10SM FEW080 FEW120 FEW220 09/M02 A3014 RMK AO2 SLP188 T00941017 53007,KAPA,2018-03-22T14:53:00Z,39.57,-104.85,9.4,-1.7,160,3,,10.0,30.138779,1018.8,,,TRUE,,,,,,,FEW,8000,FEW,12000,FEW,22000,,,VFR,0.7,,,,,,,,,,,SPECI,1775.0
KAOO 221453Z AUTO 30014KT 10SM CLR M01/M08 A3002 RMK AO2 SLP180 T10061078 51012,KAOO,2018-03-22T14:53:00Z,40.3,-78.32,-0.6,-7.8,300,14,,10.0,30.02067,1018.0,,TRUE,TRUE,,,,,,,CLR,,,,,,,,VFR,1.2,,,,,,,,,,,METAR,455.0
KAOH 221453Z AUTO 32006KT 10SM CLR M01/M08 A3025 RMK AO2 SLP255 T10061078 51017 $,KAOH,2018-03-22T14:53:00Z,40.7,-84.02,-0.6,-7.8,320,6,,10.0,30.250984,1025.5,,TRUE,TRUE,TRUE,,,,,,CLR,,,,,,,,VFR,1.7,,,,,,,,,,,METAR,296.0
KANB 221453Z AUTO 34008G15KT 10SM CLR 08/M04 A3035 RMK AO2 SLP283 T00831039 53017,KANB,2018-03-22T14:53:00Z,33.58,-85.85,8.3,-3.9,340,8,15,10.0,30.351377,1028.3,,TRUE,TRUE,,,,,,,CLR,,,,,,,,VFR,1.7,,,,,,,,,,,METAR,183.0
KAMW 221453Z AUTO 13006KT 10SM SCT044 OVC055 01/M02 A3033 RMK AO2 SLP277 T00111022 51005,KAMW,2018-03-22T14:53:00Z,41.98,-93.62,1.1,-2.2,130,6,,10.0,30.33071,1027.7,,TRUE,TRUE,,,,,,,SCT,4400,OVC,5500,,,,,VFR,0.5,,,,,,,,,,,METAR,279.0
KAMG 221453Z AUTO 33011KT 10SM CLR 09/M03 A3025 RMK AO2 SLP242 T00941028 51010,KAMG,2018-03-22T14:53:00Z,31.53,-82.5,9.4,-2.8,330,11,,10.0,30.250984,1024.2,,TRUE,TRUE,,,,,,,CLR,,,,,,,,VFR,1.0,,,,,,,,,,,METAR,59.0
KAMA 221453Z 21007KT 10SM CLR 13/00 A3013 RMK AO2 SLP176 T01330000 53012,KAMA,2018-03-22T14:53:00Z,35.22,-101.72,13.3,0.0,210,7,,10.0,30.129921,1017.6,,,TRUE,,,,,,,CLR,,,,,,,,VFR,1.2,,,,,,,,,,,METAR,1093.0
KALW 221453Z 19013G19KT 10SM OVC100 14/07 A2953 RMK AO2 RAB1357E12 SLP000 P0000 60000 T01440072 55008,KALW,2018-03-22T14:53:00Z,46.1,-118.28,14.4,7.2,190,13,19,10.0,29.530512,1000.0,,,TRUE,,,,,,,OVC,10000,,,,,,,VFR,-0.8,,,,,0.005,0.005,,,,,METAR,363.0
KALI 221453Z AUTO 13012KT 10SM OVC070 21/16 A3026 RMK AO2 SLP246 T02110161 53020,KALI,2018-03-22T14:53:00Z,27.73,-98.02,21.1,16.1,130,12,,10.0,30.259842,1024.6,,TRUE,TRUE,,,,,,,OVC,7000,,,,,,,VFR,2.0,,,,,,,,,,,METAR,53.0
KAKO 221453Z AUTO 27011KT 10SM CLR 10/M03 A3011 RMK AO2 SLP183 T01001028 53010,KAKO,2018-03-22T14:53:00Z,40.17,-103.22,10.0,-2.8,270,11,,10.0,30.109253,1018.3,,TRUE,TRUE,,,,,,,CLR,,,,,,,,VFR,1.0,,,,,,,,,,,METAR,1421.0
KAIA 221453Z AUTO 01004KT 10SM CLR 06/00 A3006 RMK AO2 SLP179 T00610000 51008,KAIA,2018-03-22T14:53:00Z,42.05,-102.8,6.1,0.0,10,4,,10.0,30.059055,1017.9,,TRUE,TRUE,,,,,,,CLR,,,,,,,,VFR,0.8,,,,,,,,,,,METAR,1196.0
KAGS 221453Z 32011KT 10SM CLR 09/M03 A3022 RMK AO2 SLP234 T00891028 50010,KAGS,2018-03-22T14:53:00Z,33.37,-81.97,8.9,-2.8,320,11,,10.0,30.221457,1023.4,,,TRUE,,,,,,,CLR,,,,,,,,VFR,1.0,,,,,,,,,,,METAR,44.0
KAGC 221453Z 32006KT 10SM CLR M01/M04 A3011 RMK AO2 SLP217 T10111044 51014,KAGC,2018-03-22T14:53:00Z,40.35,-79.92,-1.1,-4.4,320,6,,10.0,30.109253,1021.7,,,TRUE,,,,,,,CLR,,,,,,,,VFR,1.4,,,,,,,,,,,METAR,389.0
KAFW 221453Z 17015G20KT 10SM BKN300 17/10 A3026 RMK AO2 SLP241 T01720100 51013,KAFW,2018-03-22T14:53:00Z,32.97,-97.32,17.2,10.0,170,15,20,10.0,30.259842,1024.1,,,TRUE,,,,,,,BKN,30000,,,,,,,VFR,1.3,,,,,,,,,,,METAR,233.0
KAEX 221453Z 13009KT 10SM CLR 13/06 A3038 RMK AO2 SLP291 T01330056 51016,KAEX,2018-03-22T14:53:00Z,31.33,-92.57,13.3,5.6,130,9,,10.0,30.380905,1029.1,,,TRUE,,,,,,,CLR,,,,,,,,VFR,1.6,,,,,,,,,,,METAR,27.0
KADG 221453Z AUTO 35010KT 10SM CLR 02/M13 A3026 RMK AO2 SLP259 T00171133 51012 TSNO,KADG,2018-03-22T14:53:00Z,41.87,-84.08,1.7,-13.3,350,10,,10.0,30.259842,1025.9,,TRUE,TRUE,,,TRUE,,,,CLR,,,,,,,,VFR,1.2,,,,,,,,,,,METAR,241.0
KACK 221453Z COR 36024G37KT 10SM -RASN BKN012 BKN017 OVC025 03/02 A2954 RMK AO2 PK WND 36037/1451 RAE48UPB51SNE48 SLP004 P0000 60006 T00280022 51016,KACK,2018-03-22T14:53:00Z,41.25,-70.07,2.8,2.2,360,24,37,10.0,29.53937,1000.4,TRUE,,TRUE,,,,,,-RA -SN,BKN,1200,BKN,1700,OVC,2500,,,MVFR,1.6,,,,,0.005,,,,,,SPECI,16.0
KABY 221453Z 35007KT 10SM CLR 10/M03 A3033 RMK AO2 SLP270 T01001033 51010,KABY,2018-03-22T14:53:00Z,31.53,-84.2,10.0,-3.3,350,7,,10.0,30.33071,1027.0,,,TRUE,,,,,,,CLR,,,,,,,,VFR,1.0,,,,,,,,,,,METAR,58.0
KABR 221453Z AUTO 04008KT 7SM CLR 02/01 A3026 RMK AO2 SLP260 6//// I3000 T00170006 50012 PWINO FZRANO PNO $,KABR,2018-03-22T14:53:00Z,45.45,-98.42,1.7,0.6,40,8,,7.0,30.259842,1026.0,,TRUE,TRUE,TRUE,,,TRUE,TRUE,,CLR,,,,,,,,VFR,1.2,,,,,,,,,,,METAR,397.0
KAAF 221453Z AUTO 01011KT 10SM CLR 13/M01 A3032 RMK AO2 SLP268 T01331006 51012,KAAF,2018-03-22T14:53:00Z,29.73,-85.03,13.3,-0.6,10,11,,10.0,30.318897,1026.8,,TRUE,TRUE,,,,,,,CLR,,,,,,,,VFR,1.2,,,,,,,,,,,METAR,5.0
KBPK 221453Z AUTO 16007KT 10SM CLR 08/01 A3037 RMK AO2 SLP284 T00780011 51015,KBPK,2018-03-22T14:53:00Z,36.37,-92.47,7.8,1.1,160,7,,10.0,30.369095,1028.4,,TRUE,TRUE,,,,,,,CLR,,,,,,,,VFR,1.5,,,,,,,,,,,METAR,280.0
KBPI 221453Z AUTO 00000KT M1/4SM FZFG VV002 M01/M01 A3007 RMK AO2 SLP169 T10061006 58004,KBPI,2018-03-22T14:53:00Z,42.58,-110.1,-0.6,-0.6,0,0,,0.25,30.070866,1016.9,,TRUE,TRUE,,,,,,FZFG,OVX,0,,,,,,,LIFR,-0.4,,,,,,,,,,200,SPECI,2117.0
KBOI 221453Z 13011KT 9SM -RA FEW046 OVC055 09/07 A2971 RMK AO2 SLP054 P0007 60011 T00940067 58006,KBOI,2018-03-22T14:53:00Z,43.57,-116.23,9.4,6.7,130,11,,9.0,29.71063,1005.4,,,TRUE,,,,,,-RA,FEW,4600,OVC,5500,,,,,VFR,-0.6,,,,,0.07,0.11,,,,,METAR,875.0
KBNO 221453Z AUTO 07004KT 10SM FEW030 OVC085 06/04 A2962 RMK AO2 RAE26 SLP028 P0000 60001 T00560044 56007 $,KBNO,2018-03-22T14:53:00Z,43.6,-118.95,5.6,4.4,70,4,,10.0,29.619095,1002.8,,TRUE,TRUE,TRUE,,,,,,FEW,3000,OVC,8500,,,,,VFR,-0.7,,,,,0.005,0.01,,,,,METAR,1264.0
KBNA 221453Z 32009G16KT 10SM CLR 08/M03 A3037 RMK AO2 SLP286 T00781033 51022,KBNA,2018-03-22T14:53:00Z,36.12,-86.68,7.8,-3.3,320,9,16,10.0,30.369095,1028.6,,,TRUE,,,,,,,CLR,,,,,,,,VFR,2.2,,,,,,,,,,,METAR,210.0
KCAG 221453Z AUTO 26003KT 10SM BKN060 OVC075 04/01 A3015 RMK AO2 SLP203 T00390006 53003,KCAG,2018-03-22T14:53:00Z,40.5,-107.52,3.9,0.6,260,3,,10.0,30.15059,1020.3,,TRUE,TRUE,,,,,,,BKN,6000,OVC,7500,,,,,VFR,0.3,,,,,,,,,,,METAR,1887.0
KBYI 221453Z AUTO 03005KT 9SM BKN060 OVC095 07/04 A2981 RMK AO2 RAE40 SLP083 P0000 60001 T00670044 56017,KBYI,2018-03-22T14:53:00Z,42.55,-113.77,6.7,4.4,30,5,,9.0,29.811024,1008.3,,TRUE,TRUE,,,,,,,BKN,6000,OVC,9500,,,,,VFR,-1.7,,,,,0.005,0.01,,,,,METAR,1264.0
KBYG 221453Z AUTO 17004KT 10SM CLR 06/M03 A2999 RMK AO2 SLP157 T00611033 57004,KBYG,2018-03-22T14:53:00Z,44.38,-106.72,6.1,-3.3,170,4,,10.0,29.991142,1015.7,,TRUE,TRUE,,,,,,,CLR,,,,,,,,VFR,-0.4,,,,,,,,,,,METAR,1497.0
KBWG 221453Z AUTO VRB04KT 10SM CLR 06/M04 A3037 RMK AO2 SLP286 T00611044 51023,KBWG,2018-03-22T14:53:00Z,36.97,-86.42,6.1,-4.4,0,4,,10.0,30.369095,1028.6,,TRUE,TRUE,,,,,,,CLR,,,,,,,,VFR,2.3,,,,,,,,,,,METAR,168.0
KBVO 221453Z AUTO 16008KT 10SM CLR 14/M01 A3026 RMK AO2 SLP244 T01391006 53003,KBVO,2018-03-22T14:53:00Z,36.77,-96.02,13.9,-0.6,160,8,,10.0,30.259842,1024.4,,TRUE,TRUE,,,,,,,CLR,,,,,,,,VFR,0.3,,,,,,,,,,,METAR,210.0
KBUR 221453Z 08004KT 4SM RA BR BKN029 BKN034 OVC075 15/15 A2999 RMK AO2 SLP145 P0006 60009 T01500150 51012,KBUR,2018-03-22T14:53:00Z,34.2,-118.37,15.0,15.0,80,4,,4.0,29.991142,1014.5,,,TRUE,,,,,,RA BR,BKN,2900,BKN,3400,OVC,7500,,,MVFR,1.2,,,,,0.06,0.09,,,,,METAR,217.0
KBTR 221453Z 11008KT 10SM CLR 14/03 A3040 RMK AO2 SLP293 T01440033 51016,KBTR,2018-03-22T14:53:00Z,30.53,-91.15,14.4,3.3,110,8,,10.0,30.398623,1029.3,,,TRUE,,,,,,,CLR,,,,,,,,VFR,1.6,,,,,,,,,,,METAR,21.0
KBTM 221453Z AUTO 01003KT 10SM BKN110 02/M02 A2986 RMK AO2 SLP115 T00221017 56011,KBTM,2018-03-22T14:53:00Z,45.97,-112.5,2.2,-1.7,10,3,,10.0,29.861221,1011.5,,TRUE,TRUE,,,,,,,BKN,11000,,,,,,,VFR,-1.1,,,,,,,,,,,METAR,1688.0
KBTL 221453Z 30008KT 10SM CLR 02/M08 A3028 RMK AO2 SLP264 T00171083 51012 $,KBTL,2018-03-22T14:53:00Z,42.32,-85.23,1.7,-8.3,300,8,,10.0,30.280512,1026.4,,,TRUE,TRUE,,,,,,CLR,,,,,,,,VFR,1.2,,,,,,,,,,,METAR,290.0
KBRO 221453Z 13012KT 10SM BKN075 24/18 A3025 RMK AO2 SLP241 T02440183 53023,KBRO,2018-03-22T14:53:00Z,25.92,-97.42,24.4,18.3,130,12,,10.0,30.250984,1024.1,,,TRUE,,,,,,,BKN,7500,,,,,,,VFR,2.3,,,,,,,,,,,METAR,7.0
KBRL 221453Z AUTO 00000KT 10SM BKN090 04/M03 A3038 RMK AO2 SLP292 T00391028 51020,KBRL,2018-03-22T14:53:00Z,40.77,-91.13,3.9,-2.8,0,0,,10.0,30.380905,1029.2,,TRUE,TRUE,,,,,,,BKN,9000,,,,,,,VFR,2.0,,,,,,,,,,,METAR,211.0
KBRD 221453Z AUTO 12003KT 7SM OVC025 M01/M04 A3035 RMK AO2 SNB08E32 SLP294 P0000 60000 T10061044 51013,KBRD,2018-03-22T14:53:00Z,46.4,-94.13,-0.6,-4.4,120,3,,7.0,30.351377,1029.4,,TRUE,TRUE,,,,,,,OVC,2500,,,,,,,MVFR,1.3,,,,,0.005,0.005,,,,,METAR,372.0
KBPT 221453Z COR 09010KT 10SM CLR 19/11 A3035 RMK AO2 SLP277 T01890111 53019,KBPT,2018-03-22T14:53:00Z,29.95,-94.03,18.9,11.1,90,10,,10.0,30.351377,1027.7,TRUE,,TRUE,,,,,,,CLR,,,,,,,,VFR,1.9,,,,,,,,,,,METAR,5.0
KEVW 221453Z AUTO 00000KT 10SM OVC045 04/00 A3002 RMK AO2 SLP137 T00440000 56003,KEVW,2018-03-22T14:53:00Z,41.27,-111.03,4.4,0.0,0,0,,10.0,30.02067,1013.7,,TRUE,TRUE,,,,,,,OVC,4500,,,,,,,VFR,-0.3,,,,,,,,,,,METAR,2177.0
KESF 221453Z AUTO 13007KT 10SM CLR 14/06 A3039 RMK AO2 SLP291 T01390056 51018,KESF,2018-03-22T14:53:00Z,31.4,-92.28,13.9,5.6,130,7,,10.0,30.389763,1029.1,,TRUE,TRUE,,,,,,,CLR,,,,,,,,VFR,1.8,,,,,,,,,,,METAR,28.0
KJER 221453Z AUTO 05016KT 10SM BKN060 OVC075 08/06 A2979 RMK AO2 RAE47 SLP082 P0002 60005 T00780056 58017 TSNO,KJER,2018-03-22T14:53:00Z,42.72,-114.45,7.8,5.6,50,16,,10.0,29.790354,1008.2,,TRUE,TRUE,,,TRUE,,,,BKN,6000,OVC,7500,,,,,VFR,-1.7,,,,,0.02,,,,,,SPECI,1222.0
KJEF 221453Z 11003KT 10SM FEW070 BKN090 BKN110 04/01 A3038 RMK AO2 SLP283 T00390006 53018,KJEF,2018-03-22T14:53:00Z,38.6,-92.15,3.9,0.6,110,3,,10.0,30.380905,1028.3,,,TRUE,,,,,,,FEW,7000,BKN,9000,BKN,11000,,,VFR,1.8,,,,,,,,,,,METAR,168.0
KJBR 221453Z AUTO 14004KT 10SM FEW110 08/02 A3040 RMK AO2 SLP296 T00830022 51018 $,KJBR,2018-03-22T14:53:00Z,35.83,-90.65,8.3,2.2,140,4,,10.0,30.398623,1029.6,,TRUE,TRUE,TRUE,,,,,,FEW,11000,,,,,,,VFR,1.8,,,,,,,,,,,METAR,79.0
KIXD 221453Z 15009KT 10SM CLR 09/02 A3029 RMK AO2 SLP259 T00940017 53005,KIXD,2018-03-22T14:53:00Z,38.82,-94.88,9.4,1.7,150,9,,10.0,30.28937,1025.9,,,TRUE,,,,,,,CLR,,,,,,,,VFR,0.5,,,,,,,,,,,METAR,342.0
KITR 221453Z AUTO 32011KT 10SM CLR 12/M02 A3010 RMK AO2 SLP178 T01171017 53014,KITR,2018-03-22T14:53:00Z,39.23,-102.28,11.7,-1.7,320,11,,10.0,30.100393,1017.8,,TRUE,TRUE,,,,,,,CLR,,,,,,,,VFR,1.4,,,,,,,,,,,SPECI,1279.0
KIPL 221453Z AUTO 26005KT 10SM CLR 17/06 A2993 RMK AO2 SLP136 T01720061 51014,KIPL,2018-03-22T14:53:00Z,32.83,-115.58,17.2,6.1,260,5,,10.0,29.929134,1013.6,,TRUE,TRUE,,,,,,,CLR,,,,,,,,VFR,1.4,,,,,,,,,,,SPECI,-17.0
KINK 221453Z AUTO 16007KT 10SM CLR 16/06 A3013 RMK AO2 SLP171 T01560061 53014,KINK,2018-03-22T14:53:00Z,31.78,-103.2,15.6,6.1,160,7,,10.0,30.129921,1017.1,,TRUE,TRUE,,,,,,,CLR,,,,,,,,VFR,1.4,,,,,,,,,,,METAR,855.0
KIML 221453Z AUTO 10SM CLR 08/M02 A3008 RMK AO2 SLP192 T00831017 53006,KIML,2018-03-22T14:53:00Z,40.52,-101.62,8.3,-1.7,,,,10.0,30.079725,1019.2,,TRUE,TRUE,,,,,,,CLR,,,,,,,,VFR,0.6,,,,,,,,,,,METAR,998.0
KILM 221453Z 34012KT 10SM CLR 08/M01 A3010 RMK AO2 SLP192 T00831011 51008,KILM,2018-03-22T14:53:00Z,34.27,-77.9,8.3,-1.1,340,12,,10.0,30.100393,1019.2,,,TRUE,,,,,,,CLR,,,,,,,,VFR,0.8,,,,,,,,,,,METAR,9.0
KIDA 221453Z 00000KT 10SM BKN075 OVC090 05/04 A2992 RMK AO2 SLP132 60000 T00500044 56017,KIDA,2018-03-22T14:53:00Z,43.52,-112.07,5.0,4.4,0,0,,10.0,29.920275,1013.2,,,TRUE,,,,,,,BKN,7500,OVC,9000,,,,,VFR,-1.7,,,,,,,,,,,SPECI,1453.0
KICT 221453Z 17016G23KT 9SM FEW150 FEW210 13/00 A3017 RMK AO2 SLP216 T01280000 50000,KICT,2018-03-22T14:53:00Z,37.65,-97.43,12.8,0.0,170,16,23,9.0,30.171259,1021.6,,,TRUE,,,,,,,FEW,15000,FEW,21000,,,,,VFR,0.0,,,,,,,,,,,METAR,407.0
KICR 221453Z AUTO 09006KT 10SM CLR 04/00 A3014 RMK AO2 SLP221 60000 T00390000 51011,KICR,2018-03-22T14:53:00Z,43.38,-99.85,3.9,0.0,90,6,,10.0,30.138779,1022.1,,TRUE,TRUE,,,,,,,CLR,,,,,,,,VFR,1.1,,,,,,0.005,,,,,METAR,621.0
KIAH 221453Z 13010KT 10SM SCT250 19/13 A3033 RMK AO2 SLP271 T01890128 53020,KIAH,2018-03-22T14:53:00Z,30.0,-95.37,18.9,12.8,130,10,,10.0,30.33071,1027.1,,,TRUE,,,,,,,SCT,25000,,,,,,,VFR,2.0,,,,,,,,,,,METAR,36.0
KIAG 221453Z 31012KT 10SM CLR 01/M08 A3009 RMK AO2 SLP204 T00061078 51011,KIAG,2018-03-22T14:53:00Z,43.12,-78.93,0.6,-7.8,310,12,,10.0,30.088583,1020.4,,,TRUE,,,,,,,CLR,,,,,,,,VFR,1.1,,,,,,,,,,,METAR,182.0
KHZY 221453Z AUTO 32012G17KT 10SM CLR M01/M07 A3016 RMK AO2 SLP223 T10111067 51015,KHZY,2018-03-22T14:53:00Z,41.78,-80.7,-1.1,-6.7,320,12,17,10.0,30.159449,1022.3,,TRUE,TRUE,,,,,,,CLR,,,,,,,,VFR,1.5,,,,,,,,,,,METAR,276.0
KCMX 221453Z AUTO 33007KT 10SM CLR M02/M12 A3033 RMK AO2 SLP291 T10221117 52011,KCMX,2018-03-22T14:53:00Z,47.17,-88.48,-2.2,-11.7,330,7,,10.0,30.33071,1029.1,,TRUE,TRUE,,,,,,,CLR,,,,,,,,VFR,1.1,,,,,,,,,,,METAR,326.0
KCMI 221453Z 00000KT 10SM CLR 04/M06 A3036 RMK AO2 SLP290 T00391056 51015,KCMI,2018-03-22T14:53:00Z,40.03,-88.27,3.9,-5.6,0,0,,10.0,30.360237,1029.0,,,TRUE,,,,,,,CLR,,,,,,,,VFR,1.5,,,,,,,,,,,METAR,228.0
KCLM 221453Z AUTO 24003KT 6SM -RA BR OVC011 06/06 A2945 RMK AO2 RAE09B43 SLP974 P0000 60002 T00560056 55007,KCLM,2018-03-22T14:53:00Z,48.12,-123.5,5.6,5.6,240,3,,6.0,29.450787,997.4,,TRUE,TRUE,,,,,,-RA BR,OVC,1100,,,,,,,MVFR,-0.7,,,,,0.005,,,,,,SPECI,85.0
KCLL 221453Z 15012KT 10SM CLR 18/11 A3031 RMK AO2 SLP263 T01830111 53018,KCLL,2018-03-22T14:53:00Z,30.58,-96.37,18.3,11.1,150,12,,10.0,30.31004,1026.3,,,TRUE,,,,,,,CLR,,,,,,,,VFR,1.8,,,,,,,,,,,METAR,96.0
KCHO 221453Z 34009G17KT 10SM CLR 05/M08 A3006 RMK AO2 SLP183 T00501083 53023,KCHO,2018-03-22T14:53:00Z,38.13,-78.45,5.0,-8.3,340,9,17,10.0,30.059055,1018.3,,,TRUE,,,,,,,CLR,,,,,,,,VFR,2.3,,,,,,,,,,,METAR,192.0
KCHA 221453Z 35017G22KT 10SM FEW050 08/M05 A3032 RMK AO2 SLP268 T00781050 51015,KCHA,2018-03-22T14:53:00Z,35.03,-85.2,7.8,-5.0,350,17,22,10.0,30.318897,1026.8,,,TRUE,,,,,,,FEW,5000,,,,,,,VFR,1.5,,,,,,,,,,,METAR,210.0
KCGI 221453Z 00000KT 10SM CLR 07/01 A3039 RMK AO2 SLP294 T00720006 51018,KCGI,2018-03-22T14:53:00Z,37.23,-89.58,7.2,0.6,0,0,,10.0,30.389763,1029.4,,,TRUE,,,,,,,CLR,,,,,,,,VFR,1.8,,,,,,,,,,,METAR,102.0
KCEZ 221453Z AUTO 00000KT 10SM CLR 08/M01 A3023 RMK AO2 SLP209 T00781006 53009,KCEZ,2018-03-22T14:53:00Z,37.3,-108.63,7.8,-0.6,0,0,,10.0,30.230314,1020.9,,TRUE,TRUE,,,,,,,CLR,,,,,,,,VFR,0.9,,,,,,,,,,,SPECI,1797.0
KCEW 221453Z AUTO 35007KT 330V040 10SM CLR 12/M02 A3037 RMK AO2 SLP283 T01221017 51013 $,KCEW,2018-03-22T14:53:00Z,30.78,-86.52,12.2,-1.7,350,7,,10.0,30.369095,1028.3,,TRUE,TRUE,TRUE,,,,,,CLR,,,,,,,,VFR,1.3,,,,,,,,,,,METAR,55.0
KCDW 221453Z 34007G14KT 310V010 10SM CLR 05/M06 A2981 RMK AO2 SLP103 T00501061 51009,KCDW,2018-03-22T14:53:00Z,40.88,-74.28,5.0,-6.1,340,7,14,10.0,29.811024,1010.3,,,TRUE,,,,,,,CLR,,,,,,,,VFR,0.9,,,,,,,,,,,METAR,64.0
KCDS 221453Z AUTO 17011KT 10SM CLR 14/04 A3013 RMK AO2 SLP192 T01440039 51008,KCDS,2018-03-22T14:53:00Z,34.43,-100.28,14.4,3.9,170,11,,10.0,30.129921,1019.2,,TRUE,TRUE,,,,,,,CLR,,,,,,,,VFR,0.8,,,,,,,,,,,SPECI,594.0
KCDR 221453Z AUTO 25003KT 10SM CLR 01/M01 A3008 RMK AO2 SLP210 T00111011 51008,KCDR,2018-03-22T14:53:00Z,42.83,-103.1,1.1,-1.1,250,3,,10.0,30.079725,1021.0,,TRUE,TRUE,,,,,,,CLR,,,,,,,,VFR,0.8,,,,,,,,,,,METAR,1010.0
KCDC 221453Z AUTO 20019G25KT 10SM CLR 11/03 A3005 RMK AO2 PK WND 20035/1406 SLP136 T01110033 53007,KCDC,2018-03-22T14:53:00Z,37.7,-113.1,11.1,3.3,200,19,25,10.0,30.050198,1013.6,,TRUE,TRUE,,,,,,,CLR,,,,,,,,VFR,0.7,,,,,,,,,,,METAR,1714.0
KCQC 221453Z AUTO 30016KT 10SM CLR 11/M06 A3027 RMK AO2 SLP198 T01061061 50009,KCQC,2018-03-22T14:53:00Z,35.0,-105.67,10.6,-6.1,300,16,,10.0,30.268702,1019.8,,TRUE,TRUE,,,,,,,CLR,,,,,,,,VFR,0.9,,,,,,,,,,,SPECI,2160.0
KSAC 221453Z 19011G17KT 10SM FEW033 BKN070 OVC090 14/14 A2972,KSAC,2018-03-22T14:53:00Z,38.5,-121.5,14.0,14.0,190,11,17,10.0,29.719488,,,,,,,,,,,FEW,3300,BKN,7000,OVC,9000,,,VFR,,,,,,,,,,,,METAR,11.0
K6R6 221453Z AUTO VRB04KT 15/08 A3019 RMK AO1 SLP200 T01500083 51019,K6R6,2018-03-22T14:53:00Z,30.05,-102.22,15.0,8.3,0,4,,,30.188976,1020.0,,TRUE,TRUE,,,,,,,,,,,,,,,,1.9,,,,,,,,,,,SPECI,701.0
KHRL 221452Z 13014KT 10SM BKN070 23/17 A3024 RMK AO2 SLP239 T02330172 51026,KHRL,2018-03-22T14:52:00Z,26.23,-97.65,23.3,17.2,130,14,,10.0,30.239174,1023.9,,,TRUE,,,,,,,BKN,7000,,,,,,,VFR,2.6,,,,,,,,,,,METAR,10.0
PTYA 221452Z VRB04KT 12SM FEW016 BKN300 27/23 A2972 RMK SLP066 8/101 T02700230 403240259 58003,PTYA,2018-03-22T14:52:00Z,9.48,138.08,27.0,23.0,0,4,,12.0,29.719488,1006.6,,,,,,,,,,FEW,1600,BKN,30000,,,,,VFR,-0.3,,,32.4,25.9,,,,,,,METAR,17.0
KCZZ 221452Z AUTO 07006KT 12/09 A3001 RMK AO1 SLP144 T01170094 50009,KCZZ,2018-03-22T14:52:00Z,32.63,-116.47,11.7,9.4,70,6,,,30.008858,1014.4,,TRUE,TRUE,,,,,,,,,,,,,,,,0.9,,,,,,,,,,,METAR,807.0
KNRB 221452Z 32008KT 280V360 10SM CLR 11/M01 A3024 RMK AO2 SLP238 T01111006 51017 $,KNRB,2018-03-22T14:52:00Z,30.38,-81.42,11.1,-0.6,320,8,,10.0,30.239174,1023.8,,,TRUE,TRUE,,,,,,CLR,,,,,,,,VFR,1.7,,,,,,,,,,,METAR,5.0
KVTN 221452Z AUTO 10SM CLR 04/01 A3012 RMK AO2 SLP212 T00440006 51013 $,KVTN,2018-03-22T14:52:00Z,42.87,-100.55,4.4,0.6,,,,10.0,30.121063,1021.2,,TRUE,TRUE,TRUE,,,,,,CLR,,,,,,,,VFR,1.3,,,,,,,,,,,METAR,788.0
KMDH 221452Z 32003KT 10SM CLR 06/M01 A3040 RMK AO2 SLP296 T00611006 51021,KMDH,2018-03-22T14:52:00Z,37.78,-89.25,6.1,-0.6,320,3,,10.0,30.398623,1029.6,,,TRUE,,,,,,,CLR,,,,,,,,VFR,2.1,,,,,,,,,,,METAR,130.0
KEST 221452Z AUTO 13011KT 10SM SCT050 BKN065 01/M01 A3029 RMK AO2 SLP272 T00111011 51009,KEST,2018-03-22T14:52:00Z,43.4,-94.75,1.1,-1.1,130,11,,10.0,30.28937,1027.2,,TRUE,TRUE,,,,,,,SCT,5000,BKN,6500,,,,,VFR,0.9,,,,,,,,,,,METAR,401.0
PABA 221452Z 08008KT 10SM CLR M28/M30 A3050 RMK AO2 SLP314 T12781300 56018 FZRANO,PABA,2018-03-22T14:52:00Z,70.13,-143.58,-27.8,-30.0,80,8,,10.0,30.499016,1031.4,,,TRUE,,,,TRUE,,,CLR,,,,,,,,VFR,-1.8,,,,,,,,,,,METAR,2.0
KNZY 221452Z 25003KT 10SM FEW060 BKN120 BKN200 17/14 A3003 RMK AO2 SLP169 T01670139 53027 $,KNZY,2018-03-22T14:52:00Z,32.7,-117.22,16.7,13.9,250,3,,10.0,30.029528,1016.9,,,TRUE,TRUE,,,,,,FEW,6000,BKN,12000,BKN,20000,,,VFR,2.7,,,,,,,,,,,METAR,8.0
KBAN 221452Z AUTO 00000KT 3SM RA OVC015 03/M01 A2976 RMK AO2 RAE00B09SNB00E09 SLP061 P0018 60073 I3000 T00281006 58000 $,KBAN,2018-03-22T14:52:00Z,38.35,-119.52,2.8,-0.6,0,0,,3.0,29.760826,1006.1,,TRUE,TRUE,TRUE,,,,,RA,OVC,1500,,,,,,,MVFR,0.0,,,,,0.18,0.73,,,,,METAR,2057.0
KN60 221452Z AUTO 09007KT M06/M06 A3024 RMK AO1 SLP268 T10561061 51012,KN60,2018-03-22T14:52:00Z,47.65,-101.43,-5.6,-6.1,90,7,,,30.239174,1026.8,,TRUE,TRUE,,,,,,,,,,,,,,,,1.2,,,,,,,,,,,METAR,582.0
KCDJ 221452Z AUTO 12006KT 06/00 A3036 RMK AO1 SLP291 T00560000 51015,KCDJ,2018-03-22T14:52:00Z,39.82,-93.58,5.6,0.0,120,6,,,30.360237,1029.1,,TRUE,TRUE,,,,,,,,,,,,,,,,1.5,,,,,,,,,,,METAR,234.0
KP69 221452Z AUTO 33006KT 04/03 A2973 RMK AO1 SLP078 T00390028 56012,KP69,2018-03-22T14:52:00Z,46.15,-115.6,3.9,2.8,330,6,,,29.731298,1007.8,,TRUE,TRUE,,,,,,,,,,,,,,,,-1.2,,,,,,,,,,,METAR,480.0
KISN 221452Z AUTO 10010KT 7SM CLR M01/M04 A3017 RMK AO2 SLP243 T10111039 51009,KISN,2018-03-22T14:52:00Z,48.17,-103.63,-1.1,-3.9,100,10,,7.0,30.171259,1024.3,,TRUE,TRUE,,,,,,,CLR,,,,,,,,VFR,0.9,,,,,,,,,,,METAR,579.0
KIOW 221452Z AUTO 24003KT 10SM BKN060 02/M03 A3039 RMK AO2 SLP298 T00221033 53015,KIOW,2018-03-22T14:52:00Z,41.63,-91.55,2.2,-3.3,240,3,,10.0,30.389763,1029.8,,TRUE,TRUE,,,,,,,BKN,6000,,,,,,,VFR,1.5,,,,,,,,,,,METAR,198.0
KIAD 221452Z 33016G23KT 10SM SCT160 BKN250 03/M06 A3002 RMK AO2 SLP166 T00281056 51015,KIAD,2018-03-22T14:52:00Z,38.93,-77.45,2.8,-5.6,330,16,23,10.0,30.02067,1016.6,,,TRUE,,,,,,,SCT,16000,BKN,25000,,,,,VFR,1.5,,,,,,,,,,,METAR,93.0
KHUT 221452Z 16015KT 9SM CLR 12/00 A3016 RMK AO2 SLP207 T01220000 53002,KHUT,2018-03-22T14:52:00Z,38.07,-97.87,12.2,0.0,160,15,,9.0,30.159449,1020.7,,,TRUE,,,,,,,CLR,,,,,,,,VFR,0.2,,,,,,,,,,,METAR,467.0
KHIE 221452Z AUTO 00000KT 10SM CLR 03/M08 A2976 RMK AO2 SLP092 T00281078 56004,KHIE,2018-03-22T14:52:00Z,44.37,-71.55,2.8,-7.8,0,0,,10.0,29.760826,1009.2,,TRUE,TRUE,,,,,,,CLR,,,,,,,,VFR,-0.4,,,,,,,,,,,METAR,318.0
KGLS 221452Z 12010KT 10SM CLR 20/12 A3034 RMK AO2 SLP273 T02000117 53020,KGLS,2018-03-22T14:52:00Z,29.27,-94.87,20.0,11.7,120,10,,10.0,30.339567,1027.3,,,TRUE,,,,,,,CLR,,,,,,,,VFR,2.0,,,,,,,,,,,METAR,6.0
KFIT 221452Z AUTO 35011KT 10SM BKN042 OVC050 04/00 A2970 RMK AO2 RAB03E06B18E29SNE03 SLP059 P0000 60002 T00440000 58002,KFIT,2018-03-22T14:52:00Z,42.55,-71.75,4.4,0.0,350,11,,10.0,29.698818,1005.9,,TRUE,TRUE,,,,,,,BKN,4200,OVC,5000,,,,,VFR,-0.2,,,,,0.005,0.02,,,,,METAR,103.0
KDVN 221452Z AUTO 02004KT 10SM FEW100 05/M07 A3038 RMK AO2 SLP291 T00501067 51013,KDVN,2018-03-22T14:52:00Z,41.62,-90.58,5.0,-6.7,20,4,,10.0,30.380905,1029.1,,TRUE,TRUE,,,,,,,FEW,10000,,,,,,,VFR,1.3,,,,,,,,,,,METAR,230.0
KLWC 221452Z AUTO 13009KT 10SM CLR 10/03 A3027 RMK AO2 SLP253 T01000028 53006,KLWC,2018-03-22T14:52:00Z,39.02,-95.22,10.0,2.8,130,9,,10.0,30.268702,1025.3,,TRUE,TRUE,,,,,,,CLR,,,,,,,,VFR,0.6,,,,,,,,,,,METAR,253.0
KMEB 221452Z AUTO 34013G19KT 10SM CLR 08/M04 A3014 RMK AO2 SLP205 T00831044 51012,KMEB,2018-03-22T14:52:00Z,34.78,-79.37,8.3,-4.4,340,13,19,10.0,30.138779,1020.5,,TRUE,TRUE,,,,,,,CLR,,,,,,,,VFR,1.2,,,,,,,,,,,METAR,67.0
KMFD 221452Z 31008KT 10SM CLR M01/M07 A3021 RMK AO2 SLP244 T10061067 51017,KMFD,2018-03-22T14:52:00Z,40.82,-82.52,-0.6,-6.7,310,8,,10.0,30.209646,1024.4,,,TRUE,,,,,,,CLR,,,,,,,,VFR,1.7,,,,,,,,,,,METAR,395.0
KMHK 221452Z 15006KT 10SM CLR 11/02 A3020 RMK AO2 SLP229 T01060022 50005,KMHK,2018-03-22T14:52:00Z,39.13,-96.68,10.6,2.2,150,6,,10.0,30.200787,1022.9,,,TRUE,,,,,,,CLR,,,,,,,,VFR,0.5,,,,,,,,,,,METAR,317.0
KMKE 221452Z 00000KT 10SM CLR 03/M08 A3035 RMK AO2 SLP284 T00281078 51011,KMKE,2018-03-22T14:52:00Z,42.95,-87.9,2.8,-7.8,0,0,,10.0,30.351377,1028.4,,,TRUE,,,,,,,CLR,,,,,,,,VFR,1.1,,,,,,,,,,,METAR,206.0
KMLI 221452Z 00000KT 10SM BKN100 04/M04 A3037 RMK AO2 SLP288 T00441044 53012,KMLI,2018-03-22T14:52:00Z,41.45,-90.52,4.4,-4.4,0,0,,10.0,30.369095,1028.8,,,TRUE,,,,,,,BKN,10000,,,,,,,VFR,1.2,,,,,,,,,,,METAR,184.0
KOKB 221452Z AUTO 00000KT 9SM CLR 16/13 A3003 RMK AO2 PRESRR SLP168 T01610128 51029,KOKB,2018-03-22T14:52:00Z,33.22,-117.35,16.1,12.8,0,0,,9.0,30.029528,1016.8,,TRUE,TRUE,,,,,,,CLR,,,,,,,,VFR,2.9,,,,,,,,,,,METAR,8.0
KMWH 221452Z 02005KT 7SM OVC055 05/05 A2955 RMK AO2 SLP011 T00500050 58008,KMWH,2018-03-22T14:52:00Z,47.2,-119.32,5.0,5.0,20,5,,7.0,29.551182,1001.1,,,TRUE,,,,,,,OVC,5500,,,,,,,VFR,-0.8,,,,,,,,,,,METAR,362.0
KABI 221452Z 18016G24KT 10SM CLR 16/08 A3016 RMK AO2 SLP201 T01560078 51010,KABI,2018-03-22T14:52:00Z,32.42,-99.68,15.6,7.8,180,16,24,10.0,30.159449,1020.1,,,TRUE,,,,,,,CLR,,,,,,,,VFR,1.0,,,,,,,,,,,METAR,548.0
KAFN 221452Z AUTO 34010G16KT 10SM FEW037 BKN048 OVC070 04/M03 A2969 RMK AO2 SLP066 60000 T00391033 58003 TSNO,KAFN,2018-03-22T14:52:00Z,42.8,-72.0,3.9,-3.3,340,10,16,10.0,29.68996,1006.6,,TRUE,TRUE,,,TRUE,,,,FEW,3700,BKN,4800,OVC,7000,,,VFR,-0.3,,,,,,0.005,,,,,METAR,313.0
KABQ 221452Z 00000KT 10SM FEW130 FEW220 BKN300 11/M04 A3026 RMK AO2 SLP201 T01061044 53015,KABQ,2018-03-22T14:52:00Z,35.05,-106.62,10.6,-4.4,0,0,,10.0,30.259842,1020.1,,,TRUE,,,,,,,FEW,13000,FEW,22000,BKN,30000,,,VFR,1.5,,,,,,,,,,,METAR,1618.0
KSPS 221452Z 17016G22KT 10SM FEW250 17/06 A3019 RMK AO2 SLP218 T01720061 51008,KSPS,2018-03-22T14:52:00Z,33.98,-98.5,17.2,6.1,170,16,22,10.0,30.188976,1021.8,,,TRUE,,,,,,,FEW,25000,,,,,,,VFR,0.8,,,,,,,,,,,METAR,308.0
KSPI 221452Z VRB03KT 10SM CLR 06/M04 A3039 RMK AO2 SLP294 T00611044 51017,KSPI,2018-03-22T14:52:00Z,39.85,-89.68,6.1,-4.4,0,3,,10.0,30.389763,1029.4,,,TRUE,,,,,,,CLR,,,,,,,,VFR,1.7,,,,,,,,,,,METAR,181.0
KSGF 221452Z 14012KT 10SM CLR 08/01 A3031 RMK AO2 SLP271 T00830011 51017,KSGF,2018-03-22T14:52:00Z,37.23,-93.38,8.3,1.1,140,12,,10.0,30.31004,1027.1,,,TRUE,,,,,,,CLR,,,,,,,,VFR,1.7,,,,,,,,,,,METAR,390.0
KRAP 221452Z 00000KT 10SM CLR 03/M01 A3009 RMK AO2 SLP209 T00331006 51009,KRAP,2018-03-22T14:52:00Z,44.05,-103.05,3.3,-0.6,0,0,,10.0,30.088583,1020.9,,,TRUE,,,,,,,CLR,,,,,,,,VFR,0.9,,,,,,,,,,,METAR,965.0
KPWK 221452Z 00000KT 10SM CLR 02/M06 A3037 RMK AO2 SLP290 T00221056 51011,KPWK,2018-03-22T14:52:00Z,42.12,-87.9,2.2,-5.6,0,0,,10.0,30.369095,1029.0,,,TRUE,,,,,,,CLR,,,,,,,,VFR,1.1,,,,,,,,,,,METAR,203.0
KPPF 221452Z AUTO 15009KT 10SM CLR 10/02 A3027 RMK AO2 SLP251 T01000017 53008,KPPF,2018-03-22T14:52:00Z,37.33,-95.5,10.0,1.7,150,9,,10.0,30.268702,1025.1,,TRUE,TRUE,,,,,,,CLR,,,,,,,,VFR,0.8,,,,,,,,,,,METAR,274.0
KORE 221452Z AUTO 34011KT 10SM FEW045 FEW060 OVC080 03/M04 A2972 RMK AO2 SLP071 T00331044 50001,KORE,2018-03-22T14:52:00Z,42.57,-72.28,3.3,-4.4,340,11,,10.0,29.719488,1007.1,,TRUE,TRUE,,,,,,,FEW,4500,FEW,6000,OVC,8000,,,VFR,0.1,,,,,,,,,,,METAR,164.0
KOMA 221452Z 16015KT 10SM BKN085 BKN100 OVC130 07/01 A3022 RMK AO2 SLP237 T00720006 53002,KOMA,2018-03-22T14:52:00Z,41.32,-95.9,7.2,0.6,160,15,,10.0,30.221457,1023.7,,,TRUE,,,,,,,BKN,8500,BKN,10000,OVC,13000,,,VFR,0.2,,,,,,,,,,,METAR,312.0
KOKC 221452Z 16017KT 10SM FEW250 15/M01 A3019 RMK AO2 SLP218 T01501006 50000,KOKC,2018-03-22T14:52:00Z,35.38,-97.6,15.0,-0.6,160,17,,10.0,30.188976,1021.8,,,TRUE,,,,,,,FEW,25000,,,,,,,VFR,0.0,,,,,,,,,,,METAR,390.0
KDPA 221452Z 34004KT 10SM CLR 02/M08 A3035 RMK AO2 SLP286 T00171078 51013,KDPA,2018-03-22T14:52:00Z,41.92,-88.25,1.7,-7.8,340,4,,10.0,30.351377,1028.6,,,TRUE,,,,,,,CLR,,,,,,,,VFR,1.3,,,,,,,,,,,METAR,231.0
KDDC 221452Z AUTO 16013KT 7SM CLR 09/01 A3009 RMK AO2 SLP189 T00940006 50003,KDDC,2018-03-22T14:52:00Z,37.77,-99.97,9.4,0.6,160,13,,7.0,30.088583,1018.9,,TRUE,TRUE,,,,,,,CLR,,,,,,,,VFR,0.3,,,,,,,,,,,METAR,789.0
KDCA 221452Z 31011G25KT 10SM BKN250 04/M05 A3001 RMK AO2 PK WND 32026/1430 SLP163 T00391050 51019,KDCA,2018-03-22T14:52:00Z,38.85,-77.03,3.9,-5.0,310,11,25,10.0,30.008858,1016.3,,,TRUE,,,,,,,BKN,25000,,,,,,,VFR,1.9,,,,,,,,,,,METAR,18.0
KCVG 221452Z 32007KT 10SM CLR 00/M04 A3029 RMK AO2 SLP262 T00001039 51020,KCVG,2018-03-22T14:52:00Z,39.05,-84.67,0.0,-3.9,320,7,,10.0,30.28937,1026.2,,,TRUE,,,,,,,CLR,,,,,,,,VFR,2.0,,,,,,,,,,,METAR,269.0
KCQX 221452Z AUTO 01011G23KT 7SM UP BKN012 OVC018 02/02 A2957 RMK AO2 PK WND 02031/1413 UPB1353RAB24E28SNE1353B1356E02B12E21B35E46 SLP016 P0001 60006 T00220017 51013,KCQX,2018-03-22T14:52:00Z,41.68,-70.0,2.2,1.7,10,11,23,7.0,29.568897,1001.6,,TRUE,TRUE,,,,,,UP,BKN,1200,OVC,1800,,,,,MVFR,1.3,,,,,0.01,0.06,,,,,METAR,19.0
KCNU 221452Z AUTO 14009KT 10SM CLR 10/02 A3026 RMK AO2 SLP248 T01000022 53006,KCNU,2018-03-22T14:52:00Z,37.67,-95.48,10.0,2.2,140,9,,10.0,30.259842,1024.8,,TRUE,TRUE,,,,,,,CLR,,,,,,,,VFR,0.6,,,,,,,,,,,METAR,297.0
KCLT 221452Z 30011KT 10SM FEW250 07/M05 A3016 RMK AO2 SLP214 T00721050 51015,KCLT,2018-03-22T14:52:00Z,35.22,-80.95,7.2,-5.0,300,11,,10.0,30.159449,1021.4,,,TRUE,,,,,,,FEW,25000,,,,,,,VFR,1.5,,,,,,,,,,,METAR,220.0
KCKV 221452Z AUTO 31005KT 10SM CLR 07/M04 A3038 RMK AO2 SLP291 T00671039 51023,KCKV,2018-03-22T14:52:00Z,36.62,-87.42,6.7,-3.9,310,5,,10.0,30.380905,1029.1,,TRUE,TRUE,,,,,,,CLR,,,,,,,,VFR,2.3,,,,,,,,,,,METAR,165.0
KCID 221452Z 20003KT 10SM BKN050 03/M03 A3036 RMK AO2 SLP288 T00281028 53014,KCID,2018-03-22T14:52:00Z,41.88,-91.72,2.8,-2.8,200,3,,10.0,30.360237,1028.8,,,TRUE,,,,,,,BKN,5000,,,,,,,VFR,1.4,,,,,,,,,,,METAR,264.0
KCFV 221452Z AUTO 16007KT 10SM CLR 11/02 A3026 RMK AO2 SLP249 T01110017 51010,KCFV,2018-03-22T14:52:00Z,37.08,-95.57,11.1,1.7,160,7,,10.0,30.259842,1024.9,,TRUE,TRUE,,,,,,,CLR,,,,,,,,VFR,1.0,,,,,,,,,,,METAR,225.0
KBML 221452Z AUTO 34004KT 10SM CLR 02/M07 A2975 RMK AO2 SLP085 T00221072 56008,KBML,2018-03-22T14:52:00Z,44.58,-71.18,2.2,-7.2,340,4,,10.0,29.749016,1008.5,,TRUE,TRUE,,,,,,,CLR,,,,,,,,VFR,-0.8,,,,,,,,,,,METAR,345.0
KBLH 221452Z AUTO 32005KT 10SM CLR 19/01 A2997 RMK AO2 SLP143 T01940006 53007,KBLH,2018-03-22T14:52:00Z,33.62,-114.72,19.4,0.6,320,5,,10.0,29.970472,1014.3,,TRUE,TRUE,,,,,,,CLR,,,,,,,,VFR,0.7,,,,,,,,,,,METAR,119.0
KBLF 221452Z AUTO 29012G16KT 10SM BKN100 M03/M08 A3011 RMK AO2 SLP220 T10331078 51014,KBLF,2018-03-22T14:52:00Z,37.3,-81.2,-3.3,-7.8,290,12,16,10.0,30.109253,1022.0,,TRUE,TRUE,,,,,,,BKN,10000,,,,,,,VFR,1.4,,,,,,,,,,,METAR,873.0
KBIS 221452Z 09009KT 1/4SM FZFG OVC002 M05/M06 A3026 RMK AO2 SFC VIS 1/2 SLP274 I1002 I3004 T10501056 51008,KBIS,2018-03-22T14:52:00Z,46.77,-100.75,-5.0,-5.6,90,9,,0.25,30.259842,1027.4,,,TRUE,,,,,,FZFG,OVC,200,,,,,,,LIFR,0.8,,,,,,,,,,,METAR,505.0
KBDR 221452Z 33013G19KT 10SM SCT100 05/M04 A2974 RMK AO2 SLP071 T00501039 51008,KBDR,2018-03-22T14:52:00Z,41.17,-73.13,5.0,-3.9,330,13,19,10.0,29.740158,1007.1,,,TRUE,,,,,,,SCT,10000,,,,,,,VFR,0.8,,,,,,,,,,,METAR,7.0
KATL 221452Z 34011KT 10SM CLR 07/M02 A3028 RMK AO2 SLP260 T00671022 53017,KATL,2018-03-22T14:52:00Z,33.63,-84.45,6.7,-2.2,340,11,,10.0,30.280512,1026.0,,,TRUE,,,,,,,CLR,,,,,,,,VFR,1.7,,,,,,,,,,,METAR,296.0
KARR 221452Z VRB03KT 10SM CLR 02/M08 A3036 RMK AO2 SLP289 T00221083 51014,KARR,2018-03-22T14:52:00Z,41.77,-88.48,2.2,-8.3,0,3,,10.0,30.360237,1028.9,,,TRUE,,,,,,,CLR,,,,,,,,VFR,1.4,,,,,,,,,,,METAR,215.0
KAQW 221452Z AUTO 28009G15KT 10SM OVC100 01/M06 A2980 RMK AO2 SLP098 T00111061 50001,KAQW,2018-03-22T14:52:00Z,42.7,-73.17,1.1,-6.1,280,9,15,10.0,29.799213,1009.8,,TRUE,TRUE,,,,,,,OVC,10000,,,,,,,VFR,0.1,,,,,,,,,,,METAR,199.0
KALS 221452Z AUTO 00000KT 10SM CLR 01/M07 A3028 RMK AO2 SLP245 T00061067 53006 $,KALS,2018-03-22T14:52:00Z,37.43,-105.87,0.6,-6.7,0,0,,10.0,30.280512,1024.5,,TRUE,TRUE,TRUE,,,,,,CLR,,,,,,,,VFR,0.6,,,,,,,,,,,METAR,2299.0
KSUX 221452Z 13010KT 10SM SCT100 06/02 A3021 RMK AO2 SLP238 T00610022 51007,KSUX,2018-03-22T14:52:00Z,42.38,-96.38,6.1,2.2,130,10,,10.0,30.209646,1023.8,,,TRUE,,,,,,,SCT,10000,,,,,,,VFR,0.7,,,,,,,,,,,METAR,338.0
KTAN 221452Z AUTO 35009G18KT 4SM BR BKN012 BKN019 OVC023 02/00 A2965 RMK AO2 SNE43 SLP039 P0000 60002 T00170000 53006 $,KTAN,2018-03-22T14:52:00Z,41.88,-71.02,1.7,0.0,350,9,18,4.0,29.648623,1003.9,,TRUE,TRUE,TRUE,,,,,BR,BKN,1200,BKN,1900,OVC,2300,,,MVFR,0.6,,,,,0.005,0.02,,,,,METAR,7.0
KTOL 221452Z 36009KT 10SM CLR 03/M12 A3026 RMK AO2 SLP254 T00281117 51013,KTOL,2018-03-22T14:52:00Z,41.58,-83.8,2.8,-11.7,360,9,,10.0,30.259842,1025.4,,,TRUE,,,,,,,CLR,,,,,,,,VFR,1.3,,,,,,,,,,,METAR,210.0
KTRM 221452Z AUTO 00000KT 10SM CLR 19/11 A2994 RMK AO2 SLP138 T01940106 51021,KTRM,2018-03-22T14:52:00Z,33.63,-116.17,19.4,10.6,0,0,,10.0,29.940945,1013.8,,TRUE,TRUE,,,,,,,CLR,,,,,,,,VFR,2.1,,,,,,,,,,,METAR,-35.0
MMMT 221452Z 36015KT 8SM OVC020 25/23 A3013 RMK SLP279 55000 940 8/5//,MMMT,2018-03-22T14:52:00Z,18.1,-94.57,25.0,23.0,360,15,,8.0,30.129921,1027.9,,,,,,,,,,OVC,2000,,,,,,,MVFR,0.0,,,,,,,,,,,METAR,40.0
PATA 221452Z 00000KT 10SM CLR M25/M27 A3056 RMK AO2 SLP356 I3000 T12501267 58019 PNO,PATA,2018-03-22T14:52:00Z,65.17,-152.1,-25.0,-26.7,0,0,,10.0,30.561024,1035.6,,,TRUE,,,,,,,CLR,,,,,,,,VFR,-1.9,,,,,,,,,,,METAR,67.0
KREO 221452Z AUTO 16019G24KT 10/05 A2964 RMK AO1 PK WND 16026/1436 SLP025 T01000050 57015,KREO,2018-03-22T14:52:00Z,42.58,-117.87,10.0,5.0,160,19,24,,29.639763,1002.5,,TRUE,TRUE,,,,,,,,,,,,,,,,-1.5,,,,,,,,,,,SPECI,1235.0
KEKM 221452Z 36006KTKT 10SM CLR 03/M06 A3031 RMK AO2,KEKM,2018-03-22T14:52:00Z,41.72,-86.0,3.0,-6.0,,,,10.0,30.31004,,,,TRUE,,,,,,,CLR,,,,,,,,VFR,,,,,,,,,,,,METAR,237.0
KMWN 221452Z 03033G42KT 90SM FEW005 SCT030 BKN050 BKN080 OVC120 M10/M18 RMK ACSL OHD SH DSNT E-S BINOVC,KMWN,2018-03-22T14:52:00Z,44.27,-71.3,-10.0,-18.0,30,33,42,90.0,,,,,,,,,,,,FEW,500,SCT,3000,BKN,5000,BKN,8000,VFR,,,,,,,,,,,,METAR,1910.0
KNHK 221452Z 32017G25KT 10SM FEW220 04/M02 A2998 RMK AO2 SLP151 T00391022 51018 VISNO RY24 $,KNHK,2018-03-22T14:52:00Z,38.27,-76.4,3.9,-2.2,320,17,25,10.0,29.97933,1015.1,,,TRUE,TRUE,,,,,,FEW,22000,,,,,,,VFR,1.8,,,,,,,,,,,METAR,12.0
PTTP 221452Z 11006KT 15SM BKN018TCU OVC130 27/24 A2972 RMK SHRAB05E25 TCU ALQDS SLP063 60019 8/27/ T02720241 57010,PTTP,2018-03-22T14:52:00Z,6.97,158.22,27.2,24.1,110,6,,15.0,29.719488,1006.3,,,,,,,,,,BKN,1800,OVC,13000,,,,,MVFR,-1.0,,,,,,,,,,,SPECI,2.0
OICS 221452Z 24008KT CAVOK 20/M18 Q1017,OICS,2018-03-22T14:52:00Z,35.25,47.02,20.0,-18.0,240,8,,6.21,30.029528,,,,,,,,,,,CAVOK,,,,,,,,VFR,,,,,,,,,,,,METAR,1373.0
OITL 221452Z 29012KT 9999 BKN110 BKN200 15/M08 Q1014,OITL,2018-03-22T14:52:00Z,38.33,48.42,15.0,-8.0,290,12,,6.21,29.940945,,,,,,,,,,,BKN,11000,BKN,20000,,,,,VFR,,,,,,,,,,,,METAR,1316.0
KNFW 221452Z 17011KT 10SM SCT250 18/11 A3026 RMK AO2 SLP228 T01780106 51013 $,KNFW,2018-03-22T14:52:00Z,32.78,-97.43,17.8,10.6,170,11,,10.0,30.259842,1022.8,,,TRUE,TRUE,,,,,,SCT,25000,,,,,,,VFR,1.3,,,,,,,,,,,SPECI,198.0
KERI 221451Z 33005KT 10SM CLR M01/M07 A3015 RMK AO2 SLP218 T10061067 51014,KERI,2018-03-22T14:51:00Z,42.08,-80.18,-0.6,-6.7,330,5,,10.0,30.15059,1021.8,,,TRUE,,,,,,,CLR,,,,,,,,VFR,1.4,,,,,,,,,,,METAR,222.0
KCRP 221451Z 13013KT 10SM SCT035 BKN075 22/16 A3027 RMK AO2 SLP249 T02220161 53022,KCRP,2018-03-22T14:51:00Z,27.77,-97.5,22.2,16.1,130,13,,10.0,30.268702,1024.9,,,TRUE,,,,,,,SCT,3500,BKN,7500,,,,,VFR,2.2,,,,,,,,,,,METAR,14.0
KCLE 221451Z 32012KT 10SM FEW021 BKN200 01/M04 A3023 RMK AO2 SLP245 T00111044 51015,KCLE,2018-03-22T14:51:00Z,41.42,-81.85,1.1,-4.4,320,12,,10.0,30.230314,1024.5,,,TRUE,,,,,,,FEW,2100,BKN,20000,,,,,VFR,1.5,,,,,,,,,,,METAR,233.0
KCAK 221451Z 33013KT 10SM FEW029 FEW150 BKN250 01/M08 A3016 RMK AO2 SLP227 T00061078 53013,KCAK,2018-03-22T14:51:00Z,40.92,-81.45,0.6,-7.8,330,13,,10.0,30.159449,1022.7,,,TRUE,,,,,,,FEW,2900,FEW,15000,BKN,25000,,,VFR,1.3,,,,,,,,,,,METAR,377.0
KBAZ 221451Z 15010KT 10SM OVC031 17/13 A3027 RMK AO2 SLP247 T01720128 51017,KBAZ,2018-03-22T14:51:00Z,29.72,-98.05,17.2,12.8,150,10,,10.0,30.268702,1024.7,,,TRUE,,,,,,,OVC,3100,,,,,,,VFR,1.7,,,,,,,,,,,METAR,195.0
KP58 221451Z AUTO 34008KT 01/M06 A3023 RMK AO1 SLP247 T00061061 52014,KP58,2018-03-22T14:51:00Z,44.02,-82.8,0.6,-6.1,340,8,,,30.230314,1024.7,,TRUE,TRUE,,,,,,,,,,,,,,,,1.4,,,,,,,,,,,METAR,179.0
KNYC 221451Z AUTO VRB04KT 10SM 04/M04 A2981 RMK AO2 SLP088 I3000 T00391039 51011 $,KNYC,2018-03-22T14:51:00Z,40.78,-73.97,3.9,-3.9,0,4,,10.0,29.811024,1008.8,,TRUE,TRUE,TRUE,,,,,,,,,,,,,,,1.1,,,,,,,,,,,METAR,11.0
KSNT 221451Z AUTO 15005KT 03/02 A2979 RMK AO1 SLP054 P0002 60003 T00280017 58017,KSNT,2018-03-22T14:51:00Z,44.17,-114.93,2.8,1.7,150,5,,,29.790354,1005.4,,TRUE,TRUE,,,,,,,,,,,,,,,,-1.7,,,,,0.02,0.03,,,,,METAR,1980.0
PAMD 221451Z AUTO 01011G18KT 10SM CLR 01/M10 A2998 RMK AO2 SLP141 T00061100 56013 FZRANO,PAMD,2018-03-22T14:51:00Z,59.43,-146.3,0.6,-10.0,10,11,18,10.0,29.97933,1014.1,,TRUE,TRUE,,,,TRUE,,,CLR,,,,,,,,VFR,-1.3,,,,,,,,,,,METAR,14.0
KTPL 221451Z AUTO 16013KT 10SM CLR 18/12 A3029 RMK AO2 SLP269 T01780117 53017,KTPL,2018-03-22T14:51:00Z,31.13,-97.4,17.8,11.7,160,13,,10.0,30.28937,1026.9,,TRUE,TRUE,,,,,,,CLR,,,,,,,,VFR,1.7,,,,,,,,,,,METAR,208.0
KOXC 221451Z 33014G18KT 10SM FEW036 04/M04 A2972 RMK AO2 SLP083 60001 T00441044 50007,KOXC,2018-03-22T14:51:00Z,41.47,-73.13,4.4,-4.4,330,14,18,10.0,29.719488,1008.3,,,TRUE,,,,,,,FEW,3600,,,,,,,VFR,0.7,,,,,,0.01,,,,,METAR,222.0
KOCF 221451Z 33008KT 10SM CLR 12/M04 A3026 RMK AO2 SLP251 T01221044 50007,KOCF,2018-03-22T14:51:00Z,29.17,-82.22,12.2,-4.4,330,8,,10.0,30.259842,1025.1,,,TRUE,,,,,,,CLR,,,,,,,,VFR,0.7,,,,,,,,,,,METAR,27.0
KMPV 221451Z AUTO 33006KT 10SM CLR 00/M06 A2984 RMK AO2 SLP118 T00001061 58004,KMPV,2018-03-22T14:51:00Z,44.2,-72.57,0.0,-6.1,330,6,,10.0,29.840551,1011.8,,TRUE,TRUE,,,,,,,CLR,,,,,,,,VFR,-0.4,,,,,,,,,,,METAR,343.0
KOUN 221451Z 14015KT 10SM SKC 16/00 A3019,KOUN,2018-03-22T14:51:00Z,35.25,-97.47,16.0,0.0,140,15,,10.0,30.188976,,,,,,,,,,,SKC,,,,,,,,VFR,,,,,,,,,,,,METAR,357.0
KJCT 221451Z AUTO 17012G19KT 9SM OVC020 17/13 A3023 RMK AO2 SLP211 T01670128 51012,KJCT,2018-03-22T14:51:00Z,30.5,-99.77,16.7,12.8,170,12,19,9.0,30.230314,1021.1,,TRUE,TRUE,,,,,,,OVC,2000,,,,,,,MVFR,1.2,,,,,,,,,,,METAR,522.0
KHDO 221451Z AUTO 14011KT 10SM OVC026 19/14 A3027 RMK AO2 SLP240 T01890144 53019 $,KHDO,2018-03-22T14:51:00Z,29.37,-99.17,18.9,14.4,140,11,,10.0,30.268702,1024.0,,TRUE,TRUE,TRUE,,,,,,OVC,2600,,,,,,,MVFR,1.9,,,,,,,,,,,METAR,282.0
KORD 221451Z 32004KT 10SM FEW250 02/M07 A3035 RMK AO2 SLP283 T00221072 51012,KORD,2018-03-22T14:51:00Z,41.98,-87.93,2.2,-7.2,320,4,,10.0,30.351377,1028.3,,,TRUE,,,,,,,FEW,25000,,,,,,,VFR,1.2,,,,,,,,,,,METAR,200.0
KPIT 221451Z 31008KT 10SM FEW022 OVC250 M01/M06 A3012 RMK AO2 SLP222 T10111056 51013,KPIT,2018-03-22T14:51:00Z,40.5,-80.27,-1.1,-5.6,310,8,,10.0,30.121063,1022.2,,,TRUE,,,,,,,FEW,2200,OVC,25000,,,,,VFR,1.3,,,,,,,,,,,METAR,357.0
KSAT 221451Z 13008KT 10SM BKN022 OVC250 17/13 A3029 RMK AO2 SLP242 T01670128 53018,KSAT,2018-03-22T14:51:00Z,29.53,-98.47,16.7,12.8,130,8,,10.0,30.28937,1024.2,,,TRUE,,,,,,,BKN,2200,OVC,25000,,,,,MVFR,1.8,,,,,,,,,,,METAR,243.0
KVCT 221451Z 12012KT 10SM CLR 21/14 A3030 RMK AO2 SLP257 T02060139 53017,KVCT,2018-03-22T14:51:00Z,28.87,-96.93,20.6,13.9,120,12,,10.0,30.301182,1025.7,,,TRUE,,,,,,,CLR,,,,,,,,VFR,1.7,,,,,,,,,,,METAR,31.0
KATT 221451Z AUTO 15007KT 10SM CLR 18/12 A3029 RMK AO2 SLP252 T01830122 53014,KATT,2018-03-22T14:51:00Z,30.32,-97.77,18.3,12.2,150,7,,10.0,30.28937,1025.2,,TRUE,TRUE,,,,,,,CLR,,,,,,,,VFR,1.4,,,,,,,,,,,METAR,201.0
KYNG 221451Z 32016KT 10SM FEW030 SCT210 BKN250 00/M08 A3013 RMK AO2 SLP217 T00001078 51012,KYNG,2018-03-22T14:51:00Z,41.25,-80.67,0.0,-7.8,320,16,,10.0,30.129921,1021.7,,,TRUE,,,,,,,FEW,3000,SCT,21000,BKN,25000,,,VFR,1.2,,,,,,,,,,,METAR,360.0
KTEB 221451Z 33015G26KT 10SM CLR 05/M05 A2979 RMK AO2 PK WND 33026/1451 SLP088 T00501050 51008,KTEB,2018-03-22T14:51:00Z,40.87,-74.05,5.0,-5.0,330,15,26,10.0,29.790354,1008.8,,,TRUE,,,,,,,CLR,,,,,,,,VFR,0.8,,,,,,,,,,,METAR,7.0
KSTL 221451Z 00000KT 10SM SCT100 BKN250 06/01 A3039 RMK AO2 SLP297 T00610006 51021,KSTL,2018-03-22T14:51:00Z,38.75,-90.37,6.1,0.6,0,0,,10.0,30.389763,1029.7,,,TRUE,,,,,,,SCT,10000,BKN,25000,,,,,VFR,2.1,,,,,,,,,,,METAR,171.0
KSMO 221451Z 08003KT 5SM -RA BR OVC080 15/14 A2999 RMK AO2 RAB1353 SLP154 P0003 60004 T01500144 50014,KSMO,2018-03-22T14:51:00Z,34.02,-118.45,15.0,14.4,80,3,,5.0,29.991142,1015.4,,,TRUE,,,,,,-RA BR,OVC,8000,,,,,,,MVFR,1.4,,,,,0.03,0.04,,,,,METAR,57.0
KSLK 221451Z AUTO 00000KT 10SM CLR M01/M07 A2986 RMK AO2 SNB06E15 SLP133 P0000 60000 T10111072 50007,KSLK,2018-03-22T14:51:00Z,44.4,-74.2,-1.1,-7.2,0,0,,10.0,29.861221,1013.3,,TRUE,TRUE,,,,,,,CLR,,,,,,,,VFR,0.7,,,,,0.005,0.005,,,,,METAR,498.0
KSAN 221451Z 27006KT 10SM FEW065 SCT080 OVC110 18/13 A3006 RMK AO2 SLP178 60000 T01780128 53029,KSAN,2018-03-22T14:51:00Z,32.73,-117.18,17.8,12.8,270,6,,10.0,30.059055,1017.8,,,TRUE,,,,,,,FEW,6500,SCT,8000,OVC,11000,,,VFR,2.9,,,,,,0.005,,,,,METAR,12.0
KSAD 221451Z AUTO 12010KT 10SM CLR 17/M01 A3015 RMK AO2 SLP176 T01671011 53013,KSAD,2018-03-22T14:51:00Z,32.85,-109.63,16.7,-1.1,120,10,,10.0,30.15059,1017.6,,TRUE,TRUE,,,,,,,CLR,,,,,,,,VFR,1.3,,,,,,,,,,,METAR,962.0
KROW 221451Z 36003KT 10SM CLR 14/M04 A3016 RMK AO2 SLP173 T01391044 53017,KROW,2018-03-22T14:51:00Z,33.3,-104.5,13.9,-4.4,360,3,,10.0,30.159449,1017.3,,,TRUE,,,,,,,CLR,,,,,,,,VFR,1.7,,,,,,,,,,,METAR,1112.0
KRDU 221451Z 32009G15KT 300V360 10SM BKN140 06/M05 A3010 RMK AO2 SLP195 T00611050 51019,KRDU,2018-03-22T14:51:00Z,35.9,-78.78,6.1,-5.0,320,9,15,10.0,30.100393,1019.5,,,TRUE,,,,,,,BKN,14000,,,,,,,VFR,1.9,,,,,,,,,,,METAR,130.0
KPVD 221451Z 35016G23KT 7SM -SN BKN015 BKN022 03/01 A2967 RMK AO2 SLP046 P0000 60001 T00330011 51010,KPVD,2018-03-22T14:51:00Z,41.72,-71.43,3.3,1.1,350,16,23,7.0,29.66929,1004.6,,,TRUE,,,,,,-SN,BKN,1500,BKN,2200,,,,,MVFR,1.0,,,,,0.005,0.01,,,,,METAR,16.0
KPHX 221451Z 11005KT 10SM FEW180 SCT220 BKN250 19/M03 A3003 RMK AO2 SLP157 T01941028 53014,KPHX,2018-03-22T14:51:00Z,33.43,-112.02,19.4,-2.8,110,5,,10.0,30.029528,1015.7,,,TRUE,,,,,,,FEW,18000,SCT,22000,BKN,25000,,,VFR,1.4,,,,,,,,,,,METAR,336.0
KORF 221451Z 32008G17KT 290V350 10SM FEW080 06/M03 A3000 RMK AO2 SLP158 T00611033 51021,KORF,2018-03-22T14:51:00Z,36.9,-76.2,6.1,-3.3,320,8,17,10.0,30.0,1015.8,,,TRUE,,,,,,,FEW,8000,,,,,,,VFR,2.1,,,,,,,,,,,METAR,14.0
KLGU 221451Z AUTO 00000KT 7SM -RA BKN055 OVC070 07/03 A2994 RMK AO2 RAB44 SLP124 P0000 60000 T00670033 56006 $,KLGU,2018-03-22T14:51:00Z,41.78,-111.85,6.7,3.3,0,0,,7.0,29.940945,1012.4,,TRUE,TRUE,TRUE,,,,,-RA,BKN,5500,OVC,7000,,,,,VFR,-0.6,,,,,0.005,0.005,,,,,METAR,1355.0
KLGA 221451Z 33012KT 10SM FEW120 BKN230 06/M05 A2979 RMK AO2 SLP086 T00561050 51010,KLGA,2018-03-22T14:51:00Z,40.78,-73.88,5.6,-5.0,330,12,,10.0,29.790354,1008.6,,,TRUE,,,,,,,FEW,12000,BKN,23000,,,,,VFR,1.0,,,,,,,,,,,METAR,11.0
KJFK 221451Z 33015KT 10SM FEW041 FEW060 BKN190 BKN240 04/M03 A2980 RMK AO2 SLP091 60000 T00391028 51011 $,KJFK,2018-03-22T14:51:00Z,40.63,-73.77,3.9,-2.8,330,15,,10.0,29.799213,1009.1,,,TRUE,TRUE,,,,,,FEW,4100,FEW,6000,BKN,19000,BKN,24000,VFR,1.1,,,,,,0.005,,,,,METAR,9.0
KILG 221451Z 31016G21KT 10SM CLR 03/M04 A2991 RMK AO2 SLP130 T00281044 51012,KILG,2018-03-22T14:51:00Z,39.67,-75.6,2.8,-4.4,310,16,21,10.0,29.911417,1013.0,,,TRUE,,,,,,,CLR,,,,,,,,VFR,1.2,,,,,,,,,,,METAR,28.0
KIGM 221451Z AUTO 13016G23KT 10SM FEW065 BKN090 17/M01 A3004 RMK AO2 SLP121 T01721006 58004,KIGM,2018-03-22T14:51:00Z,35.25,-113.93,17.2,-0.6,130,16,23,10.0,30.041338,1012.1,,TRUE,TRUE,,,,,,,FEW,6500,BKN,9000,,,,,VFR,-0.4,,,,,,,,,,,METAR,1032.0
KHTS 221451Z 36005KT 10SM CLR 03/M03 A3023 RMK AO2 SLP243 T00331033 51014,KHTS,2018-03-22T14:51:00Z,38.37,-82.55,3.3,-3.3,360,5,,10.0,30.230314,1024.3,,,TRUE,,,,,,,CLR,,,,,,,,VFR,1.4,,,,,,,,,,,METAR,254.0
KHSE 221451Z AUTO 31010G18KT 10SM FEW030 08/00 A3001 RMK AO2 SLP160 T00780000 51004,KHSE,2018-03-22T14:51:00Z,35.23,-75.62,7.8,0.0,310,10,18,10.0,30.008858,1016.0,,TRUE,TRUE,,,,,,,FEW,3000,,,,,,,VFR,0.4,,,,,,,,,,,METAR,3.0
KFWS 221451Z 16010KT 10SM SKC 17/11 A3028,KFWS,2018-03-22T14:51:00Z,32.57,-97.3,17.0,11.0,160,10,,10.0,30.280512,,,,,,,,,,,SKC,,,,,,,,VFR,,,,,,,,,,,,METAR,208.0
KEWR 221451Z 33010G20KT 10SM FEW060 SCT090 SCT200 BKN250 05/M05 A2980 RMK AO2 SLP092 T00501050 51009,KEWR,2018-03-22T14:51:00Z,40.68,-74.17,5.0,-5.0,330,10,20,10.0,29.799213,1009.2,,,TRUE,,,,,,,FEW,6000,SCT,9000,SCT,20000,BKN,25000,VFR,0.9,,,,,,,,,,,METAR,7.0
KELP 221451Z 00000KT 10SM FEW230 18/M02 A3019 RMK AO2 SLP164 T01781017 53017,KELP,2018-03-22T14:51:00Z,31.82,-106.38,17.8,-1.7,0,0,,10.0,30.188976,1016.4,,,TRUE,,,,,,,FEW,23000,,,,,,,VFR,1.7,,,,,,,,,,,METAR,1197.0
KEKN 221451Z AUTO 28004KT 10SM SCT020 M02/M07 A3011 RMK AO2 SLP224 T10221072 51015 TSNO $,KEKN,2018-03-22T14:51:00Z,38.88,-79.85,-2.2,-7.2,280,4,,10.0,30.109253,1022.4,,TRUE,TRUE,TRUE,,TRUE,,,,SCT,2000,,,,,,,VFR,1.5,,,,,,,,,,,METAR,603.0
KDAW 221451Z AUTO 35012G24KT 7SM -SN OVC036 02/M02 A2968 RMK AO2 SLP050 P0000 60000 T00171022 58003,KDAW,2018-03-22T14:51:00Z,43.28,-70.92,1.7,-2.2,350,12,24,7.0,29.681103,1005.0,,TRUE,TRUE,,,,,,-SN,OVC,3600,,,,,,,VFR,-0.3,,,,,0.005,0.005,,,,,METAR,100.0
KCSG 221451Z 01007KT 10SM CLR 09/M04 A3033 RMK AO2 SLP269 T00891044 51014,KCSG,2018-03-22T14:51:00Z,32.52,-84.95,8.9,-4.4,10,7,,10.0,30.33071,1026.9,,,TRUE,,,,,,,CLR,,,,,,,,VFR,1.4,,,,,,,,,,,METAR,135.0
KCON 221451Z AUTO 33013KT 10SM OVC041 05/M04 A2970 RMK AO2 SLP060 T00501044 58009,KCON,2018-03-22T14:51:00Z,43.2,-71.5,5.0,-4.4,330,13,,10.0,29.698818,1006.0,,TRUE,TRUE,,,,,,,OVC,4100,,,,,,,VFR,-0.9,,,,,,,,,,,METAR,103.0
KCMH 221451Z 35008KT 310V010 9SM FEW200 02/M04 A3024 RMK AO2 SLP246 T00221039 51015,KCMH,2018-03-22T14:51:00Z,40.0,-82.88,2.2,-3.9,350,8,,9.0,30.239174,1024.6,,,TRUE,,,,,,,FEW,20000,,,,,,,VFR,1.5,,,,,,,,,,,METAR,247.0
KBKW 221451Z AUTO 31009KT 10SM FEW085 M02/M07 A3012 RMK AO2 SLP233 T10221072 51015 TSNO,KBKW,2018-03-22T14:51:00Z,37.8,-81.12,-2.2,-7.2,310,9,,10.0,30.121063,1023.3,,TRUE,TRUE,,,TRUE,,,,FEW,8500,,,,,,,VFR,1.5,,,,,,,,,,,METAR,764.0
KBHK 221451Z AUTO 13008KT 10SM CLR M02/M04 A3008 RMK AO2 SLP217 T10221044 51006,KBHK,2018-03-22T14:51:00Z,46.35,-104.25,-2.2,-4.4,130,8,,10.0,30.079725,1021.7,,TRUE,TRUE,,,,,,,CLR,,,,,,,,VFR,0.6,,,,,,,,,,,METAR,902.0
KBGD 221451Z AUTO 27005KT 10SM CLR 12/01 A3010 RMK AO2 SLP174 T01170011 51009,KBGD,2018-03-22T14:51:00Z,35.7,-101.4,11.7,1.1,270,5,,10.0,30.100393,1017.4,,TRUE,TRUE,,,,,,,CLR,,,,,,,,VFR,0.9,,,,,,,,,,,METAR,927.0
KBDL 221451Z 35015G21KT 10SM FEW035 BKN055 BKN090 BKN200 08/M04 A2972 RMK AO2 PK WND 36027/1425 SLP063 60000 T00831039 50000,KBDL,2018-03-22T14:51:00Z,41.93,-72.68,8.3,-3.9,350,15,21,10.0,29.719488,1006.3,,,TRUE,,,,,,,FEW,3500,BKN,5500,BKN,9000,BKN,20000,VFR,0.0,,,,,,0.005,,,,,METAR,60.0
KAVX 221451Z AUTO 23004KT 10SM BKN075 BKN090 OVC110 16/13 A3003 RMK AO2 SLP157 T01610133 51016 $,KAVX,2018-03-22T14:51:00Z,33.4,-118.42,16.1,13.3,230,4,,10.0,30.029528,1015.7,,TRUE,TRUE,TRUE,,,,,,BKN,7500,BKN,9000,OVC,11000,,,VFR,1.6,,,,,,,,,,,METAR,482.0
KALB 221451Z 33012KT 10SM FEW120 BKN170 BKN260 02/M07 A2986 RMK AO2 SLP116 T00171067 50004,KALB,2018-03-22T14:51:00Z,42.75,-73.8,1.7,-6.7,330,12,,10.0,29.861221,1011.6,,,TRUE,,,,,,,FEW,12000,BKN,17000,BKN,26000,,,VFR,0.4,,,,,,,,,,,METAR,92.0
KAHN 221451Z 30008KT 10SM CLR 08/M05 A3023 RMK AO2 SLP242 T00831050 51012,KAHN,2018-03-22T14:51:00Z,33.95,-83.33,8.3,-5.0,300,8,,10.0,30.230314,1024.2,,,TRUE,,,,,,,CLR,,,,,,,,VFR,1.2,,,,,,,,,,,METAR,244.0
KACT 221451Z 17011KT 10SM CLR 17/11 A3029 RMK AO2 SLP253 T01670106 53020,KACT,2018-03-22T14:51:00Z,31.62,-97.23,16.7,10.6,170,11,,10.0,30.28937,1025.3,,,TRUE,,,,,,,CLR,,,,,,,,VFR,2.0,,,,,,,,,,,METAR,151.0
KABE 221451Z 32012KT 10SM CLR 03/M06 A2990 RMK AO2 SLP127 T00281061 51015,KABE,2018-03-22T14:51:00Z,40.65,-75.45,2.8,-6.1,320,12,,10.0,29.899607,1012.7,,,TRUE,,,,,,,CLR,,,,,,,,VFR,1.5,,,,,,,,,,,METAR,114.0
KP59 221451Z AUTO 01005KT M03/M08 A3035 RMK AO1 SLP296 T10281078 53010,KP59,2018-03-22T14:51:00Z,47.47,-87.88,-2.8,-7.8,10,5,,,30.351377,1029.6,,TRUE,TRUE,,,,,,,,,,,,,,,,1.0,,,,,,,,,,,METAR,190.0
MMPN 221451Z 00000KT 8SM SKC 19/10 A3029 RMK SLP/// 5//// 9// HZY,MMPN,2018-03-22T14:51:00Z,19.38,-102.02,19.0,10.0,0,0,,8.0,30.28937,,,,,,,,,,,SKC,,,,,,,,VFR,,,,,,,,,,,,METAR,1593.0
MMSP 221451Z 12004KT 12SM SCT020 BKN025 14/07 A3040 RMK SLP192 52009 940 8/500,MMSP,2018-03-22T14:51:00Z,22.25,-100.93,14.0,7.0,120,4,,12.0,30.398623,1019.2,,,,,,,,,,SCT,2000,BKN,2500,,,,,MVFR,0.9,,,,,,,,,,,METAR,1903.0
MMCL 221451Z 00000KT 10SM SKC 20/12 A3002 RMK SLP158 5//// 940 MSGTX MMMX,MMCL,2018-03-22T14:51:00Z,24.77,-107.47,20.0,12.0,0,0,,10.0,30.02067,1015.8,,,,,,,,,,SKC,,,,,,,,VFR,,,,,,,,,,,,METAR,39.0
MMGM 221451Z 00000KT 10SM BKN150 20/13 A2997 RMK 8/010 HZY,MMGM,2018-03-22T14:51:00Z,27.95,-110.92,20.0,13.0,0,0,,10.0,29.970472,,,,,,,,,,,BKN,15000,,,,,,,VFR,,,,,,,,,,,,METAR,20.0
MUCC 221451Z 36013KT 330V030 9000 FEW030 25/14 Q1021,MUCC,2018-03-22T14:51:00Z,22.47,-78.33,25.0,14.0,360,13,,5.59,30.147638,,,,,,,,,,,FEW,3000,,,,,,,VFR,,,,,,,,,,,,METAR,4.0
MUSC 221451Z 05011KT 020V080 9000 FEW025 22/11 Q1022,MUSC,2018-03-22T14:51:00Z,22.5,-79.95,22.0,11.0,50,11,,5.59,30.177166,,,,,,,,,,,FEW,2500,,,,,,,VFR,,,,,,,,,,,,METAR,103.0
MMCE 221451Z 11010KT 6SM FEW015 BKN075 26/21 A3014 RMK SLP204 52018 940 8/570 HZY,MMCE,2018-03-22T14:51:00Z,18.65,-91.8,26.0,21.0,110,10,,6.0,30.138779,1020.4,,,,,,,,,,FEW,1500,BKN,7500,,,,,VFR,1.8,,,,,,,,,,,METAR,2.0
KGDP 221451Z AUTO 25010KT 10SM CLR 17/M04 A3025 RMK AO2 SLP180 T01671039 53010,KGDP,2018-03-22T14:51:00Z,31.83,-104.82,16.7,-3.9,250,10,,10.0,30.250984,1018.0,,TRUE,TRUE,,,,,,,CLR,,,,,,,,VFR,1.0,,,,,,,,,,,METAR,1692.0
KBVE 221451Z AUTO 06008KT 8SM CLR 16/06 A3040 RMK AO2 SLP295 T01610061 53021,KBVE,2018-03-22T14:51:00Z,29.32,-89.4,16.1,6.1,60,8,,8.0,30.398623,1029.5,,TRUE,TRUE,,,,,,,CLR,,,,,,,,VFR,2.1,,,,,,,,,,,METAR,1.0
KEFD 221450Z 10008KT 10SM SCT250 16/15 A3034,KEFD,2018-03-22T14:50:00Z,29.6,-95.17,16.0,15.0,100,8,,10.0,30.339567,,,,,,,,,,,SCT,25000,,,,,,,VFR,,,,,,,,,,,,METAR,10.0
KBYH 221450Z 08004KT 10SM FEW120 08/00 A3040,KBYH,2018-03-22T14:50:00Z,35.97,-89.95,8.0,0.0,80,4,,10.0,30.398623,,,,,,,,,,,FEW,12000,,,,,,,VFR,,,,,,,,,,,,METAR,78.0
KBCT 221450Z 02014KT 10SM CLR 17/01 A3022,KBCT,2018-03-22T14:50:00Z,26.38,-80.1,17.0,1.0,20,14,,10.0,30.221457,,,,,,,,,,,CLR,,,,,,,,VFR,,,,,,,,,,,,METAR,4.0
TJBQ 221450Z 06007KT 10SM SCT039 SCT046 29/21 A3009,TJBQ,2018-03-22T14:50:00Z,18.5,-67.13,29.0,21.0,60,7,,10.0,30.088583,,,,,,,,,,,SCT,3900,SCT,4600,,,,,VFR,,,,,,,,,,,,METAR,72.0
KFDK 221450Z 34010G15KT 10SM SKC 04/M08 A3005,KFDK,2018-03-22T14:50:00Z,39.42,-77.37,4.0,-8.0,340,10,15,10.0,30.050198,,,,,,,,,,,SKC,,,,,,,,VFR,,,,,,,,,,,,METAR,92.0
KDAG 221450Z AUTO 28006KT 7SM CLR 13/13 A2998 RMK AO2 SLP141 T01330128 53007,KDAG,2018-03-22T14:50:00Z,34.85,-116.78,13.3,12.8,280,6,,7.0,29.97933,1014.1,,TRUE,TRUE,,,,,,,CLR,,,,,,,,VFR,0.7,,,,,,,,,,,METAR,587.0
KADS 221450Z 15011G14KT 10SM SKC 16/08 A3029,KADS,2018-03-22T14:50:00Z,32.97,-96.82,16.0,8.0,150,11,14,10.0,30.28937,,,,,,,,,,,SKC,,,,,,,,VFR,,,,,,,,,,,,METAR,196.0
LSZL 221450Z 26004KT 220V350 9999 FEW080 11/M03 Q1009 RMK BLU+,LSZL,2018-03-22T14:50:00Z,46.17,8.88,11.0,-3.0,260,4,,6.21,29.793306,,,,,,,,,,,FEW,8000,,,,,,,VFR,,,,,,,,,,,,SPECI,600.0
ETNG 221450Z 28012KT 8000 BKN007 BKN038 07/05 Q1014 TEMPO 3500 -DZ BKN004,ETNG,2018-03-22T14:50:00Z,50.97,6.03,7.0,5.0,280,12,,4.97,29.940945,,,,,,,,,,,BKN,700,BKN,3800,,,,,IFR,,,,,,,,,,,,METAR,98.0
TJIG 221450Z 06008KT 10SM SCT030 SCT090 28/22 A3010,TJIG,2018-03-22T14:50:00Z,18.45,-66.1,28.0,22.0,60,8,,10.0,30.100393,,,,,,,,,,,SCT,3000,SCT,9000,,,,,VFR,,,,,,,,,,,,METAR,3.0
KLAL 221450Z 35007KTKT 10SM SKC 13/M01 A3027,KLAL,2018-03-22T14:50:00Z,27.97,-82.02,13.0,-1.0,,,,10.0,30.268702,,,,,,,,,,,SKC,,,,,,,,VFR,,,,,,,,,,,,METAR,43.0
KHQZ 221450Z 16009KT 10SM CLR 16/07 A3030,KHQZ,2018-03-22T14:50:00Z,32.75,-96.53,16.0,7.0,160,9,,10.0,30.301182,,,,,,,,,,,CLR,,,,,,,,VFR,,,,,,,,,,,,METAR,136.0
KVCV 221450Z 15020G25KT 10SM SCT065 0VC075 15/08 A2998,KVCV,2018-03-22T14:50:00Z,34.58,-117.38,15.0,8.0,150,20,25,10.0,29.97933,,,,,,,,,,,SCT,6500,,,,,,,VFR,,,,,,,,,,,,METAR,876.0
KAID 221450Z 30010KT 10SM SCT020 01/M03 A3030,KAID,2018-03-22T14:50:00Z,40.12,-85.62,1.0,-3.0,300,10,,10.0,30.301182,,,,,,,,,,,SCT,2000,,,,,,,VFR,,,,,,,,,,,,METAR,280.0
KOQU 221450Z 02017KT 6SM BR SCT012OVC020 03/00 A2965,KOQU,2018-03-22T14:50:00Z,41.6,-71.42,3.0,0.0,20,17,,6.0,29.648623,,,,,,,,,,BR,OVC,2000,,,,,,,MVFR,,,,,,,,,,,,METAR,6.0
KHOB 221450Z 20008KT 10SM SKC 14/05 A3016,KHOB,2018-03-22T14:50:00Z,32.67,-103.22,14.0,5.0,200,8,,10.0,30.159449,,,,,,,,,,,SKC,,,,,,,,VFR,,,,,,,,,,,,METAR,1115.0
KALN 221450Z VRB03KT 10SM FEW150 08/01 A3039,KALN,2018-03-22T14:50:00Z,38.88,-90.03,8.0,1.0,0,3,,10.0,30.389763,,,,,,,,,,,FEW,15000,,,,,,,VFR,,,,,,,,,,,,METAR,166.0
OAKB 221450Z 08005KT 9999 SCT110 15/02 Q1017 NOSIG RMK A3004 BLU BLU,OAKB,2018-03-22T14:50:00Z,34.55,69.22,15.0,2.0,80,5,,6.21,30.029528,,,,,,TRUE,,,,,SCT,11000,,,,,,,VFR,,,,,,,,,,,,METAR,1791.0
KGPM 221450Z 11006KT 10SM SKC 12/07 A3028,KGPM,2018-03-22T14:50:00Z,32.7,-97.05,12.0,7.0,110,6,,10.0,30.280512,,,,,,,,,,,SKC,,,,,,,,VFR,,,,,,,,,,,,METAR,180.0
KVQQ 221450Z 33010KT 10SM CLR 11/M02 A3025,KVQQ,2018-03-22T14:50:00Z,30.22,-81.88,11.0,-2.0,330,10,,10.0,30.250984,,,,,,,,,,,CLR,,,,,,,,VFR,,,,,,,,,,,,METAR,25.0
KHSA 221450Z 06006KT 10SM SKC 13/03 A3040,KHSA,2018-03-22T14:50:00Z,30.37,-89.45,13.0,3.0,60,6,,10.0,30.398623,,,,,,,,,,,SKC,,,,,,,,VFR,,,,,,,,,,,,METAR,7.0
KNQA 221450Z 13003KT 10SM SKC 09/01 A3039,KNQA,2018-03-22T14:50:00Z,35.35,-89.87,9.0,1.0,130,3,,10.0,30.389763,,,,,,,,,,,SKC,,,,,,,,VFR,,,,,,,,,,,,METAR,86.0
KBAK 221450Z 33010KT 10SM FEW035 02/ A3033,KBAK,2018-03-22T14:50:00Z,39.27,-85.9,2.0,,330,10,,10.0,30.33071,,,,,,,,,,,FEW,3500,,,,,,,VFR,,,,,,,,,,,,METAR,200.0
KFIN 221450Z 30010KT 7SM SKC 12/00 A3024,KFIN,2018-03-22T14:50:00Z,29.47,-81.2,12.0,0.0,300,10,,7.0,30.239174,,,,,,,,,,,SKC,,,,,,,,VFR,,,,,,,,,,,,METAR,10.0
LSMA 221450Z 04004KT 010V070 9999 OVC086 05/M04 Q1017 RMK BLU,LSMA,2018-03-22T14:50:00Z,46.95,8.28,5.0,-4.0,40,4,,6.21,30.029528,,,,,,,,,,,OVC,8600,,,,,,,VFR,,,,,,,,,,,,METAR,444.0
LSMD 221450Z 28003KT 210V340 9999 OVC071 05/M07 Q1017 RMK BLU,LSMD,2018-03-22T14:50:00Z,47.4,8.65,5.0,-7.0,280,3,,6.21,30.029528,,,,,,,,,,,OVC,7100,,,,,,,VFR,,,,,,,,,,,,METAR,448.0
EGYP 221450Z 35034G50KT 5000 -RA OVC008 13/11 Q0987 GRN,EGYP,2018-03-22T14:50:00Z,-51.82,-58.45,13.0,11.0,350,34,50,3.11,29.143702,,,,,,,,,,-RA,OVC,800,,,,,,,IFR,,,,,,,,,,,,METAR,74.0
KESN 221450Z 32016G22KT 10SM SKC 04/M04 A2999,KESN,2018-03-22T14:50:00Z,38.8,-76.07,4.0,-4.0,320,16,22,10.0,29.991142,,,,,,,,,,,SKC,,,,,,,,VFR,,,,,,,,,,,,METAR,22.0
KCWF 221450Z 09012G18KT 10SM SKC 16/05 A3038,KCWF,2018-03-22T14:50:00Z,30.22,-93.15,16.0,5.0,90,12,18,10.0,30.380905,,,,,,,,,,,SKC,,,,,,,,VFR,,,,,,,,,,,,METAR,4.0
BGKK 221450Z 10008KT 9999 -SHSN BKN060 M01/M04 Q0994,BGKK,2018-03-22T14:50:00Z,65.57,-37.13,-1.0,-4.0,100,8,,6.21,29.350393,,,,,,,,,,-SHSN,BKN,6000,,,,,,,VFR,,,,,,,,,,,,METAR,34.0
BGJN 221450Z 22008KT 1300 -SHSN DRSN VV008 M16/M18 Q1010,BGJN,2018-03-22T14:50:00Z,69.25,-51.07,-16.0,-18.0,220,8,,0.81,29.822834,,,,,,,,,,-SHSN DRSN,OVX,0,,,,,,,LIFR,,,,,,,,,,,800,METAR,25.0
BGGH 221450Z 32015KT 2500 -SN DRSN BKN010 OVC025 M09/M11 Q1011,BGGH,2018-03-22T14:50:00Z,64.2,-51.68,-9.0,-11.0,320,15,,1.55,29.852362,,,,,,,,,,-SN DRSN,BKN,1000,OVC,2500,,,,,IFR,,,,,,,,,,,,METAR,70.0
BGBW 221450Z 23007KT 9999 FEW012 02/M03 Q0999,BGBW,2018-03-22T14:50:00Z,61.17,-45.42,2.0,-3.0,230,7,,6.21,29.498032,,,,,,,,,,,FEW,1200,,,,,,,VFR,,,,,,,,,,,,METAR,26.0
BGSF 221450Z AUTO 04006KT 6000NDV -SHSN FEW024/// BKN029/// OVC037/// M12/M17 Q1009,BGSF,2018-03-22T14:50:00Z,67.0,-50.72,-12.0,-17.0,40,6,,,29.793306,,,TRUE,,,,,,,-SHSN,FEW,2400,BKN,2900,OVC,3700,,,,,,,,,,,,,,,METAR,53.0
LLSD 221450Z VRB03KT CAVOK 26/16 Q1009,LLSD,2018-03-22T14:50:00Z,32.12,34.78,26.0,16.0,0,3,,6.21,29.793306,,,,,,,,,,,CAVOK,,,,,,,,VFR,,,,,,,,,,,,METAR,14.0
LLOV 221450Z 02010KT CAVOK 29/M01 Q1012,LLOV,2018-03-22T14:50:00Z,29.93,34.93,29.0,-1.0,20,10,,6.21,29.88189,,,,,,,,,,,CAVOK,,,,,,,,VFR,,,,,,,,,,,,METAR,432.0
LLIB 221450Z VRB02KT CAVOK 29/09 Q1012,LLIB,2018-03-22T14:50:00Z,32.98,35.57,29.0,9.0,0,2,,6.21,29.88189,,,,,,,,,,,CAVOK,,,,,,,,VFR,,,,,,,,,,,,METAR,282.0
LLHA 221450Z 31008KT CAVOK 23/16 Q1010,LLHA,2018-03-22T14:50:00Z,32.78,35.02,23.0,16.0,310,8,,6.21,29.822834,,,,,,,,,,,CAVOK,,,,,,,,VFR,,,,,,,,,,,,METAR,8.0
LLET 221450Z 03009KT CAVOK 34/M01 Q1008,LLET,2018-03-22T14:50:00Z,29.55,34.95,34.0,-1.0,30,9,,6.21,29.763779,,,,,,,,,,,CAVOK,,,,,,,,VFR,,,,,,,,,,,,METAR,13.0
PTRO 221450Z 02005KT 15SM FEW016 SCT120 BKN300 25/22 A2974 ,PTRO,2018-03-22T14:50:00Z,7.37,134.55,25.0,22.0,20,5,,15.0,29.740158,,,,,,,,,,,FEW,1600,SCT,12000,BKN,30000,,,VFR,,,,,,,,,,,,METAR,54.0
LSMS 221450Z 26014KT 9999 BKN100 08/M06 Q1014 RMK BLU,LSMS,2018-03-22T14:50:00Z,46.22,7.32,8.0,-6.0,260,14,,6.21,29.940945,,,,,,,,,,,BKN,10000,,,,,,,VFR,,,,,,,,,,,,METAR,481.0
LSMP 221450Z 01004KT 320V030 9999 BKN060 BKN075 06/M07 Q1017 RMK BLU,LSMP,2018-03-22T14:50:00Z,46.82,6.92,6.0,-7.0,10,4,,6.21,30.029528,,,,,,,,,,,BKN,6000,BKN,7500,,,,,VFR,,,,,,,,,,,,METAR,491.0
LSMM 221450Z 25004KT 190V330 9999 OVC085 05/M07 Q1016 RMK BLU,LSMM,2018-03-22T14:50:00Z,46.75,8.12,5.0,-7.0,250,4,,6.21,30.0,,,,,,,,,,,OVC,8500,,,,,,,VFR,,,,,,,,,,,,METAR,577.0
LSME 221450Z 30004KT 260V330 9999 BKN080 05/M07 Q1017 RMK BLU,LSME,2018-03-22T14:50:00Z,47.1,8.3,5.0,-7.0,300,4,,6.21,30.029528,,,,,,,,,,,BKN,8000,,,,,,,VFR,,,,,,,,,,,,METAR,427.0
EKSB 221450Z 33003KT 9999 SCT015 BKN020 06/04 Q1008,EKSB,2018-03-22T14:50:00Z,54.97,9.8,6.0,4.0,330,3,,6.21,29.763779,,,,,,,,,,,SCT,1500,BKN,2000,,,,,MVFR,,,,,,,,,,,,METAR,23.0
EEEI 221450Z 25020KT 5000 SNRA OVC012 01/M01 Q0999 R24/290095 TEMPO 2000 OVC008,EEEI,2018-03-22T14:50:00Z,59.27,24.2,1.0,-1.0,250,20,,3.11,29.498032,,,,,,,,,,SN RA,OVC,1200,,,,,,,MVFR,,,,,,,,,,,,METAR,20.0
KHXD 221450Z 31008G15KT 10SM SKC 09/M01 A3020,KHXD,2018-03-22T14:50:00Z,32.22,-80.7,9.0,-1.0,310,8,15,10.0,30.200787,,,,,,,,,,,SKC,,,,,,,,VFR,,,,,,,,,,,,METAR,6.0
LXGB 221450Z 27016KT 9999 FEW045 17/M05 Q1024 NOSIG,LXGB,2018-03-22T14:50:00Z,36.13,-5.33,17.0,-5.0,270,16,,6.21,30.236221,,,,,,TRUE,,,,,FEW,4500,,,,,,,VFR,,,,,,,,,,,,METAR,5.0
EGNS 221450Z 19015KT 9999 FEW014 SCT018 OVC030 08/06 Q1011 BECMG BKN014,EGNS,2018-03-22T14:50:00Z,54.08,-4.63,8.0,6.0,190,15,,6.21,29.852362,,,,,,,,,,,FEW,1400,SCT,1800,OVC,3000,,,MVFR,,,,,,,,,,,,SPECI,17.0
MMPR 221450Z 03006KT 15SM SKC 23/19 A3002 RMK SLP162 52019 934,MMPR,2018-03-22T14:50:00Z,20.67,-105.25,23.0,19.0,30,6,,15.0,30.02067,1016.2,,,,,,,,,,SKC,,,,,,,,VFR,1.9,,,,,,,,,,,METAR,6.0
MUCM 221450Z 01010KT 330V050 9000 SCT020 26/15 Q1021,MUCM,2018-03-22T14:50:00Z,21.42,-77.85,26.0,15.0,10,10,,5.59,30.147638,,,,,,,,,,,SCT,2000,,,,,,,VFR,,,,,,,,,,,,METAR,122.0
MUVR 221450Z 03017KT 9000 BKN020 22/13 Q1023,MUVR,2018-03-22T14:50:00Z,23.03,-81.43,22.0,13.0,30,17,,5.59,30.206694,,,,,,,,,,,BKN,2000,,,,,,,MVFR,,,,,,,,,,,,METAR,65.0
KSCH 221450Z 30008G16KT 15SM CLR 02/M06 A2987,KSCH,2018-03-22T14:50:00Z,42.85,-73.92,2.0,-6.0,300,8,16,15.0,29.870079,,,,,,,,,,,CLR,,,,,,,,VFR,,,,,,,,,,,,METAR,115.0
LCRA 221450Z 08017KT CAVOK 19/15 Q1012 NOSIG,LCRA,2018-03-22T14:50:00Z,34.57,32.97,19.0,15.0,80,17,,6.21,29.88189,,,,,,TRUE,,,,,CAVOK,,,,,,,,VFR,,,,,,,,,,,,METAR,23.0
EDHK 221450Z 36005KT 9999 FEW003 OVC019 05/04 Q1008,EDHK,2018-03-22T14:50:00Z,54.38,10.15,5.0,4.0,360,5,,6.21,29.763779,,,,,,,,,,,FEW,300,OVC,1900,,,,,MVFR,,,,,,,,,,,,METAR,31.0
MSLP 221450Z 01012KT CAVOK 32/16 Q1013 A2994,MSLP,2018-03-22T14:50:00Z,13.43,-89.05,32.0,16.0,10,12,,6.21,29.911417,,,,,,,,,,,CAVOK,,,,,,,,VFR,,,,,,,,,,,,METAR,25.0
MSLU 221450Z 10004KT CAVOK 31/19 Q1014 A2995,MSLU,2018-03-22T14:50:00Z,13.33,-87.88,31.0,19.0,100,4,,6.21,29.940945,,,,,,,,,,,CAVOK,,,,,,,,VFR,,,,,,,,,,,,METAR,5.0
MSSM 221450Z 34002KT CAVOK 30/17 Q1014 A2995,MSSM,2018-03-22T14:50:00Z,13.43,-88.12,30.0,17.0,340,2,,6.21,29.940945,,,,,,,,,,,CAVOK,,,,,,,,VFR,,,,,,,,,,,,METAR,80.0
MSSA 221450Z 35008KT CAVOK 27/11 Q1022 A3019,MSSA,2018-03-22T14:50:00Z,13.97,-89.57,27.0,11.0,350,8,,6.21,30.177166,,,,,,,,,,,CAVOK,,,,,,,,VFR,,,,,,,,,,,,METAR,725.0
MSAC 221450Z 14004KT CAVOK 31/19 Q1010 A2984,MSAC,2018-03-22T14:50:00Z,13.57,-89.83,31.0,19.0,140,4,,6.21,29.822834,,,,,,,,,,,CAVOK,,,,,,,,VFR,,,,,,,,,,,,METAR,15.0
KSBD 221450Z 20003KT 7SM BKN045 OVC085 17/12 A3004,KSBD,2018-03-22T14:50:00Z,34.08,-117.25,17.0,12.0,200,3,,7.0,30.041338,,,,,,,,,,,BKN,4500,OVC,8500,,,,,VFR,,,,,,,,,,,,METAR,353.0
MUHG 221450Z 03005KT 320V110 9000 SCT025 28/20 Q1019,MUHG,2018-03-22T14:50:00Z,20.77,-76.32,28.0,20.0,30,5,,5.59,30.088583,,,,,,,,,,,SCT,2500,,,,,,,VFR,,,,,,,,,,,,METAR,106.0
OAMS 221450Z 25016KT 6000 FEW100 SCT150 23/04 Q1015 WHT BLU+ TEMPO YLO,OAMS,2018-03-22T14:50:00Z,36.7,67.2,23.0,4.0,250,16,,3.73,29.970472,,,,,,,,,,,FEW,10000,SCT,15000,,,,,MVFR,,,,,,,,,,,,METAR,378.0
KOMN 221450Z 32012G18KT 10SM SKC 12/M02 A3024,KOMN,2018-03-22T14:50:00Z,29.3,-81.12,12.0,-2.0,320,12,18,10.0,30.239174,,,,,,,,,,,SKC,,,,,,,,VFR,,,,,,,,,,,,METAR,9.0
PTKK 221450Z VRB05KT 15SM FEW014 SCT120 OVC280 28/24 A2965 RMK SLP044 8/171 T02750240 57012,PTKK,2018-03-22T14:50:00Z,7.47,151.85,27.5,24.0,0,5,,15.0,29.648623,1004.4,,,,,,,,,,FEW,1400,SCT,12000,OVC,28000,,,VFR,-1.2,,,,,,,,,,,METAR,2.0
MUCF 221450Z 05013KT CAVOK 23/13 Q1022,MUCF,2018-03-22T14:50:00Z,22.13,-80.4,23.0,13.0,50,13,,6.21,30.177166,,,,,,,,,,,CAVOK,,,,,,,,VFR,,,,,,,,,,,,METAR,39.0
LTBQ 221450Z 04010KT 010V070 4000 -RA BR SCT006 OVC018 07/07 Q1012 BECMG TL1550 6000,LTBQ,2018-03-22T14:50:00Z,40.72,30.07,7.0,7.0,40,10,,2.49,29.88189,,,,,,,,,,-RA BR,SCT,600,OVC,1800,,,,,IFR,,,,,,,,,,,,METAR,50.0
LTBF 221450Z 36006KT 330V050 9999 SCT015 SCT035 BKN200 10/08 Q1008 NOSIG,LTBF,2018-03-22T14:50:00Z,39.62,27.92,10.0,8.0,360,6,,6.21,29.763779,,,,,,TRUE,,,,,SCT,1500,SCT,3500,BKN,20000,,,VFR,,,,,,,,,,,,METAR,102.0
LTAN 221450Z 22017KT 9999 FEW035 BKN200 21/M09 Q1012 NOSIG,LTAN,2018-03-22T14:50:00Z,37.97,32.53,21.0,-9.0,220,17,,6.21,29.88189,,,,,,TRUE,,,,,FEW,3500,BKN,20000,,,,,VFR,,,,,,,,,,,,METAR,1006.0
EGDR 221450Z 21017G27KT 9999 FEW025 OVC030 08/05 Q1017 BLU TEMPO SCT018 WHT,EGDR,2018-03-22T14:50:00Z,50.08,-5.25,8.0,5.0,210,17,27,6.21,30.029528,,,,,,,,,,,FEW,2500,OVC,3000,,,,,MVFR,,,,,,,,,,,,METAR,82.0
EGDM 221450Z 26015KT 9999 BKN030 07/M00 Q1018 BLU NOSIG,EGDM,2018-03-22T14:50:00Z,51.17,-1.75,7.0,0.0,260,15,,6.21,30.059055,,,,,,TRUE,,,,,BKN,3000,,,,,,,MVFR,,,,,,,,,,,,METAR,124.0
EGOS 221450Z 22014KT 9999 OVC032 08/02 Q1015 BLU NOSIG,EGOS,2018-03-22T14:50:00Z,52.8,-2.67,8.0,2.0,220,14,,6.21,29.970472,,,,,,TRUE,,,,,OVC,3200,,,,,,,VFR,,,,,,,,,,,,METAR,76.0
EGOM 221450Z 25021KT 9999 SCT023 BKN200 06/02 Q1010 WHT,EGOM,2018-03-22T14:50:00Z,55.05,-2.55,6.0,2.0,250,21,,6.21,29.822834,,,,,,,,,,,SCT,2300,BKN,20000,,,,,VFR,,,,,,,,,,,,METAR,325.0
EGDY 221450Z 22008KT 9999 OVC032 08/02 Q1018 BLU NOSIG,EGDY,2018-03-22T14:50:00Z,51.0,-2.62,8.0,2.0,220,8,,6.21,30.059055,,,,,,TRUE,,,,,OVC,3200,,,,,,,VFR,,,,,,,,,,,,METAR,23.0
EGDX 221450Z 22006KT 9999 OVC032 07/03 Q1017 BLU,EGDX,2018-03-22T14:50:00Z,51.4,-3.43,7.0,3.0,220,6,,6.21,30.029528,,,,,,,,,,,OVC,3200,,,,,,,VFR,,,,,,,,,,,,METAR,50.0
KTZR 221450Z 32007KT 10SM SKC 01/M04 A3025,KTZR,2018-03-22T14:50:00Z,39.9,-83.13,1.0,-4.0,320,7,,10.0,30.250984,,,,,,,,,,,SKC,,,,,,,,VFR,,,,,,,,,,,,METAR,276.0
LGSO 221450Z 13024G34KT 7000 FEW018 19/12 Q1000,LGSO,2018-03-22T14:50:00Z,37.42,24.95,19.0,12.0,130,24,34,4.35,29.52756,,,,,,,,,,,FEW,1800,,,,,,,MVFR,,,,,,,,,,,,METAR,72.0
LGKZ 221450Z 32010KT 3000 -DZ BR SCT006 BKN020 OVC070 03/02 Q1004,LGKZ,2018-03-22T14:50:00Z,40.28,21.83,3.0,2.0,320,10,,1.86,29.64567,,,,,,,,,,-DZ BR,SCT,600,BKN,2000,OVC,7000,,,IFR,,,,,,,,,,,,METAR,628.0
LGKF 221450Z 17012KT 8000 3000E DU FEW014 SCT018 BKN070 16/16 Q0998,LGKF,2018-03-22T14:50:00Z,38.12,20.5,16.0,16.0,170,12,,4.97,29.468504,,,,,,,,,,DU,FEW,1400,SCT,1800,BKN,7000,,,MVFR,,,,,,,,,,,,METAR,18.0
LGHI 221450Z VRB04KT 9999 FEW030 20/09 Q1001,LGHI,2018-03-22T14:50:00Z,38.32,26.12,20.0,9.0,0,4,,6.21,29.557087,,,,,,,,,,,FEW,3000,,,,,,,VFR,,,,,,,,,,,,METAR,4.0
LIPK 221450Z 02015KT 9999 FEW030 09/M06 Q1009,LIPK,2018-03-22T14:50:00Z,44.2,12.07,9.0,-6.0,20,15,,6.21,29.793306,,,,,,,,,,,FEW,3000,,,,,,,VFR,,,,,,,,,,,,METAR,32.0
LIPB 221450Z 34013KT CAVOK 16/M17 Q1006,LIPB,2018-03-22T14:50:00Z,46.47,11.32,16.0,-17.0,340,13,,6.21,29.704725,,,,,,,,,,,CAVOK,,,,,,,,VFR,,,,,,,,,,,,METAR,241.0
NSTU 221450Z VRB03KT 10SM SCT016 SCT040 BKN100 26/26 A2979 RMK SLP088 60000 8/470 T02610258 56007,NSTU,2018-03-22T14:50:00Z,-14.33,-170.72,26.1,25.8,0,3,,10.0,29.790354,1008.8,,,,,,,,,,SCT,1600,SCT,4000,BKN,10000,,,VFR,-0.7,,,,,,0.005,,,,,METAR,3.0
LTBH 221450Z 05021KT 9999 FEW015 SCT035 BKN100 09/06 Q1007,LTBH,2018-03-22T14:50:00Z,40.13,26.42,9.0,6.0,50,21,,6.21,29.734253,,,,,,,,,,,FEW,1500,SCT,3500,BKN,10000,,,VFR,,,,,,,,,,,,METAR,3.0
LTBD 221450Z 11012G22KT 060V140 CAVOK 23/02 Q1004,LTBD,2018-03-22T14:50:00Z,37.82,27.88,23.0,2.0,110,12,22,6.21,29.64567,,,,,,,,,,,CAVOK,,,,,,,,VFR,,,,,,,,,,,,METAR,57.0
LTCB 221450Z VRB02KT 7000 BKN008 BKN100 11/09 Q1018,LTCB,2018-03-22T14:50:00Z,39.72,43.03,11.0,9.0,0,2,,4.35,30.059055,,,,,,,,,,,BKN,800,BKN,10000,,,,,IFR,,,,,,,,,,,,METAR,1632.0
LTCN 221450Z 22004KT CAVOK 20/08 Q1015 NOSIG,LTCN,2018-03-22T14:50:00Z,37.53,36.95,20.0,8.0,220,4,,6.21,29.970472,,,,,,TRUE,,,,,CAVOK,,,,,,,,VFR,,,,,,,,,,,,METAR,526.0
LTCR 221450Z 09003KT CAVOK 18/11 Q1016,LTCR,2018-03-22T14:50:00Z,37.22,40.63,18.0,11.0,90,3,,6.21,30.0,,,,,,,,,,,CAVOK,,,,,,,,VFR,,,,,,,,,,,,METAR,527.0
LTCP 221450Z 00000KT CAVOK 18/02 Q1016,LTCP,2018-03-22T14:50:00Z,37.73,38.47,18.0,2.0,0,0,,6.21,30.0,,,,,,,,,,,CAVOK,,,,,,,,VFR,,,,,,,,,,,,METAR,676.0
LTCV 221450Z 25005KT 9999 FEW040 BKN100 18/06 Q1017,LTCV,2018-03-22T14:50:00Z,37.37,42.07,18.0,6.0,250,5,,6.21,30.029528,,,,,,,,,,,FEW,4000,BKN,10000,,,,,VFR,,,,,,,,,,,,METAR,621.0
LTFG 221450Z 24006KT 9999 FEW035 BKN180 19/15 Q1012,LTFG,2018-03-22T14:50:00Z,36.3,32.3,19.0,15.0,240,6,,6.21,29.88189,,,,,,,,,,,FEW,3500,BKN,18000,,,,,VFR,,,,,,,,,,,,METAR,95.0
LTFD 221450Z 06023G33KT 9999 SCT035 BKN100 12/07 Q1005,LTFD,2018-03-22T14:50:00Z,39.55,27.02,12.0,7.0,60,23,33,6.21,29.675198,,,,,,,,,,,SCT,3500,BKN,10000,,,,,VFR,,,,,,,,,,,,METAR,16.0
LTAR 221450Z 19010KT 9999 SCT035 BKN100 11/M00 Q1016,LTAR,2018-03-22T14:50:00Z,39.8,36.9,11.0,0.0,190,10,,6.21,30.0,,,,,,,,,,,SCT,3500,BKN,10000,,,,,VFR,,,,,,,,,,,,METAR,1271.0
LTBY 221450Z 10003KT 060V120 9999 FEW040 BKN180 16/04 Q1008,LTBY,2018-03-22T14:50:00Z,39.82,30.52,16.0,4.0,100,3,,6.21,29.763779,,,,,,,,,,,FEW,4000,BKN,18000,,,,,VFR,,,,,,,,,,,,METAR,789.0
LTAY 221450Z 24007KT 9999 SCT035 BKN100 19/M05 Q1009,LTAY,2018-03-22T14:50:00Z,37.77,29.68,19.0,-5.0,240,7,,6.21,29.793306,,,,,,,,,,,SCT,3500,BKN,10000,,,,,VFR,,,,,,,,,,,,METAR,849.0
LTCA 221450Z 32004KT 9999 SCT035 BKN200 17/07 Q1016 NOSIG,LTCA,2018-03-22T14:50:00Z,38.6,39.27,17.0,7.0,320,4,,6.21,30.0,,,,,,TRUE,,,,,SCT,3500,BKN,20000,,,,,VFR,,,,,,,,,,,,METAR,882.0
LTCF 221450Z 22010KT 9999 BKN030 BKN070 09/M03 Q1016,LTCF,2018-03-22T14:50:00Z,40.57,43.12,9.0,-3.0,220,10,,6.21,30.0,,,,,,,,,,,BKN,3000,BKN,7000,,,,,MVFR,,,,,,,,,,,,METAR,1795.0
LTCI 221450Z 00000KT 9999 SCT040 BKN120 10/M04 Q1019 NOSIG,LTCI,2018-03-22T14:50:00Z,38.45,43.32,10.0,-4.0,0,0,,6.21,30.088583,,,,,,TRUE,,,,,SCT,4000,BKN,12000,,,,,VFR,,,,,,,,,,,,METAR,1661.0
LTFH 221450Z VRB02KT 9999 FEW010 SCT036 BKN100 10/07 Q1017 NOSIG,LTFH,2018-03-22T14:50:00Z,41.27,36.55,10.0,7.0,0,2,,6.21,30.029528,,,,,,TRUE,,,,,FEW,1000,SCT,3600,BKN,10000,,,VFR,,,,,,,,,,,,METAR,5.0
LTDA 221450Z 01002KT CAVOK 22/08 Q1015 NOSIG,LTDA,2018-03-22T14:50:00Z,36.37,36.28,22.0,8.0,10,2,,6.21,29.970472,,,,,,TRUE,,,,,CAVOK,,,,,,,,VFR,,,,,,,,,,,,METAR,82.0
LTCD 221450Z 07005KT 9999 SCT045 BKN100 15/01 Q1016 NOSIG,LTCD,2018-03-22T14:50:00Z,39.72,39.5,15.0,1.0,70,5,,6.21,30.0,,,,,,TRUE,,,,,SCT,4500,BKN,10000,,,,,VFR,,,,,,,,,,,,METAR,1215.0
ENBV 221450Z 30019KT 9999 VCSH FEW012CB SCT035 M04/M09 Q1001,ENBV,2018-03-22T14:50:00Z,70.87,29.02,-4.0,-9.0,300,19,,6.21,29.557087,,,,,,,,,,VCSH,FEW,1200,SCT,3500,,,,,VFR,,,,,,,,,,,,METAR,13.0
ENSK 221450Z 06004KT CAVOK 00/M05 Q1005,ENSK,2018-03-22T14:50:00Z,68.57,15.02,0.0,-5.0,60,4,,6.21,29.675198,,,,,,,,,,,CAVOK,,,,,,,,VFR,,,,,,,,,,,,METAR,3.0
EETU 221450Z 23012KT 9999 OVC017 02/M02 Q1000,EETU,2018-03-22T14:50:00Z,58.32,26.68,2.0,-2.0,230,12,,6.21,29.52756,,,,,,,,,,,OVC,1700,,,,,,,MVFR,,,,,,,,,,,,METAR,67.0
EEKE 221450Z 25011KT 210V280 9999 BKN010 02/00 Q1003 R17/0///95,EEKE,2018-03-22T14:50:00Z,58.23,22.52,2.0,0.0,250,11,,6.21,29.616142,,,,,,,,,,,BKN,1000,,,,,,,MVFR,,,,,,,,,,,,METAR,4.0
EEKA 221450Z 25010G21KT 9999 BKN011 OVC022 02/M00 Q1001,EEKA,2018-03-22T14:50:00Z,58.98,22.83,2.0,0.0,250,10,21,6.21,29.557087,,,,,,,,,,,BKN,1100,OVC,2200,,,,,MVFR,,,,,,,,,,,,METAR,4.0
LGZA 221450Z 20012KT 8000 SCT020 SCT070 17/13 Q0998,LGZA,2018-03-22T14:50:00Z,37.75,20.87,17.0,13.0,200,12,,4.97,29.468504,,,,,,,,,,,SCT,2000,SCT,7000,,,,,MVFR,,,,,,,,,,,,METAR,3.0
LGSK 221450Z 04016KT 6000 SCT008 OVC020 11/09 Q1004,LGSK,2018-03-22T14:50:00Z,39.18,23.5,11.0,9.0,40,16,,3.73,29.64567,,,,,,,,,,,SCT,800,OVC,2000,,,,,MVFR,,,,,,,,,,,,METAR,15.0
ENVR 221450Z 16003KT 9999 FEW014 02/M04 Q1005,ENVR,2018-03-22T14:50:00Z,67.65,12.72,2.0,-4.0,160,3,,6.21,29.675198,,,,,,,,,,,FEW,1400,,,,,,,VFR,,,,,,,,,,,,METAR,4.0
ENSH 221450Z 33003KT 9999 FEW035 00/M07 Q1005 RMK WIND 150FT 27002KT,ENSH,2018-03-22T14:50:00Z,68.25,14.67,0.0,-7.0,330,3,,6.21,29.675198,,,,,,,,,,,FEW,3500,,,,,,,VFR,,,,,,,,,,,,METAR,9.0
ENRA 221450Z 28007KT 9999 VCSH FEW020 SCT040 01/M07 Q1004,ENRA,2018-03-22T14:50:00Z,66.37,14.3,1.0,-7.0,280,7,,6.21,29.64567,,,,,,,,,,VCSH,FEW,2000,SCT,4000,,,,,VFR,,,,,,,,,,,,METAR,70.0
MSSS 221450Z 35010KT CAVOK 26/13 Q1018 A3006,MSSS,2018-03-22T14:50:00Z,13.7,-89.12,26.0,13.0,350,10,,6.21,30.059055,,,,,,,,,,,CAVOK,,,,,,,,VFR,,,,,,,,,,,,METAR,616.0
HLLM 221450Z 27019G31KT 7000 SCT020 17/03 Q1008,HLLM,2018-03-22T14:50:00Z,32.9,13.28,17.0,3.0,270,19,31,4.35,29.763779,,,,,,,,,,,SCT,2000,,,,,,,MVFR,,,,,,,,,,,,METAR,11.0
ENGC 221450Z 20019KT 3500 BR OVC003 05/05 Q1006 W06/S4,ENGC,2018-03-22T14:50:00Z,61.02,2.02,5.0,5.0,200,19,,2.17,29.704725,,,,,,,,,,BR,OVC,300,,,,,,,LIFR,,,,,,,,,,,,METAR,10.0
ENNO 221450Z 14004KT CAVOK 07/M02 Q1005,ENNO,2018-03-22T14:50:00Z,59.57,9.22,7.0,-2.0,140,4,,6.21,29.675198,,,,,,,,,,,CAVOK,,,,,,,,VFR,,,,,,,,,,,,METAR,19.0
ENBS 221450Z 33017KT 9999 VCSH SCT034 BKN052 M07/M13 Q0999,ENBS,2018-03-22T14:50:00Z,70.62,29.72,-7.0,-13.0,330,17,,6.21,29.498032,,,,,,,,,,VCSH,SCT,3400,BKN,5200,,,,,VFR,,,,,,,,,,,,METAR,10.0
ENSB 221450Z 30015KT 9999 FEW030 M11/M20 Q1008 RMK WIND 1400FT 32012KT,ENSB,2018-03-22T14:50:00Z,78.25,15.47,-11.0,-20.0,300,15,,6.21,29.763779,,,,,,,,,,,FEW,3000,,,,,,,VFR,,,,,,,,,,,,METAR,29.0
ENVD 221450Z 33015KT 9999 FEW012 SCT050 M09/M12 Q1000,ENVD,2018-03-22T14:50:00Z,70.07,29.85,-9.0,-12.0,330,15,,6.21,29.52756,,,,,,,,,,,FEW,1200,SCT,5000,,,,,VFR,,,,,,,,,,,,METAR,39.0
EGWU 221450Z 26013KT 9999 SCT035 BKN300 11/06 Q1017 NOSIG,EGWU,2018-03-22T14:50:00Z,51.55,-0.42,11.0,6.0,260,13,,6.21,30.029528,,,,,,TRUE,,,,,SCT,3500,BKN,30000,,,,,VFR,,,,,,,,,,,,METAR,40.0
ENEV 221450Z 36004KT 320V030 9999 FEW033 00/M07 Q1005 RMK WIND 1400FT 01006KT,ENEV,2018-03-22T14:50:00Z,68.52,16.67,0.0,-7.0,360,4,,6.21,29.675198,,,,,,,,,,,FEW,3300,,,,,,,VFR,,,,,,,,,,,,METAR,26.0
ENAT 221450Z VRB01KT 4000 -SN SCT015 BKN035 M04/M11 Q1004 RMK WIND 700FT 00000KT,ENAT,2018-03-22T14:50:00Z,69.97,23.37,-4.0,-11.0,0,1,,2.49,29.64567,,,,,,,,,,-SN,SCT,1500,BKN,3500,,,,,IFR,,,,,,,,,,,,METAR,3.0
ENSS 221450Z 32018KT 9999 6000N VCSH FEW010CB SCT026 M07/M08 Q0999 RMK WIND 500FT 31016G29KT,ENSS,2018-03-22T14:50:00Z,70.33,31.05,-7.0,-8.0,320,18,,6.21,29.498032,,,,,,,,,,VCSH,FEW,1000,SCT,2600,,,,,VFR,,,,,,,,,,,,METAR,12.0
MUCU 221450Z 35008KT 310V050 9000 FEW020 30/17 Q1019,MUCU,2018-03-22T14:50:00Z,19.97,-75.83,30.0,17.0,350,8,,5.59,30.088583,,,,,,,,,,,FEW,2000,,,,,,,VFR,,,,,,,,,,,,METAR,76.0
OOMS 221450Z 06009KT CAVOK 27/19 Q1009 WS R08L NOSIG,OOMS,2018-03-22T14:50:00Z,23.57,58.27,27.0,19.0,60,9,,6.21,29.793306,,,,,,TRUE,,,,,CAVOK,,,,,,,,VFR,,,,,,,,,,,,METAR,8.0
OOSA 221450Z 17006KT 140V200 9999 FEW025 26/21 Q1012 NOSIG,OOSA,2018-03-22T14:50:00Z,17.02,54.07,26.0,21.0,170,6,,6.21,29.88189,,,,,,TRUE,,,,,FEW,2500,,,,,,,VFR,,,,,,,,,,,,METAR,20.0
KOLV 221450Z 00000KT 10SM SKC 08/04 A3040,KOLV,2018-03-22T14:50:00Z,34.98,-89.78,8.0,4.0,0,0,,10.0,30.398623,,,,,,,,,,,SKC,,,,,,,,VFR,,,,,,,,,,,,METAR,122.0
EGQS 221450Z 22012KT 9999 FEW028 SCT140 BKN250 11/02 Q1005 BLU NOSIG,EGQS,2018-03-22T14:50:00Z,57.72,-3.32,11.0,2.0,220,12,,6.21,29.675198,,,,,,TRUE,,,,,FEW,2800,SCT,14000,BKN,25000,,,VFR,,,,,,,,,,,,METAR,13.0
EGQM 221450Z AUTO 22016KT 9999 BKN025/// 09/03 Q1010,EGQM,2018-03-22T14:50:00Z,55.42,-1.6,9.0,3.0,220,16,,6.21,29.822834,,,TRUE,,,,,,,,BKN,2500,,,,,,,MVFR,,,,,,,,,,,,METAR,23.0
EGQL 221450Z 24016KT 9999 OVC025 09/04 Q1008 BLU,EGQL,2018-03-22T14:50:00Z,56.38,-2.87,9.0,4.0,240,16,,6.21,29.763779,,,,,,,,,,,OVC,2500,,,,,,,MVFR,,,,,,,,,,,,METAR,12.0
EGQA 221450Z 20022KT 9999 FEW012 SCT030 09/// Q1005 BLU,EGQA,2018-03-22T14:50:00Z,57.83,-3.95,,,200,22,,6.21,29.675198,,,,,,,,,,,FEW,1200,SCT,3000,,,,,VFR,,,,,,,,,,,,METAR,4.0
EGOV 221450Z 18025KT 9999 FEW025 OVC035 08/04 Q1013 BLACKBLU,EGOV,2018-03-22T14:50:00Z,53.25,-4.53,8.0,4.0,180,25,,6.21,29.911417,,,,,,,,,,,FEW,2500,OVC,3500,,,,,VFR,,,,,,,,,,,,METAR,11.0
EGWC 221450Z 23008KT 9999 BKN025 08/01 Q1016 BLU,EGWC,2018-03-22T14:50:00Z,52.62,-2.28,8.0,1.0,230,8,,6.21,30.0,,,,,,,,,,,BKN,2500,,,,,,,MVFR,,,,,,,,,,,,METAR,83.0
LIRZ 221450Z 04016KT CAVOK 07/M07 Q1004,LIRZ,2018-03-22T14:50:00Z,43.1,12.5,7.0,-7.0,40,16,,6.21,29.64567,,,,,,,,,,,CAVOK,,,,,,,,VFR,,,,,,,,,,,,METAR,205.0
LIRI 221450Z 01007KT 7000 -RA BKN030 OVC040 07/01 Q0999,LIRI,2018-03-22T14:50:00Z,40.62,14.92,7.0,1.0,10,7,,4.35,29.498032,,,,,,,,,,-RA,BKN,3000,OVC,4000,,,,,MVFR,,,,,,,,,,,,METAR,40.0
LIBP 221450Z 32013KT 290V350 9999 SCT050 07/M02 Q1004,LIBP,2018-03-22T14:50:00Z,42.42,14.18,7.0,-2.0,320,13,,6.21,29.64567,,,,,,,,,,,SCT,5000,,,,,,,VFR,,,,,,,,,,,,METAR,11.0
LIBG 221450Z 32006KT 240V030 9999 -RA FEW010 SCT020 06/04 Q0995 RERA,LIBG,2018-03-22T14:50:00Z,40.52,17.38,6.0,4.0,320,6,,6.21,29.379921,,,,,,,,,,-RA,FEW,1000,SCT,2000,,,,,VFR,,,,,,,,,,,,METAR,69.0
LIBF 221450Z 31021KT 9999 SCT020 BKN030 06/01 Q0999,LIBF,2018-03-22T14:50:00Z,41.42,15.52,6.0,1.0,310,21,,6.21,29.498032,,,,,,,,,,,SCT,2000,BKN,3000,,,,,MVFR,,,,,,,,,,,,METAR,80.0
LIBC 221450Z 35010KT 9999 SCT020 07/04 Q0997,LIBC,2018-03-22T14:50:00Z,39.0,17.07,7.0,4.0,350,10,,6.21,29.438976,,,,,,,,,,,SCT,2000,,,,,,,VFR,,,,,,,,,,,,METAR,161.0
LIRU 221450Z 36014KT CAVOK 10/01 Q1000,LIRU,2018-03-22T14:50:00Z,41.95,12.5,10.0,1.0,360,14,,6.21,29.52756,,,,,,,,,,,CAVOK,,,,,,,,VFR,,,,,,,,,,,,METAR,24.0
LIQN 221450Z 30017G28KT CAVOK 06/M02 Q0999,LIQN,2018-03-22T14:50:00Z,42.42,12.83,6.0,-2.0,300,17,28,6.21,29.498032,,,,,,,,,,,CAVOK,,,,,,,,VFR,,,,,,,,,,,,METAR,389.0
LIMZ 221450Z VRB03KT CAVOK 09/M01 Q1009,LIMZ,2018-03-22T14:50:00Z,44.53,7.62,9.0,-1.0,0,3,,6.21,29.793306,,,,,,,,,,,CAVOK,,,,,,,,VFR,,,,,,,,,,,,METAR,380.0
LIMP 221450Z VRB03KT CAVOK 09/M05 Q1010,LIMP,2018-03-22T14:50:00Z,44.82,10.3,9.0,-5.0,0,3,,6.21,29.822834,,,,,,,,,,,CAVOK,,,,,,,,VFR,,,,,,,,,,,,METAR,50.0
LIMG 221450Z 01008G18KT 330V100 CAVOK 16/M11 Q1007,LIMG,2018-03-22T14:50:00Z,44.03,8.12,16.0,-11.0,10,8,18,6.21,29.734253,,,,,,,,,,,CAVOK,,,,,,,,VFR,,,,,,,,,,,,METAR,49.0
LIMA 221450Z 20003KT 8000 NSC 10/M01 Q1009,LIMA,2018-03-22T14:50:00Z,45.08,7.6,10.0,-1.0,200,3,,4.97,29.793306,,,,,,,,,,,CLR,,,,,,,,MVFR,,,,,,,,,,,,METAR,287.0
LICR 221450Z 32008KT 300V010 9999 FEW030 SCT050 12/07 Q0998,LICR,2018-03-22T14:50:00Z,38.07,15.65,12.0,7.0,320,8,,6.21,29.468504,,,,,,,,,,,FEW,3000,SCT,5000,,,,,VFR,,,,,,,,,,,,METAR,21.0
LICD 221450Z 28019KT 9999 SCT030 13/05 Q1004,LICD,2018-03-22T14:50:00Z,35.5,12.62,13.0,5.0,280,19,,6.21,29.64567,,,,,,,,,,,SCT,3000,,,,,,,VFR,,,,,,,,,,,,METAR,20.0
LICB 221450Z 27017KT 9999 FEW015TCU SCT020 SCT045 10/07 Q1000 RERA,LICB,2018-03-22T14:50:00Z,37.0,14.62,10.0,7.0,270,17,,6.21,29.52756,,,,,,,,,,,FEW,1500,SCT,2000,SCT,4500,,,VFR,,,,,,,,,,,,METAR,220.0
LICA 221450Z VRB03KT 9999 -DZ SCT010 BKN040 10/08 Q0997,LICA,2018-03-22T14:50:00Z,38.88,16.25,10.0,8.0,0,3,,6.21,29.438976,,,,,,,,,,-DZ,SCT,1000,BKN,4000,,,,,VFR,,,,,,,,,,,,METAR,15.0
LIPY 221450Z 34016KT 9999 FEW030 07/M03 Q1007,LIPY,2018-03-22T14:50:00Z,43.62,13.37,7.0,-3.0,340,16,,6.21,29.734253,,,,,,,,,,,FEW,3000,,,,,,,VFR,,,,,,,,,,,,METAR,10.0
LIPO 221450Z 28010KT CAVOK 09/M05 Q1009,LIPO,2018-03-22T14:50:00Z,45.42,10.33,9.0,-5.0,280,10,,6.21,29.793306,,,,,,,,,,,CAVOK,,,,,,,,VFR,,,,,,,,,,,,METAR,109.0
OIHH 221450Z 26006KT CAVOK 17/M10 Q1018,OIHH,2018-03-22T14:50:00Z,34.87,48.55,17.0,-10.0,260,6,,6.21,30.059055,,,,,,,,,,,CAVOK,,,,,,,,VFR,,,,,,,,,,,,METAR,1757.0
OICK 221450Z 26006KT CAVOK 20/M01 Q1017,OICK,2018-03-22T14:50:00Z,33.43,48.28,20.0,-1.0,260,6,,6.21,30.029528,,,,,,,,,,,CAVOK,,,,,,,,VFR,,,,,,,,,,,,METAR,1155.0
EGUB 221450Z 26013KT 9999 BKN034 09/01 Q1017 BLU NOSIG,EGUB,2018-03-22T14:50:00Z,51.62,-1.07,9.0,1.0,260,13,,6.21,30.029528,,,,,,TRUE,,,,,BKN,3400,,,,,,,VFR,,,,,,,,,,,,METAR,63.0
KCIC 221450Z 13012G20KT 10SM BKN010 OVC070 14/14 A2965,KCIC,2018-03-22T14:50:00Z,39.78,-121.83,14.0,14.0,130,12,20,10.0,29.648623,,,,,,,,,,,BKN,1000,OVC,7000,,,,,MVFR,,,,,,,,,,,,METAR,73.0
EGYM 221450Z 25011KT 9999 BKN028 10/05 Q1015 BLU NOSIG,EGYM,2018-03-22T14:50:00Z,52.63,0.57,10.0,5.0,250,11,,6.21,29.970472,,,,,,TRUE,,,,,BKN,2800,,,,,,,MVFR,,,,,,,,,,,,METAR,23.0
EGYD 221450Z 24014KT 9999 BKN026 09/03 Q1014 BLU NOSIG,EGYD,2018-03-22T14:50:00Z,53.03,-0.5,9.0,3.0,240,14,,6.21,29.940945,,,,,,TRUE,,,,,BKN,2600,,,,,,,MVFR,,,,,,,,,,,,METAR,67.0
EGXW 221450Z 25013KT 9999 BKN028 BKN250 09/02 Q1014 BLU NOSIG,EGXW,2018-03-22T14:50:00Z,53.18,-0.52,9.0,2.0,250,13,,6.21,29.940945,,,,,,TRUE,,,,,BKN,2800,BKN,25000,,,,,MVFR,,,,,,,,,,,,METAR,70.0
EGXV 221450Z AUTO 23014KT 9999 BKN030/// 11/04 Q1013,EGXV,2018-03-22T14:50:00Z,53.87,-0.45,11.0,4.0,230,14,,6.21,29.911417,,,TRUE,,,,,,,,BKN,3000,,,,,,,MVFR,,,,,,,,,,,,METAR,6.0
EGXU 221450Z 26012KT 9999 BKN031 09/02 Q1013 BLU NOSIG,EGXU,2018-03-22T14:50:00Z,54.05,-1.25,9.0,2.0,260,12,,6.21,29.911417,,,,,,TRUE,,,,,BKN,3100,,,,,,,VFR,,,,,,,,,,,,METAR,16.0
EGXT 221450Z 25012KT 9999 OVC022 09/03 Q1015 WHT,EGXT,2018-03-22T14:50:00Z,52.62,-0.47,9.0,3.0,250,12,,6.21,29.970472,,,,,,,,,,,OVC,2200,,,,,,,MVFR,,,,,,,,,,,,METAR,84.0
EGXS 221450Z 22010KT 9999 OVC028 10/05 Q1014 BLU,EGXS,2018-03-22T14:50:00Z,53.48,0.15,10.0,5.0,220,10,,6.21,29.940945,,,,,,,,,,,OVC,2800,,,,,,,MVFR,,,,,,,,,,,,METAR,3.0
EGXP 221450Z 25011KT 9999 BKN028 09/04 Q1014 BLU,EGXP,2018-03-22T14:50:00Z,53.3,-0.55,9.0,4.0,250,11,,6.21,29.940945,,,,,,,,,,,BKN,2800,,,,,,,MVFR,,,,,,,,,,,,METAR,61.0
EGXE 221450Z 24012KT 9999 FEW035 SCT200 09/01 Q1012 BLU NOSIG,EGXE,2018-03-22T14:50:00Z,54.28,-1.52,9.0,1.0,240,12,,6.21,29.88189,,,,,,TRUE,,,,,FEW,3500,SCT,20000,,,,,VFR,,,,,,,,,,,,METAR,40.0
EGXC 221450Z 25013KT 9999 BKN028 10/02 Q1014 BLU NOSIG,EGXC,2018-03-22T14:50:00Z,53.1,-0.17,10.0,2.0,250,13,,6.21,29.940945,,,,,,TRUE,,,,,BKN,2800,,,,,,,MVFR,,,,,,,,,,,,METAR,7.0
EGVP 221450Z 27011KT 9999 OVC030 08/01 Q1018 BLU NOSIG,EGVP,2018-03-22T14:50:00Z,51.13,-1.57,8.0,1.0,270,11,,6.21,30.059055,,,,,,TRUE,,,,,OVC,3000,,,,,,,MVFR,,,,,,,,,,,,METAR,91.0
EGVO 221450Z 26015KT 9999 BKN030 08/00 Q1017 BLU NOSIG,EGVO,2018-03-22T14:50:00Z,51.23,-0.95,8.0,0.0,260,15,,6.21,30.029528,,,,,,TRUE,,,,,BKN,3000,,,,,,,MVFR,,,,,,,,,,,,METAR,123.0
EGVN 221450Z 26011KT 9999 BKN030 09/02 Q1017 BLU NOSIG,EGVN,2018-03-22T14:50:00Z,51.77,-1.58,9.0,2.0,260,11,,6.21,30.029528,,,,,,TRUE,,,,,BKN,3000,,,,,,,MVFR,,,,,,,,,,,,METAR,88.0
EGUW 221450Z 28013KT 9999 OVC028 10/04 Q1015 BLU NOSIG,EGUW,2018-03-22T14:50:00Z,52.12,0.97,10.0,4.0,280,13,,6.21,29.970472,,,,,,TRUE,,,,,OVC,2800,,,,,,,MVFR,,,,,,,,,,,,METAR,87.0
EGYE 221450Z 23012KT 9999 BKN025 ///// Q1015 BLU,EGYE,2018-03-22T14:50:00Z,52.97,-0.57,,,230,12,,6.21,29.970472,,,,,,,,,,,BKN,2500,,,,,,,MVFR,,,,,,,,,,,,METAR,112.0
EGXZ 221450Z AUTO 24013KT 9999 FEW033/// 11/03 Q1013,EGXZ,2018-03-22T14:50:00Z,54.2,-1.38,11.0,3.0,240,13,,6.21,29.911417,,,TRUE,,,,,,,,FEW,3300,,,,,,,VFR,,,,,,,,,,,,METAR,28.0
EGQK 221450Z AUTO 21011KT 9999 BKN034/// 11/03 Q1005,EGQK,2018-03-22T14:50:00Z,57.65,-3.57,11.0,3.0,210,11,,6.21,29.675198,,,TRUE,,,,,,,,BKN,3400,,,,,,,VFR,,,,,,,,,,,,METAR,7.0
EGOW 221450Z 21010KT 9999 SCT030 09/02 Q1014 BLU,EGOW,2018-03-22T14:50:00Z,53.58,-3.05,9.0,2.0,210,10,,6.21,29.940945,,,,,,,,,,,SCT,3000,,,,,,,VFR,,,,,,,,,,,,METAR,12.0
EGOP 221450Z AUTO 19018KT 9999 // OVC032/// 08/05 Q1016,EGOP,2018-03-22T14:50:00Z,51.72,-4.32,8.0,5.0,190,18,,6.21,30.0,,,TRUE,,,,,,,,OVC,3200,,,,,,,VFR,,,,,,,,,,,,METAR,6.0
MMMX 221449Z 00000KT 5SM SKC 16/08 A3048 NOSIG RMK SLP146 52020 930 HZY,MMMX,2018-03-22T14:49:00Z,19.42,-99.08,16.0,8.0,0,0,,5.0,30.481298,1014.6,,,,,TRUE,,,,,SKC,,,,,,,,MVFR,2.0,,,,,,,,,,,METAR,2238.0
KJDN 221448Z AUTO 09003KT M04/M06 A3001 RMK AO1 SLP198 T10391056 53002,KJDN,2018-03-22T14:48:00Z,47.33,-106.95,-3.9,-5.6,90,3,,,30.008858,1019.8,,TRUE,TRUE,,,,,,,,,,,,,,,,0.2,,,,,,,,,,,METAR,801.0
KRYY 221448Z 34007KT 10SM CLR 06/M03 A3029 RMK AO2 SLP979 T00561033 53016,KRYY,2018-03-22T14:48:00Z,34.02,-84.6,5.6,-3.3,340,7,,10.0,30.28937,997.9,,,TRUE,,,,,,,CLR,,,,,,,,VFR,1.6,,,,,,,,,,,SPECI,317.0
KASG 221448Z 12004KT 10SM BKN150 09/01 A3032,KASG,2018-03-22T14:48:00Z,36.17,-94.12,9.0,1.0,120,4,,10.0,30.318897,,,,,,,,,,,BKN,15000,,,,,,,VFR,,,,,,,,,,,,METAR,412.0
KANE 221448Z 12005KT 10SM OVC030 02/M03 A3036,KANE,2018-03-22T14:48:00Z,45.15,-93.22,2.0,-3.0,120,5,,10.0,30.360237,,,,,,,,,,,OVC,3000,,,,,,,MVFR,,,,,,,,,,,,METAR,278.0
MMLO 221448Z 00000KT 8SM SKC 18/08 A3042 RMK SLP162 52015 930 HZY,MMLO,2018-03-22T14:48:00Z,21.0,-101.47,18.0,8.0,0,0,,8.0,30.41929,1016.2,,,,,,,,,,SKC,,,,,,,,VFR,1.5,,,,,,,,,,,METAR,1819.0
MMEP 221448Z 00000KT 10SM SKC 15/12 A3018 RMK SLP215 53011 940 HZY N,MMEP,2018-03-22T14:48:00Z,21.42,-104.85,15.0,12.0,0,0,,10.0,30.180119,1021.5,,,,,,,,,,SKC,,,,,,,,VFR,1.1,,,,,,,,,,,METAR,922.0
MMML 221448Z 10004KT 10SM SCT120 OVC200 18/03 A2994 RMK SLP139 5//// 900 8/037,MMML,2018-03-22T14:48:00Z,32.62,-115.23,18.0,3.0,100,4,,10.0,29.940945,1013.9,,,,,,,,,,SCT,12000,OVC,20000,,,,,VFR,,,,,,,,,,,,METAR,22.0
MMSD 221448Z 00000KT 12SM SKC 17/02 A3005 RMK SLP164 5//// 939,MMSD,2018-03-22T14:48:00Z,23.13,-109.7,17.0,2.0,0,0,,12.0,30.050198,1016.4,,,,,,,,,,SKC,,,,,,,,VFR,,,,,,,,,,,,METAR,109.0
KIWA 221447Z 13005KT 35SM SCT160 BKN200 16/M01 A3006,KIWA,2018-03-22T14:47:00Z,33.3,-111.65,16.0,-1.0,130,5,,35.0,30.059055,,,,,,,,,,,SCT,16000,BKN,20000,,,,,VFR,,,,,,,,,,,,METAR,412.0
KBVI 221447Z 31006KT 10SM CLR M00/M06 A3013,KBVI,2018-03-22T14:47:00Z,40.77,-80.4,0.0,-6.0,310,6,,10.0,30.129921,,,,,,,,,,,CLR,,,,,,,,VFR,,,,,,,,,,,,METAR,382.0
KCHD 221447Z 00000KT 10SM SCT200 16/00 A3005,KCHD,2018-03-22T14:47:00Z,33.27,-111.82,16.0,0.0,0,0,,10.0,30.050198,,,,,,,,,,,SCT,20000,,,,,,,VFR,,,,,,,,,,,,METAR,379.0
KPAO 221447Z 00000KT 3SM RA OVC017 15/14 A2976,KPAO,2018-03-22T14:47:00Z,37.47,-122.12,15.0,14.0,0,0,,3.0,29.760826,,,,,,,,,,RA,OVC,1700,,,,,,,MVFR,,,,,,,,,,,,METAR,2.0
KEVB 221447Z 31010G17KT 10SM SKC 13/M04 A3025,KEVB,2018-03-22T14:47:00Z,29.05,-80.95,13.0,-4.0,310,10,17,10.0,30.250984,,,,,,,,,,,SKC,,,,,,,,VFR,,,,,,,,,,,,METAR,3.0
KTIX 221447Z 34012KT 7SM SKC 15/M04 A3023,KTIX,2018-03-22T14:47:00Z,28.5,-80.8,15.0,-4.0,340,12,,7.0,30.230314,,,,,,,,,,,SKC,,,,,,,,VFR,,,,,,,,,,,,METAR,11.0
KGYH 221447Z 31004KT 10SM SKC 07/M06 A3019,KGYH,2018-03-22T14:47:00Z,34.75,-82.38,7.0,-6.0,310,4,,10.0,30.188976,,,,,,,,,,,SKC,,,,,,,,VFR,,,,,,,,,,,,METAR,292.0
KPOC 221447Z 00000KT 10SM SCT045 OVC065 15/15 A3005,KPOC,2018-03-22T14:47:00Z,34.1,-117.77,15.0,15.0,0,0,,10.0,30.050198,,,,,,,,,,,SCT,4500,OVC,6500,,,,,VFR,,,,,,,,,,,,METAR,308.0
KCQT 221447Z AUTO 00000KT 7SM -RA FEW044 OVC090 16/16 A2999 RMK AO2 RAB02 SLP153 P0002 60004 T01610156 53014,KCQT,2018-03-22T14:47:00Z,34.02,-118.28,16.1,15.6,0,0,,7.0,29.991142,1015.3,,TRUE,TRUE,,,,,,-RA,FEW,4400,OVC,9000,,,,,VFR,1.4,,,,,0.02,0.04,,,,,METAR,56.0
KRHV 221447Z 15004KT 4SM -RA 018 15/14 A2975,KRHV,2018-03-22T14:47:00Z,37.32,-121.82,15.0,14.0,150,4,,4.0,29.749016,,,,,,,,,,-RA,,,,,,,,,,,,,,,,,,,,,METAR,41.0
KGEU 221447Z 00000KT 10SM SCT160 BKN250 18/M01 A3005,KGEU,2018-03-22T14:47:00Z,33.53,-112.3,18.0,-1.0,0,0,,10.0,30.050198,,,,,,,,,,,SCT,16000,BKN,25000,,,,,VFR,,,,,,,,,,,,METAR,325.0
KSUA 221447Z 33010G16KT 7SM SKC 16/M01 A3025,KSUA,2018-03-22T14:47:00Z,27.18,-80.22,16.0,-1.0,330,10,16,7.0,30.250984,,,,,,,,,,,SKC,,,,,,,,VFR,,,,,,,,,,,,METAR,6.0
KSQL 221447Z 18004KT 2SM SCT019 OVC026 15/13 A2975,KSQL,2018-03-22T14:47:00Z,37.52,-122.25,15.0,13.0,180,4,,2.0,29.749016,,,,,,,,,,,SCT,1900,OVC,2600,,,,,IFR,,,,,,,,,,,,METAR,1.0
KAEG 221447Z 00000KT 10SM FEW100 SCT150 10/M06 A3027,KAEG,2018-03-22T14:47:00Z,35.13,-106.8,10.0,-6.0,0,0,,10.0,30.268702,,,,,,,,,,,FEW,10000,SCT,15000,,,,,VFR,,,,,,,,,,,,METAR,1779.0
KSAW 221447Z 36009KT 10SM SKC M04/M12 A3030,KSAW,2018-03-22T14:47:00Z,46.35,-87.4,-4.0,-12.0,360,9,,10.0,30.301182,,,,,,,,,,,SKC,,,,,,,,VFR,,,,,,,,,,,,METAR,372.0
KHUM 221447Z 10007KT 7SM SKC 15/07 A3040,KHUM,2018-03-22T14:47:00Z,29.57,-90.67,15.0,7.0,100,7,,7.0,30.398623,,,,,,,,,,,SKC,,,,,,,,VFR,,,,,,,,,,,,METAR,3.0
KGYR 221447Z 05003KT 10SM SCT150 BKN250 18/M01 A3004,KGYR,2018-03-22T14:47:00Z,33.42,-112.37,18.0,-1.0,50,3,,10.0,30.041338,,,,,,,,,,,SCT,15000,BKN,25000,,,,,VFR,,,,,,,,,,,,METAR,295.0
MMTO 221447Z 00000KT 3SM HZ SKC 12/06 A3052 RMK SLP180 52018 934,MMTO,2018-03-22T14:47:00Z,19.35,-99.57,12.0,6.0,0,0,,3.0,30.519686,1018.0,,,,,,,,,HZ,SKC,,,,,,,,MVFR,1.8,,,,,,,,,,,METAR,2576.0
MMGL 221447Z 00000KT 8SM SKC 20/08 A3030 RMK SLP125 52013 930,MMGL,2018-03-22T14:47:00Z,20.52,-103.32,20.0,8.0,0,0,,8.0,30.301182,1012.5,,,,,,,,,,SKC,,,,,,,,VFR,1.3,,,,,,,,,,,METAR,1528.0
MMUN 221447Z 03010KT 7SM SCT015 25/16 A3019 RMK SLP227 52023 942 8/500 CU,MMUN,2018-03-22T14:47:00Z,21.02,-86.85,25.0,16.0,30,10,,7.0,30.188976,1022.7,,,,,,,,,,SCT,1500,,,,,,,VFR,2.3,,,,,,,,,,,METAR,10.0
MMTG 221447Z 33007KT 7SM SKC 26/18 A3011 RMK SLP160 52013 932 FU HZ ISLD CU,MMTG,2018-03-22T14:47:00Z,16.57,-93.03,26.0,18.0,330,7,,7.0,30.109253,1016.0,,,,,,,,,,SKC,,,,,,,,VFR,1.3,,,,,,,,,,,METAR,528.0
KTOA 221447Z 00000KT 10SM FEW007 BKN055 OVC080 16/14 A2999,KTOA,2018-03-22T14:47:00Z,33.78,-118.32,16.0,14.0,0,0,,10.0,29.991142,,,,,,,,,,,FEW,700,BKN,5500,OVC,8000,,,VFR,,,,,,,,,,,,METAR,31.0
MMZH 221446Z 00000KT 7SM SCT100 26/19 A3001 RMK SLP154 5//// 931 8/030 HZY,MMZH,2018-03-22T14:46:00Z,17.6,-101.47,26.0,19.0,0,0,,7.0,30.008858,1015.4,,,,,,,,,,SCT,10000,,,,,,,VFR,,,,,,,,,,,,METAR,6.0
MMVR 221446Z 00000KT 5SM SCT012TCU BKN070 25/21 A3019 RMK SLP206 52025 941 8230 HZY,MMVR,2018-03-22T14:46:00Z,19.15,-96.18,25.0,21.0,0,0,,5.0,30.188976,1020.6,,,,,,,,,,SCT,1200,BKN,7000,,,,,MVFR,2.5,,,,,,,,,,,METAR,16.0
MMAS 221446Z 01006KT 9SM SKC 17/06 A3040 RMK HZY,MMAS,2018-03-22T14:46:00Z,21.7,-102.32,17.0,6.0,10,6,,9.0,30.398623,,,,,,,,,,,SKC,,,,,,,,VFR,,,,,,,,,,,,METAR,1863.0
MMTJ 221446Z 23004KT 8SM BKN080 OVC180 16/12 A3006 RMK SLP184 52031 919 8/047 HZY,MMTJ,2018-03-22T14:46:00Z,32.53,-116.97,16.0,12.0,230,4,,8.0,30.059055,1018.4,,,,,,,,,,BKN,8000,OVC,18000,,,,,VFR,3.1,,,,,,,,,,,METAR,152.0
MMCZ 221446Z 08011KT 7SM BKN015 BKN080 25/19 A3017 RMK SLP221 52022 941 8/570,MMCZ,2018-03-22T14:46:00Z,20.52,-86.92,25.0,19.0,80,11,,7.0,30.171259,1022.1,,,,,,,,,,BKN,1500,BKN,8000,,,,,MVFR,2.2,,,,,,,,,,,METAR,5.0
MMTC 221446Z 12005KT 10SM SKC 20/10 A3024 RMK SLP131 52020 940 HZY,MMTC,2018-03-22T14:46:00Z,25.57,-103.4,20.0,10.0,120,5,,10.0,30.239174,1013.1,,,,,,,,,,SKC,,,,,,,,VFR,2.0,,,,,,,,,,,METAR,1124.0
KTRK 221445Z 15007KT 7SM +RA OVC018 02/00 A2974,KTRK,2018-03-22T14:45:00Z,39.32,-120.12,2.0,0.0,150,7,,7.0,29.740158,,,,,,,,,,+RA,OVC,1800,,,,,,,MVFR,,,,,,,,,,,,METAR,1798.0
KGYY 221445Z 35009KT 10SM FEW022 024/M03 A3036,KGYY,2018-03-22T14:45:00Z,41.62,-87.42,24.0,-3.0,350,9,,10.0,30.360237,,,,,,,,,,,FEW,2200,,,,,,,VFR,,,,,,,,,,,,METAR,180.0
KJVL 221445Z VRB03KT 10SM SKC 02/M06 A3035,KJVL,2018-03-22T14:45:00Z,42.62,-89.05,2.0,-6.0,0,3,,10.0,30.351377,,,,,,,,,,,SKC,,,,,,,,VFR,,,,,,,,,,,,METAR,246.0
KATW 221445Z 05004KT 10SM SKC M01/M12 A3033,KATW,2018-03-22T14:45:00Z,44.27,-88.52,-1.0,-12.0,50,4,,10.0,30.33071,,,,,,,,,,,SKC,,,,,,,,VFR,,,,,,,,,,,,METAR,280.0
KRYN 221445Z 08006KT 10SM CLR 16/00 A3011,KRYN,2018-03-22T14:45:00Z,32.15,-111.17,16.0,0.0,80,6,,10.0,30.109253,,,,,,,,,,,CLR,,,,,,,,VFR,,,,,,,,,,,,METAR,737.0
KEMT 221445Z VRB03KT 1 1/2SM RA FEW027 OVC060 16/16 A3000,KEMT,2018-03-22T14:45:00Z,34.07,-118.02,16.0,16.0,0,3,,1.5,30.0,,,,,,,,,,RA,FEW,2700,OVC,6000,,,,,IFR,,,,,,,,,,,,METAR,90.0
MMPE 221445Z 00000KT 10SM BKN100 OVC200 17/M05 A2996 RMK 8/072,MMPE,2018-03-22T14:45:00Z,31.35,-113.52,17.0,-5.0,0,0,,10.0,29.958662,,,,,,,,,,,BKN,10000,OVC,20000,,,,,VFR,,,,,,,,,,,,METAR,9.0
KUES 221445Z 24003KT 10SM SKC 01/M07 A3034,KUES,2018-03-22T14:45:00Z,43.05,-88.25,1.0,-7.0,240,3,,10.0,30.339567,,,,,,,,,,,SKC,,,,,,,,VFR,,,,,,,,,,,,METAR,278.0
MMDO 221445Z 00000KT 9SM SKC 15/00 A3038 RMK SLP157 52021 940 HZY,MMDO,2018-03-22T14:45:00Z,24.12,-104.52,15.0,0.0,0,0,,9.0,30.380905,1015.7,,,,,,,,,,SKC,,,,,,,,VFR,2.1,,,,,,,,,,,METAR,1857.0
KCWA 221445Z 35004KT 10SM SKC M02/M08 A3034,KCWA,2018-03-22T14:45:00Z,44.78,-89.67,-2.0,-8.0,350,4,,10.0,30.339567,,,,,,,,,,,SKC,,,,,,,,VFR,,,,,,,,,,,,METAR,389.0
KCGF 221445Z 36010KT 10SM FEW012 SCT200 01/M06 A3020,KCGF,2018-03-22T14:45:00Z,41.57,-81.47,1.0,-6.0,360,10,,10.0,30.200787,,,,,,,,,,,FEW,1200,SCT,20000,,,,,VFR,,,,,,,,,,,,METAR,268.0
KMMU 221445Z 35016G22KT 10SM SCT120 BKN250 04/M06 A2983,KMMU,2018-03-22T14:45:00Z,40.78,-74.42,4.0,-6.0,350,16,22,10.0,29.828741,,,,,,,,,,,SCT,12000,BKN,25000,,,,,VFR,,,,,,,,,,,,METAR,57.0
PALP 221445Z 06015KT 8SM BKN045 BKN065 OVC100 M24/M27 A3044,PALP,2018-03-22T14:45:00Z,70.33,-150.93,-24.0,-27.0,60,15,,8.0,30.43996,,,,,,,,,,,BKN,4500,BKN,6500,OVC,10000,,,VFR,,,,,,,,,,,,METAR,5.0
KMWC 221445Z VRB04KT 10SM SKC 01/M12 A3035,KMWC,2018-03-22T14:45:00Z,43.12,-88.03,1.0,-12.0,0,4,,10.0,30.351377,,,,,,,,,,,SKC,,,,,,,,VFR,,,,,,,,,,,,METAR,227.0
KMWA 221445Z 00000KT 20SM FEW150 06/M04 A3039,KMWA,2018-03-22T14:45:00Z,37.77,-89.02,6.0,-4.0,0,0,,20.0,30.389763,,,,,,,,,,,FEW,15000,,,,,,,VFR,,,,,,,,,,,,METAR,144.0
KBBG 221445Z 12008KT 10SM BKN180 06/00 A3034,KBBG,2018-03-22T14:45:00Z,36.53,-93.2,6.0,0.0,120,8,,10.0,30.339567,,,,,,,,,,,BKN,18000,,,,,,,VFR,,,,,,,,,,,,METAR,397.0
KMTN 221445Z 30016G22KT 10SM FEW100 04/M04 A2997,KMTN,2018-03-22T14:45:00Z,39.32,-76.42,4.0,-4.0,300,16,22,10.0,29.970472,,,,,,,,,,,FEW,10000,,,,,,,VFR,,,,,,,,,,,,METAR,7.0
KSWF 221445Z 29005KT 20SM BKN120 04/M05 A2981,KSWF,2018-03-22T14:45:00Z,41.5,-74.08,4.0,-5.0,290,5,,20.0,29.811024,,,,,,,,,,,BKN,12000,,,,,,,VFR,,,,,,,,,,,,METAR,150.0
PAKU 221445Z 11010KT 7SM R06/P6000FT OVC070 M24/M27 A3045,PAKU,2018-03-22T14:45:00Z,70.32,-149.58,-24.0,-27.0,110,10,,7.0,30.448818,,,,,,,,,,,OVC,7000,,,,,,,VFR,,,,,,,,,,,,METAR,2.0
MMBT 221445Z 31004KT 7SM SCT200 30/// A2999 RMK 8/001 HZY,MMBT,2018-03-22T14:45:00Z,15.77,-96.27,,,310,4,,7.0,29.991142,,,,,,,,,,,SCT,20000,,,,,,,VFR,,,,,,,,,,,,METAR,143.0
MMZC 221445Z 00000KT 10SM SKC 13/M03 A3041,MMZC,2018-03-22T14:45:00Z,22.9,-102.68,13.0,-3.0,0,0,,10.0,30.410433,,,,,,,,,,,SKC,,,,,,,,VFR,,,,,,,,,,,,METAR,2177.0
MMMZ 221445Z 04004KT 14SM SKC 21/14 A3002 RMK SLP166 52013 940,MMMZ,2018-03-22T14:45:00Z,23.17,-106.27,21.0,14.0,40,4,,14.0,30.02067,1016.6,,,,,,,,,,SKC,,,,,,,,VFR,1.3,,,,,,,,,,,METAR,10.0
MMMD 221445Z 06010KT 7SM FEW013 FEW070 SCT300 25/16 A3020 RMK SLP221 52017 942 8/158 HZY,MMMD,2018-03-22T14:45:00Z,20.95,-89.65,25.0,16.0,60,10,,7.0,30.200787,1022.1,,,,,,,,,,FEW,1300,FEW,7000,SCT,30000,,,VFR,1.7,,,,,,,,,,,METAR,10.0
MMRX 221445Z 11010KT 8SM FEW100 SCT300 23/16 A3022 RMK SLP232 52026 933 8/031,MMRX,2018-03-22T14:45:00Z,26.02,-98.22,23.0,16.0,110,10,,8.0,30.221457,1023.2,,,,,,,,,,FEW,10000,SCT,30000,,,,,VFR,2.6,,,,,,,,,,,METAR,39.0
MMCT 221445Z 36015KT 8SM SKC 25/21 A3019 RMK MSGTX MMMD,MMCT,2018-03-22T14:45:00Z,20.63,-88.45,25.0,21.0,360,15,,8.0,30.188976,,,,,,,,,,,SKC,,,,,,,,VFR,,,,,,,,,,,,METAR,28.0
LHUD 221445Z 06010KT 9999 FEW033 BKN200 02/M05 Q1017,LHUD,2018-03-22T14:45:00Z,46.25,20.1,2.0,-5.0,60,10,,6.21,30.029528,,,,,,,,,,,FEW,3300,BKN,20000,,,,,VFR,,,,,,,,,,,,METAR,84.0
LHSM 221445Z 09008KT CAVOK 05/M08 Q1016 NOSIG,LHSM,2018-03-22T14:45:00Z,46.68,17.17,5.0,-8.0,90,8,,6.21,30.0,,,,,,TRUE,,,,,CAVOK,,,,,,,,VFR,,,,,,,,,,,,METAR,125.0
LHPR 221445Z 10004KT 050V210 CAVOK 04/M08 Q1015 RMK BLU,LHPR,2018-03-22T14:45:00Z,47.63,17.82,4.0,-8.0,100,4,,6.21,29.970472,,,,,,,,,,,CAVOK,,,,,,,,VFR,,,,,,,,,,,,METAR,129.0
LHPP 221445Z 09010KT 9999 FEW040 BKN200 03/M08 Q1015,LHPP,2018-03-22T14:45:00Z,45.98,18.23,3.0,-8.0,90,10,,6.21,29.970472,,,,,,,,,,,FEW,4000,BKN,20000,,,,,VFR,,,,,,,,,,,,METAR,305.0
LHPA 221445Z 09004KT CAVOK 05/M09 Q1015 NOSIG RMK BLU,LHPA,2018-03-22T14:45:00Z,47.35,17.5,5.0,-9.0,90,4,,6.21,29.970472,,,,,,TRUE,,,,,CAVOK,,,,,,,,VFR,,,,,,,,,,,,METAR,148.0
LHDC 221445Z 07006KT CAVOK 02/M07 Q1016,LHDC,2018-03-22T14:45:00Z,47.47,21.62,2.0,-7.0,70,6,,6.21,30.0,,,,,,,,,,,CAVOK,,,,,,,,VFR,,,,,,,,,,,,METAR,112.0
LHBC 221445Z 06008KT CAVOK 02/M07 Q1017,LHBC,2018-03-22T14:45:00Z,46.68,21.17,2.0,-7.0,60,8,,6.21,30.029528,,,,,,,,,,,CAVOK,,,,,,,,VFR,,,,,,,,,,,,METAR,86.0
KWDG 221445Z 16020KT 10SM FEW150 FEW220 14/02 A3015,KWDG,2018-03-22T14:45:00Z,36.37,-97.77,14.0,2.0,160,20,,10.0,30.15059,,,,,,,,,,,FEW,15000,FEW,22000,,,,,VFR,,,,,,,,,,,,METAR,356.0
KFOZ 221445Z AUTO 00000KT 10SM SCT065 01/M05 A3034 RMK AO2,KFOZ,2018-03-22T14:45:00Z,47.77,-93.65,1.0,-5.0,0,0,,10.0,30.339567,,,TRUE,TRUE,,,,,,,SCT,6500,,,,,,,VFR,,,,,,,,,,,,METAR,411.0
MMMM 221444Z 00000KT 6SM SKC 17/08 A307 RMK SLP134 52011 912 HZY,MMMM,2018-03-22T14:44:00Z,19.85,-101.02,17.0,8.0,0,0,,6.0,,1013.4,,,,,,,,,,SKC,,,,,,,,VFR,1.1,,,,,,,,,,,METAR,1833.0
MMCP 221444Z 03010KT 7SM SCT050 25/21 A3013 RMK SLP205 52021 941 8/400,MMCP,2018-03-22T14:44:00Z,19.82,-90.5,25.0,21.0,30,10,,7.0,30.129921,1020.5,,,,,,,,,,SCT,5000,,,,,,,VFR,2.1,,,,,,,,,,,METAR,5.0
MMCS 221443Z 22010KT 10SM SCT250 17/M04 A3021 RMK SLP150 52014 938 8/008,MMCS,2018-03-22T14:43:00Z,31.62,-106.42,17.0,-4.0,220,10,,10.0,30.209646,1015.0,,,,,,,,,,SCT,25000,,,,,,,VFR,1.4,,,,,,,,,,,METAR,1171.0
MMTM 221442Z 00000KT 7SM OVC040 24/20 A3022 RMK SLP233 52018 937 8/5// HZY,MMTM,2018-03-22T14:42:00Z,22.27,-97.87,24.0,20.0,0,0,,7.0,30.221457,1023.3,,,,,,,,,,OVC,4000,,,,,,,VFR,1.8,,,,,,,,,,,METAR,24.0
MMQT 221442Z 10010KT 4SM OVC012 14/10 A3046 RMK 8/5// HZY,MMQT,2018-03-22T14:42:00Z,20.62,-100.18,14.0,10.0,100,10,,4.0,30.46063,,,,,,,,,,,OVC,1200,,,,,,,MVFR,,,,,,,,,,,,METAR,1919.0
MMOX 221442Z 00000KT 9SM SKC 20/11 A3037 RMK SLP170 52018 926 HZY,MMOX,2018-03-22T14:42:00Z,17.0,-96.72,20.0,11.0,0,0,,9.0,30.369095,1017.0,,,,,,,,,,SKC,,,,,,,,VFR,1.8,,,,,,,,,,,METAR,1528.0
MMAA 221442Z 00000KT 7SM SCT080 BKN300 27/19 A2998 RMK SLP153 52030 927 8/032 HZY,MMAA,2018-03-22T14:42:00Z,16.75,-99.75,27.0,19.0,0,0,,7.0,29.97933,1015.3,,,,,,,,,,SCT,8000,BKN,30000,,,,,VFR,3.0,,,,,,,,,,,METAR,5.0
MMCM 221442Z 00000KT 7SM SCT020 27/23 A3014 RMK SLP208 5//// 949 8/500,MMCM,2018-03-22T14:42:00Z,18.5,-88.33,27.0,23.0,0,0,,7.0,30.138779,1020.8,,,,,,,,,,SCT,2000,,,,,,,VFR,,,,,,,,,,,,METAR,12.0
MMVA 221442Z 08008KT 7SM BKN02525/20 A3014 RMK SLP204 52026 938 8/500 AC,MMVA,2018-03-22T14:42:00Z,18.0,-92.82,25.0,20.0,80,8,,7.0,30.138779,1020.4,,,,,,,,,,,,,,,,,,,2.6,,,,,,,,,,,METAR,13.0
MMPQ 221442Z 09005KT 4SM BKN025 BKN080 26/23 A3002 RMK 8/530 HZY MSGTX MMMD,MMPQ,2018-03-22T14:42:00Z,17.53,-91.98,26.0,23.0,90,5,,4.0,30.02067,,,,,,,,,,,BKN,2500,BKN,8000,,,,,MVFR,,,,,,,,,,,,METAR,61.0
MMTP 221442Z 25003KT 8SM SKC 29/24 A2995 RMK SLP165 52035 924 HZY,MMTP,2018-03-22T14:42:00Z,14.77,-92.37,29.0,24.0,250,3,,8.0,29.949802,1016.5,,,,,,,,,,SKC,,,,,,,,VFR,3.5,,,,,,,,,,,METAR,29.0
MMPS 221441Z 00000KT 10SM SKC 28/18 A3006 RMK HZY,MMPS,2018-03-22T14:41:00Z,15.87,-97.07,28.0,18.0,0,0,,10.0,30.059055,,,,,,,,,,,SKC,,,,,,,,VFR,,,,,,,,,,,,METAR,88.0
MMPB 221441Z 35005KT 7SM SKC 12/08 A3048 RMK HZY,MMPB,2018-03-22T14:41:00Z,19.17,-98.37,12.0,8.0,350,5,,7.0,30.481298,,,,,,,,,,,SKC,,,,,,,,VFR,,,,,,,,,,,,METAR,2244.0
MMMA 221441Z 11009KT 8SM BKN080 22/18 A3023 RMK SLP237 52015 933 8/050 ISOL CI,MMMA,2018-03-22T14:41:00Z,25.77,-97.52,22.0,18.0,110,9,,8.0,30.230314,1023.7,,,,,,,,,,BKN,8000,,,,,,,VFR,1.5,,,,,,,,,,,METAR,8.0
MMMY 221441Z 06004KT 5SM BKN015 OVC025 19/14 A3021 RMK 8/5// HZY,MMMY,2018-03-22T14:41:00Z,25.77,-100.08,19.0,14.0,60,4,,5.0,30.209646,,,,,,,,,,,BKN,1500,OVC,2500,,,,,MVFR,,,,,,,,,,,,METAR,387.0
MMPA 221440Z 31006KT 1 1/2SM BR HZ BKN005 BKN070 OVC090 22/0 A3025 RMK SLP250 52030 940 8/57/,MMPA,2018-03-22T14:40:00Z,20.5,-97.47,22.0,,310,6,,1.5,30.250984,1025.0,,,,,,,,,BR HZ,BKN,500,BKN,7000,OVC,9000,,,IFR,3.0,,,,,,,,,,,METAR,142.0
MMIA 221440Z 00000KT 8SM SKC 26/14 A3016 RMK SLP/// 5//// 9// 6//// HZY,MMIA,2018-03-22T14:40:00Z,19.27,-103.57,26.0,14.0,0,0,,8.0,30.159449,,,,,,,,,,,SKC,,,,,,,,VFR,,,,,,,,,,,,METAR,723.0
MMCN 221440Z 13007KT 10SM SCT200 19/09 A3001 RMK SLP163 8/008 HZY,MMCN,2018-03-22T14:40:00Z,27.4,-109.83,19.0,9.0,130,7,,10.0,30.008858,1016.3,,,,,,,,,,SCT,20000,,,,,,,VFR,,,,,,,,,,,,METAR,43.0
MMHO 221440Z 00000KT 10SM BKN090 OVC200 23/01 A3000 RMK SLP156 52019 929 8/037 HZY,MMHO,2018-03-22T14:40:00Z,29.08,-111.05,23.0,1.0,0,0,,10.0,30.0,1015.6,,,,,,,,,,BKN,9000,OVC,20000,,,,,VFR,1.9,,,,,,,,,,,METAR,184.0
MMLP 221440Z 19007KT 10SM SKC 17/M03 A3003 RMK SLP169 5//// 933 ISOL CI HZY,MMLP,2018-03-22T14:40:00Z,24.07,-110.37,17.0,-3.0,190,7,,10.0,30.029528,1016.9,,,,,,,,,,SKC,,,,,,,,VFR,,,,,,,,,,,,METAR,21.0
MMSL 221440Z 00000KT 9SM SKC 21/07 A3007 RMK CU AND CI,MMSL,2018-03-22T14:40:00Z,22.95,-109.93,21.0,7.0,0,0,,9.0,30.070866,,,,,,,,,,,SKC,,,,,,,,VFR,,,,,,,,,,,,METAR,140.0
MMAN 221440Z 09004KT 10SM BKN012 OVC015 18/14 A3025 RMK SLP/// 5//// 9// 8/5//,MMAN,2018-03-22T14:40:00Z,25.87,-100.23,18.0,14.0,90,4,,10.0,30.250984,,,,,,,,,,,BKN,1200,OVC,1500,,,,,MVFR,,,,,,,,,,,,METAR,448.0
MMCU 221440Z 09003KT 10SM BKN200 15/M05 A3027 RMK SLP176 57030 934 8/001,MMCU,2018-03-22T14:40:00Z,28.7,-105.97,15.0,-5.0,90,3,,10.0,30.268702,1017.6,,,,,,,,,,BKN,20000,,,,,,,VFR,-3.0,,,,,,,,,,,METAR,1372.0
MMNL 221440Z 14011KT 8SM SKC 20/15 A3023 RMK SLP221 52012 928,MMNL,2018-03-22T14:40:00Z,27.42,-99.57,20.0,15.0,140,11,,8.0,30.230314,1022.1,,,,,,,,,,SKC,,,,,,,,VFR,1.2,,,,,,,,,,,METAR,148.0
MMPG 221440Z 10004KT 10SM SKC 17/11 A3023 RMK,MMPG,2018-03-22T14:40:00Z,28.65,-100.52,17.0,11.0,100,4,,10.0,30.230314,,,,,,,,,,,SKC,,,,,,,,VFR,,,,,,,,,,,,METAR,250.0
KCVC 221437Z AUTO 31009KT 10SM CLR 08/M03 A3026 RMK AO2,KCVC,2018-03-22T14:37:00Z,33.63,-83.85,8.0,-3.0,310,9,,10.0,30.259842,,,TRUE,TRUE,,,,,,,CLR,,,,,,,,VFR,,,,,,,,,,,,SPECI,247.0
KSJS 221435Z AUTO 32003KT 10SM CLR 02/M02 A3023 RMK AO2 T00151018,KSJS,2018-03-22T14:35:00Z,37.75,-82.63,1.5,-1.8,320,3,,10.0,30.230314,,,TRUE,TRUE,,,,,,,CLR,,,,,,,,VFR,,,,,,,,,,,,SPECI,372.0
KMYJ 221435Z AUTO 04004KT 10SM OVC070 01/00 A3036 RMK AO2,KMYJ,2018-03-22T14:35:00Z,39.15,-91.82,1.0,0.0,40,4,,10.0,30.360237,,,TRUE,TRUE,,,,,,,OVC,7000,,,,,,,VFR,,,,,,,,,,,,SPECI,251.0
RJNG 221425Z 28009KT 9999 FEW025 BKN060 08/03 Q1008 RMK 1CU025 5SC060 A2977,RJNG,2018-03-22T14:25:00Z,35.37,136.87,8.0,3.0,280,9,,6.21,29.763779,,,,,,,,,,,FEW,2500,BKN,6000,,,,,VFR,,,,,,,,,,,,SPECI,42.0
ETND 221420Z 32009KT 9999 FEW005 BKN007 BKN018 07/06 Q1011 REDZ GRN,ETND,2018-03-22T14:20:00Z,52.58,8.35,7.0,6.0,320,9,,6.21,29.852362,,,,,,,,,,,FEW,500,BKN,700,BKN,1800,,,IFR,,,,,,,,,,,,SPECI,43.0
SPEC B ,SPEC,2018-03-22T14:20:00Z,,,,,,,,,,,,,,,,,,,,,,,,,,,,,,,,,,,,,,,,METAR,
