No errors
No warnings
1637 ms
data source=metars
4838 results
raw_text,station_id,observation_time,latitude,longitude,temp_c,dewpoint_c,wind_dir_degrees,wind_speed_kt,wind_gust_kt,visibility_statute_mi,altim_in_hg,sea_level_pressure_mb,corrected,auto,auto_station,maintenance_indicator_on,no_signal,lightning_sensor_off,freezing_rain_sensor_off,present_weather_sensor_off,wx_string,sky_cover,cloud_base_ft_agl,sky_cover,cloud_base_ft_agl,sky_cover,cloud_base_ft_agl,sky_cover,cloud_base_ft_agl,flight_category,three_hr_pressure_tendency_mb,maxT_c,minT_c,maxT24hr_c,minT24hr_c,precip_in,pcp3hr_in,pcp6hr_in,pcp24hr_in,snow_in,vert_vis_ft,metar_type,elevation_m
WAAA 271830Z 06003KT 8000 FEW019 25/24 Q1009 NOSIG,WAAA,2018-03-27T18:30:00Z,-5.07,119.53,25.0,24.0,60,3,,4.97,29.793306,,,,,,TRUE,,,,,FEW,1900,,,,,,,MVFR,,,,,,,,,,,,METAR,14.0
HECA 271830Z 04016KT CAVOK 24/11 Q1011 NOSIG,HECA,2018-03-27T18:30:00Z,30.12,31.38,24.0,11.0,40,16,,6.21,29.852362,,,,,,TRUE,,,,,CAVOK,,,,,,,,VFR,,,,,,,,,,,,METAR,74.0
OBBI 271830Z 02003KT 350V070 CAVOK 26/14 Q1014 NOSIG,OBBI,2018-03-27T18:30:00Z,26.27,50.63,26.0,14.0,20,3,,6.21,29.940945,,,,,,TRUE,,,,,CAVOK,,,,,,,,VFR,,,,,,,,,,,,METAR,2.0
FMMI 271830Z 09005KT 9999 FEW017 SCT020 19/16 Q1020 NOSIG,FMMI,2018-03-27T18:30:00Z,-18.8,47.47,19.0,16.0,90,5,,6.21,30.11811,,,,,,TRUE,,,,,FEW,1700,SCT,2000,,,,,VFR,,,,,,,,,,,,METAR,1276.0
UTO8 M M M 064/-32/-36/2627/M/ PK WND 2630 1758Z SOG 26 1013 04MM,UTO8,2018-03-27T18:30:00Z,,,,,,,,0.63,,,,,,,,,,,,,,,,,,,,,,,,,,,,,,,,METAR,
SPZO 271830Z VRB03KT 9999 VCSH SCT040 BKN100 20/06 Q1027 NOSIG RMK BIRD HAZARD RWY 28,SPZO,2018-03-27T18:30:00Z,-13.55,-71.97,20.0,6.0,0,3,,6.21,30.324802,,,,,,TRUE,,,,VCSH,SCT,4000,BKN,10000,,,,,VFR,,,,,,,,,,,,SPECI,3249.0
GLRB 271830Z 24008KT 9999 SCT018 29/24 Q1010 NOSIG,GLRB,2018-03-27T18:30:00Z,6.25,-10.33,29.0,24.0,240,8,,6.21,29.822834,,,,,,TRUE,,,,,SCT,1800,,,,,,,VFR,,,,,,,,,,,,METAR,18.0
BKPR 271830Z 00000KT 9999 -RA SCT035 BKN070 04/01 Q1013 NOSIG RMK 17290095,BKPR,2018-03-27T18:30:00Z,42.58,21.03,4.0,1.0,0,0,,6.21,29.911417,,,,,,TRUE,,,,-RA,SCT,3500,BKN,7000,,,,,VFR,,,,,,,,,,,,SPECI,576.0
FOOL 271830Z 23006KT 190V250 9999 TS FEW012 FEW020CB 28/24 Q1010 NOSIG,FOOL,2018-03-27T18:30:00Z,0.45,9.42,28.0,24.0,230,6,,6.21,29.822834,,,,,,TRUE,,,,TS,FEW,1200,FEW,2000,,,,,VFR,,,,,,,,,,,,SPECI,15.0
LWOH 271830Z 20008KT 120V200 9999 SCT040 07/02 Q1013,LWOH,2018-03-27T18:30:00Z,41.18,20.75,7.0,2.0,200,8,,6.21,29.911417,,,,,,,,,,,SCT,4000,,,,,,,VFR,,,,,,,,,,,,METAR,761.0
KIPJ 271830Z AUTO 00000KT 10SM OVC028 09/02 A3041 RMK AO2 T00920015,KIPJ,2018-03-27T18:30:00Z,35.48,-81.17,9.2,1.5,0,0,,10.0,30.410433,,,TRUE,TRUE,,,,,,,OVC,2800,,,,,,,MVFR,,,,,,,,,,,,METAR,267.0
KVTP 271830Z AUTO 02016KT 1/2SM HZ OVC002 M03/M06 A3020 RMK AO2,KVTP,2018-03-27T18:30:00Z,37.5,-105.17,-3.0,-6.0,20,16,,0.5,30.200787,,,TRUE,TRUE,,,,,,HZ,OVC,200,,,,,,,LIFR,,,,,,,,,,,,METAR,3114.0
CYOD 271828Z 09013G18KT 1 1/2SM -SN DRSN OVC032 M12/M15 A2974 RMK SN4SC4 VIS VRB 1-2 SLP112,CYOD,2018-03-27T18:28:00Z,54.4,-110.28,-12.0,-15.0,90,13,18,1.5,29.740158,1011.2,,,,,,,,,-SN DRSN,OVC,3200,,,,,,,IFR,,,,,,,,,,,,SPECI,544.0
CYGL 271828Z 18015G21KT 1 1/2SM -SN BLSN OVC024 01/M04 A2981 RMK SC8 SLP107,CYGL,2018-03-27T18:28:00Z,53.62,-77.7,1.0,-4.0,180,15,21,1.5,29.811024,1010.7,,,,,,,,,-SN BLSN,OVC,2400,,,,,,,IFR,,,,,,,,,,,,SPECI,195.0
CYHE 271828Z AUTO 29008G17KT 6SM -RA BR FEW038 OVC047 08/06 A3016 RMK SLP215,CYHE,2018-03-27T18:28:00Z,49.37,-121.5,8.0,6.0,290,8,17,6.0,30.159449,1021.5,,TRUE,,,,,,,-RA BR,FEW,3800,OVC,4700,,,,,VFR,,,,,,,,,,,,SPECI,39.0
CYEG 271827Z 21006KT 3/4SM -SN OVC040 M02/M04 A2957 RMK SN4SC4 SLP053,CYEG,2018-03-27T18:27:00Z,53.28,-113.57,-2.0,-4.0,210,6,,0.75,29.568897,1005.3,,,,,,,,,-SN,OVC,4000,,,,,,,LIFR,,,,,,,,,,,,SPECI,723.0
KSAT 271827Z 15011KT 10SM SCT030 BKN070 OVC250 25/19 A2993 RMK AO2 RAE04 SHRA DSNT NW P0000 T02500189,KSAT,2018-03-27T18:27:00Z,29.53,-98.47,25.0,18.9,150,11,,10.0,29.929134,,,,TRUE,,,,,,,SCT,3000,BKN,7000,OVC,25000,,,VFR,,,,,,0.005,,,,,,SPECI,243.0
KPHD 271827Z AUTO VRB06KT 10SM OVC010 09/07 A3010 RMK AO2 CIG 009V015 T00890072,KPHD,2018-03-27T18:27:00Z,40.47,-81.42,8.9,7.2,0,6,,10.0,30.100393,,,TRUE,TRUE,,,,,,,OVC,1000,,,,,,,MVFR,,,,,,,,,,,,SPECI,272.0
KCNU 271827Z AUTO 36012KT 7SM -RA BKN009 OVC014 06/05 A3011 RMK AO2 CIG 007V012 P0001 T00610050,KCNU,2018-03-27T18:27:00Z,37.67,-95.48,6.1,5.0,360,12,,7.0,30.109253,,,TRUE,TRUE,,,,,,-RA,BKN,900,OVC,1400,,,,,IFR,,,,,,0.01,,,,,,SPECI,297.0
KCKB 271827Z 00000KT 9SM -RA OVC027 11/09 A3016 RMK AO2 P0001 T01060089,KCKB,2018-03-27T18:27:00Z,39.3,-80.22,10.6,8.9,0,0,,9.0,30.159449,,,,TRUE,,,,,,-RA,OVC,2700,,,,,,,MVFR,,,,,,0.01,,,,,,SPECI,360.0
KBJC 271827Z 21010KT 25SM SCT028 SCT038 BKN050 05/00 A3013,KBJC,2018-03-27T18:27:00Z,39.9,-105.1,5.0,0.0,210,10,,25.0,30.129921,,,,,,,,,,,SCT,2800,SCT,3800,BKN,5000,,,VFR,,,,,,,,,,,,SPECI,1724.0
CYVO 271827Z 17018G26KT 10SM -SN BKN050 OVC080 04/M04 A2995 RMK SC6AC2 SLP164,CYVO,2018-03-27T18:27:00Z,48.07,-77.77,4.0,-4.0,170,18,26,10.0,29.949802,1016.4,,,,,,,,,-SN,BKN,5000,OVC,8000,,,,,VFR,,,,,,,,,,,,SPECI,337.0
CYYQ 271827Z 31028G39KT 1/8SM R33/0500V1100FT/N +BLSN VV010 M19/M21 A2960 RMK BLSN8 SLP030,CYYQ,2018-03-27T18:27:00Z,58.75,-94.07,-19.0,-21.0,310,28,39,0.13,29.601377,1003.0,,,,,,,,,BLSN,OVX,0,,,,,,,LIFR,,,,,,,,,,,1000,SPECI,29.0
CYLD 271827Z 19007KT 12SM -DZ OVC005 01/00 A2974 RMK ST8 BR SLP097,CYLD,2018-03-27T18:27:00Z,47.82,-83.33,1.0,0.0,190,7,,12.0,29.740158,1009.7,,,,,,,,,-DZ,OVC,500,,,,,,,IFR,,,,,,,,,,,,SPECI,447.0
KSGH 271827Z AUTO 21010KT 2SM -RA BR OVC005 11/11 A3007 RMK AO2 P0001,KSGH,2018-03-27T18:27:00Z,39.83,-83.83,11.0,11.0,210,10,,2.0,30.070866,,,TRUE,TRUE,,,,,,-RA BR,OVC,500,,,,,,,IFR,,,,,,0.01,,,,,,SPECI,321.0
KCIU 271827Z AUTO 13003KT 2SM -RA BR OVC003 02/02 A2981 RMK AO2 FZRANO PNO $,KCIU,2018-03-27T18:27:00Z,46.25,-84.47,2.0,2.0,130,3,,2.0,29.811024,,,TRUE,TRUE,TRUE,,,TRUE,,-RA BR,OVC,300,,,,,,,LIFR,,,,,,,,,,,,SPECI,244.0
KTIK 271826Z AUTO 03012KT 7SM OVC006 09/09 A3007 RMK AO2 CIG 005 RWY13 CIG 005 RWY18 SLP189,KTIK,2018-03-27T18:26:00Z,35.42,-97.37,9.0,9.0,30,12,,7.0,30.070866,1018.9,,TRUE,TRUE,,,,,,,OVC,600,,,,,,,IFR,,,,,,,,,,,,SPECI,394.0
KTBN 271826Z AUTO 33008KT 4SM +RA BR OVC003 09/09 A3005 RMK AO2 PRESRR SLP179,KTBN,2018-03-27T18:26:00Z,37.72,-92.12,9.0,9.0,330,8,,4.0,30.050198,1017.9,,TRUE,TRUE,,,,,,+RA BR,OVC,300,,,,,,,LIFR,,,,,,,,,,,,SPECI,353.0
ETOU 271826Z AUTO 20006KT 9999 -RA OVC028 07/04 A2981 RMK AO2 OVC V BKN SLP102 $,ETOU,2018-03-27T18:26:00Z,50.03,8.32,7.0,4.0,200,6,,6.21,29.811024,1010.2,,TRUE,TRUE,TRUE,,,,,-RA,OVC,2800,,,,,,,MVFR,,,,,,,,,,,,SPECI,141.0
EGUN 271826Z AUTO 29009KT 9999 SCT029 OVC065 10/10 A2965 RMK AO2 SLP044 $,EGUN,2018-03-27T18:26:00Z,52.37,0.47,10.0,10.0,290,9,,6.21,29.648623,1004.4,,TRUE,TRUE,TRUE,,,,,,SCT,2900,OVC,6500,,,,,VFR,,,,,,,,,,,,SPECI,10.0
CYYF 271826Z 18015G21KT 15SM -RA BKN060 BKN140 09/00 A3003 RMK SC5AC2 SLP180,CYYF,2018-03-27T18:26:00Z,49.47,-119.58,9.0,0.0,180,15,21,15.0,30.029528,1018.0,,,,,,,,,-RA,BKN,6000,BKN,14000,,,,,VFR,,,,,,,,,,,,SPECI,344.0
KUIN 271826Z AUTO 34007KT 10SM BKN014 06/03 A3009 RMK AO2 T00610033,KUIN,2018-03-27T18:26:00Z,39.95,-91.2,6.1,3.3,340,7,,10.0,30.088583,,,TRUE,TRUE,,,,,,,BKN,1400,,,,,,,MVFR,,,,,,,,,,,,SPECI,234.0
KOFP 271826Z AUTO 23005KT 7SM -RA SCT026 BKN042 OVC050 06/02 A3045 RMK AO2 RAB18 P0000 T00610017,KOFP,2018-03-27T18:26:00Z,37.7,-77.43,6.1,1.7,230,5,,7.0,30.448818,,,TRUE,TRUE,,,,,,-RA,SCT,2600,BKN,4200,OVC,5000,,,VFR,,,,,,0.005,,,,,,SPECI,62.0
KMLC 271826Z AUTO 32008KT 3SM RA BR BKN006 OVC044 13/13 A3007 RMK AO2 P0009 T01330128,KMLC,2018-03-27T18:26:00Z,34.88,-95.78,13.3,12.8,320,8,,3.0,30.070866,,,TRUE,TRUE,,,,,,RA BR,BKN,600,OVC,4400,,,,,IFR,,,,,,0.09,,,,,,SPECI,232.0
KMDH 271826Z 27006KT 1SM +RA BR FEW005 SCT024 OVC032 13/12 A3006 RMK AO2 P0039 T01330122,KMDH,2018-03-27T18:26:00Z,37.78,-89.25,13.3,12.2,270,6,,1.0,30.059055,,,,TRUE,,,,,,+RA BR,FEW,500,SCT,2400,OVC,3200,,,IFR,,,,,,0.39,,,,,,SPECI,130.0
KBHM 271826Z 16007KT 120V190 10SM SCT029 BKN039 19/11 A3029 RMK AO2 T01890106,KBHM,2018-03-27T18:26:00Z,33.57,-86.75,18.9,10.6,160,7,,10.0,30.28937,,,,TRUE,,,,,,,SCT,2900,BKN,3900,,,,,VFR,,,,,,,,,,,,SPECI,197.0
KAPN 271826Z AUTO 20004KT 2 1/2SM BR OVC006 06/06 A2984 RMK AO2 CIG 004V009 T00610061,KAPN,2018-03-27T18:26:00Z,45.07,-83.57,6.1,6.1,200,4,,2.5,29.840551,,,TRUE,TRUE,,,,,,BR,OVC,600,,,,,,,IFR,,,,,,,,,,,,SPECI,210.0
KADG 271826Z AUTO 25010KT 9SM OVC007 11/10 A2997 RMK AO2 RAE1758 CIG 005V010 P0000 T01060100 TSNO,KADG,2018-03-27T18:26:00Z,41.87,-84.08,10.6,10.0,250,10,,9.0,29.970472,,,TRUE,TRUE,,,TRUE,,,,OVC,700,,,,,,,IFR,,,,,,0.005,,,,,,SPECI,241.0
PASI 271826Z 25014G23KT 5SM -RA BR BKN022 BKN032 OVC049 04/02 A2996 RMK AO2 RAB17 P0000 T00440022 $,PASI,2018-03-27T18:26:00Z,57.07,-135.35,4.4,2.2,250,14,23,5.0,29.958662,,,,TRUE,TRUE,,,,,-RA BR,BKN,2200,BKN,3200,OVC,4900,,,MVFR,,,,,,0.005,,,,,,SPECI,5.0
PAGY 271826Z AUTO VRB04KT 2SM -SN BKN041 OVC048 M02/M06 A2995 RMK AO2 SNB01 P0000 T10221056 TSNO,PAGY,2018-03-27T18:26:00Z,59.47,-135.3,-2.2,-5.6,0,4,,2.0,29.949802,,,TRUE,TRUE,,,TRUE,,,-SN,BKN,4100,OVC,4800,,,,,IFR,,,,,,0.005,,,,,,SPECI,5.0
CYUY 271826Z 16012G18KT 2SM -SN SCT012 OVC032 01/M01 A2993 RMK SN2SC2SC4 SLP152,CYUY,2018-03-27T18:26:00Z,48.2,-78.82,1.0,-1.0,160,12,18,2.0,29.929134,1015.2,,,,,,,,,-SN,SCT,1200,OVC,3200,,,,,IFR,,,,,,,,,,,,SPECI,301.0
PASA 271826Z AUTO 03009KT 2 1/2SM -SN BR OVC008 M04/M06 A2962 RMK AO2 CIG 007V011 P0000 FZRANO $,PASA,2018-03-27T18:26:00Z,63.68,-170.5,-4.0,-6.0,30,9,,2.5,29.619095,,,TRUE,TRUE,TRUE,,,TRUE,,-SN BR,OVC,800,,,,,,,IFR,,,,,,0.005,,,,,,SPECI,16.0
PAQH 271826Z AUTO 15017KT 1 3/4SM BR OVC005 00/M01 A2949 RMK AO2 CIG 003V008 PWINO FZRANO $,PAQH,2018-03-27T18:26:00Z,59.75,-161.85,0.0,-1.0,150,17,,1.75,29.489174,,,TRUE,TRUE,TRUE,,,TRUE,TRUE,BR,OVC,500,,,,,,,IFR,,,,,,,,,,,,SPECI,13.0
KOTM 271826Z AUTO 31011KT 9SM OVC011 04/01 A3012 RMK AO2 T00390011 TSNO PNO $,KOTM,2018-03-27T18:26:00Z,41.1,-92.45,3.9,1.1,310,11,,9.0,30.121063,,,TRUE,TRUE,TRUE,,TRUE,,,,OVC,1100,,,,,,,MVFR,,,,,,,,,,,,SPECI,256.0
KMBL 271826Z AUTO 28013KT 8SM BKN007 OVC012 05/04 A2990 RMK AO2 RAE02 P0000,KMBL,2018-03-27T18:26:00Z,44.27,-86.25,5.0,4.0,280,13,,8.0,29.899607,,,TRUE,TRUE,,,,,,,BKN,700,OVC,1200,,,,,IFR,,,,,,0.005,,,,,,SPECI,189.0
CYKP 271826Z AUTO 24011KT 9SM -SN SCT013 SCT020 BKN034 OVC085 01/00 A2966 RMK SLP057,CYKP,2018-03-27T18:26:00Z,51.67,-85.9,1.0,0.0,240,11,,9.0,29.660433,1005.7,,TRUE,,,,,,,-SN,SCT,1300,SCT,2000,BKN,3400,OVC,8500,VFR,,,,,,,,,,,,SPECI,179.0
CYMO 271826Z AUTO 17011KT 4SM -SN OVC008 01/01 A2976 RMK SLP079,CYMO,2018-03-27T18:26:00Z,51.28,-80.62,1.0,1.0,170,11,,4.0,29.760826,1007.9,,TRUE,,,,,,,-SN,OVC,800,,,,,,,IFR,,,,,,,,,,,,SPECI,10.0
CYHD 271826Z AUTO 24012G18KT 9SM BKN026 03/M01 A2980 RMK SLP115,CYHD,2018-03-27T18:26:00Z,49.82,-92.75,3.0,-1.0,240,12,18,9.0,29.799213,1011.5,,TRUE,,,,,,,,BKN,2600,,,,,,,MVFR,,,,,,,,,,,,SPECI,413.0
CYKF 271826Z AUTO 17012G17KT 6SM -RA BR OVC006 04/04 A2999 RMK SLP167,CYKF,2018-03-27T18:26:00Z,43.47,-80.38,4.0,4.0,170,12,17,6.0,29.991142,1016.7,,TRUE,,,,,,,-RA BR,OVC,600,,,,,,,IFR,,,,,,,,,,,,SPECI,317.0
CYZH 271826Z AUTO 09010KT 1 1/4SM -SN OVC029 M08/M10 A2964 RMK SLP078,CYZH,2018-03-27T18:26:00Z,55.28,-114.77,-8.0,-10.0,90,10,,1.25,29.639763,1007.8,,TRUE,,,,,,,-SN,OVC,2900,,,,,,,IFR,,,,,,,,,,,,SPECI,581.0
CYCK 271826Z AUTO 20017KT 6SM -RA BR SCT005 OVC009 06/05 A2997 RMK SLP155,CYCK,2018-03-27T18:26:00Z,42.3,-82.08,6.0,5.0,200,17,,6.0,29.970472,1015.5,,TRUE,,,,,,,-RA BR,SCT,500,OVC,900,,,,,IFR,,,,,,,,,,,,SPECI,198.0
EBBL 271825Z 18003KT 2000 -DZ SCT004 OVC013 06/06 Q1005 YLO YLO TEMPO AMB,EBBL,2018-03-27T18:25:00Z,51.17,5.47,6.0,6.0,180,3,,1.24,29.675198,,,,,,,,,,-DZ,SCT,400,OVC,1300,,,,,IFR,,,,,,,,,,,,METAR,64.0
EHSC 271825Z AUTO 16009KT 1100 BR ///////// 06/06 Q1003 W05/H5,EHSC,2018-03-27T18:25:00Z,51.93,3.67,6.0,6.0,160,9,,0.68,29.616142,,,TRUE,,,,,,,BR,,,,,,,,,,,,,,,,,,,,,METAR,50.0
EHSA 271825Z AUTO 19008KT 1100 BR ///////// 06/06 Q1004 W04/H7,EHSA,2018-03-27T18:25:00Z,52.0,3.28,6.0,6.0,190,8,,0.68,29.64567,,,TRUE,,,,,,,BR,,,,,,,,,,,,,,,,,,,,,METAR,50.0
EHQE 271825Z AUTO 08017KT //// // FEW002 SCT012 BKN015 05/05 Q1004 RE// W///H///,EHQE,2018-03-27T18:25:00Z,52.92,4.15,5.0,5.0,80,17,,,29.64567,,,TRUE,,,,,,,,FEW,200,SCT,1200,BKN,1500,,,,,,,,,,,,,,,METAR,50.0
EHPG 271825Z AUTO 15013KT 0900 FG FEW000 SCT002 OVC003 06/06 Q1004 W///H///,EHPG,2018-03-27T18:25:00Z,52.37,3.35,6.0,6.0,150,13,,0.56,29.64567,,,TRUE,,,,,,,FG,FEW,0,SCT,200,OVC,300,,,LIFR,,,,,,,,,,,,METAR,50.0
EHMG 271825Z AUTO 14020KT 9000 -RA SCT021 05/02 Q1006 RERA REDZ W///H///,EHMG,2018-03-27T18:25:00Z,53.62,4.97,5.0,2.0,140,20,,5.59,29.704725,,,TRUE,,,,,,,-RA,SCT,2100,,,,,,,VFR,,,,,,,,,,,,METAR,50.0
EHMA 271825Z AUTO 12017KT 9999 -RADZ SCT024 SCT028 BKN032 07/02 Q1007 RERA REDZ W///H///,EHMA,2018-03-27T18:25:00Z,53.5,5.95,7.0,2.0,120,17,,6.21,29.734253,,,TRUE,,,,,,,-RA -DZ,SCT,2400,SCT,2800,BKN,3200,,,VFR,,,,,,,,,,,,METAR,50.0
EHKV 271825Z AUTO 12019KT 3600 BR FEW003 BKN012 OVC014 06/05 Q1004 W///H///,EHKV,2018-03-27T18:25:00Z,53.27,3.63,6.0,5.0,120,19,,2.24,29.64567,,,TRUE,,,,,,,BR,FEW,300,BKN,1200,OVC,1400,,,IFR,,,,,,,,,,,,METAR,50.0
EHJR 271825Z AUTO 15018KT //// // ///////// 05/05 Q1004 RE// W06/H12,EHJR,2018-03-27T18:25:00Z,53.22,3.22,5.0,5.0,150,18,,,29.64567,,,TRUE,,,,,,,,,,,,,,,,,,,,,,,,,,,,METAR,50.0
EHJA 271825Z AUTO 11019KT 070V140 5000 -RA SCT002/// BKN003/// BKN007/// 05/04 Q1004 RERA REDZ W///H///,EHJA,2018-03-27T18:25:00Z,53.82,2.95,5.0,4.0,110,19,,3.11,29.64567,,,TRUE,,,,,,,-RA,SCT,200,BKN,300,BKN,700,,,LIFR,,,,,,,,,,,,METAR,50.0
EHHW 271825Z AUTO 13009KT 070V160 9999 DZ ///////// 06/02 Q1007 W///H///,EHHW,2018-03-27T18:25:00Z,,,6.0,2.0,130,9,,6.21,29.734253,,,TRUE,,,,,,,DZ,,,,,,,,,,,,,,,,,,,,,METAR,
EHFZ 271825Z AUTO 13018KT 5000 BR BKN015 OVC018 04/03 Q1005 REDZ W///H///,EHFZ,2018-03-27T18:25:00Z,54.12,4.02,4.0,3.0,130,18,,3.11,29.675198,,,TRUE,,,,,,,BR,BKN,1500,OVC,1800,,,,,MVFR,,,,,,,,,,,,METAR,50.0
EHFD 271825Z AUTO 10020KT 4700 BR FEW003/// SCT032/// 03/02 Q1007 W///H///,EHFD,2018-03-27T18:25:00Z,54.85,4.7,3.0,2.0,100,20,,2.92,29.734253,,,TRUE,,,,,,,BR,FEW,300,SCT,3200,,,,,IFR,,,,,,,,,,,,METAR,50.0
EHDV 271825Z AUTO 12027KT 3900 +DZRA FEW010/// BKN014/// OVC017/// 04/03 Q1004 W///H///,EHDV,2018-03-27T18:25:00Z,54.32,2.93,4.0,3.0,120,27,,2.42,29.64567,,,TRUE,,,,,,,+DZ +RA,FEW,1000,BKN,1400,OVC,1700,,,IFR,,,,,,,,,,,,METAR,50.0
EHAK 271825Z AUTO 12021KT 090V180 9999 -DZ FEW004/// BKN005/// BKN019/// 04/02 Q1007 W///H///,EHAK,2018-03-27T18:25:00Z,55.42,3.82,4.0,2.0,120,21,,6.21,29.734253,,,TRUE,,,,,,,-DZ,FEW,400,BKN,500,BKN,1900,,,IFR,,,,,,,,,,,,METAR,50.0
EHEH 271825Z AUTO 15007KT 120V180 3800 -RA FEW003 SCT006 BKN007 07/06 Q1005 RERA REDZ YLO 18008KT 4500 -RADZ FEW008 SCT012 OVC020 TEMPO 2500 DZRA FEW004 SCT008 OVC010,EHEH,2018-03-27T18:25:00Z,51.45,5.38,7.0,6.0,150,7,,2.36,29.675198,,,TRUE,,,,,,,-RA -RA DZ,FEW,300,SCT,600,BKN,700,FEW,800,IFR,,,,,,,,,,,,METAR,22.0
CYHM 271825Z 19013KT 1 3/4SM -RA BR OVC005 03/03 A3003 RMK FG1SF7 SLP178,CYHM,2018-03-27T18:25:00Z,43.17,-79.93,3.0,3.0,190,13,,1.75,30.029528,1017.8,,,,,,,,,-RA BR,OVC,500,,,,,,,IFR,,,,,,,,,,,,SPECI,238.0
EHWO 271825Z AUTO VRB02KT 2400 BR SCT001 BKN002 OVC004 07/07 Q1004 RED,EHWO,2018-03-27T18:25:00Z,51.45,4.32,7.0,7.0,0,2,,1.49,29.64567,,,TRUE,,,,,,,BR,SCT,100,BKN,200,OVC,400,,,LIFR,,,,,,,,,,,,METAR,17.0
EHVL 271825Z AUTO 12015KT 4300 -RADZ FEW008 OVC022 05/04 Q1005 GRN,EHVL,2018-03-27T18:25:00Z,53.23,4.92,5.0,4.0,120,15,,2.67,29.675198,,,TRUE,,,,,,,-RA -DZ,FEW,800,OVC,2200,,,,,IFR,,,,,,,,,,,,METAR,5.0
EHVK 271825Z AUTO 13005KT 110V190 5000 DZ FEW004 SCT006 BKN007 FEW015CB 06/06 Q1005 YLO,EHVK,2018-03-27T18:25:00Z,51.63,5.7,6.0,6.0,130,5,,3.11,29.675198,,,TRUE,,,,,,,DZ,FEW,400,SCT,600,BKN,700,FEW,1500,IFR,,,,,,,,,,,,METAR,21.0
EHLW 271825Z AUTO 13009KT 070V150 9999 DZ BKN021 OVC025 06/03 Q1006 WHT,EHLW,2018-03-27T18:25:00Z,53.22,5.75,6.0,3.0,130,9,,6.21,29.704725,,,TRUE,,,,,,,DZ,BKN,2100,OVC,2500,,,,,MVFR,,,,,,,,,,,,METAR,2.0
EHGR 271825Z AUTO 14006KT 110V170 2600 BR FEW003 SCT004 BKN006 07/06 Q1004 YLO,EHGR,2018-03-27T18:25:00Z,51.57,4.92,7.0,6.0,140,6,,1.62,29.64567,,,TRUE,,,,,,,BR,FEW,300,SCT,400,BKN,600,,,IFR,,,,,,,,,,,,METAR,13.0
EHDL 271825Z AUTO 13007KT 080V200 8000 BR OVC022 06/05 Q1006 REDZ WHT,EHDL,2018-03-27T18:25:00Z,52.07,5.87,6.0,5.0,130,7,,4.97,29.704725,,,TRUE,,,,,,,BR,OVC,2200,,,,,,,MVFR,,,,,,,,,,,,METAR,52.0
KYNG 271825Z 17011G18KT 1 1/2SM -RA BR OVC005 06/05 A3007 RMK AO2 VIS NW 1 P0000 T00560050,KYNG,2018-03-27T18:25:00Z,41.25,-80.67,5.6,5.0,170,11,18,1.5,30.070866,,,,TRUE,,,,,,-RA BR,OVC,500,,,,,,,IFR,,,,,,0.005,,,,,,SPECI,360.0
KMCW 271825Z AUTO 32010KT 10SM OVC010 02/M01 A3011 RMK AO2 T00171011,KMCW,2018-03-27T18:25:00Z,43.15,-93.33,1.7,-1.1,320,10,,10.0,30.109253,,,TRUE,TRUE,,,,,,,OVC,1000,,,,,,,MVFR,,,,,,,,,,,,SPECI,369.0
KMBS 271825Z 21011KT 6SM BR OVC006 11/09 A2987 RMK AO2 T01060089,KMBS,2018-03-27T18:25:00Z,43.53,-84.08,10.6,8.9,210,11,,6.0,29.870079,,,,TRUE,,,,,,BR,OVC,600,,,,,,,IFR,,,,,,,,,,,,SPECI,202.0
KLHQ 271825Z AUTO 20010KT 4SM BR OVC013 10/09 A3011 RMK AO2 T01000089,KLHQ,2018-03-27T18:25:00Z,39.75,-82.67,10.0,8.9,200,10,,4.0,30.109253,,,TRUE,TRUE,,,,,,BR,OVC,1300,,,,,,,MVFR,,,,,,,,,,,,SPECI,260.0
KHTL 271825Z AUTO 27008KT 4SM BR BKN007 OVC013 07/06 A2984 RMK AO2 CIG 004V010 T00670061,KHTL,2018-03-27T18:25:00Z,44.35,-84.67,6.7,6.1,270,8,,4.0,29.840551,,,TRUE,TRUE,,,,,,BR,BKN,700,OVC,1300,,,,,IFR,,,,,,,,,,,,SPECI,351.0
KBUF 271825Z 17012KT 10SM BKN031 OVC070 05/02 A3004 RMK AO2 CIG HYR SW T00500017,KBUF,2018-03-27T18:25:00Z,42.93,-78.73,5.0,1.7,170,12,,10.0,30.041338,,,,TRUE,,,,,,,BKN,3100,OVC,7000,,,,,VFR,,,,,,,,,,,,SPECI,211.0
EHRD 271825Z AUTO 15007KT 130V190 2300 -DZ FEW003 SCT005 BKN006 07/07 Q1004 REDZ TEMPO 3500,EHRD,2018-03-27T18:25:00Z,51.95,4.45,7.0,7.0,150,7,,1.43,29.64567,,,TRUE,,,,,,,-DZ,FEW,300,SCT,500,BKN,600,,,IFR,,,,,,,,,,,,METAR,-5.0
EHGG 271825Z AUTO 13005KT 060V170 9999 -RA FEW026 SCT030 OVC037 06/03 Q1007 NOSIG,EHGG,2018-03-27T18:25:00Z,53.12,6.57,6.0,3.0,130,5,,6.21,29.734253,,,TRUE,,,TRUE,,,,-RA,FEW,2600,SCT,3000,OVC,3700,,,VFR,,,,,,,,,,,,METAR,4.0
EHBK 271825Z AUTO 19009KT 5000 DZ FEW007 BKN008 BKN009 06/06 Q1005 TEMPO 4000 RA,EHBK,2018-03-27T18:25:00Z,50.92,5.77,6.0,6.0,190,9,,3.11,29.675198,,,TRUE,,,,,,,DZ,FEW,700,BKN,800,BKN,900,,,IFR,,,,,,,,,,,,METAR,116.0
EHAM 271825Z 13008KT 9000 -RADZ FEW008 SCT010 BKN012 07/06 Q1005 BECMG 7000 BKN008,EHAM,2018-03-27T18:25:00Z,52.32,4.78,7.0,6.0,130,8,,5.59,29.675198,,,,,,,,,,-RA -DZ,FEW,800,SCT,1000,BKN,1200,,,MVFR,,,,,,,,,,,,METAR,9.0
PAKI 271825Z AUTO 27009KT 6SM -SN BR FEW002 BKN012 OVC033 M01/M01 A2946 RMK AO2 P0000 FZRANO,PAKI,2018-03-27T18:25:00Z,59.93,-164.03,-1.0,-1.0,270,9,,6.0,29.459646,,,TRUE,TRUE,,,,TRUE,,-SN BR,FEW,200,BKN,1200,OVC,3300,,,MVFR,,,,,,0.005,,,,,,SPECI,4.0
YPTN 271825Z AUTO 00000KT 6000 // SCT099 22/20 Q1006,YPTN,2018-03-27T18:25:00Z,-14.52,132.38,22.0,20.0,0,0,,3.73,29.704725,,,TRUE,,,,,,,,SCT,9900,,,,,,,MVFR,,,,,,,,,,,,SPECI,109.0
EHKD 271825Z AUTO 11009KT 090V150 1900 R21/1800N -RA FEW002 SCT003 BKN005 FEW015CB 06/05 Q1005 RERA REDZ YLO,EHKD,2018-03-27T18:25:00Z,52.92,4.77,6.0,5.0,110,9,,1.18,29.675198,,,TRUE,,,,,,,-RA,FEW,200,SCT,300,BKN,500,FEW,1500,IFR,,,,,,,,,,,,METAR,14.0
CYPH 271825Z AUTO 12017KT 9SM -SN FEW012 BKN023 OVC031 M06/M07 A2978 RMK PRESFR SLP090,CYPH,2018-03-27T18:25:00Z,58.45,-78.08,-6.0,-7.0,120,17,,9.0,29.778543,1009.0,,TRUE,,,,,,,-SN,FEW,1200,BKN,2300,OVC,3100,,,MVFR,,,,,,,,,,,,SPECI,3.0
KJNX 271825Z AUTO 03004KT 10SM OVC036 06/03 A3046 RMK AO2,KJNX,2018-03-27T18:25:00Z,35.53,-78.38,6.0,3.0,30,4,,10.0,30.46063,,,TRUE,TRUE,,,,,,,OVC,3600,,,,,,,VFR,,,,,,,,,,,,METAR,50.0
ETAD 271824Z AUTO 20010KT 9999 OVC006 05/05 A2973 RMK AO2 RAE24 SLP072 $,ETAD,2018-03-27T18:24:00Z,49.98,6.7,5.0,5.0,200,10,,6.21,29.731298,1007.2,,TRUE,TRUE,TRUE,,,,,,OVC,600,,,,,,,IFR,,,,,,,,,,,,SPECI,365.0
KVPZ 271824Z AUTO 26009KT 2 1/2SM -RA BR BKN004 OVC018 12/11 A2997 RMK AO2 RAB18 P0000 T01170111,KVPZ,2018-03-27T18:24:00Z,41.45,-87.0,11.7,11.1,260,9,,2.5,29.970472,,,TRUE,TRUE,,,,,,-RA BR,BKN,400,OVC,1800,,,,,LIFR,,,,,,0.005,,,,,,SPECI,231.0
KPPF 271824Z AUTO 01008G16KT 5SM -RA BR OVC009 07/06 A3011 RMK AO2 CIG 008V014 P0000 T00720061,KPPF,2018-03-27T18:24:00Z,37.33,-95.5,7.2,6.1,10,8,16,5.0,30.109253,,,TRUE,TRUE,,,,,,-RA BR,OVC,900,,,,,,,IFR,,,,,,0.005,,,,,,SPECI,274.0
KIAD 271824Z 15007KT 10SM -RA SCT023 BKN028 OVC050 06/02 A3041 RMK AO2 PRESFR P0000 T00560022,KIAD,2018-03-27T18:24:00Z,38.93,-77.45,5.6,2.2,150,7,,10.0,30.410433,,,,TRUE,,,,,,-RA,SCT,2300,BKN,2800,OVC,5000,,,MVFR,,,,,,0.005,,,,,,SPECI,93.0
CYPW 271824Z 03004KT 360V080 20SM FEW007 BKN009 BKN022 BKN055 09/07 A3020 RMK CF1CU4SC1SC1 VIS N-NE 4 LO CLD AND BR SLP232,CYPW,2018-03-27T18:24:00Z,49.82,-124.5,9.0,7.0,30,4,,20.0,30.200787,1023.2,,,,,,,,,,FEW,700,BKN,900,BKN,2200,BKN,5500,IFR,,,,,,,,,,,,SPECI,130.0
EGNO 271824Z 28012KT 9999 FEW015 SCT037 07/04 Q1004,EGNO,2018-03-27T18:24:00Z,53.75,-2.88,7.0,4.0,280,12,,6.21,29.64567,,,,,,,,,,,FEW,1500,SCT,3700,,,,,VFR,,,,,,,,,,,,METAR,17.0
CYAT 271824Z AUTO /////KT 6SM -UP BR BKN010 OVC014 01/00 A2965 RMK WND MISG SLP044,CYAT,2018-03-27T18:24:00Z,52.93,-82.43,1.0,0.0,,,,6.0,29.648623,1004.4,,TRUE,,,,,,,BR UP,BKN,1000,OVC,1400,,,,,MVFR,,,,,,,,,,,,SPECI,9.0
CYMM 271824Z AUTO 12009KT 4SM -SN FEW023 BKN034 BKN042 OVC050 M12/M17 A2985 RMK SLP146,CYMM,2018-03-27T18:24:00Z,56.65,-111.22,-12.0,-17.0,120,9,,4.0,29.84941,1014.6,,TRUE,,,,,,,-SN,FEW,2300,BKN,3400,BKN,4200,OVC,5000,MVFR,,,,,,,,,,,,SPECI,369.0
CYED 271824Z AUTO 08008KT 1 1/4SM -SN VV009 M06/M10 A2959,CYED,2018-03-27T18:24:00Z,53.67,-113.47,-6.0,-10.0,80,8,,1.25,29.589567,,,TRUE,,,,,,,-SN,OVX,0,,,,,,,LIFR,,,,,,,,,,,900,SPECI,688.0
KFLP 271824Z AUTO 00000KT 5SM RA BR 16/15 A3002 RMK AO2 LTG DSNT SE P0008,KFLP,2018-03-27T18:24:00Z,36.28,-92.58,16.0,15.0,0,0,,5.0,30.02067,,,TRUE,TRUE,,,,,,RA BR,,,,,,,,,,,,,,,0.08,,,,,,SPECI,219.0
KMKT 271824Z AUTO 29009KT 10SM BKN016 03/M01 A3010 RMK AO2 TSNO,KMKT,2018-03-27T18:24:00Z,44.22,-93.92,3.0,-1.0,290,9,,10.0,30.100393,,,TRUE,TRUE,,,TRUE,,,,BKN,1600,,,,,,,MVFR,,,,,,,,,,,,SPECI,311.0
PAVA 271824Z AUTO 07009KT 3SM -SN BR OVC011 M04/M05 A2952 RMK AO2 P0000 FZRANO,PAVA,2018-03-27T18:24:00Z,61.53,-165.6,-4.0,-5.0,70,9,,3.0,29.518702,,,TRUE,TRUE,,,,TRUE,,-SN BR,OVC,1100,,,,,,,MVFR,,,,,,0.005,,,,,,SPECI,23.0
PASV 271823Z AUTO 17009KT 140V200 10SM -SN FEW019 BKN031 M01/M04 A2965 RMK AO2 SLP063,PASV,2018-03-27T18:23:00Z,61.1,-155.57,-1.0,-4.0,170,9,,10.0,29.648623,1006.3,,TRUE,TRUE,,,,,,-SN,FEW,1900,BKN,3100,,,,,VFR,,,,,,,,,,,,SPECI,484.0
KTCM 271823Z AUTO 22018G22KT 10SM BKN020 BKN026 OVC033 10/10 A3032 RMK AO2 CIG 020V033 BKN020 V SCT SLP272 $,KTCM,2018-03-27T18:23:00Z,47.12,-122.47,10.0,10.0,220,18,22,10.0,30.318897,1027.2,,TRUE,TRUE,TRUE,,,,,,BKN,2000,BKN,2600,OVC,3300,,,MVFR,,,,,,,,,,,,SPECI,98.0
KSXS 271823Z AUTO 16008KT 10SM SCT027 SCT340 21/13 A3027 RMK AO2 SLP251,KSXS,2018-03-27T18:23:00Z,31.37,-85.85,21.0,13.0,160,8,,10.0,30.268702,1025.1,,TRUE,TRUE,,,,,,,SCT,2700,SCT,34000,,,,,VFR,,,,,,,,,,,,SPECI,122.0
PAGS 271823Z AUTO 00000KT 1 1/2SM -SN BR SCT005 OVC012 02/01 A2992 RMK AO2 VIS 1V2 1/2 P0000 FZRANO,PAGS,2018-03-27T18:23:00Z,58.42,-135.73,2.0,1.0,0,0,,1.5,29.920275,,,TRUE,TRUE,,,,TRUE,,-SN BR,SCT,500,OVC,1200,,,,,IFR,,,,,,0.005,,,,,,SPECI,9.0
PANW 271823Z AUTO 18017G20KT 1SM -SN BR OVC004 00/00 A2968 RMK AO2 P0000 FZRANO,PANW,2018-03-27T18:23:00Z,59.45,-157.37,0.0,0.0,180,17,20,1.0,29.681103,,,TRUE,TRUE,,,,TRUE,,-SN BR,OVC,400,,,,,,,LIFR,,,,,,0.005,,,,,,SPECI,92.0
PAPH 271823Z AUTO 22020KT 10SM -RA FEW021 BKN027 BKN035 02/00 A2982 RMK AO2 PK WND 22027/1812 P0000 FZRANO,PAPH,2018-03-27T18:23:00Z,56.95,-158.62,2.0,0.0,220,20,,10.0,29.819881,,,TRUE,TRUE,,,,TRUE,,-RA,FEW,2100,BKN,2700,BKN,3500,,,MVFR,,,,,,0.005,,,,,,SPECI,29.0
PANA 271823Z AUTO 14007KT 2 1/2SM -SN BR BKN008 OVC015 01/M01 A2949 RMK AO2 VIS 1 1/4V5 CIG 006V012 P0000 FZRANO,PANA,2018-03-27T18:23:00Z,60.68,-161.98,1.0,-1.0,140,7,,2.5,29.489174,,,TRUE,TRUE,,,,TRUE,,-SN BR,BKN,800,OVC,1500,,,,,IFR,,,,,,0.005,,,,,,SPECI,5.0
KHZY 271823Z AUTO 18012G19KT 2 1/2SM BR OVC010 06/04 A3007 RMK AO2 CIG 006V013 T00560044,KHZY,2018-03-27T18:23:00Z,41.78,-80.7,5.6,4.4,180,12,19,2.5,30.070866,,,TRUE,TRUE,,,,,,BR,OVC,1000,,,,,,,IFR,,,,,,,,,,,,SPECI,276.0
KMGY 271823Z AUTO 21009KT 2SM -RA BR BKN006 OVC011 12/11 A3007 RMK AO2 P0003 T01170111,KMGY,2018-03-27T18:23:00Z,39.6,-84.23,11.7,11.1,210,9,,2.0,30.070866,,,TRUE,TRUE,,,,,,-RA BR,BKN,600,OVC,1100,,,,,IFR,,,,,,0.03,,,,,,SPECI,289.0
CYPA 271823Z 06013KT 2 1/2SM -SN DRSN OVC038 M11/M15 A2982 RMK SC8 SLP131,CYPA,2018-03-27T18:23:00Z,53.22,-105.67,-11.0,-15.0,60,13,,2.5,29.819881,1013.1,,,,,,,,,-SN DRSN,OVC,3800,,,,,,,IFR,,,,,,,,,,,,SPECI,428.0
KJHW 271823Z AUTO 18017G23KT 10SM -RA OVC005 01/01 A3006 RMK AO2 P0002 FZRANO,KJHW,2018-03-27T18:23:00Z,42.13,-79.27,1.0,1.0,180,17,23,10.0,30.059055,,,TRUE,TRUE,,,,TRUE,,-RA,OVC,500,,,,,,,IFR,,,,,,0.02,,,,,,SPECI,525.0
KFCI 271823Z AUTO 00000KT 10SM -RA SCT024 OVC039 06/02 A3044 RMK AO2 RAB00 P0000 $,KFCI,2018-03-27T18:23:00Z,37.4,-77.52,6.0,2.0,0,0,,10.0,30.43996,,,TRUE,TRUE,TRUE,,,,,-RA,SCT,2400,OVC,3900,,,,,VFR,,,,,,0.005,,,,,,SPECI,72.0
KDAL 271823Z 32004KT 2SM RA BR SCT007 BKN028 OVC060 18/17 A3003 RMK AO2 SCT V BKN P0012 T01780172 $,KDAL,2018-03-27T18:23:00Z,32.85,-96.85,17.8,17.2,320,4,,2.0,30.029528,,,,TRUE,TRUE,,,,,RA BR,SCT,700,BKN,2800,OVC,6000,,,IFR,,,,,,0.12,,,,,,SPECI,158.0
KBGD 271823Z AUTO 03011G19KT 1 3/4SM -RA BR BKN004 OVC014 05/04 A3014 RMK AO2 P0001 T00500044,KBGD,2018-03-27T18:23:00Z,35.7,-101.4,5.0,4.4,30,11,19,1.75,30.138779,,,TRUE,TRUE,,,,,,-RA BR,BKN,400,OVC,1400,,,,,LIFR,,,,,,0.01,,,,,,SPECI,927.0
KAGC 271823Z 13011KT 9SM BKN005 BKN015 OVC022 05/05 A3014 RMK AO2 RAE01 CIG 003V009 P0000 T00500050,KAGC,2018-03-27T18:23:00Z,40.35,-79.92,5.0,5.0,130,11,,9.0,30.138779,,,,TRUE,,,,,,,BKN,500,BKN,1500,OVC,2200,,,IFR,,,,,,0.005,,,,,,SPECI,389.0
EGUL 271823Z AUTO 29007KT 9999 BKN028 OVC060 10/10 A2964 RMK AO2 SLP041 $,EGUL,2018-03-27T18:23:00Z,52.42,0.57,10.0,10.0,290,7,,6.21,29.639763,1004.1,,TRUE,TRUE,TRUE,,,,,,BKN,2800,OVC,6000,,,,,MVFR,,,,,,,,,,,,SPECI,10.0
KSZL 271822Z 04009KT 10SM BKN015 07/04 A3006 RMK AO2A SLP183 $,KSZL,2018-03-27T18:22:00Z,38.72,-93.53,7.0,4.0,40,9,,10.0,30.059055,1018.3,,,TRUE,TRUE,,,,,,BKN,1500,,,,,,,MVFR,,,,,,,,,,,,SPECI,265.0
KRND 271822Z 15011KT 10SM FEW029 BKN045 BKN170 25/19 A2993 RMK AO2A DZB13E22 SLP129,KRND,2018-03-27T18:22:00Z,29.52,-98.27,25.0,19.0,150,11,,10.0,29.929134,1012.9,,,TRUE,,,,,,,FEW,2900,BKN,4500,BKN,17000,,,VFR,,,,,,,,,,,,SPECI,232.0
KIAB 271822Z AUTO 03011KT 10SM OVC014 06/03 A3014 RMK AO2 RAE22 SLP214,KIAB,2018-03-27T18:22:00Z,37.62,-97.27,6.0,3.0,30,11,,10.0,30.138779,1021.4,,TRUE,TRUE,,,,,,,OVC,1400,,,,,,,MVFR,,,,,,,,,,,,SPECI,418.0
KVUO 271822Z AUTO 18004KT 10SM -RA SCT019 OVC031 09/08 A3046 RMK AO2 RAE1756B12 P0000 T00940078,KVUO,2018-03-27T18:22:00Z,45.62,-122.65,9.4,7.8,180,4,,10.0,30.46063,,,TRUE,TRUE,,,,,,-RA,SCT,1900,OVC,3100,,,,,VFR,,,,,,0.005,,,,,,SPECI,8.0
KMLF 271822Z AUTO 01016G24KT 10SM FEW044 06/M07 A3022 RMK AO2 WSHFT 1808 T00611067,KMLF,2018-03-27T18:22:00Z,38.42,-113.02,6.1,-6.7,10,16,24,10.0,30.221457,,,TRUE,TRUE,,,,,,,FEW,4400,,,,,,,VFR,,,,,,,,,,,,SPECI,1534.0
KDUJ 271822Z AUTO 13012KT 3SM BR OVC004 01/01 A3016 RMK AO2 T00060006 TSNO,KDUJ,2018-03-27T18:22:00Z,41.17,-78.9,0.6,0.6,130,12,,3.0,30.159449,,,TRUE,TRUE,,,TRUE,,,BR,OVC,400,,,,,,,LIFR,,,,,,,,,,,,SPECI,554.0
KDRT 271822Z AUTO 35006KT 2 1/2SM BR OVC008 19/18 A2994 RMK AO2 CIG 005V011 T01890183,KDRT,2018-03-27T18:22:00Z,29.37,-100.92,18.9,18.3,350,6,,2.5,29.940945,,,TRUE,TRUE,,,,,,BR,OVC,800,,,,,,,IFR,,,,,,,,,,,,SPECI,313.0
KBKL 271822Z 20011KT 6SM -RA BR OVC014 09/07 A3003 RMK AO2 RAB21 P0000 T00890067,KBKL,2018-03-27T18:22:00Z,41.53,-81.67,8.9,6.7,200,11,,6.0,30.029528,,,,TRUE,,,,,,-RA BR,OVC,1400,,,,,,,MVFR,,,,,,0.005,,,,,,SPECI,184.0
KABI 271822Z 01004KT 8SM FEW065 OVC090 16/16 A3005 RMK AO2 LTG DSNT E-SW TSB00E16 T01610156,KABI,2018-03-27T18:22:00Z,32.42,-99.68,16.1,15.6,10,4,,8.0,30.050198,,,,TRUE,,,,,,,FEW,6500,OVC,9000,,,,,VFR,,,,,,,,,,,,SPECI,548.0
CYZE 271822Z AUTO 17013G20KT 2 1/4SM -RA BR OVC004 02/02 A2984 RMK SLP112,CYZE,2018-03-27T18:22:00Z,45.87,-82.57,2.0,2.0,170,13,20,2.25,29.840551,1011.2,,TRUE,,,,,,,-RA BR,OVC,400,,,,,,,LIFR,,,,,,,,,,,,SPECI,193.0
KDVP 271822Z AUTO 27010KT 7SM CLR 02/00 A3008 RMK AO2 T00220000,KDVP,2018-03-27T18:22:00Z,43.98,-95.78,2.2,0.0,270,10,,7.0,30.079725,,,TRUE,TRUE,,,,,,,CLR,,,,,,,,VFR,,,,,,,,,,,,SPECI,495.0
KFCS 271822Z 26004KT 6SM FEW040 BKN060 02/M02 A3016 RMK AO2A SNB1758SNE22 SLP256 $,KFCS,2018-03-27T18:22:00Z,38.67,-104.77,2.0,-2.0,260,4,,6.0,30.159449,1025.6,,,TRUE,TRUE,,,,,,FEW,4000,BKN,6000,,,,,VFR,,,,,,,,,,,,SPECI,1789.0
KT70 271821Z AUTO 28005KT 5SM -RA BR OVC004 20/19 A2988 RMK AO2 RAB06 CIG 004V006 SLP109,KT70,2018-03-27T18:21:00Z,29.12,-100.48,20.0,19.0,280,5,,5.0,29.878937,1010.9,,TRUE,TRUE,,,,,,-RA BR,OVC,400,,,,,,,LIFR,,,,,,,,,,,,SPECI,298.0
KNFW 271821Z 12003KT 6SM -RA BR FEW009 BKN085 OVC100 18/17 A3003 RMK AO2 TSB00E16 CIG 070 N P0004 T01830167 $,KNFW,2018-03-27T18:21:00Z,32.78,-97.43,18.3,16.7,120,3,,6.0,30.029528,,,,TRUE,TRUE,,,,,-RA BR,FEW,900,BKN,8500,OVC,10000,,,VFR,,,,,,0.04,,,,,,SPECI,198.0
KPRX 271821Z AUTO 32006KT 10SM -RA BKN007 BKN030 OVC036 18/17 A3002 RMK AO2 CIG 003V009 P0001,KPRX,2018-03-27T18:21:00Z,33.62,-95.45,18.0,17.0,320,6,,10.0,30.02067,,,TRUE,TRUE,,,,,,-RA,BKN,700,BKN,3000,OVC,3600,,,IFR,,,,,,0.01,,,,,,SPECI,167.0
KEHR 271821Z AUTO 17011KT 7SM -RA SCT021 BKN027 BKN033 13/12 A3004 RMK AO2 P0002,KEHR,2018-03-27T18:21:00Z,37.82,-87.67,13.0,12.0,170,11,,7.0,30.041338,,,TRUE,TRUE,,,,,,-RA,SCT,2100,BKN,2700,BKN,3300,,,MVFR,,,,,,0.02,,,,,,SPECI,117.0
PAOH 271821Z AUTO 07010KT 4SM -SN BR BKN009 OVC040 00/M02 A2991 RMK AO2 CIG 007V013 P0000 FZRANO,PAOH,2018-03-27T18:21:00Z,58.1,-135.45,0.0,-2.0,70,10,,4.0,29.911417,,,TRUE,TRUE,,,,TRUE,,-SN BR,BKN,900,OVC,4000,,,,,IFR,,,,,,0.005,,,,,,SPECI,9.0
KHYS 271821Z AUTO 03013G17KT 10SM SCT028 SCT085 08/00 A3017 RMK AO2,KHYS,2018-03-27T18:21:00Z,38.85,-99.27,8.0,0.0,30,13,17,10.0,30.171259,,,TRUE,TRUE,,,,,,,SCT,2800,SCT,8500,,,,,VFR,,,,,,,,,,,,SPECI,609.0
KBIV 271821Z AUTO VRB06KT 1 3/4SM BR OVC002 07/06 A2995 RMK AO2 T00670056,KBIV,2018-03-27T18:21:00Z,42.75,-86.1,6.7,5.6,0,6,,1.75,29.949802,,,TRUE,TRUE,,,,,,BR,OVC,200,,,,,,,LIFR,,,,,,,,,,,,SPECI,208.0
KDHT 271821Z AUTO 04017KT 3SM BR BKN008 OVC015 04/03 A3015 RMK AO2 CIG 006V012 T00390033,KDHT,2018-03-27T18:21:00Z,36.02,-102.55,3.9,3.3,40,17,,3.0,30.15059,,,TRUE,TRUE,,,,,,BR,BKN,800,OVC,1500,,,,,IFR,,,,,,,,,,,,SPECI,1217.0
KVIH 271821Z AUTO 35010KT 5SM RA BR SCT005 OVC010 09/09 A3005 RMK AO2 P0005 T00890089,KVIH,2018-03-27T18:21:00Z,38.13,-91.77,8.9,8.9,350,10,,5.0,30.050198,,,TRUE,TRUE,,,,,,RA BR,SCT,500,OVC,1000,,,,,MVFR,,,,,,0.05,,,,,,SPECI,333.0
CYYU 271821Z 19009KT 2SM -SN BKN005 OVC008 01/00 A2974 RMK SN2SC4SC2 SLP084,CYYU,2018-03-27T18:21:00Z,49.42,-82.47,1.0,0.0,190,9,,2.0,29.740158,1008.4,,,,,,,,,-SN,BKN,500,OVC,800,,,,,IFR,,,,,,,,,,,,SPECI,227.0
PAJN 271821Z 24003KT 1SM R08/4000VP6000FT -SN BR VV014 M01/M01 A2993 RMK AO2 4/007 933004 P0001 T10111011,PAJN,2018-03-27T18:21:00Z,58.35,-134.58,-1.1,-1.1,240,3,,1.0,29.929134,,,,TRUE,,,,,,-SN BR,OVX,0,,,,,,,LIFR,,,,,,0.01,,,,7.0,1400,SPECI,5.0
PAYA 271821Z AUTO 10010KT 1 3/4SM -SN BR FEW014 OVC019 01/00 A2977 RMK AO2 SNB1755 P0000 T00110000 TSNO $,PAYA,2018-03-27T18:21:00Z,59.52,-139.67,1.1,0.0,100,10,,1.75,29.769686,,,TRUE,TRUE,TRUE,,TRUE,,,-SN BR,FEW,1400,OVC,1900,,,,,IFR,,,,,,0.005,,,,,,SPECI,11.0
KCBM 271821Z AUTO 18013KT 10SM SCT049 19/12 A3023 RMK AO2 SLP239 TSNO $,KCBM,2018-03-27T18:21:00Z,33.63,-88.45,19.0,12.0,180,13,,10.0,30.230314,1023.9,,TRUE,TRUE,TRUE,,TRUE,,,,SCT,4900,,,,,,,VFR,,,,,,,,,,,,SPECI,67.0
KTGI 271821Z AUTO 32003KT 10SM CLR 06/02 A3046 RMK AO1,KTGI,2018-03-27T18:21:00Z,37.82,-75.98,6.0,2.0,320,3,,10.0,30.46063,,,TRUE,TRUE,,,,,,,CLR,,,,,,,,VFR,,,,,,,,,,,,METAR,2.0
LATI 271820Z VRB01KT 9999 SCT070 10/07 Q1014 NOSIG,LATI,2018-03-27T18:20:00Z,41.42,19.72,10.0,7.0,0,1,,6.21,29.940945,,,,,,TRUE,,,,,SCT,7000,,,,,,,VFR,,,,,,,,,,,,METAR,90.0
EGGP 271820Z 28013KT 9999 VCSH FEW015 SCT048 08/04 Q1005,EGGP,2018-03-27T18:20:00Z,53.32,-2.85,8.0,4.0,280,13,,6.21,29.675198,,,,,,,,,,VCSH,FEW,1500,SCT,4800,,,,,VFR,,,,,,,,,,,,METAR,26.0
EGNH 271820Z 26013KT 9999 SCT029 07/05 Q1005,EGNH,2018-03-27T18:20:00Z,53.77,-3.02,7.0,5.0,260,13,,6.21,29.675198,,,,,,,,,,,SCT,2900,,,,,,,VFR,,,,,,,,,,,,METAR,10.0
EFMA 271820Z 33003KT CAVOK M04/M10 Q1018,EFMA,2018-03-27T18:20:00Z,60.12,19.88,-4.0,-10.0,330,3,,6.21,30.059055,,,,,,,,,,,CAVOK,,,,,,,,VFR,,,,,,,,,,,,METAR,6.0
ENBN 271820Z 23006KT 9999 R22///// VCSH FEW015 SCT030 M02/M03 Q1019,ENBN,2018-03-27T18:20:00Z,65.47,12.22,-2.0,-3.0,230,6,,6.21,30.088583,,,,,,,,,,VCSH,FEW,1500,SCT,3000,,,,,VFR,,,,,,,,,,,,SPECI,9.0
ETSN 271820Z 12004KT 9999 BKN080 07/01 Q1011 BLU,ETSN,2018-03-27T18:20:00Z,48.72,11.22,7.0,1.0,120,4,,6.21,29.852362,,,,,,,,,,,BKN,8000,,,,,,,VFR,,,,,,,,,,,,METAR,387.0
ETSL 271820Z 13003KT 9999 FEW060 BKN140 BKN200 04/M01 Q1010 BLU,ETSL,2018-03-27T18:20:00Z,48.17,10.87,4.0,-1.0,130,3,,6.21,29.822834,,,,,,,,,,,FEW,6000,BKN,14000,BKN,20000,,,VFR,,,,,,,,,,,,METAR,562.0
ETSI 271820Z AUTO 11004KT //// // ////// 05/M01 Q1011 ///,ETSI,2018-03-27T18:20:00Z,48.72,11.52,5.0,-1.0,110,4,,,29.852362,,,TRUE,,,,,,,,,,,,,,,,,,,,,,,,,,,,METAR,370.0
ETSB 271820Z AUTO 20014KT 1900 // ////// 04/03 Q1006 ///,ETSB,2018-03-27T18:20:00Z,50.17,7.07,4.0,3.0,200,14,,1.18,29.704725,,,TRUE,,,,,,,,,,,,,,,,,,,,,,,,,,,,METAR,486.0
ETSA 271820Z AUTO 12005KT 9000 // ////// 05/M03 Q1010 ///,ETSA,2018-03-27T18:20:00Z,48.07,10.9,5.0,-3.0,120,5,,5.59,29.822834,,,TRUE,,,,,,,,,,,,,,,,,,,,,,,,,,,,METAR,628.0
ETNN 271820Z 16005KT 9999 -RADZ FEW022 OVC035 07/05 Q1006 BLU BLU TEMPO GRN,ETNN,2018-03-27T18:20:00Z,50.82,6.67,7.0,5.0,160,5,,6.21,29.704725,,,,,,,,,,-RA -DZ,FEW,2200,OVC,3500,,,,,VFR,,,,,,,,,,,,METAR,135.0
ETHN 271820Z 17006KT 9999 SCT040 BKN080 07/M01 Q1009 BLU BLU,ETHN,2018-03-27T18:20:00Z,49.38,9.97,7.0,-1.0,170,6,,6.21,29.793306,,,,,,,,,,,SCT,4000,BKN,8000,,,,,VFR,,,,,,,,,,,,METAR,473.0
ETHL 271820Z 20004KT 9999 FEW003 SCT060 BKN090 07/M02 Q1010 BLU BLU TEMPO WHT,ETHL,2018-03-27T18:20:00Z,48.22,9.92,7.0,-2.0,200,4,,6.21,29.822834,,,,,,,,,,,FEW,300,SCT,6000,BKN,9000,,,VFR,,,,,,,,,,,,METAR,549.0
ETHA 271820Z 32002KT 9999 FEW040 SCT060 BKN130 04/M05 Q1010 BLACKBLU,ETHA,2018-03-27T18:20:00Z,47.82,10.87,4.0,-5.0,320,2,,6.21,29.822834,,,,,,,,,,,FEW,4000,SCT,6000,BKN,13000,,,VFR,,,,,,,,,,,,METAR,760.0
ETHB 271820Z 12004KT 9999 -RA FEW032 BKN045 OVC080 08/M00 Q1008 BLU BLU BECMG WHT,ETHB,2018-03-27T18:20:00Z,52.27,9.07,8.0,0.0,120,4,,6.21,29.763779,,,,,,,,,,-RA,FEW,3200,BKN,4500,OVC,8000,,,VFR,,,,,,,,,,,,METAR,78.0
ETWM 271820Z AUTO 12004KT 8000 // ////// 07/03 Q1008 ///,ETWM,2018-03-27T18:20:00Z,52.72,7.33,7.0,3.0,120,4,,4.97,29.763779,,,TRUE,,,,,,,,,,,,,,,,,,,,,,,,,,,,METAR,21.0
ETSH 271820Z 10006KT 9999 FEW060 BKN240 04/M02 Q1012 BLU+,ETSH,2018-03-27T18:20:00Z,51.77,13.17,4.0,-2.0,100,6,,6.21,29.88189,,,,,,,,,,,FEW,6000,BKN,24000,,,,,VFR,,,,,,,,,,,,METAR,79.0
ETNW 271820Z 12008KT 9999 BKN040 08/M01 Q1009 BLU,ETNW,2018-03-27T18:20:00Z,52.45,9.42,8.0,-1.0,120,8,,6.21,29.793306,,,,,,,,,,,BKN,4000,,,,,,,VFR,,,,,,,,,,,,METAR,70.0
ETNT 271820Z 15006KT 9999 -RA BKN060 BKN110 08/M01 Q1008 BLU BLU+,ETNT,2018-03-27T18:20:00Z,53.53,7.67,8.0,-1.0,150,6,,6.21,29.763779,,,,,,,,,,-RA,BKN,6000,BKN,11000,,,,,VFR,,,,,,,,,,,,METAR,12.0
ETNS 271820Z 07008KT 8000 FEW044 BKN075 04/02 Q1011 BLU BLU TEMPO WHT,ETNS,2018-03-27T18:20:00Z,54.47,9.52,4.0,2.0,70,8,,4.97,29.852362,,,,,,,,,,,FEW,4400,BKN,7500,,,,,MVFR,,,,,,,,,,,,METAR,25.0
ETNL 271820Z 08004KT 9999 BKN052 OVC080 05/00 Q1012 BLU BLU,ETNL,2018-03-27T18:20:00Z,53.92,12.27,5.0,0.0,80,4,,6.21,29.88189,,,,,,,,,,,BKN,5200,OVC,8000,,,,,VFR,,,,,,,,,,,,METAR,40.0
ETNH 271820Z 07007KT 8000 FEW040 BKN070 04/03 Q1010 BLU BLU,ETNH,2018-03-27T18:20:00Z,54.32,9.55,4.0,3.0,70,7,,4.97,29.822834,,,,,,,,,,,FEW,4000,BKN,7000,,,,,MVFR,,,,,,,,,,,,METAR,17.0
ETMN 271820Z 11004KT 9999 FEW070 BKN100 07/M02 Q1009 BLU BLU,ETMN,2018-03-27T18:20:00Z,53.77,8.67,7.0,-2.0,110,4,,6.21,29.793306,,,,,,,,,,,FEW,7000,BKN,10000,,,,,VFR,,,,,,,,,,,,METAR,31.0
ETML 271820Z AUTO 11009KT //// // ////// 02/02 Q1011 ///,ETML,2018-03-27T18:20:00Z,,,2.0,2.0,110,9,,,29.852362,,,TRUE,,,,,,,,,,,,,,,,,,,,,,,,,,,,METAR,
ETHS 271820Z 12005KT 9999 BKN130 BKN180 05/M03 Q1010 BLU,ETHS,2018-03-27T18:20:00Z,52.92,10.18,5.0,-3.0,120,5,,6.21,29.822834,,,,,,,,,,,BKN,13000,BKN,18000,,,,,VFR,,,,,,,,,,,,METAR,88.0
ETHC 271820Z 09006KT 9999 BKN060 BKN140 08/M01 Q1009 BLU,ETHC,2018-03-27T18:20:00Z,52.6,10.02,8.0,-1.0,90,6,,6.21,29.793306,,,,,,,,,,,BKN,6000,BKN,14000,,,,,VFR,,,,,,,,,,,,METAR,52.0
ETGG 271820Z 11007KT 4000 BR SCT005 BKN050 02/01 Q1011 GRN,ETGG,2018-03-27T18:20:00Z,54.83,9.5,2.0,1.0,110,7,,2.49,29.852362,,,,,,,,,,BR,SCT,500,BKN,5000,,,,,IFR,,,,,,,,,,,,METAR,33.0
KHSD 271820Z AUTO 01014KT 10SM OVC009 08/07 A3008 RMK A01,KHSD,2018-03-27T18:20:00Z,35.6,-97.72,8.0,7.0,10,14,,10.0,30.079725,,,TRUE,TRUE,,,,,,,OVC,900,,,,,,,IFR,,,,,,,,,,,,METAR,364.0
KGWW 271820Z AUTO 02004KT 10SM OVC037 05/04 A3045 RMK AO2 T00500040,KGWW,2018-03-27T18:20:00Z,35.47,-77.97,5.0,4.0,20,4,,10.0,30.448818,,,TRUE,TRUE,,,,,,,OVC,3700,,,,,,,VFR,,,,,,,,,,,,METAR,41.0
KGOO 271820Z AUTO 32004KT 10SM CLR 14/M03 A3026 RMK AO1,KGOO,2018-03-27T18:20:00Z,39.22,-121.0,14.0,-3.0,320,4,,10.0,30.259842,,,TRUE,TRUE,,,,,,,CLR,,,,,,,,VFR,,,,,,,,,,,,METAR,962.0
VNKT 271820Z 11004KT 5000 HZ FEW020 16/10 Q1018 NOSIG,VNKT,2018-03-27T18:20:00Z,27.68,85.37,16.0,10.0,110,4,,3.11,30.059055,,,,,,TRUE,,,,HZ,FEW,2000,,,,,,,MVFR,,,,,,,,,,,,METAR,1337.0
ESNZ 271820Z 23008KT CAVOK M04/M13 Q1016,ESNZ,2018-03-27T18:20:00Z,63.17,14.5,-4.0,-13.0,230,8,,6.21,30.0,,,,,,,,,,,CAVOK,,,,,,,,VFR,,,,,,,,,,,,METAR,370.0
ESNU 271820Z 21003KT CAVOK M07/M11 Q1014 R14/09//95,ESNU,2018-03-27T18:20:00Z,63.78,20.27,-7.0,-11.0,210,3,,6.21,29.940945,,,,,,,,,,,CAVOK,,,,,,,,VFR,,,,,,,,,,,,SPECI,14.0
ESNS 271820Z 27003KT CAVOK M04/M09 Q1013,ESNS,2018-03-27T18:20:00Z,64.62,21.07,-4.0,-9.0,270,3,,6.21,29.911417,,,,,,,,,,,CAVOK,,,,,,,,VFR,,,,,,,,,,,,METAR,49.0
ESNQ 271820Z AUTO 32011KT 9999 -SN FEW015/// M04/M07 Q1009 REFZUP,ESNQ,2018-03-27T18:20:00Z,67.82,20.32,-4.0,-7.0,320,11,,6.21,29.793306,,,TRUE,,,,,,,-SN,FEW,1500,,,,,,,VFR,,,,,,,,,,,,METAR,452.0
ESNO 271820Z AUTO 26003KT 9999 NCD M05/M12 Q1015,ESNO,2018-03-27T18:20:00Z,63.38,18.97,-5.0,-12.0,260,3,,6.21,29.970472,,,TRUE,,,,,,,,CLR,,,,,,,,VFR,,,,,,,,,,,,METAR,103.0
ESNN 271820Z VRB01KT CAVOK M07/M12 Q1017 R16/01//74,ESNN,2018-03-27T18:20:00Z,62.52,17.43,-7.0,-12.0,0,1,,6.21,30.029528,,,,,,,,,,,CAVOK,,,,,,,,VFR,,,,,,,,,,,,SPECI,10.0
ESNK 271820Z AUTO 35002KT 9999 NCD M04/M14 Q1017,ESNK,2018-03-27T18:20:00Z,63.03,17.77,-4.0,-14.0,350,2,,6.21,30.029528,,,TRUE,,,,,,,,CLR,,,,,,,,VFR,,,,,,,,,,,,METAR,19.0
ESNG 271820Z 32009KT CAVOK M02/M07 Q1010,ESNG,2018-03-27T18:20:00Z,67.13,20.82,-2.0,-7.0,320,9,,6.21,29.822834,,,,,,,,,,,CAVOK,,,,,,,,VFR,,,,,,,,,,,,METAR,310.0
HLLM 271820Z 31010KT 280V340 6000 SCT025 15/10 Q1020,HLLM,2018-03-27T18:20:00Z,32.9,13.28,15.0,10.0,310,10,,3.73,30.11811,,,,,,,,,,,SCT,2500,,,,,,,MVFR,,,,,,,,,,,,METAR,11.0
ESSV 271820Z 05001KT CAVOK M04/M12 Q1018 R03/09//95,ESSV,2018-03-27T18:20:00Z,57.67,18.35,-4.0,-12.0,50,1,,6.21,30.059055,,,,,,,,,,,CAVOK,,,,,,,,VFR,,,,,,,,,,,,SPECI,47.0
ESSP 271820Z 05004KT CAVOK M02/M11 Q1019 R27/09//95,ESSP,2018-03-27T18:20:00Z,58.57,16.25,-2.0,-11.0,50,4,,6.21,30.088583,,,,,,,,,,,CAVOK,,,,,,,,VFR,,,,,,,,,,,,SPECI,8.0
ESSD 271820Z 24002KT CAVOK M04/M13 Q1018,ESSD,2018-03-27T18:20:00Z,60.42,15.5,-4.0,-13.0,240,2,,6.21,30.059055,,,,,,,,,,,CAVOK,,,,,,,,VFR,,,,,,,,,,,,METAR,161.0
ESSB 271820Z 02004KT 350V060 CAVOK M02/M12 Q1019 R30/15//63,ESSB,2018-03-27T18:20:00Z,59.35,17.93,-2.0,-12.0,20,4,,6.21,30.088583,,,,,,,,,,,CAVOK,,,,,,,,VFR,,,,,,,,,,,,SPECI,11.0
ESSA 271820Z 03004KT CAVOK M03/M10 Q1018 R01L/09//95 R01R/09//95 R08/09//95 NOSIG,ESSA,2018-03-27T18:20:00Z,59.63,17.93,-3.0,-10.0,30,4,,6.21,30.059055,,,,,,TRUE,,,,,CAVOK,,,,,,,,VFR,,,,,,,,,,,,SPECI,61.0
ESOW 271820Z AUTO 02003KT 9999 NCD M03/M08 Q1019,ESOW,2018-03-27T18:20:00Z,59.57,16.62,-3.0,-8.0,20,3,,6.21,30.088583,,,TRUE,,,,,,,,CLR,,,,,,,,VFR,,,,,,,,,,,,METAR,31.0
ESOK 271820Z 35002KT CAVOK M03/M14 Q1018,ESOK,2018-03-27T18:20:00Z,59.45,13.33,-3.0,-14.0,350,2,,6.21,30.059055,,,,,,,,,,,CAVOK,,,,,,,,VFR,,,,,,,,,,,,METAR,107.0
ESOE 271820Z 03002KT CAVOK M02/M11 Q1018,ESOE,2018-03-27T18:20:00Z,59.22,15.05,-2.0,-11.0,30,2,,6.21,30.059055,,,,,,,,,,,CAVOK,,,,,,,,VFR,,,,,,,,,,,,METAR,57.0
ESKN 271820Z 05002KT CAVOK M02/M15 Q1018 R26/09//95,ESKN,2018-03-27T18:20:00Z,58.78,16.9,-2.0,-15.0,50,2,,6.21,30.059055,,,,,,,,,,,CAVOK,,,,,,,,VFR,,,,,,,,,,,,SPECI,43.0
ESSL 271820Z AUTO 36003KT 9999 NCD M02/M15 Q1018,ESSL,2018-03-27T18:20:00Z,58.38,15.67,-2.0,-15.0,360,3,,6.21,30.059055,,,TRUE,,,,,,,,CLR,,,,,,,,VFR,,,,,,,,,,,,METAR,52.0
ESPE 271820Z AUTO 31005KT 9999 OVC084/// M03/M08 Q1012,ESPE,2018-03-27T18:20:00Z,65.88,20.15,-3.0,-8.0,310,5,,6.21,29.88189,,,TRUE,,,,,,,,OVC,8400,,,,,,,VFR,,,,,,,,,,,,METAR,182.0
ESPA 271820Z 33010KT CAVOK M01/M08 Q1012,ESPA,2018-03-27T18:20:00Z,65.53,22.12,-1.0,-8.0,330,10,,6.21,29.88189,,,,,,,,,,,CAVOK,,,,,,,,VFR,,,,,,,,,,,,METAR,34.0
ESIB 271820Z AUTO 06006KT 9999 NCD M02/M09 Q1018,ESIB,2018-03-27T18:20:00Z,58.42,12.68,-2.0,-9.0,60,6,,6.21,30.059055,,,TRUE,,,,,,,,CLR,,,,,,,,VFR,,,,,,,,,,,,METAR,74.0
ESDF 271820Z 07005KT 4000 -SN BR VV037 M03/M04 Q1018,ESDF,2018-03-27T18:20:00Z,56.27,15.27,-3.0,-4.0,70,5,,2.49,30.059055,,,,,,,,,,-SN BR,OVX,0,,,,,,,LIFR,,,,,,,,,,,3700,METAR,74.0
ESCF 271820Z AUTO 35003KT 9999 NCD M03/M14 Q1018,ESCF,2018-03-27T18:20:00Z,58.38,15.52,-3.0,-14.0,350,3,,6.21,30.059055,,,TRUE,,,,,,,,CLR,,,,,,,,VFR,,,,,,,,,,,,METAR,117.0
ESND 271820Z AUTO 29002KT 9999 NCD M10/M16 Q1016,ESND,2018-03-27T18:20:00Z,62.05,14.42,-10.0,-16.0,290,2,,6.21,30.0,,,TRUE,,,,,,,,CLR,,,,,,,,VFR,,,,,,,,,,,,METAR,359.0
ESUP 271820Z AUTO 33004KT 9999 -SN FEW020/// SCT031/// M04/M05 Q1009,ESUP,2018-03-27T18:20:00Z,67.25,23.07,-4.0,-5.0,330,4,,6.21,29.793306,,,TRUE,,,,,,,-SN,FEW,2000,SCT,3100,,,,,VFR,,,,,,,,,,,,METAR,165.0
ESST 271820Z AUTO VRB02KT 9999 NCD M04/M12 Q1018,ESST,2018-03-27T18:20:00Z,60.15,12.98,-4.0,-12.0,0,2,,6.21,30.059055,,,TRUE,,,,,,,,CLR,,,,,,,,VFR,,,,,,,,,,,,METAR,120.0
ESNV 271820Z 29005KT 9999 NSC M05/M10 Q1014,ESNV,2018-03-27T18:20:00Z,64.58,16.83,-5.0,-10.0,290,5,,6.21,29.940945,,,,,,,,,,,CLR,,,,,,,,VFR,,,,,,,,,,,,METAR,348.0
ESKM 271820Z AUTO 05003KT 9999 NCD M05/M14 Q1017,ESKM,2018-03-27T18:20:00Z,60.97,14.52,-5.0,-14.0,50,3,,6.21,30.029528,,,TRUE,,,,,,,,CLR,,,,,,,,VFR,,,,,,,,,,,,METAR,193.0
ESGR 271820Z AUTO 08002KT 9999 NCD M04/M16 Q1018,ESGR,2018-03-27T18:20:00Z,58.45,13.97,-4.0,-16.0,80,2,,6.21,30.059055,,,TRUE,,,,,,,,CLR,,,,,,,,VFR,,,,,,,,,,,,METAR,105.0
EGSH 271820Z 26005KT 6000 FEW007 SCT011 BKN046 09/08 Q1004 NOSIG,EGSH,2018-03-27T18:20:00Z,52.68,1.28,9.0,8.0,260,5,,3.73,29.64567,,,,,,TRUE,,,,,FEW,700,SCT,1100,BKN,4600,,,MVFR,,,,,,,,,,,,SPECI,36.0
EGCN 271820Z 29009KT 9999 SCT033 BKN041 09/05 Q1005,EGCN,2018-03-27T18:20:00Z,53.48,-1.0,9.0,5.0,290,9,,6.21,29.675198,,,,,,,,,,,SCT,3300,BKN,4100,,,,,VFR,,,,,,,,,,,,METAR,17.0
EGCK 271820Z AUTO 26009KT 9999 FEW039/// 08/04 Q1006,EGCK,2018-03-27T18:20:00Z,53.1,4.33,8.0,4.0,260,9,,6.21,29.704725,,,TRUE,,,,,,,,FEW,3900,,,,,,,VFR,,,,,,,,,,,,METAR,0.0
EGCC 271820Z 28009KT 240V310 9999 FEW022 08/03 Q1005 NOSIG,EGCC,2018-03-27T18:20:00Z,53.35,-2.27,8.0,3.0,280,9,,6.21,29.675198,,,,,,TRUE,,,,,FEW,2200,,,,,,,VFR,,,,,,,,,,,,METAR,78.0
EGSS 271820Z AUTO 29009KT 9999 BKN030 BKN042 09/07 Q1005,EGSS,2018-03-27T18:20:00Z,51.88,0.22,9.0,7.0,290,9,,6.21,29.675198,,,TRUE,,,,,,,,BKN,3000,BKN,4200,,,,,MVFR,,,,,,,,,,,,METAR,106.0
EGPK 271820Z 27013KT 9999 SCT037 06/03 Q1003,EGPK,2018-03-27T18:20:00Z,55.5,-4.57,6.0,3.0,270,13,,6.21,29.616142,,,,,,,,,,,SCT,3700,,,,,,,VFR,,,,,,,,,,,,METAR,20.0
EGPH 271820Z 25011KT 9999 -SHRA BKN016 OVC038 07/04 Q1001,EGPH,2018-03-27T18:20:00Z,55.95,-3.35,7.0,4.0,250,11,,6.21,29.557087,,,,,,,,,,-SHRA,BKN,1600,OVC,3800,,,,,MVFR,,,,,,,,,,,,METAR,41.0
EGLL 271820Z AUTO 29008KT 9999 OVC049 11/04 Q1006,EGLL,2018-03-27T18:20:00Z,51.48,-0.45,11.0,4.0,290,8,,6.21,29.704725,,,TRUE,,,,,,,,OVC,4900,,,,,,,VFR,,,,,,,,,,,,METAR,24.0
EGKK 271820Z 29013KT 9999 BKN029 12/06 Q1006,EGKK,2018-03-27T18:20:00Z,51.13,-0.17,12.0,6.0,290,13,,6.21,29.704725,,,,,,,,,,,BKN,2900,,,,,,,MVFR,,,,,,,,,,,,METAR,62.0
EGBB 271820Z 29007KT 9999 BKN030 09/03 Q1005,EGBB,2018-03-27T18:20:00Z,52.47,-1.75,9.0,3.0,290,7,,6.21,29.675198,,,,,,,,,,,BKN,3000,,,,,,,MVFR,,,,,,,,,,,,METAR,99.0
EGTK 271820Z 28010KT 9999 SCT027 09/03 Q1006,EGTK,2018-03-27T18:20:00Z,51.83,-1.32,9.0,3.0,280,10,,6.21,29.704725,,,,,,,,,,,SCT,2700,,,,,,,VFR,,,,,,,,,,,,METAR,82.0
EGMD 271820Z AUTO 25008KT 9999 FEW029/// 11/09 Q1005,EGMD,2018-03-27T18:20:00Z,50.95,0.92,11.0,9.0,250,8,,6.21,29.675198,,,TRUE,,,,,,,,FEW,2900,,,,,,,VFR,,,,,,,,,,,,METAR,3.0
EGMC 271820Z 30008KT 9999 FEW018 SCT039 11/08 Q1004,EGMC,2018-03-27T18:20:00Z,51.57,0.7,11.0,8.0,300,8,,6.21,29.64567,,,,,,,,,,,FEW,1800,SCT,3900,,,,,VFR,,,,,,,,,,,,METAR,15.0
EGKB 271820Z 29011KT 250V320 9999 SCT025 SCT040 11/05 Q1006,EGKB,2018-03-27T18:20:00Z,51.32,0.02,11.0,5.0,290,11,,6.21,29.704725,,,,,,,,,,,SCT,2500,SCT,4000,,,,,VFR,,,,,,,,,,,,METAR,183.0
EGKA 271820Z 28011KT 9999 SCT040 10/06 Q1007,EGKA,2018-03-27T18:20:00Z,50.83,-0.3,10.0,6.0,280,11,,6.21,29.734253,,,,,,,,,,,SCT,4000,,,,,,,VFR,,,,,,,,,,,,METAR,2.0
EGHH 271820Z 31012KT 9999 SCT035 10/03 Q1008,EGHH,2018-03-27T18:20:00Z,50.78,-1.83,10.0,3.0,310,12,,6.21,29.763779,,,,,,,,,,,SCT,3500,,,,,,,VFR,,,,,,,,,,,,METAR,11.0
EGPN 271820Z 26011KT 9999 FEW015 SCT028 08/06 Q0999,EGPN,2018-03-27T18:20:00Z,56.45,-3.02,8.0,6.0,260,11,,6.21,29.498032,,,,,,,,,,,FEW,1500,SCT,2800,,,,,VFR,,,,,,,,,,,,METAR,4.0
EGPE 271820Z 22015KT 9999 FEW020 SCT036 07/03 Q0997,EGPE,2018-03-27T18:20:00Z,57.52,-4.03,7.0,3.0,220,15,,6.21,29.438976,,,,,,,,,,,FEW,2000,SCT,3600,,,,,VFR,,,,,,,,,,,,METAR,9.0
EGNR 271820Z 29005KT 210V340 9999 VCSH SCT025 BKN049 08/04 Q1006,EGNR,2018-03-27T18:20:00Z,53.17,-2.97,8.0,4.0,290,5,,6.21,29.704725,,,,,,,,,,VCSH,SCT,2500,BKN,4900,,,,,VFR,,,,,,,,,,,,METAR,10.0
EGNJ 271820Z 26008KT 9999 SCT020 09/06 Q1003,EGNJ,2018-03-27T18:20:00Z,53.57,-0.35,9.0,6.0,260,8,,6.21,29.616142,,,,,,,,,,,SCT,2000,,,,,,,VFR,,,,,,,,,,,,METAR,31.0
EGAE 271820Z 26014KT 7000 FEW015 SCT035 06/03 Q1004,EGAE,2018-03-27T18:20:00Z,55.03,-7.15,6.0,3.0,260,14,,4.35,29.64567,,,,,,,,,,,FEW,1500,SCT,3500,,,,,MVFR,,,,,,,,,,,,METAR,9.0
EGPO 271820Z 23017KT 6000 -RADZ FEW006 SCT008 BKN018 06/05 Q0994,EGPO,2018-03-27T18:20:00Z,58.22,-6.32,6.0,5.0,230,17,,3.73,29.350393,,,,,,,,,,-RA -DZ,FEW,600,SCT,800,BKN,1800,,,MVFR,,,,,,,,,,,,METAR,13.0
EGPM 271820Z AUTO 13027G42KT 9999 OVC013/// 04/02 Q1005,EGPM,2018-03-27T18:20:00Z,60.42,-1.3,4.0,2.0,130,27,42,6.21,29.675198,,,TRUE,,,,,,,,OVC,1300,,,,,,,MVFR,,,,,,,,,,,,METAR,22.0
EGPL 271820Z AUTO 27023KT 9999 FEW012/// BKN017/// BKN023/// 06/04 Q0996,EGPL,2018-03-27T18:20:00Z,57.47,-7.37,6.0,4.0,270,23,,6.21,29.409449,,,TRUE,,,,,,,,FEW,1200,BKN,1700,BKN,2300,,,MVFR,,,,,,,,,,,,METAR,6.0
EGPC 271820Z 15027G37KT 8000 -RA SCT007 BKN010 05/04 Q0998,EGPC,2018-03-27T18:20:00Z,58.45,-3.07,5.0,4.0,150,27,37,4.97,29.468504,,,,,,,,,,-RA,SCT,700,BKN,1000,,,,,MVFR,,,,,,,,,,,,METAR,39.0
EGPA 271820Z 14026G39KT 8000 -RA SCT006 BKN012 05/03 Q0999,EGPA,2018-03-27T18:20:00Z,58.95,-2.88,5.0,3.0,140,26,39,4.97,29.498032,,,,,,,,,,-RA,SCT,600,BKN,1200,,,,,MVFR,,,,,,,,,,,,METAR,21.0
EGPD 271820Z 14007KT 4000 -RA BKN002 OVC003 05/05 Q0999 BECMG 6000 OVC005,EGPD,2018-03-27T18:20:00Z,57.2,-2.22,5.0,5.0,140,7,,2.49,29.498032,,,,,,,,,,-RA,BKN,200,OVC,300,,,,,LIFR,,,,,,,,,,,,SPECI,65.0
EGNV 271820Z 27013KT 9999 FEW025 09/04 Q1002,EGNV,2018-03-27T18:20:00Z,54.52,-1.42,9.0,4.0,270,13,,6.21,29.586615,,,,,,,,,,,FEW,2500,,,,,,,VFR,,,,,,,,,,,,METAR,37.0
EGNT 271820Z 26010KT 9999 FEW020 07/04 Q1001,EGNT,2018-03-27T18:20:00Z,55.02,-1.7,7.0,4.0,260,10,,6.21,29.557087,,,,,,,,,,,FEW,2000,,,,,,,VFR,,,,,,,,,,,,METAR,81.0
EGHI 271820Z 28009KT 250V320 9999 FEW032 09/03 Q1008,EGHI,2018-03-27T18:20:00Z,50.95,-1.35,9.0,3.0,280,9,,6.21,29.763779,,,,,,,,,,,FEW,3200,,,,,,,VFR,,,,,,,,,,,,METAR,14.0
EGGD 271820Z AUTO 26013KT 9999 BKN037 06/04 Q1008,EGGD,2018-03-27T18:20:00Z,51.37,-2.72,6.0,4.0,260,13,,6.21,29.763779,,,TRUE,,,,,,,,BKN,3700,,,,,,,VFR,,,,,,,,,,,,METAR,189.0
EGNX 271820Z 28011KT 9999 FEW030 08/04 Q1005,EGNX,2018-03-27T18:20:00Z,52.82,-1.32,8.0,4.0,280,11,,6.21,29.675198,,,,,,,,,,,FEW,3000,,,,,,,VFR,,,,,,,,,,,,METAR,94.0
EGNM 271820Z 26010KT 9999 -SHRA FEW009 SCT011 BKN020 06/04 Q1003,EGNM,2018-03-27T18:20:00Z,53.87,-1.63,6.0,4.0,260,10,,6.21,29.616142,,,,,,,,,,-SHRA,FEW,900,SCT,1100,BKN,2000,,,MVFR,,,,,,,,,,,,METAR,208.0
EGLC 271820Z AUTO 28014KT 9999 NCD 12/04 Q1005,EGLC,2018-03-27T18:20:00Z,51.5,0.05,12.0,4.0,280,14,,6.21,29.675198,,,TRUE,,,,,,,,CLR,,,,,,,,VFR,,,,,,,,,,,,METAR,5.0
EGGW 271820Z AUTO 31009KT 9999 FEW030 09/06 Q1005,EGGW,2018-03-27T18:20:00Z,51.87,-0.37,9.0,6.0,310,9,,6.21,29.675198,,,TRUE,,,,,,,,FEW,3000,,,,,,,VFR,,,,,,,,,,,,METAR,160.0
EGFF 271820Z AUTO 28011KT 9999 OVC048 07/06 Q1008,EGFF,2018-03-27T18:20:00Z,51.38,-3.35,7.0,6.0,280,11,,6.21,29.763779,,,TRUE,,,,,,,,OVC,4800,,,,,,,VFR,,,,,,,,,,,,METAR,67.0
EGAC 271820Z AUTO 26012KT 9999 OVC047/// 07/02 Q1004,EGAC,2018-03-27T18:20:00Z,54.62,-5.87,7.0,2.0,260,12,,6.21,29.64567,,,TRUE,,,,,,,,OVC,4700,,,,,,,VFR,,,,,,,,,,,,METAR,5.0
EGAA 271820Z 25012KT 9999 FEW035 SCT047 05/02 Q1004,EGAA,2018-03-27T18:20:00Z,54.63,-6.22,5.0,2.0,250,12,,6.21,29.64567,,,,,,,,,,,FEW,3500,SCT,4700,,,,,VFR,,,,,,,,,,,,METAR,81.0
EGTE 271820Z 28008KT 9999 FEW010 SCT045 09/04 Q1009,EGTE,2018-03-27T18:20:00Z,50.72,-3.42,9.0,4.0,280,8,,6.21,29.793306,,,,,,,,,,,FEW,1000,SCT,4500,,,,,VFR,,,,,,,,,,,,METAR,30.0
EGJJ 271820Z 27014KT 9999 SCT028 08/07 Q1012,EGJJ,2018-03-27T18:20:00Z,49.22,-2.2,8.0,7.0,270,14,,6.21,29.88189,,,,,,,,,,,SCT,2800,,,,,,,VFR,,,,,,,,,,,,METAR,84.0
EGJB 271820Z 27015KT 9999 FEW030 08/06 Q1011,EGJB,2018-03-27T18:20:00Z,49.42,-2.6,8.0,6.0,270,15,,6.21,29.852362,,,,,,,,,,,FEW,3000,,,,,,,VFR,,,,,,,,,,,,METAR,102.0
EGJA 271820Z 26014KT CAVOK 08/// Q1010,EGJA,2018-03-27T18:20:00Z,49.72,-2.2,,,260,14,,6.21,29.822834,,,,,,,,,,,CAVOK,,,,,,,,VFR,,,,,,,,,,,,SPECI,71.0
EGHQ 271820Z 28012KT 9999 FEW020 07/04 Q1011,EGHQ,2018-03-27T18:20:00Z,50.43,-5.0,7.0,4.0,280,12,,6.21,29.852362,,,,,,,,,,,FEW,2000,,,,,,,VFR,,,,,,,,,,,,METAR,119.0
LGKV 271820Z 05004KT 9999 -DZ SCT025 BKN080 13/10 Q1011,LGKV,2018-03-27T18:20:00Z,40.92,24.62,13.0,10.0,50,4,,6.21,29.852362,,,,,,,,,,-DZ,SCT,2500,BKN,8000,,,,,VFR,,,,,,,,,,,,METAR,5.0
LGIO 271820Z /////KT 9999 BKN030 08/07 Q1013,LGIO,2018-03-27T18:20:00Z,39.7,20.82,8.0,7.0,,,,6.21,29.911417,,,,,,,,,,,BKN,3000,,,,,,,MVFR,,,,,,,,,,,,METAR,476.0
LGEL 271820Z 34006KT 9999 FEW025 14/07 Q1011,LGEL,2018-03-27T18:20:00Z,38.07,23.55,14.0,7.0,340,6,,6.21,29.852362,,,,,,,,,,,FEW,2500,,,,,,,VFR,,,,,,,,,,,,METAR,31.0
LGAL 271820Z VRB03KT 9999 FEW025 13/10 Q1012,LGAL,2018-03-27T18:20:00Z,40.85,25.95,13.0,10.0,0,3,,6.21,29.88189,,,,,,,,,,,FEW,2500,,,,,,,VFR,,,,,,,,,,,,METAR,3.0
LGTS 271820Z VRB01KT 9999 FEW018TCU SCT025 13/07 Q1011 NOSIG,LGTS,2018-03-27T18:20:00Z,40.52,22.97,13.0,7.0,0,1,,6.21,29.852362,,,,,,TRUE,,,,,FEW,1800,SCT,2500,,,,,VFR,,,,,,,,,,,,METAR,7.0
LGSM 271820Z 24005KT 9000 FEW020 15/12 Q1013,LGSM,2018-03-27T18:20:00Z,37.68,26.92,15.0,12.0,240,5,,5.59,29.911417,,,,,,,,,,,FEW,2000,,,,,,,VFR,,,,,,,,,,,,METAR,6.0
LGSA 271820Z 00000KT 9999 FEW025 15/12 Q1012,LGSA,2018-03-27T18:20:00Z,35.53,24.13,15.0,12.0,0,0,,6.21,29.88189,,,,,,,,,,,FEW,2500,,,,,,,VFR,,,,,,,,,,,,METAR,135.0
LGLM 271820Z 00000KT 9999 FEW018 13/11 Q1011,LGLM,2018-03-27T18:20:00Z,39.92,25.23,13.0,11.0,0,0,,6.21,29.852362,,,,,,,,,,,FEW,1800,,,,,,,VFR,,,,,,,,,,,,METAR,5.0
LGKO 271820Z 00000KT 9999 FEW016 SCT020 15/11 Q1013,LGKO,2018-03-27T18:20:00Z,36.8,27.08,15.0,11.0,0,0,,6.21,29.911417,,,,,,,,,,,FEW,1600,SCT,2000,,,,,VFR,,,,,,,,,,,,METAR,125.0
LGKL 271820Z 00000KT 9999 SCT025 12/09 Q1012,LGKL,2018-03-27T18:20:00Z,37.07,22.02,12.0,9.0,0,0,,6.21,29.88189,,,,,,,,,,,SCT,2500,,,,,,,VFR,,,,,,,,,,,,METAR,8.0
LGAD 271820Z 00000KT 9999 FEW020 SCT080 12/10 Q1013,LGAD,2018-03-27T18:20:00Z,37.92,21.27,12.0,10.0,0,0,,6.21,29.911417,,,,,,,,,,,FEW,2000,SCT,8000,,,,,VFR,,,,,,,,,,,,METAR,12.0
LGSO 271820Z AUTO VRB03KT //// // ////// 15/11 Q1012 RE//,LGSO,2018-03-27T18:20:00Z,37.42,24.95,15.0,11.0,0,3,,,29.88189,,,TRUE,,,,,,,,,,,,,,,,,,,,,,,,,,,,SPECI,72.0
LGPA 271820Z AUTO 17004KT //// // ////// 15/11 Q1012 RE//,LGPA,2018-03-27T18:20:00Z,37.0,25.13,15.0,11.0,170,4,,,29.88189,,,TRUE,,,,,,,,,,,,,,,,,,,,,,,,,,,,SPECI,36.0
LGMK 271820Z 21004KT 9999 FEW015 15/12 Q1012,LGMK,2018-03-27T18:20:00Z,37.43,25.35,15.0,12.0,210,4,,6.21,29.88189,,,,,,,,,,,FEW,1500,,,,,,,VFR,,,,,,,,,,,,METAR,123.0
LGKP 271820Z AUTO 36005KT //// // ////// 16/12 Q1013 RE//,LGKP,2018-03-27T18:20:00Z,35.42,27.15,16.0,12.0,360,5,,,29.911417,,,TRUE,,,,,,,,,,,,,,,,,,,,,,,,,,,,SPECI,20.0
ENNA 271820Z 31015KT 9999 FEW025 SCT051 M04/M08 Q1010 RMK WIND 1800FT 31027KT,ENNA,2018-03-27T18:20:00Z,70.07,24.97,-4.0,-8.0,310,15,,6.21,29.822834,,,,,,,,,,,FEW,2500,SCT,5100,,,,,VFR,,,,,,,,,,,,SPECI,8.0
ENML 271820Z 02005KT 340V070 CAVOK 02/M11 Q1015,ENML,2018-03-27T18:20:00Z,62.75,7.27,2.0,-11.0,20,5,,6.21,29.970472,,,,,,,,,,,CAVOK,,,,,,,,VFR,,,,,,,,,,,,METAR,3.0
ENKR 271820Z 30009KT 9999 FEW021 SCT031 BKN049 M06/M09 Q1006 RMK WIND 731FT 29014KT,ENKR,2018-03-27T18:20:00Z,69.72,29.88,-6.0,-9.0,300,9,,6.21,29.704725,,,,,,,,,,,FEW,2100,SCT,3100,BKN,4900,,,VFR,,,,,,,,,,,,SPECI,91.0
ENKB 271820Z 10006KT 060V140 CAVOK 01/M14 Q1015 RMK WIND 745FT 11013KT,ENKB,2018-03-27T18:20:00Z,63.12,7.82,1.0,-14.0,100,6,,6.21,29.970472,,,,,,,,,,,CAVOK,,,,,,,,VFR,,-1.3,,,,,,,,,,SPECI,62.0
ENFL 271820Z 13009KT 9999 FEW040 02/M06 Q1014,ENFL,2018-03-27T18:20:00Z,61.57,5.02,2.0,-6.0,130,9,,6.21,29.940945,,,,,,,,,,,FEW,4000,,,,,,,VFR,,,,,,,,,,,,METAR,9.0
ENBL 271820Z 06006KT CAVOK M02/M12 Q1013,ENBL,2018-03-27T18:20:00Z,61.4,5.77,-2.0,-12.0,60,6,,6.21,29.911417,,,,,,,,,,,CAVOK,,,,,,,,VFR,,,,,,,,,,,,METAR,150.0
ENRA 271820Z 31003KT 9999 -SHSN SCT020 SCT035 M04/M06 Q1017,ENRA,2018-03-27T18:20:00Z,66.37,14.3,-4.0,-6.0,310,3,,6.21,30.029528,,,,,,,,,,-SHSN,SCT,2000,SCT,3500,,,,,VFR,,,,,,,,,,,,METAR,70.0
ENQC 271820Z AUTO 11015KT 9999NDV OVC048/// 04/M03 Q1013 W///S4,ENQC,2018-03-27T18:20:00Z,60.88,3.62,4.0,-3.0,110,15,,,29.911417,,,TRUE,,,,,,,,OVC,4800,,,,,,,,,,,,,,,,,,,METAR,20.0
ENSE 271820Z AUTO 15027KT 9999NDV -SHRA FEW014/// SCT027/// BKN040/// 03/01 Q1012 W///S5,ENSE,2018-03-27T18:20:00Z,61.45,2.15,3.0,1.0,150,27,,,29.88189,,,TRUE,,,,,,,-SHRA,FEW,1400,SCT,2700,BKN,4000,,,,,,,,,,,,,,,METAR,10.0
ENQR 271820Z AUTO 14024KT 9999NDV OVC015/// 03/00 Q1012 W///S5,ENQR,2018-03-27T18:20:00Z,61.35,2.22,3.0,0.0,140,24,,,29.88189,,,TRUE,,,,,,,,OVC,1500,,,,,,,,,,,,,,,,,,,METAR,10.0
ENNE 271820Z AUTO 05011KT 9999NDV FEW029/// 02/M03 Q1019 W///S4,ENNE,2018-03-27T18:20:00Z,66.03,8.08,2.0,-3.0,50,11,,,30.088583,,,TRUE,,,,,,,,FEW,2900,,,,,,,,,,,,,,,,,,,METAR,10.0
LGSR 271820Z 00000KT 9999 FEW025 14/09 Q1013,LGSR,2018-03-27T18:20:00Z,36.4,25.48,14.0,9.0,0,0,,6.21,29.911417,,,,,,,,,,,FEW,2500,,,,,,,VFR,,,,,,,,,,,,METAR,40.0
LGMT 271820Z 21010KT 130V240 9999 SCT020 15/10 Q1012,LGMT,2018-03-27T18:20:00Z,39.05,26.6,15.0,10.0,210,10,,6.21,29.88189,,,,,,,,,,,SCT,2000,,,,,,,VFR,,,,,,,,,,,,METAR,17.0
ENLK 271820Z 31013KT 9999 6000NE -SHSN FEW015 SCT020TCU SCT035CB 01/M03 Q1016,ENLK,2018-03-27T18:20:00Z,68.15,13.62,1.0,-3.0,310,13,,6.21,30.0,,,,,,,,,,-SHSN,FEW,1500,SCT,2000,SCT,3500,,,VFR,,,,,,,,,,,,SPECI,26.0
ENHK 271820Z 01006G16KT 330V050 9999 FEW020 BKN055 M01/M09 Q1012,ENHK,2018-03-27T18:20:00Z,70.47,22.13,-1.0,-9.0,10,6,16,6.21,29.88189,,,,,,,,,,,FEW,2000,BKN,5500,,,,,VFR,,,,,,,,,,,,METAR,10.0
ENST 271820Z 16002KT 9999 VCSH FEW015TCU SCT025 M00/M03 Q1018 RMK WIND 300FT 18005KT,ENST,2018-03-27T18:20:00Z,65.97,12.47,0.0,-3.0,160,2,,6.21,30.059055,,,,,,,,,,VCSH,FEW,1500,SCT,2500,,,,,VFR,,,,,,,,,,,,SPECI,17.0
ENMS 271820Z 21004KT 9999 SCT035 M02/M05 Q1018 RMK WIND 412FT VRB05KT,ENMS,2018-03-27T18:20:00Z,65.78,13.22,-2.0,-5.0,210,4,,6.21,30.059055,,,,,,,,,,,SCT,3500,,,,,,,VFR,,,,,,,,,,,,SPECI,70.0
ENWV 271820Z AUTO 11032KT 3400NDV BR OVC005/// 03/02 Q1007 W///S4,ENWV,2018-03-27T18:20:00Z,,,3.0,2.0,110,32,,,29.734253,,,TRUE,,,,,,,BR,OVC,500,,,,,,,,,,,,,,,,,,,METAR,
ENUG 271820Z AUTO 01017KT 9999NDV FEW029/// OVC060/// M01/M09 Q1010 W///S4,ENUG,2018-03-27T18:20:00Z,,,-1.0,-9.0,10,17,,,29.822834,,,TRUE,,,,,,,,FEW,2900,OVC,6000,,,,,,,,,,,,,,,,,METAR,
ENLA 271820Z AUTO 12039KT 9999NDV OVC010/// 03/01 Q1006 W///S5,ENLA,2018-03-27T18:20:00Z,57.1,2.83,3.0,1.0,120,39,,,29.704725,,,TRUE,,,,,,,,OVC,1000,,,,,,,,,,,,,,,,,,,METAR,4.0
ENHM 271820Z AUTO 14038KT 9999NDV OVC027/// 04/M01 Q1009 W06/S5,ENHM,2018-03-27T18:20:00Z,59.57,2.23,4.0,-1.0,140,38,,,29.793306,,,TRUE,,,,,,,,OVC,2700,,,,,,,,,,,,,,,,,,,METAR,10.0
ENQA 271820Z AUTO 15017KT 9999NDV OVC049/// 03/M03 Q1013 W03/S4,ENQA,2018-03-27T18:20:00Z,60.65,3.72,3.0,-3.0,150,17,,,29.911417,,,TRUE,,,,,,,,OVC,4900,,,,,,,,,,,,,,,,,,,METAR,20.0
ENNM 271820Z 07003KT CAVOK M02/M06 Q1019,ENNM,2018-03-27T18:20:00Z,64.47,11.57,-2.0,-6.0,70,3,,6.21,30.088583,,,,,,,,,,,CAVOK,,,,,,,,VFR,,,,,,,,,,,,METAR,2.0
EDLW 271820Z 19010KT 160V220 9999 -RA SCT021 BKN039 BKN070 07/03 Q1007,EDLW,2018-03-27T18:20:00Z,51.52,7.62,7.0,3.0,190,10,,6.21,29.734253,,,,,,,,,,-RA,SCT,2100,BKN,3900,BKN,7000,,,VFR,,,,,,,,,,,,METAR,127.0
EDGS 271820Z 17011G22KT 4000 RA BR SCT007 BKN011 03/03 Q1007,EDGS,2018-03-27T18:20:00Z,50.7,8.08,3.0,3.0,170,11,22,2.49,29.734253,,,,,,,,,,RA BR,SCT,700,BKN,1100,,,,,IFR,,,,,,,,,,,,METAR,602.0
ENAL 271820Z 12007KT CAVOK 02/M08 Q1015,ENAL,2018-03-27T18:20:00Z,62.57,6.12,2.0,-8.0,120,7,,6.21,29.970472,,,,,,,,,,,CAVOK,,,,,,,,VFR,,,,,,,,,,,,METAR,22.0
ENSD 271820Z 14005KT CAVOK 02/M10 Q1015 RMK WIND 1138FT 06007KT,ENSD,2018-03-27T18:20:00Z,61.82,6.12,2.0,-10.0,140,5,,6.21,29.970472,,,,,,,,,,,CAVOK,,,,,,,,VFR,,,,,,,,,,,,SPECI,60.0
ENSF 271820Z AUTO 14028KT 9999NDV BKN019/// 05/M01 Q1012 W///S5,ENSF,2018-03-27T18:20:00Z,61.25,1.85,5.0,-1.0,140,28,,,29.88189,,,TRUE,,,,,,,,BKN,1900,,,,,,,,,,,,,,,,,,,METAR,10.0
ENFB 271820Z AUTO 13028KT //// BKN020/// 04/00 Q1012 W///S5,ENFB,2018-03-27T18:20:00Z,61.2,1.83,4.0,0.0,130,28,,,29.88189,,,TRUE,,,,,,,,BKN,2000,,,,,,,,,,,,,,,,,,,SPECI,10.0
ENSL 271820Z AUTO 12046KT 9999NDV OVC012/// 03/01 Q1007 W03/S6,ENSL,2018-03-27T18:20:00Z,58.37,1.9,3.0,1.0,120,46,,,29.734253,,,TRUE,,,,,,,,OVC,1200,,,,,,,,,,,,,,,,,,,METAR,50.0
ENHE 271820Z 08007KT 9999 BKN034 02/M05 Q1019 W///S4,ENHE,2018-03-27T18:20:00Z,65.33,2.33,2.0,-5.0,80,7,,6.21,30.088583,,,,,,,,,,,BKN,3400,,,,,,,VFR,,,,,,,,,,,,SPECI,1.0
ENLE 271820Z 10032KT 9000 FEW006 BKN008 03/02 Q1007 W///S4,ENLE,2018-03-27T18:20:00Z,56.53,3.22,3.0,2.0,100,32,,5.59,29.734253,,,,,,,,,,,FEW,600,BKN,800,,,,,IFR,,,,,,,,,,,,METAR,3.0
ENZV 271820Z 10013KT CAVOK 02/M12 Q1013 NOSIG,ENZV,2018-03-27T18:20:00Z,58.87,5.62,2.0,-12.0,100,13,,6.21,29.911417,,,,,,TRUE,,,,,CAVOK,,,,,,,,VFR,,,,,,,,,,,,METAR,9.0
ENVA 271820Z 09006KT CAVOK M01/M12 Q1019 NOSIG RMK WIND 670FT 13010KT,ENVA,2018-03-27T18:20:00Z,63.47,10.92,-1.0,-12.0,90,6,,6.21,30.088583,,,,,,TRUE,,,,,CAVOK,,,,,,,,VFR,,,,,,,,,,,,SPECI,17.0
ENOL 271820Z 07007KT CAVOK M01/M08 Q1018 NOSIG,ENOL,2018-03-27T18:20:00Z,63.7,9.58,-1.0,-8.0,70,7,,6.21,30.059055,,,,,,TRUE,,,,,CAVOK,,,,,,,,VFR,,,,,,,,,,,,METAR,7.0
ENGM 271820Z VRB02KT CAVOK M03/M15 Q1018 NOSIG,ENGM,2018-03-27T18:20:00Z,60.2,11.1,-3.0,-15.0,0,2,,6.21,30.059055,,,,,,TRUE,,,,,CAVOK,,,,,,,,VFR,,,,,,,,,,,,METAR,204.0
ENBO 271820Z 32004KT 280V350 9999 FEW008 FEW20TCU SCT045 M01/M03 Q1016 TEMPO 1000 SHSN VV007,ENBO,2018-03-27T18:20:00Z,67.27,14.37,-1.0,-3.0,320,4,,6.21,30.0,,,,,,,,,,,FEW,800,SCT,4500,,,,,VFR,,,,,,,,,,,,SPECI,13.0
ENBR 271820Z 13003KT 9999 FEW050 01/M04 Q1013 NOSIG RMK WIND 1200FT 12012KT,ENBR,2018-03-27T18:20:00Z,60.28,5.22,1.0,-4.0,130,3,,6.21,29.911417,,,,,,TRUE,,,,,FEW,5000,,,,,,,VFR,,,,,,,,,,,,SPECI,50.0
ENAN 271820Z 36015KT 9999 VCSH FEW022 BKN033 00/M03 Q1014,ENAN,2018-03-27T18:20:00Z,69.28,16.13,0.0,-3.0,360,15,,6.21,29.940945,,,,,,,,,,VCSH,FEW,2200,BKN,3300,,,,,VFR,,,,,,,,,,,,METAR,14.0
EDVK 271820Z 19010KT 9999 BKN035 06/03 Q1008,EDVK,2018-03-27T18:20:00Z,51.38,9.37,6.0,3.0,190,10,,6.21,29.763779,,,,,,,,,,,BKN,3500,,,,,,,VFR,,,,,,,,,,,,METAR,285.0
EDLV 271820Z 14005KT 9000 -RA FEW013 BKN031 07/07 Q1006,EDLV,2018-03-27T18:20:00Z,51.6,6.15,7.0,7.0,140,5,,5.59,29.704725,,,,,,,,,,-RA,FEW,1300,BKN,3100,,,,,VFR,,,,,,,,,,,,METAR,32.0
EDFM 271820Z 20006KT 160V230 9999 -RA FEW019 BKN050 09/03 Q1010,EDFM,2018-03-27T18:20:00Z,49.47,8.52,9.0,3.0,200,6,,6.21,29.822834,,,,,,,,,,-RA,FEW,1900,BKN,5000,,,,,VFR,,,,,,,,,,,,METAR,100.0
EDFH 271820Z 19014KT 8000 -RA SCT010 04/03 Q1007,EDFH,2018-03-27T18:20:00Z,49.95,7.27,4.0,3.0,190,14,,4.97,29.734253,,,,,,,,,,-RA,SCT,1000,,,,,,,MVFR,,,,,,,,,,,,METAR,498.0
EDLP 271820Z 18005KT 8000 -RA OVC030 07/03 Q1008,EDLP,2018-03-27T18:20:00Z,51.62,8.62,7.0,3.0,180,5,,4.97,29.763779,,,,,,,,,,-RA,OVC,3000,,,,,,,MVFR,,,,,,,,,,,,METAR,213.0
EDSB 271820Z 20013KT 7000 RA SCT034 BKN041 OVC053 08/04 Q1010,EDSB,2018-03-27T18:20:00Z,48.78,8.08,8.0,4.0,200,13,,4.35,29.822834,,,,,,,,,,RA,SCT,3400,BKN,4100,OVC,5300,,,MVFR,,,,,,,,,,,,METAR,124.0
EDNY 271820Z 24009KT 9999 -RA SCT053 OVC061 08/00 Q1011,EDNY,2018-03-27T18:20:00Z,47.67,9.52,8.0,0.0,240,9,,6.21,29.852362,,,,,,,,,,-RA,SCT,5300,OVC,6100,,,,,VFR,,,,,,,,,,,,METAR,424.0
EDMA 271820Z 12006KT CAVOK 05/M00 Q1010,EDMA,2018-03-27T18:20:00Z,48.42,10.92,5.0,0.0,120,6,,6.21,29.822834,,,,,,,,,,,CAVOK,,,,,,,,VFR,,,,,,,,,,,,METAR,463.0
EGPB 271820Z 14029KT 8000 -RA SCT012 BKN021 04/02 Q1004,EGPB,2018-03-27T18:20:00Z,59.87,-1.3,4.0,2.0,140,29,,4.97,29.64567,,,,,,,,,,-RA,SCT,1200,BKN,2100,,,,,MVFR,,,,,,,,,,,,METAR,5.0
EGNS 271820Z 28010KT 250V320 9999 FEW030 08/02 Q1004 NOSIG,EGNS,2018-03-27T18:20:00Z,54.08,-4.63,8.0,2.0,280,10,,6.21,29.64567,,,,,,TRUE,,,,,FEW,3000,,,,,,,VFR,,,,,,,,,,,,METAR,17.0
EDVE 271820Z 11007KT CAVOK 07/M00 Q1010,EDVE,2018-03-27T18:20:00Z,52.32,10.55,7.0,0.0,110,7,,6.21,29.822834,,,,,,,,,,,CAVOK,,,,,,,,VFR,,,,,,,,,,,,METAR,88.0
EDJA 271820Z 23009KT 9999 SCT034 SCT065 BKN092 06/M01 Q1010,EDJA,2018-03-27T18:20:00Z,47.98,10.23,6.0,-1.0,230,9,,6.21,29.822834,,,,,,,,,,,SCT,3400,SCT,6500,BKN,9200,,,VFR,,,,,,,,,,,,METAR,633.0
EDHI 271820Z AUTO 10004KT 060V150 9999 // OVC150/// 07/M02 Q1010,EDHI,2018-03-27T18:20:00Z,53.53,9.83,7.0,-2.0,100,4,,6.21,29.822834,,,TRUE,,,,,,,,OVC,15000,,,,,,,VFR,,,,,,,,,,,,METAR,13.0
ENTO 271820Z 01003KT CAVOK M02/M14 Q1018,ENTO,2018-03-27T18:20:00Z,59.2,10.27,-2.0,-14.0,10,3,,6.21,30.059055,,,,,,,,,,,CAVOK,,,,,,,,VFR,,,,,,,,,,,,METAR,88.0
ENTC 271820Z VRB03KT 9999 VCSH FEW020 BKN027 M02/M04 Q1013 NOSIG RMK WIND 2600FT 33013KT,ENTC,2018-03-27T18:20:00Z,69.68,18.92,-2.0,-4.0,0,3,,6.21,29.911417,,,,,,TRUE,,,,VCSH,FEW,2000,BKN,2700,,,,,MVFR,,,,,,,,,,,,SPECI,10.0
ENRY 271820Z 10004KT 070V130 CAVOK M01/M16 Q1018,ENRY,2018-03-27T18:20:00Z,59.37,10.77,-1.0,-16.0,100,4,,6.21,30.059055,,,,,,,,,,,CAVOK,,,,,,,,VFR,,,,,,,,,,,,METAR,53.0
ENRO 271820Z 34004KT 310V020 CAVOK M11/M20 Q1015,ENRO,2018-03-27T18:20:00Z,62.57,11.33,-11.0,-20.0,340,4,,6.21,29.970472,,,,,,,,,,,CAVOK,,,,,,,,VFR,,,,,,,,,,,,METAR,626.0
ENHD 271820Z 11010KT CAVOK 02/M08 Q1013,ENHD,2018-03-27T18:20:00Z,59.35,5.22,2.0,-8.0,110,10,,6.21,29.911417,,,,,,,,,,,CAVOK,,,,,,,,VFR,,,,,,,,,,,,METAR,24.0
ENCN 271820Z 06010KT CAVOK M01/M09 Q1017,ENCN,2018-03-27T18:20:00Z,58.2,8.07,-1.0,-9.0,60,10,,6.21,30.029528,,,,,,,,,,,CAVOK,,,,,,,,VFR,,,,,,,,,,,,METAR,17.0
EBBR 271820Z 23006KT 9999 -RA SCT005 BKN006 08/07 Q1005 REDZ NOSIG,EBBR,2018-03-27T18:20:00Z,50.9,4.5,8.0,7.0,230,6,,6.21,29.675198,,,,,,TRUE,,,,-RA,SCT,500,BKN,600,,,,,IFR,,,,,,,,,,,,METAR,58.0
ELLX 271820Z 20011KT 170V230 3500 -DZ BR SCT003 BKN005 05/05 Q1007 NOSIG,ELLX,2018-03-27T18:20:00Z,49.63,6.2,5.0,5.0,200,11,,2.17,29.734253,,,,,,TRUE,,,,-DZ BR,SCT,300,BKN,500,,,,,IFR,,,,,,,,,,,,METAR,379.0
EBOS 271820Z 27011KT 7000 BKN013 07/06 Q1005 NOSIG,EBOS,2018-03-27T18:20:00Z,51.2,2.87,7.0,6.0,270,11,,4.35,29.675198,,,,,,TRUE,,,,,BKN,1300,,,,,,,MVFR,,,,,,,,,,,,METAR,5.0
EBLG 271820Z 19010KT 3400 -RA SCT003 BKN005 06/05 Q1005 TEMPO 3000 RADZ BKN005,EBLG,2018-03-27T18:20:00Z,50.63,5.45,6.0,5.0,190,10,,2.11,29.675198,,,,,,,,,,-RA,SCT,300,BKN,500,,,,,IFR,,,,,,,,,,,,METAR,178.0
EBCI 271820Z 21012KT 2800 -DZ BR BKN004 BKN005 07/07 Q1005 TEMPO 4000 -RADZ SCT004 BKN006,EBCI,2018-03-27T18:20:00Z,50.47,4.45,7.0,7.0,210,12,,1.74,29.675198,,,,,,,,,,-DZ BR,BKN,400,BKN,500,,,,,LIFR,,,,,,,,,,,,METAR,192.0
EBAW 271820Z 20006KT 8000 SCT004 BKN005 08/07 Q1004 TEMPO 2000 RADZ SCT003 BKN004,EBAW,2018-03-27T18:20:00Z,51.2,4.47,8.0,7.0,200,6,,4.97,29.64567,,,,,,,,,,,SCT,400,BKN,500,,,,,IFR,,,,,,,,,,,,METAR,14.0
EGLF 271820Z 28008KT 250V320 9999 SCT025 10/06 Q1007,EGLF,2018-03-27T18:20:00Z,51.28,-0.77,10.0,6.0,280,8,,6.21,29.734253,,,,,,,,,,,SCT,2500,,,,,,,VFR,,,,,,,,,,,,METAR,65.0
KQFW 271820Z AUTO 23001KT 1600 // CLR 08/07 A3004 RMK A02 TSNO,KQFW,2018-03-27T18:20:00Z,,,8.0,7.0,230,1,,0.99,30.041338,,,TRUE,TRUE,,,TRUE,,,,CLR,,,,,,,,LIFR,,,,,,,,,,,,METAR,
KQFV 271820Z AUTO 14001KT 1200 // CLR 07/05 A3003 RMK A02 TSNO,KQFV,2018-03-27T18:20:00Z,,,7.0,5.0,140,1,,0.75,30.029528,,,TRUE,TRUE,,,TRUE,,,,CLR,,,,,,,,LIFR,,,,,,,,,,,,METAR,
KQFT 271820Z AUTO 18002KT 1600 BR CLR 07/06 A3002 RMK A02 TSNO,KQFT,2018-03-27T18:20:00Z,,,7.0,6.0,180,2,,0.99,30.02067,,,TRUE,TRUE,,,TRUE,,,BR,CLR,,,,,,,,LIFR,,,,,,,,,,,,METAR,
KQFB 271820Z AUTO 29001KT 6000 HZ CLR 07/05 A3009 RMK A02 TSNO,KQFB,2018-03-27T18:20:00Z,,,7.0,5.0,290,1,,3.73,30.088583,,,TRUE,TRUE,,,TRUE,,,HZ,CLR,,,,,,,,MVFR,,,,,,,,,,,,METAR,
KQEY 271820Z AUTO 05001KT 8000 HZ CLR 07/04 A2976 RMK A02 TSNO,KQEY,2018-03-27T18:20:00Z,,,7.0,4.0,50,1,,4.97,29.760826,,,TRUE,TRUE,,,TRUE,,,HZ,CLR,,,,,,,,MVFR,,,,,,,,,,,,METAR,
KQEW 271820Z AUTO 24003KT 8000 HZ CLR 12/07 A3002 RMK A02 TSNO,KQEW,2018-03-27T18:20:00Z,,,12.0,7.0,240,3,,4.97,30.02067,,,TRUE,TRUE,,,TRUE,,,HZ,CLR,,,,,,,,MVFR,,,,,,,,,,,,METAR,
KQES 271820Z AUTO 17007KT 6000 CLR 09/07 A3005 RMK A02 TSNO,KQES,2018-03-27T18:20:00Z,,,9.0,7.0,170,7,,3.73,30.050198,,,TRUE,TRUE,,,TRUE,,,,CLR,,,,,,,,MVFR,,,,,,,,,,,,METAR,
KQEN 271820Z AUTO 25017G29KT 4000 HZ FEW014 08/06 A2992 RMK A02 TSNO,KQEN,2018-03-27T18:20:00Z,,,8.0,6.0,250,17,29,2.49,29.920275,,,TRUE,TRUE,,,TRUE,,,HZ,FEW,1400,,,,,,,IFR,,,,,,,,,,,,METAR,
EFIV 271820Z AUTO 32002KT 9999 -SN FEW020 SCT095 M06/M08 Q1008,EFIV,2018-03-27T18:20:00Z,68.62,27.42,-6.0,-8.0,320,2,,6.21,29.763779,,,TRUE,,,,,,,-SN,FEW,2000,SCT,9500,,,,,VFR,,,,,,,,,,,,METAR,148.0
EFRO 271820Z AUTO 32005KT CAVOK M05/M08 Q1008,EFRO,2018-03-27T18:20:00Z,66.57,25.82,-5.0,-8.0,320,5,,6.21,29.763779,,,TRUE,,,,,,,,CAVOK,,,,,,,,VFR,,,,,,,,,,,,METAR,201.0
EFOU 271820Z AUTO 27005KT 9999 SCT049/// BKN070/// BKN091/// M06/M08 Q1011,EFOU,2018-03-27T18:20:00Z,64.92,25.37,-6.0,-8.0,270,5,,6.21,29.852362,,,TRUE,,,,,,,,SCT,4900,BKN,7000,BKN,9100,,,VFR,,,,,,,,,,,,METAR,15.0
EFVA 271820Z AUTO 25003KT 9999 BKN077/// M05/M09 Q1015,EFVA,2018-03-27T18:20:00Z,63.03,21.77,-5.0,-9.0,250,3,,6.21,29.970472,,,TRUE,,,,,,,,BKN,7700,,,,,,,VFR,,,,,,,,,,,,METAR,4.0
EFTU 271820Z AUTO 31005KT CAVOK M05/M12 Q1016,EFTU,2018-03-27T18:20:00Z,60.52,22.27,-5.0,-12.0,310,5,,6.21,30.0,,,TRUE,,,,,,,,CAVOK,,,,,,,,VFR,,,,,,,,,,,,METAR,59.0
EFTP 271820Z AUTO 30003KT CAVOK M07/M16 Q1015,EFTP,2018-03-27T18:20:00Z,61.42,23.62,-7.0,-16.0,300,3,,6.21,29.970472,,,TRUE,,,,,,,,CAVOK,,,,,,,,VFR,,,,,,,,,,,,METAR,112.0
EFHK 271820Z 29005KT CAVOK M04/M11 Q1015 NOSIG,EFHK,2018-03-27T18:20:00Z,60.32,24.97,-4.0,-11.0,290,5,,6.21,29.970472,,,,,,TRUE,,,,,CAVOK,,,,,,,,VFR,,,,,,,,,,,,METAR,56.0
ESNL 271820Z 29007KT 9999 FEW039 BKN049 M02/M10 Q1014,ESNL,2018-03-27T18:20:00Z,64.55,18.72,-2.0,-10.0,290,7,,6.21,29.940945,,,,,,,,,,,FEW,3900,BKN,4900,,,,,VFR,,,,,,,,,,,,METAR,214.0
EYVI 271820Z 01007KT CAVOK M02/M13 Q1013 R01/0///95 NOSIG,EYVI,2018-03-27T18:20:00Z,54.63,25.28,-2.0,-13.0,10,7,,6.21,29.911417,,,,,,TRUE,,,,,CAVOK,,,,,,,,VFR,,,,,,,,,,,,SPECI,197.0
ENHF 271820Z 34008KT 280V040 9999 VCSH FEW015 SCT036 BKN051 M03/M08 Q1009 RESN RMK WIND 1254FT 33023KT,ENHF,2018-03-27T18:20:00Z,70.67,23.67,-3.0,-8.0,340,8,,6.21,29.793306,,,,,,,,,,VCSH,FEW,1500,SCT,3600,BKN,5100,,,VFR,,,,,,,,,,,,SPECI,81.0
LSGG 271820Z 25009KT 9000 FEW015 BKN030 OVC045 06/05 Q1014 NOSIG,LSGG,2018-03-27T18:20:00Z,46.25,6.12,6.0,5.0,250,9,,5.59,29.940945,,,,,,TRUE,,,,,FEW,1500,BKN,3000,OVC,4500,,,MVFR,,,,,,,,,,,,METAR,416.0
LSZH 271820Z 23008KT 8000 RA FEW015 SCT024 BKN040 05/03 Q1012 NOSIG,LSZH,2018-03-27T18:20:00Z,47.48,8.53,5.0,3.0,230,8,,4.97,29.88189,,,,,,TRUE,,,,RA,FEW,1500,SCT,2400,BKN,4000,,,MVFR,,,,,,,,,,,,METAR,432.0
LLBG 271820Z 32004KT CAVOK 20/14 Q1012 NOSIG,LLBG,2018-03-27T18:20:00Z,32.0,34.88,20.0,14.0,320,4,,6.21,29.88189,,,,,,TRUE,,,,,CAVOK,,,,,,,,VFR,,,,,,,,,,,,METAR,49.0
LSZA 271820Z 31003KT 210V360 9999 OVC070 14/M02 Q1010 NOSIG,LSZA,2018-03-27T18:20:00Z,46.0,8.92,14.0,-2.0,310,3,,6.21,29.822834,,,,,,TRUE,,,,,OVC,7000,,,,,,,VFR,,,,,,,,,,,,METAR,276.0
LSZB 271820Z VRB02KT 7000 -DZ BKN015 05/03 Q1012 NOSIG,LSZB,2018-03-27T18:20:00Z,46.92,7.5,5.0,3.0,0,2,,4.35,29.88189,,,,,,TRUE,,,,-DZ,BKN,1500,,,,,,,MVFR,,,,,,,,,,,,METAR,505.0
LIRA 271820Z 18004KT CAVOK 11/06 Q1014,LIRA,2018-03-27T18:20:00Z,41.8,12.58,11.0,6.0,180,4,,6.21,29.940945,,,,,,,,,,,CAVOK,,,,,,,,VFR,,,,,,,,,,,,METAR,101.0
LIMJ 271820Z 13007KT 9999 FEW018 SCT025 13/10 Q1012,LIMJ,2018-03-27T18:20:00Z,44.42,8.83,13.0,10.0,130,7,,6.21,29.88189,,,,,,,,,,,FEW,1800,SCT,2500,,,,,VFR,,,,,,,,,,,,METAR,3.0
LIMF 271820Z 05007KT 9999 SCT080 13/01 Q1010,LIMF,2018-03-27T18:20:00Z,45.22,7.65,13.0,1.0,50,7,,6.21,29.822834,,,,,,,,,,,SCT,8000,,,,,,,VFR,,,,,,,,,,,,METAR,287.0
LIME 271820Z 14006KT 080V150 9999 SCT110 13/00 Q1010 NOSIG,LIME,2018-03-27T18:20:00Z,45.67,9.68,13.0,0.0,140,6,,6.21,29.822834,,,,,,TRUE,,,,,SCT,11000,,,,,,,VFR,,,,,,,,,,,,METAR,237.0
LIEE 271820Z 34009KT 9999 FEW040 11/05 Q1018,LIEE,2018-03-27T18:20:00Z,39.25,9.07,11.0,5.0,340,9,,6.21,30.059055,,,,,,,,,,,FEW,4000,,,,,,,VFR,,,,,,,,,,,,METAR,4.0
LIEA 271820Z 30012KT 270V330 9999 BKN035 13/08 Q1017,LIEA,2018-03-27T18:20:00Z,40.62,8.27,13.0,8.0,300,12,,6.21,30.029528,,,,,,,,,,,BKN,3500,,,,,,,VFR,,,,,,,,,,,,METAR,23.0
LIPX 271820Z 09004KT 7000 NSC 12/02 Q1011,LIPX,2018-03-27T18:20:00Z,45.38,10.87,12.0,2.0,90,4,,4.35,29.852362,,,,,,,,,,,CLR,,,,,,,,MVFR,,,,,,,,,,,,METAR,68.0
LIPQ 271820Z 10004KT 9000 FEW060 BKN080 08/04 Q1013,LIPQ,2018-03-27T18:20:00Z,45.82,13.47,8.0,4.0,100,4,,5.59,29.911417,,,,,,,,,,,FEW,6000,BKN,8000,,,,,VFR,,,,,,,,,,,,METAR,12.0
LICJ 271820Z 30006KT 9999 BKN025 14/08 Q1015,LICJ,2018-03-27T18:20:00Z,38.17,13.08,14.0,8.0,300,6,,6.21,29.970472,,,,,,,,,,,BKN,2500,,,,,,,MVFR,,,,,,,,,,,,METAR,34.0
LIBR 271820Z 25005KT 9999 FEW040 11/07 Q1014,LIBR,2018-03-27T18:20:00Z,40.65,17.95,11.0,7.0,250,5,,6.21,29.940945,,,,,,,,,,,FEW,4000,,,,,,,VFR,,,,,,,,,,,,METAR,10.0
LIBD 271820Z VRB02KT CAVOK 09/06 Q1014,LIBD,2018-03-27T18:20:00Z,41.12,16.77,9.0,6.0,0,2,,6.21,29.940945,,,,,,,,,,,CAVOK,,,,,,,,VFR,,,,,,,,,,,,METAR,44.0
LIMW 271820Z AUTO 24004KT 200V270 9999 -RA OVC029/// 07/04 Q1014,LIMW,2018-03-27T18:20:00Z,45.73,7.37,7.0,4.0,240,4,,6.21,29.940945,,,TRUE,,,,,,,-RA,OVC,2900,,,,,,,MVFR,,,,,,,,,,,,METAR,546.0
LOWK 271820Z AUTO 10003KT 060V150 9999 -SHRA FEW024 SCT028 BKN070 05/02 Q1013 NOSIG,LOWK,2018-03-27T18:20:00Z,46.65,14.32,5.0,2.0,100,3,,6.21,29.911417,,,TRUE,,,TRUE,,,,-SHRA,FEW,2400,SCT,2800,BKN,7000,,,VFR,,,,,,,,,,,,METAR,441.0
LOWG 271820Z 20003KT 170V240 9999 FEW018 SCT025 BKN060 05/03 Q1014 NOSIG,LOWG,2018-03-27T18:20:00Z,47.0,15.42,5.0,3.0,200,3,,6.21,29.940945,,,,,,TRUE,,,,,FEW,1800,SCT,2500,BKN,6000,,,VFR,,,,,,,,,,,,METAR,347.0
LOWI 271820Z 05007KT 9999 FEW060 SCT160 BKN300 06/M01 Q1011 NOSIG,LOWI,2018-03-27T18:20:00Z,47.27,11.33,6.0,-1.0,50,7,,6.21,29.852362,,,,,,TRUE,,,,,FEW,6000,SCT,16000,BKN,30000,,,VFR,,,,,,,,,,,,METAR,581.0
LOWS 271820Z 13005KT 100V160 CAVOK 04/M00 Q1012 NOSIG,LOWS,2018-03-27T18:20:00Z,47.78,13.02,4.0,0.0,130,5,,6.21,29.88189,,,,,,TRUE,,,,,CAVOK,,,,,,,,VFR,,,,,,,,,,,,METAR,430.0
LOWL 271820Z AUTO 09004KT 9999 FEW038 BKN060 04/01 Q1013 NOSIG,LOWL,2018-03-27T18:20:00Z,48.22,14.18,4.0,1.0,90,4,,6.21,29.911417,,,TRUE,,,TRUE,,,,,FEW,3800,BKN,6000,,,,,VFR,,,,,,,,,,,,METAR,313.0
LOWW 271820Z 23007KT 9999 FEW034 BKN060 05/02 Q1013 NOSIG,LOWW,2018-03-27T18:20:00Z,48.12,16.57,5.0,2.0,230,7,,6.21,29.911417,,,,,,TRUE,,,,,FEW,3400,BKN,6000,,,,,VFR,,,,,,,,,,,,METAR,190.0
LGIR 271820Z 18003KT 7000 FEW090 15/12 Q1013,LGIR,2018-03-27T18:20:00Z,35.32,25.17,15.0,12.0,180,3,,4.35,29.911417,,,,,,,,,,,FEW,9000,,,,,,,MVFR,,,,,,,,,,,,METAR,39.0
LGRP 271820Z VRB02KT 4000 DU SCT016 16/14 Q1013 NOSIG,LGRP,2018-03-27T18:20:00Z,36.4,28.08,16.0,14.0,0,2,,2.49,29.911417,,,,,,TRUE,,,,DU,SCT,1600,,,,,,,IFR,,,,,,,,,,,,METAR,5.0
LGKR 271820Z 29004KT 9999 FEW025 12/08 Q1012 NOSIG,LGKR,2018-03-27T18:20:00Z,39.62,19.92,12.0,8.0,290,4,,6.21,29.88189,,,,,,TRUE,,,,,FEW,2500,,,,,,,VFR,,,,,,,,,,,,METAR,2.0
LGAV 271820Z VRB03KT CAVOK 14/06 Q1012 NOSIG,LGAV,2018-03-27T18:20:00Z,37.93,23.95,14.0,6.0,0,3,,6.21,29.88189,,,,,,TRUE,,,,,CAVOK,,,,,,,,VFR,,,,,,,,,,,,METAR,94.0
KTCL 271820Z VRB03KT 10SM BKN026 BKN047 17/11 A3028 RMK AO2 T01720106,KTCL,2018-03-27T18:20:00Z,33.22,-87.62,17.2,10.6,0,3,,10.0,30.280512,,,,TRUE,,,,,,,BKN,2600,BKN,4700,,,,,MVFR,,,,,,,,,,,,SPECI,49.0
KSJN 271820Z AUTO 34006KT 6SM -SN BR SCT007 BKN020 OVC029 02/02 A3004 RMK AO2 RAE18SNB18 P0001 T00220017 TSNO,KSJN,2018-03-27T18:20:00Z,34.52,-109.38,2.2,1.7,340,6,,6.0,30.041338,,,TRUE,TRUE,,,TRUE,,,-SN BR,SCT,700,BKN,2000,OVC,2900,,,MVFR,,,,,,0.01,,,,,,SPECI,1745.0
KFDY 271820Z AUTO 21013KT 2 1/2SM -RA BR OVC010 12/10 A2999 RMK AO2 CIG 006V012 P0001 T01220100,KFDY,2018-03-27T18:20:00Z,41.02,-83.67,12.2,10.0,210,13,,2.5,29.991142,,,TRUE,TRUE,,,,,,-RA BR,OVC,1000,,,,,,,IFR,,,,,,0.01,,,,,,SPECI,247.0
KBEH 271820Z AUTO 28006KT 1/2SM FG OVC002 07/06 A2996 RMK AO2 T00720061,KBEH,2018-03-27T18:20:00Z,42.13,-86.42,7.2,6.1,280,6,,0.5,29.958662,,,TRUE,TRUE,,,,,,FG,OVC,200,,,,,,,LIFR,,,,,,,,,,,,SPECI,191.0
ESGT 271820Z 06008KT CAVOK M02/M07 Q1018,ESGT,2018-03-27T18:20:00Z,58.32,12.33,-2.0,-7.0,60,8,,6.21,30.059055,,,,,,,,,,,CAVOK,,,,,,,,VFR,,,,,,,,,,,,METAR,41.0
LIEO 271820Z 24010KT 220V280 9999 FEW035 12/05 Q1015,LIEO,2018-03-27T18:20:00Z,40.88,9.52,12.0,5.0,240,10,,6.21,29.970472,,,,,,,,,,,FEW,3500,,,,,,,VFR,,,,,,,,,,,,METAR,13.0
KLVS 271820Z AUTO 04014KT 3SM -SN BR OVC003 01/00 A3012 RMK AO2 P0000 T00110000,KLVS,2018-03-27T18:20:00Z,35.65,-105.13,1.1,0.0,40,14,,3.0,30.121063,,,TRUE,TRUE,,,,,,-SN BR,OVC,300,,,,,,,LIFR,,,,,,0.005,,,,,,SPECI,2091.0
LSZG 271820Z AUTO 24010KT 7000 +DZ BKN009 05/04 Q1013,LSZG,2018-03-27T18:20:00Z,47.17,7.42,5.0,4.0,240,10,,4.35,29.911417,,,TRUE,,,,,,,+DZ,BKN,900,,,,,,,IFR,,,,,,,,,,,,METAR,430.0
LSGS 271820Z AUTO 24003KT 7000 -RA BKN019 05/04 Q1015,LSGS,2018-03-27T18:20:00Z,46.22,7.32,5.0,4.0,240,3,,4.35,29.970472,,,TRUE,,,,,,,-RA,BKN,1900,,,,,,,MVFR,,,,,,,,,,,,METAR,481.0
LSGC 271820Z AUTO 22006KT 190V260 7000 -RA BKN006 02/02 Q1011 RERASN,LSGC,2018-03-27T18:20:00Z,47.08,6.8,2.0,2.0,220,6,,4.35,29.852362,,,TRUE,,,,,,,-RA,BKN,600,,,,,,,IFR,,,,,,,,,,,,METAR,1027.0
LSZS 271820Z AUTO 22011KT 9999 -SN BKN/// 00/M05 Q1009,LSZS,2018-03-27T18:20:00Z,46.53,9.88,0.0,-5.0,220,11,,6.21,29.793306,,,TRUE,,,,,,,-SN,,,,,,,,,,,,,,,,,,,,,SPECI,1706.0
LSZR 271820Z 21004KT 9999 BKN060 08/00 Q1011 NOSIG RMK P,LSZR,2018-03-27T18:20:00Z,47.48,9.57,8.0,0.0,210,4,,6.21,29.852362,,,,,,TRUE,,,,,BKN,6000,,,,,,,VFR,,,,,,,,,,,,METAR,398.0
KGNB 271820Z AUTO 35004KT 10SM CLR 02/M07 A3008 RMK AO2 T00161069,KGNB,2018-03-27T18:20:00Z,40.08,-105.92,1.6,-6.9,350,4,,10.0,30.079725,,,TRUE,TRUE,,,,,,,CLR,,,,,,,,VFR,,,,,,,,,,,,METAR,2500.0
EKSP 271820Z 08008KT 9999 SCT011 BKN080 BKN200 03/01 Q1011,EKSP,2018-03-27T18:20:00Z,55.22,9.27,3.0,1.0,80,8,,6.21,29.852362,,,,,,,,,,,SCT,1100,BKN,8000,BKN,20000,,,VFR,,,,,,,,,,,,METAR,40.0
EKKA 271820Z AUTO 08013KT 9999NDV OVC007/// 01/M01 Q1013,EKKA,2018-03-27T18:20:00Z,56.3,9.12,1.0,-1.0,80,13,,,29.911417,,,TRUE,,,,,,,,OVC,700,,,,,,,,,,,,,,,,,,,SPECI,52.0
EVLA 271820Z AUTO 36003KT 9999 NCD M03/M09 Q1017,EVLA,2018-03-27T18:20:00Z,56.52,21.1,-3.0,-9.0,360,3,,6.21,30.029528,,,TRUE,,,,,,,,CLR,,,,,,,,VFR,,,,,,,,,,,,METAR,4.0
EVVA 271820Z AUTO 01002KT 9999 FEW038 M03/M08 Q1017,EVVA,2018-03-27T18:20:00Z,57.35,21.55,-3.0,-8.0,10,2,,6.21,30.029528,,,TRUE,,,,,,,,FEW,3800,,,,,,,VFR,,,,,,,,,,,,METAR,6.0
PAIL 271820Z 11003KT 1 1/4SM -SN BR BKN024 OVC033 M01/M01 A2978 RMK AO2 P0000 T10061011,PAIL,2018-03-27T18:20:00Z,59.75,-154.92,-0.6,-1.1,110,3,,1.25,29.778543,,,,TRUE,,,,,,-SN BR,BKN,2400,OVC,3300,,,,,IFR,,,,,,0.005,,,,,,SPECI,49.0
LSZC 271820Z AUTO VRB01KT 5000 -RA SCT020 BKN025 06/04 Q1013,LSZC,2018-03-27T18:20:00Z,46.97,8.38,6.0,4.0,0,1,,3.11,29.911417,,,TRUE,,,,,,,-RA,SCT,2000,BKN,2500,,,,,MVFR,,,,,,,,,,,,METAR,450.0
ESUT 271820Z AUTO 26006KT 220V280 9999 OVC028/// M04/M07 Q1014,ESUT,2018-03-27T18:20:00Z,65.8,15.08,-4.0,-7.0,260,6,,6.21,29.940945,,,TRUE,,,,,,,,OVC,2800,,,,,,,MVFR,,,,,,,,,,,,METAR,463.0
ESUD 271820Z AUTO 29011KT 9999 FEW070/// M02/M09 Q1014,ESUD,2018-03-27T18:20:00Z,64.97,17.7,-2.0,-9.0,290,11,,6.21,29.940945,,,TRUE,,,,,,,,FEW,7000,,,,,,,VFR,,,,,,,,,,,,METAR,279.0
K2G4 271820Z AUTO 14004KT M1/4SM OVC002 00/00 A3018 RMK AO1,K2G4,2018-03-27T18:20:00Z,39.58,-79.33,0.0,0.0,140,4,,0.25,30.180119,,,TRUE,TRUE,,,,,,,OVC,200,,,,,,,LIFR,,,,,,,,,,,,SPECI,894.0
KGEV 271820Z AUTO 13008KT 10SM CLR 10/03 A3031 RMK AO2 T01000028,KGEV,2018-03-27T18:20:00Z,36.43,-81.42,10.0,2.8,130,8,,10.0,30.31004,,,TRUE,TRUE,,,,,,,CLR,,,,,,,,VFR,,,,,,,,,,,,SPECI,969.0
EFJY 271820Z AUTO 29003KT CAVOK M09/M16 Q1013,EFJY,2018-03-27T18:20:00Z,62.4,25.68,-9.0,-16.0,290,3,,6.21,29.911417,,,TRUE,,,,,,,,CAVOK,,,,,,,,VFR,,,,,,,,,,,,METAR,145.0
EFKU 271820Z AUTO 28006KT CAVOK M06/M14 Q1012,EFKU,2018-03-27T18:20:00Z,63.02,27.8,-6.0,-14.0,280,6,,6.21,29.88189,,,TRUE,,,,,,,,CAVOK,,,,,,,,VFR,,,,,,,,,,,,METAR,102.0
EFHA 271820Z AUTO 27006KT CAVOK M07/M17 Q1014,EFHA,2018-03-27T18:20:00Z,61.85,24.8,-7.0,-17.0,270,6,,6.21,29.940945,,,TRUE,,,,,,,,CAVOK,,,,,,,,VFR,,,,,,,,,,,,METAR,145.0
EFKK 271820Z 22002KT 9999 BKN040 BKN050 M04/M09 Q1013,EFKK,2018-03-27T18:20:00Z,63.72,23.13,-4.0,-9.0,220,2,,6.21,29.911417,,,,,,,,,,,BKN,4000,BKN,5000,,,,,VFR,,,,,,,,,,,,METAR,25.0
EFJO 271820Z AUTO 26004KT 230V300 CAVOK M06/M14 Q1011,EFJO,2018-03-27T18:20:00Z,62.67,29.62,-6.0,-14.0,260,4,,6.21,29.852362,,,TRUE,,,,,,,,CAVOK,,,,,,,,VFR,,,,,,,,,,,,METAR,117.0
EFLP 271820Z AUTO 24002KT CAVOK M09/M13 Q1013,EFLP,2018-03-27T18:20:00Z,61.07,28.13,-9.0,-13.0,240,2,,6.21,29.911417,,,TRUE,,,,,,,,CAVOK,,,,,,,,VFR,,,,,,,,,,,,METAR,106.0
EFSA 271820Z AUTO 25002KT CAVOK M11/M13 Q1012,EFSA,2018-03-27T18:20:00Z,61.95,28.93,-11.0,-13.0,250,2,,6.21,29.88189,,,TRUE,,,,,,,,CAVOK,,,,,,,,VFR,,,,,,,,,,,,METAR,95.0
EFSI 271820Z AUTO 24002KT 9999 FEW042 BKN048 BKN065 M06/M13 Q1014,EFSI,2018-03-27T18:20:00Z,62.7,22.83,-6.0,-13.0,240,2,,6.21,29.940945,,,TRUE,,,,,,,,FEW,4200,BKN,4800,BKN,6500,,,VFR,,,,,,,,,,,,METAR,91.0
EFUT 271820Z AUTO 26003KT CAVOK M06/M13 Q1013,EFUT,2018-03-27T18:20:00Z,60.88,26.92,-6.0,-13.0,260,3,,6.21,29.911417,,,TRUE,,,,,,,,CAVOK,,,,,,,,VFR,,,,,,,,,,,,METAR,100.0
EFKE 271820Z AUTO 28004KT 240V300 CAVOK M03/M05 Q1010,EFKE,2018-03-27T18:20:00Z,65.77,24.57,-3.0,-5.0,280,4,,6.21,29.822834,,,TRUE,,,,,,,,CAVOK,,,,,,,,VFR,,,,,,,,,,,,METAR,15.0
EFET 271820Z AUTO 32004KT 9999 BKN030 M05/M07 Q1009,EFET,2018-03-27T18:20:00Z,68.37,23.43,-5.0,-7.0,320,4,,6.21,29.793306,,,TRUE,,,,,,,,BKN,3000,,,,,,,MVFR,,,,,,,,,,,,METAR,306.0
EFKI 271820Z AUTO 25008KT 9999 -SG OVC015 M07/M09 Q1010,EFKI,2018-03-27T18:20:00Z,64.27,27.67,-7.0,-9.0,250,8,,6.21,29.822834,,,TRUE,,,,,,,-SG,OVC,1500,,,,,,,MVFR,,,,,,,,,,,,METAR,136.0
EFKS 271820Z 26003KT 9999 -SHSN OVC045 M07/M09 Q1006,EFKS,2018-03-27T18:20:00Z,66.0,29.23,-7.0,-9.0,260,3,,6.21,29.704725,,,,,,,,,,-SHSN,OVC,4500,,,,,,,VFR,,,,,,,,,,,,METAR,263.0
EFKT 271820Z AUTO 31005KT 9999 -SN SCT015 OVC061 M05/M06 Q1009,EFKT,2018-03-27T18:20:00Z,67.7,24.85,-5.0,-6.0,310,5,,6.21,29.793306,,,TRUE,,,,,,,-SN,SCT,1500,OVC,6100,,,,,VFR,,,,,,,,,,,,METAR,643.0
EDDB 271820Z 10004KT CAVOK 03/M02 Q1012 NOSIG,EDDB,2018-03-27T18:20:00Z,52.38,13.53,3.0,-2.0,100,4,,6.21,29.88189,,,,,,TRUE,,,,,CAVOK,,,,,,,,VFR,,,,,,,,,,,,METAR,48.0
EDDV 271820Z 11008KT 9999 FEW044 BKN060 08/M00 Q1009 NOSIG,EDDV,2018-03-27T18:20:00Z,52.47,9.68,8.0,0.0,110,8,,6.21,29.793306,,,,,,TRUE,,,,,FEW,4400,BKN,6000,,,,,VFR,,,,,,,,,,,,METAR,54.0
EDDT 271820Z 13006KT CAVOK 04/M03 Q1012 NOSIG,EDDT,2018-03-27T18:20:00Z,52.57,13.32,4.0,-3.0,130,6,,6.21,29.88189,,,,,,TRUE,,,,,CAVOK,,,,,,,,VFR,,,,,,,,,,,,METAR,37.0
EDDS 271820Z 24009KT 200V270 9999 -RA SCT020 BKN048 08/01 Q1010 NOSIG,EDDS,2018-03-27T18:20:00Z,48.67,9.22,8.0,1.0,240,9,,6.21,29.822834,,,,,,TRUE,,,,-RA,SCT,2000,BKN,4800,,,,,VFR,,,,,,,,,,,,METAR,419.0
EDDN 271820Z 11006KT CAVOK 06/M00 Q1010 R28/29//95 NOSIG,EDDN,2018-03-27T18:20:00Z,49.5,11.08,6.0,0.0,110,6,,6.21,29.822834,,,,,,TRUE,,,,,CAVOK,,,,,,,,VFR,,,,,,,,,,,,SPECI,312.0
EDDM 271820Z 14004KT CAVOK 06/01 Q1011 NOSIG,EDDM,2018-03-27T18:20:00Z,48.35,11.82,6.0,1.0,140,4,,6.21,29.852362,,,,,,TRUE,,,,,CAVOK,,,,,,,,VFR,,,,,,,,,,,,METAR,447.0
EDDL 271820Z 15009KT 9999 -RA FEW011 SCT020 OVC026 07/05 Q1006 RERA NOSIG,EDDL,2018-03-27T18:20:00Z,51.3,6.77,7.0,5.0,150,9,,6.21,29.704725,,,,,,TRUE,,,,-RA,FEW,1100,SCT,2000,OVC,2600,,,MVFR,,,,,,,,,,,,METAR,44.0
EDDK 271820Z 12006KT 7000 -RA FEW012 OVC025 06/05 Q1007 RERA NOSIG,EDDK,2018-03-27T18:20:00Z,50.87,7.15,6.0,5.0,120,6,,4.35,29.734253,,,,,,TRUE,,,,-RA,FEW,1200,OVC,2500,,,,,MVFR,,,,,,,,,,,,METAR,99.0
EDDH 271820Z 11008KT 080V140 CAVOK 07/M02 Q1010 NOSIG,EDDH,2018-03-27T18:20:00Z,53.63,10.0,7.0,-2.0,110,8,,6.21,29.822834,,,,,,TRUE,,,,,CAVOK,,,,,,,,VFR,,,,,,,,,,,,METAR,16.0
EDDF 271820Z 19005KT 8000 -RA FEW019 BKN030 OVC040 06/05 Q1009 RERA TEMPO 4500 RA,EDDF,2018-03-27T18:20:00Z,50.05,8.6,6.0,5.0,190,5,,4.97,29.793306,,,,,,,,,,-RA,FEW,1900,BKN,3000,OVC,4000,,,MVFR,,,,,,,,,,,,SPECI,113.0
EDDW 271820Z 11007KT CAVOK 08/M01 Q1008 NOSIG,EDDW,2018-03-27T18:20:00Z,53.03,8.8,8.0,-1.0,110,7,,6.21,29.763779,,,,,,TRUE,,,,,CAVOK,,,,,,,,VFR,,,,,,,,,,,,METAR,5.0
EDDR 271820Z 20010KT 1800 -DZRA BR FEW004 SCT006 BKN009 05/04 Q1009 TEMPO 1400 RADZ BKN004,EDDR,2018-03-27T18:20:00Z,49.22,7.1,5.0,4.0,200,10,,1.12,29.793306,,,,,,,,,,-DZ -RA BR,FEW,400,SCT,600,BKN,900,,,IFR,,,,,,,,,,,,METAR,320.0
EDDP 271820Z 13009KT CAVOK 06/M01 Q1011 NOSIG,EDDP,2018-03-27T18:20:00Z,51.43,12.23,6.0,-1.0,130,9,,6.21,29.852362,,,,,,TRUE,,,,,CAVOK,,,,,,,,VFR,,,,,,,,,,,,METAR,149.0
EDDG 271820Z 12003KT 070V170 9999 -RA BKN028 07/03 Q1007 NOSIG,EDDG,2018-03-27T18:20:00Z,52.13,7.7,7.0,3.0,120,3,,6.21,29.734253,,,,,,TRUE,,,,-RA,BKN,2800,,,,,,,MVFR,,,,,,,,,,,,METAR,52.0
EDDE 271820Z 17004KT 9999 FEW030 SCT042 BKN050 07/00 Q1009 NOSIG,EDDE,2018-03-27T18:20:00Z,50.98,10.97,7.0,0.0,170,4,,6.21,29.793306,,,,,,TRUE,,,,,FEW,3000,SCT,4200,BKN,5000,,,VFR,,,,,,,,,,,,METAR,323.0
EDDC 271820Z 11005KT CAVOK 04/M02 Q1012 NOSIG,EDDC,2018-03-27T18:20:00Z,51.13,13.75,4.0,-2.0,110,5,,6.21,29.88189,,,,,,TRUE,,,,,CAVOK,,,,,,,,VFR,,,,,,,,,,,,METAR,226.0
KQEL 271820Z AUTO 02002KT 1600 BR CLR 06/05 A3011 RMK A02 TSNO,KQEL,2018-03-27T18:20:00Z,,,6.0,5.0,20,2,,0.99,30.109253,,,TRUE,TRUE,,,TRUE,,,BR,CLR,,,,,,,,LIFR,,,,,,,,,,,,METAR,
KQEP 271820Z AUTO 15001KT 2400 BR CLR M01/M10 / RMK A02 TSNO,KQEP,2018-03-27T18:20:00Z,,,-1.0,-10.0,150,1,,1.49,,,,TRUE,TRUE,,,TRUE,,,BR,CLR,,,,,,,,IFR,,,,,,,,,,,,METAR,
KQEV 271820Z AUTO 28001KT 3200 BR CLR 08/06 A3002 RMK A02 TSNO,KQEV,2018-03-27T18:20:00Z,,,8.0,6.0,280,1,,1.99,30.02067,,,TRUE,TRUE,,,TRUE,,,BR,CLR,,,,,,,,IFR,,,,,,,,,,,,METAR,
KIXA 271820Z AUTO 00000KT 7SM -DZ BKN016 OVC028 06/03 A3046 RMK AO2,KIXA,2018-03-27T18:20:00Z,36.33,-77.63,6.0,3.0,0,0,,7.0,30.46063,,,TRUE,TRUE,,,,,,-DZ,BKN,1600,OVC,2800,,,,,MVFR,,,,,,,,,,,,METAR,44.0
KQFX 271820Z AUTO 12001KT 1200 BR FEW016 07/06 A3002 RMK A02 TSNO,KQFX,2018-03-27T18:20:00Z,,,7.0,6.0,120,1,,0.75,30.02067,,,TRUE,TRUE,,,TRUE,,,BR,FEW,1600,,,,,,,LIFR,,,,,,,,,,,,METAR,
KGUS 271820Z 22014KT 5SM -RA BR OVC005 13/13 A2998 RMK AO2A SLP157 RVRNO $,KGUS,2018-03-27T18:20:00Z,40.63,-86.15,13.0,13.0,220,14,,5.0,29.97933,1015.7,,,TRUE,TRUE,,,,,-RA BR,OVC,500,,,,,,,IFR,,,,,,,,,,,,SPECI,247.0
ESGG 271820Z 07009KT 9999 BKN026 BKN041 M02/M05 Q1016 R03/19//95,ESGG,2018-03-27T18:20:00Z,57.67,12.3,-2.0,-5.0,70,9,,6.21,30.0,,,,,,,,,,,BKN,2600,BKN,4100,,,,,MVFR,,,,,,,,,,,,SPECI,169.0
ESGJ 271820Z 13004KT 9999 BKN046 M02/M05 Q1016 R01/710070,ESGJ,2018-03-27T18:20:00Z,57.77,14.07,-2.0,-5.0,130,4,,6.21,30.0,,,,,,,,,,,BKN,4600,,,,,,,VFR,,,,,,,,,,,,SPECI,232.0
ESMK 271820Z AUTO 10011KT 1600 -SN FEW007/// SCT013/// M02/M03 Q1016,ESMK,2018-03-27T18:20:00Z,55.92,14.07,-2.0,-3.0,100,11,,0.99,30.0,,,TRUE,,,,,,,-SN,FEW,700,SCT,1300,,,,,LIFR,,,,,,,,,,,,METAR,23.0
ESMQ 271820Z 32003KT 9999 FEW040 SCT080 M01/M04 Q1018,ESMQ,2018-03-27T18:20:00Z,56.68,16.3,-1.0,-4.0,320,3,,6.21,30.059055,,,,,,,,,,,FEW,4000,SCT,8000,,,,,VFR,,,,,,,,,,,,METAR,16.0
ESMT 271820Z AUTO 11008KT 1300 R01/P2000N R19/P2000N -SN FEW007/// SCT011/// BKN013/// M02/M03 Q1016,ESMT,2018-03-27T18:20:00Z,56.67,12.82,-2.0,-3.0,110,8,,0.81,30.0,,,TRUE,,,,,,,-SN,FEW,700,SCT,1100,BKN,1300,,,LIFR,,,,,,,,,,,,METAR,30.0
ESMX 271820Z VRB03KT 9999 -SN FEW010 SCT023 M03/M05 Q1017,ESMX,2018-03-27T18:20:00Z,56.92,14.72,-3.0,-5.0,0,3,,6.21,30.029528,,,,,,,,,,-SN,FEW,1000,SCT,2300,,,,,VFR,,,,,,,,,,,,METAR,186.0
ESTA 271820Z 08013KT 2200 -SN SCT015 M02/M03 Q1015,ESTA,2018-03-27T18:20:00Z,56.28,12.83,-2.0,-3.0,80,13,,1.37,29.970472,,,,,,,,,,-SN,SCT,1500,,,,,,,IFR,,,,,,,,,,,,METAR,47.0
ESMS 271820Z 11012KT 4700 -SNRA BKN008 OVC015 M01/M02 Q1014 R17/29//95,ESMS,2018-03-27T18:20:00Z,55.53,13.37,-1.0,-2.0,110,12,,2.92,29.940945,,,,,,,,,,-SN -RA,BKN,800,OVC,1500,,,,,IFR,,,,,,,,,,,,SPECI,106.0
EFMI 271820Z AUTO 27002KT CAVOK M09/M15 Q1013,EFMI,2018-03-27T18:20:00Z,61.68,27.2,-9.0,-15.0,270,2,,6.21,29.911417,,,TRUE,,,,,,,,CAVOK,,,,,,,,VFR,,,,,,,,,,,,METAR,138.0
EKSB 271820Z AUTO 09008KT 8000NDV BKN005/// 03/02 Q1011,EKSB,2018-03-27T18:20:00Z,54.97,9.8,3.0,2.0,90,8,,,29.852362,,,TRUE,,,,,,,,BKN,500,,,,,,,,,,,,,,,,,,,METAR,23.0
EKVD 271820Z AUTO 07010KT //// ///////// 02/01 Q1012,EKVD,2018-03-27T18:20:00Z,55.42,9.32,2.0,1.0,70,10,,,29.88189,,,TRUE,,,,,,,,,,,,,,,,,,,,,,,,,,,,METAR,45.0
EKCH 271820Z 10012KT 3000 -SNRA BKN006 00/M00 Q1014 TEMPO BKN004,EKCH,2018-03-27T18:20:00Z,55.62,12.67,0.0,0.0,100,12,,1.86,29.940945,,,,,,,,,,-SN -RA,BKN,600,,,,,,,IFR,,,,,,,,,,,,METAR,5.0
EKBI 271820Z AUTO 09009KT 9999NDV BKN011/// 02/M00 Q1012,EKBI,2018-03-27T18:20:00Z,55.72,9.15,2.0,0.0,90,9,,,29.88189,,,TRUE,,,,,,,,BKN,1100,,,,,,,,,,,,,,,,,,,SPECI,66.0
EKYT 271820Z AUTO 08014KT 9999NDV BKN024/// OVC028/// 01/M01 Q1015,EKYT,2018-03-27T18:20:00Z,57.1,9.87,1.0,-1.0,80,14,,,29.970472,,,TRUE,,,,,,,,BKN,2400,OVC,2800,,,,,,,,,,,,,,,,,METAR,3.0
EKRK 271820Z AUTO 09009KT 6000NDV -SHRA BKN003/// OVC005/// 01/01 Q1013,EKRK,2018-03-27T18:20:00Z,55.57,12.12,1.0,1.0,90,9,,,29.911417,,,TRUE,,,,,,,-SHRA,BKN,300,OVC,500,,,,,,,,,,,,,,,,,METAR,44.0
EKAH 271820Z AUTO 07009KT 7000NDV OVC003/// 01/01 Q1014,EKAH,2018-03-27T18:20:00Z,56.28,10.62,1.0,1.0,70,9,,,29.940945,,,TRUE,,,,,,,,OVC,300,,,,,,,,,,,,,,,,,,,METAR,25.0
EKEB 271820Z AUTO 09013KT 9999NDV FEW034/// FEW084/// 03/M00 Q1011,EKEB,2018-03-27T18:20:00Z,55.52,8.55,3.0,0.0,90,13,,,29.852362,,,TRUE,,,,,,,,FEW,3400,FEW,8400,,,,,,,,,,,,,,,,,METAR,29.0
EKRN 271820Z AUTO 09012KT 9999NDV -FZRASN FEW009/// OVC021/// M01/M02 Q1015 REFZDZ,EKRN,2018-03-27T18:20:00Z,55.07,14.75,-1.0,-2.0,90,12,,,29.970472,,,TRUE,,,,,,,-FZRA SN,FEW,900,OVC,2100,,,,,,,,,,,,,,,,,METAR,16.0
KOWI 271820Z AUTO 36010KT 5SM BR SCT016 06/04 A3014 RMK AO2,KOWI,2018-03-27T18:20:00Z,38.53,-95.25,6.0,4.0,360,10,,5.0,30.138779,,,TRUE,TRUE,,,,,,BR,SCT,1600,,,,,,,MVFR,,,,,,,,,,,,METAR,292.0
KUSE 271820Z AUTO 23013G19KT 6SM BR OVC007 11/11 A2997 RMK AO2,KUSE,2018-03-27T18:20:00Z,41.62,-84.13,11.0,11.0,230,13,19,6.0,29.970472,,,TRUE,TRUE,,,,,,BR,OVC,700,,,,,,,IFR,,,,,,,,,,,,METAR,238.0
ESNX 271820Z 27008KT 9999 FEW045 M03/M08 Q1011,ESNX,2018-03-27T18:20:00Z,65.58,19.28,-3.0,-8.0,270,8,,6.21,29.852362,,,,,,,,,,,FEW,4500,,,,,,,VFR,,,,,,,,,,,,METAR,379.0
EVRA 271820Z 33005KT CAVOK M03/M09 Q1016 R36/190095 NOSIG,EVRA,2018-03-27T18:20:00Z,56.92,23.97,-3.0,-9.0,330,5,,6.21,30.0,,,,,,TRUE,,,,,CAVOK,,,,,,,,VFR,,,,,,,,,,,,SPECI,10.0
EYKA 271820Z 34003KT 300V030 CAVOK M02/M12 Q1015 R08/09//95,EYKA,2018-03-27T18:20:00Z,54.97,24.08,-2.0,-12.0,340,3,,6.21,29.970472,,,,,,,,,,,CAVOK,,,,,,,,VFR,,,,,,,,,,,,METAR,77.0
EKVG 271820Z AUTO 10028KT 9999NDV BKN028/// 06/00 Q0999 RMK BKN027/// WIND 850FT 12041G52KT,EKVG,2018-03-27T18:20:00Z,62.07,-7.3,6.0,0.0,100,28,,,29.498032,,,TRUE,,,,,,,,BKN,2800,,,,,,,,,,,,,,,,,,,METAR,85.0
KONX 271820Z AUTO 04005KT 10SM OVC065 08/02 A3046 RMK AO2 T00780020,KONX,2018-03-27T18:20:00Z,36.4,-76.02,7.8,2.0,40,5,,10.0,30.46063,,,TRUE,TRUE,,,,,,,OVC,6500,,,,,,,VFR,,,,,,,,,,,,METAR,5.0
KPGV 271820Z AUTO 00000KT 5SM DZ SCT003 BKN007 OVC018 07/04 A3045 RMK AO2,KPGV,2018-03-27T18:20:00Z,35.62,-77.4,7.0,4.0,0,0,,5.0,30.448818,,,TRUE,TRUE,,,,,,DZ,SCT,300,BKN,700,OVC,1800,,,IFR,,,,,,,,,,,,METAR,8.0
KPTB 271820Z AUTO 00000KT 7SM -DZ BKN041 OVC049 06/01 A3045 RMK AO2 T00630006,KPTB,2018-03-27T18:20:00Z,37.17,-77.52,6.3,0.6,0,0,,7.0,30.448818,,,TRUE,TRUE,,,,,,-DZ,BKN,4100,OVC,4900,,,,,VFR,,,,,,,,,,,,METAR,59.0
EYPA 271820Z 01006KT CAVOK M04/M11 Q1017 R01/0///95,EYPA,2018-03-27T18:20:00Z,55.97,21.08,-4.0,-11.0,10,6,,6.21,30.029528,,,,,,,,,,,CAVOK,,,,,,,,VFR,,,,,,,,,,,,METAR,10.0
EYSA 271820Z 03004KT CAVOK M04/M12 Q1016 R32R/19//95 R32L/19//95 BLU NOSIG,EYSA,2018-03-27T18:20:00Z,55.9,23.4,-4.0,-12.0,30,4,,6.21,30.0,,,,,,TRUE,,,,,CAVOK,,,,,,,,VFR,,,,,,,,,,,,METAR,135.0
CYET 271820Z AUTO 33006KT 290V350 1 3/4SM -SN BKN023 BKN037 OVC047 M00/M01 A2960 RMK PRESRR SLP063,CYET,2018-03-27T18:20:00Z,53.57,-116.47,0.0,-1.0,330,6,,1.75,29.601377,1006.3,,TRUE,,,,,,,-SN,BKN,2300,BKN,3700,OVC,4700,,,IFR,,,,,,,,,,,,SPECI,925.0
PKWA 271820Z AUTO 09007KT 10SM CLR 27/23 A2975 RMK AO2 T02700234,PKWA,2018-03-27T18:20:00Z,8.72,167.72,27.0,23.4,90,7,,10.0,29.749016,,,TRUE,TRUE,,,,,,,CLR,,,,,,,,VFR,,,,,,,,,,,,SPECI,8.0
EETN 271820Z 22005KT 9999 SCT038 M05/M10 Q1015 R08/000095 NOSIG,EETN,2018-03-27T18:20:00Z,59.4,24.82,-5.0,-10.0,220,5,,6.21,29.970472,,,,,,TRUE,,,,,SCT,3800,,,,,,,VFR,,,,,,,,,,,,SPECI,40.0
LIPZ 271820Z 10008KT 070V130 9999 BKN060 11/06 Q1013 NOSIG,LIPZ,2018-03-27T18:20:00Z,45.5,12.35,11.0,6.0,100,8,,6.21,29.911417,,,,,,TRUE,,,,,BKN,6000,,,,,,,VFR,,,,,,,,,,,,METAR,6.0
LIPH 271820Z 06008KT 9999 BKN050 10/07 Q1013,LIPH,2018-03-27T18:20:00Z,45.63,12.17,10.0,7.0,60,8,,6.21,29.911417,,,,,,,,,,,BKN,5000,,,,,,,VFR,,,,,,,,,,,,METAR,23.0
LIPE 271820Z 10006KT 9999 FEW050 13/04 Q1013,LIPE,2018-03-27T18:20:00Z,44.52,11.3,13.0,4.0,100,6,,6.21,29.911417,,,,,,,,,,,FEW,5000,,,,,,,VFR,,,,,,,,,,,,METAR,42.0
LICC 271820Z 21006KT 9999 SCT090 12/06 Q1014,LICC,2018-03-27T18:20:00Z,37.47,15.05,12.0,6.0,210,6,,6.21,29.940945,,,,,,,,,,,SCT,9000,,,,,,,VFR,,,,,,,,,,,,METAR,17.0
LIRQ 271820Z 22008KT 9999 FEW070 13/05 Q1013,LIRQ,2018-03-27T18:20:00Z,43.78,11.18,13.0,5.0,220,8,,6.21,29.911417,,,,,,,,,,,FEW,7000,,,,,,,VFR,,,,,,,,,,,,METAR,38.0
LIRN 271820Z 08004KT 9999 FEW030 09/05 Q1014 NOSIG,LIRN,2018-03-27T18:20:00Z,40.88,14.3,9.0,5.0,80,4,,6.21,29.940945,,,,,,TRUE,,,,,FEW,3000,,,,,,,VFR,,,,,,,,,,,,METAR,72.0
LIRF 271820Z VRB02KT CAVOK 12/08 Q1014 NOSIG,LIRF,2018-03-27T18:20:00Z,41.78,12.22,12.0,8.0,0,2,,6.21,29.940945,,,,,,TRUE,,,,,CAVOK,,,,,,,,VFR,,,,,,,,,,,,METAR,3.0
LIML 271820Z 18003KT 150V240 CAVOK 13/02 Q1010 NOSIG,LIML,2018-03-27T18:20:00Z,45.47,9.27,13.0,2.0,180,3,,6.21,29.822834,,,,,,TRUE,,,,,CAVOK,,,,,,,,VFR,,,,,,,,,,,,METAR,103.0
LIMC 271820Z 20003KT 150V270 CAVOK 14/M04 Q1010 NOSIG,LIMC,2018-03-27T18:20:00Z,45.62,8.72,14.0,-4.0,200,3,,6.21,29.822834,,,,,,TRUE,,,,,CAVOK,,,,,,,,VFR,,,,,,,,,,,,METAR,211.0
CWZQ 271820Z AUTO 06008G17KT 06/M11 RMK AO1 T00581112,CWZQ,2018-03-27T18:20:00Z,46.53,-61.05,5.8,-11.2,60,8,17,,,,,TRUE,TRUE,,,,,,,,,,,,,,,,,,,,,,,,,,,METAR,17.0
KEHO 271820Z AUTO 16003KT 10SM OVC025 09/03 A3041 RMK AO2 T00910029,KEHO,2018-03-27T18:20:00Z,35.25,-81.6,9.1,2.9,160,3,,10.0,30.410433,,,TRUE,TRUE,,,,,,,OVC,2500,,,,,,,MVFR,,,,,,,,,,,,METAR,258.0
EFPO 271820Z AUTO 32006KT CAVOK M04/M09 Q1016,EFPO,2018-03-27T18:20:00Z,61.47,21.8,-4.0,-9.0,320,6,,6.21,30.0,,,TRUE,,,,,,,,CAVOK,,,,,,,,VFR,,,,,,,,,,,,METAR,17.0
EGPF 271820Z AUTO 25009KT 9999 SCT018 SCT045 06/04 Q1001,EGPF,2018-03-27T18:20:00Z,55.87,-4.42,6.0,4.0,250,9,,6.21,29.557087,,,TRUE,,,,,,,,SCT,1800,SCT,4500,,,,,VFR,,,,,,,,,,,,METAR,8.0
ETHF 271820Z 25004KT 9999 -RA BKN028 OVC080 07/04 Q1009 BLU BLU,ETHF,2018-03-27T18:20:00Z,51.12,9.27,7.0,4.0,250,4,,6.21,29.793306,,,,,,,,,,-RA,BKN,2800,OVC,8000,,,,,MVFR,,,,,,,,,,,,METAR,181.0
KBJJ 271819Z AUTO 21014G21KT 2 1/2SM BR OVC005 07/07 A3007 RMK AO2 T00720067,KBJJ,2018-03-27T18:19:00Z,40.87,-81.88,7.2,6.7,210,14,21,2.5,30.070866,,,TRUE,TRUE,,,,,,BR,OVC,500,,,,,,,IFR,,,,,,,,,,,,METAR,343.0
KGLR 271819Z AUTO 25011KT 4SM BR OVC004 06/06 A2982 RMK AO2 RAE12 CIG 003V008 P0000 T00560056,KGLR,2018-03-27T18:19:00Z,45.02,-84.68,5.6,5.6,250,11,,4.0,29.819881,,,TRUE,TRUE,,,,,,BR,OVC,400,,,,,,,LIFR,,,,,,0.005,,,,,,METAR,407.0
KFTW 271819Z 14004KT 3SM R16/6000VP6000FT -RA BR SCT005 BKN050 OVC100 19/18 A3003 RMK AO2 LTG DSNT S P0006 T01890178,KFTW,2018-03-27T18:19:00Z,32.83,-97.37,18.9,17.8,140,4,,3.0,30.029528,,,,TRUE,,,,,,-RA BR,SCT,500,BKN,5000,OVC,10000,,,MVFR,,,,,,0.06,,,,,,METAR,214.0
KFFX 271819Z AUTO 30010KT 2SM BR OVC006 06/04 A2992 RMK AO2 T00590041,KFFX,2018-03-27T18:19:00Z,43.43,-86.0,5.9,4.1,300,10,,2.0,29.920275,,,TRUE,TRUE,,,,,,BR,OVC,600,,,,,,,IFR,,,,,,,,,,,,METAR,236.0
KLWV 271819Z AUTO 19009KT 2 1/2SM -RA BR OVC008 13/13 A3006 RMK AO2 P0004 T01330128,KLWV,2018-03-27T18:19:00Z,38.77,-87.6,13.3,12.8,190,9,,2.5,30.059055,,,TRUE,TRUE,,,,,,-RA BR,OVC,800,,,,,,,IFR,,,,,,0.04,,,,,,METAR,131.0
CYYB 271819Z 17012G19KT 2SM -RAPL BR SCT008 OVC017 01/00 A2994 RMK SF4SC4 SLP158,CYYB,2018-03-27T18:19:00Z,46.35,-79.42,1.0,0.0,170,12,19,2.0,29.940945,1015.8,,,,,,,,,-RA -PL BR,SCT,800,OVC,1700,,,,,IFR,,,,,,,,,,,,SPECI,371.0
CYBL 271819Z 06002KT 8SM FEW004 SCT008 BKN012 BKN070 09/07 A3020 RMK SF1SF3SC2AC1 SLP229,CYBL,2018-03-27T18:19:00Z,49.95,-125.27,9.0,7.0,60,2,,8.0,30.200787,1022.9,,,,,,,,,,FEW,400,SCT,800,BKN,1200,BKN,7000,MVFR,,,,,,,,,,,,SPECI,106.0
KFBG 271819Z AUTO 06005KT 10SM BKN029 BKN036 OVC044 08/01 A3042 RMK AO2 CIG 029V044 BKN029 V FEW SLP305 $,KFBG,2018-03-27T18:19:00Z,35.12,-78.92,8.0,1.0,60,5,,10.0,30.41929,1030.5,,TRUE,TRUE,TRUE,,,,,,BKN,2900,BKN,3600,OVC,4400,,,MVFR,,,,,,,,,,,,SPECI,74.0
YPAD 271819Z 25009KT 9999 BKN011 20/18 Q1011 FM1840 23010KT 9999 -SHRA SCT010 BKN020,YPAD,2018-03-27T18:19:00Z,-34.95,138.52,20.0,18.0,250,9,,6.21,29.852362,,,,,,,,,,,BKN,1100,,,,,,,MVFR,,,,,,,,,,,,SPECI,4.0
PATG 271819Z AUTO 17015KT 1 3/4SM -SN BR BKN005 OVC014 00/M01 A2959 RMK AO2 CIG 004V008 P0000 FZRANO,PATG,2018-03-27T18:19:00Z,59.05,-160.38,0.0,-1.0,170,15,,1.75,29.589567,,,TRUE,TRUE,,,,TRUE,,-SN BR,BKN,500,OVC,1400,,,,,IFR,,,,,,0.005,,,,,,METAR,4.0
YPKU 271819Z AUTO 00000KT 9999 // NCD 25/23 Q1005 RF00.0/000.0,YPKU,2018-03-27T18:19:00Z,-15.77,128.68,25.0,23.0,0,0,,6.21,29.675198,,,TRUE,,,,,,,,CLR,,,,,,,,VFR,,,,,,,,,,,,SPECI,45.0
YPGV 271819Z AUTO 00000KT 9999 // SCT013 24/23 Q1005 RF00.0/000.0,YPGV,2018-03-27T18:19:00Z,-12.27,136.82,24.0,23.0,0,0,,6.21,29.675198,,,TRUE,,,,,,,,SCT,1300,,,,,,,VFR,,,,,,,,,,,,SPECI,55.0
CWND 272318Z M01/M01 RMK SOG 54 7039 T10081012,CWND,2018-03-27T18:18:06Z,69.63,-135.43,-0.8,-1.2,,,,,,,,,,,,,,,,,,,,,,,,,,,,,,,,,,,,METAR,12.0
RJAH 271818Z 00000KT 0400 R03/0700V1500D FG SCT000 09/08 Q1016 RMK 3ST000 A3000 R1100,RJAH,2018-03-27T18:18:00Z,36.17,140.42,9.0,8.0,0,0,,0.25,30.0,,,,,,,,,,FG,SCT,0,,,,,,,LIFR,,,,,,,,,,,,SPECI,35.0
KCWN 271818Z AUTO 12003KT 1 1/2SM -RASN OVC010 M01/M03 A3010 RMK AO2 VIS 1 1/2V7 SNE00 SLP129 $,KCWN,2018-03-27T18:18:00Z,38.75,-104.85,-1.0,-3.0,120,3,,1.5,30.100393,1012.9,,TRUE,TRUE,TRUE,,,,,-RA -SN,OVC,1000,,,,,,,IFR,,,,,,,,,,,,METAR,2040.0
KEIK 271818Z AUTO 21005KT 10SM SCT042 05/00 A3019 RMK AO2 T00480001,KEIK,2018-03-27T18:18:00Z,40.02,-105.05,4.8,0.1,210,5,,10.0,30.188976,,,TRUE,TRUE,,,,,,,SCT,4200,,,,,,,VFR,,,,,,,,,,,,METAR,1564.0
K4BM 271818Z AUTO 21003KT 7SM BKN002 OVC008 A3014 RMK AO2 LTG DSNT NW,K4BM,2018-03-27T18:18:00Z,39.05,-105.52,,,210,3,,7.0,30.138779,,,TRUE,TRUE,,,,,,,BKN,200,OVC,800,,,,,LIFR,,,,,,,,,,,,METAR,3438.0
KMEB 271818Z AUTO 06005KT 10SM OVC028 08/03 A3043 RMK AO2 T00830033,KMEB,2018-03-27T18:18:00Z,34.78,-79.37,8.3,3.3,60,5,,10.0,30.431103,,,TRUE,TRUE,,,,,,,OVC,2800,,,,,,,MVFR,,,,,,,,,,,,METAR,67.0
KAFF 271818Z 16003KT 3SM -SN BR FEW002 BKN012 OVC026 M01/M02 A3016 RMK AO2A TWR VIS 2 SLP241,KAFF,2018-03-27T18:18:00Z,38.97,-104.82,-1.0,-2.0,160,3,,3.0,30.159449,1024.1,,,TRUE,,,,,,-SN BR,FEW,200,BKN,1200,OVC,2600,,,MVFR,,,,,,,,,,,,SPECI,2003.0
KRSP 271818Z AUTO 18006G17KT 5SM -RA BR SCT009 BKN036 OVC060 01/00 A3031 RMK AO2 UPE1757RAB1757 P0000 $,KRSP,2018-03-27T18:18:00Z,39.65,-77.47,1.0,0.0,180,6,17,5.0,30.31004,,,TRUE,TRUE,TRUE,,,,,-RA BR,SCT,900,BKN,3600,OVC,6000,,,MVFR,,,,,,0.005,,,,,,SPECI,561.0
PFWS 271818Z AUTO 19015G21KT 2SM -SN BR OVC007 01/00 A2973 RMK AO2 CIG 004V009 P0000 FZRANO,PFWS,2018-03-27T18:18:00Z,58.7,-157.0,1.0,0.0,190,15,21,2.0,29.731298,,,TRUE,TRUE,,,,TRUE,,-SN BR,OVC,700,,,,,,,IFR,,,,,,0.005,,,,,,METAR,49.0
KOKK 271818Z AUTO 22017G22KT 3SM -RA BR OVC006 12/12 A3000 RMK AO2 P0001,KOKK,2018-03-27T18:18:00Z,40.53,-86.07,12.0,12.0,220,17,22,3.0,30.0,,,TRUE,TRUE,,,,,,-RA BR,OVC,600,,,,,,,IFR,,,,,,0.01,,,,,,METAR,253.0
PADL 271818Z 19015G20KT 4SM -SN BR OVC003 01/00 A2964 RMK AO2 P0000,PADL,2018-03-27T18:18:00Z,59.05,-158.5,1.0,0.0,190,15,20,4.0,29.639763,,,,TRUE,,,,,,-SN BR,OVC,300,,,,,,,LIFR,,,,,,0.005,,,,,,METAR,26.0
KPWK 271818Z 29009KT 10SM OVC014 09/06 A2999 RMK AO2 T00890061,KPWK,2018-03-27T18:18:00Z,42.12,-87.9,8.9,6.1,290,9,,10.0,29.991142,,,,TRUE,,,,,,,OVC,1400,,,,,,,MVFR,,,,,,,,,,,,METAR,203.0
KRBD 271818Z 33005KT 3/4SM +RA BR FEW005 BKN020 OVC040 17/16 A3003 RMK AO2 LTG DSNT N P0015 T01720161,KRBD,2018-03-27T18:18:00Z,32.68,-96.87,17.2,16.1,330,5,,0.75,30.029528,,,,TRUE,,,,,,+RA BR,FEW,500,BKN,2000,OVC,4000,,,LIFR,,,,,,0.15,,,,,,METAR,203.0
KDEC 271818Z 32008KT 1 3/4SM -RA BR OVC003 09/09 A3002 RMK AO2 RAB16 P0000 T00890089,KDEC,2018-03-27T18:18:00Z,39.83,-88.85,8.9,8.9,320,8,,1.75,30.02067,,,,TRUE,,,,,,-RA BR,OVC,300,,,,,,,LIFR,,,,,,0.005,,,,,,METAR,207.0
KCNB 271817Z AUTO 28009KT 200V320 10SM CLR 05/00 A3007 RMK AO2 T00520000,KCNB,2018-03-27T18:17:00Z,44.73,-96.27,5.2,0.0,280,9,,10.0,30.070866,,,TRUE,TRUE,,,,,,,CLR,,,,,,,,VFR,,,,,,,,,,,,METAR,364.0
KMKG 271817Z 30009KT 2SM BR BKN007 OVC014 06/04 A2994 RMK AO2 SFC VIS 5 T00610044,KMKG,2018-03-27T18:17:00Z,43.17,-86.23,6.1,4.4,300,9,,2.0,29.940945,,,,TRUE,,,,,,BR,BKN,700,OVC,1400,,,,,IFR,,,,,,,,,,,,METAR,191.0
KHAO 271817Z AUTO 21007KT 6SM -RA BR OVC014 12/11 A3010 RMK AO2 RAB1754 P0000 T01220111,KHAO,2018-03-27T18:17:00Z,39.37,-84.52,12.2,11.1,210,7,,6.0,30.100393,,,TRUE,TRUE,,,,,,-RA BR,OVC,1400,,,,,,,MVFR,,,,,,0.005,,,,,,METAR,188.0
KSKA 271817Z 20014G19KT 10SM BKN018 OVC039 06/05 A3012 RMK AO2A CIG 014 RWY05 SLP218 $,KSKA,2018-03-27T18:17:00Z,47.62,-117.65,6.0,5.0,200,14,19,10.0,30.121063,1021.8,,,TRUE,TRUE,,,,,,BKN,1800,OVC,3900,,,,,MVFR,,,,,,,,,,,,SPECI,750.0
CYPQ 271817Z AUTO 14011G17KT 9SM -RA OVC024 02/00 A3009 RMK SLP200,CYPQ,2018-03-27T18:17:00Z,44.22,-78.37,2.0,0.0,140,11,17,9.0,30.088583,1020.0,,TRUE,,,,,,,-RA,OVC,2400,,,,,,,MVFR,,,,,,,,,,,,SPECI,191.0
CYXR 271817Z AUTO 13014KT 2SM -SN BKN005 OVC012 00/00 A2990 RMK VIS VRB 1 1/2-3 ICG SLP139,CYXR,2018-03-27T18:17:00Z,47.7,-79.83,0.0,0.0,130,14,,2.0,29.899607,1013.9,,TRUE,,,,,,,-SN,BKN,500,OVC,1200,,,,,IFR,,,,,,,,,,,,SPECI,243.0
CBBC 271817Z AUTO VRB04KT 7SM -RA SCT015 BKN019 BKN027 OVC036 07/05 A3017 RMK SLP221,CBBC,2018-03-27T18:17:00Z,52.18,-128.15,7.0,5.0,0,4,,7.0,30.171259,1022.1,,TRUE,,,,,,,-RA,SCT,1500,BKN,1900,BKN,2700,OVC,3600,MVFR,,,,,,,,,,,,SPECI,43.0
CYQA 271817Z AUTO /////KT 4SM -RA BR BKN009 OVC017 01/M00 A3000 RMK WND MISG SLP171,CYQA,2018-03-27T18:17:00Z,44.97,-79.28,1.0,0.0,,,,4.0,30.0,1017.1,,TRUE,,,,,,,-RA BR,BKN,900,OVC,1700,,,,,IFR,,,,,,,,,,,,SPECI,282.0
KAMN 271817Z AUTO 24008KT 2 1/2SM BR OVC006 10/10 A2988 RMK AO2 T01040104,KAMN,2018-03-27T18:17:00Z,43.32,-84.68,10.4,10.4,240,8,,2.5,29.878937,,,TRUE,TRUE,,,,,,BR,OVC,600,,,,,,,IFR,,,,,,,,,,,,METAR,230.0
KAFJ 271817Z AUTO 19008KT 10SM OVC010 08/07 A3017 RMK AO2,KAFJ,2018-03-27T18:17:00Z,40.12,-80.27,8.0,7.0,190,8,,10.0,30.171259,,,TRUE,TRUE,,,,,,,OVC,1000,,,,,,,MVFR,,,,,,,,,,,,METAR,361.0
EBDT 271817Z AUTO 18006KT 2000 -RA SCT002/// BKN004/// OVC006/// 07/06 Q1005 AMB,EBDT,2018-03-27T18:17:00Z,51.02,5.07,7.0,6.0,180,6,,1.24,29.675198,,,TRUE,,,,,,,-RA,SCT,200,BKN,400,OVC,600,,,LIFR,,,,,,,,,,,,METAR,54.0
KTBR 271817Z AUTO 07006KT 10SM OVC036 18/08 A3037 RMK AO2,KTBR,2018-03-27T18:17:00Z,32.48,-81.73,18.0,8.0,70,6,,10.0,30.369095,,,TRUE,TRUE,,,,,,,OVC,3600,,,,,,,VFR,,,,,,,,,,,,SPECI,57.0
K2W6 271817Z AUTO 06006KT 10SM BKN075 BKN120 07/M01 A3046 RMK AO1,K2W6,2018-03-27T18:17:00Z,38.32,-76.55,7.0,-1.0,60,6,,10.0,30.46063,,,TRUE,TRUE,,,,,,,BKN,7500,BKN,12000,,,,,VFR,,,,,,,,,,,,SPECI,44.0
K5R8 271817Z AUTO 14014G21KT 10SM SCT028 BKN060 25/18 A3008 RMK AO2,K5R8,2018-03-27T18:17:00Z,30.43,-93.47,25.0,18.0,140,14,21,10.0,30.079725,,,TRUE,TRUE,,,,,,,SCT,2800,BKN,6000,,,,,VFR,,,,,,,,,,,,METAR,24.0
PAKH 271817Z AUTO 10SM SCT024 SCT030 SCT060 04/01 A2986 RMK AO2 $,PAKH,2018-03-27T18:17:00Z,56.93,-154.18,4.0,1.0,,,,10.0,29.861221,,,TRUE,TRUE,TRUE,,,,,,SCT,2400,SCT,3000,SCT,6000,,,VFR,,,,,,,,,,,,SPECI,14.0
KSLG 271817Z AUTO 04008KT 10SM -RA OVC007 13/12 A3002 RMK AO2 CIG 005V009 P0000,KSLG,2018-03-27T18:17:00Z,36.2,-94.47,13.0,12.0,40,8,,10.0,30.02067,,,TRUE,TRUE,,,,,,-RA,OVC,700,,,,,,,IFR,,,,,,0.005,,,,,,METAR,300.0
KFFO 271816Z 20010KT 2SM -RA BR OVC004 11/11 A3007 RMK AO2A CIG 004V006 SLP188 $,KFFO,2018-03-27T18:16:00Z,39.82,-84.03,11.0,11.0,200,10,,2.0,30.070866,1018.8,,,TRUE,TRUE,,,,,-RA BR,OVC,400,,,,,,,LIFR,,,,,,,,,,,,SPECI,251.0
KGVE 271816Z AUTO 21005KT 10SM BKN009 OVC015 03/03 A3042 RMK AO1 P0001,KGVE,2018-03-27T18:16:00Z,38.15,-78.17,3.0,3.0,210,5,,10.0,30.41929,,,TRUE,TRUE,,,,,,,BKN,900,OVC,1500,,,,,IFR,,,,,,0.01,,,,,,METAR,138.0
KLCH 271816Z 17011G20KT 10SM BKN029 BKN036 OVC048 27/19 A3009 RMK AO2 T02670189,KLCH,2018-03-27T18:16:00Z,30.13,-93.22,26.7,18.9,170,11,20,10.0,30.088583,,,,TRUE,,,,,,,BKN,2900,BKN,3600,OVC,4800,,,MVFR,,,,,,,,,,,,METAR,4.0
KJEF 271816Z 35006KT 7SM -RA FEW007 BKN010 OVC019 08/07 A3008 RMK AO2 P0002 T00830067,KJEF,2018-03-27T18:16:00Z,38.6,-92.15,8.3,6.7,350,6,,7.0,30.079725,,,,TRUE,,,,,,-RA,FEW,700,BKN,1000,OVC,1900,,,MVFR,,,,,,0.02,,,,,,METAR,168.0
KAMA 271816Z 03018KT 2SM BR OVC007 04/03 A3012 RMK AO2 SFC VIS 3 T00440033,KAMA,2018-03-27T18:16:00Z,35.22,-101.72,4.4,3.3,30,18,,2.0,30.121063,,,,TRUE,,,,,,BR,OVC,700,,,,,,,IFR,,,,,,,,,,,,METAR,1093.0
KJES 271816Z AUTO 08009KT 10SM SCT029 OVC034 22/14 A3034 RMK AO2,KJES,2018-03-27T18:16:00Z,31.55,-81.88,22.0,14.0,80,9,,10.0,30.339567,,,TRUE,TRUE,,,,,,,SCT,2900,OVC,3400,,,,,VFR,,,,,,,,,,,,METAR,33.0
KCBE 271816Z AUTO 15005KT 7SM OVC012 03/02 A3037 RMK AO1,KCBE,2018-03-27T18:16:00Z,39.62,-78.77,3.0,2.0,150,5,,7.0,30.369095,,,TRUE,TRUE,,,,,,,OVC,1200,,,,,,,MVFR,,,,,,,,,,,,SPECI,236.0
K40B 271816Z AUTO VRB03G14KT 08/M14 A3039 RMK AO1 SLP322 T00821142 10079 21117 58043,K40B,2018-03-27T18:16:00Z,46.62,-69.52,8.2,-14.2,0,3,14,,30.389763,1032.2,,TRUE,TRUE,,,,,,,,,,,,,,,,-4.3,7.9,-11.7,,,,,,,,,METAR,314.0
KQDG 271816Z AUTO 00000KT 1000 M SCT008 00/ A2996 RMK AO2 SLP148 PWINO FZRANO $,KQDG,2018-03-27T18:16:00Z,,,0.0,,0,0,,0.62,29.958662,1014.8,,TRUE,TRUE,TRUE,,,TRUE,TRUE,,SCT,800,,,,,,,LIFR,,,,,,,,,,,,SPECI,
KOFF 271816Z AUTO 00000KT 10SM BKN021 07/02 A3015 RMK AO2 SLP221 $,KOFF,2018-03-27T18:16:00Z,41.12,-95.92,7.0,2.0,0,0,,10.0,30.15059,1022.1,,TRUE,TRUE,TRUE,,,,,,BKN,2100,,,,,,,MVFR,,,,,,,,,,,,SPECI,319.0
KOZR 271816Z AUTO 14007KT 10SM BKN030 21/14 A3028 RMK AO2 SLP255,KOZR,2018-03-27T18:16:00Z,31.28,-85.72,21.0,14.0,140,7,,10.0,30.280512,1025.5,,TRUE,TRUE,,,,,,,BKN,3000,,,,,,,MVFR,,,,,,,,,,,,SPECI,93.0
KHEF 271816Z 23006KT 10SM -RA SCT026 BKN047 OVC055 06/02 A3044 RMK AO2 PNO $,KHEF,2018-03-27T18:16:00Z,38.72,-77.52,6.0,2.0,230,6,,10.0,30.43996,,,,TRUE,TRUE,,,,,-RA,SCT,2600,BKN,4700,OVC,5500,,,VFR,,,,,,,,,,,,METAR,59.0
KCVC 271816Z AUTO 08004KT 10SM OVC011 11/08 A3036 RMK AO2,KCVC,2018-03-27T18:16:00Z,33.63,-83.85,11.0,8.0,80,4,,10.0,30.360237,,,TRUE,TRUE,,,,,,,OVC,1100,,,,,,,MVFR,,,,,,,,,,,,METAR,247.0
PAKN 271816Z 17013KT 3/4SM R12/4000V5500FT -SN BR BKN009 OVC013 01/00 A2971 RMK AO2 P0001 T00110000,PAKN,2018-03-27T18:16:00Z,58.68,-156.65,1.1,0.0,170,13,,0.75,29.71063,,,,TRUE,,,,,,-SN BR,BKN,900,OVC,1300,,,,,LIFR,,,,,,0.01,,,,,,METAR,17.0
KSGR 271816Z 14019G24KT 10SM BKN029 OVC040 27/19 A3000 RMK AO2 T02670194,KSGR,2018-03-27T18:16:00Z,29.62,-95.65,26.7,19.4,140,19,24,10.0,30.0,,,,TRUE,,,,,,,BKN,2900,OVC,4000,,,,,MVFR,,,,,,,,,,,,METAR,2.0
KMUI 271816Z COR 15006KT 10SM -RA SCT048 BKN070 OVC100 05/M04 A3041 RMK AO2A RAB16 SLP306 COR 1819,KMUI,2018-03-27T18:16:00Z,40.42,-76.57,5.0,-4.0,150,6,,10.0,30.410433,1030.6,TRUE,,TRUE,,,,,,-RA,SCT,4800,BKN,7000,OVC,10000,,,VFR,,,,,,,,,,,,SPECI,149.0
KLKR 271815Z AUTO 09005KT 7SM BKN007 OVC012 08/07 A3042 RMK AO2,KLKR,2018-03-27T18:15:00Z,34.72,-80.85,8.0,7.0,90,5,,7.0,30.41929,,,TRUE,TRUE,,,,,,,BKN,700,OVC,1200,,,,,IFR,,,,,,,,,,,,SPECI,149.0
KDYB 271815Z AUTO 00000KT 10SM OVC018 13/06 A3041 RMK AO1,KDYB,2018-03-27T18:15:00Z,33.07,-80.28,13.0,6.0,0,0,,10.0,30.410433,,,TRUE,TRUE,,,,,,,OVC,1800,,,,,,,MVFR,,,,,,,,,,,,SPECI,18.0
KDYA 271815Z AUTO 09004KT 10SM 17/11 A3027 RMK AO2 T01730105,KDYA,2018-03-27T18:15:00Z,32.47,-87.95,17.3,10.5,90,4,,10.0,30.268702,,,TRUE,TRUE,,,,,,,,,,,,,,,,,,,,,,,,,,,SPECI,34.0
KD55 271815Z AUTO 22010KT 10SM CLR 04/02 A2987 RMK AO2,KD55,2018-03-27T18:15:00Z,48.75,-98.4,4.0,2.0,220,10,,10.0,29.870079,,,TRUE,TRUE,,,,,,,CLR,,,,,,,,VFR,,,,,,,,,,,,SPECI,491.0
KANK 271815Z AUTO 12012G17KT 10SM OVC060 01/M02 A3021 RMK AO1 T00141018,KANK,2018-03-27T18:15:00Z,38.53,-106.05,1.4,-1.8,120,12,17,10.0,30.209646,,,TRUE,TRUE,,,,,,,OVC,6000,,,,,,,VFR,,,,,,,,,,,,METAR,2293.0
K2J9 271815Z AUTO 18008G14KT 10SM OVC039 24/14 A3029 RMK AO2,K2J9,2018-03-27T18:15:00Z,30.6,-84.55,24.0,14.0,180,8,14,10.0,30.28937,,,TRUE,TRUE,,,,,,,OVC,3900,,,,,,,VFR,,,,,,,,,,,,SPECI,69.0
KIFA 271815Z AUTO 32013KT 10SM OVC011 02/00 A3012 RMK AO2 T00231002,KIFA,2018-03-27T18:15:00Z,42.47,-93.27,2.3,-0.2,320,13,,10.0,30.121063,,,TRUE,TRUE,,,,,,,OVC,1100,,,,,,,MVFR,,,,,,,,,,,,METAR,347.0
KGAF 271815Z AUTO 24009KT 9SM CLR 06/01 A2993 RMK AO2 PWINO,KGAF,2018-03-27T18:15:00Z,48.4,-97.37,6.0,1.0,240,9,,9.0,29.929134,,,TRUE,TRUE,,,,,TRUE,,CLR,,,,,,,,VFR,,,,,,,,,,,,METAR,252.0
KEKX 271815Z AUTO 21009G15KT 10SM SCT023 BKN044 OVC060 14/11 A3013 RMK AO2 T01390111,KEKX,2018-03-27T18:15:00Z,,,13.9,11.1,210,9,15,10.0,30.129921,,,TRUE,TRUE,,,,,,,SCT,2300,BKN,4400,OVC,6000,,,VFR,,,,,,,,,,,,METAR,
KC62 271815Z AUTO 24010G17KT 2SM DZ OVC005 11/11 A2997 RMK AO2 T01120112,KC62,2018-03-27T18:15:00Z,41.47,-85.25,11.2,11.2,240,10,17,2.0,29.970472,,,TRUE,TRUE,,,,,,DZ,OVC,500,,,,,,,IFR,,,,,,,,,,,,METAR,306.0
KBRY 271815Z AUTO 21008KT 10SM SCT025 SCT046 SCT055 14/11 A3012 RMK AO1,KBRY,2018-03-27T18:15:00Z,37.82,-85.5,14.0,11.0,210,8,,10.0,30.121063,,,TRUE,TRUE,,,,,,,SCT,2500,SCT,4600,SCT,5500,,,VFR,,,,,,,,,,,,METAR,204.0
K2V5 271815Z AUTO 09004KT 10SM CLR 10/M06 A3016 RMK AO2,K2V5,2018-03-27T18:15:00Z,40.1,-102.25,10.0,-6.0,90,4,,10.0,30.159449,,,TRUE,TRUE,,,,,,,CLR,,,,,,,,VFR,,,,,,,,,,,,METAR,1118.0
K1P1 271815Z AUTO 10006KT 10SM CLR 08/M15 A3043 RMK AO2 T00801150,K1P1,2018-03-27T18:15:00Z,43.78,-71.75,8.0,-15.0,100,6,,10.0,30.431103,,,TRUE,TRUE,,,,,,,CLR,,,,,,,,VFR,,,,,,,,,,,,METAR,154.0
KVDF 271815Z AUTO 09012G16KT 10SM CLR 27/12 A3025 RMK AO2,KVDF,2018-03-27T18:15:00Z,28.02,-82.33,27.0,12.0,90,12,16,10.0,30.250984,,,TRUE,TRUE,,,,,,,CLR,,,,,,,,VFR,,,,,,,,,,,,METAR,7.0
KSTF 271815Z AUTO 15010KT 10SM OVC048 18/12 A3025 RMK AO2,KSTF,2018-03-27T18:15:00Z,33.43,-88.85,18.0,12.0,150,10,,10.0,30.250984,,,TRUE,TRUE,,,,,,,OVC,4800,,,,,,,VFR,,,,,,,,,,,,METAR,102.0
KRID 271815Z AUTO 22012KT 2SM BR OVC005 10/10 A3008 RMK AO2,KRID,2018-03-27T18:15:00Z,39.75,-84.85,10.0,10.0,220,12,,2.0,30.079725,,,TRUE,TRUE,,,,,,BR,OVC,500,,,,,,,IFR,,,,,,,,,,,,METAR,348.0
KLRY 271815Z AUTO 02009KT 10SM SCT015 BKN090 07/03 A3014 RMK AO2,KLRY,2018-03-27T18:15:00Z,38.62,-94.35,7.0,3.0,20,9,,10.0,30.138779,,,TRUE,TRUE,,,,,,,SCT,1500,BKN,9000,,,,,VFR,,,,,,,,,,,,METAR,279.0
KHZE 271815Z AUTO 26011KT 10SM CLR 10/M02 A2993 RMK AO2,KHZE,2018-03-27T18:15:00Z,47.28,-101.58,10.0,-2.0,260,11,,10.0,29.929134,,,TRUE,TRUE,,,,,,,CLR,,,,,,,,VFR,,,,,,,,,,,,METAR,553.0
KGPH 271815Z AUTO 36011KT 10SM OVC018 06/02 A3013 RMK AO2,KGPH,2018-03-27T18:15:00Z,39.33,-94.32,6.0,2.0,360,11,,10.0,30.129921,,,TRUE,TRUE,,,,,,,OVC,1800,,,,,,,MVFR,,,,,,,,,,,,METAR,235.0
KDEH 271815Z AUTO 31009KT 270V330 9SM OVC013 03/01 A3006 RMK AO2,KDEH,2018-03-27T18:15:00Z,43.27,-91.72,3.0,1.0,310,9,,9.0,30.059055,,,TRUE,TRUE,,,,,,,OVC,1300,,,,,,,MVFR,,,,,,,,,,,,METAR,353.0
KCKI 271815Z AUTO 01003KT 5SM BR BKN015 OVC033 08/06 A3043 RMK AO2,KCKI,2018-03-27T18:15:00Z,33.72,-79.85,8.0,6.0,10,3,,5.0,30.431103,,,TRUE,TRUE,,,,,,BR,BKN,1500,OVC,3300,,,,,MVFR,,,,,,,,,,,,METAR,21.0
K96D 271815Z AUTO 25006KT 10SM CLR 07/M00 A2987 RMK AO2,K96D,2018-03-27T18:15:00Z,48.93,-97.9,7.0,0.0,250,6,,10.0,29.870079,,,TRUE,TRUE,,,,,,,CLR,,,,,,,,VFR,,,,,,,,,,,,METAR,290.0
K2C8 271815Z AUTO 22005KT 07/M02 A2988 RMK AO2 TSNO,K2C8,2018-03-27T18:15:00Z,48.78,-97.63,7.0,-2.0,220,5,,,29.878937,,,TRUE,TRUE,,,TRUE,,,,,,,,,,,,,,,,,,,,,,,,METAR,272.0
KSPA 271815Z AUTO 00000KT 10SM OVC026 10/02 A3041 RMK AO2,KSPA,2018-03-27T18:15:00Z,34.92,-81.93,10.0,2.0,0,0,,10.0,30.410433,,,TRUE,TRUE,,,,,,,OVC,2600,,,,,,,MVFR,,,,,,,,,,,,SPECI,303.0
KS32 271815Z AUTO 26012KT 10SM CLR 03/M00 A2994 RMK AO2,KS32,2018-03-27T18:15:00Z,47.42,-98.1,3.0,0.0,260,12,,10.0,29.940945,,,TRUE,TRUE,,,,,,,CLR,,,,,,,,VFR,,,,,,,,,,,,SPECI,684.0
KRAW 271815Z AUTO 35010KT 10SM -RA OVC010 A3010 RMK AO2,KRAW,2018-03-27T18:15:00Z,38.35,-93.35,,,350,10,,10.0,30.100393,,,TRUE,TRUE,,,,,,-RA,OVC,1000,,,,,,,MVFR,,,,,,,,,,,,SPECI,285.0
KLUX 271815Z AUTO 03003KT 10SM OVC014 09/05 A3041 RMK AO2,KLUX,2018-03-27T18:15:00Z,34.5,-81.95,9.0,5.0,30,3,,10.0,30.410433,,,TRUE,TRUE,,,,,,,OVC,1400,,,,,,,MVFR,,,,,,,,,,,,SPECI,213.0
KLQK 271815Z AUTO 01003KT 10SM OVC026 11/04 A3038 RMK AO2 T01100040,KLQK,2018-03-27T18:15:00Z,34.82,-82.7,11.0,4.0,10,3,,10.0,30.380905,,,TRUE,TRUE,,,,,,,OVC,2600,,,,,,,MVFR,,,,,,,,,,,,SPECI,309.0
KDCM 271815Z AUTO 00000KT 10SM OVC019 10/03 A3042 RMK AO2,KDCM,2018-03-27T18:15:00Z,34.78,-81.2,10.0,3.0,0,0,,10.0,30.41929,,,TRUE,TRUE,,,,,,,OVC,1900,,,,,,,MVFR,,,,,,,,,,,,SPECI,200.0
K20U 271815Z AUTO 23013G18KT 10SM CLR 06/M04 A2994 RMK AO2,K20U,2018-03-27T18:15:00Z,46.93,-103.98,6.0,-4.0,230,13,18,10.0,29.940945,,,TRUE,TRUE,,,,,,,CLR,,,,,,,,VFR,,,,,,,,,,,,SPECI,840.0
K5H4 271815Z AUTO 24012KT 10SM CLR 02/00 A2993 RMK AO2,K5H4,2018-03-27T18:15:00Z,47.78,-99.93,2.0,0.0,240,12,,10.0,29.929134,,,TRUE,TRUE,,,,,,,CLR,,,,,,,,VFR,,,,,,,,,,,,SPECI,490.0
K4I3 271815Z AUTO 19009KT 5SM BR OVC006 08/08 A3009 RMK AO2,K4I3,2018-03-27T18:15:00Z,40.33,-82.53,8.0,8.0,190,9,,5.0,30.088583,,,TRUE,TRUE,,,,,,BR,OVC,600,,,,,,,IFR,,,,,,,,,,,,SPECI,363.0
K3T5 271815Z AUTO 14010G16KT 10SM BKN035 BKN065 OVC075 28/19 A2996 RMK AO2 T02750194,K3T5,2018-03-27T18:15:00Z,29.9,-96.95,27.5,19.4,140,10,16,10.0,29.958662,,,TRUE,TRUE,,,,,,,BKN,3500,BKN,6500,OVC,7500,,,VFR,,,,,,,,,,,,METAR,99.0
K33V 271815Z AUTO 14006KT 10SM CLR 02/M11 A3009 RMK AO1,K33V,2018-03-27T18:15:00Z,40.75,-106.28,2.0,-11.0,140,6,,10.0,30.088583,,,TRUE,TRUE,,,,,,,CLR,,,,,,,,VFR,,,,,,,,,,,,METAR,2484.0
K28J 271815Z AUTO 12011G15KT 10SM BKN046 23/13 A3031 RMK AO2,K28J,2018-03-27T18:15:00Z,29.65,-81.58,23.0,13.0,120,11,15,10.0,30.31004,,,TRUE,TRUE,,,,,,,BKN,4600,,,,,,,VFR,,,,,,,,,,,,SPECI,15.0
K27K 271815Z AUTO 22011G21KT 10SM OVC024 14/10 A3013 RMK AO1,K27K,2018-03-27T18:15:00Z,38.23,-84.43,14.0,10.0,220,11,21,10.0,30.129921,,,TRUE,TRUE,,,,,,,OVC,2400,,,,,,,MVFR,,,,,,,,,,,,SPECI,289.0
K14Y 271815Z AUTO 20006KT 5SM HZ CLR 04/M01 A3003 RMK AO2,K14Y,2018-03-27T18:15:00Z,45.9,-94.87,4.0,-1.0,200,6,,5.0,30.029528,,,TRUE,TRUE,,,,,,HZ,CLR,,,,,,,,MVFR,,,,,,,,,,,,SPECI,406.0
KVTI 271815Z AUTO 31007KT 10SM OVC013 03/00 A3011 RMK AO2 T00330000,KVTI,2018-03-27T18:15:00Z,42.22,-92.02,3.3,0.0,310,7,,10.0,30.109253,,,TRUE,TRUE,,,,,,,OVC,1300,,,,,,,MVFR,,,,,,,,,,,,SPECI,255.0
KVNC 271815Z AUTO 09015G20KT 10SM CLR 28/13 A3021 RMK AO2,KVNC,2018-03-27T18:15:00Z,27.07,-82.43,28.0,13.0,90,15,20,10.0,30.209646,,,TRUE,TRUE,,,,,,,CLR,,,,,,,,VFR,,,,,,,,,,,,SPECI,6.0
KPTS 271815Z AUTO 02010KT 10SM -DZ OVC008 09/09 A3007 RMK AO2 T00910085,KPTS,2018-03-27T18:15:00Z,37.45,-94.73,9.1,8.5,20,10,,10.0,30.070866,,,TRUE,TRUE,,,,,,-DZ,OVC,800,,,,,,,IFR,,,,,,,,,,,,SPECI,290.0
KPEA 271815Z AUTO 32009KT 10SM OVC012 04/01 A3014 RMK AO2 T00370012,KPEA,2018-03-27T18:15:00Z,41.4,-92.95,3.7,1.2,320,9,,10.0,30.138779,,,TRUE,TRUE,,,,,,,OVC,1200,,,,,,,MVFR,,,,,,,,,,,,SPECI,270.0
KMNI 271815Z 10SM OVC017 10/00 A3042 RMK AO2,KMNI,2018-03-27T18:15:00Z,33.58,-80.22,10.0,0.0,,,,10.0,30.41929,,,,TRUE,,,,,,,OVC,1700,,,,,,,MVFR,,,,,,,,,,,,SPECI,32.0
KMAO 271815Z AUTO 04005KT 7SM OVC025 08/03 A3044 RMK AO2,KMAO,2018-03-27T18:15:00Z,34.18,-79.33,8.0,3.0,40,5,,7.0,30.43996,,,TRUE,TRUE,,,,,,,OVC,2500,,,,,,,MVFR,,,,,,,,,,,,SPECI,28.0
KM25 271815Z AUTO 18012G21KT 10SM SCT048 OVC050 17/13 A3008 RMK AO2 PWINO,KM25,2018-03-27T18:15:00Z,36.77,-88.58,17.0,13.0,180,12,21,10.0,30.079725,,,TRUE,TRUE,,,,,TRUE,,SCT,4800,OVC,5000,,,,,VFR,,,,,,,,,,,,SPECI,160.0
KBYL 271815Z AUTO 18010KT 140V220 10SM FEW031 BKN044 17/10 A3020 RMK AO1,KBYL,2018-03-27T18:15:00Z,36.8,-84.2,17.0,10.0,180,10,,10.0,30.200787,,,TRUE,TRUE,,,,,,,FEW,3100,BKN,4400,,,,,VFR,,,,,,,,,,,,METAR,359.0
KHAE 271815Z AUTO 34006KT 10SM SCT011 BKN045 06/02 A3010 RMK AO2,KHAE,2018-03-27T18:15:00Z,39.73,-91.45,6.0,2.0,340,6,,10.0,30.100393,,,TRUE,TRUE,,,,,,,SCT,1100,BKN,4500,,,,,VFR,,,,,,,,,,,,METAR,234.0
KFYG 271815Z AUTO 35003KT 2 1/2SM RA CLR 09/09 A3007 RMK AO2 P0004,KFYG,2018-03-27T18:15:00Z,38.58,-91.0,9.0,9.0,350,3,,2.5,30.070866,,,TRUE,TRUE,,,,,,RA,CLR,,,,,,,,IFR,,,,,,0.04,,,,,,METAR,149.0
KTVK 271815Z AUTO 30009KT 10SM 04/04 A3013 RMK AO2,KTVK,2018-03-27T18:15:00Z,40.68,-92.9,4.0,4.0,300,9,,10.0,30.129921,,,TRUE,TRUE,,,,,,,,,,,,,,,,,,,,,,,,,,,SPECI,314.0
KINF 271815Z AUTO 11011G17KT 070V130 10SM CLR 26/13 A3027 RMK AO2,KINF,2018-03-27T18:15:00Z,28.8,-82.32,26.0,13.0,110,11,17,10.0,30.268702,,,TRUE,TRUE,,,,,,,CLR,,,,,,,,VFR,,,,,,,,,,,,METAR,15.0
KHSP 271815Z AUTO 00000KT M1/4SM -SN OVC002 A3026 RMK AO2,KHSP,2018-03-27T18:15:00Z,37.95,-79.82,,,0,0,,0.25,30.259842,,,TRUE,TRUE,,,,,,-SN,OVC,200,,,,,,,LIFR,,,,,,,,,,,,METAR,1156.0
KHQG 271815Z AUTO 03012G20KT 10SM BKN028 BKN034 BKN060 08/00 A3016 RMK AO2 T00821005,KHQG,2018-03-27T18:15:00Z,37.17,-101.37,8.2,-0.5,30,12,20,10.0,30.159449,,,TRUE,TRUE,,,,,,,BKN,2800,BKN,3400,BKN,6000,,,MVFR,,,,,,,,,,,,METAR,956.0
KHQG 271815Z AUTO 03012G20KT 10SM BKN028 BKN034 BKN060 08/00 A3016 RMK AO2 T00821005,KHQG,2018-03-27T18:15:00Z,37.17,-101.37,8.2,-0.5,30,12,20,10.0,30.159449,,,TRUE,TRUE,,,,,,,BKN,2800,BKN,3400,BKN,6000,,,MVFR,,,,,,,,,,,,METAR,956.0
KEMV 271815Z AUTO 00000KT 3SM +DZ OVC035 05/02 A3047 RMK AO2,KEMV,2018-03-27T18:15:00Z,36.68,-77.48,5.0,2.0,0,0,,3.0,30.469488,,,TRUE,TRUE,,,,,,+DZ,OVC,3500,,,,,,,MVFR,,,,,,,,,,,,METAR,39.0
KDTA 271815Z AUTO 33004KT 10SM CLR 05/M08 A3025 RMK AO1,KDTA,2018-03-27T18:15:00Z,39.38,-112.5,5.0,-8.0,330,4,,10.0,30.250984,,,TRUE,TRUE,,,,,,,CLR,,,,,,,,VFR,,,,,,,,,,,,SPECI,1402.0
KCPK 271815Z AUTO 00000KT 10SM OVC060 10/00 A3044 RMK AO2 T01021002,KCPK,2018-03-27T18:15:00Z,36.67,-76.32,10.2,-0.2,0,0,,10.0,30.43996,,,TRUE,TRUE,,,,,,,OVC,6000,,,,,,,VFR,,,,,,,,,,,,METAR,6.0
KMEV 271815Z AUTO 30005KT 10SM CLR 07/M08 A3039 RMK AO2,KMEV,2018-03-27T18:15:00Z,38.98,-119.75,7.0,-8.0,300,5,,10.0,30.389763,,,TRUE,TRUE,,,,,,,CLR,,,,,,,,VFR,,,,,,,,,,,,METAR,1439.0
KM91 271815Z AUTO 17014G22KT 10SM CLR 18/11 A3013 RMK A01,KM91,2018-03-27T18:15:00Z,36.53,-86.92,18.0,11.0,170,14,22,10.0,30.129921,,,TRUE,TRUE,,,,,,,CLR,,,,,,,,VFR,,,,,,,,,,,,METAR,215.0
KM75 271815Z AUTO 27008KT 10SM CLR 04/M01 A2975 RMK A01,KM75,2018-03-27T18:15:00Z,48.37,-107.92,4.0,-1.0,270,8,,10.0,29.749016,,,TRUE,TRUE,,,,,,,CLR,,,,,,,,VFR,,,,,,,,,,,,METAR,687.0
KM33 271815Z AUTO 17013G21KT 10SM FEW029 18/10 A3021 RMK A01,KM33,2018-03-27T18:15:00Z,36.38,-86.42,18.0,10.0,170,13,21,10.0,30.209646,,,TRUE,TRUE,,,,,,,FEW,2900,,,,,,,VFR,,,,,,,,,,,,METAR,178.0
KM08 271815Z AUTO 16014KT 10SM CLR 21/13 A3012 RMK A01,KM08,2018-03-27T18:15:00Z,35.22,-89.05,21.0,13.0,160,14,,10.0,30.121063,,,TRUE,TRUE,,,,,,,CLR,,,,,,,,VFR,,,,,,,,,,,,METAR,152.0
KM04 271815Z AUTO 19015KT 10SM CLR 22/14 A3008 RMK A01,KM04,2018-03-27T18:15:00Z,35.58,-89.58,22.0,14.0,190,15,,10.0,30.079725,,,TRUE,TRUE,,,,,,,CLR,,,,,,,,VFR,,,,,,,,,,,,METAR,85.0
KLXN 271815Z AUTO 35004KT 10SM CLR 10/M02 A3015 RMK AO2 T00981020,KLXN,2018-03-27T18:15:00Z,40.78,-99.77,9.8,-2.0,350,4,,10.0,30.15059,,,TRUE,TRUE,,,,,,,CLR,,,,,,,,VFR,,,,,,,,,,,,METAR,734.0
KLUD 271815Z AUTO 07004KT 10SM -RA SCT006 SCT012 17/16 A3004 RMK AO2 P0001 T01700160,KLUD,2018-03-27T18:15:00Z,33.25,-97.58,17.0,16.0,70,4,,10.0,30.041338,,,TRUE,TRUE,,,,,,-RA,SCT,600,SCT,1200,,,,,VFR,,,,,,0.01,,,,,,METAR,319.0
KLUA 271815Z AUTO 22010KT 10SM RA SCT009 SCT026 OVC042 03/02 A3037 RMK AO2,KLUA,2018-03-27T18:15:00Z,38.67,-78.5,3.0,2.0,220,10,,10.0,30.369095,,,TRUE,TRUE,,,,,,RA,SCT,900,SCT,2600,OVC,4200,,,VFR,,,,,,,,,,,,METAR,275.0
KLRU 271815Z AUTO 24014KT 10SM CLR 17/M07 A2997 RMK AO2 T01721073,KLRU,2018-03-27T18:15:00Z,32.27,-106.92,17.2,-7.3,240,14,,10.0,29.970472,,,TRUE,TRUE,,,,,,,CLR,,,,,,,,VFR,,,,,,,,,,,,METAR,1358.0
KLNN 271815Z AUTO 20010G17KT 10SM OVC011 07/06 A3004 RMK AO1 T00730060,KLNN,2018-03-27T18:15:00Z,41.67,-81.37,7.3,6.0,200,10,17,10.0,30.041338,,,TRUE,TRUE,,,,,,,OVC,1100,,,,,,,MVFR,,,,,,,,,,,,METAR,191.0
KLNC 271815Z AUTO 33012G19KT 10SM -DZ SCT006 BKN020 OVC032 18/17 A3003 RMK AO2 T01770165,KLNC,2018-03-27T18:15:00Z,32.58,-96.72,17.7,16.5,330,12,19,10.0,30.029528,,,TRUE,TRUE,,,,,,-DZ,SCT,600,BKN,2000,OVC,3200,,,MVFR,,,,,,,,,,,,METAR,153.0
KLKU 271815Z AUTO 20004KT 7SM -RA SCT009 BKN014 OVC050 03/02 A3048 RMK AO2 T00350022,KLKU,2018-03-27T18:15:00Z,38.02,-77.97,3.5,2.2,200,4,,7.0,30.481298,,,TRUE,TRUE,,,,,,-RA,SCT,900,BKN,1400,OVC,5000,,,MVFR,,,,,,,,,,,,METAR,150.0
KLHZ 271815Z AUTO 00000KT 7SM BKN008 BKN036 OVC048 04/03 A3047 RMK AO2,KLHZ,2018-03-27T18:15:00Z,36.02,-78.33,4.0,3.0,0,0,,7.0,30.469488,,,TRUE,TRUE,,,,,,,BKN,800,BKN,3600,OVC,4800,,,IFR,,,,,,,,,,,,METAR,113.0
KLHM 271815Z AUTO 00000KT 10SM CLR 16/05 A3024 RMK AO1,KLHM,2018-03-27T18:15:00Z,38.92,-121.35,16.0,5.0,0,0,,10.0,30.239174,,,TRUE,TRUE,,,,,,,CLR,,,,,,,,VFR,,,,,,,,,,,,METAR,37.0
KLCQ 271815Z AUTO 10006KT 10SM SCT035 OVC044 22/13 A3029 RMK AO2,KLCQ,2018-03-27T18:15:00Z,30.18,-82.58,22.0,13.0,100,6,,10.0,30.28937,,,TRUE,TRUE,,,,,,,SCT,3500,OVC,4400,,,,,VFR,,,,,,,,,,,,METAR,61.0
KLCG 271815Z AUTO 34007KT 10SM CLR 10/00 A3014 RMK AO2 T00951003,KLCG,2018-03-27T18:15:00Z,42.25,-96.98,9.5,-0.3,340,7,,10.0,30.138779,,,TRUE,TRUE,,,,,,,CLR,,,,,,,,VFR,,,,,,,,,,,,METAR,436.0
KL35 271815Z AUTO 06010G26KT 10SM CLR 02/M15 A3018 RMK AO2,KL35,2018-03-27T18:15:00Z,34.27,-116.85,2.0,-15.0,60,10,26,10.0,30.180119,,,TRUE,TRUE,,,,,,,CLR,,,,,,,,VFR,,,,,,,,,,,,METAR,2059.0
KJYR 271815Z AUTO 00000KT 10SM CLR 10/00 A3015 RMK AO2,KJYR,2018-03-27T18:15:00Z,40.9,-97.62,10.0,0.0,0,0,,10.0,30.15059,,,TRUE,TRUE,,,,,,,CLR,,,,,,,,VFR,,,,,,,,,,,,METAR,509.0
KJWY 271815Z AUTO 28006KT 5SM RA SCT004 BKN008 OVC026 17/17 A3005 RMK AO2 P0005 T01700170,KJWY,2018-03-27T18:15:00Z,32.45,-96.92,17.0,17.0,280,6,,5.0,30.050198,,,TRUE,TRUE,,,,,,RA,SCT,400,BKN,800,OVC,2600,,,IFR,,,,,,0.05,,,,,,METAR,217.0
KJWN 271815Z AUTO 18012G17KT 10SM CLR 18/11 A3016 RMK A01,KJWN,2018-03-27T18:15:00Z,36.18,-86.88,18.0,11.0,180,12,17,10.0,30.159449,,,TRUE,TRUE,,,,,,,CLR,,,,,,,,VFR,,,,,,,,,,,,METAR,151.0
KJWG 271815Z AUTO 36014G21KT 10SM OVC015 08/06 A3013 RMK AO2 T00800064,KJWG,2018-03-27T18:15:00Z,35.87,-98.42,8.0,6.4,360,14,21,10.0,30.129921,,,TRUE,TRUE,,,,,,,OVC,1500,,,,,,,MVFR,,,,,,,,,,,,METAR,472.0
KJTC 271815Z AUTO 00000KT 10SM SCT033 SCT038 BKN095 04/M01 A3004 RMK AO2,KJTC,2018-03-27T18:15:00Z,34.13,-109.32,4.0,-1.0,0,0,,10.0,30.041338,,,TRUE,TRUE,,,,,,,SCT,3300,SCT,3800,BKN,9500,,,VFR,,,,,,,,,,,,METAR,2150.0
KJOT 271815Z AUTO 28009KT 10SM OVC013 10/07 A2999 RMK AO2 T00950071,KJOT,2018-03-27T18:15:00Z,41.52,-88.18,9.5,7.1,280,9,,10.0,29.991142,,,TRUE,TRUE,,,,,,,OVC,1300,,,,,,,MVFR,,,,,,,,,,,,METAR,177.0
KJKA 271815Z AUTO 10013G20KT 7SM OVC011 22/18 A3025 RMK AO2 T02170180,KJKA,2018-03-27T18:15:00Z,30.28,-87.67,21.7,18.0,100,13,20,7.0,30.250984,,,TRUE,TRUE,,,,,,,OVC,1100,,,,,,,MVFR,,,,,,,,,,,,METAR,5.0
KJGG 271815Z AUTO 00000KT 10SM OVC055 10/02 A3045 RMK AO1,KJGG,2018-03-27T18:15:00Z,37.23,-76.72,10.0,2.0,0,0,,10.0,30.448818,,,TRUE,TRUE,,,,,,,OVC,5500,,,,,,,VFR,,,,,,,,,,,,METAR,15.0
KJFZ 271815Z AUTO 23007G19KT 10SM SCT026 SCT042 BKN048 15/07 A3025 RMK AO2 T01500074,KJFZ,2018-03-27T18:15:00Z,37.07,-81.8,15.0,7.4,230,7,19,10.0,30.250984,,,TRUE,TRUE,,,,,,,SCT,2600,SCT,4200,BKN,4800,,,VFR,,,,,,,,,,,,METAR,809.0
KJDD 271815Z AUTO 18010G14KT 10SM BKN039 BKN049 OVC060 25/17 A2999 RMK AO2,KJDD,2018-03-27T18:15:00Z,32.75,-95.5,25.0,17.0,180,10,14,10.0,29.991142,,,TRUE,TRUE,,,,,,,BKN,3900,BKN,4900,OVC,6000,,,VFR,,,,,,,,,,,,METAR,132.0
KJCA 271815Z AUTO 06004KT 10SM OVC009 08/06 A3038 RMK AO2,KJCA,2018-03-27T18:15:00Z,34.18,-83.57,8.0,6.0,60,4,,10.0,30.380905,,,TRUE,TRUE,,,,,,,OVC,900,,,,,,,IFR,,,,,,,,,,,,METAR,290.0
KGKT 271815Z AUTO 23004KT 10SM FEW040 SCT049 BKN080 19/08 A3026 RMK A01,KGKT,2018-03-27T18:15:00Z,35.85,-83.53,19.0,8.0,230,4,,10.0,30.259842,,,TRUE,TRUE,,,,,,,FEW,4000,SCT,4900,BKN,8000,,,VFR,,,,,,,,,,,,METAR,309.0
KGHG 271815Z AUTO 36010KT 330V060 10SM CLR 05/M03 A3045 RMK AO2,KGHG,2018-03-27T18:15:00Z,42.1,-70.67,5.0,-3.0,360,10,,10.0,30.448818,,,TRUE,TRUE,,,,,,,CLR,,,,,,,,VFR,,,,,,,,,,,,METAR,4.0
KGDJ 271815Z AUTO 06003KT 10SM -RA SCT030 BKN049 OVC090 18/17 A3004 RMK AO2 LTG DSNT E AND SE P0001 T01830168,KGDJ,2018-03-27T18:15:00Z,32.45,-97.82,18.3,16.8,60,3,,10.0,30.041338,,,TRUE,TRUE,,,,,,-RA,SCT,3000,BKN,4900,OVC,9000,,,VFR,,,,,,0.01,,,,,,METAR,237.0
KFYM 271815Z AUTO 17015G20KT 10SM OVC018 14/09 A3025 RMK A01,KFYM,2018-03-27T18:15:00Z,35.07,-86.57,14.0,9.0,170,15,20,10.0,30.250984,,,TRUE,TRUE,,,,,,,OVC,1800,,,,,,,MVFR,,,,,,,,,,,,METAR,300.0
KFYJ 271815Z AUTO 00000KT 10SM CLR 08/00 A3046 RMK AO2 T00841001,KFYJ,2018-03-27T18:15:00Z,37.52,-76.77,8.4,-0.1,0,0,,10.0,30.46063,,,TRUE,TRUE,,,,,,,CLR,,,,,,,,VFR,,,,,,,,,,,,METAR,7.0
KFYE 271815Z AUTO 17017G25KT 10SM CLR 21/13 A3011 RMK A01,KFYE,2018-03-27T18:15:00Z,35.2,-89.38,21.0,13.0,170,17,25,10.0,30.109253,,,TRUE,TRUE,,,,,,,CLR,,,,,,,,VFR,,,,,,,,,,,,METAR,133.0
KFWC 271815Z AUTO 19004KT 2SM RA BKN003 BKN010 OVC038 13/13 A3004 RMK AO1 P0005 T01310131,KFWC,2018-03-27T18:15:00Z,38.38,-88.42,13.1,13.1,190,4,,2.0,30.041338,,,TRUE,TRUE,,,,,,RA,BKN,300,BKN,1000,OVC,3800,,,LIFR,,,,,,0.05,,,,,,METAR,133.0
KFVX 271815Z AUTO 00000KT 10SM -RA OVC009 A3044 RMK AO2 P0001,KFVX,2018-03-27T18:15:00Z,37.35,-78.42,,,0,0,,10.0,30.43996,,,TRUE,TRUE,,,,,,-RA,OVC,900,,,,,,,IFR,,,,,,0.01,,,,,,METAR,125.0
KFTN 271815Z AUTO 30007KT 10SM BKN024 OVC032 23/20 A2991 RMK A01,KFTN,2018-03-27T18:15:00Z,28.22,-100.02,23.0,20.0,300,7,,10.0,29.911417,,,TRUE,TRUE,,,,,,,BKN,2400,OVC,3200,,,,,MVFR,,,,,,,,,,,,METAR,236.0
KFOT 271815Z AUTO 30010KT 10SM CLR 11/08 A3042 RMK AO1,KFOT,2018-03-27T18:15:00Z,40.55,-124.13,11.0,8.0,300,10,,10.0,30.41929,,,TRUE,TRUE,,,,,,,CLR,,,,,,,,VFR,,,,,,,,,,,,METAR,120.0
KFKR 271815Z AUTO 22014G19KT 4SM BR OVC006 14/13 A3002 RMK AO2 T01380130,KFKR,2018-03-27T18:15:00Z,40.27,-86.57,13.8,13.0,220,14,19,4.0,30.02067,,,TRUE,TRUE,,,,,,BR,OVC,600,,,,,,,IFR,,,,,,,,,,,,METAR,262.0
KFET 271815Z AUTO 02005KT 10SM CLR 10/01 A3015 RMK AO2 T00960007,KFET,2018-03-27T18:15:00Z,41.45,-96.52,9.6,0.7,20,5,,10.0,30.15059,,,TRUE,TRUE,,,,,,,CLR,,,,,,,,VFR,,,,,,,,,,,,METAR,367.0
KFEP 271815Z AUTO 30012KT 10SM OVC015 07/03 A3003 RMK AO2 T00650031,KFEP,2018-03-27T18:15:00Z,42.25,-89.58,6.5,3.1,300,12,,10.0,30.029528,,,TRUE,TRUE,,,,,,,OVC,1500,,,,,,,MVFR,,,,,,,,,,,,METAR,262.0
KFCH 271815Z AUTO 13006G11KT 10SM CLR 14/03 A3026 RMK A01,KFCH,2018-03-27T18:15:00Z,36.72,-119.82,14.0,3.0,130,6,11,10.0,30.259842,,,TRUE,TRUE,,,,,,,CLR,,,,,,,,VFR,,,,,,,,,,,,METAR,85.0
KFBR 271815Z AUTO 28012G18KT 10SM CLR 03/M10 A3020 RMK AO2 T00331104,KFBR,2018-03-27T18:15:00Z,41.4,-110.4,3.3,-10.4,280,12,18,10.0,30.200787,,,TRUE,TRUE,,,,,,,CLR,,,,,,,,VFR,,,,,,,,,,,,METAR,2144.0
KF70 271815Z AUTO 36005KT 10SM CLR 18/M07 A3013 RMK AO1,KF70,2018-03-27T18:15:00Z,33.57,-117.13,18.0,-7.0,360,5,,10.0,30.129921,,,TRUE,TRUE,,,,,,,CLR,,,,,,,,VFR,,,,,,,,,,,,METAR,412.0
KF44 271815Z AUTO 19009G19KT 160V220 10SM BKN041 BKN048 OVC060 26/16 A2999 RMK AO2,KF44,2018-03-27T18:15:00Z,32.17,-95.83,26.0,16.0,190,9,19,10.0,29.991142,,,TRUE,TRUE,,,,,,,BKN,4100,BKN,4800,OVC,6000,,,VFR,,,,,,,,,,,,METAR,135.0
KF17 271815Z AUTO 17016G22KT 10SM SCT046 SCT055 27/15 A3003 RMK AO2 T02710150,KF17,2018-03-27T18:15:00Z,31.83,-94.15,27.1,15.0,170,16,22,10.0,30.029528,,,TRUE,TRUE,,,,,,,SCT,4600,SCT,5500,,,,,VFR,,,,,,,,,,,,METAR,97.0
KF05 271815Z AUTO 03010KT 10SM OVC010 12/09 A3008 RMK AO1 T01200085,KF05,2018-03-27T18:15:00Z,34.23,-99.28,12.0,8.5,30,10,,10.0,30.079725,,,TRUE,TRUE,,,,,,,OVC,1000,,,,,,,MVFR,,,,,,,,,,,,METAR,386.0
KF00 271815Z AUTO 00000KT 10SM -RA SCT004 BKN023 OVC090 17/17 A3002 RMK AO2 P0001 T01720168,KF00,2018-03-27T18:15:00Z,33.62,-96.18,17.2,16.8,0,0,,10.0,30.02067,,,TRUE,TRUE,,,,,,-RA,SCT,400,BKN,2300,OVC,9000,,,MVFR,,,,,,0.01,,,,,,METAR,188.0
KEZM 271815Z AUTO 13008KT 10SM OVC028 20/07 A3037 RMK AO2 T02020072,KEZM,2018-03-27T18:15:00Z,32.22,-83.13,20.2,7.2,130,8,,10.0,30.369095,,,TRUE,TRUE,,,,,,,OVC,2800,,,,,,,MVFR,,,,,,,,,,,,METAR,93.0
KEVU 271815Z AUTO 33007KT 10SM OVC017 06/01 A3014 RMK AO2,KEVU,2018-03-27T18:15:00Z,40.35,-94.92,6.0,1.0,330,7,,10.0,30.138779,,,TRUE,TRUE,,,,,,,OVC,1700,,,,,,,MVFR,,,,,,,,,,,,METAR,349.0
KETN 271815Z AUTO 08007KT 10SM -RA BKN009 BKN041 OVC110 17/15 A3002 RMK AO2 T01650154,KETN,2018-03-27T18:15:00Z,32.42,-98.82,16.5,15.4,80,7,,10.0,30.02067,,,TRUE,TRUE,,,,,,-RA,BKN,900,BKN,4100,OVC,11000,,,IFR,,,,,,,,,,,,METAR,446.0
KERV 271815Z AUTO 13003KT 7SM SCT034 OVC043 20/18 A2998 RMK AO2 T02010182,KERV,2018-03-27T18:15:00Z,29.98,-99.08,20.1,18.2,130,3,,7.0,29.97933,,,TRUE,TRUE,,,,,,,SCT,3400,OVC,4300,,,,,VFR,,,,,,,,,,,,METAR,510.0
KEOE 271815Z AUTO 04005KT 10SM OVC009 08/06 A3044 RMK AO2,KEOE,2018-03-27T18:15:00Z,34.32,-81.63,8.0,6.0,40,5,,10.0,30.43996,,,TRUE,TRUE,,,,,,,OVC,900,,,,,,,IFR,,,,,,,,,,,,METAR,174.0
KENL 271815Z AUTO 20010KT 7SM -RA OVC008 15/14 A3003 RMK AO2 T01450140,KENL,2018-03-27T18:15:00Z,38.52,-89.1,14.5,14.0,200,10,,7.0,30.029528,,,TRUE,TRUE,,,,,,-RA,OVC,800,,,,,,,IFR,,,,,,,,,,,,METAR,163.0
KELK 271815Z AUTO 03019KT 10SM OVC014 07/04 A3011 RMK AO2 T00720041,KELK,2018-03-27T18:15:00Z,35.43,-99.4,7.2,4.1,30,19,,10.0,30.109253,,,TRUE,TRUE,,,,,,,OVC,1400,,,,,,,MVFR,,,,,,,,,,,,METAR,610.0
KELA 271815Z AUTO 16014G21KT 10SM BKN034 BKN041 OVC050 27/20 A2998 RMK AO2 T02680199,KELA,2018-03-27T18:15:00Z,29.6,-96.32,26.8,19.9,160,14,21,10.0,29.97933,,,TRUE,TRUE,,,,,,,BKN,3400,BKN,4100,OVC,5000,,,VFR,,,,,,,,,,,,METAR,56.0
KEKS 271815Z AUTO 18016KT 10SM BKN049 05/M07 A3014 RMK AO2,KEKS,2018-03-27T18:15:00Z,45.27,-111.65,5.0,-7.0,180,16,,10.0,30.138779,,,TRUE,TRUE,,,,,,,BKN,4900,,,,,,,VFR,,,,,,,,,,,,METAR,1641.0
KEHA 271815Z AUTO 05012KT 10SM SCT026 09/02 A3016 RMK AO2 T00910023,KEHA,2018-03-27T18:15:00Z,37.0,-101.9,9.1,2.3,50,12,,10.0,30.159449,,,TRUE,TRUE,,,,,,,SCT,2600,,,,,,,VFR,,,,,,,,,,,,METAR,1099.0
KEFT 271815Z AUTO 30010G15KT 10SM OVC016 05/02 A3000 RMK AO2,KEFT,2018-03-27T18:15:00Z,42.62,-89.6,5.0,2.0,300,10,15,10.0,30.0,,,TRUE,TRUE,,,,,,,OVC,1600,,,,,,,MVFR,,,,,,,,,,,,METAR,331.0
KEDU 271815Z AUTO 36013G17KT 10SM CLR 18/03 A3026 RMK AO1,KEDU,2018-03-27T18:15:00Z,38.53,-121.78,18.0,3.0,360,13,17,10.0,30.259842,,,TRUE,TRUE,,,,,,,CLR,,,,,,,,VFR,,,,,,,,,,,,METAR,21.0
KEDN 271815Z AUTO 10005KT 10SM OVC026 20/14 A3028 RMK AO2 T02000140,KEDN,2018-03-27T18:15:00Z,31.3,-85.9,20.0,14.0,100,5,,10.0,30.280512,,,TRUE,TRUE,,,,,,,OVC,2600,,,,,,,MVFR,,,,,,,,,,,,METAR,110.0
KEBS 271815Z AUTO 32008KT 10SM OVC012 02/M00 A3012 RMK AO2,KEBS,2018-03-27T18:15:00Z,42.42,-93.87,2.0,0.0,320,8,,10.0,30.121063,,,TRUE,TRUE,,,,,,,OVC,1200,,,,,,,MVFR,,,,,,,,,,,,METAR,342.0
K8A3 271815Z AUTO 21014G26KT 10SM CLR 16/10 A3019 RMK A01,K8A3,2018-03-27T18:15:00Z,36.42,-85.32,16.0,10.0,210,14,26,10.0,30.188976,,,TRUE,TRUE,,,,,,,CLR,,,,,,,,VFR,,,,,,,,,,,,METAR,419.0
K7W4 271815Z AUTO 00000KT 10SM BKN009 BKN017 OVC047 04/03 A3045 RMK AO1 T00400031,K7W4,2018-03-27T18:15:00Z,37.97,-77.75,4.0,3.1,0,0,,10.0,30.448818,,,TRUE,TRUE,,,,,,,BKN,900,BKN,1700,OVC,4700,,,IFR,,,,,,,,,,,,METAR,106.0
K6S0 271815Z AUTO 26041G53KT 10SM CLR 08/M07 A2988 RMK A01,K6S0,2018-03-27T18:15:00Z,45.8,-109.97,8.0,-7.0,260,41,53,10.0,29.878937,,,TRUE,TRUE,,,,,,,CLR,,,,,,,,VFR,,,,,,,,,,,,METAR,1363.0
K6P9 271815Z AUTO 10008KT 10SM -RA BKN005 OVC039 16/16 A3003 RMK AO2 P0001 T01610160,K6P9,2018-03-27T18:15:00Z,32.43,-98.6,16.1,16.0,100,8,,10.0,30.029528,,,TRUE,TRUE,,,,,,-RA,BKN,500,OVC,3900,,,,,IFR,,,,,,0.01,,,,,,METAR,449.0
K6B0 271815Z AUTO 18010G17KT 10SM CLR 07/M11 A3035 RMK AO2 T00701110,K6B0,2018-03-27T18:15:00Z,43.98,-73.1,7.0,-11.0,180,10,17,10.0,30.351377,,,TRUE,TRUE,,,,,,,CLR,,,,,,,,VFR,,,,,,,,,,,,METAR,149.0
K6A1 271815Z AUTO 06003KT 10SM 18/10 A3033 RMK AO2 T01840096,K6A1,2018-03-27T18:15:00Z,32.57,-84.25,18.4,9.6,60,3,,10.0,30.33071,,,TRUE,TRUE,,,,,,,,,,,,,,,,,,,,,,,,,,,METAR,203.0
K65S 271815Z AUTO 19008G15KT 10SM UP BKN018 BKN024 03/02 A3004 RMK AO2 P0001,K65S,2018-03-27T18:15:00Z,48.73,-116.3,3.0,2.0,190,8,15,10.0,30.041338,,,TRUE,TRUE,,,,,,UP,BKN,1800,BKN,2400,,,,,MVFR,,,,,,0.01,,,,,,METAR,713.0
K5T9 271815Z AUTO 5SM BR OVC004 19/18 A2993 RMK A01,K5T9,2018-03-27T18:15:00Z,28.85,-100.52,19.0,18.0,,,,5.0,29.929134,,,TRUE,TRUE,,,,,,BR,OVC,400,,,,,,,LIFR,,,,,,,,,,,,METAR,270.0
K5C1 271815Z AUTO 16007KT 10SM SCT021 BKN028 OVC060 22/17 A2997 RMK AO1,K5C1,2018-03-27T18:15:00Z,29.72,-98.7,22.0,17.0,160,7,,10.0,29.970472,,,TRUE,TRUE,,,,,,,SCT,2100,BKN,2800,OVC,6000,,,MVFR,,,,,,,,,,,,METAR,423.0
K5A6 271815Z AUTO 19013G19KT 10SM OVC050 22/13 A3019 RMK AO2 T02180134,K5A6,2018-03-27T18:15:00Z,33.47,-89.73,21.8,13.4,190,13,19,10.0,30.188976,,,TRUE,TRUE,,,,,,,OVC,5000,,,,,,,VFR,,,,,,,,,,,,METAR,111.0
K54A 271815Z AUTO 09016G21KT 10SM CLR 27/12 A3020 RMK AO2,K54A,2018-03-27T18:15:00Z,,,27.0,12.0,90,16,21,10.0,30.200787,,,TRUE,TRUE,,,,,,,CLR,,,,,,,,VFR,,,,,,,,,,,,METAR,
K4R5 271815Z AUTO 27007KT 10SM OVC020 03/M02 A2997 RMK AO2 T00261016,K4R5,2018-03-27T18:15:00Z,46.78,-90.77,2.6,-1.6,270,7,,10.0,29.970472,,,TRUE,TRUE,,,,,,,OVC,2000,,,,,,,MVFR,,,,,,,,,,,,METAR,198.0
K49A 271815Z AUTO 18005KT 10SM OVC018 12/06 A3036 RMK AO2 T01220061,K49A,2018-03-27T18:15:00Z,34.63,-84.53,12.2,6.1,180,5,,10.0,30.360237,,,TRUE,TRUE,,,,,,,OVC,1800,,,,,,,MVFR,,,,,,,,,,,,METAR,453.0
K40J 271815Z AUTO 11007KT 10SM OVC041 24/14 A3028 RMK AO2 T02400141,K40J,2018-03-27T18:15:00Z,30.07,-83.57,24.0,14.1,110,7,,10.0,30.280512,,,TRUE,TRUE,,,,,,,OVC,4100,,,,,,,VFR,,,,,,,,,,,,METAR,13.0
K3S8 271815Z AUTO 31003KT 10SM SCT005 05/03 A3051 RMK AO2,K3S8,2018-03-27T18:15:00Z,42.5,-123.4,5.0,3.0,310,3,,10.0,30.510826,,,TRUE,TRUE,,,,,,,SCT,500,,,,,,,VFR,,,,,,,,,,,,METAR,343.0
K3LF 271815Z AUTO 34010KT 7SM -RA OVC003 10/09 A3005 RMK AO2 P0001 T00950093,K3LF,2018-03-27T18:15:00Z,39.17,-89.67,9.5,9.3,340,10,,7.0,30.050198,,,TRUE,TRUE,,,,,,-RA,OVC,300,,,,,,,LIFR,,,,,,0.01,,,,,,METAR,210.0
K3L4 271815Z AUTO 16014G23KT 9SM SCT026 BKN031 BKN075 26/20 A3010 RMK A01,K3L4,2018-03-27T18:15:00Z,29.8,-92.8,26.0,20.0,160,14,23,9.0,30.100393,,,TRUE,TRUE,,,,,,,SCT,2600,BKN,3100,BKN,7500,,,VFR,,,,,,,,,,,,METAR,2.0
K3K3 271815Z AUTO 36009KT 10SM BKN035 09/M01 A3016 RMK AO2,K3K3,2018-03-27T18:15:00Z,38.0,-101.75,9.0,-1.0,360,9,,10.0,30.159449,,,TRUE,TRUE,,,,,,,BKN,3500,,,,,,,VFR,,,,,,,,,,,,METAR,1013.0
K3D2 271815Z AUTO 30008KT 10SM OVC017 05/02 A2988 RMK AO2 T00520023,K3D2,2018-03-27T18:15:00Z,45.13,-87.18,5.2,2.3,300,8,,10.0,29.878937,,,TRUE,TRUE,,,,,,,OVC,1700,,,,,,,MVFR,,,,,,,,,,,,METAR,234.0
K3AU 271815Z AUTO 02009KT 10SM OVC016 05/03 A3014 RMK AO2,K3AU,2018-03-27T18:15:00Z,37.67,-97.08,5.0,3.0,20,9,,10.0,30.138779,,,TRUE,TRUE,,,,,,,OVC,1600,,,,,,,MVFR,,,,,,,,,,,,METAR,405.0
K2LS 271815Z AUTO 14013G21KT 10SM FEW025 SCT043 BKN050 25/19 A3016 RMK AO2,K2LS,2018-03-27T18:15:00Z,,,25.0,19.0,140,13,21,10.0,30.159449,,,TRUE,TRUE,,,,,,,FEW,2500,SCT,4300,BKN,5000,,,VFR,,,,,,,,,,,,METAR,
K2J3 271815Z AUTO 15003KT 10SM SCT032 16/09 A3037 RMK AO2 T01570088,K2J3,2018-03-27T18:15:00Z,32.98,-82.38,15.7,8.8,150,3,,10.0,30.369095,,,TRUE,TRUE,,,,,,,SCT,3200,,,,,,,VFR,,,,,,,,,,,,METAR,100.0
K2G9 271815Z AUTO 15010KT 7SM DZ OVC006 00/00 A3021 RMK AO2,K2G9,2018-03-27T18:15:00Z,40.03,-79.02,0.0,0.0,150,10,,7.0,30.209646,,,TRUE,TRUE,,,,,,DZ,OVC,600,,,,,,,IFR,,,,,,,,,,,,METAR,693.0
K2F5 271815Z AUTO 18011G15KT 10SM CLR 19/06 A2998 RMK AO2,K2F5,2018-03-27T18:15:00Z,32.75,-101.92,19.0,6.0,180,11,15,10.0,29.97933,,,TRUE,TRUE,,,,,,,CLR,,,,,,,,VFR,,,,,,,,,,,,METAR,912.0
K2A0 271815Z AUTO 22008KT 10SM OVC027 13/09 A3030 RMK A01,K2A0,2018-03-27T18:15:00Z,35.48,-84.93,13.0,9.0,220,8,,10.0,30.301182,,,TRUE,TRUE,,,,,,,OVC,2700,,,,,,,MVFR,,,,,,,,,,,,METAR,219.0
K24A 271815Z AUTO 33003KT 10SM OVC015 10/05 A3036 RMK AO2 T00960054,K24A,2018-03-27T18:15:00Z,35.32,-83.2,9.6,5.4,330,3,,10.0,30.360237,,,TRUE,TRUE,,,,,,,OVC,1500,,,,,,,MVFR,,,,,,,,,,,,METAR,871.0
K1M5 271815Z AUTO 18016G22KT 10SM CLR 18/10 A3016 RMK A01,K1M5,2018-03-27T18:15:00Z,36.6,-86.48,18.0,10.0,180,16,22,10.0,30.159449,,,TRUE,TRUE,,,,,,,CLR,,,,,,,,VFR,,,,,,,,,,,,METAR,250.0
K1H2 271815Z AUTO 17009KT 7SM -DZ OVC006 15/15 A3004 RMK AO2 T01450145,K1H2,2018-03-27T18:15:00Z,39.07,-88.53,14.5,14.5,170,9,,7.0,30.041338,,,TRUE,TRUE,,,,,,-DZ,OVC,600,,,,,,,IFR,,,,,,,,,,,,METAR,179.0
K1A6 271815Z AUTO 20009KT 10SM OVC026 15/07 A3026 RMK AO2 T01500071,K1A6,2018-03-27T18:15:00Z,36.62,-83.73,15.0,7.1,200,9,,10.0,30.259842,,,TRUE,TRUE,,,,,,,OVC,2600,,,,,,,MVFR,,,,,,,,,,,,METAR,352.0
K19S 271815Z AUTO 02011KT 10SM OVC025 07/02 A3016 RMK AO2 T00700018,K19S,2018-03-27T18:15:00Z,37.48,-100.83,7.0,1.8,20,11,,10.0,30.159449,,,TRUE,TRUE,,,,,,,OVC,2500,,,,,,,MVFR,,,,,,,,,,,,METAR,886.0
K0R4 271815Z AUTO 15010KT 10SM BKN070 25/17 A3013 RMK AO2 T02490170,K0R4,2018-03-27T18:15:00Z,31.57,-91.5,24.9,17.0,150,10,,10.0,30.129921,,,TRUE,TRUE,,,,,,,BKN,7000,,,,,,,VFR,,,,,,,,,,,,METAR,17.0
K0F2 271815Z AUTO 00000KT 7SM RA SCT070 OVC090 16/15 A3004 RMK AO2 P0001 T01580149,K0F2,2018-03-27T18:15:00Z,33.6,-97.78,15.8,14.9,0,0,,7.0,30.041338,,,TRUE,TRUE,,,,,,RA,SCT,7000,OVC,9000,,,,,VFR,,,,,,0.01,,,,,,METAR,336.0
K0E0 271815Z AUTO 08025G35KT 10SM CLR 10/00 A3003 RMK AO2 T00970001,K0E0,2018-03-27T18:15:00Z,34.98,-106.0,9.7,0.1,80,25,35,10.0,30.029528,,,TRUE,TRUE,,,,,,,CLR,,,,,,,,VFR,,,,,,,,,,,,METAR,1890.0
K06C 271815Z AUTO 30006KT 10SM OVC011 08/05 A2998 RMK AO2 T00750049,K06C,2018-03-27T18:15:00Z,41.98,-88.1,7.5,4.9,300,6,,10.0,29.97933,,,TRUE,TRUE,,,,,,,OVC,1100,,,,,,,MVFR,,,,,,,,,,,,METAR,244.0
K05U 271815Z AUTO 03009G16KT 10SM FEW040 05/M06 A3032 RMK A01,K05U,2018-03-27T18:15:00Z,39.6,-116.0,5.0,-6.0,30,9,16,10.0,30.318897,,,TRUE,TRUE,,,,,,,FEW,4000,,,,,,,VFR,,,,,,,,,,,,METAR,1816.0
KBTA 271815Z AUTO 02004KT 10SM SCT023 09/02 A3014 RMK AO2 T00850017,KBTA,2018-03-27T18:15:00Z,41.42,-96.12,8.5,1.7,20,4,,10.0,30.138779,,,TRUE,TRUE,,,,,,,SCT,2300,,,,,,,VFR,,,,,,,,,,,,METAR,396.0
KBQP 271815Z AUTO 17010G17KT 10SM BKN039 BKN045 BKN055 26/16 A3009 RMK AO2 T02620158,KBQP,2018-03-27T18:15:00Z,32.75,-91.88,26.2,15.8,170,10,17,10.0,30.088583,,,TRUE,TRUE,,,,,,,BKN,3900,BKN,4500,BKN,5500,,,VFR,,,,,,,,,,,,METAR,51.0
KBPG 271815Z AUTO 09011G20KT 10SM OVC120 17/11 A2996 RMK AO2 T01680112,KBPG,2018-03-27T18:15:00Z,32.22,-101.52,16.8,11.2,90,11,20,10.0,29.958662,,,TRUE,TRUE,,,,,,,OVC,12000,,,,,,,VFR,,,,,,,,,,,,METAR,784.0
KBMT 271815Z AUTO 15013G16KT 10SM SCT024 BKN041 OVC070 26/20 A3007 RMK AO2 T02610195,KBMT,2018-03-27T18:15:00Z,30.07,-94.22,26.1,19.5,150,13,16,10.0,30.070866,,,TRUE,TRUE,,,,,,,SCT,2400,BKN,4100,OVC,7000,,,VFR,,,,,,,,,,,,METAR,10.0
KBMC 271815Z AUTO 00000KT 10SM CLR 05/M09 A3028 RMK AO1 T00511088,KBMC,2018-03-27T18:15:00Z,41.55,-112.07,5.1,-8.8,0,0,,10.0,30.280512,,,TRUE,TRUE,,,,,,,CLR,,,,,,,,VFR,,,,,,,,,,,,METAR,1288.0
KBJI 271815Z AUTO 23005KT 10SM CLR 05/M01 A2993 RMK AO2 T00451009,KBJI,2018-03-27T18:15:00Z,47.5,-94.92,4.5,-0.9,230,5,,10.0,29.929134,,,TRUE,TRUE,,,,,,,CLR,,,,,,,,VFR,,,,,,,,,,,,METAR,420.0
KBIJ 271815Z AUTO 12005KT 10SM OVC023 21/13 A3030 RMK AO2,KBIJ,2018-03-27T18:15:00Z,31.4,-84.9,21.0,13.0,120,5,,10.0,30.301182,,,TRUE,TRUE,,,,,,,OVC,2300,,,,,,,MVFR,,,,,,,,,,,,METAR,65.0
KBIE 271815Z AUTO 34007KT 10SM SCT024 08/02 A3016 RMK AO2 T00770019,KBIE,2018-03-27T18:15:00Z,40.28,-96.75,7.7,1.9,340,7,,10.0,30.159449,,,TRUE,TRUE,,,,,,,SCT,2400,,,,,,,VFR,,,,,,,,,,,,METAR,403.0
KBHC 271815Z AUTO 09005KT 10SM BKN028 OVC034 18/13 A3033 RMK AO2,KBHC,2018-03-27T18:15:00Z,31.72,-82.4,18.0,13.0,90,5,,10.0,30.33071,,,TRUE,TRUE,,,,,,,BKN,2800,OVC,3400,,,,,MVFR,,,,,,,,,,,,METAR,61.0
KBGE 271815Z AUTO 17008KT 10SM BKN035 23/16 A3029 RMK AO2,KBGE,2018-03-27T18:15:00Z,30.97,-84.63,23.0,16.0,170,8,,10.0,30.28937,,,TRUE,TRUE,,,,,,,BKN,3500,,,,,,,VFR,,,,,,,,,,,,METAR,43.0
KBEC 271815Z AUTO 02014KT 10SM OVC014 06/03 A3013 RMK AO2 T00550030,KBEC,2018-03-27T18:15:00Z,37.7,-97.22,5.5,3.0,20,14,,10.0,30.129921,,,TRUE,TRUE,,,,,,,OVC,1400,,,,,,,MVFR,,,,,,,,,,,,METAR,429.0
KBEA 271815Z AUTO 15017G23KT 10SM SCT029 BKN035 OVC075 28/20 A2992 RMK AO2 T02780201,KBEA,2018-03-27T18:15:00Z,28.37,-97.78,27.8,20.1,150,17,23,10.0,29.920275,,,TRUE,TRUE,,,,,,,SCT,2900,BKN,3500,OVC,7500,,,VFR,,,,,,,,,,,,METAR,82.0
KBDG 271815Z AUTO 00000KT 10SM 10/M11 A3009 RMK AO1 T01021106,KBDG,2018-03-27T18:15:00Z,37.58,-109.47,10.2,-10.6,0,0,,10.0,30.088583,,,TRUE,TRUE,,,,,,,,,,,,,,,,,,,,,,,,,,,METAR,1788.0
KBCK 271815Z AUTO 30007KT 10SM OVC016 04/00 A3003 RMK AO2 T00411004,KBCK,2018-03-27T18:15:00Z,44.25,-90.85,4.1,-0.4,300,7,,10.0,30.029528,,,TRUE,TRUE,,,,,,,OVC,1600,,,,,,,MVFR,,,,,,,,,,,,METAR,255.0
KBBD 271815Z AUTO 07009KT 10SM SCT006 OVC065 16/15 A3002 RMK AO2,KBBD,2018-03-27T18:15:00Z,31.18,-99.32,16.0,15.0,70,9,,10.0,30.02067,,,TRUE,TRUE,,,,,,,SCT,600,OVC,6500,,,,,VFR,,,,,,,,,,,,METAR,557.0
KAYS 271815Z AUTO 14009KT 10SM OVC036 22/13 A3032 RMK AO2 T02220128,KAYS,2018-03-27T18:15:00Z,31.25,-82.4,22.2,12.8,140,9,,10.0,30.318897,,,TRUE,TRUE,,,,,,,OVC,3600,,,,,,,VFR,,,,,,,,,,,,METAR,46.0
KAXH 271815Z AUTO 13010G15KT 10SM BKN022 OVC028 25/21 A3001 RMK AO2 T02530206,KAXH,2018-03-27T18:15:00Z,29.52,-95.48,25.3,20.6,130,10,15,10.0,30.008858,,,TRUE,TRUE,,,,,,,BKN,2200,OVC,2800,,,,,MVFR,,,,,,,,,,,,METAR,21.0
KAVK 271815Z AUTO 02012G18KT 10SM BKN020 BKN024 OVC039 08/04 A3016 RMK AO2,KAVK,2018-03-27T18:15:00Z,36.77,-98.67,8.0,4.0,20,12,18,10.0,30.159449,,,TRUE,TRUE,,,,,,,BKN,2000,BKN,2400,OVC,3900,,,MVFR,,,,,,,,,,,,METAR,449.0
KAUH 271815Z AUTO 36009KT 10SM CLR 09/00 A3016 RMK AO2 T00901002,KAUH,2018-03-27T18:15:00Z,40.88,-98.0,9.0,-0.2,360,9,,10.0,30.159449,,,TRUE,TRUE,,,,,,,CLR,,,,,,,,VFR,,,,,,,,,,,,METAR,550.0
KASL 271815Z AUTO 17012KT 10SM BKN046 BKN050 26/15 A3002 RMK AO1 T02630148,KASL,2018-03-27T18:15:00Z,32.52,-94.3,26.3,14.8,170,12,,10.0,30.02067,,,TRUE,TRUE,,,,,,,BKN,4600,BKN,5000,,,,,VFR,,,,,,,,,,,,METAR,109.0
KASJ 271815Z AUTO 00000KT 10SM -DZ OVC070 08/02 A3045 RMK AO2 T00770018,KASJ,2018-03-27T18:15:00Z,36.28,-77.17,7.7,1.8,0,0,,10.0,30.448818,,,TRUE,TRUE,,,,,,-DZ,OVC,7000,,,,,,,VFR,,,,,,,,,,,,METAR,21.0
KAQR 271815Z AUTO 33005KT 5SM RA SCT005 BKN020 OVC044 14/14 A3004 RMK AO2 P0003,KAQR,2018-03-27T18:15:00Z,34.4,-96.15,14.0,14.0,330,5,,5.0,30.041338,,,TRUE,TRUE,,,,,,RA,SCT,500,BKN,2000,OVC,4400,,,MVFR,,,,,,0.03,,,,,,METAR,189.0
KAPS 271815Z AUTO 18012G20KT 10SM BKN032 BKN040 29/18 A3015 RMK AO2 T02850181,KAPS,2018-03-27T18:15:00Z,30.08,-90.58,28.5,18.1,180,12,20,10.0,30.15059,,,TRUE,TRUE,,,,,,,BKN,3200,BKN,4000,,,,,VFR,,,,,,,,,,,,METAR,2.0
KANW 271815Z AUTO 31004KT 10SM CLR 10/M05 A3011 RMK AO2 T01031046,KANW,2018-03-27T18:15:00Z,42.57,-100.0,10.3,-4.6,310,4,,10.0,30.109253,,,TRUE,TRUE,,,,,,,CLR,,,,,,,,VFR,,,,,,,,,,,,METAR,789.0
KALX 271815Z AUTO 16005KT 10SM CLR 17/12 A3030 RMK AO2 T01690123,KALX,2018-03-27T18:15:00Z,32.92,-85.97,16.9,12.3,160,5,,10.0,30.301182,,,TRUE,TRUE,,,,,,,CLR,,,,,,,,VFR,,,,,,,,,,,,METAR,209.0
KAJR 271815Z AUTO 07004KT 10SM OVC016 09/07 A3037 RMK AO2 T00850072,KAJR,2018-03-27T18:15:00Z,34.5,-83.55,8.5,7.2,70,4,,10.0,30.369095,,,TRUE,TRUE,,,,,,,OVC,1600,,,,,,,MVFR,,,,,,,,,,,,METAR,441.0
KAHQ 271815Z AUTO 01005KT 10SM CLR 10/00 A3015 RMK AO2 T00981001,KAHQ,2018-03-27T18:15:00Z,41.23,-96.6,9.8,-0.1,10,5,,10.0,30.15059,,,TRUE,TRUE,,,,,,,CLR,,,,,,,,VFR,,,,,,,,,,,,METAR,374.0
KAFK 271815Z AUTO 03007KT 10SM OVC017 07/04 A3015 RMK AO2 T00650036,KAFK,2018-03-27T18:15:00Z,40.6,-95.85,6.5,3.6,30,7,,10.0,30.15059,,,TRUE,TRUE,,,,,,,OVC,1700,,,,,,,MVFR,,,,,,,,,,,,METAR,354.0
KADH 271815Z AUTO 36007KT 10SM -RA BKN003 BKN019 OVC032 11/11 A3005 RMK AO2 P0002,KADH,2018-03-27T18:15:00Z,34.8,-96.67,11.0,11.0,360,7,,10.0,30.050198,,,TRUE,TRUE,,,,,,-RA,BKN,300,BKN,1900,OVC,3200,,,LIFR,,,,,,0.02,,,,,,METAR,308.0
KACP 271815Z AUTO 14009G18KT 10SM BKN029 BKN034 OVC060 25/18 A3010 RMK AO2 T02530184,KACP,2018-03-27T18:15:00Z,30.75,-92.68,25.3,18.4,140,9,18,10.0,30.100393,,,TRUE,TRUE,,,,,,,BKN,2900,BKN,3400,OVC,6000,,,MVFR,,,,,,,,,,,,METAR,33.0
KA39 271815Z AUTO 25008KT 10SM CLR 18/M05 A3005 RMK AO2,KA39,2018-03-27T18:15:00Z,32.98,-111.92,18.0,-5.0,250,8,,10.0,30.050198,,,TRUE,TRUE,,,,,,,CLR,,,,,,,,VFR,,,,,,,,,,,,METAR,396.0
KA08 271815Z AUTO 14005KT 10SM OVC021 17/11 A3027 RMK AO2 T01660114,KA08,2018-03-27T18:15:00Z,32.52,-87.38,16.6,11.4,140,5,,10.0,30.268702,,,TRUE,TRUE,,,,,,,OVC,2100,,,,,,,MVFR,,,,,,,,,,,,METAR,69.0
K9V9 271815Z AUTO 28005KT 10SM CLR 13/M02 A3008 RMK AO2 T01251022,K9V9,2018-03-27T18:15:00Z,43.77,-99.32,12.5,-2.2,280,5,,10.0,30.079725,,,TRUE,TRUE,,,,,,,CLR,,,,,,,,VFR,,,,,,,,,,,,METAR,519.0
K9A5 271815Z AUTO 20006KT 10SM OVC022 14/07 A3033 RMK AO2 T01360071,K9A5,2018-03-27T18:15:00Z,34.68,-85.28,13.6,7.1,200,6,,10.0,30.33071,,,TRUE,TRUE,,,,,,,OVC,2200,,,,,,,MVFR,,,,,,,,,,,,METAR,237.0
K8W2 271815Z AUTO 20007KT 170V230 10SM OVC036 04/02 A3035 RMK AO1 T00380024,K8W2,2018-03-27T18:15:00Z,38.65,-78.7,3.8,2.4,200,7,,10.0,30.351377,,,TRUE,TRUE,,,,,,,OVC,3600,,,,,,,VFR,,,,,,,,,,,,METAR,297.0
KEBG 271815Z AUTO 14018G22KT 10SM BKN036 BKN045 OVC049 31/20 A2986 RMK AO2 T03070200,KEBG,2018-03-27T18:15:00Z,26.45,-98.13,30.7,20.0,140,18,22,10.0,29.861221,,,TRUE,TRUE,,,,,,,BKN,3600,BKN,4500,OVC,4900,,,VFR,,,,,,,,,,,,METAR,24.0
KE38 271815Z AUTO 17010G19KT 10SM CLR 17/09 A3004 RMK AO2 T01700093,KE38,2018-03-27T18:15:00Z,30.38,-103.68,17.0,9.3,170,10,19,10.0,30.041338,,,TRUE,TRUE,,,,,,,CLR,,,,,,,,VFR,,,,,,,,,,,,METAR,1376.0
KE16 271815Z AUTO 33005KT 10SM CLR 15/05 A3026 RMK AO2,KE16,2018-03-27T18:15:00Z,37.08,-121.6,15.0,5.0,330,5,,10.0,30.259842,,,TRUE,TRUE,,,,,,,CLR,,,,,,,,VFR,,,,,,,,,,,,METAR,86.0
KE11 271815Z AUTO 17010G17KT 10SM CLR 20/08 A2996 RMK AO2 T02000079,KE11,2018-03-27T18:15:00Z,32.33,-102.53,20.0,7.9,170,10,17,10.0,29.958662,,,TRUE,TRUE,,,,,,,CLR,,,,,,,,VFR,,,,,,,,,,,,METAR,967.0
KDZJ 271815Z AUTO 08006KT 10SM OVC019 11/07 A3034 RMK AO2 T01130069,KDZJ,2018-03-27T18:15:00Z,34.85,-84.0,11.3,6.9,80,6,,10.0,30.339567,,,TRUE,TRUE,,,,,,,OVC,1900,,,,,,,MVFR,,,,,,,,,,,,METAR,582.0
KDVO 271815Z AUTO 33008KT 10SM CLR 20/05 A3025 RMK AO2,KDVO,2018-03-27T18:15:00Z,38.15,-122.55,20.0,5.0,330,8,,10.0,30.250984,,,TRUE,TRUE,,,,,,,CLR,,,,,,,,VFR,,,,,,,,,,,,METAR,1.0
KDUC 271815Z AUTO 34009KT 10SM 11/10 A3010 RMK AO2 T01120100,KDUC,2018-03-27T18:15:00Z,34.47,-97.97,11.2,10.0,340,9,,10.0,30.100393,,,TRUE,TRUE,,,,,,,,,,,,,,,,,,,,,,,,,,,METAR,339.0
KDUB 271815Z AUTO 31021G28KT 10SM CLR 02/M10 A3005 RMK AO2,KDUB,2018-03-27T18:15:00Z,43.55,-109.68,2.0,-10.0,310,21,28,10.0,30.050198,,,TRUE,TRUE,,,,,,,CLR,,,,,,,,VFR,,,,,,,,,,,,METAR,2224.0
KDUA 271815Z AUTO 34005KT 10SM DZ SCT029 BKN035 OVC050 16/16 A3004 RMK AO2,KDUA,2018-03-27T18:15:00Z,33.95,-96.4,16.0,16.0,340,5,,10.0,30.041338,,,TRUE,TRUE,,,,,,DZ,SCT,2900,BKN,3500,OVC,5000,,,VFR,,,,,,,,,,,,METAR,213.0
KDQH 271815Z AUTO 14006KT 10SM OVC032 21/13 A3034 RMK AO2,KDQH,2018-03-27T18:15:00Z,31.48,-82.87,21.0,13.0,140,6,,10.0,30.339567,,,TRUE,TRUE,,,,,,,OVC,3200,,,,,,,VFR,,,,,,,,,,,,METAR,78.0
KDNV 271815Z AUTO 22013G17KT 1 1/4SM BR OVC003 12/12 A2997 RMK AO2 T01240124,KDNV,2018-03-27T18:15:00Z,40.2,-87.6,12.4,12.4,220,13,17,1.25,29.970472,,,TRUE,TRUE,,,,,,BR,OVC,300,,,,,,,LIFR,,,,,,,,,,,,METAR,212.0
KDLL 271815Z AUTO 29010KT 10SM OVC017 05/01 A3000 RMK AO2 T00540012,KDLL,2018-03-27T18:15:00Z,43.52,-89.77,5.4,1.2,290,10,,10.0,30.0,,,TRUE,TRUE,,,,,,,OVC,1700,,,,,,,MVFR,,,,,,,,,,,,METAR,299.0
KDKX 271815Z AUTO 22009G14KT 10SM OVC030 17/09 A3028 RMK A01,KDKX,2018-03-27T18:15:00Z,35.97,-83.87,17.0,9.0,220,9,14,10.0,30.280512,,,TRUE,TRUE,,,,,,,OVC,3000,,,,,,,MVFR,,,,,,,,,,,,METAR,254.0
KDED 271815Z AUTO 09014G20KT 10SM SCT048 24/12 A3029 RMK AO2,KDED,2018-03-27T18:15:00Z,29.07,-81.28,24.0,12.0,90,14,20,10.0,30.28937,,,TRUE,TRUE,,,,,,,SCT,4800,,,,,,,VFR,,,,,,,,,,,,METAR,24.0
KDBN 271815Z AUTO 11004KT 10SM BKN033 OVC070 17/09 A3037 RMK AO2,KDBN,2018-03-27T18:15:00Z,32.57,-82.98,17.0,9.0,110,4,,10.0,30.369095,,,TRUE,TRUE,,,,,,,BKN,3300,OVC,7000,,,,,VFR,,,,,,,,,,,,METAR,94.0
KCTY 271815Z AUTO 10009KT 070V130 10SM BKN047 25/13 A3026 RMK AO2 T02530133,KCTY,2018-03-27T18:15:00Z,29.63,-83.1,25.3,13.3,100,9,,10.0,30.259842,,,TRUE,TRUE,,,,,,,BKN,4700,,,,,,,VFR,,,,,,,,,,,,METAR,13.0
KCRX 271815Z AUTO 17012G24KT 140V200 10SM FEW030 20/12 A3016 RMK AO2,KCRX,2018-03-27T18:15:00Z,34.92,-88.6,20.0,12.0,170,12,24,10.0,30.159449,,,TRUE,TRUE,,,,,,,FEW,3000,,,,,,,VFR,,,,,,,,,,,,METAR,130.0
KCQM 271815Z AUTO 24009KT 10SM 03/M02 A2992 RMK AO2,KCQM,2018-03-27T18:15:00Z,47.82,-92.68,3.0,-2.0,240,9,,10.0,29.920275,,,TRUE,TRUE,,,,,,,,,,,,,,,,,,,,,,,,,,,METAR,404.0
KCQF 271815Z AUTO 11011G15KT 10SM OVC018 22/18 A3023 RMK AO2,KCQF,2018-03-27T18:15:00Z,30.47,-87.88,22.0,18.0,110,11,15,10.0,30.230314,,,TRUE,TRUE,,,,,,,OVC,1800,,,,,,,MVFR,,,,,,,,,,,,METAR,28.0
KCQB 271815Z AUTO 35008KT 7SM -RA OVC008 09/08 A3012 RMK AO2 P0001 T00860079,KCQB,2018-03-27T18:15:00Z,35.72,-96.82,8.6,7.9,350,8,,7.0,30.121063,,,TRUE,TRUE,,,,,,-RA,OVC,800,,,,,,,IFR,,,,,,0.01,,,,,,METAR,300.0
KCOM 271815Z AUTO 08009KT 10SM SCT011 BKN036 OVC095 17/15 A3004 RMK AO2 LTG DSNT W AND NW T01710145,KCOM,2018-03-27T18:15:00Z,31.83,-99.4,17.1,14.5,80,9,,10.0,30.041338,,,TRUE,TRUE,,,,,,,SCT,1100,BKN,3600,OVC,9500,,,VFR,,,,,,,,,,,,METAR,517.0
KCNI 271815Z AUTO 10007KT 10SM OVC016 12/07 A3036 RMK AO2,KCNI,2018-03-27T18:15:00Z,34.32,-84.42,12.0,7.0,100,7,,10.0,30.360237,,,TRUE,TRUE,,,,,,,OVC,1600,,,,,,,MVFR,,,,,,,,,,,,METAR,372.0
KCMY 271815Z AUTO 29010KT 10SM OVC018 05/01 A3004 RMK AO2 T00470010,KCMY,2018-03-27T18:15:00Z,43.97,-90.73,4.7,1.0,290,10,,10.0,30.041338,,,TRUE,TRUE,,,,,,,OVC,1800,,,,,,,MVFR,,,,,,,,,,,,METAR,256.0
KCKP 271815Z AUTO 31007KT 10SM CLR 06/02 A3013 RMK AO2 T00560016,KCKP,2018-03-27T18:15:00Z,42.73,-95.55,5.6,1.6,310,7,,10.0,30.129921,,,TRUE,TRUE,,,,,,,CLR,,,,,,,,VFR,,,,,,,,,,,,METAR,374.0
KCJR 271815Z AUTO 18004KT 7SM -RA BKN010 OVC020 05/02 A3045 RMK AO2 T00460022,KCJR,2018-03-27T18:15:00Z,38.53,-77.87,4.6,2.2,180,4,,7.0,30.448818,,,TRUE,TRUE,,,,,,-RA,BKN,1000,OVC,2000,,,,,MVFR,,,,,,,,,,,,METAR,97.0
KCFD 271815Z AUTO 15009G16KT 10SM BKN036 OVC042 25/18 A3000 RMK AO2 T02540178,KCFD,2018-03-27T18:15:00Z,30.72,-96.33,25.4,17.8,150,9,16,10.0,30.0,,,TRUE,TRUE,,,,,,,BKN,3600,OVC,4200,,,,,VFR,,,,,,,,,,,,METAR,112.0
KCDA 271815Z AUTO 15007KT 10SM CLR 07/M11 A3039 RMK AO2 T00691111,KCDA,2018-03-27T18:15:00Z,44.57,-72.02,6.9,-11.1,150,7,,10.0,30.389763,,,TRUE,TRUE,,,,,,,CLR,,,,,,,,VFR,,,,,,,,,,,,METAR,363.0
KCCB 271815Z AUTO 20005G12KT 10SM CLR 17/M06 A3014 RMK AO2,KCCB,2018-03-27T18:15:00Z,34.12,-117.68,17.0,-6.0,200,5,12,10.0,30.138779,,,TRUE,TRUE,,,,,,,CLR,,,,,,,,VFR,,,,,,,,,,,,METAR,440.0
KC83 271815Z AUTO 34012KT 10SM CLR 18/04 A3025 RMK AO2,KC83,2018-03-27T18:15:00Z,37.83,-121.62,18.0,4.0,340,12,,10.0,30.250984,,,TRUE,TRUE,,,,,,,CLR,,,,,,,,VFR,,,,,,,,,,,,METAR,24.0
KC65 271815Z AUTO 23007KT 1 3/4SM BR OVC006 12/12 A2996 RMK A01,KC65,2018-03-27T18:15:00Z,41.37,-86.3,12.0,12.0,230,7,,1.75,29.958662,,,TRUE,TRUE,,,,,,BR,OVC,600,,,,,,,IFR,,,,,,,,,,,,METAR,244.0
KMKN 271815Z AUTO 09009KT 10SM OVC008 17/17 A3004 RMK AO2 LTG DSNT NE P0002 T01660166,KMKN,2018-03-27T18:15:00Z,31.92,-98.6,16.6,16.6,90,9,,10.0,30.041338,,,TRUE,TRUE,,,,,,,OVC,800,,,,,,,IFR,,,,,,0.02,,,,,,METAR,423.0
KHZD 271815Z AUTO 18015KT 10SM FEW030 BKN060 BKN085 20/13 A3011 RMK A01,KHZD,2018-03-27T18:15:00Z,36.08,-88.47,20.0,13.0,180,15,,10.0,30.109253,,,TRUE,TRUE,,,,,,,FEW,3000,BKN,6000,BKN,8500,,,VFR,,,,,,,,,,,,METAR,151.0
KHWY 271815Z AUTO 20004KT 10SM -RA SCT012 BKN017 OVC048 05/02 A3043 RMK AO2 T00520016,KHWY,2018-03-27T18:15:00Z,38.58,-77.72,5.2,1.6,200,4,,10.0,30.431103,,,TRUE,TRUE,,,,,,-RA,SCT,1200,BKN,1700,OVC,4800,,,MVFR,,,,,,,,,,,,METAR,103.0
KHTH 271815Z AUTO 31006KT 10SM CLR 08/M09 A3036 RMK A01,KHTH,2018-03-27T18:15:00Z,,,8.0,-9.0,310,6,,10.0,30.360237,,,TRUE,TRUE,,,,,,,CLR,,,,,,,,VFR,,,,,,,,,,,,METAR,
KHQU 271815Z AUTO 21004KT 10SM OVC023 14/08 A3043 RMK AO2 T01410077,KHQU,2018-03-27T18:15:00Z,33.53,-82.52,14.1,7.7,210,4,,10.0,30.431103,,,TRUE,TRUE,,,,,,,OVC,2300,,,,,,,MVFR,,,,,,,,,,,,METAR,152.0
KHOE 271815Z AUTO 10003KT 10SM SCT031 OVC041 21/14 A3032 RMK AO2,KHOE,2018-03-27T18:15:00Z,31.05,-82.78,21.0,14.0,100,3,,10.0,30.318897,,,TRUE,TRUE,,,,,,,SCT,3100,OVC,4100,,,,,VFR,,,,,,,,,,,,METAR,57.0
KHMZ 271815Z AUTO 16009KT 7SM -SN OVC012 01/00 A3031 RMK AO2 T00111002,KHMZ,2018-03-27T18:15:00Z,40.08,-78.52,1.1,-0.2,160,9,,7.0,30.31004,,,TRUE,TRUE,,,,,,-SN,OVC,1200,,,,,,,MVFR,,,,,,,,,,,,METAR,354.0
KHLX 271815Z AUTO 16005KT 10SM SCT013 BKN022 06/03 A3032 RMK AO2 T00570027,KHLX,2018-03-27T18:15:00Z,36.77,-80.82,5.7,2.7,160,5,,10.0,30.318897,,,TRUE,TRUE,,,,,,,SCT,1300,BKN,2200,,,,,MVFR,,,,,,,,,,,,METAR,834.0
KHLB 271815Z AUTO 2SM BR OVC006 11/11 A3008 RMK A01,KHLB,2018-03-27T18:15:00Z,,,11.0,11.0,,,,2.0,30.079725,,,TRUE,TRUE,,,,,,BR,OVC,600,,,,,,,IFR,,,,,,,,,,,,METAR,
KHJH 271815Z AUTO 02008KT 10SM SCT029 10/02 A3015 RMK AO2 T00990019,KHJH,2018-03-27T18:15:00Z,40.15,-97.58,9.9,1.9,20,8,,10.0,30.15059,,,TRUE,TRUE,,,,,,,SCT,2900,,,,,,,VFR,,,,,,,,,,,,METAR,447.0
KHHF 271815Z AUTO 03013G16KT 7SM OVC017 07/05 A3014 RMK AO2 T00660050,KHHF,2018-03-27T18:15:00Z,35.9,-100.4,6.6,5.0,30,13,16,7.0,30.138779,,,TRUE,TRUE,,,,,,,OVC,1700,,,,,,,MVFR,,,,,,,,,,,,METAR,712.0
KHDE 271815Z AUTO 02008KT 10SM CLR 08/00 A3016 RMK AO2 T00771004,KHDE,2018-03-27T18:15:00Z,40.45,-99.32,7.7,-0.4,20,8,,10.0,30.159449,,,TRUE,TRUE,,,,,,,CLR,,,,,,,,VFR,,,,,,,,,,,,METAR,705.0
KHDC 271815Z AUTO 14012KT 10SM SCT020 BKN025 OVC055 25/19 A3016 RMK AO2,KHDC,2018-03-27T18:15:00Z,30.52,-90.42,25.0,19.0,140,12,,10.0,30.159449,,,TRUE,TRUE,,,,,,,SCT,2000,BKN,2500,OVC,5500,,,MVFR,,,,,,,,,,,,METAR,13.0
KGZS 271815Z AUTO 16012G20KT 10SM SCT025 18/11 A3022 RMK A01,KGZS,2018-03-27T18:15:00Z,35.15,-87.05,18.0,11.0,160,12,20,10.0,30.221457,,,TRUE,TRUE,,,,,,,SCT,2500,,,,,,,VFR,,,,,,,,,,,,METAR,209.0
KGRN 271815Z AUTO 23007KT 10SM CLR 11/M06 A3007 RMK AO2 T01061058,KGRN,2018-03-27T18:15:00Z,42.8,-102.17,10.6,-5.8,230,7,,10.0,30.070866,,,TRUE,TRUE,,,,,,,CLR,,,,,,,,VFR,,,,,,,,,,,,METAR,1086.0
KGOP 271815Z AUTO 33014G19KT 6SM BR FEW023 BKN035 BKN043 18/16 A3003 RMK AO2,KGOP,2018-03-27T18:15:00Z,31.42,-97.8,18.0,16.0,330,14,19,6.0,30.029528,,,TRUE,TRUE,,,,,,BR,FEW,2300,BKN,3500,BKN,4300,,,VFR,,,,,,,,,,,,METAR,276.0
KGNC 271815Z AUTO 00000KT 10SM SCT060 19/04 A2996 RMK AO2 T01920036,KGNC,2018-03-27T18:15:00Z,32.68,-102.65,19.2,3.6,0,0,,10.0,29.958662,,,TRUE,TRUE,,,,,,,SCT,6000,,,,,,,VFR,,,,,,,,,,,,METAR,1010.0
KIGQ 271815Z AUTO 26007KT 10SM BKN010 OVC023 10/09 A2998 RMK AO2 T00950094,KIGQ,2018-03-27T18:15:00Z,41.53,-87.53,9.5,9.4,260,7,,10.0,29.97933,,,TRUE,TRUE,,,,,,,BKN,1000,OVC,2300,,,,,MVFR,,,,,,,,,,,,METAR,188.0
KIFP 271815Z 35026G35KT 10SM CLR 18/M09 A3010 RMK AO2,KIFP,2018-03-27T18:15:00Z,35.15,-114.57,18.0,-9.0,350,26,35,10.0,30.100393,,,,TRUE,,,,,,,CLR,,,,,,,,VFR,,,,,,,,,,,,METAR,212.0
KIBM 271815Z AUTO 23009KT 180V260 10SM CLR 09/M07 A3011 RMK AO2 T00871071,KIBM,2018-03-27T18:15:00Z,41.18,-103.68,8.7,-7.1,230,9,,10.0,30.109253,,,TRUE,TRUE,,,,,,,CLR,,,,,,,,VFR,,,,,,,,,,,,METAR,1501.0
KI16 271815Z AUTO 10SM SCT040 BKN070 BKN085 17/08 A3025 RMK AO2 T01730083,KI16,2018-03-27T18:15:00Z,37.6,-81.57,17.3,8.3,,,,10.0,30.250984,,,TRUE,TRUE,,,,,,,SCT,4000,BKN,7000,BKN,8500,,,VFR,,,,,,,,,,,,METAR,544.0
KHZR 271815Z AUTO 15010KT 10SM SCT035 SCT046 OVC060 26/18 A3014 RMK AO2 T02610176,KHZR,2018-03-27T18:15:00Z,30.72,-91.48,26.1,17.6,150,10,,10.0,30.138779,,,TRUE,TRUE,,,,,,,SCT,3500,SCT,4600,OVC,6000,,,VFR,,,,,,,,,,,,METAR,12.0
KINJ 271815Z AUTO 33016KT 7SM RA BKN008 OVC016 17/17 A3003 RMK AO2 P0001 T01740173,KINJ,2018-03-27T18:15:00Z,32.08,-97.1,17.4,17.3,330,16,,7.0,30.029528,,,TRUE,TRUE,,,,,,RA,BKN,800,OVC,1600,,,,,IFR,,,,,,0.01,,,,,,METAR,209.0
KIMM 271815Z AUTO 09017G24KT 10SM CLR 27/12 A3022 RMK AO2,KIMM,2018-03-27T18:15:00Z,26.43,-81.4,27.0,12.0,90,17,24,10.0,30.221457,,,TRUE,TRUE,,,,,,,CLR,,,,,,,,VFR,,,,,,,,,,,,METAR,12.0
KIKW 271815Z AUTO 22007KT 10SM OVC005 10/09 A2986 RMK AO2 T01010091,KIKW,2018-03-27T18:15:00Z,43.67,-84.27,10.1,9.1,220,7,,10.0,29.861221,,,TRUE,TRUE,,,,,,,OVC,500,,,,,,,IFR,,,,,,,,,,,,METAR,194.0
KIKK 271815Z AUTO 29008KT 5SM BR OVC007 08/08 A3001 RMK AO2 T00810078,KIKK,2018-03-27T18:15:00Z,41.07,-87.85,8.1,7.8,290,8,,5.0,30.008858,,,TRUE,TRUE,,,,,,BR,OVC,700,,,,,,,IFR,,,,,,,,,,,,METAR,192.0
KIJX 271815Z AUTO 32009KT 10SM BKN012 OVC018 06/04 A3007 RMK AO2 T00600040,KIJX,2018-03-27T18:15:00Z,39.77,-90.25,6.0,4.0,320,9,,10.0,30.070866,,,TRUE,TRUE,,,,,,,BKN,1200,OVC,1800,,,,,MVFR,,,,,,,,,,,,METAR,190.0
KW75 271815Z AUTO 12004KT 10SM BKN060 BKN090 BKN120 06/02 A3045 RMK AO1 T00600015,KW75,2018-03-27T18:15:00Z,37.6,-76.45,6.0,1.5,120,4,,10.0,30.448818,,,TRUE,TRUE,,,,,,,BKN,6000,BKN,9000,BKN,12000,,,VFR,,,,,,,,,,,,METAR,9.0
KJAU 271815Z AUTO 17007KT 10SM BKN031 BKN080 15/08 A3029 RMK A01,KJAU,2018-03-27T18:15:00Z,36.33,-84.17,15.0,8.0,170,7,,10.0,30.28937,,,TRUE,TRUE,,,,,,,BKN,3100,BKN,8000,,,,,VFR,,,,,,,,,,,,METAR,360.0
KJAS 271815Z AUTO 16008G15KT 10SM SCT030 BKN043 OVC049 26/19 A3008 RMK AO2 T02580192,KJAS,2018-03-27T18:15:00Z,30.88,-94.03,25.8,19.2,160,8,15,10.0,30.079725,,,TRUE,TRUE,,,,,,,SCT,3000,BKN,4300,OVC,4900,,,VFR,,,,,,,,,,,,METAR,65.0
KIZA 271815Z AUTO 24003KT 10SM CLR 14/02 A3020 RMK AO2,KIZA,2018-03-27T18:15:00Z,34.6,-120.07,14.0,2.0,240,3,,10.0,30.200787,,,TRUE,TRUE,,,,,,,CLR,,,,,,,,VFR,,,,,,,,,,,,METAR,205.0
KCKZ 271815Z AUTO 12004KT 10SM CLR 05/M07 A3043 RMK AO2,KCKZ,2018-03-27T18:15:00Z,40.38,-75.28,5.0,-7.0,120,4,,10.0,30.431103,,,TRUE,TRUE,,,,,,,CLR,,,,,,,,VFR,,,,,,,,,,,,METAR,173.0
KLHB 271815Z AUTO 15013G18KT 10SM BKN037 BKN047 OVC070 26/18 A3000 RMK AO2 T02580177,KLHB,2018-03-27T18:15:00Z,30.87,-96.62,25.8,17.7,150,13,18,10.0,30.0,,,TRUE,TRUE,,,,,,,BKN,3700,BKN,4700,OVC,7000,,,VFR,,,,,,,,,,,,METAR,87.0
KLBO 271815Z AUTO 36005KT 5SM RA OVC004 08/07 A3006 RMK AO2 P0002,KLBO,2018-03-27T18:15:00Z,37.65,-92.65,8.0,7.0,360,5,,5.0,30.059055,,,TRUE,TRUE,,,,,,RA,OVC,400,,,,,,,LIFR,,,,,,0.02,,,,,,METAR,403.0
KLAM 271815Z AUTO 14016G24KT 10SM BKN060 BKN080 BKN100 08/M06 A3000 RMK AO2 T00751058,KLAM,2018-03-27T18:15:00Z,35.87,-106.27,7.5,-5.8,140,16,24,10.0,30.0,,,TRUE,TRUE,,,,,,,BKN,6000,BKN,8000,BKN,10000,,,VFR,,,,,,,,,,,,METAR,2179.0
KL18 271815Z AUTO 33010G17KT 10SM CLR 20/M04 A3012 RMK AO2,KL18,2018-03-27T18:15:00Z,33.35,-117.25,20.0,-4.0,330,10,17,10.0,30.121063,,,TRUE,TRUE,,,,,,,CLR,,,,,,,,VFR,,,,,,,,,,,,METAR,216.0
KKY8 271815Z AUTO 17007G15KT 5SM BR FEW018 SCT024 BKN034 13/12 A3009 RMK A01,KKY8,2018-03-27T18:15:00Z,37.95,-86.87,13.0,12.0,170,7,15,5.0,30.088583,,,TRUE,TRUE,,,,,,BR,FEW,1800,SCT,2400,BKN,3400,,,MVFR,,,,,,,,,,,,METAR,126.0
KK88 271815Z AUTO 01009KT 5SM 05/05 A3012 RMK AO1 P0002 T00500050,KK88,2018-03-27T18:15:00Z,37.87,-95.38,5.0,5.0,10,9,,5.0,30.121063,,,TRUE,TRUE,,,,,,,,,,,,,,,,,,,,,0.02,,,,,,METAR,309.0
KJYL 271815Z AUTO 06004KT 10SM OVC021 A3039 RMK AO2,KJYL,2018-03-27T18:15:00Z,32.65,-81.6,,,60,4,,10.0,30.389763,,,TRUE,TRUE,,,,,,,OVC,2100,,,,,,,MVFR,,,,,,,,,,,,METAR,57.0
KJXI 271815Z AUTO 16012G17KT 10SM BKN050 OVC095 26/16 A3000 RMK AO2 T02600160,KJXI,2018-03-27T18:15:00Z,32.7,-94.95,26.0,16.0,160,12,17,10.0,30.0,,,TRUE,TRUE,,,,,,,BKN,5000,OVC,9500,,,,,VFR,,,,,,,,,,,,METAR,127.0
KJSV 271815Z AUTO 27003KT 7SM RA BKN006 BKN011 17/16 A3001 RMK AO2 P0002,KJSV,2018-03-27T18:15:00Z,35.43,-94.8,17.0,16.0,270,3,,7.0,30.008858,,,TRUE,TRUE,,,,,,RA,BKN,600,BKN,1100,,,,,IFR,,,,,,0.02,,,,,,METAR,161.0
KJSO 271815Z AUTO 18007G15KT 10SM SCT039 BKN048 OVC050 25/16 A3004 RMK AO2 T02520168,KJSO,2018-03-27T18:15:00Z,31.87,-95.22,25.2,16.8,180,7,15,10.0,30.041338,,,TRUE,TRUE,,,,,,,SCT,3900,BKN,4800,OVC,5000,,,VFR,,,,,,,,,,,,METAR,206.0
KJHN 271815Z AUTO 02007KT 350V050 10SM BKN028 BKN032 OVC080 08/00 A3016 RMK AO2 T00790002,KJHN,2018-03-27T18:15:00Z,37.58,-101.73,7.9,0.2,20,7,,10.0,30.159449,,,TRUE,TRUE,,,,,,,BKN,2800,BKN,3200,OVC,8000,,,MVFR,,,,,,,,,,,,METAR,1013.0
KISQ 271815Z AUTO 31011G18KT 10SM OVC008 03/02 A2984 RMK AO2 T00300022,KISQ,2018-03-27T18:15:00Z,45.97,-86.17,3.0,2.2,310,11,18,10.0,29.840551,,,TRUE,TRUE,,,,,,,OVC,800,,,,,,,IFR,,,,,,,,,,,,METAR,209.0
KIRS 271815Z AUTO 23012KT 7SM OVC006 12/11 A2994 RMK AO2 T01150108,KIRS,2018-03-27T18:15:00Z,41.8,-85.43,11.5,10.8,230,12,,7.0,29.940945,,,TRUE,TRUE,,,,,,,OVC,600,,,,,,,IFR,,,,,,,,,,,,METAR,282.0
KIOB 271815Z AUTO 23016G25KT 160V240 10SM OVC033 16/10 A3015 RMK AO2,KIOB,2018-03-27T18:15:00Z,38.05,-83.98,16.0,10.0,230,16,25,10.0,30.15059,,,TRUE,TRUE,,,,,,,OVC,3300,,,,,,,VFR,,,,,,,,,,,,METAR,311.0
KIMS 271815Z AUTO 21010G19KT 10SM OVC016 13/10 A3012 RMK AO1,KIMS,2018-03-27T18:15:00Z,38.75,-85.47,13.0,10.0,210,10,19,10.0,30.121063,,,TRUE,TRUE,,,,,,,OVC,1600,,,,,,,MVFR,,,,,,,,,,,,METAR,250.0
KIKG 271815Z AUTO 12008KT 7SM SCT029 SCT034 OVC050 29/22 A2989 RMK AO2 T02860220,KIKG,2018-03-27T18:15:00Z,27.55,-98.03,28.6,22.0,120,8,,7.0,29.890747,,,TRUE,TRUE,,,,,,,SCT,2900,SCT,3400,OVC,5000,,,VFR,,,,,,,,,,,,METAR,40.0
KIER 271815Z AUTO 17013G22KT 10SM SCT041 SCT050 27/18 A3006 RMK AO2 T02740179,KIER,2018-03-27T18:15:00Z,31.73,-93.1,27.4,17.9,170,13,22,10.0,30.059055,,,TRUE,TRUE,,,,,,,SCT,4100,SCT,5000,,,,,VFR,,,,,,,,,,,,METAR,37.0
KI75 271815Z AUTO 35006KT 10SM OVC013 04/02 A3013 RMK AO2 T00430019,KI75,2018-03-27T18:15:00Z,41.05,-93.68,4.3,1.9,350,6,,10.0,30.129921,,,TRUE,TRUE,,,,,,,OVC,1300,,,,,,,MVFR,,,,,,,,,,,,METAR,339.0
KI23 271815Z AUTO 21011KT 3SM BKN007 OVC012 11/10 A3010 RMK AO1,KI23,2018-03-27T18:15:00Z,39.57,-83.42,11.0,10.0,210,11,,3.0,30.100393,,,TRUE,TRUE,,,,,,,BKN,700,OVC,1200,,,,,IFR,,,,,,,,,,,,METAR,299.0
CWPF 271815Z AUTO 22018G25KT 10/08 RMK AO1 PK WND 22025/1807 T00990075,CWPF,2018-03-27T18:15:00Z,48.43,-123.43,9.9,7.5,220,18,25,,,,,TRUE,TRUE,,,,,,,,,,,,,,,,,,,,,,,,,,,METAR,12.0
CWVF 271815Z AUTO 17012KT 10/ RMK AO1 T0096,CWVF,2018-03-27T18:15:00Z,49.1,-123.3,9.6,,170,12,,,,,,TRUE,TRUE,,,,,,,,,,,,,,,,,,,,,,,,,,,METAR,1.0
KCMH 271815Z 19011G16KT 3SM BR OVC009 11/10 A3009 RMK AO2 SFC VIS 3 T01060100,KCMH,2018-03-27T18:15:00Z,40.0,-82.88,10.6,10.0,190,11,16,3.0,30.088583,,,,TRUE,,,,,,BR,OVC,900,,,,,,,IFR,,,,,,,,,,,,METAR,247.0
KCLW 271815Z AUTO 11014G19KT 10SM CLR 26/12 A3022 RMK AO2,KCLW,2018-03-27T18:15:00Z,27.98,-82.75,26.0,12.0,110,14,19,10.0,30.221457,,,TRUE,TRUE,,,,,,,CLR,,,,,,,,VFR,,,,,,,,,,,,METAR,22.0
KBQX 271815Z AUTO 10008KT 3SM BR CLR 22/21 A3000 RMK A01,KBQX,2018-03-27T18:15:00Z,28.5,-95.72,22.0,21.0,100,8,,3.0,30.0,,,TRUE,TRUE,,,,,,BR,CLR,,,,,,,,MVFR,,,,,,,,,,,,METAR,34.0
KBQK 271815Z AUTO 06013KT 10SM SCT012 BKN033 OVC042 18/13 A3036 RMK AO2,KBQK,2018-03-27T18:15:00Z,31.25,-81.47,18.0,13.0,60,13,,10.0,30.360237,,,TRUE,TRUE,,,,,,,SCT,1200,BKN,3300,OVC,4200,,,VFR,,,,,,,,,,,,METAR,8.0
KBPC 271815Z AUTO 04012KT 10SM OVC016 05/03 A3015 RMK AO2,KBPC,2018-03-27T18:15:00Z,35.88,-101.03,5.0,3.0,40,12,,10.0,30.15059,,,TRUE,TRUE,,,,,,,OVC,1600,,,,,,,MVFR,,,,,,,,,,,,METAR,845.0
KBKS 271815Z AUTO 16013G16KT 10SM BKN047 OVC060 30/19 A2987 RMK AO1 T03010185,KBKS,2018-03-27T18:15:00Z,27.2,-98.12,30.1,18.5,160,13,16,10.0,29.870079,,,TRUE,TRUE,,,,,,,BKN,4700,OVC,6000,,,,,VFR,,,,,,,,,,,,METAR,34.0
KBDH 271815Z AUTO 26007KT 7SM CLR 04/01 A3009 RMK AO2,KBDH,2018-03-27T18:15:00Z,45.12,-95.13,4.0,1.0,260,7,,7.0,30.088583,,,TRUE,TRUE,,,,,,,CLR,,,,,,,,VFR,,,,,,,,,,,,METAR,247.0
KBBP 271815Z AUTO 00000KT 10SM OVC026 10/03 A3043 RMK AO2,KBBP,2018-03-27T18:15:00Z,34.62,-79.73,10.0,3.0,0,0,,10.0,30.431103,,,TRUE,TRUE,,,,,,,OVC,2600,,,,,,,MVFR,,,,,,,,,,,,METAR,45.0
KBBF 271815Z AUTO 14015KT 2 1/2SM HZ CLR 23/21 A2996 RMK A01,KBBF,2018-03-27T18:15:00Z,27.83,-96.02,23.0,21.0,140,15,,2.5,29.958662,,,TRUE,TRUE,,,,,,HZ,CLR,,,,,,,,IFR,,,,,,,,,,,,METAR,36.0
KBAM 271815Z AUTO 29003KT 10SM CLR 07/M05 A3035 RMK AO1,KBAM,2018-03-27T18:15:00Z,,,7.0,-5.0,290,3,,10.0,30.351377,,,TRUE,TRUE,,,,,,,CLR,,,,,,,,VFR,,,,,,,,,,,,METAR,
KAZC 271815Z AUTO 28006KT 10SM CLR 10/M10 A3015 RMK AO2,KAZC,2018-03-27T18:15:00Z,36.97,-113.02,10.0,-10.0,280,6,,10.0,30.15059,,,TRUE,TRUE,,,,,,,CLR,,,,,,,,VFR,,,,,,,,,,,,METAR,1486.0
KAXX 271815Z AUTO 12007G15KT 10SM OVC030 01/M05 A3008 RMK AO2 T00061049,KAXX,2018-03-27T18:15:00Z,36.42,-105.28,0.6,-4.9,120,7,15,10.0,30.079725,,,TRUE,TRUE,,,,,,,OVC,3000,,,,,,,MVFR,,,,,,,,,,,,METAR,2548.0
KAXS 271815Z AUTO 04013KT 10SM OVC011 10/07 A3012 RMK AO2 T01020074,KAXS,2018-03-27T18:15:00Z,34.7,-99.33,10.2,7.4,40,13,,10.0,30.121063,,,TRUE,TRUE,,,,,,,OVC,1100,,,,,,,MVFR,,,,,,,,,,,,METAR,437.0
KAVQ 271815Z AUTO 00000KT 10SM BKN100 17/M06 A3001 RMK AO2 T01711059,KAVQ,2018-03-27T18:15:00Z,32.4,-111.22,17.1,-5.9,0,0,,10.0,30.008858,,,TRUE,TRUE,,,,,,,BKN,10000,,,,,,,VFR,,,,,,,,,,,,METAR,619.0
KAVC 271815Z AUTO 00000KT 10SM OVC006 04/04 A3050 RMK AO2 T00420039,KAVC,2018-03-27T18:15:00Z,36.68,-78.03,4.2,3.9,0,0,,10.0,30.499016,,,TRUE,TRUE,,,,,,,OVC,600,,,,,,,IFR,,,,,,,,,,,,METAR,135.0
KAUN 271815Z AUTO 25006KT 10SM CLR 16/02 A3024 RMK AO1,KAUN,2018-03-27T18:15:00Z,38.95,-121.08,16.0,2.0,250,6,,10.0,30.239174,,,TRUE,TRUE,,,,,,,CLR,,,,,,,,VFR,,,,,,,,,,,,METAR,467.0
KATP 271815Z AUTO 14019KT 8SM CLR 25/21 A3010 RMK A01,KATP,2018-03-27T18:15:00Z,27.2,-90.03,25.0,21.0,140,19,,8.0,30.100393,,,TRUE,TRUE,,,,,,,CLR,,,,,,,,VFR,,,,,,,,,,,,METAR,62.0
KASW 271815Z AUTO 24010G15KT 3SM -RA OVC006 11/11 A2998 RMK AO2,KASW,2018-03-27T18:15:00Z,41.27,-85.83,11.0,11.0,240,10,15,3.0,29.97933,,,TRUE,TRUE,,,,,,-RA,OVC,600,,,,,,,IFR,,,,,,,,,,,,METAR,259.0
KASN 271815Z AUTO 14008KT 10SM BKN030 BKN060 18/11 A3030 RMK AO2 T01770110,KASN,2018-03-27T18:15:00Z,33.57,-86.05,17.7,11.0,140,8,,10.0,30.301182,,,TRUE,TRUE,,,,,,,BKN,3000,BKN,6000,,,,,MVFR,,,,,,,,,,,,METAR,162.0
KARM 271815Z AUTO 15016KT 10SM SCT026 BKN034 26/18 A3000 RMK AO2 T02560184,KARM,2018-03-27T18:15:00Z,29.25,-96.15,25.6,18.4,150,16,,10.0,30.0,,,TRUE,TRUE,,,,,,,SCT,2600,BKN,3400,,,,,VFR,,,,,,,,,,,,METAR,31.0
KAJG 271815Z AUTO 22004KT 4SM RA OVC007 13/13 A3006 RMK AO2 T01300125,KAJG,2018-03-27T18:15:00Z,38.62,-87.73,13.0,12.5,220,4,,4.0,30.059055,,,TRUE,TRUE,,,,,,RA,OVC,700,,,,,,,IFR,,,,,,,,,,,,METAR,131.0
KAIT 271815Z AUTO 24005KT 10SM CLR 04/M03 A2998 RMK AO2,KAIT,2018-03-27T18:15:00Z,46.53,-93.67,4.0,-3.0,240,5,,10.0,29.97933,,,TRUE,TRUE,,,,,,,CLR,,,,,,,,VFR,,,,,,,,,,,,METAR,367.0
KAFO 271815Z AUTO 00000KT 10SM CLR M02/M08 A3021 RMK AO2,KAFO,2018-03-27T18:15:00Z,42.72,-110.95,-2.0,-8.0,0,0,,10.0,30.209646,,,TRUE,TRUE,,,,,,,CLR,,,,,,,,VFR,,,,,,,,,,,,METAR,1897.0
KADC 271815Z AUTO 24007KT 7SM CLR 04/M01 A2999 RMK AO2,KADC,2018-03-27T18:15:00Z,46.45,-95.22,4.0,-1.0,240,7,,7.0,29.991142,,,TRUE,TRUE,,,,,,,CLR,,,,,,,,VFR,,,,,,,,,,,,METAR,418.0
K82V 271815Z AUTO 10SM CLR 07/M07 A3012 RMK AO2 PWINO,K82V,2018-03-27T18:15:00Z,41.15,-104.13,7.0,-7.0,,,,10.0,30.121063,,,TRUE,TRUE,,,,,TRUE,,CLR,,,,,,,,VFR,,,,,,,,,,,,METAR,1570.0
K6A2 271815Z AUTO 13006KT 10SM BKN014 OVC055 13/08 A3036 RMK AO2,K6A2,2018-03-27T18:15:00Z,33.23,-84.27,13.0,8.0,130,6,,10.0,30.360237,,,TRUE,TRUE,,,,,,,BKN,1400,OVC,5500,,,,,MVFR,,,,,,,,,,,,METAR,292.0
K4V0 271815Z AUTO 08005G14KT 10SM CLR 06/M11 A3016 RMK AO2 T00601109,K4V0,2018-03-27T18:15:00Z,40.1,-108.77,6.0,-10.9,80,5,14,10.0,30.159449,,,TRUE,TRUE,,,,,,,CLR,,,,,,,,VFR,,,,,,,,,,,,METAR,1608.0
K4S2 271815Z AUTO 28010G22KT 10SM OVC043 10/05 A3034 RMK AO2,K4S2,2018-03-27T18:15:00Z,45.68,-121.55,10.0,5.0,280,10,22,10.0,30.339567,,,TRUE,TRUE,,,,,,,OVC,4300,,,,,,,VFR,,,,,,,,,,,,METAR,192.0
K4O4 271815Z AUTO 35008KT 10SM SCT002 BKN006 OVC036 17/15 A3000 RMK AO2,K4O4,2018-03-27T18:15:00Z,33.92,-94.87,17.0,15.0,350,8,,10.0,30.0,,,TRUE,TRUE,,,,,,,SCT,200,BKN,600,OVC,3600,,,IFR,,,,,,,,,,,,SPECI,144.0
K4A9 271815Z AUTO 12008KT 10SM OVC021 13/06 A3029 RMK AO2,K4A9,2018-03-27T18:15:00Z,34.47,-85.72,13.0,6.0,120,8,,10.0,30.28937,,,TRUE,TRUE,,,,,,,OVC,2100,,,,,,,MVFR,,,,,,,,,,,,METAR,267.0
K3R7 271815Z AUTO 16012G18KT 10SM SCT034 BKN048 OVC055 26/18 A3010 RMK AO2 T02580184,K3R7,2018-03-27T18:15:00Z,30.25,-92.67,25.8,18.4,160,12,18,10.0,30.100393,,,TRUE,TRUE,,,,,,,SCT,3400,BKN,4800,OVC,5500,,,VFR,,,,,,,,,,,,METAR,7.0
K3J7 271815Z AUTO 08003KT 10SM OVC018 12/07 A3035 RMK AO2,K3J7,2018-03-27T18:15:00Z,33.6,-83.13,12.0,7.0,80,3,,10.0,30.351377,,,TRUE,TRUE,,,,,,,OVC,1800,,,,,,,MVFR,,,,,,,,,,,,METAR,206.0
K3I2 271815Z AUTO 20005KT 10SM OVC029 15/09 A3015 RMK AO2 T01460086,K3I2,2018-03-27T18:15:00Z,38.92,-82.1,14.6,8.6,200,5,,10.0,30.15059,,,TRUE,TRUE,,,,,,,OVC,2900,,,,,,,MVFR,,,,,,,,,,,,METAR,196.0
K22N 271815Z AUTO 18003KT 10SM SCT120 06/M08 A3043 RMK AO2,K22N,2018-03-27T18:15:00Z,40.8,-75.77,6.0,-8.0,180,3,,10.0,30.431103,,,TRUE,TRUE,,,,,,,SCT,12000,,,,,,,VFR,,,,,,,,,,,,METAR,163.0
K1A9 271815Z AUTO 16005KT 10SM BKN030 19/12 A3029 RMK AO2 T01910117,K1A9,2018-03-27T18:15:00Z,32.43,-86.52,19.1,11.7,160,5,,10.0,30.28937,,,TRUE,TRUE,,,,,,,BKN,3000,,,,,,,MVFR,,,,,,,,,,,,METAR,69.0
K18H 271815Z AUTO 14021KT 10SM CLR 25/21 A3003 RMK A01,K18H,2018-03-27T18:15:00Z,,,25.0,21.0,140,21,,10.0,30.029528,,,TRUE,TRUE,,,,,,,CLR,,,,,,,,VFR,,,,,,,,,,,,METAR,
KRSV 271815Z AUTO 20009KT 5SM -RA OVC007 13/13 A3005 RMK AO2 T01300128,KRSV,2018-03-27T18:15:00Z,39.02,-87.65,13.0,12.8,200,9,,5.0,30.050198,,,TRUE,TRUE,,,,,,-RA,OVC,700,,,,,,,IFR,,,,,,,,,,,,METAR,141.0
KRSN 271815Z AUTO 18012G22KT 10SM SCT039 BKN048 BKN060 26/16 A3010 RMK AO2 T02630155,KRSN,2018-03-27T18:15:00Z,32.52,-92.58,26.3,15.5,180,12,22,10.0,30.100393,,,TRUE,TRUE,,,,,,,SCT,3900,BKN,4800,BKN,6000,,,VFR,,,,,,,,,,,,METAR,95.0
KRRL 271815Z AUTO 29007KT 10SM OVC017 03/00 A2995 RMK AO2 T00310002,KRRL,2018-03-27T18:15:00Z,45.2,-89.72,3.1,0.2,290,7,,10.0,29.949802,,,TRUE,TRUE,,,,,,,OVC,1700,,,,,,,MVFR,,,,,,,,,,,,METAR,401.0
KRQB 271815Z AUTO 28010G17KT 3SM BR OVC007 07/05 A2988 RMK AO2 T00650046,KRQB,2018-03-27T18:15:00Z,43.72,-85.5,6.5,4.6,280,10,17,3.0,29.878937,,,TRUE,TRUE,,,,,,BR,OVC,700,,,,,,,IFR,,,,,,,,,,,,METAR,302.0
KRNV 271815Z AUTO 18026G33KT 7SM CLR A3011 RMK AO2,KRNV,2018-03-27T18:15:00Z,33.77,-90.75,,,180,26,33,7.0,30.109253,,,TRUE,TRUE,,,,,,,CLR,,,,,,,,VFR,,,,,,,,,,,,METAR,41.0
KRMY 271815Z AUTO 22009KT 1 1/2SM BR OVC004 10/10 A2993 RMK AO2 T01020100,KRMY,2018-03-27T18:15:00Z,42.23,-84.95,10.2,10.0,220,9,,1.5,29.929134,,,TRUE,TRUE,,,,,,BR,OVC,400,,,,,,,LIFR,,,,,,,,,,,,METAR,287.0
KRFI 271815Z AUTO 19012G17KT 10SM OVC048 26/16 A3003 RMK AO2 T02590155,KRFI,2018-03-27T18:15:00Z,32.15,-94.85,25.9,15.5,190,12,17,10.0,30.029528,,,TRUE,TRUE,,,,,,,OVC,4800,,,,,,,VFR,,,,,,,,,,,,METAR,135.0
KRCX 271815Z AUTO 30008KT 10SM OVC013 02/00 A3001 RMK AO2 T00181004,KRCX,2018-03-27T18:15:00Z,45.5,-91.0,1.8,-0.4,300,8,,10.0,30.008858,,,TRUE,TRUE,,,,,,,OVC,1300,,,,,,,MVFR,,,,,,,,,,,,METAR,377.0
KPYX 271815Z AUTO 03011KT 10SM BKN014 OVC019 06/03 A3015 RMK AO2 T00600034,KPYX,2018-03-27T18:15:00Z,36.42,-100.75,6.0,3.4,30,11,,10.0,30.15059,,,TRUE,TRUE,,,,,,,BKN,1400,OVC,1900,,,,,MVFR,,,,,,,,,,,,METAR,889.0
KPWC 271815Z AUTO 25005KT 10SM CLR 03/M03 A3001 RMK AO2,KPWC,2018-03-27T18:15:00Z,46.72,-94.37,3.0,-3.0,250,5,,10.0,30.008858,,,TRUE,TRUE,,,,,,,CLR,,,,,,,,VFR,,,,,,,,,,,,METAR,395.0
KPVJ 271815Z AUTO 02009KT 10SM -RA OVC006 11/11 A3005 RMK AO2 T01100110,KPVJ,2018-03-27T18:15:00Z,34.72,-97.22,11.0,11.0,20,9,,10.0,30.050198,,,TRUE,TRUE,,,,,,-RA,OVC,600,,,,,,,IFR,,,,,,,,,,,,METAR,295.0
KPUJ 271815Z AUTO 15008KT 10SM OVC015 15/11 A3033 RMK AO2,KPUJ,2018-03-27T18:15:00Z,33.92,-84.93,15.0,11.0,150,8,,10.0,30.33071,,,TRUE,TRUE,,,,,,,OVC,1500,,,,,,,MVFR,,,,,,,,,,,,METAR,393.0
KPSN 271815Z AUTO 14014G21KT 10SM SCT036 SCT042 27/17 A3001 RMK AO2 T02690177,KPSN,2018-03-27T18:15:00Z,31.78,-95.7,26.9,17.7,140,14,21,10.0,30.008858,,,TRUE,TRUE,,,,,,,SCT,3600,SCT,4200,,,,,VFR,,,,,,,,,,,,METAR,129.0
KPKV 271815Z AUTO 12013KT 5SM HZ BKN016 OVC024 24/20 A2998 RMK AO2 T02390203,KPKV,2018-03-27T18:15:00Z,28.65,-96.68,23.9,20.3,120,13,,5.0,29.97933,,,TRUE,TRUE,,,,,,HZ,BKN,1600,OVC,2400,,,,,MVFR,,,,,,,,,,,,METAR,9.0
KPEZ 271815Z AUTO 16011G17KT 10SM SCT031 SCT038 BKN055 27/19 A2992 RMK AO2 T02740185,KPEZ,2018-03-27T18:15:00Z,28.95,-98.52,27.4,18.5,160,11,17,10.0,29.920275,,,TRUE,TRUE,,,,,,,SCT,3100,SCT,3800,BKN,5500,,,VFR,,,,,,,,,,,,METAR,132.0
KPEX 271815Z AUTO 23008KT 10SM CLR 06/02 A3005 RMK AO2 T00560019,KPEX,2018-03-27T18:15:00Z,45.37,-94.73,5.6,1.9,230,8,,10.0,30.050198,,,TRUE,TRUE,,,,,,,CLR,,,,,,,,VFR,,,,,,,,,,,,METAR,360.0
KPCZ 271815Z AUTO 27012KT 10SM OVC019 07/02 A2996 RMK AO2 T00650015,KPCZ,2018-03-27T18:15:00Z,44.33,-89.02,6.5,1.5,270,12,,10.0,29.958662,,,TRUE,TRUE,,,,,,,OVC,1900,,,,,,,MVFR,,,,,,,,,,,,METAR,252.0
KPCM 271815Z AUTO 09011G20KT 10SM CLR 27/11 A3026 RMK AO2,KPCM,2018-03-27T18:15:00Z,28.0,-82.17,27.0,11.0,90,11,20,10.0,30.259842,,,TRUE,TRUE,,,,,,,CLR,,,,,,,,VFR,,,,,,,,,,,,METAR,47.0
KPCD 271815Z AUTO 16004KT 4SM RA BKN008 BKN016 OVC032 14/13 A3003 RMK AO2 T01370130,KPCD,2018-03-27T18:15:00Z,37.87,-89.87,13.7,13.0,160,4,,4.0,30.029528,,,TRUE,TRUE,,,,,,RA,BKN,800,BKN,1600,OVC,3200,,,IFR,,,,,,,,,,,,METAR,113.0
KPBH 271815Z AUTO 31006KT 10SM OVC011 01/M01 A2996 RMK AO2 T00061006,KPBH,2018-03-27T18:15:00Z,45.7,-90.4,0.6,-0.6,310,6,,10.0,29.958662,,,TRUE,TRUE,,,,,,,OVC,1100,,,,,,,MVFR,,,,,,,,,,,,METAR,449.0
KOZS 271815Z AUTO 35004KT 7SM -RA BKN004 OVC010 07/07 A3007 RMK AO2 P0001,KOZS,2018-03-27T18:15:00Z,37.97,-92.68,7.0,7.0,350,4,,7.0,30.070866,,,TRUE,TRUE,,,,,,-RA,BKN,400,OVC,1000,,,,,LIFR,,,,,,0.01,,,,,,METAR,324.0
KOWP 271815Z AUTO 34003KT 7SM -RA OVC008 10/09 A3009 RMK AO2 T00990087,KOWP,2018-03-27T18:15:00Z,36.18,-96.15,9.9,8.7,340,3,,7.0,30.088583,,,TRUE,TRUE,,,,,,-RA,OVC,800,,,,,,,IFR,,,,,,,,,,,,METAR,272.0
KOVL 271815Z AUTO 26007KT 10SM CLR 05/01 A3006 RMK AO2,KOVL,2018-03-27T18:15:00Z,44.78,-95.03,5.0,1.0,260,7,,10.0,30.059055,,,TRUE,TRUE,,,,,,,CLR,,,,,,,,VFR,,,,,,,,,,,,METAR,328.0
KORG 271815Z AUTO 16011G16KT 7SM BKN021 OVC029 25/21 A3009 RMK AO2 T02470208,KORG,2018-03-27T18:15:00Z,30.07,-93.8,24.7,20.8,160,11,16,7.0,30.088583,,,TRUE,TRUE,,,,,,,BKN,2100,OVC,2900,,,,,MVFR,,,,,,,,,,,,METAR,4.0
KOOA 271815Z AUTO 32009KT 7SM OVC009 03/01 A3013 RMK AO2 T00300012,KOOA,2018-03-27T18:15:00Z,41.23,-92.5,3.0,1.2,320,9,,7.0,30.129921,,,TRUE,TRUE,,,,,,,OVC,900,,,,,,,IFR,,,,,,,,,,,,METAR,256.0
KOLE 271815Z AUTO 18011G16KT 4SM UP OVC008 00/M01 A3010 RMK AO2,KOLE,2018-03-27T18:15:00Z,42.23,-78.37,0.0,-1.0,180,11,16,4.0,30.100393,,,TRUE,TRUE,,,,,,UP,OVC,800,,,,,,,IFR,,,,,,,,,,,,METAR,651.0
KOJA 271815Z AUTO 02016G21KT 10SM OVC011 07/06 A3011 RMK AO2,KOJA,2018-03-27T18:15:00Z,35.55,-98.67,7.0,6.0,20,16,21,10.0,30.109253,,,TRUE,TRUE,,,,,,,OVC,1100,,,,,,,MVFR,,,,,,,,,,,,METAR,490.0
KOBE 271815Z AUTO 10008G18KT 055V125 10SM BKN047 24/12 A3025 RMK AO2,KOBE,2018-03-27T18:15:00Z,27.27,-80.85,24.0,12.0,100,8,18,10.0,30.250984,,,TRUE,TRUE,,,,,,,BKN,4700,,,,,,,VFR,,,,,,,,,,,,METAR,11.0
KN03 271815Z AUTO 16007KT 10SM BKN110 03/M08 A3026 RMK AO2,KN03,2018-03-27T18:15:00Z,42.6,-76.22,3.0,-8.0,160,7,,10.0,30.259842,,,TRUE,TRUE,,,,,,,BKN,11000,,,,,,,VFR,,,,,,,,,,,,METAR,366.0
KMZG 271815Z AUTO 20014KT 3SM BR CLR 23/23 A2995 RMK A01,KMZG,2018-03-27T18:15:00Z,27.73,-96.18,23.0,23.0,200,14,,3.0,29.949802,,,TRUE,TRUE,,,,,,BR,CLR,,,,,,,,MVFR,,,,,,,,,,,,METAR,29.0
KMWM 271815Z AUTO 25008KT 10SM 04/M06 A3009 RMK AO2,KMWM,2018-03-27T18:15:00Z,43.9,-95.1,4.0,-6.0,250,8,,10.0,30.088583,,,TRUE,TRUE,,,,,,,,,,,,,,,,,,,,,,,,,,,METAR,430.0
KMRT 271815Z AUTO 22009G15KT 1 3/4SM OVC003 11/10 A3007 RMK AO2 P0001 T01060101,KMRT,2018-03-27T18:15:00Z,40.22,-83.35,10.6,10.1,220,9,15,1.75,30.070866,,,TRUE,TRUE,,,,,,,OVC,300,,,,,,,LIFR,,,,,,0.01,,,,,,METAR,312.0
KMOX 271815Z AUTO 21007KT 10SM CLR 06/02 A3003 RMK AO2,KMOX,2018-03-27T18:15:00Z,45.57,-95.97,6.0,2.0,210,7,,10.0,30.029528,,,TRUE,TRUE,,,,,,,CLR,,,,,,,,VFR,,,,,,,,,,,,METAR,344.0
KMNE 271815Z AUTO 17011G18KT 10SM BKN044 BKN050 28/17 A3004 RMK AO2 T02760167,KMNE,2018-03-27T18:15:00Z,32.65,-93.3,27.6,16.7,170,11,18,10.0,30.041338,,,TRUE,TRUE,,,,,,,BKN,4400,BKN,5000,,,,,VFR,,,,,,,,,,,,METAR,85.0
KMMH 271815Z AUTO 27006G14KT 10SM CLR 08/M11 A3033 RMK AO2 T00751112,KMMH,2018-03-27T18:15:00Z,37.62,-118.82,7.5,-11.2,270,6,14,10.0,30.33071,,,TRUE,TRUE,,,,,,,CLR,,,,,,,,VFR,,,,,,,,,,,,METAR,2173.0
KMIS 271815Z AUTO VRB04G11KT 8SM SCT042 BKN049 25/20 A3019 RMK A01,KMIS,2018-03-27T18:15:00Z,29.3,-88.85,25.0,20.0,0,4,11,8.0,30.188976,,,TRUE,TRUE,,,,,,,SCT,4200,BKN,4900,,,,,VFR,,,,,,,,,,,,METAR,32.0
KMGN 271815Z AUTO 26005KT 1/2SM FG OVC002 02/02 A2983 RMK AO2 T00280026,KMGN,2018-03-27T18:15:00Z,45.43,-84.92,2.8,2.6,260,5,,0.5,29.828741,,,TRUE,TRUE,,,,,,FG,OVC,200,,,,,,,LIFR,,,,,,,,,,,,METAR,209.0
KMGG 271815Z AUTO 26008KT 10SM CLR 06/01 A3006 RMK AO2 T00550006,KMGG,2018-03-27T18:15:00Z,45.23,-93.98,5.5,0.6,260,8,,10.0,30.059055,,,TRUE,TRUE,,,,,,,CLR,,,,,,,,VFR,,,,,,,,,,,,METAR,313.0
KMGC 271815Z AUTO 28005KT 1 1/4SM DZ OVC003 09/09 A2997 RMK AO2,KMGC,2018-03-27T18:15:00Z,41.7,-86.82,9.0,9.0,280,5,,1.25,29.970472,,,TRUE,TRUE,,,,,,DZ,OVC,300,,,,,,,LIFR,,,,,,,,,,,,METAR,200.0
KMFV 271815Z AUTO 00000KT 10SM SCT029 09/02 A3046 RMK AO2 T00870015,KMFV,2018-03-27T18:15:00Z,37.63,-75.77,8.7,1.5,0,0,,10.0,30.46063,,,TRUE,TRUE,,,,,,,SCT,2900,,,,,,,VFR,,,,,,,,,,,,METAR,15.0
KMEZ 271815Z AUTO 00000KT 7SM SCT006 SCT029 OVC035 A3002 RMK AO2 P0007,KMEZ,2018-03-27T18:15:00Z,34.55,-94.2,,,0,0,,7.0,30.02067,,,TRUE,TRUE,,,,,,,SCT,600,SCT,2900,OVC,3500,,,VFR,,,,,,0.07,,,,,,METAR,329.0
KMDJ 271815Z AUTO 15017KT 6SM HZ CLR 24/20 A3014 RMK A01,KMDJ,2018-03-27T18:15:00Z,28.65,-89.8,24.0,20.0,150,17,,6.0,30.138779,,,TRUE,TRUE,,,,,,HZ,CLR,,,,,,,,VFR,,,,,,,,,,,,METAR,31.0
KM21 271815Z AUTO 18014G21KT 10SM SCT026 17/11 A3010 RMK AO2 T01740112,KM21,2018-03-27T18:15:00Z,37.22,-87.15,17.4,11.2,180,14,21,10.0,30.100393,,,TRUE,TRUE,,,,,,,SCT,2600,,,,,,,VFR,,,,,,,,,,,,METAR,129.0
KLXY 271815Z AUTO 19018G23KT 10SM SCT040 BKN060 OVC075 26/17 A2999 RMK AO2 T02640172,KLXY,2018-03-27T18:15:00Z,31.63,-96.52,26.4,17.2,190,18,23,10.0,29.991142,,,TRUE,TRUE,,,,,,,SCT,4000,BKN,6000,OVC,7500,,,VFR,,,,,,,,,,,,METAR,166.0
KLUM 271815Z AUTO 28011G14KT 10SM OVC015 02/00 A3004 RMK AO2 T00231005,KLUM,2018-03-27T18:15:00Z,44.9,-91.87,2.3,-0.5,280,11,14,10.0,30.041338,,,TRUE,TRUE,,,,,,,OVC,1500,,,,,,,MVFR,,,,,,,,,,,,METAR,273.0
KLNL 271815Z AUTO 29007KT 260V320 10SM BKN010 OVC016 02/00 A2992 RMK AO2 T00151001,KLNL,2018-03-27T18:15:00Z,46.15,-89.22,1.5,-0.1,290,7,,10.0,29.920275,,,TRUE,TRUE,,,,,,,BKN,1000,OVC,1600,,,,,MVFR,,,,,,,,,,,,METAR,520.0
KLNA 271815Z AUTO 07016G23KT 10SM SCT041 SCT047 24/13 A3025 RMK AO2 T02360126,KLNA,2018-03-27T18:15:00Z,26.6,-80.02,23.6,12.6,70,16,23,10.0,30.250984,,,TRUE,TRUE,,,,,,,SCT,4100,SCT,4700,,,,,VFR,,,,,,,,,,,,METAR,11.0
KLMO 271815Z AUTO 18009KT 10SM CLR 07/00 A3015 RMK AO2 T00710000,KLMO,2018-03-27T18:15:00Z,40.17,-105.17,7.1,0.0,180,9,,10.0,30.15059,,,TRUE,TRUE,,,,,,,CLR,,,,,,,,VFR,,,,,,,,,,,,METAR,1541.0
KLJF 271815Z AUTO 29008KT 10SM CLR 07/01 A3006 RMK AO2,KLJF,2018-03-27T18:15:00Z,45.1,-94.52,7.0,1.0,290,8,,10.0,30.059055,,,TRUE,TRUE,,,,,,,CLR,,,,,,,,VFR,,,,,,,,,,,,METAR,348.0
KW29 271815Z AUTO 27003KT 7SM SCT095 SCT120 06/00 A3046 RMK AO2,KW29,2018-03-27T18:15:00Z,38.98,-76.33,6.0,0.0,270,3,,7.0,30.46063,,,TRUE,TRUE,,,,,,,SCT,9500,SCT,12000,,,,,VFR,,,,,,,,,,,,SPECI,15.0
KEZS 271815Z AUTO 28010G15KT 10SM BKN020 OVC028 07/02 A2993 RMK AO2 T00660020,KEZS,2018-03-27T18:15:00Z,44.78,-88.57,6.6,2.0,280,10,15,10.0,29.929134,,,TRUE,TRUE,,,,,,,BKN,2000,OVC,2800,,,,,MVFR,,,,,,,,,,,,METAR,248.0
KEQA 271815Z AUTO 02014KT 10SM OVC011 06/05 A3012 RMK AO2,KEQA,2018-03-27T18:15:00Z,37.78,-96.82,6.0,5.0,20,14,,10.0,30.121063,,,TRUE,TRUE,,,,,,,OVC,1100,,,,,,,MVFR,,,,,,,,,,,,METAR,420.0
KEIR 271815Z AUTO 17010KT 7SM FEW033 FEW044 24/21 A3012 RMK A01,KEIR,2018-03-27T18:15:00Z,28.63,-91.48,24.0,21.0,170,10,,7.0,30.121063,,,TRUE,TRUE,,,,,,,FEW,3300,FEW,4400,,,,,VFR,,,,,,,,,,,,METAR,28.0
KEHC 271815Z AUTO 14017KT 5SM HZ CLR A3007 RMK A01,KEHC,2018-03-27T18:15:00Z,28.43,-92.88,,,140,17,,5.0,30.070866,,,TRUE,TRUE,,,,,,HZ,CLR,,,,,,,,MVFR,,,,,,,,,,,,METAR,31.0
KBXA 271815Z AUTO 12010KT 10SM SCT025 BKN030 OVC055 22/16 A3020 RMK AO2 T02180163,KBXA,2018-03-27T18:15:00Z,30.82,-89.87,21.8,16.3,120,10,,10.0,30.200787,,,TRUE,TRUE,,,,,,,SCT,2500,BKN,3000,OVC,5500,,,MVFR,,,,,,,,,,,,METAR,36.0
KLVN 271815Z AUTO 27008KT 10SM OVC014 01/M01 A3007 RMK AO2,KLVN,2018-03-27T18:15:00Z,44.63,-93.23,1.0,-1.0,270,8,,10.0,30.070866,,,TRUE,TRUE,,,,,,,OVC,1400,,,,,,,MVFR,,,,,,,,,,,,METAR,293.0
KLRO 271815Z AUTO 00000KT 9SM SCT016 13/08 A3040 RMK AO2,KLRO,2018-03-27T18:15:00Z,32.9,-79.78,13.0,8.0,0,0,,9.0,30.398623,,,TRUE,TRUE,,,,,,,SCT,1600,,,,,,,VFR,,,,,,,,,,,,METAR,4.0
KLCK 271815Z AUTO 19008KT 3SM BR SCT008 OVC013 10/10 A3009 RMK AO2 T01000099,KLCK,2018-03-27T18:15:00Z,39.82,-82.92,10.0,9.9,190,8,,3.0,30.088583,,,TRUE,TRUE,,,,,,BR,SCT,800,OVC,1300,,,,,MVFR,,,,,,,,,,,,METAR,227.0
KFGX 271815Z AUTO 22015G18KT 10SM OVC024 15/10 A3013 RMK AO2 T01460099,KFGX,2018-03-27T18:15:00Z,38.55,-83.75,14.6,9.9,220,15,18,10.0,30.129921,,,TRUE,TRUE,,,,,,,OVC,2400,,,,,,,MVFR,,,,,,,,,,,,METAR,278.0
KF46 271815Z AUTO 35005KT 3SM +RA SCT004 OVC030 17/17 A3003 RMK AO2 LTG DSNT W P0009 T01720172,KF46,2018-03-27T18:15:00Z,32.93,-96.43,17.2,17.2,350,5,,3.0,30.029528,,,TRUE,TRUE,,,,,,+RA,SCT,400,OVC,3000,,,,,MVFR,,,,,,0.09,,,,,,METAR,176.0
KFMM 271815Z AUTO 23004KT 10SM CLR 08/M07 A3015 RMK AO2 T00841068,KFMM,2018-03-27T18:15:00Z,40.33,-103.8,8.4,-6.8,230,4,,10.0,30.15059,,,TRUE,TRUE,,,,,,,CLR,,,,,,,,VFR,,,,,,,,,,,,METAR,1393.0
KFLY 271815Z AUTO 00000KT 7SM SCT017 BKN022 BKN038 01/M06 A3018 RMK AO2 T00141058,KFLY,2018-03-27T18:15:00Z,38.95,-104.57,1.4,-5.8,0,0,,7.0,30.180119,,,TRUE,TRUE,,,,,,,SCT,1700,BKN,2200,BKN,3800,,,MVFR,,,,,,,,,,,,METAR,2096.0
KFKS 271815Z AUTO 29008KT 7SM BKN005 OVC010 05/05 A2989 RMK AO2 T00490047,KFKS,2018-03-27T18:15:00Z,44.63,-86.2,4.9,4.7,290,8,,7.0,29.890747,,,TRUE,TRUE,,,,,,,BKN,500,OVC,1000,,,,,IFR,,,,,,,,,,,,METAR,193.0
KFRR 271815Z AUTO 22003KT 5SM OVC018 03/02 A3037 RMK AO1 P0002,KFRR,2018-03-27T18:15:00Z,38.92,-78.25,3.0,2.0,220,3,,5.0,30.369095,,,TRUE,TRUE,,,,,,,OVC,1800,,,,,,,MVFR,,,,,,0.02,,,,,,METAR,216.0
KFRH 271815Z AUTO 20005KT 10SM OVC013 12/ A3008 RMK AO1,KFRH,2018-03-27T18:15:00Z,38.5,-86.63,12.0,,200,5,,10.0,30.079725,,,TRUE,TRUE,,,,,,,OVC,1300,,,,,,,MVFR,,,,,,,,,,,,METAR,241.0
KFPK 271815Z AUTO 22009KT 1 3/4SM BR OVC006 11/10 A2990 RMK AO2 T01050095,KFPK,2018-03-27T18:15:00Z,42.57,-84.82,10.5,9.5,220,9,,1.75,29.899607,,,TRUE,TRUE,,,,,,BR,OVC,600,,,,,,,IFR,,,,,,,,,,,,METAR,272.0
KFOA 271815Z AUTO 20008KT 4SM RA SCT006 OVC012 14/14 A3005 RMK AO2 P0001 T01420135,KFOA,2018-03-27T18:15:00Z,38.67,-88.45,14.2,13.5,200,8,,4.0,30.050198,,,TRUE,TRUE,,,,,,RA,SCT,600,OVC,1200,,,,,MVFR,,,,,,0.01,,,,,,METAR,144.0
KPIM 271815Z AUTO 14005KT 10SM OVC050 17/11 A3032 RMK AO2 T01710105 PWINO,KPIM,2018-03-27T18:15:00Z,32.83,-84.88,17.1,10.5,140,5,,10.0,30.318897,,,TRUE,TRUE,,,,,TRUE,,OVC,5000,,,,,,,VFR,,,,,,,,,,,,METAR,275.0
KNOW 271815Z AUTO 24003KT 10SM -DZ OVC050 10/08 A3026 RMK AO2 T00960080,KNOW,2018-03-27T18:15:00Z,48.13,-123.4,9.6,8.0,240,3,,10.0,30.259842,,,TRUE,TRUE,,,,,,-DZ,OVC,5000,,,,,,,VFR,,,,,,,,,,,,SPECI,4.0
KMKJ 271815Z AUTO 08004KT 10SM OVC028 09/02 A3032 RMK AO2 T00890019,KMKJ,2018-03-27T18:15:00Z,36.88,-81.33,8.9,1.9,80,4,,10.0,30.318897,,,TRUE,TRUE,,,,,,,OVC,2800,,,,,,,MVFR,,,,,,,,,,,,METAR,780.0
KMGR 271815Z AUTO 14006KT 10SM BKN029 BKN043 21/15 A3031 RMK AO2,KMGR,2018-03-27T18:15:00Z,31.08,-83.8,21.0,15.0,140,6,,10.0,30.31004,,,TRUE,TRUE,,,,,,,BKN,2900,BKN,4300,,,,,MVFR,,,,,,,,,,,,METAR,90.0
KGAO 271815Z AUTO 11009KT 10SM SCT020 BKN035 OVC050 25/19 A3016 RMK AO2 T02520188,KGAO,2018-03-27T18:15:00Z,29.45,-90.27,25.2,18.8,110,9,,10.0,30.159449,,,TRUE,TRUE,,,,,,,SCT,2000,BKN,3500,OVC,5000,,,VFR,,,,,,,,,,,,METAR,1.0
KFXY 271815Z AUTO 32008KT 10SM OVC009 02/00 A3010 RMK AO2,KFXY,2018-03-27T18:15:00Z,43.23,-93.62,2.0,0.0,320,8,,10.0,30.100393,,,TRUE,TRUE,,,,,,,OVC,900,,,,,,,IFR,,,,,,,,,,,,METAR,375.0
KFWZ 271815Z AUTO 22012KT 10SM CLR M02/M08 RMK AO2 TSNO,KFWZ,2018-03-27T18:15:00Z,42.52,-108.78,-2.0,-8.0,220,12,,10.0,,,,TRUE,TRUE,,,TRUE,,,,CLR,,,,,,,,VFR,,,,,,,,,,,,METAR,2588.0
KFWB 271815Z AUTO 35005KT 3SM -RA OVC004 13/13 A3003 RMK AO2 P0002,KFWB,2018-03-27T18:15:00Z,36.7,-93.4,13.0,13.0,350,5,,3.0,30.029528,,,TRUE,TRUE,,,,,,-RA,OVC,400,,,,,,,LIFR,,,,,,0.02,,,,,,METAR,406.0
KFSW 271815Z AUTO 31009KT 10SM OVC017 06/04 A3011 RMK AO2,KFSW,2018-03-27T18:15:00Z,40.67,-91.32,6.0,4.0,310,9,,10.0,30.109253,,,TRUE,TRUE,,,,,,,OVC,1700,,,,,,,MVFR,,,,,,,,,,,,METAR,221.0
KSBO 271815Z AUTO 16005KT 10SM SCT028 BKN034 19/11 A3036 RMK AO2,KSBO,2018-03-27T18:15:00Z,32.62,-82.37,19.0,11.0,160,5,,10.0,30.360237,,,TRUE,TRUE,,,,,,,SCT,2800,BKN,3400,,,,,VFR,,,,,,,,,,,,METAR,100.0
KRBO 271815Z AUTO 14018G24KT 10SM BKN026 BKN034 BKN042 28/21 A2991 RMK AO2 T02790206,KRBO,2018-03-27T18:15:00Z,27.78,-97.68,27.9,20.6,140,18,24,10.0,29.911417,,,TRUE,TRUE,,,,,,,BKN,2600,BKN,3400,BKN,4200,,,MVFR,,,,,,,,,,,,SPECI,24.0
KPRO 271815Z AUTO 32008KT 10SM OVC015 04/02 A3015 RMK AO2 T00410015,KPRO,2018-03-27T18:15:00Z,41.83,-94.17,4.1,1.5,320,8,,10.0,30.15059,,,TRUE,TRUE,,,,,,,OVC,1500,,,,,,,MVFR,,,,,,,,,,,,METAR,308.0
KW43 271815Z AUTO 22008G17KT 10SM CLR 03/M03 A3001 RMK AO2,KW43,2018-03-27T18:15:00Z,44.67,-104.57,3.0,-3.0,220,8,17,10.0,30.008858,,,TRUE,TRUE,,,,,,,CLR,,,,,,,,VFR,,,,,,,,,,,,SPECI,1300.0
KSFQ 271815Z AUTO 36005KT 10SM -RA OVC055 10/03 A3044 RMK AO2 T01000029,KSFQ,2018-03-27T18:15:00Z,36.68,-76.6,10.0,2.9,360,5,,10.0,30.43996,,,TRUE,TRUE,,,,,,-RA,OVC,5500,,,,,,,VFR,,,,,,,,,,,,METAR,22.0
LMML 271815Z 32011KT 9999 FEW025 13/08 Q1015 NOSIG,LMML,2018-03-27T18:15:00Z,35.85,14.47,13.0,8.0,320,11,,6.21,29.970472,,,,,,TRUE,,,,,FEW,2500,,,,,,,VFR,,,,,,,,,,,,METAR,91.0
LIPR 271815Z 13004KT CAVOK 12/06 Q1012,LIPR,2018-03-27T18:15:00Z,44.02,12.62,12.0,6.0,130,4,,6.21,29.88189,,,,,,,,,,,CAVOK,,,,,,,,VFR,,,,,,,,,,,,METAR,13.0
KRQO 271815Z AUTO 02019KT 7SM BR OVC007 08/07 A3011 RMK AO2 T00760065,KRQO,2018-03-27T18:15:00Z,35.47,-98.0,7.6,6.5,20,19,,7.0,30.109253,,,TRUE,TRUE,,,,,,BR,OVC,700,,,,,,,IFR,,,,,,,,,,,,SPECI,432.0
KPSK 271815Z AUTO 23004KT 10SM BKN025 07/01 A3033 RMK AO2 T00720013,KPSK,2018-03-27T18:15:00Z,37.12,-80.67,7.2,1.3,230,4,,10.0,30.33071,,,TRUE,TRUE,,,,,,,BKN,2500,,,,,,,MVFR,,,,,,,,,,,,SPECI,642.0
KVBW 271815Z AUTO 10SM OVC009 03/02 A3036 RMK AO2 T00260017,KVBW,2018-03-27T18:15:00Z,38.37,-78.97,2.6,1.7,,,,10.0,30.360237,,,TRUE,TRUE,,,,,,,OVC,900,,,,,,,IFR,,,,,,,,,,,,SPECI,355.0
KTMT 271815Z AUTO 19005KT 7SM CLR 05/M09 A3035 RMK AO2 T00501086,KTMT,2018-03-27T18:15:00Z,39.47,-117.2,5.0,-8.6,190,5,,7.0,30.351377,,,TRUE,TRUE,,,,,,,CLR,,,,,,,,VFR,,,,,,,,,,,,METAR,1748.0
KSME 271815Z AUTO 22009G14KT 180V270 10SM SCT045 18/08 A3019 RMK AO2,KSME,2018-03-27T18:15:00Z,37.05,-84.62,18.0,8.0,220,9,14,10.0,30.188976,,,TRUE,TRUE,,,,,,,SCT,4500,,,,,,,VFR,,,,,,,,,,,,SPECI,283.0
KSHD 271815Z AUTO 20007KT 10SM BKN015 OVC021 02/01 A3039 RMK AO2 T00240010,KSHD,2018-03-27T18:15:00Z,38.27,-78.9,2.4,1.0,200,7,,10.0,30.389763,,,TRUE,TRUE,,,,,,,BKN,1500,OVC,2100,,,,,MVFR,,,,,,,,,,,,SPECI,366.0
KSEF 271815Z AUTO 10015G22KT 10SM CLR 27/10 A3025 RMK AO2 T02650100,KSEF,2018-03-27T18:15:00Z,27.45,-81.35,26.5,10.0,100,15,22,10.0,30.250984,,,TRUE,TRUE,,,,,,,CLR,,,,,,,,VFR,,,,,,,,,,,,SPECI,19.0
KEHY 271815Z AUTO 26017G24KT 10SM CLR 03/M13 A3004 RMK AO2,KEHY,2018-03-27T18:15:00Z,41.73,-106.47,3.0,-13.0,260,17,24,10.0,30.041338,,,TRUE,TRUE,,,,,,,CLR,,,,,,,,VFR,,,,,,,,,,,,SPECI,2225.0
KDWX 271815Z AUTO 00000KT 10SM CLR 02/M12 A3016 RMK AO2 T00211116,KDWX,2018-03-27T18:15:00Z,41.03,-107.5,2.1,-11.6,0,0,,10.0,30.159449,,,TRUE,TRUE,,,,,,,CLR,,,,,,,,VFR,,,,,,,,,,,,SPECI,1996.0
KDVK 271815Z AUTO 22015G25KT 170V240 10SM SCT085 18/11 A3015 RMK AO2,KDVK,2018-03-27T18:15:00Z,37.58,-84.77,18.0,11.0,220,15,25,10.0,30.15059,,,TRUE,TRUE,,,,,,,SCT,8500,,,,,,,VFR,,,,,,,,,,,,SPECI,312.0
KCTJ 271815Z AUTO 12006KT 10SM OVC016 12/08 A3036 RMK AO2 T01230075,KCTJ,2018-03-27T18:15:00Z,33.63,-85.15,12.3,7.5,120,6,,10.0,30.360237,,,TRUE,TRUE,,,,,,,OVC,1600,,,,,,,MVFR,,,,,,,,,,,,SPECI,354.0
KCHK 271815Z AUTO 36012KT 10SM OVC009 09/07 A3008 RMK AO2 T00900075,KCHK,2018-03-27T18:15:00Z,35.1,-97.97,9.0,7.5,360,12,,10.0,30.079725,,,TRUE,TRUE,,,,,,,OVC,900,,,,,,,IFR,,,,,,,,,,,,SPECI,351.0
KCBK 271815Z AUTO 04009KT 10SM CLR 10/00 A3017 RMK AO2,KCBK,2018-03-27T18:15:00Z,39.43,-101.05,10.0,0.0,40,9,,10.0,30.171259,,,TRUE,TRUE,,,,,,,CLR,,,,,,,,VFR,,,,,,,,,,,,SPECI,971.0
KBWP 271815Z AUTO 19003KT 7SM CLR 03/00 A3002 RMK AO1,KBWP,2018-03-27T18:15:00Z,46.25,-96.62,3.0,0.0,190,3,,7.0,30.02067,,,TRUE,TRUE,,,,,,,CLR,,,,,,,,VFR,,,,,,,,,,,,SPECI,295.0
KBCB 271815Z AUTO 18005KT 10SM OVC024 07/02 A3035 RMK AO2 T00650023,KBCB,2018-03-27T18:15:00Z,37.22,-80.42,6.5,2.3,180,5,,10.0,30.351377,,,TRUE,TRUE,,,,,,,OVC,2400,,,,,,,MVFR,,,,,,,,,,,,SPECI,650.0
KACJ 271815Z AUTO 15008KT 10SM BKN029 OVC060 20/09 A3033 RMK AO2,KACJ,2018-03-27T18:15:00Z,32.12,-84.18,20.0,9.0,150,8,,10.0,30.33071,,,TRUE,TRUE,,,,,,,BKN,2900,OVC,6000,,,,,MVFR,,,,,,,,,,,,SPECI,143.0
K1K1 271815Z AUTO 03009KT 10SM OVC015 05/02 A3015 RMK AO2 T00500020,K1K1,2018-03-27T18:15:00Z,37.77,-97.12,5.0,2.0,30,9,,10.0,30.15059,,,TRUE,TRUE,,,,,,,OVC,1500,,,,,,,MVFR,,,,,,,,,,,,SPECI,416.0
K1F0 271815Z AUTO 00000KT 10SM -RA OVC005 14/12 A3005 RMK AO2 P0001,K1F0,2018-03-27T18:15:00Z,34.15,-97.12,14.0,12.0,0,0,,10.0,30.050198,,,TRUE,TRUE,,,,,,-RA,OVC,500,,,,,,,IFR,,,,,,0.01,,,,,,SPECI,257.0
KW99 271815Z AUTO 00000KT 10SM SCT024 OVC033 05/03 A3030 RMK AO2 T00520032,KW99,2018-03-27T18:15:00Z,39.0,-79.15,5.2,3.2,0,0,,10.0,30.301182,,,TRUE,TRUE,,,,,,,SCT,2400,OVC,3300,,,,,VFR,,,,,,,,,,,,SPECI,293.0
KGVT 271815Z AUTO 34003KT 7SM RA SCT005 OVC028 18/18 A3002 RMK AO2 P0001,KGVT,2018-03-27T18:15:00Z,33.07,-96.07,18.0,18.0,340,3,,7.0,30.02067,,,TRUE,TRUE,,,,,,RA,SCT,500,OVC,2800,,,,,MVFR,,,,,,0.01,,,,,,SPECI,163.0
KFME 271815Z AUTO 20006KT 10SM OVC075 07/M02 A3046 RMK AO1,KFME,2018-03-27T18:15:00Z,39.08,-76.77,7.0,-2.0,200,6,,10.0,30.46063,,,TRUE,TRUE,,,,,,,OVC,7500,,,,,,,VFR,,,,,,,,,,,,SPECI,46.0
LHSN 271815Z 22004KT CAVOK 06/03 Q1012 TEMPO -SHRA RMK BLU,LHSN,2018-03-27T18:15:00Z,47.12,20.23,6.0,3.0,220,4,,6.21,29.88189,,,,,,,,,,,CAVOK,,,,,,,,VFR,,,,,,,,,,,,METAR,98.0
LHKE 271815Z 28004KT CAVOK 06/M01 Q1012 NOSIG RMK BLU,LHKE,2018-03-27T18:15:00Z,46.92,19.75,6.0,-1.0,280,4,,6.21,29.88189,,,,,,TRUE,,,,,CAVOK,,,,,,,,VFR,,,,,,,,,,,,METAR,115.0
LIRP 271815Z 24002KT 9999 FEW025 12/10 Q1013 NOSIG,LIRP,2018-03-27T18:15:00Z,43.67,10.37,12.0,10.0,240,2,,6.21,29.911417,,,,,,TRUE,,,,,FEW,2500,,,,,,,VFR,,,,,,,,,,,,METAR,2.0
KHVS 271815Z AUTO 04003KT 10SM OVC018 08/03 A3042 RMK AO2,KHVS,2018-03-27T18:15:00Z,34.4,-80.12,8.0,3.0,40,3,,10.0,30.41929,,,TRUE,TRUE,,,,,,,OVC,1800,,,,,,,MVFR,,,,,,,,,,,,SPECI,111.0
KHBV 271815Z AUTO 17011G19KT 10SM SCT029 SCT035 OVC045 27/18 A2989 RMK AO2 T02730182,KHBV,2018-03-27T18:15:00Z,27.35,-98.73,27.3,18.2,170,11,19,10.0,29.890747,,,TRUE,TRUE,,,,,,,SCT,2900,SCT,3500,OVC,4500,,,VFR,,,,,,,,,,,,SPECI,202.0
KIYA 271815Z AUTO 15011G18KT 10SM BKN026 OVC038 26/20 A3012 RMK AO2 T02560202,KIYA,2018-03-27T18:15:00Z,29.98,-92.08,25.6,20.2,150,11,18,10.0,30.121063,,,TRUE,TRUE,,,,,,,BKN,2600,OVC,3800,,,,,MVFR,,,,,,,,,,,,SPECI,5.0
KIDP 271815Z AUTO 01014KT 5SM -RA BR OVC009 07/06 A3011 RMK AO2 T00690058,KIDP,2018-03-27T18:15:00Z,37.17,-95.78,6.9,5.8,10,14,,5.0,30.109253,,,TRUE,TRUE,,,,,,-RA BR,OVC,900,,,,,,,IFR,,,,,,,,,,,,SPECI,251.0
KLNP 271815Z AUTO 23013G21KT 10SM SCT028 16/08 A3025 RMK AO2,KLNP,2018-03-27T18:15:00Z,36.97,-82.52,16.0,8.0,230,13,21,10.0,30.250984,,,TRUE,TRUE,,,,,,,SCT,2800,,,,,,,VFR,,,,,,,,,,,,SPECI,817.0
KMYZ 271815Z AUTO 35004KT 10SM OVC020 07/02 A3016 RMK AO2,KMYZ,2018-03-27T18:15:00Z,39.85,-96.63,7.0,2.0,350,4,,10.0,30.159449,,,TRUE,TRUE,,,,,,,OVC,2000,,,,,,,MVFR,,,,,,,,,,,,SPECI,319.0
CZVL 271815Z AUTO 06006KT 5/8SM R26/3000VP6000FT SN SCT009 BKN012 OVC019 M06/M07 A2959 RMK SLP059,CZVL,2018-03-27T18:15:00Z,53.67,-113.85,-6.0,-7.0,60,6,,0.63,29.589567,1005.9,,TRUE,,,,,,,SN,SCT,900,BKN,1200,OVC,1900,,,LIFR,,,,,,,,,,,,SPECI,686.0
KY63 271815Z AUTO 24007KT 10SM CLR 03/00 A3004 RMK AO2 T00301003,KY63,2018-03-27T18:15:00Z,45.98,-96.0,3.0,-0.3,240,7,,10.0,30.041338,,,TRUE,TRUE,,,,,,,CLR,,,,,,,,VFR,,,,,,,,,,,,SPECI,367.0
KXVG 271815Z AUTO 21006KT 10SM CLR 05/M01 A2997 RMK AO2,KXVG,2018-03-27T18:15:00Z,46.98,-94.2,5.0,-1.0,210,6,,10.0,29.970472,,,TRUE,TRUE,,,,,,,CLR,,,,,,,,VFR,,,,,,,,,,,,SPECI,407.0
KVVV 271815Z AUTO 25009KT 10SM CLR 07/00 A3005 RMK AO2,KVVV,2018-03-27T18:15:00Z,45.3,-96.42,7.0,0.0,250,9,,10.0,30.050198,,,TRUE,TRUE,,,,,,,CLR,,,,,,,,VFR,,,,,,,,,,,,SPECI,335.0
KUYF 271815Z AUTO 21013KT 3SM BR OVC006 12/11 A3008 RMK AO2,KUYF,2018-03-27T18:15:00Z,39.93,-83.47,12.0,11.0,210,13,,3.0,30.079725,,,TRUE,TRUE,,,,,,BR,OVC,600,,,,,,,IFR,,,,,,,,,,,,SPECI,330.0
KUKT 271815Z AUTO 16004KT 10SM CLR 06/M07 A3043 RMK A01,KUKT,2018-03-27T18:15:00Z,40.43,-75.38,6.0,-7.0,160,4,,10.0,30.431103,,,TRUE,TRUE,,,,,,,CLR,,,,,,,,VFR,,,,,,,,,,,,SPECI,160.0
KTWM 271815Z AUTO 28007G14KT 251V321 10SM OVC015 04/M01 A2993 RMK AO2,KTWM,2018-03-27T18:15:00Z,47.03,-91.75,4.0,-1.0,280,7,14,10.0,29.929134,,,TRUE,TRUE,,,,,,,OVC,1500,,,,,,,MVFR,,,,,,,,,,,,SPECI,328.0
KTVY 271815Z AUTO 32006KT 10SM CLR 06/M05 A3028 RMK AO2,KTVY,2018-03-27T18:15:00Z,40.62,-112.35,6.0,-5.0,320,6,,10.0,30.280512,,,TRUE,TRUE,,,,,,,CLR,,,,,,,,VFR,,,,,,,,,,,,METAR,1317.0
KTPF 271815Z AUTO 12013G20KT 10SM SCT060 BKN100 BKN110 27/12 A3023 RMK AO2,KTPF,2018-03-27T18:15:00Z,27.92,-82.45,27.0,12.0,120,13,20,10.0,30.230314,,,TRUE,TRUE,,,,,,,SCT,6000,BKN,10000,BKN,11000,,,VFR,,,,,,,,,,,,SPECI,3.0
KTKC 271815Z AUTO 24007KT 10SM CLR 04/01 A3008 RMK AO2 T00410011,KTKC,2018-03-27T18:15:00Z,44.25,-95.62,4.1,1.1,240,7,,10.0,30.079725,,,TRUE,TRUE,,,,,,,CLR,,,,,,,,VFR,,,,,,,,,,,,SPECI,408.0
KTFP 271815Z AUTO 15016G21KT 10SM SCT014 BKN039 BKN048 27/22 A2993 RMK AO2 T02710218 PNO,KTFP,2018-03-27T18:15:00Z,27.92,-97.22,27.1,21.8,150,16,21,10.0,29.929134,,,TRUE,TRUE,,,,,,,SCT,1400,BKN,3900,BKN,4800,,,VFR,,,,,,,,,,,,METAR,6.0
KSYM 271815Z AUTO 21014G22KT 10SM BKN030 BKN038 16/09 A3015 RMK AO2,KSYM,2018-03-27T18:15:00Z,38.22,-83.58,16.0,9.0,210,14,22,10.0,30.15059,,,TRUE,TRUE,,,,,,,BKN,3000,BKN,3800,,,,,MVFR,,,,,,,,,,,,SPECI,313.0
KSXU 271815Z AUTO 04020G24KT 10SM OVC012 06/02 A3007 RMK AO2 T00560016,KSXU,2018-03-27T18:15:00Z,34.93,-104.65,5.6,1.6,40,20,24,10.0,30.070866,,,TRUE,TRUE,,,,,,,OVC,1200,,,,,,,MVFR,,,,,,,,,,,,METAR,1460.0
KSVC 271815Z AUTO 00000KT 10SM SCT050 SCT065 BKN085 11/M06 A2999 RMK AO2 T01051062,KSVC,2018-03-27T18:15:00Z,32.63,-108.15,10.5,-6.2,0,0,,10.0,29.991142,,,TRUE,TRUE,,,,,,,SCT,5000,SCT,6500,BKN,8500,,,VFR,,,,,,,,,,,,METAR,1659.0
KSNC 271815Z AUTO 00000KT 10SM FEW046 FEW080 FEW095 10/M11 A3042 RMK AO2,KSNC,2018-03-27T18:15:00Z,41.38,-72.5,10.0,-11.0,0,0,,10.0,30.41929,,,TRUE,TRUE,,,,,,,FEW,4600,FEW,8000,FEW,9500,,,VFR,,,,,,,,,,,,SPECI,127.0
KSJX 271815Z AUTO 25006KT 1/2SM FG OVC002 03/03 A2984 RMK AO2 T00310030,KSJX,2018-03-27T18:15:00Z,45.7,-85.57,3.1,3.0,250,6,,0.5,29.840551,,,TRUE,TRUE,,,,,,FG,OVC,200,,,,,,,LIFR,,,,,,,,,,,,SPECI,204.0
KSDC 271815Z AUTO 16010G17KT 7SM -RA BKN046 OVC050 02/M01 A3018 RMK AO2,KSDC,2018-03-27T18:15:00Z,43.23,-77.12,2.0,-1.0,160,10,17,7.0,30.180119,,,TRUE,TRUE,,,,,,-RA,BKN,4600,OVC,5000,,,,,VFR,,,,,,,,,,,,SPECI,129.0
KS33 271815Z AUTO 18011KT 10SM CLR 08/00 A3037 RMK AO2,KS33,2018-03-27T18:15:00Z,44.67,-121.15,8.0,0.0,180,11,,10.0,30.369095,,,TRUE,TRUE,,,,,,,CLR,,,,,,,,VFR,,,,,,,,,,,,METAR,743.0
KRZT 271815Z AUTO 16003KT 10SM OVC017 10/08 A3011 RMK AO2,KRZT,2018-03-27T18:15:00Z,39.43,-83.02,10.0,8.0,160,3,,10.0,30.109253,,,TRUE,TRUE,,,,,,,OVC,1700,,,,,,,MVFR,,,,,,,,,,,,SPECI,221.0
KRRT 271815Z AUTO 24008KT 10SM CLR 04/00 A2988 RMK AO2,KRRT,2018-03-27T18:15:00Z,48.93,-95.33,4.0,0.0,240,8,,10.0,29.878937,,,TRUE,TRUE,,,,,,,CLR,,,,,,,,VFR,,,,,,,,,,,,SPECI,327.0
KROX 271815Z AUTO 24010KT 10SM CLR 03/M01 A2989 RMK AO2,KROX,2018-03-27T18:15:00Z,48.85,-95.7,3.0,-1.0,240,10,,10.0,29.890747,,,TRUE,TRUE,,,,,,,CLR,,,,,,,,VFR,,,,,,,,,,,,SPECI,323.0
KROS 271815Z AUTO 28007KT 250V330 10SM OVC016 03/M02 A3005 RMK AO2 T00251016,KROS,2018-03-27T18:15:00Z,45.7,-92.95,2.5,-1.6,280,7,,10.0,30.050198,,,TRUE,TRUE,,,,,,,OVC,1600,,,,,,,MVFR,,,,,,,,,,,,SPECI,281.0
KRCV 271815Z AUTO 06007KT 1SM -SN BKN004 BKN011 OVC019 M01/M03 A3010 RMK AO2 T10141035,KRCV,2018-03-27T18:15:00Z,37.72,-106.35,-1.4,-3.5,60,7,,1.0,30.100393,,,TRUE,TRUE,,,,,,-SN,BKN,400,BKN,1100,OVC,1900,,,LIFR,,,,,,,,,,,,METAR,2424.0
KPSO 271815Z AUTO 04010KT 1SM -SN OVC007 01/00 A3005 RMK AO2 T00051005,KPSO,2018-03-27T18:15:00Z,37.28,-107.05,0.5,-0.5,40,10,,1.0,30.050198,,,TRUE,TRUE,,,,,,-SN,OVC,700,,,,,,,IFR,,,,,,,,,,,,METAR,2334.0
KPOV 271815Z AUTO 18004KT 3SM -DZ OVC005 06/05 A3007 RMK AO2 T00620053,KPOV,2018-03-27T18:15:00Z,41.22,-81.25,6.2,5.3,180,4,,3.0,30.070866,,,TRUE,TRUE,,,,,,-DZ,OVC,500,,,,,,,IFR,,,,,,,,,,,,SPECI,365.0
KPNM 271815Z AUTO 24006KT 10SM CLR 05/M01 A3005 RMK AO2 TSNO P0001,KPNM,2018-03-27T18:15:00Z,45.57,-93.6,5.0,-1.0,240,6,,10.0,30.050198,,,TRUE,TRUE,,,TRUE,,,,CLR,,,,,,,,VFR,,,,,,0.01,,,,,,SPECI,298.0
KPHN 271815Z AUTO 19009KT 4SM BR OVC004 07/05 A2996 RMK AO2,KPHN,2018-03-27T18:15:00Z,42.92,-82.52,7.0,5.0,190,9,,4.0,29.958662,,,TRUE,TRUE,,,,,,BR,OVC,400,,,,,,,LIFR,,,,,,,,,,,,SPECI,198.0
KOWX 271815Z AUTO 22014KT 4SM OVC010 11/10 A3001 RMK AO1,KOWX,2018-03-27T18:15:00Z,41.03,-83.98,11.0,10.0,220,14,,4.0,30.008858,,,TRUE,TRUE,,,,,,,OVC,1000,,,,,,,MVFR,,,,,,,,,,,,SPECI,233.0
KONA 271815Z AUTO 31012G15KT 10SM OVC016 03/00 A3005 RMK AO2,KONA,2018-03-27T18:15:00Z,44.07,-91.7,3.0,0.0,310,12,15,10.0,30.050198,,,TRUE,TRUE,,,,,,,OVC,1600,,,,,,,MVFR,,,,,,,,,,,,SPECI,200.0
KOGS 271815Z AUTO 18008KT 10SM CLR 10/M12 A3022 RMK AO2 T00971119,KOGS,2018-03-27T18:15:00Z,44.67,-75.47,9.7,-11.9,180,8,,10.0,30.221457,,,TRUE,TRUE,,,,,,,CLR,,,,,,,,VFR,,,,,,,,,,,,SPECI,91.0
KMQJ 271815Z AUTO 21009G16KT 1 3/4SM OVC007 11/11 A3004 RMK AO1,KMQJ,2018-03-27T18:15:00Z,39.85,-85.9,11.0,11.0,210,9,16,1.75,30.041338,,,TRUE,TRUE,,,,,,,OVC,700,,,,,,,IFR,,,,,,,,,,,,SPECI,263.0
KMOP 271815Z AUTO 24008KT 5SM BR BKN007 OVC012 10/10 A2986 RMK AO2 T01030100,KMOP,2018-03-27T18:15:00Z,43.62,-84.73,10.3,10.0,240,8,,5.0,29.861221,,,TRUE,TRUE,,,,,,BR,BKN,700,OVC,1200,,,,,IFR,,,,,,,,,,,,SPECI,230.0
KMJQ 271815Z AUTO 29012KT 10SM CLR 02/M01 A3010 RMK AO2,KMJQ,2018-03-27T18:15:00Z,43.63,-94.97,2.0,-1.0,290,12,,10.0,30.100393,,,TRUE,TRUE,,,,,,,CLR,,,,,,,,VFR,,,,,,,,,,,,SPECI,441.0
KMBO 271815Z AUTO 13004KT 10SM BKN023 19/14 A3021 RMK AO2 PWINO,KMBO,2018-03-27T18:15:00Z,32.43,-90.1,19.0,14.0,130,4,,10.0,30.209646,,,TRUE,TRUE,,,,,TRUE,,BKN,2300,,,,,,,MVFR,,,,,,,,,,,,SPECI,99.0
KM40 271815Z AUTO 17014G19KT 10SM CLR 21/18 A3023 RMK AO2,KM40,2018-03-27T18:15:00Z,33.87,-88.48,21.0,18.0,170,14,19,10.0,30.230314,,,TRUE,TRUE,,,,,,,CLR,,,,,,,,VFR,,,,,,,,,,,,SPECI,69.0
KLZZ 271815Z AUTO 33004KT 10SM SCT032 BKN041 OVC049 21/17 A2999 RMK AO2 T02140172,KLZZ,2018-03-27T18:15:00Z,31.1,-98.2,21.4,17.2,330,4,,10.0,29.991142,,,TRUE,TRUE,,,,,,,SCT,3200,BKN,4100,OVC,4900,,,VFR,,,,,,,,,,,,METAR,371.0
KLWA 271815Z AUTO 27006KT 3/4SM BR OVC001 07/06 A2996 RMK AO2 T00700061,KLWA,2018-03-27T18:15:00Z,42.35,-86.25,7.0,6.1,270,6,,0.75,29.958662,,,TRUE,TRUE,,,,,,BR,OVC,100,,,,,,,LIFR,,,,,,,,,,,,SPECI,203.0
KJMR 271815Z AUTO 24008KT 10SM SCT020 03/M02 A3004 RMK AO2,KJMR,2018-03-27T18:15:00Z,45.88,-93.27,3.0,-2.0,240,8,,10.0,30.041338,,,TRUE,TRUE,,,,,,,SCT,2000,,,,,,,VFR,,,,,,,,,,,,SPECI,309.0
KIIB 271815Z AUTO 30012KT 7SM OVC010 02/00 A3010 RMK AO2 T00221002,KIIB,2018-03-27T18:15:00Z,42.45,-91.95,2.2,-0.2,300,12,,7.0,30.100393,,,TRUE,TRUE,,,,,,,OVC,1000,,,,,,,MVFR,,,,,,,,,,,,SPECI,298.0
KIDI 271815Z AUTO 15009G21KT 120V180 4SM BR OVC017 03/03 A3022 RMK A01,KIDI,2018-03-27T18:15:00Z,40.62,-79.08,3.0,3.0,150,9,21,4.0,30.221457,,,TRUE,TRUE,,,,,,BR,OVC,1700,,,,,,,MVFR,,,,,,,,,,,,SPECI,429.0
KI69 271815Z AUTO 21008KT 180V240 10SM OVC015 13/10 A3011 RMK AO2 T01300098,KI69,2018-03-27T18:15:00Z,39.08,-84.22,13.0,9.8,210,8,,10.0,30.109253,,,TRUE,TRUE,,,,,,,OVC,1500,,,,,,,MVFR,,,,,,,,,,,,SPECI,255.0
KHZX 271815Z AUTO 22005KT 10SM CLR 04/M02 A2999 RMK AO2,KHZX,2018-03-27T18:15:00Z,46.62,-93.32,4.0,-2.0,220,5,,10.0,29.991142,,,TRUE,TRUE,,,,,,,CLR,,,,,,,,VFR,,,,,,,,,,,,SPECI,374.0
KHEG 271815Z AUTO 11014G19KT 9SM SCT041 OVC050 22/13 A3032 RMK AO2,KHEG,2018-03-27T18:15:00Z,,,22.0,13.0,110,14,19,9.0,30.318897,,,TRUE,TRUE,,,,,,,SCT,4100,OVC,5000,,,,,VFR,,,,,,,,,,,,METAR,
KHCO 271815Z AUTO 18008KT 7SM CLR 03/01 A2990 RMK AO2,KHCO,2018-03-27T18:15:00Z,48.75,-96.93,3.0,1.0,180,8,,7.0,29.899607,,,TRUE,TRUE,,,,,,,CLR,,,,,,,,VFR,,,,,,,,,,,,SPECI,250.0
KHAI 271815Z AUTO 22007KT 1 1/2SM -DZ OVC006 12/11 A2995 RMK AO2 T01150111,KHAI,2018-03-27T18:15:00Z,41.97,-85.6,11.5,11.1,220,7,,1.5,29.949802,,,TRUE,TRUE,,,,,,-DZ,OVC,600,,,,,,,IFR,,,,,,,,,,,,SPECI,251.0
KHAF 271815Z AUTO 32017KT 7SM CLR 14/10 A3023 RMK AO2,KHAF,2018-03-27T18:15:00Z,37.52,-122.5,14.0,10.0,320,17,,7.0,30.230314,,,TRUE,TRUE,,,,,,,CLR,,,,,,,,VFR,,,,,,,,,,,,METAR,21.0
KGPC 271815Z AUTO 20006KT 1 3/4SM BR OVC004 11/11 A3003 RMK AO2,KGPC,2018-03-27T18:15:00Z,39.63,-86.82,11.0,11.0,200,6,,1.75,30.029528,,,TRUE,TRUE,,,,,,BR,OVC,400,,,,,,,LIFR,,,,,,,,,,,,SPECI,257.0
KGNT 271815Z AUTO 31013G17KT 7SM -SN SCT014 SCT028 OVC040 01/M02 A3004 RMK AO2 T00091018,KGNT,2018-03-27T18:15:00Z,35.17,-107.9,0.9,-1.8,310,13,17,7.0,30.041338,,,TRUE,TRUE,,,,,,-SN,SCT,1400,SCT,2800,OVC,4000,,,VFR,,,,,,,,,,,,METAR,1987.0
KGLY 271815Z AUTO 03010KT 6SM -RA OVC013 07/05 A3010 RMK AO2,KGLY,2018-03-27T18:15:00Z,38.35,-93.68,7.0,5.0,30,10,,6.0,30.100393,,,TRUE,TRUE,,,,,,-RA,OVC,1300,,,,,,,MVFR,,,,,,,,,,,,SPECI,251.0
KGGE 271815Z AUTO 00000KT 10SM OVC019 11/06 A3042 RMK AO2,KGGE,2018-03-27T18:15:00Z,33.32,-79.32,11.0,6.0,0,0,,10.0,30.41929,,,TRUE,TRUE,,,,,,,OVC,1900,,,,,,,MVFR,,,,,,,,,,,,SPECI,12.0
KFFM 271815Z AUTO 22007KT 10SM CLR 03/M01 A3001 RMK AO2,KFFM,2018-03-27T18:15:00Z,46.28,-96.15,3.0,-1.0,220,7,,10.0,30.008858,,,TRUE,TRUE,,,,,,,CLR,,,,,,,,VFR,,,,,,,,,,,,SPECI,361.0
KDXX 271815Z AUTO 27007KT 10SM CLR 07/01 A3006 RMK AO2,KDXX,2018-03-27T18:15:00Z,44.98,-96.18,7.0,1.0,270,7,,10.0,30.059055,,,TRUE,TRUE,,,,,,,CLR,,,,,,,,VFR,,,,,,,,,,,,SPECI,330.0
KDRM 271815Z AUTO 15005KT 1 1/4SM -RA OVC003 01/01 A2982 RMK AO2 T00120012,KDRM,2018-03-27T18:15:00Z,46.0,-83.75,1.2,1.2,150,5,,1.25,29.819881,,,TRUE,TRUE,,,,,,-RA,OVC,300,,,,,,,LIFR,,,,,,,,,,,,SPECI,204.0
KDLZ 271815Z AUTO 19010G14KT 2SM DZ OVC005 10/09 A3007 RMK AO2,KDLZ,2018-03-27T18:15:00Z,40.28,-83.12,10.0,9.0,190,10,14,2.0,30.070866,,,TRUE,TRUE,,,,,,DZ,OVC,500,,,,,,,IFR,,,,,,,,,,,,SPECI,289.0
KD60 271815Z AUTO 23012KT 10SM CLR 03/00 A2985 RMK AO2,KD60,2018-03-27T18:15:00Z,48.38,-102.9,3.0,0.0,230,12,,10.0,29.84941,,,TRUE,TRUE,,,,,,,CLR,,,,,,,,VFR,,,,,,,,,,,,SPECI,693.0
KCSQ 271815Z AUTO 35006KT 10SM OVC013 04/02 A3014 RMK AO2,KCSQ,2018-03-27T18:15:00Z,41.02,-94.37,4.0,2.0,350,6,,10.0,30.138779,,,TRUE,TRUE,,,,,,,OVC,1300,,,,,,,MVFR,,,,,,,,,,,,SPECI,394.0
KCPT 271815Z AUTO 05004KT 2 1/2SM RA FEW003 FEW025 SCT050 17/17 A3006 RMK AO2 LTG DSNT W AND NW,KCPT,2018-03-27T18:15:00Z,32.35,-97.43,17.0,17.0,50,4,,2.5,30.059055,,,TRUE,TRUE,,,,,,RA,FEW,300,FEW,2500,SCT,5000,,,IFR,,,,,,,,,,,,METAR,260.0
KCNC 271815Z AUTO 35006KT 10SM OVC013 04/02 A3012 RMK AO2,KCNC,2018-03-27T18:15:00Z,41.02,-93.37,4.0,2.0,350,6,,10.0,30.121063,,,TRUE,TRUE,,,,,,,OVC,1300,,,,,,,MVFR,,,,,,,,,,,,SPECI,320.0
KCLS 271815Z AUTO 16014KT 3SM BR BKN024 09/08 A3037 RMK AO2,KCLS,2018-03-27T18:15:00Z,46.68,-122.98,9.0,8.0,160,14,,3.0,30.369095,,,TRUE,TRUE,,,,,,BR,BKN,2400,,,,,,,MVFR,,,,,,,,,,,,METAR,54.0
KCFS 271815Z AUTO 19007KT 4SM BR OVC007 09/08 A2988 RMK AO2 T00900076,KCFS,2018-03-27T18:15:00Z,43.47,-83.45,9.0,7.6,190,7,,4.0,29.878937,,,TRUE,TRUE,,,,,,BR,OVC,700,,,,,,,IFR,,,,,,,,,,,,SPECI,214.0
KCDN 271815Z AUTO 00000KT 10SM OVC015 08/04 A3043 RMK AO2,KCDN,2018-03-27T18:15:00Z,34.28,-80.57,8.0,4.0,0,0,,10.0,30.431103,,,TRUE,TRUE,,,,,,,OVC,1500,,,,,,,MVFR,,,,,,,,,,,,SPECI,92.0
KCCY 271815Z AUTO 30007KT 7SM OVC009 01/01 A3010 RMK AO2,KCCY,2018-03-27T18:15:00Z,43.07,-92.62,1.0,1.0,300,7,,7.0,30.100393,,,TRUE,TRUE,,,,,,,OVC,900,,,,,,,IFR,,,,,,,,,,,,SPECI,343.0
KCBG 271815Z AUTO 23008KT 10SM BKN017 03/M02 A3006 RMK AO2 P0003,KCBG,2018-03-27T18:15:00Z,45.57,-93.27,3.0,-2.0,230,8,,10.0,30.059055,,,TRUE,TRUE,,,,,,,BKN,1700,,,,,,,MVFR,,,,,,0.03,,,,,,SPECI,287.0
KCBF 271815Z AUTO 00000KT 10SM OVC016 05/04 A3015 RMK AO2,KCBF,2018-03-27T18:15:00Z,41.27,-95.77,5.0,4.0,0,0,,10.0,30.15059,,,TRUE,TRUE,,,,,,,OVC,1600,,,,,,,MVFR,,,,,,,,,,,,SPECI,382.0
KPLR 271815Z AUTO 16007KT 130V200 10SM FEW031 FEW045 19/12 A3029 RMK A01,KPLR,2018-03-27T18:15:00Z,33.57,-86.25,19.0,12.0,160,7,,10.0,30.28937,,,TRUE,TRUE,,,,,,,FEW,3100,FEW,4500,,,,,VFR,,,,,,,,,,,,METAR,148.0
KPAN 271815Z AUTO VRB03KT 10SM FEW080 07/M07 A3004 RMK AO2,KPAN,2018-03-27T18:15:00Z,34.25,-111.33,7.0,-7.0,0,3,,10.0,30.041338,,,TRUE,TRUE,,,,,,,FEW,8000,,,,,,,VFR,,,,,,,,,,,,METAR,1572.0
KOZW 271815Z AUTO 22008KT 10SM OVC006 11/10 A2991 RMK AO2 T01050096,KOZW,2018-03-27T18:15:00Z,42.62,-83.97,10.5,9.6,220,8,,10.0,29.911417,,,TRUE,TRUE,,,,,,,OVC,600,,,,,,,IFR,,,,,,,,,,,,METAR,293.0
KOXV 271815Z AUTO 32009KT 10SM OVC013 04/01 A3012 RMK AO2,KOXV,2018-03-27T18:15:00Z,41.28,-93.12,4.0,1.0,320,9,,10.0,30.121063,,,TRUE,TRUE,,,,,,,OVC,1300,,,,,,,MVFR,,,,,,,,,,,,METAR,283.0
KOSC 271815Z AUTO 21006KT 1 1/4SM BR OVC004 07/06 A2985 RMK AO2 T00650061,KOSC,2018-03-27T18:15:00Z,44.45,-83.4,6.5,6.1,210,6,,1.25,29.84941,,,TRUE,TRUE,,,,,,BR,OVC,400,,,,,,,LIFR,,,,,,,,,,,,SPECI,193.0
KORS 271815Z AUTO 19015KT 10SM OVC070 10/08 A3021 RMK AO2,KORS,2018-03-27T18:15:00Z,48.7,-122.92,10.0,8.0,190,15,,10.0,30.209646,,,TRUE,TRUE,,,,,,,OVC,7000,,,,,,,VFR,,,,,,,,,,,,METAR,9.0
KORC 271815Z AUTO 30007KT 10SM CLR 07/04 A3012 RMK AO2,KORC,2018-03-27T18:15:00Z,42.97,-96.07,7.0,4.0,300,7,,10.0,30.121063,,,TRUE,TRUE,,,,,,,CLR,,,,,,,,VFR,,,,,,,,,,,,METAR,431.0
KONZ 271815Z AUTO 19007KT 1/2SM -RA OVC005 07/06 A2996 RMK AO2 T00650061,KONZ,2018-03-27T18:15:00Z,42.1,-83.15,6.5,6.1,190,7,,0.5,29.958662,,,TRUE,TRUE,,,,,,-RA,OVC,500,,,,,,,LIFR,,,,,,,,,,,,METAR,180.0
KOLZ 271815Z AUTO 32012KT 9SM BKN011 02/02 A3010 RMK AO2,KOLZ,2018-03-27T18:15:00Z,42.67,-91.97,2.0,2.0,320,12,,9.0,30.100393,,,TRUE,TRUE,,,,,,,BKN,1100,,,,,,,MVFR,,,,,,,,,,,,METAR,328.0
KOEB 271815Z AUTO 24013G18KT 10SM OVC005 11/11 A2995 RMK AO2 T01100110,KOEB,2018-03-27T18:15:00Z,41.92,-85.03,11.0,11.0,240,13,18,10.0,29.949802,,,TRUE,TRUE,,,,,,,OVC,500,,,,,,,IFR,,,,,,,,,,,,METAR,292.0
KMZH 271815Z AUTO 23006KT 10SM SCT017 02/M02 A2998 RMK AO2,KMZH,2018-03-27T18:15:00Z,46.42,-92.8,2.0,-2.0,230,6,,10.0,29.97933,,,TRUE,TRUE,,,,,,,SCT,1700,,,,,,,VFR,,,,,,,,,,,,METAR,328.0
KMXO 271815Z AUTO 30010G16KT 9SM OVC013 03/00 A3008 RMK AO2,KMXO,2018-03-27T18:15:00Z,42.22,-91.17,3.0,0.0,300,10,16,9.0,30.079725,,,TRUE,TRUE,,,,,,,OVC,1300,,,,,,,MVFR,,,,,,,,,,,,METAR,259.0
KMVE 271815Z AUTO 30008KT 10SM CLR 07/00 A3007 RMK AO2,KMVE,2018-03-27T18:15:00Z,44.97,-95.72,7.0,0.0,300,8,,10.0,30.070866,,,TRUE,TRUE,,,,,,,CLR,,,,,,,,VFR,,,,,,,,,,,,METAR,315.0
KMUT 271815Z AUTO 31013KT 10SM OVC014 05/01 A3011 RMK AO2,KMUT,2018-03-27T18:15:00Z,41.37,-91.15,5.0,1.0,310,13,,10.0,30.109253,,,TRUE,TRUE,,,,,,,OVC,1400,,,,,,,MVFR,,,,,,,,,,,,METAR,167.0
KMKS 271815Z AUTO 35004KT 10SM OVC020 11/04 A3041 RMK AO2,KMKS,2018-03-27T18:15:00Z,33.18,-80.03,11.0,4.0,350,4,,10.0,30.410433,,,TRUE,TRUE,,,,,,,OVC,2000,,,,,,,MVFR,,,,,,,,,,,,METAR,23.0
KMDS 271815Z AUTO 27008KT 10SM CLR 05/05 A3009 RMK AO2,KMDS,2018-03-27T18:15:00Z,44.02,-97.08,5.0,5.0,270,8,,10.0,30.088583,,,TRUE,TRUE,,,,,,,CLR,,,,,,,,VFR,,,,,,,,,,,,METAR,524.0
KMAN 271815Z AUTO VRB05KT 10SM CLR 10/01 A3032 RMK A01,KMAN,2018-03-27T18:15:00Z,43.58,-116.52,10.0,1.0,0,5,,10.0,30.318897,,,TRUE,TRUE,,,,,,,CLR,,,,,,,,VFR,,,,,,,,,,,,METAR,774.0
KLYV 271815Z AUTO 22003KT 7SM CLR 03/00 A3011 RMK AO2,KLYV,2018-03-27T18:15:00Z,43.62,-96.22,3.0,0.0,220,3,,7.0,30.109253,,,TRUE,TRUE,,,,,,,CLR,,,,,,,,VFR,,,,,,,,,,,,METAR,436.0
KLXL 271815Z AUTO 21007KT 10SM CLR 04/M05 A3003 RMK AO2,KLXL,2018-03-27T18:15:00Z,45.95,-94.33,4.0,-5.0,210,7,,10.0,30.029528,,,TRUE,TRUE,,,,,,,CLR,,,,,,,,VFR,,,,,,,,,,,,METAR,342.0
KLRJ 271815Z AUTO 32008KT 10SM CLR 08/02 A3013 RMK AO2,KLRJ,2018-03-27T18:15:00Z,42.77,-96.2,8.0,2.0,320,8,,10.0,30.129921,,,TRUE,TRUE,,,,,,,CLR,,,,,,,,VFR,,,,,,,,,,,,METAR,365.0
KFTK 271815Z AUTO 19014G21KT 10SM -DZ BKN019 BKN025 OVC036 14/11 A3012 RMK AO2 DZB15 BKN019 V OVC SLP203,KFTK,2018-03-27T18:15:00Z,37.88,-85.97,14.0,11.0,190,14,21,10.0,30.121063,1020.3,,TRUE,TRUE,,,,,,-DZ,BKN,1900,BKN,2500,OVC,3600,,,MVFR,,,,,,,,,,,,SPECI,230.0
KNBC 271815Z 04008KT 10SM BKN018 OVC040 18/11 A3038 RMK AO2 T01780111 $,KNBC,2018-03-27T18:15:00Z,32.47,-80.72,17.8,11.1,40,8,,10.0,30.380905,,,,TRUE,TRUE,,,,,,BKN,1800,OVC,4000,,,,,MVFR,,,,,,,,,,,,SPECI,12.0
KJRB 271815Z 25009KT 10SM 06/M02 RMK AO2 PWINO FZRANO RVRNO,KJRB,2018-03-27T18:15:00Z,40.7,-74.02,6.0,-2.0,250,9,,10.0,,,,,TRUE,,,,TRUE,TRUE,,,,,,,,,,,,,,,,,,,,,,METAR,7.0
KBNL 271815Z AUTO 00000KT 10SM A3038 RMK AO2,KBNL,2018-03-27T18:15:00Z,33.25,-81.38,,,0,0,,10.0,30.380905,,,TRUE,TRUE,,,,,,,,,,,,,,,,,,,,,,,,,,,METAR,75.0
KBKN 271815Z AUTO 01013KT 10SM FEW014 OVC029 07/06 A3016 RMK AO2,KBKN,2018-03-27T18:15:00Z,36.75,-97.35,7.0,6.0,10,13,,10.0,30.159449,,,TRUE,TRUE,,,,,,,FEW,1400,OVC,2900,,,,,MVFR,,,,,,,,,,,,METAR,314.0
KBDN 271815Z AUTO 25004KT 10SM CLR 10/M01 A3037 RMK AO2,KBDN,2018-03-27T18:15:00Z,44.1,-121.2,10.0,-1.0,250,4,,10.0,30.369095,,,TRUE,TRUE,,,,,,,CLR,,,,,,,,VFR,,,,,,,,,,,,METAR,1055.0
KBBB 271815Z AUTO 24007KT 10SM CLR 06/01 A3007 RMK AO2,KBBB,2018-03-27T18:15:00Z,45.32,-95.65,6.0,1.0,240,7,,10.0,30.070866,,,TRUE,TRUE,,,,,,,CLR,,,,,,,,VFR,,,,,,,,,,,,METAR,317.0
KBAX 271815Z AUTO 20012KT 10SM OVC007 07/07 A2990 RMK AO2 T00710065,KBAX,2018-03-27T18:15:00Z,43.78,-82.98,7.1,6.5,200,12,,10.0,29.899607,,,TRUE,TRUE,,,,,,,OVC,700,,,,,,,IFR,,,,,,,,,,,,METAR,234.0
KBAC 271815Z AUTO 24010KT 10SM CLR 03/02 A2998 RMK AO2,KBAC,2018-03-27T18:15:00Z,46.93,-98.02,3.0,2.0,240,10,,10.0,29.97933,,,TRUE,TRUE,,,,,,,CLR,,,,,,,,VFR,,,,,,,,,,,,METAR,427.0
KAXV 271815Z AUTO 21012G20KT 5SM BR OVC009 12/12 A3003 RMK AO2,KAXV,2018-03-27T18:15:00Z,40.5,-84.3,12.0,12.0,210,12,20,5.0,30.029528,,,TRUE,TRUE,,,,,,BR,OVC,900,,,,,,,IFR,,,,,,,,,,,,METAR,279.0
KAXA 271815Z AUTO 32005KT 10SM FEW011 02/M01 A3012 RMK AO2 PWINO,KAXA,2018-03-27T18:15:00Z,43.07,-94.27,2.0,-1.0,320,5,,10.0,30.121063,,,TRUE,TRUE,,,,,TRUE,,FEW,1100,,,,,,,VFR,,,,,,,,,,,,METAR,372.0
KAWG 271815Z AUTO 32012KT 9SM OVC013 04/04 A3012 RMK AO2,KAWG,2018-03-27T18:15:00Z,41.27,-91.67,4.0,4.0,320,12,,9.0,30.121063,,,TRUE,TRUE,,,,,,,OVC,1300,,,,,,,MVFR,,,,,,,,,,,,METAR,230.0
KATS 271815Z AUTO 36018KT 9SM FEW060 FEW075 FEW090 13/10 A2997 RMK AO2,KATS,2018-03-27T18:15:00Z,32.85,-104.47,13.0,10.0,360,18,,9.0,29.970472,,,TRUE,TRUE,,,,,,,FEW,6000,FEW,7500,FEW,9000,,,VFR,,,,,,,,,,,,METAR,1081.0
KARW 271815Z AUTO 05007KT 10SM SCT017 OVC042 16/11 A3037 RMK AO2,KARW,2018-03-27T18:15:00Z,32.42,-80.63,16.0,11.0,50,7,,10.0,30.369095,,,TRUE,TRUE,,,,,,,SCT,1700,OVC,4200,,,,,VFR,,,,,,,,,,,,METAR,4.0
KAQX 271815Z AUTO 00000KT 10SM BKN023 OVC035 15/08 A3038 RMK AO2,KAQX,2018-03-27T18:15:00Z,32.98,-81.27,15.0,8.0,0,0,,10.0,30.380905,,,TRUE,TRUE,,,,,,,BKN,2300,OVC,3500,,,,,MVFR,,,,,,,,,,,,METAR,49.0
KAIO 271815Z AUTO 36008KT 10SM OVC013 04/02 A3015 RMK AO2,KAIO,2018-03-27T18:15:00Z,41.38,-95.03,4.0,2.0,360,8,,10.0,30.15059,,,TRUE,TRUE,,,,,,,OVC,1300,,,,,,,MVFR,,,,,,,,,,,,METAR,360.0
KAIB 271815Z AUTO 25006KT 10SM CLR 08/M09 A3007 RMK AO2,KAIB,2018-03-27T18:15:00Z,38.23,-108.57,8.0,-9.0,250,6,,10.0,30.070866,,,TRUE,TRUE,,,,,,,CLR,,,,,,,,VFR,,,,,,,,,,,,METAR,1811.0
KAEL 271815Z AUTO 32006KT 10SM OVC010 01/00 A3008 RMK AO2,KAEL,2018-03-27T18:15:00Z,43.68,-93.37,1.0,0.0,320,6,,10.0,30.079725,,,TRUE,TRUE,,,,,,,OVC,1000,,,,,,,MVFR,,,,,,,,,,,,METAR,383.0
KADU 271815Z AUTO 36005KT 10SM OVC014 04/01 A3016 RMK AO2,KADU,2018-03-27T18:15:00Z,41.7,-94.92,4.0,1.0,360,5,,10.0,30.159449,,,TRUE,TRUE,,,,,,,OVC,1400,,,,,,,MVFR,,,,,,,,,,,,METAR,392.0
KACQ 271815Z AUTO 28010KT 10SM OVC011 02/00 A3010 RMK AO2,KACQ,2018-03-27T18:15:00Z,44.07,-93.55,2.0,0.0,280,10,,10.0,30.100393,,,TRUE,TRUE,,,,,,,OVC,1100,,,,,,,MVFR,,,,,,,,,,,,METAR,343.0
K9D7 271815Z AUTO 23008G13KT 10SM CLR 05/M00 A2991 RMK AO2,K9D7,2018-03-27T18:15:00Z,48.48,-99.23,5.0,0.0,230,8,13,10.0,29.911417,,,TRUE,TRUE,,,,,,,CLR,,,,,,,,VFR,,,,,,,,,,,,METAR,452.0
K8B0 271815Z AUTO 20009KT 10SM CLR 06/M16 A3037 RMK AO2,K8B0,2018-03-27T18:15:00Z,,,6.0,-16.0,200,9,,10.0,30.369095,,,TRUE,TRUE,,,,,,,CLR,,,,,,,,VFR,,,,,,,,,,,,METAR,
K7L2 271815Z AUTO 22012KT 10SM 09/09 A2999 RMK AO2,K7L2,2018-03-27T18:15:00Z,46.22,-100.25,9.0,9.0,220,12,,10.0,29.991142,,,TRUE,TRUE,,,,,,,,,,,,,,,,,,,,,,,,,,,METAR,543.0
K6L4 271815Z AUTO 00000G10KT 10SM BKN055 BKN070 17/08 A3017 RMK AO2,K6L4,2018-03-27T18:15:00Z,37.85,-81.92,17.0,8.0,0,0,10,10.0,30.171259,,,TRUE,TRUE,,,,,,,BKN,5500,BKN,7000,,,,,VFR,,,,,,,,,,,,METAR,508.0
K6B9 271815Z AUTO VRB07G14KT 10SM FEW050 SCT070 BKN085 05/M08 A3021 RMK AO2,K6B9,2018-03-27T18:15:00Z,42.92,-76.43,5.0,-8.0,0,7,14,10.0,30.209646,,,TRUE,TRUE,,,,,,,FEW,5000,SCT,7000,BKN,8500,,,VFR,,,,,,,,,,,,METAR,316.0
K54J 271815Z AUTO 15009G16KT 100V160 10SM OVC038 23/14 A3026 RMK AO2 T02340136,K54J,2018-03-27T18:15:00Z,30.73,-86.15,23.4,13.6,150,9,16,10.0,30.259842,,,TRUE,TRUE,,,,,,,OVC,3800,,,,,,,VFR,,,,,,,,,,,,METAR,88.0
K4M9 271815Z AUTO 18016G22KT 10SM OVC020 19/16 A3000 RMK AO2 PWINO,K4M9,2018-03-27T18:15:00Z,36.4,-90.65,19.0,16.0,180,16,22,10.0,30.0,,,TRUE,TRUE,,,,,TRUE,,OVC,2000,,,,,,,MVFR,,,,,,,,,,,,METAR,90.0
KAFP 271815Z AUTO 00000KT 7SM OVC022 08/03 A3044 RMK AO2 T00800025,KAFP,2018-03-27T18:15:00Z,35.02,-80.08,8.0,2.5,0,0,,7.0,30.43996,,,TRUE,TRUE,,,,,,,OVC,2200,,,,,,,MVFR,,,,,,,,,,,,SPECI,92.0
KCGE 271815Z AUTO VRB03KT 10SM CLR 08/M03 A3046 RMK A01,KCGE,2018-03-27T18:15:00Z,38.53,-76.03,8.0,-3.0,0,3,,10.0,30.46063,,,TRUE,TRUE,,,,,,,CLR,,,,,,,,VFR,,,,,,,,,,,,SPECI,6.0
KDMW 271815Z AUTO 17007KT 10SM -RA SCT036 OVC060 06/01 A3040 RMK AO2,KDMW,2018-03-27T18:15:00Z,39.6,-77.0,6.0,1.0,170,7,,10.0,30.398623,,,TRUE,TRUE,,,,,,-RA,SCT,3600,OVC,6000,,,,,VFR,,,,,,,,,,,,SPECI,241.0
KHBI 271815Z AUTO 11003KT 10SM SCT034 OVC045 08/01 A3043 RMK AO2 T00800007,KHBI,2018-03-27T18:15:00Z,35.65,-79.9,8.0,0.7,110,3,,10.0,30.431103,,,TRUE,TRUE,,,,,,,SCT,3400,OVC,4500,,,,,VFR,,,,,,,,,,,,SPECI,205.0
KRNP 271815Z AUTO 22009G14KT 10SM OVC008 11/09 A2989 RMK AO2 T01090087,KRNP,2018-03-27T18:15:00Z,43.0,-84.13,10.9,8.7,220,9,14,10.0,29.890747,,,TRUE,TRUE,,,,,,,OVC,800,,,,,,,IFR,,,,,,,,,,,,METAR,224.0
KRGK 271815Z AUTO 28010KT 10SM OVC019 04/M02 A3006 RMK AO2,KRGK,2018-03-27T18:15:00Z,44.58,-92.48,4.0,-2.0,280,10,,10.0,30.059055,,,TRUE,TRUE,,,,,,,OVC,1900,,,,,,,MVFR,,,,,,,,,,,,METAR,239.0
KRDK 271815Z AUTO 35008KT 10SM OVC014 05/02 A3017 RMK AO2,KRDK,2018-03-27T18:15:00Z,41.02,-95.27,5.0,2.0,350,8,,10.0,30.171259,,,TRUE,TRUE,,,,,,,OVC,1400,,,,,,,MVFR,,,,,,,,,,,,METAR,318.0
KRBW 271815Z AUTO 00000KT 10SM OVC019 14/07 A3040 RMK AO2,KRBW,2018-03-27T18:15:00Z,32.92,-80.63,14.0,7.0,0,0,,10.0,30.398623,,,TRUE,TRUE,,,,,,,OVC,1900,,,,,,,MVFR,,,,,,,,,,,,METAR,31.0
KPZQ 271815Z AUTO 19005KT 2SM -RA OVC005 05/05 A2984 RMK AO2 T00540045,KPZQ,2018-03-27T18:15:00Z,45.4,-83.82,5.4,4.5,190,5,,2.0,29.840551,,,TRUE,TRUE,,,,,,-RA,OVC,500,,,,,,,IFR,,,,,,,,,,,,METAR,204.0
KPQN 271815Z AUTO 27007KT 5SM BR CLR 02/00 A3008 RMK AO2,KPQN,2018-03-27T18:15:00Z,43.97,-96.32,2.0,0.0,270,7,,5.0,30.079725,,,TRUE,TRUE,,,,,,BR,CLR,,,,,,,,MVFR,,,,,,,,,,,,METAR,529.0
KJYO 271815Z AUTO 17008KT 10SM -RA BKN020 BKN025 OVC048 05/03 A3041 RMK AO2 P0001,KJYO,2018-03-27T18:15:00Z,39.07,-77.57,5.0,3.0,170,8,,10.0,30.410433,,,TRUE,TRUE,,,,,,-RA,BKN,2000,BKN,2500,OVC,4800,,,MVFR,,,,,,0.01,,,,,,METAR,119.0
KI63 271815Z AUTO 34009KT 10SM SCT011 SCT029 OVC045 05/03 A3008 RMK AO2 T00490030,KI63,2018-03-27T18:15:00Z,39.98,-90.8,4.9,3.0,340,9,,10.0,30.079725,,,TRUE,TRUE,,,,,,,SCT,1100,SCT,2900,OVC,4500,,,VFR,,,,,,,,,,,,METAR,223.0
KLGC 271815Z AUTO 16005KT 10SM OVC050 16/10 A3032 RMK AO2 T01600100,KLGC,2018-03-27T18:15:00Z,33.0,-85.07,16.0,10.0,160,5,,10.0,30.318897,,,TRUE,TRUE,,,,,,,OVC,5000,,,,,,,VFR,,,,,,,,,,,,METAR,211.0
KJZP 271815Z AUTO 14010G15KT 10SM OVC015 11/06 A3037 RMK AO2 T01080062 PNO,KJZP,2018-03-27T18:15:00Z,34.45,-84.47,10.8,6.2,140,10,15,10.0,30.369095,,,TRUE,TRUE,,,,,,,OVC,1500,,,,,,,MVFR,,,,,,,,,,,,METAR,468.0
K0V4 271815Z AUTO 00000KT 10SM OVC012 05/03 A3042 RMK AO1 T00510032,K0V4,2018-03-27T18:15:00Z,37.15,-79.02,5.1,3.2,0,0,,10.0,30.41929,,,TRUE,TRUE,,,,,,,OVC,1200,,,,,,,MVFR,,,,,,,,,,,,METAR,182.0
K5M9 271815Z AUTO 18008G16KT 140V200 10SM BKN038 BKN049 OVC110 16/13 A3005 RMK AO2 T01640128,K5M9,2018-03-27T18:15:00Z,37.33,-88.12,16.4,12.8,180,8,16,10.0,30.050198,,,TRUE,TRUE,,,,,,,BKN,3800,BKN,4900,OVC,11000,,,VFR,,,,,,,,,,,,METAR,199.0
K3N8 271815Z AUTO 22013KT 10SM CLR 02/00 A2996 RMK AO2 T00171005,K3N8,2018-03-27T18:15:00Z,47.25,-95.88,1.7,-0.5,220,13,,10.0,29.958662,,,TRUE,TRUE,,,,,,,CLR,,,,,,,,VFR,,,,,,,,,,,,SPECI,383.0
K17J 271815Z AUTO 17009KT 10SM BKN035 23/14 A3028 RMK AO2 T02270141,K17J,2018-03-27T18:15:00Z,31.07,-84.92,22.7,14.1,170,9,,10.0,30.280512,,,TRUE,TRUE,,,,,,,BKN,3500,,,,,,,VFR,,,,,,,,,,,,METAR,45.0
PAAD 271815Z AUTO 09019KT 3SM HZ CLR M20/M23 A2993 RMK AO2 T11971230,PAAD,2018-03-27T18:15:00Z,70.13,-146.28,-19.7,-23.0,90,19,,3.0,29.929134,,,TRUE,TRUE,,,,,,HZ,CLR,,,,,,,,MVFR,,,,,,,,,,,,METAR,8.0
KY49 271815Z AUTO 21008KT 10SM CLR 04/M02 A2995 RMK AO2 T00421019,KY49,2018-03-27T18:15:00Z,47.13,-94.65,4.2,-1.9,210,8,,10.0,29.949802,,,TRUE,TRUE,,,,,,,CLR,,,,,,,,VFR,,,,,,,,,,,,METAR,416.0
KY23 271815Z AUTO 30008KT 10SM OVC015 02/M01 A3002 RMK AO2 T00181013,KY23,2018-03-27T18:15:00Z,45.3,-91.63,1.8,-1.3,300,8,,10.0,30.02067,,,TRUE,TRUE,,,,,,,OVC,1500,,,,,,,MVFR,,,,,,,,,,,,METAR,322.0
KXLL 271815Z AUTO 15006KT 10SM CLR 06/M07 A3044 RMK AO2,KXLL,2018-03-27T18:15:00Z,40.57,-75.48,6.0,-7.0,150,6,,10.0,30.43996,,,TRUE,TRUE,,,,,,,CLR,,,,,,,,VFR,,,,,,,,,,,,METAR,122.0
KWDR 271815Z AUTO 09003KT 10SM OVC008 09/07 A3041 RMK AO1,KWDR,2018-03-27T18:15:00Z,33.98,-83.67,9.0,7.0,90,3,,10.0,30.410433,,,TRUE,TRUE,,,,,,,OVC,800,,,,,,,IFR,,,,,,,,,,,,METAR,287.0
KW81 271815Z AUTO 00000KT 10SM SCT009 SCT014 OVC043 04/04 A3045 RMK AO1 T00410041,KW81,2018-03-27T18:15:00Z,37.18,-78.1,4.1,4.1,0,0,,10.0,30.448818,,,TRUE,TRUE,,,,,,,SCT,900,SCT,1400,OVC,4300,,,VFR,,,,,,,,,,,,METAR,129.0
KMQI 271815Z AUTO 05010KT 10SM SCT080 09/02 A3044 RMK AO2 T00850018,KMQI,2018-03-27T18:15:00Z,35.92,-75.7,8.5,1.8,50,10,,10.0,30.43996,,,TRUE,TRUE,,,,,,,SCT,8000,,,,,,,VFR,,,,,,,,,,,,METAR,4.0
KMNV 271815Z AUTO 23006G13KT 10SM OVC028 14/07 A3030 RMK A01,KMNV,2018-03-27T18:15:00Z,35.55,-84.38,14.0,7.0,230,6,13,10.0,30.301182,,,TRUE,TRUE,,,,,,,OVC,2800,,,,,,,MVFR,,,,,,,,,,,,METAR,314.0
KMDZ 271815Z AUTO 30008KT 10SM OVC011 01/M01 A2997 RMK AO2 T00101009,KMDZ,2018-03-27T18:15:00Z,45.1,-90.3,1.0,-0.9,300,8,,10.0,29.970472,,,TRUE,TRUE,,,,,,,OVC,1100,,,,,,,MVFR,,,,,,,,,,,,METAR,448.0
KMDQ 271815Z AUTO 16012KT 10SM OVC020 15/09 A3026 RMK A01 T01490085,KMDQ,2018-03-27T18:15:00Z,34.87,-86.55,14.9,8.5,160,12,,10.0,30.259842,,,TRUE,TRUE,,,,,,,OVC,2000,,,,,,,MVFR,,,,,,,,,,,,METAR,230.0
KMDD 271815Z AUTO 15014KT 10SM 18/10 A2995 RMK AO2 T01830102,KMDD,2018-03-27T18:15:00Z,32.03,-102.1,18.3,10.2,150,14,,10.0,29.949802,,,TRUE,TRUE,,,,,,,,,,,,,,,,,,,,,,,,,,,METAR,854.0
KMCC 271815Z AUTO 03005KT 10SM CLR 15/03 A3027 RMK AO2,KMCC,2018-03-27T18:15:00Z,38.67,-121.4,15.0,3.0,30,5,,10.0,30.268702,,,TRUE,TRUE,,,,,,,CLR,,,,,,,,VFR,,,,,,,,,,,,SPECI,23.0
KM30 271815Z AUTO 17007G18KT 10SM BKN026 OVC045 17/13 A3005 RMK AO2 T01740130,KM30,2018-03-27T18:15:00Z,37.18,-88.75,17.4,13.0,170,7,18,10.0,30.050198,,,TRUE,TRUE,,,,,,,BKN,2600,OVC,4500,,,,,MVFR,,,,,,,,,,,,METAR,117.0
KLWB 271815Z AUTO 04005KT 10SM SCT007 BKN013 OVC033 05/04 A3029 RMK AO2 T00530037,KLWB,2018-03-27T18:15:00Z,37.87,-80.4,5.3,3.7,40,5,,10.0,30.28937,,,TRUE,TRUE,,,,,,,SCT,700,BKN,1300,OVC,3300,,,MVFR,,,,,,,,,,,,METAR,702.0
KLVL 271815Z AUTO 00000KT 10SM SCT007 BKN034 OVC044 05/03 A3045 RMK AO1 T00480031,KLVL,2018-03-27T18:15:00Z,36.78,-77.8,4.8,3.1,0,0,,10.0,30.448818,,,TRUE,TRUE,,,,,,,SCT,700,BKN,3400,OVC,4400,,,VFR,,,,,,,,,,,,METAR,100.0
KLOT 271815Z AUTO 30008KT 10SM OVC013 09/07 A2999 RMK AO2 T00860065,KLOT,2018-03-27T18:15:00Z,41.6,-88.1,8.6,6.5,300,8,,10.0,29.991142,,,TRUE,TRUE,,,,,,,OVC,1300,,,,,,,MVFR,,,,,,,,,,,,METAR,205.0
KLOM 271815Z AUTO 00000KT 10SM CLR 06/M06 A3045 RMK AO1,KLOM,2018-03-27T18:15:00Z,40.13,-75.27,6.0,-6.0,0,0,,10.0,30.448818,,,TRUE,TRUE,,,,,,,CLR,,,,,,,,VFR,,,,,,,,,,,,METAR,92.0
KCVX 271815Z AUTO 23008KT 1 3/4SM BR OVC003 04/04 A2987 RMK AO2 T00390039,KCVX,2018-03-27T18:15:00Z,45.3,-85.27,3.9,3.9,230,8,,1.75,29.870079,,,TRUE,TRUE,,,,,,BR,OVC,300,,,,,,,LIFR,,,,,,,,,,,,METAR,204.0
KCOQ 271815Z AUTO 24008KT 10SM BKN016 02/M03 A2997 RMK AO2,KCOQ,2018-03-27T18:15:00Z,46.7,-92.5,2.0,-3.0,240,8,,10.0,29.970472,,,TRUE,TRUE,,,,,,,BKN,1600,,,,,,,MVFR,,,,,,,,,,,,METAR,390.0
KCMR 271815Z AUTO VRB06G14KT 10SM CLR 07/M13 A3006 RMK AO2,KCMR,2018-03-27T18:15:00Z,35.3,-112.2,7.0,-13.0,0,6,14,10.0,30.059055,,,TRUE,TRUE,,,,,,,CLR,,,,,,,,VFR,,,,,,,,,,,,METAR,2036.0
KU42 271815Z AUTO 31012G15KT 10SM CLR 05/M05 A3026 RMK AO1 T00531051,KU42,2018-03-27T18:15:00Z,40.62,-111.98,5.3,-5.1,310,12,15,10.0,30.259842,,,TRUE,TRUE,,,,,,,CLR,,,,,,,,VFR,,,,,,,,,,,,METAR,1402.0
KTOB 271815Z AUTO 27010KT 10SM OVC009 01/M01 A3007 RMK AO2,KTOB,2018-03-27T18:15:00Z,44.02,-92.82,1.0,-1.0,270,10,,10.0,30.070866,,,TRUE,TRUE,,,,,,,OVC,900,,,,,,,IFR,,,,,,,,,,,,METAR,398.0
KTNU 271815Z AUTO 34010KT 10SM OVC015 04/01 A3013 RMK AO2,KTNU,2018-03-27T18:15:00Z,41.67,-93.02,4.0,1.0,340,10,,10.0,30.129921,,,TRUE,TRUE,,,,,,,OVC,1500,,,,,,,MVFR,,,,,,,,,,,,METAR,290.0
KTME 271815Z AUTO 16015G22KT 9SM FEW036 FEW046 28/19 A3000 RMK AO2,KTME,2018-03-27T18:15:00Z,29.8,-95.9,28.0,19.0,160,15,22,9.0,30.0,,,TRUE,TRUE,,,,,,,FEW,3600,FEW,4600,,,,,VFR,,,,,,,,,,,,METAR,51.0
KTKX 271815Z AUTO 18020G27KT 1SM HZ OVC028 20/15 A3003 RMK AO2,KTKX,2018-03-27T18:15:00Z,36.22,-90.02,20.0,15.0,180,20,27,1.0,30.029528,,,TRUE,TRUE,,,,,,HZ,OVC,2800,,,,,,,IFR,,,,,,,,,,,,METAR,80.0
KTEW 271815Z AUTO 23009G15KT 5SM BR OVC007 11/09 A2992 RMK AO2 T01120086,KTEW,2018-03-27T18:15:00Z,42.57,-84.42,11.2,8.6,230,9,15,5.0,29.920275,,,TRUE,TRUE,,,,,,BR,OVC,700,,,,,,,IFR,,,,,,,,,,,,METAR,280.0
KTDZ 271815Z AUTO 20010KT 4SM BR OVC007 12/11 A2999 RMK AO2 RAE15 CIG 005V010 P0001 T01170106 $,KTDZ,2018-03-27T18:15:00Z,41.57,-83.48,11.7,10.6,200,10,,4.0,29.991142,,,TRUE,TRUE,TRUE,,,,,BR,OVC,700,,,,,,,IFR,,,,,,0.01,,,,,,METAR,189.0
KSRR 271815Z AUTO 09004KT 10SM SCT024 BKN050 OVC080 06/00 A3005 RMK AO2,KSRR,2018-03-27T18:15:00Z,33.47,-105.52,6.0,0.0,90,4,,10.0,30.050198,,,TRUE,TRUE,,,,,,,SCT,2400,BKN,5000,OVC,8000,,,VFR,,,,,,,,,,,,METAR,2076.0
KSOW 271815Z AUTO 32009KT 10SM BKN036 BKN044 OVC055 05/M05 A3006 RMK AO2,KSOW,2018-03-27T18:15:00Z,34.27,-110.0,5.0,-5.0,320,9,,10.0,30.059055,,,TRUE,TRUE,,,,,,,BKN,3600,BKN,4400,OVC,5500,,,VFR,,,,,,,,,,,,METAR,1954.0
KSLB 271815Z AUTO 32007KT 10SM CLR 03/M00 A3012 RMK AO2,KSLB,2018-03-27T18:15:00Z,42.6,-95.22,3.0,0.0,320,7,,10.0,30.121063,,,TRUE,TRUE,,,,,,,CLR,,,,,,,,VFR,,,,,,,,,,,,METAR,454.0
KSHL 271815Z AUTO 31008KT 7SM CLR 03/02 A3011 RMK AO2,KSHL,2018-03-27T18:15:00Z,43.22,-95.82,3.0,2.0,310,8,,7.0,30.109253,,,TRUE,TRUE,,,,,,,CLR,,,,,,,,VFR,,,,,,,,,,,,METAR,432.0
KSEM 271815Z AUTO 13005KT 10SM BKN026 19/11 A3028 RMK AO2,KSEM,2018-03-27T18:15:00Z,32.35,-86.98,19.0,11.0,130,5,,10.0,30.280512,,,TRUE,TRUE,,,,,,,BKN,2600,,,,,,,MVFR,,,,,,,,,,,,METAR,51.0
KSDA 271815Z AUTO 01008KT 10SM OVC015 05/02 A3017 RMK AO2,KSDA,2018-03-27T18:15:00Z,40.75,-95.42,5.0,2.0,10,8,,10.0,30.171259,,,TRUE,TRUE,,,,,,,OVC,1500,,,,,,,MVFR,,,,,,,,,,,,METAR,296.0
KSAZ 271815Z AUTO 24006KT 10SM CLR 06/M02 A3000 RMK AO2,KSAZ,2018-03-27T18:15:00Z,46.37,-94.8,6.0,-2.0,240,6,,10.0,30.0,,,TRUE,TRUE,,,,,,,CLR,,,,,,,,VFR,,,,,,,,,,,,METAR,392.0
KS25 271815Z AUTO 22014KT 10SM CLR 07/M00 A2987 RMK AO2,KS25,2018-03-27T18:15:00Z,47.8,-103.25,7.0,0.0,220,14,,10.0,29.870079,,,TRUE,TRUE,,,,,,,CLR,,,,,,,,VFR,,,,,,,,,,,,METAR,644.0
KMQB 271815Z AUTO 34011KT 10SM BKN014 06/03 A3011 RMK AO2 T00590033,KMQB,2018-03-27T18:15:00Z,40.52,-90.65,5.9,3.3,340,11,,10.0,30.109253,,,TRUE,TRUE,,,,,,,BKN,1400,,,,,,,MVFR,,,,,,,,,,,,METAR,215.0
KMPZ 271815Z AUTO 32009KT 10SM OVC015 06/02 A3011 RMK AO2,KMPZ,2018-03-27T18:15:00Z,40.95,-91.52,6.0,2.0,320,9,,10.0,30.109253,,,TRUE,TRUE,,,,,,,OVC,1500,,,,,,,MVFR,,,,,,,,,,,,METAR,224.0
KMOR 271815Z AUTO 23004KT 10SM OVC029 16/08 A3026 RMK A01,KMOR,2018-03-27T18:15:00Z,36.18,-83.37,16.0,8.0,230,4,,10.0,30.259842,,,TRUE,TRUE,,,,,,,OVC,2900,,,,,,,MVFR,,,,,,,,,,,,METAR,400.0
KMNZ 271815Z AUTO 02008KT 10SM -VCTSRA SCT005 OVC038 16/16 A3004 RMK AO2 LTG DSNT SW THRU NW P0002 T01620162,KMNZ,2018-03-27T18:15:00Z,31.67,-98.15,16.2,16.2,20,8,,10.0,30.041338,,,TRUE,TRUE,,,,,,VCTS -RA,SCT,500,OVC,3800,,,,,VFR,,,,,,0.02,,,,,,METAR,396.0
KMLJ 271815Z AUTO 02003KT 10SM BKN017 BKN031 OVC065 14/10 A3037 RMK AO2,KMLJ,2018-03-27T18:15:00Z,33.15,-83.23,14.0,10.0,20,3,,10.0,30.369095,,,TRUE,TRUE,,,,,,,BKN,1700,BKN,3100,OVC,6500,,,MVFR,,,,,,,,,,,,METAR,117.0
KMLE 271815Z AUTO 34005KT 10SM CLR 09/02 A3015 RMK AO2 T00880015,KMLE,2018-03-27T18:15:00Z,41.2,-96.12,8.8,1.5,340,5,,10.0,30.15059,,,TRUE,TRUE,,,,,,,CLR,,,,,,,,VFR,,,,,,,,,,,,METAR,320.0
KXSA 271815Z AUTO 21004KT 10SM OVC060 09/01 A3045 RMK AO2 T00880005,KXSA,2018-03-27T18:15:00Z,37.87,-76.9,8.8,0.5,210,4,,10.0,30.448818,,,TRUE,TRUE,,,,,,,OVC,6000,,,,,,,VFR,,,,,,,,,,,,METAR,42.0
KCLI 271815Z AUTO 31010G15KT 10SM OVC023 07/01 A2994 RMK AO2 T00650009,KCLI,2018-03-27T18:15:00Z,44.62,-88.73,6.5,0.9,310,10,15,10.0,29.940945,,,TRUE,TRUE,,,,,,,OVC,2300,,,,,,,MVFR,,,,,,,,,,,,METAR,250.0
KCKF 271815Z AUTO 15007KT 10SM OVC031 23/13 A3034 RMK AO2 T02280128,KCKF,2018-03-27T18:15:00Z,31.98,-83.77,22.8,12.8,150,7,,10.0,30.339567,,,TRUE,TRUE,,,,,,,OVC,3100,,,,,,,VFR,,,,,,,,,,,,METAR,91.0
KCKC 271815Z AUTO 28010G17KT 10SM OVC015 01/M04 A2986 RMK AO2 P0003,KCKC,2018-03-27T18:15:00Z,47.83,-90.37,1.0,-4.0,280,10,17,10.0,29.861221,,,TRUE,TRUE,,,,,,,OVC,1500,,,,,,,MVFR,,,,,,0.03,,,,,,METAR,548.0
KCIR 271815Z AUTO 17014G21KT 10SM OVC024 16/13 A3003 RMK AO2 T01620130,KCIR,2018-03-27T18:15:00Z,37.07,-89.22,16.2,13.0,170,14,21,10.0,30.029528,,,TRUE,TRUE,,,,,,,OVC,2400,,,,,,,MVFR,,,,,,,,,,,,METAR,98.0
KCGC 271815Z AUTO 08014G24KT 10SM SCT049 26/12 A3024 RMK AO2,KCGC,2018-03-27T18:15:00Z,28.87,-82.57,26.0,12.0,80,14,24,10.0,30.239174,,,TRUE,TRUE,,,,,,,SCT,4900,,,,,,,VFR,,,,,,,,,,,,METAR,3.0
KCFJ 271815Z AUTO 20011G14KT 4SM BR OVC004 11/11 A3001 RMK AO2 T01090109,KCFJ,2018-03-27T18:15:00Z,39.98,-86.92,10.9,10.9,200,11,14,4.0,30.008858,,,TRUE,TRUE,,,,,,BR,OVC,400,,,,,,,LIFR,,,,,,,,,,,,METAR,244.0
KCFE 271815Z AUTO 25006KT 10SM CLR 04/00 A3007 RMK AO2 T00390001,KCFE,2018-03-27T18:15:00Z,45.17,-93.85,3.9,0.1,250,6,,10.0,30.070866,,,TRUE,TRUE,,,,,,,CLR,,,,,,,,VFR,,,,,,,,,,,,METAR,295.0
KCEY 271815Z AUTO 16016G24KT 10SM FEW060 19/13 A3009 RMK AO1,KCEY,2018-03-27T18:15:00Z,36.67,-88.37,19.0,13.0,160,16,24,10.0,30.088583,,,TRUE,TRUE,,,,,,,FEW,6000,,,,,,,VFR,,,,,,,,,,,,METAR,176.0
KCDI 271815Z AUTO 20006KT 10SM OVC020 10/07 A3012 RMK AO2 T00950066,KCDI,2018-03-27T18:15:00Z,39.97,-81.58,9.5,6.6,200,6,,10.0,30.121063,,,TRUE,TRUE,,,,,,,OVC,2000,,,,,,,MVFR,,,,,,,,,,,,METAR,244.0
KCDH 271815Z AUTO 19011G21KT 8SM FEW042 SCT049 SCT070 28/15 A3002 RMK AO2,KCDH,2018-03-27T18:15:00Z,33.62,-92.77,28.0,15.0,190,11,21,8.0,30.02067,,,TRUE,TRUE,,,,,,,FEW,4200,SCT,4900,SCT,7000,,,VFR,,,,,,,,,,,,METAR,35.0
KC35 271815Z AUTO 30010KT 10SM OVC017 05/02 A3001 RMK AO2 T00500018,KC35,2018-03-27T18:15:00Z,43.53,-89.98,5.0,1.8,300,10,,10.0,30.008858,,,TRUE,TRUE,,,,,,,OVC,1700,,,,,,,MVFR,,,,,,,,,,,,METAR,276.0
KBYY 271815Z AUTO 14014G20KT 5SM HZ OVC018 25/21 A3001 RMK AO2 T02520210,KBYY,2018-03-27T18:15:00Z,28.97,-95.87,25.2,21.0,140,14,20,5.0,30.008858,,,TRUE,TRUE,,,,,,HZ,OVC,1800,,,,,,,MVFR,,,,,,,,,,,,METAR,14.0
KHZL 271815Z AUTO 14006KT SCT110 04/M09 A3038 RMK AO2 P0004 PWINO,KHZL,2018-03-27T18:15:00Z,40.98,-76.0,4.0,-9.0,140,6,,,30.380905,,,TRUE,TRUE,,,,,TRUE,,SCT,11000,,,,,,,,,,,,,0.04,,,,,,METAR,489.0
KHVE 271815Z AUTO 03008KT 10SM CLR 11/M14 A3013 RMK AO2,KHVE,2018-03-27T18:15:00Z,38.42,-110.7,11.0,-14.0,30,8,,10.0,30.129921,,,TRUE,TRUE,,,,,,,CLR,,,,,,,,VFR,,,,,,,,,,,,METAR,1350.0
KHSB 271815Z AUTO 19009KT 4SM +RA OVC015 14/13 A3003 RMK AO2 P0008 T01410133,KHSB,2018-03-27T18:15:00Z,37.82,-88.55,14.1,13.3,190,9,,4.0,30.029528,,,TRUE,TRUE,,,,,,+RA,OVC,1500,,,,,,,MVFR,,,,,,0.08,,,,,,METAR,121.0
KHRX 271815Z AUTO 04018G22KT 5SM BR OVC006 05/05 A3010 RMK AO2 T00530051,KHRX,2018-03-27T18:15:00Z,34.87,-102.33,5.3,5.1,40,18,22,5.0,30.100393,,,TRUE,TRUE,,,,,,BR,OVC,600,,,,,,,IFR,,,,,,,,,,,,METAR,1154.0
KHQI 271815Z AUTO 13014KT 4SM HZ CLR A3004 RMK A01,KHQI,2018-03-27T18:15:00Z,27.93,-93.67,,,130,14,,4.0,30.041338,,,TRUE,TRUE,,,,,,HZ,CLR,,,,,,,,MVFR,,,,,,,,,,,,METAR,26.0
KHMP 271815Z AUTO 08008KT 10SM OVC016 12/07 A3036 RMK AO2 T01220073,KHMP,2018-03-27T18:15:00Z,33.38,-84.33,12.2,7.3,80,8,,10.0,30.360237,,,TRUE,TRUE,,,,,,,OVC,1600,,,,,,,MVFR,,,,,,,,,,,,METAR,269.0
KHFY 271815Z AUTO 21007KT 4SM OVC007 12/11 A3006 RMK AO2 T01150112,KHFY,2018-03-27T18:15:00Z,39.63,-86.08,11.5,11.2,210,7,,4.0,30.059055,,,TRUE,TRUE,,,,,,,OVC,700,,,,,,,IFR,,,,,,,,,,,,METAR,251.0
KHCR 271815Z AUTO 08004KT 10SM CLR 03/M10 A3019 RMK AO2,KHCR,2018-03-27T18:15:00Z,40.48,-111.43,3.0,-10.0,80,4,,10.0,30.188976,,,TRUE,TRUE,,,,,,,CLR,,,,,,,,VFR,,,,,,,,,,,,METAR,1706.0
KHCD 271815Z AUTO 26010G15KT 10SM CLR 06/02 A3007 RMK AO2 T00590023,KHCD,2018-03-27T18:15:00Z,44.87,-94.38,5.9,2.3,260,10,15,10.0,30.070866,,,TRUE,TRUE,,,,,,,CLR,,,,,,,,VFR,,,,,,,,,,,,METAR,323.0
KGZL 271815Z AUTO 29005KT 10SM -RA OVC003 14/14 A3002 RMK AO2 P0003,KGZL,2018-03-27T18:15:00Z,35.28,-95.1,14.0,14.0,290,5,,10.0,30.02067,,,TRUE,TRUE,,,,,,-RA,OVC,300,,,,,,,LIFR,,,,,,0.03,,,,,,METAR,183.0
KGYB 271815Z AUTO 16010G15KT 10SM SCT027 SCT033 BKN050 25/18 A2999 RMK AO2 T02520179,KGYB,2018-03-27T18:15:00Z,30.17,-96.98,25.2,17.9,160,10,15,10.0,29.991142,,,TRUE,TRUE,,,,,,,SCT,2700,SCT,3300,BKN,5000,,,VFR,,,,,,,,,,,,METAR,148.0
KGWB 271815Z AUTO 22006G14KT 7SM -DZ OVC007 11/11 A2999 RMK AO2,KGWB,2018-03-27T18:15:00Z,41.3,-85.07,11.0,11.0,220,6,14,7.0,29.991142,,,TRUE,TRUE,,,,,,-DZ,OVC,700,,,,,,,IFR,,,,,,,,,,,,METAR,269.0
KGUL 271815Z AUTO 17017G22KT 3SM HZ CLR 24/21 A3005 RMK A01,KGUL,2018-03-27T18:15:00Z,27.3,-93.53,24.0,21.0,170,17,22,3.0,30.050198,,,TRUE,TRUE,,,,,,HZ,CLR,,,,,,,,MVFR,,,,,,,,,,,,METAR,30.0
KGMJ 271815Z AUTO 04006KT 10SM -DZ OVC011 11/11 A3005 RMK AO2,KGMJ,2018-03-27T18:15:00Z,36.6,-94.73,11.0,11.0,40,6,,10.0,30.050198,,,TRUE,TRUE,,,,,,-DZ,OVC,1100,,,,,,,MVFR,,,,,,,,,,,,METAR,254.0
KGIC 271815Z AUTO 24015G23KT 10SM SCT050 OVC060 07/00 A3020 RMK AO1,KGIC,2018-03-27T18:15:00Z,45.95,-116.12,7.0,0.0,240,15,23,10.0,30.200787,,,TRUE,TRUE,,,,,,,SCT,5000,OVC,6000,,,,,VFR,,,,,,,,,,,,METAR,1009.0
KGHB 271815Z AUTO 00000KT 6SM HZ CLR 25/21 A3011 RMK A01,KGHB,2018-03-27T18:15:00Z,27.83,-91.98,25.0,21.0,0,0,,6.0,30.109253,,,TRUE,TRUE,,,,,,HZ,CLR,,,,,,,,VFR,,,,,,,,,,,,METAR,30.0
KGCM 271815Z AUTO 35007KT 10SM -RA OVC008 09/08 A3008 RMK AO2,KGCM,2018-03-27T18:15:00Z,36.3,-95.48,9.0,8.0,350,7,,10.0,30.079725,,,TRUE,TRUE,,,,,,-RA,OVC,800,,,,,,,IFR,,,,,,,,,,,,METAR,221.0
KGCD 271815Z AUTO 27003KT 10SM SCT041 OVC050 08/00 A3032 RMK AO2 T00780000,KGCD,2018-03-27T18:15:00Z,44.38,-118.97,7.8,0.0,270,3,,10.0,30.318897,,,TRUE,TRUE,,,,,,,SCT,4100,OVC,5000,,,,,VFR,,,,,,,,,,,,METAR,1127.0
KGBK 271815Z AUTO 11010G18KT 7SM CLR 24/21 A3006 RMK A01,KGBK,2018-03-27T18:15:00Z,27.2,-92.2,24.0,21.0,110,10,18,7.0,30.059055,,,TRUE,TRUE,,,,,,,CLR,,,,,,,,VFR,,,,,,,,,,,,METAR,59.0
KCMD 271815Z AUTO 16007KT 10SM OVC017 13/08 A3030 RMK AO2 T01300078,KCMD,2018-03-27T18:15:00Z,34.27,-86.85,13.0,7.8,160,7,,10.0,30.301182,,,TRUE,TRUE,,,,,,,OVC,1700,,,,,,,MVFR,,,,,,,,,,,,METAR,294.0
KMWO 271815Z AUTO 21007KT 2SM -RA BR SCT009 OVC016 12/11 A3009 RMK AO2 VIS 1 1/4V4 P0001 T01170109,KMWO,2018-03-27T18:15:00Z,39.53,-84.4,11.7,10.9,210,7,,2.0,30.088583,,,TRUE,TRUE,,,,,,-RA BR,SCT,900,OVC,1600,,,,,IFR,,,,,,0.01,,,,,,METAR,198.0
KMVH 271815Z AUTO 20011KT 10SM CLR 08/M06 A2985 RMK AO2,KMVH,2018-03-27T18:15:00Z,46.83,-108.93,8.0,-6.0,200,11,,10.0,29.84941,,,TRUE,TRUE,,,,,,,CLR,,,,,,,,VFR,,,,,,,,,,,,METAR,1355.0
KMRC 271815Z AUTO 17009G19KT 10SM FEW031 18/12 A3018 RMK A01,KMRC,2018-03-27T18:15:00Z,35.55,-87.18,18.0,12.0,170,9,19,10.0,30.180119,,,TRUE,TRUE,,,,,,,FEW,3100,,,,,,,VFR,,,,,,,,,,,,METAR,208.0
KMQS 271815Z AUTO 14005KT 10SM CLR 05/M07 A3043 RMK AO2,KMQS,2018-03-27T18:15:00Z,39.98,-75.87,5.0,-7.0,140,5,,10.0,30.431103,,,TRUE,TRUE,,,,,,,CLR,,,,,,,,VFR,,,,,,,,,,,,METAR,201.0
KMZZ 271815Z AUTO 22014G20KT 4SM HZ OVC007 A3001 RMK AO2,KMZZ,2018-03-27T18:15:00Z,40.48,-85.68,,,220,14,20,4.0,30.008858,,,TRUE,TRUE,,,,,,HZ,OVC,700,,,,,,,IFR,,,,,,,,,,,,METAR,262.0
KN38 271815Z AUTO 19012G23KT 4SM -UP SCT031 BKN042 BKN050 00/M02 A3023 RMK AO2,KN38,2018-03-27T18:15:00Z,41.73,-77.4,0.0,-2.0,190,12,23,4.0,30.230314,,,TRUE,TRUE,,,,,,UP,SCT,3100,BKN,4200,BKN,5000,,,MVFR,,,,,,,,,,,,METAR,577.0
KO54 271815Z AUTO 22003KT 10SM CLR 08/02 A3039 RMK AO1,KO54,2018-03-27T18:15:00Z,40.75,-122.92,8.0,2.0,220,3,,10.0,30.389763,,,TRUE,TRUE,,,,,,,CLR,,,,,,,,VFR,,,,,,,,,,,,METAR,717.0
KOCW 271815Z AUTO 34004KT 10SM -RA SCT050 OVC060 10/03 A3044 RMK AO2 T01040031,KOCW,2018-03-27T18:15:00Z,35.57,-77.05,10.4,3.1,340,4,,10.0,30.43996,,,TRUE,TRUE,,,,,,-RA,SCT,5000,OVC,6000,,,,,VFR,,,,,,,,,,,,METAR,12.0
KOGA 271815Z AUTO 00000KT 10SM CLR 11/M10 A3014 RMK AO2 T01081100,KOGA,2018-03-27T18:15:00Z,41.12,-101.77,10.8,-10.0,0,0,,10.0,30.138779,,,TRUE,TRUE,,,,,,,CLR,,,,,,,,VFR,,,,,,,,,,,,METAR,999.0
KOKV 271815Z AUTO 18008KT 7SM RA SCT011 BKN017 OVC022 02/01 A3039 RMK AO2 P0001,KOKV,2018-03-27T18:15:00Z,39.13,-78.15,2.0,1.0,180,8,,7.0,30.389763,,,TRUE,TRUE,,,,,,RA,SCT,1100,BKN,1700,OVC,2200,,,MVFR,,,,,,0.01,,,,,,METAR,222.0
KONM 271815Z AUTO 15009G26KT 10SM SCT060 SCT075 16/M08 A2996 RMK AO2 T01591077,KONM,2018-03-27T18:15:00Z,34.02,-106.9,15.9,-7.7,150,9,26,10.0,29.958662,,,TRUE,TRUE,,,,,,,SCT,6000,SCT,7500,,,,,VFR,,,,,,,,,,,,METAR,1410.0
KONP 271815Z AUTO 21011KT 5SM BR BKN011 BKN017 OVC033 09/08 A3053 RMK AO2,KONP,2018-03-27T18:15:00Z,44.57,-124.03,9.0,8.0,210,11,,5.0,30.528543,,,TRUE,TRUE,,,,,,BR,BKN,1100,BKN,1700,OVC,3300,,,MVFR,,,,,,,,,,,,METAR,48.0
KOXI 271815Z AUTO 24010KT 4SM OVC008 11/11 A2997 RMK AO1,KOXI,2018-03-27T18:15:00Z,41.33,-86.67,11.0,11.0,240,10,,4.0,29.970472,,,TRUE,TRUE,,,,,,,OVC,800,,,,,,,IFR,,,,,,,,,,,,METAR,209.0
KPCW 271815Z AUTO 22012G18KT 4SM BR OVC010 10/09 A2999 RMK AO2,KPCW,2018-03-27T18:15:00Z,41.52,-82.87,10.0,9.0,220,12,18,4.0,29.991142,,,TRUE,TRUE,,,,,,BR,OVC,1000,,,,,,,MVFR,,,,,,,,,,,,METAR,178.0
KPEQ 271815Z AUTO 12018G26KT 10SM CLR 22/09 A2990 RMK AO2 T02240088,KPEQ,2018-03-27T18:15:00Z,31.38,-103.52,22.4,8.8,120,18,26,10.0,29.899607,,,TRUE,TRUE,,,,,,,CLR,,,,,,,,VFR,,,,,,,,,,,,METAR,797.0
KPHT 271815Z AUTO 18016G22KT 10SM FEW027 OVC060 20/13 A3010 RMK A01,KPHT,2018-03-27T18:15:00Z,36.33,-88.38,20.0,13.0,180,16,22,10.0,30.100393,,,TRUE,TRUE,,,,,,,FEW,2700,OVC,6000,,,,,VFR,,,,,,,,,,,,METAR,177.0
KPMV 271815Z AUTO 01003KT 10SM OVC016 06/02 A3016 RMK AO2 T00580022,KPMV,2018-03-27T18:15:00Z,40.95,-95.92,5.8,2.2,10,3,,10.0,30.159449,,,TRUE,TRUE,,,,,,,OVC,1600,,,,,,,MVFR,,,,,,,,,,,,METAR,367.0
KPPO 271815Z AUTO 25007KT 1 1/4SM DZ OVC004 11/11 A2997 RMK AO2 T01100106,KPPO,2018-03-27T18:15:00Z,41.57,-86.73,11.0,10.6,250,7,,1.25,29.970472,,,TRUE,TRUE,,,,,,DZ,OVC,400,,,,,,,LIFR,,,,,,,,,,,,METAR,248.0
KPPQ 271815Z AUTO 33009KT 10SM OVC011 06/05 A3009 RMK AO2 T00620047,KPPQ,2018-03-27T18:15:00Z,39.63,-90.78,6.2,4.7,330,9,,10.0,30.088583,,,TRUE,TRUE,,,,,,,OVC,1100,,,,,,,MVFR,,,,,,,,,,,,METAR,216.0
KPRS 271815Z AUTO 06009KT 10SM CLR 20/09 A2995 RMK AO2 T02000090,KPRS,2018-03-27T18:15:00Z,29.63,-104.35,20.0,9.0,60,9,,10.0,29.949802,,,TRUE,TRUE,,,,,,,CLR,,,,,,,,VFR,,,,,,,,,,,,METAR,896.0
KPVE 271815Z AUTO 18015G22KT 10SM CLR 20/12 A3015 RMK A01,KPVE,2018-03-27T18:15:00Z,35.65,-88.2,20.0,12.0,180,15,22,10.0,30.15059,,,TRUE,TRUE,,,,,,,CLR,,,,,,,,VFR,,,,,,,,,,,,METAR,149.0
KPVF 271815Z AUTO 28003KT 10SM CLR 14/00 A3025 RMK AO1,KPVF,2018-03-27T18:15:00Z,38.72,-120.75,14.0,0.0,280,3,,10.0,30.250984,,,TRUE,TRUE,,,,,,,CLR,,,,,,,,VFR,,,,,,,,,,,,METAR,789.0
KPXE 271815Z AUTO 11008KT 10SM BKN026 OVC065 17/11 A3034 RMK AO2 T01750113,KPXE,2018-03-27T18:15:00Z,32.52,-83.77,17.5,11.3,110,8,,10.0,30.339567,,,TRUE,TRUE,,,,,,,BKN,2600,OVC,6500,,,,,MVFR,,,,,,,,,,,,METAR,127.0
KRCR 271815Z AUTO 23007G10KT 5SM BR OVC007 13/12 A2998 RMK AO2,KRCR,2018-03-27T18:15:00Z,41.07,-86.18,13.0,12.0,230,7,10,5.0,29.97933,,,TRUE,TRUE,,,,,,BR,OVC,700,,,,,,,IFR,,,,,,,,,,,,METAR,241.0
KRGA 271815Z AUTO 22017G24KT 10SM CLR 17/10 A3015 RMK AO2,KRGA,2018-03-27T18:15:00Z,37.63,-84.33,17.0,10.0,220,17,24,10.0,30.15059,,,TRUE,TRUE,,,,,,,CLR,,,,,,,,VFR,,,,,,,,,,,,METAR,305.0
KRHP 271815Z AUTO 00000KT 10SM OVC022 11/07 A3034 RMK AO2 T01130067,KRHP,2018-03-27T18:15:00Z,35.18,-83.85,11.3,6.7,0,0,,10.0,30.339567,,,TRUE,TRUE,,,,,,,OVC,2200,,,,,,,MVFR,,,,,,,,,,,,METAR,518.0
KRKR 271815Z AUTO 19003KT 7SM RA SCT005 OVC010 17/17 A2999 RMK AO2 P0003,KRKR,2018-03-27T18:15:00Z,35.02,-94.62,17.0,17.0,190,3,,7.0,29.991142,,,TRUE,TRUE,,,,,,RA,SCT,500,OVC,1000,,,,,MVFR,,,,,,0.03,,,,,,METAR,138.0
KRKW 271815Z AUTO 20013G18KT 10SM OVC017 11/06 A3029 RMK A01,KRKW,2018-03-27T18:15:00Z,35.92,-84.68,11.0,6.0,200,13,18,10.0,30.28937,,,TRUE,TRUE,,,,,,,OVC,1700,,,,,,,MVFR,,,,,,,,,,,,METAR,508.0
KRLD 271815Z AUTO 20023G32KT 10SM SCT080 14/05 A3017 RMK AO2 T01370045,KRLD,2018-03-27T18:15:00Z,46.3,-119.3,13.7,4.5,200,23,32,10.0,30.171259,,,TRUE,TRUE,,,,,,,SCT,8000,,,,,,,VFR,,,,,,,,,,,,METAR,120.0
KRMN 271815Z AUTO 20004KT 10SM -RA SCT025 SCT034 OVC044 06/02 A3048 RMK AO2 T00620023,KRMN,2018-03-27T18:15:00Z,38.4,-77.45,6.2,2.3,200,4,,10.0,30.481298,,,TRUE,TRUE,,,,,,-RA,SCT,2500,SCT,3400,OVC,4400,,,VFR,,,,,,,,,,,,METAR,65.0
KRPD 271815Z AUTO 27007KT 10SM OVC013 01/M01 A3004 RMK AO2 T00121012,KRPD,2018-03-27T18:15:00Z,45.42,-91.77,1.2,-1.2,270,7,,10.0,30.041338,,,TRUE,TRUE,,,,,,,OVC,1300,,,,,,,MVFR,,,,,,,,,,,,METAR,338.0
KRNC 271815Z AUTO 21012G20KT 10SM FEW060 15/10 A3023 RMK A01,KRNC,2018-03-27T18:15:00Z,35.7,-85.85,15.0,10.0,210,12,20,10.0,30.230314,,,TRUE,TRUE,,,,,,,FEW,6000,,,,,,,VFR,,,,,,,,,,,,METAR,315.0
KRYV 271815Z AUTO 30009G15KT 10SM BKN015 OVC023 06/04 A2998 RMK AO2 T00640040,KRYV,2018-03-27T18:15:00Z,43.17,-88.72,6.4,4.0,300,9,15,10.0,29.97933,,,TRUE,TRUE,,,,,,,BKN,1500,OVC,2300,,,,,MVFR,,,,,,,,,,,,METAR,254.0
KRTS 271815Z AUTO 11006KT 10SM CLR 07/M08 A3041 RMK AO2,KRTS,2018-03-27T18:15:00Z,39.67,-119.88,7.0,-8.0,110,6,,10.0,30.410433,,,TRUE,TRUE,,,,,,,CLR,,,,,,,,VFR,,,,,,,,,,,,METAR,1540.0
KS52 271815Z AUTO 00000KT 10SM SCT080 SCT100 07/M01 A3006 RMK AO2 T00661010,KS52,2018-03-27T18:15:00Z,48.38,-120.15,6.6,-1.0,0,0,,10.0,30.059055,,,TRUE,TRUE,,,,,,,SCT,8000,SCT,10000,,,,,VFR,,,,,,,,,,,,METAR,520.0
KRZR 271815Z AUTO 21007KT 10SM OVC026 14/08 A3029 RMK A01,KRZR,2018-03-27T18:15:00Z,35.22,-84.8,14.0,8.0,210,7,,10.0,30.28937,,,TRUE,TRUE,,,,,,,OVC,2600,,,,,,,MVFR,,,,,,,,,,,,METAR,263.0
KRYW 271815Z AUTO 15008KT 10SM SCT030 BKN041 OVC060 25/18 A2999 RMK AO2 T02470180,KRYW,2018-03-27T18:15:00Z,30.5,-97.97,24.7,18.0,150,8,,10.0,29.991142,,,TRUE,TRUE,,,,,,,SCT,3000,BKN,4100,OVC,6000,,,VFR,,,,,,,,,,,,METAR,376.0
KSCX 271815Z AUTO 20020KT 10SM FEW025 SCT070 14/08 A3023 RMK A01,KSCX,2018-03-27T18:15:00Z,36.45,-84.58,14.0,8.0,200,20,,10.0,30.230314,,,TRUE,TRUE,,,,,,,FEW,2500,SCT,7000,,,,,VFR,,,,,,,,,,,,METAR,471.0
KSEP 271815Z AUTO 06007KT 10SM OVC090 17/15 A3006 RMK AO2 T01700152,KSEP,2018-03-27T18:15:00Z,32.22,-98.17,17.0,15.2,60,7,,10.0,30.059055,,,TRUE,TRUE,,,,,,,OVC,9000,,,,,,,VFR,,,,,,,,,,,,METAR,402.0
KSLR 271815Z AUTO 32009KT 7SM -RA SCT011 BKN027 OVC032 18/17 A3004 RMK AO2 P0001 T01830174,KSLR,2018-03-27T18:15:00Z,33.17,-95.62,18.3,17.4,320,9,,7.0,30.041338,,,TRUE,TRUE,,,,,,-RA,SCT,1100,BKN,2700,OVC,3200,,,MVFR,,,,,,0.01,,,,,,METAR,149.0
KSNH 271815Z AUTO 18016G22KT 10SM SCT031 20/13 A3017 RMK A01,KSNH,2018-03-27T18:15:00Z,35.17,-88.22,20.0,13.0,180,16,22,10.0,30.171259,,,TRUE,TRUE,,,,,,,SCT,3100,,,,,,,VFR,,,,,,,,,,,,METAR,144.0
KSRB 271815Z AUTO 19011G19KT 10SM FEW028 17/10 A3022 RMK A01,KSRB,2018-03-27T18:15:00Z,36.05,-85.53,17.0,10.0,190,11,19,10.0,30.221457,,,TRUE,TRUE,,,,,,,FEW,2800,,,,,,,VFR,,,,,,,,,,,,METAR,313.0
KSRE 271815Z AUTO 01007KT 5SM -RA BKN006 OVC009 11/10 A3009 RMK AO2,KSRE,2018-03-27T18:15:00Z,35.27,-96.68,11.0,10.0,10,7,,5.0,30.088583,,,TRUE,TRUE,,,,,,-RA,BKN,600,OVC,900,,,,,IFR,,,,,,,,,,,,METAR,312.0
KSVH 271815Z AUTO 00000KT 10SM OVC033 08/00 A3041 RMK AO2 T00781001,KSVH,2018-03-27T18:15:00Z,35.75,-80.95,7.8,-0.1,0,0,,10.0,30.410433,,,TRUE,TRUE,,,,,,,OVC,3300,,,,,,,VFR,,,,,,,,,,,,METAR,294.0
KSWW 271815Z AUTO 10013G16KT 5SM SCT017 BKN047 OVC070 15/15 A3000 RMK AO2 LTG DSNT SE P0003 T01540154,KSWW,2018-03-27T18:15:00Z,32.47,-100.47,15.4,15.4,100,13,16,5.0,30.0,,,TRUE,TRUE,,,,,,,SCT,1700,BKN,4700,OVC,7000,,,MVFR,,,,,,0.03,,,,,,METAR,727.0
KSYI 271815Z AUTO 17014G22KT 10SM FEW026 17/11 A3022 RMK A01,KSYI,2018-03-27T18:15:00Z,35.57,-86.45,17.0,11.0,170,14,22,10.0,30.221457,,,TRUE,TRUE,,,,,,,FEW,2600,,,,,,,VFR,,,,,,,,,,,,METAR,245.0
KSZY 271815Z AUTO 18013G20KT 10SM BKN030 20/12 A3016 RMK A01,KSZY,2018-03-27T18:15:00Z,,,20.0,12.0,180,13,20,10.0,30.159449,,,TRUE,TRUE,,,,,,,BKN,3000,,,,,,,MVFR,,,,,,,,,,,,METAR,
KTSP 271815Z AUTO 14010G15KT 10SM CLR 12/M07 A3022 RMK AO2,KTSP,2018-03-27T18:15:00Z,35.13,-118.43,12.0,-7.0,140,10,15,10.0,30.221457,,,TRUE,TRUE,,,,,,,CLR,,,,,,,,VFR,,,,,,,,,,,,METAR,1220.0
KTQH 271815Z AUTO 02003KT 10SM OVC008 12/12 A3002 RMK AO2 P0001,KTQH,2018-03-27T18:15:00Z,35.93,-95.0,12.0,12.0,20,3,,10.0,30.02067,,,TRUE,TRUE,,,,,,,OVC,800,,,,,,,IFR,,,,,,0.01,,,,,,METAR,266.0
KTNB 271815Z AUTO 21005KT 10SM CLR 10/03 A3033 RMK AO2 T01040026,KTNB,2018-03-27T18:15:00Z,36.2,-81.65,10.4,2.6,210,5,,10.0,30.33071,,,TRUE,TRUE,,,,,,,CLR,,,,,,,,VFR,,,,,,,,,,,,METAR,911.0
KTHA 271815Z AUTO 17016G22KT 10SM BKN019 15/10 A3023 RMK A01,KTHA,2018-03-27T18:15:00Z,35.38,-86.25,15.0,10.0,170,16,22,10.0,30.230314,,,TRUE,TRUE,,,,,,,BKN,1900,,,,,,,MVFR,,,,,,,,,,,,METAR,331.0
KTEX 271815Z AUTO 26006KT 10SM SCT120 01/M08 A3004 RMK AO2 T00111079,KTEX,2018-03-27T18:15:00Z,37.95,-107.9,1.1,-7.9,260,6,,10.0,30.041338,,,TRUE,TRUE,,,,,,,SCT,12000,,,,,,,VFR,,,,,,,,,,,,METAR,2769.0
KTYQ 271815Z AUTO 21013KT 2SM +DZ OVC005 11/11 A3003 RMK AO2 P0003 T01100110,KTYQ,2018-03-27T18:15:00Z,40.03,-86.25,11.0,11.0,210,13,,2.0,30.029528,,,TRUE,TRUE,,,,,,+DZ,OVC,500,,,,,,,IFR,,,,,,0.03,,,,,,METAR,281.0
KUCY 271815Z AUTO 19018G25KT 10SM SCT031 BKN060 BKN070 20/13 A3007 RMK A01,KUCY,2018-03-27T18:15:00Z,36.38,-88.98,20.0,13.0,190,18,25,10.0,30.070866,,,TRUE,TRUE,,,,,,,SCT,3100,BKN,6000,BKN,7000,,,VFR,,,,,,,,,,,,METAR,104.0
KUKF 271815Z AUTO 19004KT 10SM BKN029 OVC046 10/02 A3042 RMK AO2,KUKF,2018-03-27T18:15:00Z,36.22,-81.1,10.0,2.0,190,4,,10.0,30.41929,,,TRUE,TRUE,,,,,,,BKN,2900,OVC,4600,,,,,MVFR,,,,,,,,,,,,METAR,396.0
KUNI 271815Z AUTO 20004KT 10SM OVC025 13/07 A3013 RMK AO2 T01250068,KUNI,2018-03-27T18:15:00Z,39.22,-82.23,12.5,6.8,200,4,,10.0,30.129921,,,TRUE,TRUE,,,,,,,OVC,2500,,,,,,,MVFR,,,,,,,,,,,,METAR,193.0
KVER 271815Z AUTO 34006KT 10SM SCT003 BKN012 OVC032 07/07 A3010 RMK AO2 T00670067,KVER,2018-03-27T18:15:00Z,38.95,-92.68,6.7,6.7,340,6,,10.0,30.100393,,,TRUE,TRUE,,,,,,,SCT,300,BKN,1200,OVC,3200,,,MVFR,,,,,,,,,,,,METAR,218.0
KVJI 271815Z AUTO 23009KT 10SM OVC033 17/08 A3026 RMK AO2 T01660076,KVJI,2018-03-27T18:15:00Z,36.67,-82.02,16.6,7.6,230,9,,10.0,30.259842,,,TRUE,TRUE,,,,,,,OVC,3300,,,,,,,VFR,,,,,,,,,,,,METAR,631.0
KVKS 271815Z AUTO 15012G17KT 10SM FEW027 FEW070 23/15 A3016 RMK A01,KVKS,2018-03-27T18:15:00Z,32.23,-90.93,23.0,15.0,150,12,17,10.0,30.159449,,,TRUE,TRUE,,,,,,,FEW,2700,FEW,7000,,,,,VFR,,,,,,,,,,,,METAR,32.0
KVUJ 271815Z AUTO 13004KT 10SM SCT025 SCT035 OVC044 09/02 A3046 RMK AO2 T00850020,KVUJ,2018-03-27T18:15:00Z,35.42,-80.15,8.5,2.0,130,4,,10.0,30.46063,,,TRUE,TRUE,,,,,,,SCT,2500,SCT,3500,OVC,4400,,,VFR,,,,,,,,,,,,METAR,186.0
KVWU 271815Z AUTO 24009KT 10SM SCT028 SCT036 BKN044 03/00 A2991 RMK AO2,KVWU,2018-03-27T18:15:00Z,48.15,-94.52,3.0,0.0,240,9,,10.0,29.911417,,,TRUE,TRUE,,,,,,,SCT,2800,SCT,3600,BKN,4400,,,VFR,,,,,,,,,,,,METAR,360.0
CMGB 271815Z AUTO 16007KT 10/M12 RMK AO1 SOG 01 7043 SLP271 T00981115,CMGB,2018-03-27T18:15:00Z,45.37,-72.77,9.8,-11.5,160,7,,,,1027.1,,TRUE,TRUE,,,,,,,,,,,,,,,,,,,,,,,,,,,METAR,86.0
KMRJ 271815Z AUTO 29008KT 10SM BKN012 OVC018 05/04 A3002 RMK AO2,KMRJ,2018-03-27T18:15:00Z,42.88,-90.23,5.0,4.0,290,8,,10.0,30.02067,,,TRUE,TRUE,,,,,,,BKN,1200,OVC,1800,,,,,MVFR,,,,,,,,,,,,METAR,359.0
KMRN 271815Z AUTO 00000KT 10SM OVC030 11/03 A3042 RMK AO2 T01070028,KMRN,2018-03-27T18:15:00Z,35.82,-81.62,10.7,2.8,0,0,,10.0,30.41929,,,TRUE,TRUE,,,,,,,OVC,3000,,,,,,,MVFR,,,,,,,,,,,,METAR,387.0
KMTV 271815Z AUTO 00000KT 10SM BKN035 OVC045 07/00 A3042 RMK AO2 T00710002,KMTV,2018-03-27T18:15:00Z,36.63,-80.02,7.1,0.2,0,0,,10.0,30.41929,,,TRUE,TRUE,,,,,,,BKN,3500,OVC,4500,,,,,VFR,,,,,,,,,,,,METAR,287.0
KOEO 271815Z AUTO 26011KT 10SM OVC013 02/00 A3008 RMK AO2 T00211005,KOEO,2018-03-27T18:15:00Z,45.32,-92.7,2.1,-0.5,260,11,,10.0,30.079725,,,TRUE,TRUE,,,,,,,OVC,1300,,,,,,,MVFR,,,,,,,,,,,,METAR,275.0
KMWK 271815Z AUTO 15005KT 10SM SCT030 09/03 A3041 RMK AO2 T00930027,KMWK,2018-03-27T18:15:00Z,36.47,-80.55,9.3,2.7,150,5,,10.0,30.410433,,,TRUE,TRUE,,,,,,,SCT,3000,,,,,,,VFR,,,,,,,,,,,,METAR,380.0
KOKM 271815Z AUTO 34007KT 10SM -RA OVC006 11/11 A3008 RMK AO2 P0002 T01060106,KOKM,2018-03-27T18:15:00Z,35.67,-95.95,10.6,10.6,340,7,,10.0,30.079725,,,TRUE,TRUE,,,,,,-RA,OVC,600,,,,,,,IFR,,,,,,0.02,,,,,,METAR,220.0
KOLG 271815Z AUTO 26006KT 10SM OVC014 01/M01 A2999 RMK AO1,KOLG,2018-03-27T18:15:00Z,46.3,-91.82,1.0,-1.0,260,6,,10.0,29.991142,,,TRUE,TRUE,,,,,,,OVC,1400,,,,,,,MVFR,,,,,,,,,,,,METAR,336.0
KOLY 271815Z AUTO 17006KT 2 1/2SM RA SCT005 BKN009 OVC012 13/12 A3005 RMK AO2 P0001 T01300118,KOLY,2018-03-27T18:15:00Z,38.72,-88.18,13.0,11.8,170,6,,2.5,30.050198,,,TRUE,TRUE,,,,,,RA,SCT,500,BKN,900,OVC,1200,,,IFR,,,,,,0.01,,,,,,METAR,147.0
KOMH 271815Z AUTO 00000KT 4SM -RA BKN009 OVC016 03/02 A3044 RMK AO2 P0002,KOMH,2018-03-27T18:15:00Z,38.25,-78.05,3.0,2.0,0,0,,4.0,30.43996,,,TRUE,TRUE,,,,,,-RA,BKN,900,OVC,1600,,,,,IFR,,,,,,0.02,,,,,,METAR,142.0
KONL 271815Z AUTO 31004KT 10SM CLR 11/M02 A3013 RMK AO2 T01131018,KONL,2018-03-27T18:15:00Z,42.47,-98.67,11.3,-1.8,310,4,,10.0,30.129921,,,TRUE,TRUE,,,,,,,CLR,,,,,,,,VFR,,,,,,,,,,,,METAR,619.0
KOPL 271815Z AUTO 10SM SCT040 SCT048 OVC060 25/17 A3011 RMK AO2 T02500174,KOPL,2018-03-27T18:15:00Z,30.55,-92.1,25.0,17.4,,,,10.0,30.109253,,,TRUE,TRUE,,,,,,,SCT,4000,SCT,4800,OVC,6000,,,VFR,,,,,,,,,,,,METAR,23.0
KOPN 271815Z AUTO 14004KT BKN023 BKN029 BKN060 17/07 A3035 RMK AO2 PWINO,KOPN,2018-03-27T18:15:00Z,32.95,-84.27,17.0,7.0,140,4,,,30.351377,,,TRUE,TRUE,,,,,TRUE,,BKN,2300,BKN,2900,BKN,6000,,,,,,,,,,,,,,,METAR,243.0
KOYM 271815Z AUTO 15008KT 3SM BR OVC007 00/M01 A3021 RMK AO2,KOYM,2018-03-27T18:15:00Z,,,0.0,-1.0,150,8,,3.0,30.209646,,,TRUE,TRUE,,,,,,BR,OVC,700,,,,,,,IFR,,,,,,,,,,,,METAR,
KOSA 271815Z AUTO 18010G21KT 10SM SCT044 26/17 A3000 RMK AO1 T02560174,KOSA,2018-03-27T18:15:00Z,33.1,-94.97,25.6,17.4,180,10,21,10.0,30.0,,,TRUE,TRUE,,,,,,,SCT,4400,,,,,,,VFR,,,,,,,,,,,,METAR,111.0
KOZA 271815Z AUTO 12004KT 10SM BKN017 BKN027 18/13 A3004 RMK AO2,KOZA,2018-03-27T18:15:00Z,30.73,-101.2,18.0,13.0,120,4,,10.0,30.041338,,,TRUE,TRUE,,,,,,,BKN,1700,BKN,2700,,,,,MVFR,,,,,,,,,,,,METAR,726.0
KPBX 271815Z AUTO 21006G15KT 180V240 10SM OVC042 18/09 A3018 RMK AO2 T01750090,KPBX,2018-03-27T18:15:00Z,37.57,-82.57,17.5,9.0,210,6,15,10.0,30.180119,,,TRUE,TRUE,,,,,,,OVC,4200,,,,,,,VFR,,,,,,,,,,,,METAR,449.0
KPDC 271815Z AUTO 28011KT 10SM BKN020 OVC026 05/01 A3006 RMK AO2 T00500005,KPDC,2018-03-27T18:15:00Z,43.02,-91.12,5.0,0.5,280,11,,10.0,30.059055,,,TRUE,TRUE,,,,,,,BKN,2000,OVC,2600,,,,,MVFR,,,,,,,,,,,,METAR,201.0
KPRG 271815Z AUTO 20011KT 5SM -DZ OVC004 13/13 A3002 RMK AO2 T01300130,KPRG,2018-03-27T18:15:00Z,39.7,-87.67,13.0,13.0,200,11,,5.0,30.02067,,,TRUE,TRUE,,,,,,-DZ,OVC,400,,,,,,,LIFR,,,,,,,,,,,,METAR,199.0
KPPA 271815Z AUTO 04016G20KT 2 1/2SM BR OVC006 05/04 A3013 RMK AO2 T00480040,KPPA,2018-03-27T18:15:00Z,35.62,-101.0,4.8,4.0,40,16,20,2.5,30.129921,,,TRUE,TRUE,,,,,,BR,OVC,600,,,,,,,IFR,,,,,,,,,,,,METAR,989.0
KPOY 271815Z AUTO 23012G18KT 10SM CLR 08/M10 A2995 RMK AO2,KPOY,2018-03-27T18:15:00Z,44.87,-108.8,8.0,-10.0,230,12,18,10.0,29.949802,,,TRUE,TRUE,,,,,,,CLR,,,,,,,,VFR,,,,,,,,,,,,METAR,1552.0
KPNT 271815Z AUTO 29009KT 5SM BR OVC008 06/05 A3003 RMK AO2 T00560054,KPNT,2018-03-27T18:15:00Z,40.92,-88.62,5.6,5.4,290,9,,5.0,30.029528,,,TRUE,TRUE,,,,,,BR,OVC,800,,,,,,,IFR,,,,,,,,,,,,METAR,201.0
KPNA 271815Z AUTO 31018KT 10SM CLR 01/M09 A3012 RMK AO2,KPNA,2018-03-27T18:15:00Z,42.8,-109.8,1.0,-9.0,310,18,,10.0,30.121063,,,TRUE,TRUE,,,,,,,CLR,,,,,,,,VFR,,,,,,,,,,,,METAR,2160.0
KPLU 271815Z AUTO VRB05G11KT 10SM OVC030 11/07 A3033 RMK AO2,KPLU,2018-03-27T18:15:00Z,47.1,-122.28,11.0,7.0,0,5,11,10.0,30.33071,,,TRUE,TRUE,,,,,,,OVC,3000,,,,,,,MVFR,,,,,,,,,,,,METAR,164.0
KPTD 271815Z AUTO 19009G15KT 10SM CLR 09/M14 A3022 RMK AO2,KPTD,2018-03-27T18:15:00Z,44.68,-74.95,9.0,-14.0,190,9,15,10.0,30.221457,,,TRUE,TRUE,,,,,,,CLR,,,,,,,,VFR,,,,,,,,,,,,METAR,144.0
KPTT 271815Z AUTO 01013G17KT 10SM OVC021 07/01 A3015 RMK AO2 T00660011,KPTT,2018-03-27T18:15:00Z,37.7,-98.75,6.6,1.1,10,13,17,10.0,30.15059,,,TRUE,TRUE,,,,,,,OVC,2100,,,,,,,MVFR,,,,,,,,,,,,METAR,595.0
KPVB 271815Z AUTO 30009KT 10SM OVC014 05/03 A3004 RMK AO1 T00500032,KPVB,2018-03-27T18:15:00Z,42.68,-90.43,5.0,3.2,300,9,,10.0,30.041338,,,TRUE,TRUE,,,,,,,OVC,1400,,,,,,,MVFR,,,,,,,,,,,,METAR,313.0
KPVW 271815Z AUTO 05013KT 10SM OVC009 08/05 A3004 RMK AO2 T00790047,KPVW,2018-03-27T18:15:00Z,34.17,-101.72,7.9,4.7,50,13,,10.0,30.041338,,,TRUE,TRUE,,,,,,,OVC,900,,,,,,,IFR,,,,,,,,,,,,METAR,1028.0
KRCZ 271815Z AUTO 33003KT 10SM OVC028 08/02 A3043 RMK AO2 T00800020,KRCZ,2018-03-27T18:15:00Z,34.88,-79.77,8.0,2.0,330,3,,10.0,30.431103,,,TRUE,TRUE,,,,,,,OVC,2800,,,,,,,MVFR,,,,,,,,,,,,METAR,109.0
KREG 271815Z AUTO 16011G17KT 10SM SCT035 BKN046 BKN055 27/17 A3013 RMK AO2 T02650173 TSNO,KREG,2018-03-27T18:15:00Z,30.17,-90.93,26.5,17.3,160,11,17,10.0,30.129921,,,TRUE,TRUE,,,TRUE,,,,SCT,3500,BKN,4600,BKN,5500,,,VFR,,,,,,,,,,,,METAR,4.0
KRNH 271815Z AUTO 27008KT 7SM OVC013 02/M01 A3005 RMK AO2 T00181015,KRNH,2018-03-27T18:15:00Z,45.15,-92.53,1.8,-1.5,270,8,,7.0,30.050198,,,TRUE,TRUE,,,,,,,OVC,1300,,,,,,,MVFR,,,,,,,,,,,,METAR,304.0
KRPH 271815Z AUTO 00000KT 17/ A3002 RMK AO2 P0003 T0169 PWINO,KRPH,2018-03-27T18:15:00Z,33.12,-98.55,16.9,,0,0,,,30.02067,,,TRUE,TRUE,,,,,TRUE,,,,,,,,,,,,,,,,0.03,,,,,,METAR,342.0
K11R 271815Z AUTO 15012KT 10SM SCT037 BKN042 OVC075 28/18 A2999 RMK AO2 T02770179,K11R,2018-03-27T18:15:00Z,30.22,-96.37,27.7,17.9,150,12,,10.0,29.991142,,,TRUE,TRUE,,,,,,,SCT,3700,BKN,4200,OVC,7500,,,VFR,,,,,,,,,,,,METAR,94.0
K1A5 271815Z AUTO 00000KT 10SM OVC019 09/04 A3036 RMK AO2 T00940042,K1A5,2018-03-27T18:15:00Z,35.22,-83.42,9.4,4.2,0,0,,10.0,30.360237,,,TRUE,TRUE,,,,,,,OVC,1900,,,,,,,MVFR,,,,,,,,,,,,METAR,616.0
K3F3 271815Z AUTO 17016G25KT 10SM BKN044 BKN050 28/17 A3006 RMK AO2 T02760168,K3F3,2018-03-27T18:15:00Z,32.07,-93.77,27.6,16.8,170,16,25,10.0,30.059055,,,TRUE,TRUE,,,,,,,BKN,4400,BKN,5000,,,,,VFR,,,,,,,,,,,,METAR,96.0
K57C 271815Z AUTO 30007KT 10SM BKN011 OVC016 05/04 A2998 RMK AO2 T00520037,K57C,2018-03-27T18:15:00Z,42.8,-88.37,5.2,3.7,300,7,,10.0,29.97933,,,TRUE,TRUE,,,,,,,BKN,1100,OVC,1600,,,,,MVFR,,,,,,,,,,,,METAR,262.0
K66R 271815Z AUTO 19014G21KT 10SM SCT032 BKN047 OVC050 27/18 A2999 RMK AO2 T02700178,K66R,2018-03-27T18:15:00Z,29.65,-96.52,27.0,17.8,190,14,21,10.0,29.991142,,,TRUE,TRUE,,,,,,,SCT,3200,BKN,4700,OVC,5000,,,VFR,,,,,,,,,,,,METAR,74.0
K6R3 271815Z AUTO 17014G20KT 7SM SCT031 SCT043 BKN050 29/17 A3003 RMK AO2 T02880171,K6R3,2018-03-27T18:15:00Z,30.35,-95.0,28.8,17.1,170,14,20,7.0,30.029528,,,TRUE,TRUE,,,,,,,SCT,3100,SCT,4300,BKN,5000,,,VFR,,,,,,,,,,,,METAR,46.0
K7W6 271815Z AUTO 03009KT 10SM OVC070 12/04 A3041 RMK AO2 T01170038,K7W6,2018-03-27T18:15:00Z,35.55,-75.95,11.7,3.8,30,9,,10.0,30.410433,,,TRUE,TRUE,,,,,,,OVC,7000,,,,,,,VFR,,,,,,,,,,,,METAR,2.0
K82C 271815Z AUTO 30013G17KT 4SM HZ OVC017 05/02 A3000 RMK AO2 T00510016,K82C,2018-03-27T18:15:00Z,43.83,-90.13,5.1,1.6,300,13,17,4.0,30.0,,,TRUE,TRUE,,,,,,HZ,OVC,1700,,,,,,,MVFR,,,,,,,,,,,,METAR,276.0
K8A0 271815Z AUTO 18006KT 10SM OVC021 14/11 A3029 RMK AO2,K8A0,2018-03-27T18:15:00Z,34.23,-86.25,14.0,11.0,180,6,,10.0,30.28937,,,TRUE,TRUE,,,,,,,OVC,2100,,,,,,,MVFR,,,,,,,,,,,,METAR,315.0
KAAA 271815Z AUTO 32005KT 5SM BR OVC006 06/06 A3005 RMK AO2 T00630060,KAAA,2018-03-27T18:15:00Z,40.17,-89.33,6.3,6.0,320,5,,5.0,30.050198,,,TRUE,TRUE,,,,,,BR,OVC,600,,,,,,,IFR,,,,,,,,,,,,METAR,182.0
KAIG 271815Z AUTO 29012G15KT 10SM OVC017 03/00 A2993 RMK AO2 T00250000 PWINO,KAIG,2018-03-27T18:15:00Z,45.15,-89.12,2.5,0.0,290,12,15,10.0,29.929134,,,TRUE,TRUE,,,,,TRUE,,OVC,1700,,,,,,,MVFR,,,,,,,,,,,,METAR,464.0
KARV 271815Z AUTO 32008KT 10SM OVC013 03/01 A2993 RMK AO2 T00250005,KARV,2018-03-27T18:15:00Z,45.92,-89.72,2.5,0.5,320,8,,10.0,29.929134,,,TRUE,TRUE,,,,,,,OVC,1300,,,,,,,MVFR,,,,,,,,,,,,METAR,496.0
KC29 271815Z AUTO 29008KT 10SM OVC017 07/03 A3000 RMK AO1 T00730033,KC29,2018-03-27T18:15:00Z,43.12,-89.53,7.3,3.3,290,8,,10.0,30.0,,,TRUE,TRUE,,,,,,,OVC,1700,,,,,,,MVFR,,,,,,,,,,,,METAR,283.0
KC09 271815Z AUTO 29010KT 10SM OVC011 08/06 A3000 RMK AO2 T00810061,KC09,2018-03-27T18:15:00Z,41.43,-88.42,8.1,6.1,290,10,,10.0,30.0,,,TRUE,TRUE,,,,,,,OVC,1100,,,,,,,MVFR,,,,,,,,,,,,METAR,178.0
KBXK 271815Z AUTO 23006KT 10SM CLR 19/M02 A3001 RMK AO1,KBXK,2018-03-27T18:15:00Z,33.42,-112.68,19.0,-2.0,230,6,,10.0,30.008858,,,TRUE,TRUE,,,,,,,CLR,,,,,,,,VFR,,,,,,,,,,,,METAR,315.0
KBWD 271815Z AUTO 06015KT 10SM BKN085 17/16 A3002 RMK AO2,KBWD,2018-03-27T18:15:00Z,31.8,-98.95,17.0,16.0,60,15,,10.0,30.02067,,,TRUE,TRUE,,,,,,,BKN,8500,,,,,,,VFR,,,,,,,,,,,,METAR,423.0
KBVS 271815Z AUTO 16006G14KT 10SM SCT011 OVC026 09/08 A3027 RMK A01,KBVS,2018-03-27T18:15:00Z,48.47,-122.42,9.0,8.0,160,6,14,10.0,30.268702,,,TRUE,TRUE,,,,,,,SCT,1100,OVC,2600,,,,,MVFR,,,,,,,,,,,,METAR,43.0
KBVN 271815Z AUTO 33007KT 10SM CLR 09/00 A3014 RMK AO2 T00911001,KBVN,2018-03-27T18:15:00Z,41.73,-98.05,9.1,-0.1,330,7,,10.0,30.138779,,,TRUE,TRUE,,,,,,,CLR,,,,,,,,VFR,,,,,,,,,,,,METAR,551.0
KBUU 271815Z AUTO 30010KT 10SM BKN009 OVC014 06/04 A2998 RMK AO2 T00610040,KBUU,2018-03-27T18:15:00Z,42.68,-88.3,6.1,4.0,300,10,,10.0,29.97933,,,TRUE,TRUE,,,,,,,BKN,900,OVC,1400,,,,,IFR,,,,,,,,,,,,METAR,237.0
KBKD 271815Z AUTO 00000KT 10SM -RA SCT043 SCT055 BKN110 17/16 A3004 RMK AO2 T01730160,KBKD,2018-03-27T18:15:00Z,32.72,-98.88,17.3,16.0,0,0,,10.0,30.041338,,,TRUE,TRUE,,,,,,-RA,SCT,4300,SCT,5500,BKN,11000,,,VFR,,,,,,,,,,,,METAR,392.0
KBKT 271815Z AUTO 15003KT 10SM SCT010 OVC044 05/04 A3044 RMK AO1 T00450044,KBKT,2018-03-27T18:15:00Z,37.07,-77.95,4.5,4.4,150,3,,10.0,30.43996,,,TRUE,TRUE,,,,,,,SCT,1000,OVC,4400,,,,,VFR,,,,,,,,,,,,METAR,134.0
KC75 271815Z AUTO 30007KT 5SM BR OVC011 04/03 A3005 RMK AO2 T00390031,KC75,2018-03-27T18:15:00Z,41.02,-89.38,3.9,3.1,300,7,,5.0,30.050198,,,TRUE,TRUE,,,,,,BR,OVC,1100,,,,,,,MVFR,,,,,,,,,,,,METAR,173.0
KCCO 271815Z AUTO 09007KT 10SM OVC015 13/07 A3034 RMK AO2 T01300071,KCCO,2018-03-27T18:15:00Z,33.32,-84.77,13.0,7.1,90,7,,10.0,30.339567,,,TRUE,TRUE,,,,,,,OVC,1500,,,,,,,MVFR,,,,,,,,,,,,METAR,296.0
KCPC 271815Z AUTO 34003KT 10SM OVC030 09/04 A3043 RMK AO2 T00900035,KCPC,2018-03-27T18:15:00Z,34.28,-78.72,9.0,3.5,340,3,,10.0,30.431103,,,TRUE,TRUE,,,,,,,OVC,3000,,,,,,,MVFR,,,,,,,,,,,,METAR,29.0
KCTZ 271815Z AUTO 05003KT 10SM BKN036 08/04 A3045 RMK AO2 T00760035,KCTZ,2018-03-27T18:15:00Z,34.98,-78.37,7.6,3.5,50,3,,10.0,30.448818,,,TRUE,TRUE,,,,,,,BKN,3600,,,,,,,VFR,,,,,,,,,,,,METAR,45.0
KD50 271815Z AUTO 21019KT 10SM CLR 02/M01 A2980 RMK AO2,KD50,2018-03-27T18:15:00Z,48.93,-103.3,2.0,-1.0,210,19,,10.0,29.799213,,,TRUE,TRUE,,,,,,,CLR,,,,,,,,VFR,,,,,,,,,,,,METAR,595.0
KD95 271815Z AUTO 21006KT 10SM OVC008 09/08 A2991 RMK AO2 T00870077,KD95,2018-03-27T18:15:00Z,43.07,-83.27,8.7,7.7,210,6,,10.0,29.911417,,,TRUE,TRUE,,,,,,,OVC,800,,,,,,,IFR,,,,,,,,,,,,METAR,255.0
KDNA 271815Z AUTO 23012G21KT 190V250 10SM CLR 17/M04 A2996 RMK AO2 PWINO,KDNA,2018-03-27T18:15:00Z,31.88,-106.7,17.0,-4.0,230,12,21,10.0,29.958662,,,TRUE,TRUE,,,,,TRUE,,CLR,,,,,,,,VFR,,,,,,,,,,,,METAR,1253.0
KDNS 271815Z AUTO VRB05KT 10SM SCT019 06/02 A3015 RMK AO2,KDNS,2018-03-27T18:15:00Z,41.97,-95.37,6.0,2.0,0,5,,10.0,30.15059,,,TRUE,TRUE,,,,,,,SCT,1900,,,,,,,VFR,,,,,,,,,,,,METAR,388.0
KDUH 271815Z AUTO 22007KT 7SM OVC009 11/10 A2997 RMK AO2 T01080098,KDUH,2018-03-27T18:15:00Z,41.73,-83.65,10.8,9.8,220,7,,7.0,29.970472,,,TRUE,TRUE,,,,,,,OVC,900,,,,,,,IFR,,,,,,,,,,,,METAR,204.0
KDYT 271815Z AUTO 26012KT 10SM OVC021 03/00 A2999 RMK AO2,KDYT,2018-03-27T18:15:00Z,46.72,-92.03,3.0,0.0,260,12,,10.0,29.991142,,,TRUE,TRUE,,,,,,,OVC,2100,,,,,,,MVFR,,,,,,,,,,,,METAR,186.0
KAIK 271815Z AUTO 05004KT 10SM OVC028 12/06 A3041 RMK AO2,KAIK,2018-03-27T18:15:00Z,33.65,-81.68,12.0,6.0,50,4,,10.0,30.410433,,,TRUE,TRUE,,,,,,,OVC,2800,,,,,,,MVFR,,,,,,,,,,,,SPECI,161.0
KAEJ 271815Z AUTO 00000KT 5SM HZ SCT008 BKN017 BKN024 00/M03 A3014 RMK AO2 T00011033,KAEJ,2018-03-27T18:15:00Z,38.82,-106.12,0.1,-3.3,0,0,,5.0,30.138779,,,TRUE,TRUE,,,,,,HZ,SCT,800,BKN,1700,BKN,2400,,,MVFR,,,,,,,,,,,,METAR,2422.0
KACB 271815Z AUTO 24004KT 2SM -SN OVC004 05/05 A2987 RMK AO2 T00520052,KACB,2018-03-27T18:15:00Z,44.98,-85.2,5.2,5.2,240,4,,2.0,29.870079,,,TRUE,TRUE,,,,,,-SN,OVC,400,,,,,,,LIFR,,,,,,,,,,,,SPECI,190.0
KE80 271815Z AUTO 27010G17KT 10SM CLR 10/01 A2998 RMK AO2 T01010005,KE80,2018-03-27T18:15:00Z,34.65,-106.83,10.1,0.5,270,10,17,10.0,29.97933,,,TRUE,TRUE,,,,,,,CLR,,,,,,,,VFR,,,,,,,,,,,,METAR,1582.0
KELO 271815Z AUTO 27011G16KT 10SM BKN017 02/M03 A2991 RMK AO2,KELO,2018-03-27T18:15:00Z,47.82,-91.82,2.0,-3.0,270,11,16,10.0,29.911417,,,TRUE,TRUE,,,,,,,BKN,1700,,,,,,,MVFR,,,,,,,,,,,,METAR,443.0
KEOK 271815Z AUTO 33010KT 10SM OVC016 06/03 A3010 RMK AO2,KEOK,2018-03-27T18:15:00Z,40.47,-91.42,6.0,3.0,330,10,,10.0,30.100393,,,TRUE,TRUE,,,,,,,OVC,1600,,,,,,,MVFR,,,,,,,,,,,,METAR,205.0
KERY 271815Z AUTO 28010KT 10SM OVC006 03/02 A2981 RMK AO2 T00260022,KERY,2018-03-27T18:15:00Z,46.3,-85.45,2.6,2.2,280,10,,10.0,29.811024,,,TRUE,TRUE,,,,,,,OVC,600,,,,,,,IFR,,,,,,,,,,,,METAR,265.0
KFFL 271815Z AUTO 33011KT 10SM OVC012 04/02 A3011 RMK AO2 PWINO,KFFL,2018-03-27T18:15:00Z,41.03,-91.97,4.0,2.0,330,11,,10.0,30.109253,,,TRUE,TRUE,,,,,TRUE,,OVC,1200,,,,,,,MVFR,,,,,,,,,,,,METAR,244.0
KFGN 271815Z AUTO 22005KT 10SM CLR 04/M01 A2985 RMK AO2,KFGN,2018-03-27T18:15:00Z,49.32,-94.9,4.0,-1.0,220,5,,10.0,29.84941,,,TRUE,TRUE,,,,,,,CLR,,,,,,,,VFR,,,,,,,,,,,,METAR,328.0
KFMH 271815Z AUTO 36014G19KT 10SM CLR 05/M02 A3043 RMK AO2,KFMH,2018-03-27T18:15:00Z,41.63,-70.52,5.0,-2.0,360,14,19,10.0,30.431103,,,TRUE,TRUE,,,,,,,CLR,,,,,,,,VFR,,,,,,,,,,,,SPECI,40.0
KFSE 271815Z AUTO 19012KT 5SM HZ CLR 02/M01 A2995 RMK AO2,KFSE,2018-03-27T18:15:00Z,47.58,-95.77,2.0,-1.0,190,12,,5.0,29.949802,,,TRUE,TRUE,,,,,,HZ,CLR,,,,,,,,MVFR,,,,,,,,,,,,METAR,389.0
KGDB 271815Z AUTO 23004KT 7SM CLR 04/00 A3009 RMK AO2 T00440001,KGDB,2018-03-27T18:15:00Z,44.75,-95.55,4.4,0.1,230,4,,7.0,30.088583,,,TRUE,TRUE,,,,,,,CLR,,,,,,,,VFR,,,,,,,,,,,,METAR,319.0
KGHW 271815Z AUTO 23008KT 7SM CLR 04/01 A3004 RMK AO2,KGHW,2018-03-27T18:15:00Z,45.63,-95.32,4.0,1.0,230,8,,7.0,30.041338,,,TRUE,TRUE,,,,,,,CLR,,,,,,,,VFR,,,,,,,,,,,,METAR,425.0
KGLE 271815Z AUTO 00000KT 5SM RA SCT009 BKN055 OVC065 16/16 A3007 RMK AO2 P0004 T01630155,KGLE,2018-03-27T18:15:00Z,33.65,-97.2,16.3,15.5,0,0,,5.0,30.070866,,,TRUE,TRUE,,,,,,RA,SCT,900,BKN,5500,OVC,6500,,,MVFR,,,,,,0.04,,,,,,METAR,256.0
KGWR 271815Z AUTO 22008KT 10SM 04/00 A3000 RMK A01,KGWR,2018-03-27T18:15:00Z,46.22,-97.65,4.0,0.0,220,8,,10.0,30.0,,,TRUE,TRUE,,,,,,,,,,,,,,,,,,,,,,,,,,,METAR,386.0
KGYL 271815Z AUTO 26008KT 7SM SCT016 05/01 A3006 RMK AO2 T00470010,KGYL,2018-03-27T18:15:00Z,44.77,-94.08,4.7,1.0,260,8,,7.0,30.059055,,,TRUE,TRUE,,,,,,,SCT,1600,,,,,,,VFR,,,,,,,,,,,,METAR,302.0
KHNR 271815Z AUTO 33005G10KT 10SM BKN015 BKN020 04/02 A3018 RMK AO2,KHNR,2018-03-27T18:15:00Z,41.58,-95.33,4.0,2.0,330,5,10,10.0,30.180119,,,TRUE,TRUE,,,,,,,BKN,1500,BKN,2000,,,,,MVFR,,,,,,,,,,,,METAR,375.0
KHYW 271815Z AUTO 35003KT 5SM HZ OVC025 10/05 A3042 RMK AO2,KHYW,2018-03-27T18:15:00Z,33.83,-79.12,10.0,5.0,350,3,,5.0,30.41929,,,TRUE,TRUE,,,,,,HZ,OVC,2500,,,,,,,MVFR,,,,,,,,,,,,METAR,11.0
KHYX 271815Z AUTO 20010KT 2 1/2SM BR OVC006 10/09 A2987 RMK AO2,KHYX,2018-03-27T18:15:00Z,43.43,-83.87,10.0,9.0,200,10,,2.5,29.870079,,,TRUE,TRUE,,,,,,BR,OVC,600,,,,,,,IFR,,,,,,,,,,,,METAR,183.0
KJAQ 271815Z AUTO 25005KT 10SM CLR 14/02 A3024 RMK AO1 T01360015,KJAQ,2018-03-27T18:15:00Z,38.37,-120.8,13.6,1.5,250,5,,10.0,30.239174,,,TRUE,TRUE,,,,,,,CLR,,,,,,,,VFR,,,,,,,,,,,,METAR,512.0
KIKV 271815Z AUTO 33009KT 10SM OVC018 05/01 A3015 RMK AO2,KIKV,2018-03-27T18:15:00Z,41.68,-93.57,5.0,1.0,330,9,,10.0,30.15059,,,TRUE,TRUE,,,,,,,OVC,1800,,,,,,,MVFR,,,,,,,,,,,,METAR,275.0
KICL 271815Z AUTO 36007G12KT 10SM OVC016 05/03 A3018 RMK AO2,KICL,2018-03-27T18:15:00Z,40.72,-95.02,5.0,3.0,360,7,12,10.0,30.180119,,,TRUE,TRUE,,,,,,,OVC,1600,,,,,,,MVFR,,,,,,,,,,,,METAR,303.0
KI68 271815Z AUTO 21010G14KT 5SM RA OVC011 11/11 A3009 RMK AO2,KI68,2018-03-27T18:15:00Z,39.47,-84.25,11.0,11.0,210,10,14,5.0,30.088583,,,TRUE,TRUE,,,,,,RA,OVC,1100,,,,,,,MVFR,,,,,,,,,,,,METAR,274.0
KI67 271815Z AUTO 21007KT 5SM OVC015 12/09 A3009 RMK AO1,KI67,2018-03-27T18:15:00Z,39.25,-84.78,12.0,9.0,210,7,,5.0,30.088583,,,TRUE,TRUE,,,,,,,OVC,1500,,,,,,,MVFR,,,,,,,,,,,,METAR,178.0
KI19 271815Z AUTO 22011G16KT 2SM +DZ OVC007 11/11 A3009 RMK AO2 P0002 T01100105,KI19,2018-03-27T18:15:00Z,39.7,-83.98,11.0,10.5,220,11,16,2.0,30.088583,,,TRUE,TRUE,,,,,,+DZ,OVC,700,,,,,,,IFR,,,,,,0.02,,,,,,METAR,289.0
KJFX 271815Z AUTO 17006KT 10SM 16/10 A3028 RMK AO2 PWINO,KJFX,2018-03-27T18:15:00Z,33.9,-87.32,16.0,10.0,170,6,,10.0,30.280512,,,TRUE,TRUE,,,,,TRUE,,,,,,,,,,,,,,,,,,,,,,METAR,148.0
KJKJ 271815Z AUTO 19006KT 7SM CLR 02/M01 A3000 RMK AO2,KJKJ,2018-03-27T18:15:00Z,46.83,-96.67,2.0,-1.0,190,6,,7.0,30.0,,,TRUE,TRUE,,,,,,,CLR,,,,,,,,VFR,,,,,,,,,,,,METAR,280.0
KJVW 271815Z AUTO 11010KT 6SM HZ BKN022 BKN036 BKN050 20/15 A3019 RMK AO2,KJVW,2018-03-27T18:15:00Z,32.3,-90.42,20.0,15.0,110,10,,6.0,30.188976,,,TRUE,TRUE,,,,,,HZ,BKN,2200,BKN,3600,BKN,5000,,,MVFR,,,,,,,,,,,,METAR,76.0
KJYG 271815Z AUTO 25007KT 10SM CLR 03/M01 A3011 RMK AO2,KJYG,2018-03-27T18:15:00Z,43.98,-94.55,3.0,-1.0,250,7,,10.0,30.109253,,,TRUE,TRUE,,,,,,,CLR,,,,,,,,VFR,,,,,,,,,,,,METAR,325.0
KJYM 271815Z AUTO 21009KT 3SM DZ OVC004 10/09 A2995 RMK AO2 P0001,KJYM,2018-03-27T18:15:00Z,41.92,-84.58,10.0,9.0,210,9,,3.0,29.949802,,,TRUE,TRUE,,,,,,DZ,OVC,400,,,,,,,LIFR,,,,,,0.01,,,,,,METAR,360.0
KJZI 271815Z AUTO 04007KT 9SM BKN014 OVC049 13/09 A3039 RMK AO2,KJZI,2018-03-27T18:15:00Z,32.7,-80.0,13.0,9.0,40,7,,9.0,30.389763,,,TRUE,TRUE,,,,,,,BKN,1400,OVC,4900,,,,,MVFR,,,,,,,,,,,,METAR,6.0
KLDM 271815Z AUTO 28005KT 3SM BR BKN003 OVC012 04/04 A2991 RMK AO2 T00410040,KLDM,2018-03-27T18:15:00Z,43.97,-86.4,4.1,4.0,280,5,,3.0,29.911417,,,TRUE,TRUE,,,,,,BR,BKN,300,OVC,1200,,,,,LIFR,,,,,,,,,,,,METAR,197.0
KW63 271815Z AUTO 00000KT 10SM OVC007 03/03 A3046 RMK AO1,KW63,2018-03-27T18:15:00Z,36.6,-78.55,3.0,3.0,0,0,,10.0,30.46063,,,TRUE,TRUE,,,,,,,OVC,700,,,,,,,IFR,,,,,,,,,,,,METAR,129.0
KW22 271815Z AUTO 20006KT 8SM OVC024 11/09 A3016 RMK AO2,KW22,2018-03-27T18:15:00Z,39.0,-80.27,11.0,9.0,200,6,,8.0,30.159449,,,TRUE,TRUE,,,,,,,OVC,2400,,,,,,,MVFR,,,,,,,,,,,,METAR,499.0
KW13 271815Z AUTO 12004KT 10SM OVC008 02/01 A3037 RMK AO1 T00150012,KW13,2018-03-27T18:15:00Z,38.08,-78.95,1.5,1.2,120,4,,10.0,30.369095,,,TRUE,TRUE,,,,,,,OVC,800,,,,,,,IFR,,,,,,,,,,,,METAR,443.0
KVYS 271815Z AUTO 31011KT 5SM BR OVC009 07/05 A3003 RMK AO2 T00650045,KVYS,2018-03-27T18:15:00Z,41.35,-89.15,6.5,4.5,310,11,,5.0,30.029528,,,TRUE,TRUE,,,,,,BR,OVC,900,,,,,,,IFR,,,,,,,,,,,,METAR,199.0
KVDI 271815Z AUTO 13006KT 10SM SCT029 BKN036 20/13 A3035 RMK AO2,KVDI,2018-03-27T18:15:00Z,32.2,-82.37,20.0,13.0,130,6,,10.0,30.351377,,,TRUE,TRUE,,,,,,,SCT,2900,BKN,3600,,,,,VFR,,,,,,,,,,,,METAR,84.0
KUXL 271815Z AUTO 14015G22KT 10SM BKN043 OVC049 26/19 A3010 RMK AO2 T02620194,KUXL,2018-03-27T18:15:00Z,30.13,-93.38,26.2,19.4,140,15,22,10.0,30.100393,,,TRUE,TRUE,,,,,,,BKN,4300,OVC,4900,,,,,VFR,,,,,,,,,,,,METAR,4.0
KUNU 271815Z AUTO 28006KT 10SM OVC015 06/02 A2998 RMK AO2 T00560024,KUNU,2018-03-27T18:15:00Z,43.42,-88.7,5.6,2.4,280,6,,10.0,29.97933,,,TRUE,TRUE,,,,,,,OVC,1500,,,,,,,MVFR,,,,,,,,,,,,METAR,285.0
KUBE 271815Z AUTO 27007KT 10SM OVC015 01/M02 A3002 RMK AO2,KUBE,2018-03-27T18:15:00Z,45.5,-91.98,1.0,-2.0,270,7,,10.0,30.02067,,,TRUE,TRUE,,,,,,,OVC,1500,,,,,,,MVFR,,,,,,,,,,,,METAR,379.0
KU68 271815Z AUTO 13015G22KT 10SM CLR 08/M07 A3000 RMK AO2,KU68,2018-03-27T18:15:00Z,44.92,-108.45,8.0,-7.0,130,15,22,10.0,30.0,,,TRUE,TRUE,,,,,,,CLR,,,,,,,,VFR,,,,,,,,,,,,METAR,1247.0
KTVI 271815Z AUTO 15006KT 10SM OVC031 22/14 A3031 RMK AO2,KTVI,2018-03-27T18:15:00Z,30.9,-83.88,22.0,14.0,150,6,,10.0,30.31004,,,TRUE,TRUE,,,,,,,OVC,3100,,,,,,,VFR,,,,,,,,,,,,METAR,80.0
KTTA 271815Z AUTO 01003KT 10SM OVC035 07/01 A3044 RMK AO2 T00680007,KTTA,2018-03-27T18:15:00Z,35.58,-79.1,6.8,0.7,10,3,,10.0,30.43996,,,TRUE,TRUE,,,,,,,OVC,3500,,,,,,,VFR,,,,,,,,,,,,METAR,75.0
KTOC 271815Z AUTO 06003KT 10SM OVC021 12/06 A3039 RMK AO2 T01170059,KTOC,2018-03-27T18:15:00Z,34.6,-83.3,11.7,5.9,60,3,,10.0,30.389763,,,TRUE,TRUE,,,,,,,OVC,2100,,,,,,,MVFR,,,,,,,,,,,,METAR,304.0
KTMK 271815Z AUTO 19003KT 1 3/4SM +DZ OVC009 08/08 A3048 RMK AO2 P0003,KTMK,2018-03-27T18:15:00Z,45.42,-123.82,8.0,8.0,190,3,,1.75,30.481298,,,TRUE,TRUE,,,,,,+DZ,OVC,900,,,,,,,IFR,,,,,,0.03,,,,,,METAR,11.0
KTKV 271815Z AUTO 27011KT 10SM BKN014 OVC020 02/M01 A2995 RMK AO2 T00201011,KTKV,2018-03-27T18:15:00Z,45.47,-89.82,2.0,-1.1,270,11,,10.0,29.949802,,,TRUE,TRUE,,,,,,,BKN,1400,OVC,2000,,,,,MVFR,,,,,,,,,,,,METAR,453.0
KTIP 271815Z AUTO 32013G17KT 2 1/2SM BR OVC004 08/08 A3001 RMK AO2 T00810080,KTIP,2018-03-27T18:15:00Z,40.28,-88.15,8.1,8.0,320,13,17,2.5,30.008858,,,TRUE,TRUE,,,,,,BR,OVC,400,,,,,,,LIFR,,,,,,,,,,,,METAR,225.0
KTIF 271815Z AUTO 35006KT 10SM CLR 11/M06 A3012 RMK AO2 T01081061,KTIF,2018-03-27T18:15:00Z,41.97,-100.57,10.8,-6.1,350,6,,10.0,30.121063,,,TRUE,TRUE,,,,,,,CLR,,,,,,,,VFR,,,,,,,,,,,,METAR,892.0
KTDF 271815Z AUTO 17003KT 10SM SCT014 SCT034 OVC043 04/01 A3046 RMK AO2,KTDF,2018-03-27T18:15:00Z,36.28,-78.98,4.0,1.0,170,3,,10.0,30.46063,,,TRUE,TRUE,,,,,,,SCT,1400,SCT,3400,OVC,4300,,,VFR,,,,,,,,,,,,METAR,186.0
KTAZ 271815Z AUTO 33012KT 2SM -RA OVC003 09/08 A3005 RMK AO2 P0001 T00850084,KTAZ,2018-03-27T18:15:00Z,39.53,-89.33,8.5,8.4,330,12,,2.0,30.050198,,,TRUE,TRUE,,,,,,-RA,OVC,300,,,,,,,LIFR,,,,,,0.01,,,,,,METAR,190.0
KT82 271815Z AUTO 00000KT 3SM DZ SCT006 BKN022 OVC043 19/18 A2999 RMK AO2 P0002 T01880177,KT82,2018-03-27T18:15:00Z,30.25,-98.92,18.8,17.7,0,0,,3.0,29.991142,,,TRUE,TRUE,,,,,,DZ,SCT,600,BKN,2200,OVC,4300,,,MVFR,,,,,,0.02,,,,,,METAR,517.0
KT65 271815Z AUTO 16019G24KT 7SM 30/21 A2986 RMK AO2 T03010206,KT65,2018-03-27T18:15:00Z,26.18,-97.97,30.1,20.6,160,19,24,7.0,29.861221,,,TRUE,TRUE,,,,,,,,,,,,,,,,,,,,,,,,,,,METAR,21.0
KT35 271815Z AUTO 19008G16KT 10SM SCT034 SCT040 BKN085 28/19 A2998 RMK AO2 T02750185,KT35,2018-03-27T18:15:00Z,30.88,-96.97,27.5,18.5,190,8,16,10.0,29.97933,,,TRUE,TRUE,,,,,,,SCT,3400,SCT,4000,BKN,8500,,,VFR,,,,,,,,,,,,METAR,123.0
KT20 271815Z AUTO 15011G18KT 10SM SCT033 SCT070 28/20 A2995 RMK AO2 T02770195,KT20,2018-03-27T18:15:00Z,29.52,-97.47,27.7,19.5,150,11,18,10.0,29.949802,,,TRUE,TRUE,,,,,,,SCT,3300,SCT,7000,,,,,VFR,,,,,,,,,,,,METAR,108.0
KSUT 271815Z AUTO 04007KT 10SM OVC055 11/06 A3041 RMK AO2 T01070057,KSUT,2018-03-27T18:15:00Z,33.93,-78.08,10.7,5.7,40,7,,10.0,30.410433,,,TRUE,TRUE,,,,,,,OVC,5500,,,,,,,VFR,,,,,,,,,,,,METAR,8.0
KSTE 271815Z AUTO 30010G14KT 10SM OVC017 03/00 A2997 RMK AO2 T00310000,KSTE,2018-03-27T18:15:00Z,44.55,-89.53,3.1,0.0,300,10,14,10.0,29.970472,,,TRUE,TRUE,,,,,,,OVC,1700,,,,,,,MVFR,,,,,,,,,,,,METAR,338.0
KSOA 271815Z AUTO 03010KT 10SM BKN060 BKN095 19/15 A3005 RMK AO2,KSOA,2018-03-27T18:15:00Z,30.58,-100.65,19.0,15.0,30,10,,10.0,30.050198,,,TRUE,TRUE,,,,,,,BKN,6000,BKN,9500,,,,,VFR,,,,,,,,,,,,METAR,652.0
KSNL 271815Z AUTO 36009KT 10SM -RA OVC006 09/09 A3009 RMK AO2 T00930086,KSNL,2018-03-27T18:15:00Z,35.35,-96.95,9.3,8.6,360,9,,10.0,30.088583,,,TRUE,TRUE,,,,,,-RA,OVC,600,,,,,,,IFR,,,,,,,,,,,,METAR,327.0
KSJS 271815Z AUTO 24006KT 10SM OVC040 18/09 A3017 RMK AO2 T01760089,KSJS,2018-03-27T18:15:00Z,37.75,-82.63,17.6,8.9,240,6,,10.0,30.171259,,,TRUE,TRUE,,,,,,,OVC,4000,,,,,,,VFR,,,,,,,,,,,,METAR,372.0
KSIF 271815Z AUTO 00000KT 10SM SCT040 SCT050 SCT070 08/02 A3042 RMK AO2 T00790016,KSIF,2018-03-27T18:15:00Z,36.43,-79.85,7.9,1.6,0,0,,10.0,30.41929,,,TRUE,TRUE,,,,,,,SCT,4000,SCT,5000,SCT,7000,,,VFR,,,,,,,,,,,,METAR,211.0
KSFY 271815Z AUTO 31009KT 10SM OVC016 06/02 A3005 RMK AO2 T00640023,KSFY,2018-03-27T18:15:00Z,42.05,-90.12,6.4,2.3,310,9,,10.0,30.050198,,,TRUE,TRUE,,,,,,,OVC,1600,,,,,,,MVFR,,,,,,,,,,,,METAR,188.0
KSEZ 271815Z AUTO 23006KT 10SM SCT080 13/M07 A3003 RMK AO2,KSEZ,2018-03-27T18:15:00Z,34.85,-111.78,13.0,-7.0,230,6,,10.0,30.029528,,,TRUE,TRUE,,,,,,,SCT,8000,,,,,,,VFR,,,,,,,,,,,,METAR,1473.0
KSBS 271815Z AUTO 25003KT 10SM CLR 00/M10 A3012 RMK AO1 T10021104,KSBS,2018-03-27T18:15:00Z,40.52,-106.87,-0.2,-10.4,250,3,,10.0,30.121063,,,TRUE,TRUE,,,,,,,CLR,,,,,,,,VFR,,,,,,,,,,,,METAR,2096.0
KSAA 271815Z AUTO 11003KT 10SM CLR 02/M13 A3011 RMK AO2,KSAA,2018-03-27T18:15:00Z,41.45,-106.83,2.0,-13.0,110,3,,10.0,30.109253,,,TRUE,TRUE,,,,,,,CLR,,,,,,,,VFR,,,,,,,,,,,,METAR,2138.0
KS39 271815Z AUTO 00000KT 10SM CLR 08/00 A3037 RMK AO2,KS39,2018-03-27T18:15:00Z,44.28,-120.9,8.0,0.0,0,0,,10.0,30.369095,,,TRUE,TRUE,,,,,,,CLR,,,,,,,,VFR,,,,,,,,,,,,METAR,991.0
KRZN 271815Z AUTO 25010KT 10SM OVC016 02/M01 A3003 RMK AO2 P0002 T00211015,KRZN,2018-03-27T18:15:00Z,45.82,-92.37,2.1,-1.5,250,10,,10.0,30.029528,,,TRUE,TRUE,,,,,,,OVC,1600,,,,,,,MVFR,,,,,,0.02,,,,,,METAR,301.0
KRWV 271815Z AUTO 16012G18KT 10SM SCT030 BKN047 OVC055 25/19 A2999 RMK AO2 T02530190,KRWV,2018-03-27T18:15:00Z,30.52,-96.7,25.3,19.0,160,12,18,10.0,29.991142,,,TRUE,TRUE,,,,,,,SCT,3000,BKN,4700,OVC,5500,,,VFR,,,,,,,,,,,,METAR,119.0
KRPJ 271815Z AUTO 31009KT 7SM OVC010 06/04 A3001 RMK AO2 T00590040,KRPJ,2018-03-27T18:15:00Z,41.88,-89.08,5.9,4.0,310,9,,7.0,30.008858,,,TRUE,TRUE,,,,,,,OVC,1000,,,,,,,MVFR,,,,,,,,,,,,METAR,238.0
KDZB 271815Z AUTO 18008KT 140V200 10SM BKN035 BKN045 OVC070 25/17 A2997 RMK AO2 T02500168,KDZB,2018-03-27T18:15:00Z,30.53,-98.37,25.0,16.8,180,8,,10.0,29.970472,,,TRUE,TRUE,,,,,,,BKN,3500,BKN,4500,OVC,7000,,,VFR,,,,,,,,,,,,METAR,334.0
KDUX 271815Z AUTO 01014G18KT 2 1/2SM BR OVC008 03/02 A3014 RMK AO2 T00300023,KDUX,2018-03-27T18:15:00Z,35.85,-102.02,3.0,2.3,10,14,18,2.5,30.138779,,,TRUE,TRUE,,,,,,BR,OVC,800,,,,,,,IFR,,,,,,,,,,,,METAR,1129.0
KDTL 271815Z AUTO 21009KT 7SM CLR 03/00 A2999 RMK AO2,KDTL,2018-03-27T18:15:00Z,46.82,-95.87,3.0,0.0,210,9,,7.0,29.991142,,,TRUE,TRUE,,,,,,,CLR,,,,,,,,VFR,,,,,,,,,,,,METAR,426.0
KDSF 271815Z AUTO 10020KT 4SM HZ CLR 24/20 A3014 RMK A01,KDSF,2018-03-27T18:15:00Z,,,24.0,20.0,100,20,,4.0,30.138779,,,TRUE,TRUE,,,,,,HZ,CLR,,,,,,,,MVFR,,,,,,,,,,,,METAR,
KDRI 271815Z AUTO 14012G18KT 10SM SCT028 BKN038 OVC048 25/18 A3010 RMK AO2 T02500182,KDRI,2018-03-27T18:15:00Z,30.83,-93.33,25.0,18.2,140,12,18,10.0,30.100393,,,TRUE,TRUE,,,,,,,SCT,2800,BKN,3800,OVC,4800,,,VFR,,,,,,,,,,,,METAR,63.0
KDNN 271815Z AUTO 17006KT 10SM OVC024 13/07 A3036 RMK AO2,KDNN,2018-03-27T18:15:00Z,34.72,-84.87,13.0,7.0,170,6,,10.0,30.360237,,,TRUE,TRUE,,,,,,,OVC,2400,,,,,,,MVFR,,,,,,,,,,,,METAR,216.0
KDLP 271815Z AUTO VRB03KT 5SM BR FEW040 23/21 A3016 RMK A01,KDLP,2018-03-27T18:15:00Z,29.12,-89.55,23.0,21.0,0,3,,5.0,30.159449,,,TRUE,TRUE,,,,,,BR,FEW,4000,,,,,,,MVFR,,,,,,,,,,,,METAR,36.0
KDLO 271815Z AUTO 33005KT 10SM CLR 14/02 A3025 RMK AO2 T01400018,KDLO,2018-03-27T18:15:00Z,35.75,-119.23,14.0,1.8,330,5,,10.0,30.250984,,,TRUE,TRUE,,,,,,,CLR,,,,,,,,VFR,,,,,,,,,,,,METAR,96.0
KDKB 271815Z AUTO 31007G14KT 5SM BR OVC010 06/04 A3000 RMK AO2 T00580044 TSNO,KDKB,2018-03-27T18:15:00Z,41.93,-88.7,5.8,4.4,310,7,14,5.0,30.0,,,TRUE,TRUE,,,TRUE,,,BR,OVC,1000,,,,,,,MVFR,,,,,,,,,,,,METAR,279.0
KD39 271815Z AUTO 26011KT 7SM CLR 03/M01 A3004 RMK AO2 T00321009,KD39,2018-03-27T18:15:00Z,45.7,-94.93,3.2,-0.9,260,11,,7.0,30.041338,,,TRUE,TRUE,,,,,,,CLR,,,,,,,,VFR,,,,,,,,,,,,METAR,380.0
KCZT 271815Z AUTO 13004KT 10SM OVC025 24/18 A2990 RMK AO2,KCZT,2018-03-27T18:15:00Z,28.52,-99.82,24.0,18.0,130,4,,10.0,29.899607,,,TRUE,TRUE,,,,,,,OVC,2500,,,,,,,MVFR,,,,,,,,,,,,METAR,183.0
KCZL 271815Z AUTO 16004KT 10SM OVC025 14/07 A3035 RMK AO2 T01420072,KCZL,2018-03-27T18:15:00Z,34.47,-84.93,14.2,7.2,160,4,,10.0,30.351377,,,TRUE,TRUE,,,,,,,OVC,2500,,,,,,,MVFR,,,,,,,,,,,,METAR,195.0
KCXU 271815Z AUTO 15007G15KT 10SM BKN029 21/15 A3031 RMK AO1 T02140147,KCXU,2018-03-27T18:15:00Z,31.22,-84.23,21.4,14.7,150,7,15,10.0,30.31004,,,TRUE,TRUE,,,,,,,BKN,2900,,,,,,,MVFR,,,,,,,,,,,,METAR,53.0
KCXP 271815Z AUTO 13003KT 10SM CLR 07/M09 A3039 RMK AO2,KCXP,2018-03-27T18:15:00Z,39.18,-119.73,7.0,-9.0,130,3,,10.0,30.389763,,,TRUE,TRUE,,,,,,,CLR,,,,,,,,VFR,,,,,,,,,,,,METAR,1435.0
KCWV 271815Z AUTO 04005KT 10SM OVC023 19/12 A3037 RMK AO2 T01850122,KCWV,2018-03-27T18:15:00Z,32.2,-81.87,18.5,12.2,40,5,,10.0,30.369095,,,TRUE,TRUE,,,,,,,OVC,2300,,,,,,,MVFR,,,,,,,,,,,,METAR,33.0
KCWC 271815Z AUTO 01013KT 10SM OVC005 13/12 A3010 RMK AO2 T01310120,KCWC,2018-03-27T18:15:00Z,33.85,-98.48,13.1,12.0,10,13,,10.0,30.100393,,,TRUE,TRUE,,,,,,,OVC,500,,,,,,,IFR,,,,,,,,,,,,METAR,305.0
KCVW 271815Z AUTO 13012KT 6SM HZ FEW033 24/22 A3009 RMK A01,KCVW,2018-03-27T18:15:00Z,29.78,-93.3,24.0,22.0,130,12,,6.0,30.088583,,,TRUE,TRUE,,,,,,HZ,FEW,3300,,,,,,,VFR,,,,,,,,,,,,METAR,1.0
KCVH 271815Z AUTO VRB04KT 10SM CLR 15/05 A3026 RMK A01,KCVH,2018-03-27T18:15:00Z,36.9,-121.42,15.0,5.0,0,4,,10.0,30.259842,,,TRUE,TRUE,,,,,,,CLR,,,,,,,,VFR,,,,,,,,,,,,METAR,70.0
KCUL 271815Z AUTO 17008KT 7SM -DZ OVC014 14/13 A3003 RMK AO2 T01350127,KCUL,2018-03-27T18:15:00Z,38.08,-88.12,13.5,12.7,170,8,,7.0,30.029528,,,TRUE,TRUE,,,,,,-DZ,OVC,1400,,,,,,,MVFR,,,,,,,,,,,,METAR,118.0
KULM 271815Z AUTO 27009KT 10SM CLR 02/M01 A3009 RMK AO2,KULM,2018-03-27T18:15:00Z,44.32,-94.5,2.0,-1.0,270,9,,10.0,30.088583,,,TRUE,TRUE,,,,,,,CLR,,,,,,,,VFR,,,,,,,,,,,,METAR,308.0
KUOX 271815Z AUTO 17013G23KT 130V200 9SM CLR 22/12 A3016 RMK AO2,KUOX,2018-03-27T18:15:00Z,34.38,-89.53,22.0,12.0,170,13,23,9.0,30.159449,,,TRUE,TRUE,,,,,,,CLR,,,,,,,,VFR,,,,,,,,,,,,METAR,137.0
KVLL 271815Z AUTO 19005KT 3SM DZ OVC004 09/09 A2995 RMK AO2 T00920085,KVLL,2018-03-27T18:15:00Z,42.55,-83.18,9.2,8.5,190,5,,3.0,29.949802,,,TRUE,TRUE,,,,,,DZ,OVC,400,,,,,,,LIFR,,,,,,,,,,,,METAR,222.0
KWYS 271815Z AUTO 24008G14KT 10SM SCT026 OVC042 M02/M08 A3013 RMK AO2,KWYS,2018-03-27T18:15:00Z,44.67,-111.12,-2.0,-8.0,240,8,14,10.0,30.129921,,,TRUE,TRUE,,,,,,,SCT,2600,OVC,4200,,,,,VFR,,,,,,,,,,,,METAR,2025.0
KX60 271815Z AUTO 08009G17KT 040V100 9SM CLR 27/13 A3026 RMK A01,KX60,2018-03-27T18:15:00Z,29.35,-82.47,27.0,13.0,80,9,17,9.0,30.259842,,,TRUE,TRUE,,,,,,,CLR,,,,,,,,VFR,,,,,,,,,,,,METAR,23.0
KCUH 271815Z AUTO 01008KT 10SM -RA BKN008 OVC013 08/07 A3012 RMK AO2 T00770068,KCUH,2018-03-27T18:15:00Z,35.95,-96.77,7.7,6.8,10,8,,10.0,30.121063,,,TRUE,TRUE,,,,,,-RA,BKN,800,OVC,1300,,,,,IFR,,,,,,,,,,,,METAR,279.0
KOCQ 271815Z AUTO 30006G15KT 10SM OVC020 07/02 A2991 RMK AO1 T00650024,KOCQ,2018-03-27T18:15:00Z,44.87,-87.92,6.5,2.4,300,6,15,10.0,29.911417,,,TRUE,TRUE,,,,,,,OVC,2000,,,,,,,MVFR,,,,,,,,,,,,METAR,183.0
KCVB 271815Z AUTO 15007KT 10SM OVC029 25/18 A2994 RMK AO2 T02450176,KCVB,2018-03-27T18:15:00Z,29.35,-98.85,24.5,17.6,150,7,,10.0,29.940945,,,TRUE,TRUE,,,,,,,OVC,2900,,,,,,,MVFR,,,,,,,,,,,,METAR,235.0
KCXE 271815Z AUTO 00000KT 10SM OVC007 04/04 A3045 RMK AO1 T00390039,KCXE,2018-03-27T18:15:00Z,36.78,-78.5,3.9,3.9,0,0,,10.0,30.448818,,,TRUE,TRUE,,,,,,,OVC,700,,,,,,,IFR,,,,,,,,,,,,METAR,153.0
KI35 271815Z AUTO 11003KT 10SM OVC027 15/07 A3024 RMK AO1,KI35,2018-03-27T18:15:00Z,36.87,-83.37,15.0,7.0,110,3,,10.0,30.239174,,,TRUE,TRUE,,,,,,,OVC,2700,,,,,,,MVFR,,,,,,,,,,,,METAR,473.0
KHTO 271815Z AUTO 15004KT 10SM CLR 06/M02 A3044 RMK AO2 T00641024,KHTO,2018-03-27T18:15:00Z,40.95,-72.25,6.4,-2.4,150,4,,10.0,30.43996,,,TRUE,TRUE,,,,,,,CLR,,,,,,,,VFR,,,,,,,,,,,,METAR,17.0
KHRJ 271815Z AUTO 02003KT OVC035 08/M01 A3044 RMK AO2 T00791007 PWINO,KHRJ,2018-03-27T18:15:00Z,35.38,-78.73,7.9,-0.7,20,3,,,30.43996,,,TRUE,TRUE,,,,,TRUE,,OVC,3500,,,,,,,,,,,,,,,,,,,METAR,60.0
KHNZ 271815Z AUTO 00000KT 10SM 03/01 A3045 RMK AO2 T00320014,KHNZ,2018-03-27T18:15:00Z,36.37,-78.53,3.2,1.4,0,0,,10.0,30.448818,,,TRUE,TRUE,,,,,,,,,,,,,,,,,,,,,,,,,,,METAR,161.0
KHII 271815Z AUTO 33020G31KT 10SM CLR 19/M09 A3007 RMK AO2,KHII,2018-03-27T18:15:00Z,34.57,-114.37,19.0,-9.0,330,20,31,10.0,30.070866,,,TRUE,TRUE,,,,,,,CLR,,,,,,,,VFR,,,,,,,,,,,,METAR,238.0
KHHW 271815Z AUTO 00000KT 5SM -RA SCT005 BKN021 OVC050 19/17 A3001 RMK AO2 T01860174,KHHW,2018-03-27T18:15:00Z,34.03,-95.55,18.6,17.4,0,0,,5.0,30.008858,,,TRUE,TRUE,,,,,,-RA,SCT,500,BKN,2100,OVC,5000,,,MVFR,,,,,,,,,,,,METAR,144.0
PAUT 271815Z AUTO 21006KT 10SM SCT031 OVC041 01/M01 A2995 RMK AO2 T00081010,PAUT,2018-03-27T18:15:00Z,54.15,-165.6,0.8,-1.0,210,6,,10.0,29.949802,,,TRUE,TRUE,,,,,,,SCT,3100,OVC,4100,,,,,VFR,,,,,,,,,,,,METAR,25.0
KEGV 271815Z AUTO 29010G17KT 10SM BKN014 OVC019 02/00 A2990 RMK AO2 T00161002,KEGV,2018-03-27T18:15:00Z,45.93,-89.27,1.6,-0.2,290,10,17,10.0,29.899607,,,TRUE,TRUE,,,,,,,BKN,1400,OVC,1900,,,,,MVFR,,,,,,,,,,,,METAR,500.0
KEFK 271815Z AUTO 16012G16KT 10SM CLR 06/M10 A3036 RMK AO2 T00601097,KEFK,2018-03-27T18:15:00Z,44.88,-72.23,6.0,-9.7,160,12,16,10.0,30.360237,,,TRUE,TRUE,,,,,,,CLR,,,,,,,,VFR,,,,,,,,,,,,METAR,284.0
KEDC 271815Z AUTO 17011KT 9SM FEW029 SCT075 26/18 A2997 RMK AO2,KEDC,2018-03-27T18:15:00Z,30.4,-97.57,26.0,18.0,170,11,,9.0,29.970472,,,TRUE,TRUE,,,,,,,FEW,2900,SCT,7500,,,,,VFR,,,,,,,,,,,,METAR,189.0
KECU 271815Z AUTO 03010G16KT 2 1/2SM BR OVC005 16/15 A3005 RMK AO2,KECU,2018-03-27T18:15:00Z,29.95,-100.17,16.0,15.0,30,10,16,2.5,30.050198,,,TRUE,TRUE,,,,,,BR,OVC,500,,,,,,,IFR,,,,,,,,,,,,METAR,725.0
KECS 271815Z AUTO 19009G14KT 10SM CLR 04/M02 A3007 RMK AO2,KECS,2018-03-27T18:15:00Z,43.88,-104.32,4.0,-2.0,190,9,14,10.0,30.070866,,,TRUE,TRUE,,,,,,,CLR,,,,,,,,VFR,,,,,,,,,,,,METAR,1273.0
KRZL 271815Z AUTO 27010G14KT 5SM HZ OVC005 12/09 A2998 RMK AO2,KRZL,2018-03-27T18:15:00Z,40.95,-87.18,12.0,9.0,270,10,14,5.0,29.97933,,,TRUE,TRUE,,,,,,HZ,OVC,500,,,,,,,IFR,,,,,,,,,,,,METAR,213.0
KSAR 271815Z AUTO 18007KT 7SM -RA OVC025 14/14 A3005 RMK AO2 P0003 T01370137,KSAR,2018-03-27T18:15:00Z,38.15,-89.7,13.7,13.7,180,7,,7.0,30.050198,,,TRUE,TRUE,,,,,,-RA,OVC,2500,,,,,,,MVFR,,,,,,0.03,,,,,,METAR,164.0
KSCD 271815Z AUTO 15005KT 10SM SCT036 BKN048 20/13 A3029 RMK AO2 T01970127,KSCD,2018-03-27T18:15:00Z,33.17,-86.3,19.7,12.7,150,5,,10.0,30.28937,,,TRUE,TRUE,,,,,,,SCT,3600,BKN,4800,,,,,VFR,,,,,,,,,,,,METAR,173.0
KSCF 271815Z AUTO 13015KT 3SM BR 23/21 A3012 RMK A01,KSCF,2018-03-27T18:15:00Z,29.12,-91.87,23.0,21.0,130,15,,3.0,30.121063,,,TRUE,TRUE,,,,,,BR,,,,,,,,,,,,,,,,,,,,,METAR,8.0
KSGS 271815Z AUTO 27006KT 10SM OVC014 03/00 A3006 RMK AO2 T00281005,KSGS,2018-03-27T18:15:00Z,44.87,-93.03,2.8,-0.5,270,6,,10.0,30.059055,,,TRUE,TRUE,,,,,,,OVC,1400,,,,,,,MVFR,,,,,,,,,,,,METAR,250.0
KSLH 271815Z AUTO 23008KT 2SM BR BKN006 OVC010 05/05 A2981 RMK AO2 T00550051,KSLH,2018-03-27T18:15:00Z,45.65,-84.52,5.5,5.1,230,8,,2.0,29.811024,,,TRUE,TRUE,,,,,,BR,BKN,600,OVC,1000,,,,,IFR,,,,,,,,,,,,METAR,195.0
KSLO 271815Z AUTO 20011G14KT 7SM -RA OVC007 15/14 A3004 RMK AO2 T01500137,KSLO,2018-03-27T18:15:00Z,38.65,-88.97,15.0,13.7,200,11,14,7.0,30.041338,,,TRUE,TRUE,,,,,,-RA,OVC,700,,,,,,,IFR,,,,,,,,,,,,METAR,175.0
KSMS 271815Z AUTO 28004KT 7SM OVC018 10/05 A3043 RMK AO2,KSMS,2018-03-27T18:15:00Z,34.0,-80.37,10.0,5.0,280,4,,7.0,30.431103,,,TRUE,TRUE,,,,,,,OVC,1800,,,,,,,MVFR,,,,,,,,,,,,METAR,56.0
KSNK 271815Z AUTO 11012KT 10SM OVC110 18/10 A2997 RMK AO2 LTG DSNT SE T01760103,KSNK,2018-03-27T18:15:00Z,32.7,-100.95,17.6,10.3,110,12,,10.0,29.970472,,,TRUE,TRUE,,,,,,,OVC,11000,,,,,,,VFR,,,,,,,,,,,,METAR,741.0
KSPR 271815Z AUTO 15014KT 6SM HZ FEW028 FEW032 SCT045 25/20 A3012 RMK A01,KSPR,2018-03-27T18:15:00Z,28.6,-91.2,25.0,20.0,150,14,,6.0,30.121063,,,TRUE,TRUE,,,,,,HZ,FEW,2800,FEW,3200,SCT,4500,,,VFR,,,,,,,,,,,,METAR,31.0
KSZT 271815Z AUTO 23008KT 10SM -DZ OVC022 04/02 A3011 RMK AO2,KSZT,2018-03-27T18:15:00Z,48.3,-116.57,4.0,2.0,230,8,,10.0,30.109253,,,TRUE,TRUE,,,,,,-DZ,OVC,2200,,,,,,,MVFR,,,,,,,,,,,,METAR,648.0
KSYN 271815Z AUTO 28009KT 10SM OVC012 02/00 A3007 RMK AO2 T00231005,KSYN,2018-03-27T18:15:00Z,44.47,-93.02,2.3,-0.5,280,9,,10.0,30.070866,,,TRUE,TRUE,,,,,,,OVC,1200,,,,,,,MVFR,,,,,,,,,,,,METAR,280.0
KSYF 271815Z AUTO 36008KT 10SM CLR 08/M04 A3016 RMK AO2 T00831039,KSYF,2018-03-27T18:15:00Z,39.77,-101.8,8.3,-3.9,360,8,,10.0,30.159449,,,TRUE,TRUE,,,,,,,CLR,,,,,,,,VFR,,,,,,,,,,,,METAR,1025.0
KSVE 271815Z AUTO 00000KT 10SM CLR 08/M03 A3039 RMK AO2,KSVE,2018-03-27T18:15:00Z,40.37,-120.57,8.0,-3.0,0,0,,10.0,30.389763,,,TRUE,TRUE,,,,,,,CLR,,,,,,,,VFR,,,,,,,,,,,,METAR,1263.0
KSUW 271815Z AUTO 27010KT 10SM OVC017 02/M01 A2999 RMK AO2 T00241007,KSUW,2018-03-27T18:15:00Z,46.68,-92.1,2.4,-0.7,270,10,,10.0,29.991142,,,TRUE,TRUE,,,,,,,OVC,1700,,,,,,,MVFR,,,,,,,,,,,,METAR,206.0
KTTF 271815Z AUTO 22011KT 5SM -DZ OVC007 11/10 A2995 RMK AO2 T01100099,KTTF,2018-03-27T18:15:00Z,41.93,-83.42,11.0,9.9,220,11,,5.0,29.949802,,,TRUE,TRUE,,,,,,-DZ,OVC,700,,,,,,,IFR,,,,,,,,,,,,METAR,188.0
KUTA 271815Z AUTO 17019G26KT 10SM 22/13 A3011 RMK AO2 TSNO,KUTA,2018-03-27T18:15:00Z,34.68,-90.35,22.0,13.0,170,19,26,10.0,30.109253,,,TRUE,TRUE,,,TRUE,,,,,,,,,,,,,,,,,,,,,,,,METAR,59.0
KUVA 271815Z AUTO 10003KT 2 1/2SM DZ OVC022 21/20 A2994 RMK AO2 T02050197,KUVA,2018-03-27T18:15:00Z,29.22,-99.75,20.5,19.7,100,3,,2.5,29.940945,,,TRUE,TRUE,,,,,,DZ,OVC,2200,,,,,,,IFR,,,,,,,,,,,,METAR,287.0
KVAF 271815Z AUTO 21/58333322KT 2SM HZ CLR 24/21 A2999 RMK A01,KVAF,2018-03-27T18:15:00Z,27.35,-94.63,24.0,21.0,333,0,,82.0,29.991142,,,TRUE,TRUE,,,,,,HZ,CLR,,,,,,,,VFR,,,,,,,,,,,,METAR,46.0
KVKY 271815Z AUTO 13014KT 3SM HZ CLR 22/20 A3019 RMK A01,KVKY,2018-03-27T18:15:00Z,29.25,-88.43,22.0,20.0,130,14,,3.0,30.188976,,,TRUE,TRUE,,,,,,HZ,CLR,,,,,,,,MVFR,,,,,,,,,,,,METAR,32.0
KVOA 271815Z AUTO 13022KT 5SM HZ CLR 24/19 A3018 RMK A01,KVOA,2018-03-27T18:15:00Z,29.23,-87.78,24.0,19.0,130,22,,5.0,30.180119,,,TRUE,TRUE,,,,,,HZ,CLR,,,,,,,,MVFR,,,,,,,,,,,,METAR,53.0
KVQT 271815Z AUTO 16014KT 4SM HZ CLR A3010 RMK A01,KVQT,2018-03-27T18:15:00Z,28.27,-92.27,,,160,14,,4.0,30.100393,,,TRUE,TRUE,,,,,,HZ,CLR,,,,,,,,MVFR,,,,,,,,,,,,METAR,25.0
KW31 271815Z AUTO 00000KT 10SM BKN009 OVC015 04/04 A3044 RMK AO1 T00400036,KW31,2018-03-27T18:15:00Z,36.95,-78.18,4.0,3.6,0,0,,10.0,30.43996,,,TRUE,TRUE,,,,,,,BKN,900,OVC,1500,,,,,IFR,,,,,,,,,,,,METAR,162.0
KW96 271815Z AUTO 10005KT 10SM OVC050 07/00 A3045 RMK AO1 T00730002,KW96,2018-03-27T18:15:00Z,37.5,-77.12,7.3,0.2,100,5,,10.0,30.448818,,,TRUE,TRUE,,,,,,,OVC,5000,,,,,,,VFR,,,,,,,,,,,,METAR,37.0
KWWR 271815Z AUTO 02011G18KT 10SM BKN022 OVC033 07/01 A3018 RMK AO2,KWWR,2018-03-27T18:15:00Z,36.45,-99.52,7.0,1.0,20,11,18,10.0,30.180119,,,TRUE,TRUE,,,,,,,BKN,2200,OVC,3300,,,,,MVFR,,,,,,,,,,,,METAR,667.0
KY19 271815Z AUTO 23008KT 10SM CLR 07/02 A2995 RMK AO2 PWINO,KY19,2018-03-27T18:15:00Z,46.77,-100.9,7.0,2.0,230,8,,10.0,29.949802,,,TRUE,TRUE,,,,,TRUE,,CLR,,,,,,,,VFR,,,,,,,,,,,,METAR,593.0
KY31 271815Z AUTO 25006KT 7SM OVC003 08/07 A2982 RMK AO2 T00810074,KY31,2018-03-27T18:15:00Z,44.25,-84.18,8.1,7.4,250,6,,7.0,29.819881,,,TRUE,TRUE,,,,,,,OVC,300,,,,,,,LIFR,,,,,,,,,,,,METAR,269.0
K46D 271815Z AUTO 25010KT 10SM CLR 06/01 A2995 RMK AO2,K46D,2018-03-27T18:15:00Z,47.45,-99.15,6.0,1.0,250,10,,10.0,29.949802,,,TRUE,TRUE,,,,,,,CLR,,,,,,,,VFR,,,,,,,,,,,,METAR,490.0
K4A6 271815Z AUTO 20008KT 160V220 10SM OVC025 14/09 A3030 RMK AO2,K4A6,2018-03-27T18:15:00Z,34.68,-86.0,14.0,9.0,200,8,,10.0,30.301182,,,TRUE,TRUE,,,,,,,OVC,2500,,,,,,,MVFR,,,,,,,,,,,,METAR,198.0
KANQ 271815Z AUTO 24010G15KT 3SM BR OVC008 11/10 A2996 RMK AO2 TSNO,KANQ,2018-03-27T18:15:00Z,41.63,-85.08,11.0,10.0,240,10,15,3.0,29.958662,,,TRUE,TRUE,,,TRUE,,,BR,OVC,800,,,,,,,IFR,,,,,,,,,,,,SPECI,303.0
KALM 271815Z AUTO 21013G20KT 10SM FEW095 17/M03 A2996 RMK AO2,KALM,2018-03-27T18:15:00Z,32.82,-105.97,17.0,-3.0,210,13,20,10.0,29.958662,,,TRUE,TRUE,,,,,,,FEW,9500,,,,,,,VFR,,,,,,,,,,,,METAR,1279.0
KAJZ 271815Z AUTO 23006KT 10SM CLR 09/M08 A3008 RMK AO2 T00931084,KAJZ,2018-03-27T18:15:00Z,38.78,-108.07,9.3,-8.4,230,6,,10.0,30.079725,,,TRUE,TRUE,,,,,,,CLR,,,,,,,,VFR,,,,,,,,,,,,METAR,1583.0
KAUM 271815Z AUTO 31010G15KT 10SM OVC008 01/M01 A3007 RMK AO2,KAUM,2018-03-27T18:15:00Z,43.67,-92.92,1.0,-1.0,310,10,15,10.0,30.070866,,,TRUE,TRUE,,,,,,,OVC,800,,,,,,,IFR,,,,,,,,,,,,SPECI,375.0
KBFW 271815Z AUTO 27005KT 10SM OVC019 03/M01 A2991 RMK AO2,KBFW,2018-03-27T18:15:00Z,47.25,-91.4,3.0,-1.0,270,5,,10.0,29.911417,,,TRUE,TRUE,,,,,,,OVC,1900,,,,,,,MVFR,,,,,,,,,,,,METAR,331.0
KXPY 271815Z AUTO 10009KT 7SM CLR 24/20 A3016 RMK A01,KXPY,2018-03-27T18:15:00Z,29.12,-90.2,24.0,20.0,100,9,,7.0,30.159449,,,TRUE,TRUE,,,,,,,CLR,,,,,,,,VFR,,,,,,,,,,,,METAR,2.0
K04W 271815Z AUTO 27007KT 10SM 02/M01 A3002 RMK AO2,K04W,2018-03-27T18:15:00Z,46.02,-92.9,2.0,-1.0,270,7,,10.0,30.02067,,,TRUE,TRUE,,,,,,,,,,,,,,,,,,,,,,,,,,,METAR,311.0
K06D 271815Z AUTO 21012KT 10SM CLR 01/M01 A2986 RMK AO2,K06D,2018-03-27T18:15:00Z,48.88,-99.62,1.0,-1.0,210,12,,10.0,29.861221,,,TRUE,TRUE,,,,,,,CLR,,,,,,,,VFR,,,,,,,,,,,,METAR,556.0
K08D 271815Z AUTO 23011KT 5SM HZ 03/M00 A2987 RMK AO2,K08D,2018-03-27T18:15:00Z,48.3,-102.4,3.0,0.0,230,11,,5.0,29.870079,,,TRUE,TRUE,,,,,,HZ,,,,,,,,,,,,,,,,,,,,,METAR,684.0
K0S9 271815Z AUTO 00000KT 10SM OVC050 10/08 A3026 RMK AO2,K0S9,2018-03-27T18:15:00Z,48.05,-122.82,10.0,8.0,0,0,,10.0,30.259842,,,TRUE,TRUE,,,,,,,OVC,5000,,,,,,,VFR,,,,,,,,,,,,METAR,33.0
K24J 271815Z AUTO 06004KT 10SM BKN037 OVC043 23/15 A3030 RMK A01,K24J,2018-03-27T18:15:00Z,30.3,-83.03,23.0,15.0,60,4,,10.0,30.301182,,,TRUE,TRUE,,,,,,,BKN,3700,OVC,4300,,,,,VFR,,,,,,,,,,,,METAR,32.0
KXBP 271815Z AUTO 10003KT 7SM RA SCT029 BKN036 BKN048 17/17 A3004 RMK AO2 P0003 T01670167,KXBP,2018-03-27T18:15:00Z,33.18,-97.83,16.7,16.7,100,3,,7.0,30.041338,,,TRUE,TRUE,,,,,,RA,SCT,2900,BKN,3600,BKN,4800,,,VFR,,,,,,0.03,,,,,,METAR,260.0
KXIH 271815Z AUTO 2 1/2SM BR CLR 22/ A3003 RMK A01,KXIH,2018-03-27T18:15:00Z,29.18,-94.52,22.0,,,,,2.5,30.029528,,,TRUE,TRUE,,,,,,BR,CLR,,,,,,,,IFR,,,,,,,,,,,,METAR,75.0
KY51 271815Z AUTO 29010KT 7SM OVC011 04/03 A3002 RMK AO1 T00360026,KY51,2018-03-27T18:15:00Z,43.58,-90.9,3.6,2.6,290,10,,7.0,30.02067,,,TRUE,TRUE,,,,,,,OVC,1100,,,,,,,MVFR,,,,,,,,,,,,METAR,394.0
KY70 271815Z AUTO 24016G21KT 7SM OVC005 11/11 A2989 RMK AO2 T01090106,KY70,2018-03-27T18:15:00Z,42.93,-85.07,10.9,10.6,240,16,21,7.0,29.890747,,,TRUE,TRUE,,,,,,,OVC,500,,,,,,,IFR,,,,,,,,,,,,METAR,250.0
KCKN 271815Z AUTO 21009KT 7SM CLR 01/M02 A2995 RMK AO2,KCKN,2018-03-27T18:15:00Z,47.85,-96.62,1.0,-2.0,210,9,,7.0,29.949802,,,TRUE,TRUE,,,,,,,CLR,,,,,,,,VFR,,,,,,,,,,,,METAR,273.0
KCIN 271815Z AUTO VRB04KT 10SM OVC013 04/02 A3014 RMK AO2,KCIN,2018-03-27T18:15:00Z,42.03,-94.77,4.0,2.0,0,4,,10.0,30.138779,,,TRUE,TRUE,,,,,,,OVC,1300,,,,,,,MVFR,,,,,,,,,,,,METAR,375.0
KCAD 271815Z AUTO 27007KT 2 1/2SM UP OVC007 05/05 A2986 RMK AO2 T00520050,KCAD,2018-03-27T18:15:00Z,44.27,-85.42,5.2,5.0,270,7,,2.5,29.861221,,,TRUE,TRUE,,,,,,UP,OVC,700,,,,,,,IFR,,,,,,,,,,,,METAR,398.0
KBVU 271815Z AUTO 36018G25KT 10SM CLR 15/M10 A3018 RMK AO2,KBVU,2018-03-27T18:15:00Z,35.95,-114.87,15.0,-10.0,360,18,25,10.0,30.180119,,,TRUE,TRUE,,,,,,,CLR,,,,,,,,VFR,,,,,,,,,,,,METAR,671.0
KBNW 271815Z AUTO 33007KT 10SM OVC015 04/01 A3013 RMK AO2,KBNW,2018-03-27T18:15:00Z,42.03,-93.83,4.0,1.0,330,7,,10.0,30.129921,,,TRUE,TRUE,,,,,,,OVC,1500,,,,,,,MVFR,,,,,,,,,,,,METAR,354.0
CYXU 271815Z CCA 17012G20KT 2 1/2SM -RA BR OVC004 04/03 A2998 RMK SC8 SLP163,CYXU,2018-03-27T18:15:00Z,43.02,-81.15,4.0,3.0,170,12,20,2.5,29.97933,1016.3,,,,,,,,,-RA BR,OVC,400,,,,,,,LIFR,,,,,,,,,,,,SPECI,278.0
K2D5 271815Z AUTO 23008KT 10SM 04/01 A3000 RMK AO2 PWINO,K2D5,2018-03-27T18:15:00Z,46.17,-98.08,4.0,1.0,230,8,,10.0,30.0,,,TRUE,TRUE,,,,,TRUE,,,,,,,,,,,,,,,,,,,,,,METAR,407.0
KHHG 271815Z AUTO 23011G15KT 2 1/2SM -DZ OVC006 12/11 A3000 RMK AO2 T01170111,KHHG,2018-03-27T18:15:00Z,40.85,-85.45,11.7,11.1,230,11,15,2.5,30.0,,,TRUE,TRUE,,,,,,-DZ,OVC,600,,,,,,,IFR,,,,,,,,,,,,METAR,246.0
KGGP 271815Z AUTO 22012G17KT 7SM OVC006 12/11 A2999 RMK AO2,KGGP,2018-03-27T18:15:00Z,40.72,-86.37,12.0,11.0,220,12,17,7.0,29.991142,,,TRUE,TRUE,,,,,,,OVC,600,,,,,,,IFR,,,,,,,,,,,,METAR,225.0
KGBG 271815Z AUTO 30011KT 10SM OVC014 08/05 A3008 RMK AO2 T00780050,KGBG,2018-03-27T18:15:00Z,40.93,-90.43,7.8,5.0,300,11,,10.0,30.079725,,,TRUE,TRUE,,,,,,,OVC,1400,,,,,,,MVFR,,,,,,,,,,,,METAR,233.0
KFZG 271815Z AUTO 11006KT 10SM OVC032 21/15 A3034 RMK AO2 T02120146,KFZG,2018-03-27T18:15:00Z,31.68,-83.27,21.2,14.6,110,6,,10.0,30.339567,,,TRUE,TRUE,,,,,,,OVC,3200,,,,,,,VFR,,,,,,,,,,,,METAR,111.0
KFQD 271815Z AUTO 17004KT 10SM OVC028 10/03 A3040 RMK AO2 T00980025,KFQD,2018-03-27T18:15:00Z,35.42,-81.93,9.8,2.5,170,4,,10.0,30.398623,,,TRUE,TRUE,,,,,,,OVC,2800,,,,,,,MVFR,,,,,,,,,,,,METAR,329.0
KFKN 271815Z AUTO 00000KT 10SM -DZ BKN050 OVC060 09/01 A3044 RMK AO2 T00910007,KFKN,2018-03-27T18:15:00Z,36.7,-76.9,9.1,0.7,0,0,,10.0,30.43996,,,TRUE,TRUE,,,,,,-DZ,BKN,5000,OVC,6000,,,,,VFR,,,,,,,,,,,,METAR,12.0
KFHB 271815Z AUTO 15008KT 10SM SCT037 BKN044 OVC049 21/14 A3032 RMK AO2 T02060137,KFHB,2018-03-27T18:15:00Z,30.62,-81.47,20.6,13.7,150,8,,10.0,30.318897,,,TRUE,TRUE,,,,,,,SCT,3700,BKN,4400,OVC,4900,,,VFR,,,,,,,,,,,,METAR,5.0
KFFA 271815Z AUTO 02004KT 10SM SCT080 08/03 A3043 RMK AO2 T00780028,KFFA,2018-03-27T18:15:00Z,36.02,-75.67,7.8,2.8,20,4,,10.0,30.431103,,,TRUE,TRUE,,,,,,,SCT,8000,,,,,,,VFR,,,,,,,,,,,,METAR,4.0
KF45 271815Z AUTO 08015G23KT 10SM BKN044 BKN050 25/12 A3025 RMK AO2,KF45,2018-03-27T18:15:00Z,,,25.0,12.0,80,15,23,10.0,30.250984,,,TRUE,TRUE,,,,,,,BKN,4400,BKN,5000,,,,,VFR,,,,,,,,,,,,METAR,
KEZF 271815Z AUTO 19005KT 10SM DZ BKN024 BKN028 BKN046 06/03 A3044 RMK AO2 T00610025,KEZF,2018-03-27T18:15:00Z,38.27,-77.45,6.1,2.5,190,5,,10.0,30.43996,,,TRUE,TRUE,,,,,,DZ,BKN,2400,BKN,2800,BKN,4600,,,MVFR,,,,,,,,,,,,METAR,26.0
KEXX 271815Z AUTO 00000KT 10SM BKN032 OVC039 09/01 A3042 RMK AO2 T00900010,KEXX,2018-03-27T18:15:00Z,35.78,-80.3,9.0,1.0,0,0,,10.0,30.41929,,,TRUE,TRUE,,,,,,,BKN,3200,OVC,3900,,,,,VFR,,,,,,,,,,,,METAR,223.0
KETB 271815Z AUTO 28009G14KT 10SM OVC011 05/03 A2995 RMK AO2,KETB,2018-03-27T18:15:00Z,43.42,-88.13,5.0,3.0,280,9,14,10.0,29.949802,,,TRUE,TRUE,,,,,,,OVC,1100,,,,,,,MVFR,,,,,,,,,,,,METAR,270.0
KEDE 271815Z AUTO 11003KT 10SM OVC055 11/04 A3045 RMK AO2 T01060041,KEDE,2018-03-27T18:15:00Z,36.02,-76.57,10.6,4.1,110,3,,10.0,30.448818,,,TRUE,TRUE,,,,,,,OVC,5500,,,,,,,VFR,,,,,,,,,,,,METAR,6.0
KEBA 271815Z AUTO 00000KT 10SM OVC007 10/07 A3042 RMK AO2 T00970070,KEBA,2018-03-27T18:15:00Z,34.1,-82.82,9.7,7.0,0,0,,10.0,30.41929,,,TRUE,TRUE,,,,,,,OVC,700,,,,,,,IFR,,,,,,,,,,,,METAR,184.0
KEAN 271815Z AUTO 22008KT 190V250 10SM CLR 10/M11 A3006 RMK AO2 T00951112,KEAN,2018-03-27T18:15:00Z,42.05,-104.93,9.5,-11.2,220,8,,10.0,30.059055,,,TRUE,TRUE,,,,,,,CLR,,,,,,,,VFR,,,,,,,,,,,,METAR,1456.0
KDPL 271815Z AUTO 36005KT 10SM OVC037 08/03 A3044 RMK AO2,KDPL,2018-03-27T18:15:00Z,35.0,-77.97,8.0,3.0,360,5,,10.0,30.43996,,,TRUE,TRUE,,,,,,,OVC,3700,,,,,,,VFR,,,,,,,,,,,,METAR,42.0
KDKR 271815Z AUTO 16012G18KT 10SM FEW030 SCT035 BKN046 26/18 A3004 RMK AO2,KDKR,2018-03-27T18:15:00Z,31.3,-95.4,26.0,18.0,160,12,18,10.0,30.041338,,,TRUE,TRUE,,,,,,,FEW,3000,SCT,3500,BKN,4600,,,VFR,,,,,,,,,,,,METAR,106.0
KDCY 271815Z AUTO 19008KT 4SM +RA OVC013 13/12 A3006 RMK AO2 T01250115,KDCY,2018-03-27T18:15:00Z,38.7,-87.13,12.5,11.5,190,8,,4.0,30.059055,,,TRUE,TRUE,,,,,,+RA,OVC,1300,,,,,,,MVFR,,,,,,,,,,,,METAR,144.0
KD25 271815Z AUTO 29007KT 10SM OVC009 00/00 A2993 RMK AO2 T00030002,KD25,2018-03-27T18:15:00Z,46.12,-89.88,0.3,0.2,290,7,,10.0,29.929134,,,TRUE,TRUE,,,,,,,OVC,900,,,,,,,IFR,,,,,,,,,,,,METAR,491.0
KFSO 271815Z AUTO 20007KT 10SM CLR 07/M06 A3033 RMK AO2 T00701062,KFSO,2018-03-27T18:15:00Z,44.93,-73.1,7.0,-6.2,200,7,,10.0,30.33071,,,TRUE,TRUE,,,,,,,CLR,,,,,,,,VFR,,,,,,,,,,,,METAR,70.0
KMCD 271815Z AUTO 24010G14KT M1/4SM FG OVC002 03/03 A2981 RMK AO2 T00260026,KMCD,2018-03-27T18:15:00Z,45.85,-84.63,2.6,2.6,240,10,14,0.25,29.811024,,,TRUE,TRUE,,,,,,FG,OVC,200,,,,,,,LIFR,,,,,,,,,,,,METAR,226.0
PAHP 271814Z AUTO 06012KT 9SM -SN BKN007 M04/M06 A2952 RMK AO2 P0000 FZRANO,PAHP,2018-03-27T18:14:00Z,61.52,-166.15,-4.0,-6.0,60,12,,9.0,29.518702,,,TRUE,TRUE,,,,TRUE,,-SN,BKN,700,,,,,,,IFR,,,,,,0.005,,,,,,SPECI,5.0
KUNO 271814Z AUTO 06009KT 4SM RA BR SCT041 BKN080 OVC095 15/14 A3001 RMK AO2 LTG DSNT SE PRESFR P0007 T01500139,KUNO,2018-03-27T18:14:00Z,36.88,-91.9,15.0,13.9,60,9,,4.0,30.008858,,,TRUE,TRUE,,,,,,RA BR,SCT,4100,BKN,8000,OVC,9500,,,MVFR,,,,,,0.07,,,,,,SPECI,372.0
CYQH 271814Z 00000KT 15SM SCT035 BKN083 M12/M16 A2984 RMK SC3AC3 SLP162,CYQH,2018-03-27T18:14:00Z,60.12,-128.82,-12.0,-16.0,0,0,,15.0,29.840551,1016.2,,,,,,,,,,SCT,3500,BKN,8300,,,,,VFR,,,,,,,,,,,,SPECI,690.0
KDLF 271814Z 35009KT 4SM -DZ BR BKN006 OVC009 19/18 A2994 RMK AO2A TWR VIS 2 1/4 CIG 006V009 BKN V SCT SLP130,KDLF,2018-03-27T18:14:00Z,29.37,-100.77,19.0,18.0,350,9,,4.0,29.940945,1013.0,,,TRUE,,,,,,-DZ BR,BKN,600,OVC,900,,,,,IFR,,,,,,,,,,,,SPECI,330.0
KMNN 271814Z AUTO 20013KT 4SM BR OVC005 10/08 A3006 RMK AO2 T01000083,KMNN,2018-03-27T18:14:00Z,40.62,-83.07,10.0,8.3,200,13,,4.0,30.059055,,,TRUE,TRUE,,,,,,BR,OVC,500,,,,,,,IFR,,,,,,,,,,,,METAR,301.0
KIRK 271814Z AUTO 35012KT 10SM OVC016 06/03 A3011 RMK AO2 T00610033,KIRK,2018-03-27T18:14:00Z,40.1,-92.55,6.1,3.3,350,12,,10.0,30.109253,,,TRUE,TRUE,,,,,,,OVC,1600,,,,,,,MVFR,,,,,,,,,,,,METAR,293.0
KERI 271814Z 17019G26KT 10SM OVC027 06/02 A3004 RMK AO2 PK WND 17029/1803 T00560022,KERI,2018-03-27T18:14:00Z,42.08,-80.18,5.6,2.2,170,19,26,10.0,30.041338,,,,TRUE,,,,,,,OVC,2700,,,,,,,MVFR,,,,,,,,,,,,METAR,222.0
CYAM 271814Z 06006KT 2SM -SHRAPL BR SCT001 OVC008 01/01 A2982 RMK SF3SC5 VIS VRB 1 1/2-2 1/2 CIG VRB 6-10 CVCTV CLD EMBD SLP107,CYAM,2018-03-27T18:14:00Z,46.47,-84.52,1.0,1.0,60,6,,2.0,29.819881,1010.7,,,,,,,,,-SHRA -SHPL BR,SCT,100,OVC,800,,,,,IFR,,,,,,,,,,,,SPECI,192.0
KETH 271813Z AUTO 20004KT 10SM CLR 04/M01 A3005 RMK AO2,KETH,2018-03-27T18:13:00Z,45.78,-96.55,4.0,-1.0,200,4,,10.0,30.050198,,,TRUE,TRUE,,,,,,,CLR,,,,,,,,VFR,,,,,,,,,,,,SPECI,313.0
KAQP 271813Z AUTO 25004KT 10SM CLR 06/01 A3006 RMK AO2,KAQP,2018-03-27T18:13:00Z,45.22,-96.0,6.0,1.0,250,4,,10.0,30.059055,,,TRUE,TRUE,,,,,,,CLR,,,,,,,,VFR,,,,,,,,,,,,METAR,311.0
KABQ 271813Z 27013KT 10SM -RA FEW014 BKN040 OVC060 05/02 A3001 RMK AO2 LTG DSNT S RAB1754 TSE07 CB DSNT S-W-NW MTN TOPS OBSC NE AND SE P0000 T00500022,KABQ,2018-03-27T18:13:00Z,35.05,-106.62,5.0,2.2,270,13,,10.0,30.008858,,,,TRUE,,,,,,-RA,FEW,1400,BKN,4000,OVC,6000,,,VFR,,,,,,0.005,,,,,,SPECI,1618.0
PAVC 271813Z AUTO 23011KT 9SM FEW022 BKN035 OVC050 01/M02 A2992 RMK AO2 PWINO FZRANO,PAVC,2018-03-27T18:13:00Z,55.12,-162.27,1.0,-2.0,230,11,,9.0,29.920275,,,TRUE,TRUE,,,,TRUE,TRUE,,FEW,2200,BKN,3500,OVC,5000,,,VFR,,,,,,,,,,,,SPECI,47.0
KTRL 271813Z AUTO 36007KT 10SM -RA FEW007 BKN023 OVC065 19/17 A3002 RMK AO2 P0000 T01890172,KTRL,2018-03-27T18:13:00Z,32.72,-96.27,18.9,17.2,360,7,,10.0,30.02067,,,TRUE,TRUE,,,,,,-RA,FEW,700,BKN,2300,OVC,6500,,,MVFR,,,,,,0.005,,,,,,SPECI,145.0
KRWI 271813Z AUTO 03003KT 8SM -RA FEW007 OVC041 06/04 A3046 RMK AO2 P0001 T00560039,KRWI,2018-03-27T18:13:00Z,35.85,-77.9,5.6,3.9,30,3,,8.0,30.46063,,,TRUE,TRUE,,,,,,-RA,FEW,700,OVC,4100,,,,,VFR,,,,,,0.01,,,,,,SPECI,47.0
KPIT 271813Z 16006KT 5SM -DZ BR BKN005 OVC012 06/06 A3013 RMK AO2 DZB11 P0000 T00610056,KPIT,2018-03-27T18:13:00Z,40.5,-80.27,6.1,5.6,160,6,,5.0,30.129921,,,,TRUE,,,,,,-DZ BR,BKN,500,OVC,1200,,,,,IFR,,,,,,0.005,,,,,,SPECI,357.0
KMSO 271813Z 25014G18KT 10SM OVC046 08/M02 A3010 RMK AO2 WSHFT 1753 T00781022,KMSO,2018-03-27T18:13:00Z,46.92,-114.1,7.8,-2.2,250,14,18,10.0,30.100393,,,,TRUE,,,,,,,OVC,4600,,,,,,,VFR,,,,,,,,,,,,METAR,975.0
KOWA 271813Z AUTO 28008G14KT 10SM OVC010 02/00 A3008 RMK AO2,KOWA,2018-03-27T18:13:00Z,44.12,-93.25,2.0,0.0,280,8,14,10.0,30.079725,,,TRUE,TRUE,,,,,,,OVC,1000,,,,,,,MVFR,,,,,,,,,,,,SPECI,350.0
KORB 271813Z AUTO 26007KT 10SM BKN017 03/M03 A2989 RMK AO2,KORB,2018-03-27T18:13:00Z,48.02,-92.87,3.0,-3.0,260,7,,10.0,29.890747,,,TRUE,TRUE,,,,,,,BKN,1700,,,,,,,MVFR,,,,,,,,,,,,SPECI,397.0
KMYP 271813Z AUTO OVC001 M09/M11 A3016 RMK AO2 PWINO,KMYP,2018-03-27T18:13:00Z,38.48,-106.32,-9.0,-11.0,,,,,30.159449,,,TRUE,TRUE,,,,,TRUE,,OVC,100,,,,,,,,,,,,,,,,,,,METAR,3667.0
ETAR 271813Z AUTO 20009G16KT 9999 -RA BKN020 OVC035 06/06 A2978 RMK AO2 RAB13 SLP096 $,ETAR,2018-03-27T18:13:00Z,49.42,7.58,6.0,6.0,200,9,16,6.21,29.778543,1009.6,,TRUE,TRUE,TRUE,,,,,-RA,BKN,2000,OVC,3500,,,,,MVFR,,,,,,,,,,,,SPECI,238.0
KMIE 271812Z 21012G18KT 3SM BR OVC007 12/11 A3002 RMK AO2 T01220111,KMIE,2018-03-27T18:12:00Z,40.23,-85.4,12.2,11.1,210,12,18,3.0,30.02067,,,,TRUE,,,,,,BR,OVC,700,,,,,,,IFR,,,,,,,,,,,,SPECI,285.0
KILN 271812Z AUTO 21010KT 3SM -RA BR OVC009 11/11 A3009 RMK AO2 RAB1755 CIG 006V013 P0000 T01060106,KILN,2018-03-27T18:12:00Z,39.43,-83.8,10.6,10.6,210,10,,3.0,30.088583,,,TRUE,TRUE,,,,,,-RA BR,OVC,900,,,,,,,IFR,,,,,,0.005,,,,,,SPECI,322.0
KENW 271812Z 28012KT 10SM FEW007 BKN013 OVC028 08/05 A2997 RMK AO2 T00780050,KENW,2018-03-27T18:12:00Z,42.6,-87.93,7.8,5.0,280,12,,10.0,29.970472,,,,TRUE,,,,,,,FEW,700,BKN,1300,OVC,2800,,,MVFR,,,,,,,,,,,,SPECI,219.0
CYPX 271812Z AUTO 09025KT 5SM BR SCT013 BKN022 BKN240 M16/M18 A2994 RMK SLP143,CYPX,2018-03-27T18:12:00Z,60.03,-77.27,-16.0,-18.0,90,25,,5.0,29.940945,1014.3,,TRUE,,,,,,,BR,SCT,1300,BKN,2200,BKN,24000,,,MVFR,,,,,,,,,,,,SPECI,23.0
K7BM 271812Z AUTO 10005KT 1 1/4SM BR OVC001 00/M02 A3012 RMK AO2,K7BM,2018-03-27T18:12:00Z,38.78,-106.22,0.0,-2.0,100,5,,1.25,30.121063,,,TRUE,TRUE,,,,,,BR,OVC,100,,,,,,,LIFR,,,,,,,,,,,,METAR,2995.0
K5SM 271812Z AUTO 33004KT 10SM CLR M04/M11 A3013 RMK AO2,K5SM,2018-03-27T18:12:00Z,39.43,-107.38,-4.0,-11.0,330,4,,10.0,30.129921,,,TRUE,TRUE,,,,,,,CLR,,,,,,,,VFR,,,,,,,,,,,,METAR,3232.0
K20V 271812Z AUTO 00000KT 10SM CLR 06/M08 A3009 RMK AO2,K20V,2018-03-27T18:12:00Z,40.05,-106.37,6.0,-8.0,0,0,,10.0,30.088583,,,TRUE,TRUE,,,,,,,CLR,,,,,,,,VFR,,,,,,,,,,,,METAR,2259.0
K0CO 271812Z AUTO 15012G21KT 1/4SM -SN OVC001 M09/M15 A3009 RMK AO2,K0CO,2018-03-27T18:12:00Z,39.8,-105.77,-9.0,-15.0,150,12,21,0.25,30.088583,,,TRUE,TRUE,,,,,,-SN,OVC,100,,,,,,,LIFR,,,,,,,,,,,,METAR,3807.0
KMNH 271812Z AUTO 16007KT 10SM SCT036 BKN042 OVC070 00/M07 A3016 RMK AO2,KMNH,2018-03-27T18:12:00Z,39.22,-104.65,0.0,-7.0,160,7,,10.0,30.159449,,,TRUE,TRUE,,,,,,,SCT,3600,BKN,4200,OVC,7000,,,VFR,,,,,,,,,,,,METAR,2152.0
KCCU 271812Z AUTO 18010KT 10SM BKN022 SCT027 M02/M10 A3010 RMK AO2,KCCU,2018-03-27T18:12:00Z,39.48,-106.15,-2.0,-10.0,180,10,,10.0,30.100393,,,TRUE,TRUE,,,,,,,BKN,2200,SCT,2700,,,,,MVFR,,,,,,,,,,,,METAR,3680.0
KC07 271812Z AUTO 21003KT 10SM CLR M02/M08 A3009 RMK AO2,KC07,2018-03-27T18:12:00Z,40.35,-106.7,-2.0,-8.0,210,3,,10.0,30.088583,,,TRUE,TRUE,,,,,,,CLR,,,,,,,,VFR,,,,,,,,,,,,METAR,3224.0
KBDU 271812Z AUTO 13006KT 10SM SCT050 04/00 A3013 RMK AO2,KBDU,2018-03-27T18:12:00Z,40.03,-105.23,4.0,0.0,130,6,,10.0,30.129921,,,TRUE,TRUE,,,,,,,SCT,5000,,,,,,,VFR,,,,,,,,,,,,METAR,1612.0
KFSI 271811Z AUTO 02013KT 10SM OVC008 10/10 A3008 RMK AO2 SLP184,KFSI,2018-03-27T18:11:00Z,34.65,-98.4,10.0,10.0,20,13,,10.0,30.079725,1018.4,,TRUE,TRUE,,,,,,,OVC,800,,,,,,,IFR,,,,,,,,,,,,METAR,362.0
PAKW 271811Z AUTO 16004KT 10SM FEW020 BKN032 OVC050 04/03 A3004 RMK AO2 RAE10 P0000 T00390033 TSNO,PAKW,2018-03-27T18:11:00Z,55.58,-133.07,3.9,3.3,160,4,,10.0,30.041338,,,TRUE,TRUE,,,TRUE,,,,FEW,2000,BKN,3200,OVC,5000,,,VFR,,,,,,0.005,,,,,,METAR,15.0
KUIL 271811Z AUTO 25011KT 3SM -RA BR OVC005 09/09 A3031 RMK AO2 P0002 T00940089,KUIL,2018-03-27T18:11:00Z,47.93,-124.55,9.4,8.9,250,11,,3.0,30.31004,,,TRUE,TRUE,,,,,,-RA BR,OVC,500,,,,,,,IFR,,,,,,0.02,,,,,,METAR,54.0
KGKY 271811Z 31004KT 3SM RA BR SCT037 BKN055 OVC070 17/17 A3004 RMK AO2 LTG DSNT N P0008 T01720172,KGKY,2018-03-27T18:11:00Z,32.67,-97.1,17.2,17.2,310,4,,3.0,30.041338,,,,TRUE,,,,,,RA BR,SCT,3700,BKN,5500,OVC,7000,,,MVFR,,,,,,0.08,,,,,,METAR,192.0
KCMI 271811Z 31013KT 10SM OVC004 11/11 A3000 RMK AO2 WSHFT 1751 T01110106,KCMI,2018-03-27T18:11:00Z,40.03,-88.27,11.1,10.6,310,13,,10.0,30.0,,,,TRUE,,,,,,,OVC,400,,,,,,,LIFR,,,,,,,,,,,,METAR,228.0
KCAO 271811Z AUTO 04015KT 10SM BKN023 OVC034 04/00 A3013 RMK AO2 T00390000 $,KCAO,2018-03-27T18:11:00Z,36.45,-103.15,3.9,0.0,40,15,,10.0,30.129921,,,TRUE,TRUE,TRUE,,,,,,BKN,2300,OVC,3400,,,,,MVFR,,,,,,,,,,,,METAR,1514.0
KAIZ 271811Z AUTO 35004KT 7SM -RA BKN006 BKN011 OVC021 08/07 A3008 RMK AO2 CIG 004V009 P0002,KAIZ,2018-03-27T18:11:00Z,38.1,-92.53,8.0,7.0,350,4,,7.0,30.079725,,,TRUE,TRUE,,,,,,-RA,BKN,600,BKN,1100,OVC,2100,,,IFR,,,,,,0.02,,,,,,METAR,265.0
KFAF 271811Z AUTO 19003KT 10SM -DZ OVC055 08/02 A3043 RMK AO2 DZB11 SLP308 $,KFAF,2018-03-27T18:11:00Z,37.12,-76.62,8.0,2.0,190,3,,10.0,30.431103,1030.8,,TRUE,TRUE,TRUE,,,,,-DZ,OVC,5500,,,,,,,VFR,,,,,,,,,,,,METAR,4.0
CWHN 271810Z AUTO 07009KT 1 1/4SM BKN000 OVC009 OVC045 M15/M17 A2974,CWHN,2018-03-27T18:10:00Z,54.88,-109.97,-15.0,-17.0,70,9,,1.25,29.740158,,,TRUE,,,,,,,,BKN,0,OVC,900,OVC,4500,,,LIFR,,,,,,,,,,,,SPECI,636.0
KLXT 271810Z AUTO 01011KT 10SM BKN016 BKN110 06/03 A3012 RMK AO2 T00610028,KLXT,2018-03-27T18:10:00Z,38.97,-94.37,6.1,2.8,10,11,,10.0,30.121063,,,TRUE,TRUE,,,,,,,BKN,1600,BKN,11000,,,,,MVFR,,,,,,,,,,,,METAR,306.0
KCPS 271810Z 31011KT 7SM -RA OVC009 13/11 A3004 RMK AO2 CIG 004V013 P0002 T01280111,KCPS,2018-03-27T18:10:00Z,38.57,-90.15,12.8,11.1,310,11,,7.0,30.041338,,,,TRUE,,,,,,-RA,OVC,900,,,,,,,IFR,,,,,,0.02,,,,,,METAR,126.0
KBPT 271810Z 15012G20KT 10SM SCT023 BKN028 OVC043 25/19 A3006 RMK AO2 T02500194,KBPT,2018-03-27T18:10:00Z,29.95,-94.03,25.0,19.4,150,12,20,10.0,30.059055,,,,TRUE,,,,,,,SCT,2300,BKN,2800,OVC,4300,,,MVFR,,,,,,,,,,,,METAR,5.0
KCQC 271810Z AUTO 07021G26KT 9SM UP OVC002 01/00 A3007 RMK AO2 PK WND 09029/1757 UPB02 P0000 T00110000,KCQC,2018-03-27T18:10:00Z,35.0,-105.67,1.1,0.0,70,21,26,9.0,30.070866,,,TRUE,TRUE,,,,,,UP,OVC,200,,,,,,,LIFR,,,,,,0.005,,,,,,METAR,2160.0
KFAM 271810Z AUTO 34003KT 5SM +RA BR FEW003 BKN008 OVC019 16/15 A3003 RMK AO2 CIG 006V010 P0006,KFAM,2018-03-27T18:10:00Z,37.77,-90.42,16.0,15.0,340,3,,5.0,30.029528,,,TRUE,TRUE,,,,,,+RA BR,FEW,300,BKN,800,OVC,1900,,,IFR,,,,,,0.06,,,,,,SPECI,288.0
PAGM 271810Z AUTO 5SM -SN BR OVC008 M04/M06 A2962 RMK AO2 CIG 007V012 P0000 FZRANO $,PAGM,2018-03-27T18:10:00Z,63.77,-171.73,-4.0,-6.0,,,,5.0,29.619095,,,TRUE,TRUE,TRUE,,,TRUE,,-SN BR,OVC,800,,,,,,,IFR,,,,,,0.005,,,,,,SPECI,8.0
CYPO 271810Z AUTO 21012G18KT 9SM SCT014 BKN019 BKN024 OVC060 02/M02 A2958 RMK SLP022,CYPO,2018-03-27T18:10:00Z,54.98,-85.43,2.0,-2.0,210,12,18,9.0,29.58071,1002.2,,TRUE,,,,,,,,SCT,1400,BKN,1900,BKN,2400,OVC,6000,MVFR,,,,,,,,,,,,SPECI,53.0
K6I2 271810Z AUTO 18014G22KT 10SM FEW041 FEW075 SCT095 18/10 A3013 RMK AO2,K6I2,2018-03-27T18:10:00Z,37.63,-85.25,18.0,10.0,180,14,22,10.0,30.129921,,,TRUE,TRUE,,,,,,,FEW,4100,FEW,7500,SCT,9500,,,VFR,,,,,,,,,,,,METAR,264.0
KEMK 271810Z AUTO 13025KT 5SM HZ CLR 24/21 A3002 RMK A01,KEMK,2018-03-27T18:10:00Z,27.82,-94.32,24.0,21.0,130,25,,5.0,30.02067,,,TRUE,TRUE,,,,,,HZ,CLR,,,,,,,,MVFR,,,,,,,,,,,,METAR,26.0
VCRI 271810Z VRB02KT 9999 SCT018 FEW020CB SCT280 25/25 Q1013 NOSIG W,VCRI,2018-03-27T18:10:00Z,6.28,81.13,25.0,25.0,0,2,,6.21,29.911417,,,,,,TRUE,,,,,SCT,1800,FEW,2000,SCT,28000,,,VFR,,,,,,,,,,,,METAR,7.0
KVES 271810Z AUTO 22011G21KT 5SM BR OVC006 11/11 A3005 RMK AO2,KVES,2018-03-27T18:10:00Z,40.2,-84.53,11.0,11.0,220,11,21,5.0,30.050198,,,TRUE,TRUE,,,,,,BR,OVC,600,,,,,,,IFR,,,,,,,,,,,,SPECI,307.0
KTMA 271810Z AUTO 12006KT 10SM OVC031 21/14 A3031 RMK AO2 T02070141,KTMA,2018-03-27T18:10:00Z,31.43,-83.48,20.7,14.1,120,6,,10.0,30.31004,,,TRUE,TRUE,,,,,,,OVC,3100,,,,,,,VFR,,,,,,,,,,,,SPECI,109.0
KD73 271810Z AUTO 07006KT 10SM OVC008 09/07 A3038 RMK AO2 T00890066,KD73,2018-03-27T18:10:00Z,33.78,-83.7,8.9,6.6,70,6,,10.0,30.380905,,,TRUE,TRUE,,,,,,,OVC,800,,,,,,,IFR,,,,,,,,,,,,SPECI,267.0
KCPU 271810Z AUTO 00000KT 10SM CLR 15/01 A3024 RMK AO2 T01450012,KCPU,2018-03-27T18:10:00Z,38.15,-120.65,14.5,1.2,0,0,,10.0,30.239174,,,TRUE,TRUE,,,,,,,CLR,,,,,,,,VFR,,,,,,,,,,,,METAR,404.0
KAZE 271810Z AUTO 15004KT 10SM OVC028 21/13 A3032 RMK AO2 T02110127,KAZE,2018-03-27T18:10:00Z,31.88,-82.65,21.1,12.7,150,4,,10.0,30.318897,,,TRUE,TRUE,,,,,,,OVC,2800,,,,,,,MVFR,,,,,,,,,,,,SPECI,78.0
KAQO 271810Z AUTO 35015G21KT 1SM +RA BKN002 OVC008 17/17 A3003 RMK AO2 P0004,KAQO,2018-03-27T18:10:00Z,30.78,-98.67,17.0,17.0,350,15,21,1.0,30.029528,,,TRUE,TRUE,,,,,,+RA,BKN,200,OVC,800,,,,,LIFR,,,,,,0.04,,,,,,SPECI,336.0
KAPY 271810Z AUTO 18007KT 10SM SCT037 BKN043 29/17 A2986 RMK AO2 T02950175,KAPY,2018-03-27T18:10:00Z,26.97,-99.25,29.5,17.5,180,7,,10.0,29.861221,,,TRUE,TRUE,,,,,,,SCT,3700,BKN,4300,,,,,VFR,,,,,,,,,,,,SPECI,129.0
K2P2 271810Z AUTO 29004KT 10SM BKN018 BKN037 OVC044 05/03 A2987 RMK AO2 T00470026,K2P2,2018-03-27T18:10:00Z,45.38,-86.92,4.7,2.6,290,4,,10.0,29.870079,,,TRUE,TRUE,,,,,,,BKN,1800,BKN,3700,OVC,4400,,,MVFR,,,,,,,,,,,,SPECI,199.0
K0VG 271810Z AUTO 00000KT 10SM CLR 15/05 A3028 RMK AO2,K0VG,2018-03-27T18:10:00Z,36.65,-83.22,15.0,5.0,0,0,,10.0,30.280512,,,TRUE,TRUE,,,,,,,CLR,,,,,,,,VFR,,,,,,,,,,,,SPECI,430.0
KW78 271810Z AUTO 00000KT 10SM OVC009 05/03 A3045 RMK AO1 T00450031,KW78,2018-03-27T18:10:00Z,36.68,-78.85,4.5,3.1,0,0,,10.0,30.448818,,,TRUE,TRUE,,,,,,,OVC,900,,,,,,,IFR,,,,,,,,,,,,SPECI,129.0
KGLW 271810Z AUTO 18014G19KT 10SM SCT047 18/10 A3015 RMK AO2 T01810102,KGLW,2018-03-27T18:10:00Z,37.03,-85.95,18.1,10.2,180,14,19,10.0,30.15059,,,TRUE,TRUE,,,,,,,SCT,4700,,,,,,,VFR,,,,,,,,,,,,SPECI,218.0
KHSG 271810Z AUTO 16015G22KT 10SM CLR 05/M05 A3001 RMK AO2 T00541054,KHSG,2018-03-27T18:10:00Z,43.72,-108.38,5.4,-5.4,160,15,22,10.0,30.008858,,,TRUE,TRUE,,,,,,,CLR,,,,,,,,VFR,,,,,,,,,,,,SPECI,1494.0
KHFJ 271810Z AUTO 02008KT 10SM -DZ OVC004 09/09 A3003 RMK AO2 P0001,KHFJ,2018-03-27T18:10:00Z,36.9,-94.02,9.0,9.0,20,8,,10.0,30.029528,,,TRUE,TRUE,,,,,,-DZ,OVC,400,,,,,,,LIFR,,,,,,0.01,,,,,,SPECI,401.0
KSTK 271810Z AUTO 23004KT 10SM CLR 10/M09 A3012 RMK AO2,KSTK,2018-03-27T18:10:00Z,40.62,-103.27,10.0,-9.0,230,4,,10.0,30.121063,,,TRUE,TRUE,,,,,,,CLR,,,,,,,,VFR,,,,,,,,,,,,METAR,1231.0
KHEQ 271810Z AUTO 07005KT 10SM CLR 12/M08 A3015 RMK AO2,KHEQ,2018-03-27T18:10:00Z,40.57,-102.28,12.0,-8.0,70,5,,10.0,30.15059,,,TRUE,TRUE,,,,,,,CLR,,,,,,,,VFR,,,,,,,,,,,,METAR,1137.0
KO86 271810Z AUTO 07003KT 10SM CLR 09/04 A3037 RMK AO1,KO86,2018-03-27T18:10:00Z,40.98,-122.7,9.0,4.0,70,3,,10.0,30.369095,,,TRUE,TRUE,,,,,,,CLR,,,,,,,,VFR,,,,,,,,,,,,METAR,729.0
KVBS 271810Z AUTO 08012KT 10SM CLR 23/20 A3007 RMK A01,KVBS,2018-03-27T18:10:00Z,29.48,-93.63,23.0,20.0,80,12,,10.0,30.070866,,,TRUE,TRUE,,,,,,,CLR,,,,,,,,VFR,,,,,,,,,,,,METAR,31.0
KCDD 271809Z AUTO 24007KT 223V293 10SM OVC022 02/M02 A2993 RMK AO2,KCDD,2018-03-27T18:09:00Z,48.27,-92.48,2.0,-2.0,240,7,,10.0,29.929134,,,TRUE,TRUE,,,,,,,OVC,2200,,,,,,,MVFR,,,,,,,,,,,,SPECI,341.0
K9L2 271809Z AUTO 03015G18KT 8SM CLR 16/M09 A3020 RMK AO2 WSHFT 05 SLP222,K9L2,2018-03-27T18:09:00Z,34.97,-117.87,16.0,-9.0,30,15,18,8.0,30.200787,1022.2,,TRUE,TRUE,,,,,,,CLR,,,,,,,,VFR,,,,,,,,,,,,SPECI,701.0
KHUF 271809Z 20011KT 4SM -RA BR OVC004 13/13 A3002 RMK AO2 P0000 T01330128,KHUF,2018-03-27T18:09:00Z,39.45,-87.3,13.3,12.8,200,11,,4.0,30.02067,,,,TRUE,,,,,,-RA BR,OVC,400,,,,,,,LIFR,,,,,,0.005,,,,,,SPECI,179.0
KCMX 271809Z AUTO 28017KT 10SM OVC005 01/M02 A2987 RMK AO2 T00061017,KCMX,2018-03-27T18:09:00Z,47.17,-88.48,0.6,-1.7,280,17,,10.0,29.870079,,,TRUE,TRUE,,,,,,,OVC,500,,,,,,,IFR,,,,,,,,,,,,SPECI,326.0
MMZC 271809Z RTD 19016KT 10SM SKC 25/00 A3023,MMZC,2018-03-27T18:09:00Z,22.9,-102.68,25.0,0.0,190,16,,10.0,30.230314,,,,,,,,,,,SKC,,,,,,,,VFR,,,,,,,,,,,,METAR,2177.0
PFCL 271809Z AUTO 3SM -SN BR OVC006 01/00 A2965 RMK AO2 CIG 004V010 P0000 FZRANO TSNO $,PFCL,2018-03-27T18:09:00Z,58.83,-158.53,1.0,0.0,,,,3.0,29.648623,,,TRUE,TRUE,TRUE,,TRUE,TRUE,,-SN BR,OVC,600,,,,,,,IFR,,,,,,0.005,,,,,,SPECI,24.0
KSOP 271809Z AUTO 06003KT 10SM OVC028 08/02 A3044 RMK AO2,KSOP,2018-03-27T18:09:00Z,35.22,-79.4,8.0,2.0,60,3,,10.0,30.43996,,,TRUE,TRUE,,,,,,,OVC,2800,,,,,,,MVFR,,,,,,,,,,,,SPECI,141.0
YBHM 271809Z AUTO 14025KT 9999 // OVC016 26/24 Q1008,YBHM,2018-03-27T18:09:00Z,-20.35,148.95,26.0,24.0,140,25,,6.21,29.763779,,,TRUE,,,,,,,,OVC,1600,,,,,,,MVFR,,,,,,,,,,,,SPECI,5.0
KDYS 271808Z 34006KT 10SM -RA BKN015 BKN100 OVC110 17/15 A3005 RMK AO2A LTG DSNT SE-S RAB08 CIG 015V100 BKN015 V SCT SLP152 $,KDYS,2018-03-27T18:08:00Z,32.42,-99.83,17.0,15.0,340,6,,10.0,30.050198,1015.2,,,TRUE,TRUE,,,,,-RA,BKN,1500,BKN,10000,OVC,11000,,,MVFR,,,,,,,,,,,,METAR,545.0
PATL 271808Z AUTO 06007KT 040V100 5SM -SHSN OVC017 M11/M13 A2972 RMK AO2 SLP089,PATL,2018-03-27T18:08:00Z,62.9,-155.97,-11.0,-13.0,60,7,,5.0,29.719488,1008.9,,TRUE,TRUE,,,,,,-SHSN,OVC,1700,,,,,,,MVFR,,,,,,,,,,,,SPECI,294.0
KRFD 271808Z 31013KT 10SM OVC015 07/03 A3002 RMK AO2 T00720033,KRFD,2018-03-27T18:08:00Z,42.2,-89.1,7.2,3.3,310,13,,10.0,30.02067,,,,TRUE,,,,,,,OVC,1500,,,,,,,MVFR,,,,,,,,,,,,SPECI,221.0
KIXD 271808Z 34010KT 10SM BKN015 OVC095 06/03 A3013 RMK AO2 T00560028,KIXD,2018-03-27T18:08:00Z,38.82,-94.88,5.6,2.8,340,10,,10.0,30.129921,,,,TRUE,,,,,,,BKN,1500,OVC,9500,,,,,MVFR,,,,,,,,,,,,SPECI,342.0
KDTO 271808Z 28003KT 9SM -RA BKN005 OVC100 18/18 A3003 RMK AO2 LTG DSNT E P0001 T01780178,KDTO,2018-03-27T18:08:00Z,33.2,-97.2,17.8,17.8,280,3,,9.0,30.029528,,,,TRUE,,,,,,-RA,BKN,500,OVC,10000,,,,,IFR,,,,,,0.01,,,,,,SPECI,196.0
KSUE 271808Z AUTO 28008KT 10SM FEW009 OVC014 06/03 A2991 RMK AO2,KSUE,2018-03-27T18:08:00Z,44.85,-87.42,6.0,3.0,280,8,,10.0,29.911417,,,TRUE,TRUE,,,,,,,FEW,900,OVC,1400,,,,,MVFR,,,,,,,,,,,,SPECI,221.0
KEKY 271808Z AUTO 14006KT 10SM BKN024 OVC037 17/10 A3029 RMK AO2,KEKY,2018-03-27T18:08:00Z,33.32,-86.93,17.0,10.0,140,6,,10.0,30.28937,,,TRUE,TRUE,,,,,,,BKN,2400,OVC,3700,,,,,MVFR,,,,,,,,,,,,SPECI,213.0
KGRF 271808Z AUTO 17013G19KT 10SM -RA SCT014 BKN021 OVC031 M A3034 RMK AO2 CIG 021V032 SLPNO ALSTG ESTMD RVRNO $,KGRF,2018-03-27T18:08:00Z,47.07,-122.57,,,170,13,19,10.0,30.339567,,,TRUE,TRUE,TRUE,,,,,-RA,SCT,1400,BKN,2100,OVC,3100,,,MVFR,,,,,,,,,,,,SPECI,92.0
PASN 271807Z AUTO 27021KT 10SM FEW009 SCT016 BKN030 00/M02 A2975 RMK AO2 PK WND 26026/1804 UPB1756E1758SNE1756 P0000 T00001017 TSNO,PASN,2018-03-27T18:07:00Z,57.15,-170.22,0.0,-1.7,270,21,,10.0,29.749016,,,TRUE,TRUE,,,TRUE,,,,FEW,900,SCT,1600,BKN,3000,,,MVFR,,,,,,0.005,,,,,,SPECI,29.0
KLEB 271807Z VRB04G19KT 10SM CLR 09/M12 A3040 RMK AO2 WSHFT 1747 T00891117,KLEB,2018-03-27T18:07:00Z,43.63,-72.3,8.9,-11.7,0,4,19,10.0,30.398623,,,,TRUE,,,,,,,CLR,,,,,,,,VFR,,,,,,,,,,,,SPECI,171.0
KRSL 271806Z AUTO 02014KT 10SM SCT025 09/02 A3015 RMK AO2 T00940017,KRSL,2018-03-27T18:06:00Z,38.87,-98.82,9.4,1.7,20,14,,10.0,30.15059,,,TRUE,TRUE,,,,,,,SCT,2500,,,,,,,VFR,,,,,,,,,,,,SPECI,567.0
KDWU 271806Z AUTO 22008G15KT 10SM OVC031 16/09 A3013 RMK AO2,KDWU,2018-03-27T18:06:00Z,38.55,-82.73,16.0,9.0,220,8,15,10.0,30.129921,,,TRUE,TRUE,,,,,,,OVC,3100,,,,,,,VFR,,,,,,,,,,,,SPECI,166.0
KCPW 271806Z AUTO 35012G17KT 3/4SM -SN OVC004 M10/M10 A3011 RMK AO2,KCPW,2018-03-27T18:06:00Z,37.45,-106.8,-10.0,-10.0,350,12,17,0.75,30.109253,,,TRUE,TRUE,,,,,,-SN,OVC,400,,,,,,,LIFR,,,,,,,,,,,,METAR,3584.0
KDTW 271806Z 22014KT 2SM -RA BR OVC007 11/09 A2996 RMK AO2 P0000 T01060089,KDTW,2018-03-27T18:06:00Z,42.23,-83.33,10.6,8.9,220,14,,2.0,29.958662,,,,TRUE,,,,,,-RA BR,OVC,700,,,,,,,IFR,,,,,,0.005,,,,,,SPECI,195.0
KELZ 271806Z AUTO 17013G22KT 10SM BKN020 BKN043 OVC055 01/M01 A3016 RMK AO2 T00111011,KELZ,2018-03-27T18:06:00Z,42.1,-77.98,1.1,-1.1,170,13,22,10.0,30.159449,,,TRUE,TRUE,,,,,,,BKN,2000,BKN,4300,OVC,5500,,,MVFR,,,,,,,,,,,,SPECI,646.0
KSSI 271806Z AUTO 04011KT 10SM BKN009 OVC033 18/14 A3035 RMK AO2 T01780144,KSSI,2018-03-27T18:06:00Z,31.15,-81.38,17.8,14.4,40,11,,10.0,30.351377,,,TRUE,TRUE,,,,,,,BKN,900,OVC,3300,,,,,IFR,,,,,,,,,,,,SPECI,6.0
PACZ 271806Z AUTO 17001KT 8SM -PL BKN002 M02/M02 A2948 RMK AO2 SLP992,PACZ,2018-03-27T18:06:00Z,61.78,-166.03,-2.0,-2.0,170,1,,8.0,29.480314,999.2,,TRUE,TRUE,,,,,,-PL,BKN,200,,,,,,,LIFR,,,,,,,,,,,,SPECI,146.0
K1V6 271805Z AUTO 29006KT 10SM BKN031 BKN043 BKN050 02/01 A3019 RMK AO2,K1V6,2018-03-27T18:05:00Z,38.43,-105.1,2.0,1.0,290,6,,10.0,30.188976,,,TRUE,TRUE,,,,,,,BKN,3100,BKN,4300,BKN,5000,,,VFR,,,,,,,,,,,,METAR,1658.0
CYCO 271805Z VRB02KT 15SM IC FEW025 FEW090 M35/M39 A3006 RMK SC1AS1 SC TR AS TR SLP184,CYCO,2018-03-27T18:05:00Z,67.82,-115.15,-35.0,-39.0,0,2,,15.0,30.059055,1018.4,,,,,,,,,IC,FEW,2500,FEW,9000,,,,,VFR,,,,,,,,,,,,SPECI,22.0
PAEM 271805Z AUTO 09008KT 9SM -SN BKN025 OVC042 M04/M07 A2956 RMK AO2 P0000 FZRANO,PAEM,2018-03-27T18:05:00Z,62.78,-164.48,-4.0,-7.0,90,8,,9.0,29.56004,,,TRUE,TRUE,,,,TRUE,,-SN,BKN,2500,OVC,4200,,,,,MVFR,,,,,,0.005,,,,,,SPECI,3.0
KOLM 271805Z 20012G20KT 4SM -RA BR BKN009 BKN014 OVC022 09/08 A3034 RMK AO2 P0001 T00890083,KOLM,2018-03-27T18:05:00Z,46.97,-122.9,8.9,8.3,200,12,20,4.0,30.339567,,,,TRUE,,,,,,-RA BR,BKN,900,BKN,1400,OVC,2200,,,IFR,,,,,,0.01,,,,,,SPECI,58.0
KMRB 271805Z 14005KT 6SM -RA BR BKN013 BKN032 OVC085 04/02 A3038 RMK AO2 CIG 009V022 P0000 T00390022,KMRB,2018-03-27T18:05:00Z,39.4,-77.98,3.9,2.2,140,5,,6.0,30.380905,,,,TRUE,,,,,,-RA BR,BKN,1300,BKN,3200,OVC,8500,,,MVFR,,,,,,0.005,,,,,,SPECI,164.0
PAPM 271805Z AUTO 19017KT 3SM BR OVC003 M01/M01 A2952 RMK AO2 FZRANO,PAPM,2018-03-27T18:05:00Z,59.02,-161.82,-1.0,-1.0,190,17,,3.0,29.518702,,,TRUE,TRUE,,,,TRUE,,BR,OVC,300,,,,,,,LIFR,,,,,,,,,,,,SPECI,5.0
KGCK 271804Z 02013KT 10SM SCT023 BKN110 07/00 A3016 RMK AO2 T00670000,KGCK,2018-03-27T18:04:00Z,37.92,-100.72,6.7,0.0,20,13,,10.0,30.159449,,,,TRUE,,,,,,,SCT,2300,BKN,11000,,,,,VFR,,,,,,,,,,,,SPECI,877.0
KAFW 271804Z 00000KT 3SM RA BR FEW005 OVC100 18/17 A3004 RMK AO2 TWR VIS 5 LTG DSNT E P0002 T01780172,KAFW,2018-03-27T18:04:00Z,32.97,-97.32,17.8,17.2,0,0,,3.0,30.041338,,,,TRUE,,,,,,RA BR,FEW,500,OVC,10000,,,,,MVFR,,,,,,0.02,,,,,,SPECI,233.0
CYDC 271804Z 00000KT 20SM -RA SCT039 BKN070 BKN080 04/02 A3006 RMK SC4AC3AC1 AC TR SLP197,CYDC,2018-03-27T18:04:00Z,49.47,-120.52,4.0,2.0,0,0,,20.0,30.059055,1019.7,,,,,,,,,-RA,SCT,3900,BKN,7000,BKN,8000,,,VFR,,,,,,,,,,,,SPECI,700.0
EBFS 271804Z 20013KT 7000 -RADZ SCT005 OVC008 06/05 Q1005 YLO YLO TEMPO AMB,EBFS,2018-03-27T18:04:00Z,50.22,4.65,6.0,5.0,200,13,,4.35,29.675198,,,,,,,,,,-RA -DZ,SCT,500,OVC,800,,,,,IFR,,,,,,,,,,,,METAR,299.0
K2DP 271804Z AUTO 04007KT 9SM BKN070 BKN170 12/04 A3041 RMK AO2 RAB02E04 SLPNO $,K2DP,2018-03-27T18:04:00Z,35.68,-75.9,12.0,4.0,40,7,,9.0,30.410433,,,TRUE,TRUE,TRUE,,,,,,BKN,7000,BKN,17000,,,,,VFR,,,,,,,,,,,,SPECI,3.0
KMGM 271804Z 10006KT 10SM OVC030 20/12 A3029 RMK AO2 T02000122,KMGM,2018-03-27T18:04:00Z,32.3,-86.4,20.0,12.2,100,6,,10.0,30.28937,,,,TRUE,,,,,,,OVC,3000,,,,,,,MVFR,,,,,,,,,,,,SPECI,63.0
KSMP 271803Z AUTO 23008G21KT 170V360 1 1/2SM -SN BR OVC006 02/01 A3019 RMK AO2 P0001 T00170011 ,KSMP,2018-03-27T18:03:00Z,47.28,-121.33,1.7,1.1,230,8,21,1.5,30.188976,,,TRUE,TRUE,,,,,,-SN BR,OVC,600,,,,,,,IFR,,,,,,0.01,,,,,,SPECI,1208.0
PAPG 271803Z 22005KT 10SM -RA OVC021 04/02 A2998 RMK AO2 P0000,PAPG,2018-03-27T18:03:00Z,56.82,-132.97,4.0,2.0,220,5,,10.0,29.97933,,,,TRUE,,,,,,-RA,OVC,2100,,,,,,,MVFR,,,,,,0.005,,,,,,SPECI,15.0
PAGN 271803Z AUTO 00000KT 10SM -RA SCT010 OVC028 02/M01 A2995 RMK AO2 P0000 FZRANO,PAGN,2018-03-27T18:03:00Z,57.5,-134.58,2.0,-1.0,0,0,,10.0,29.949802,,,TRUE,TRUE,,,,TRUE,,-RA,SCT,1000,OVC,2800,,,,,MVFR,,,,,,0.005,,,,,,SPECI,2.0
KPLN 271803Z AUTO 23007KT 5SM BR OVC006 05/05 A2983 RMK AO2 CIG 005V011 T00500050,KPLN,2018-03-27T18:03:00Z,45.57,-84.8,5.0,5.0,230,7,,5.0,29.828741,,,TRUE,TRUE,,,,,,BR,OVC,600,,,,,,,IFR,,,,,,,,,,,,SPECI,217.0
KOWB 271803Z 15007KT 10SM -RA OVC041 13/12 A3008 RMK AO2 PNO $,KOWB,2018-03-27T18:03:00Z,37.72,-87.17,13.0,12.0,150,7,,10.0,30.079725,,,,TRUE,TRUE,,,,,-RA,OVC,4100,,,,,,,VFR,,,,,,,,,,,,SPECI,124.0
EBFN 271803Z 29003KT 4000 OVC006 09/09 Q1005 YLO YLO TEMPO GRN,EBFN,2018-03-27T18:03:00Z,51.07,2.63,9.0,9.0,290,3,,2.49,29.675198,,,,,,,,,,,OVC,600,,,,,,,IFR,,,,,,,,,,,,METAR,9.0
KMSP 271803Z 28011KT 10SM OVC015 03/00 A3007 RMK AO2 T00280000,KMSP,2018-03-27T18:03:00Z,44.88,-93.23,2.8,0.0,280,11,,10.0,30.070866,,,,TRUE,,,,,,,OVC,1500,,,,,,,MVFR,,,,,,,,,,,,SPECI,265.0
KICT 271803Z 02010KT 10SM -RA BKN017 BKN060 OVC080 07/03 A3014 RMK AO2 P0000 T00670033,KICT,2018-03-27T18:03:00Z,37.65,-97.43,6.7,3.3,20,10,,10.0,30.138779,,,,TRUE,,,,,,-RA,BKN,1700,BKN,6000,OVC,8000,,,MVFR,,,,,,0.005,,,,,,SPECI,407.0
CYTS 271803Z 16008KT 3SM -RASN SCT005 BKN008 OVC011 00/M00 A2978 RMK SC3SC4SC1 SLP102,CYTS,2018-03-27T18:03:00Z,48.57,-81.37,0.0,0.0,160,8,,3.0,29.778543,1010.2,,,,,,,,,-RA -SN,SCT,500,BKN,800,OVC,1100,,,IFR,,,,,,,,,,,,SPECI,295.0
CYBQ 271803Z AUTO 33015G22KT 3SM -SN CLR M20/M25 A2977 RMK SLP118,CYBQ,2018-03-27T18:03:00Z,58.7,-98.5,-20.0,-25.0,330,15,22,3.0,29.769686,1011.8,,TRUE,,,,,,,-SN,CLR,,,,,,,,MVFR,,,,,,,,,,,,SPECI,262.0
KDAA 271802Z AUTO 22005KT 10SM SCT055 BKN070 07/M01 A3045 RMK AO2 RAE00DZB00E02 SLP315 $,KDAA,2018-03-27T18:02:00Z,38.72,-77.17,7.0,-1.0,220,5,,10.0,30.448818,1031.5,,TRUE,TRUE,TRUE,,,,,,SCT,5500,BKN,7000,,,,,VFR,,,,,,,,,,,,SPECI,21.0
KTIW 271802Z 19017G27KT 3SM -RA BR BKN011 OVC018 08/08 A3031 RMK AO2 PK WND 19027/1802 P0000 T00830078,KTIW,2018-03-27T18:02:00Z,47.27,-122.58,8.3,7.8,190,17,27,3.0,30.31004,,,,TRUE,,,,,,-RA BR,BKN,1100,OVC,1800,,,,,MVFR,,,,,,0.005,,,,,,SPECI,89.0
KBMG 271802Z 21011KT 4SM BR OVC006 12/11 A3006 RMK AO2 T01220111,KBMG,2018-03-27T18:02:00Z,39.15,-86.62,12.2,11.1,210,11,,4.0,30.059055,,,,TRUE,,,,,,BR,OVC,600,,,,,,,IFR,,,,,,,,,,,,SPECI,257.0
KEVM 271802Z AUTO 26008KT 10SM BKN019 BKN024 02/M03 A2995 RMK AO2,KEVM,2018-03-27T18:02:00Z,47.42,-92.5,2.0,-3.0,260,8,,10.0,29.949802,,,TRUE,TRUE,,,,,,,BKN,1900,BKN,2400,,,,,MVFR,,,,,,,,,,,,SPECI,421.0
KPIA 271802Z 31006KT 7SM BKN011 BKN041 OVC050 05/03 A3006 RMK AO2 T00500028,KPIA,2018-03-27T18:02:00Z,40.67,-89.68,5.0,2.8,310,6,,7.0,30.059055,,,,TRUE,,,,,,,BKN,1100,BKN,4100,OVC,5000,,,MVFR,,,,,,,,,,,,SPECI,205.0
KMTC 271801Z 19007KT 3SM -RA BR OVC006 08/08 A2994 RMK AO2A RAB01 SLP146,KMTC,2018-03-27T18:01:00Z,42.62,-82.82,8.0,8.0,190,7,,3.0,29.940945,1014.6,,,TRUE,,,,,,-RA BR,OVC,600,,,,,,,IFR,,,,,,,,,,,,SPECI,177.0
PAMO 271801Z AUTO 06012KT 9SM BKN023 OVC034 M04/M07 A2953 RMK AO2 SNE1759 SLP009 P0000 60000 T10441072 11044 21061 53011 FZRANO,PAMO,2018-03-27T18:01:00Z,62.1,-163.68,-4.4,-7.2,60,12,,9.0,29.530512,1000.9,,TRUE,TRUE,,,,TRUE,,,BKN,2300,OVC,3400,,,,,MVFR,1.1,-4.4,-6.1,,,0.005,,0.005,,,,SPECI,103.0
PAFS 271801Z AUTO 05006KT 9SM -SN OVC033 M10/M15 A2974 RMK AO2 SNB1716171517161714 SLP093 P0000 60000 T11001150 11100 21172 53009 FZRANO,PAFS,2018-03-27T18:01:00Z,63.02,-154.35,-10.0,-15.0,50,6,,9.0,29.740158,1009.3,,TRUE,TRUE,,,,TRUE,,-SN,OVC,3300,,,,,,,VFR,0.9,-10.0,-17.2,,,0.005,,0.005,,,,SPECI,126.0
KBLV 271801Z AUTO 25004KT 6SM -RA BR SCT005 OVC009 16/15 A3002 RMK AO2 CIG 006V009 CIG 004 RWY14L CIG 004 RWY32L CIG 004 RWY32R SLP168 $,KBLV,2018-03-27T18:01:00Z,38.53,-89.83,16.0,15.0,250,4,,6.0,30.02067,1016.8,,TRUE,TRUE,TRUE,,,,,-RA BR,SCT,500,OVC,900,,,,,IFR,,,,,,,,,,,,SPECI,138.0
KAOO 271801Z AUTO 18008KT 8SM -RA OVC011 01/M01 A3030 RMK AO2 CIG 008V012 P0001 T00111006,KAOO,2018-03-27T18:01:00Z,40.3,-78.32,1.1,-0.6,180,8,,8.0,30.301182,,,TRUE,TRUE,,,,,,-RA,OVC,1100,,,,,,,MVFR,,,,,,0.01,,,,,,SPECI,455.0
UBBL 271800Z VRB02KT 5000 BR NSC 09/08 Q1014 R33/CLRD// NOSIG RMK MT OP,UBBL,2018-03-27T18:00:00Z,38.75,48.82,9.0,8.0,0,2,,3.11,29.940945,,,,,,TRUE,,,,BR,CLR,,,,,,,,MVFR,,,,,,,,,,,,METAR,10.0
SCEL 271800Z METAR 18009KT 140V230 CAVOK 30/M04 Q1011 NOSIG,SCEL,2018-03-27T18:00:00Z,-33.37,-70.77,30.0,-4.0,180,9,,6.21,29.852362,,,,,,TRUE,,,,,CAVOK,,,,,,,,VFR,,,,,,,,,,,,SPECI,476.0
NFFN 271800Z 00000KT 9999 FEW028 SCT048 BKN110 24/23 Q1008 NOSIG ,NFFN,2018-03-27T18:00:00Z,-17.75,177.45,24.0,23.0,0,0,,6.21,29.763779,,,,,,TRUE,,,,,FEW,2800,SCT,4800,BKN,11000,,,VFR,,,,,,,,,,,,METAR,18.0
HLLB 271800Z 36020G30KT 8000 SCT020 BKN200 15/11 Q1014,HLLB,2018-03-27T18:00:00Z,32.07,20.27,15.0,11.0,360,20,30,4.97,29.940945,,,,,,,,,,,SCT,2000,BKN,20000,,,,,MVFR,,,,,,,,,,,,METAR,132.0
SBFL 271800Z 12006KT 9999 BKN035 26/21 Q1015,SBFL,2018-03-27T18:00:00Z,-27.67,-48.53,26.0,21.0,120,6,,6.21,29.970472,,,,,,,,,,,BKN,3500,,,,,,,VFR,,,,,,,,,,,,METAR,5.0
YPBO 271800Z AUTO 15003KT 9999 // NCD 30/10 Q1012,YPBO,2018-03-27T18:00:00Z,-23.2,117.75,30.0,10.0,150,3,,6.21,29.88189,,,TRUE,,,,,,,,CLR,,,,,,,,VFR,,,,,,,,,,,,METAR,1292.0
YOLD 271800Z AUTO 02006KT 9999 // NCD 19/M00 Q1012,YOLD,2018-03-27T18:00:00Z,-30.48,136.88,19.0,0.0,20,6,,6.21,29.88189,,,TRUE,,,,,,,,CLR,,,,,,,,VFR,,,,,,,,,,,,METAR,105.0
YNWN 271800Z AUTO 16009KT 9999 // NCD 31/09 Q1012,YNWN,2018-03-27T18:00:00Z,-23.42,119.8,31.0,9.0,160,9,,6.21,29.88189,,,TRUE,,,,,,,,CLR,,,,,,,,VFR,,,,,,,,,,,,METAR,525.0
YNTN 271800Z AUTO 11007KT 9999 // SCT012 OVC019 24/24 Q1003,YNTN,2018-03-27T18:00:00Z,-17.68,141.07,24.0,24.0,110,7,,6.21,29.616142,,,TRUE,,,,,,,,SCT,1200,OVC,1900,,,,,MVFR,,,,,,,,,,,,METAR,22.0
YNBR 271800Z AUTO 00000KT 9999 // NCD 16/13 Q1014,YNBR,2018-03-27T18:00:00Z,-30.32,149.83,16.0,13.0,0,0,,6.21,29.940945,,,TRUE,,,,,,,,CLR,,,,,,,,VFR,,,,,,,,,,,,METAR,240.0
YSNW 271800Z 30001KT CAVOK 13/13 Q1015,YSNW,2018-03-27T18:00:00Z,-34.95,150.52,13.0,13.0,300,1,,6.21,29.970472,,,,,,,,,,,CAVOK,,,,,,,,VFR,,,,,,,,,,,,METAR,110.0
YRMD 271800Z AUTO 09015KT 9999 // BKN110 27/21 Q1007,YRMD,2018-03-27T18:00:00Z,-20.7,143.12,27.0,21.0,90,15,,6.21,29.734253,,,TRUE,,,,,,,,BKN,11000,,,,,,,VFR,,,,,,,,,,,,METAR,207.0
YBPN 271800Z AUTO 15011KT 9999 // SCT018 BKN026 OVC034 26/23 Q1008,YBPN,2018-03-27T18:00:00Z,-20.5,148.55,26.0,23.0,150,11,,6.21,29.763779,,,TRUE,,,,,,,,SCT,1800,BKN,2600,OVC,3400,,,MVFR,,,,,,,,,,,,METAR,25.0
YBOK 271800Z AUTO 13004KT 9999 // SCT039 19/16 Q1015,YBOK,2018-03-27T18:00:00Z,-27.42,151.72,19.0,16.0,130,4,,6.21,29.970472,,,TRUE,,,,,,,,SCT,3900,,,,,,,VFR,,,,,,,,,,,,METAR,407.0
YBNA 271800Z AUTO 15003KT 9999 // BKN017 22/21 Q1014,YBNA,2018-03-27T18:00:00Z,-28.83,153.57,22.0,21.0,150,3,,6.21,29.940945,,,TRUE,,,,,,,,BKN,1700,,,,,,,MVFR,,,,,,,,,,,,METAR,2.0
YBMK 271800Z AUTO 14014KT 9999 // SCT022 BKN033 BKN042 26/23 Q1008,YBMK,2018-03-27T18:00:00Z,-21.17,149.17,26.0,23.0,140,14,,6.21,29.763779,,,TRUE,,,,,,,,SCT,2200,BKN,3300,BKN,4200,,,VFR,,,,,,,,,,,,METAR,31.0
YBHI 271800Z AUTO 36006KT 9999 // NCD 18/M03 Q1014,YBHI,2018-03-27T18:00:00Z,-32.0,141.47,18.0,-3.0,360,6,,6.21,29.940945,,,TRUE,,,,,,,,CLR,,,,,,,,VFR,,,,,,,,,,,,METAR,292.0
YESP 271800Z AUTO 35005KT 320V030 9999 // NCD 11/09 Q1017,YESP,2018-03-27T18:00:00Z,-33.68,121.82,11.0,9.0,350,5,,6.21,30.029528,,,TRUE,,,,,,,,CLR,,,,,,,,VFR,,,,,,,,,,,,METAR,143.0
YEML 271800Z AUTO 15005KT 9999 // SCT030 22/22 Q1012,YEML,2018-03-27T18:00:00Z,-23.57,148.18,22.0,22.0,150,5,,6.21,29.88189,,,TRUE,,,,,,,,SCT,3000,,,,,,,VFR,,,,,,,,,,,,METAR,190.0
YDBY 271800Z AUTO 20005KT 160V220 9999 // NCD 27/27 Q1005,YDBY,2018-03-27T18:00:00Z,-17.37,123.67,27.0,27.0,200,5,,6.21,29.675198,,,TRUE,,,,,,,,CLR,,,,,,,,VFR,,,,,,,,,,,,METAR,7.0
YCOM 271800Z AUTO 05007KT 9999 // OVC110 12/09 Q1016,YCOM,2018-03-27T18:00:00Z,-36.3,148.97,12.0,9.0,50,7,,6.21,30.0,,,TRUE,,,,,,,,OVC,11000,,,,,,,VFR,,,,,,,,,,,,METAR,941.0
YCNM 271800Z AUTO 06007KT //// // ////// 17/15 Q1014,YCNM,2018-03-27T18:00:00Z,-30.98,148.38,17.0,15.0,60,7,,,29.940945,,,TRUE,,,,,,,,,,,,,,,,,,,,,,,,,,,,METAR,184.0
YCDU 271800Z AUTO 19009KT 9999 // OVC023 OVC029 19/16 Q1014,YCDU,2018-03-27T18:00:00Z,-32.12,133.7,19.0,16.0,190,9,,6.21,29.940945,,,TRUE,,,,,,,,OVC,2300,OVC,2900,,,,,MVFR,,,,,,,,,,,,METAR,15.0
YLIS 271800Z AUTO 13004KT 090V160 9999 // SCT011 BKN022 BKN027 19/18 Q1015,YLIS,2018-03-27T18:00:00Z,-28.83,153.27,19.0,18.0,130,4,,6.21,29.970472,,,TRUE,,,,,,,,SCT,1100,BKN,2200,BKN,2700,,,MVFR,,,,,,,,,,,,METAR,11.0
YLEC 271800Z AUTO 27005KT //// // ////// 16/M03 Q1014,YLEC,2018-03-27T18:00:00Z,-30.6,138.43,16.0,-3.0,270,5,,,29.940945,,,TRUE,,,,,,,,,,,,,,,,,,,,,,,,,,,,METAR,262.0
YHUG 271800Z AUTO 11008KT 9999 // SCT058 OVC110 24/20 Q1008,YHUG,2018-03-27T18:00:00Z,-20.82,144.23,24.0,20.0,110,8,,6.21,29.763779,,,TRUE,,,,,,,,SCT,5800,OVC,11000,,,,,VFR,,,,,,,,,,,,METAR,318.0
YGTH 271800Z AUTO 10008KT 9999 // ////// 12/02 Q1014,YGTH,2018-03-27T18:00:00Z,-34.25,146.07,12.0,2.0,100,8,,6.21,29.940945,,,TRUE,,,,,,,,,,,,,,,,,,,,,,,,,,,,METAR,134.0
YGTE 271800Z AUTO 11001KT 9999 // NCD 23/22 Q1005,YGTE,2018-03-27T18:00:00Z,-13.97,136.45,23.0,22.0,110,1,,6.21,29.675198,,,TRUE,,,,,,,,CLR,,,,,,,,VFR,,,,,,,,,,,,METAR,14.0
YGFN 271800Z AUTO 21004KT 9999 // NCD 19/17 Q1015,YGFN,2018-03-27T18:00:00Z,-29.77,153.03,19.0,17.0,210,4,,6.21,29.970472,,,TRUE,,,,,,,,CLR,,,,,,,,VFR,,,,,,,,,,,,METAR,34.0
GOTK 271800Z 08004KT CAVOK 39/03 Q1008,GOTK,2018-03-27T18:00:00Z,12.57,-12.22,39.0,3.0,80,4,,6.21,29.763779,,,,,,,,,,,CAVOK,,,,,,,,VFR,,,,,,,,,,,,METAR,167.0
MPSM 271800Z 01016KT 330V040 9999 FEW020 34/21 Q1009,MPSM,2018-03-27T18:00:00Z,8.35,-80.13,34.0,21.0,10,16,,6.21,29.793306,,,,,,,,,,,FEW,2000,,,,,,,VFR,,,,,,,,,,,,METAR,0.0
MPBO 271800Z 03007KT 9999 FEW020 SCT090 ///// Q1015,MPBO,2018-03-27T18:00:00Z,9.35,-82.25,,,30,7,,6.21,29.970472,,,,,,,,,,,FEW,2000,SCT,9000,,,,,VFR,,,,,,,,,,,,SPECI,3.0
MPDA 271800Z 19006KT 9999 FEW025 33/20 Q1007,MPDA,2018-03-27T18:00:00Z,8.4,-82.43,33.0,20.0,190,6,,6.21,29.734253,,,,,,,,,,,FEW,2500,,,,,,,VFR,,,,,,,,,,,,METAR,27.0
MPPA 271800Z 02026KT 9000 FEW020 34/// Q1009,MPPA,2018-03-27T18:00:00Z,8.92,-79.6,,,20,26,,5.59,29.793306,,,,,,,,,,,FEW,2000,,,,,,,VFR,,,,,,,,,,,,METAR,13.0
MPMG 271800Z 36013KT 9000 SCT020 32/22 Q1010 NOSIG,MPMG,2018-03-27T18:00:00Z,8.98,-79.57,32.0,22.0,360,13,,5.59,29.822834,,,,,,TRUE,,,,,SCT,2000,,,,,,,VFR,,,,,,,,,,,,METAR,13.0
CWDQ 271800Z AUTO 17009G20KT 07/M12 RMK AO1 SOG 45 6042 PK WND 18021/1716 SLP273 T00721120,CWDQ,2018-03-27T18:00:00Z,47.42,-72.78,7.2,-12.0,170,9,20,,,1027.3,,TRUE,TRUE,,,,,,,,,,,,,,,,,,,,,,,,,,,METAR,169.0
CWDO 271800Z AUTO 25008KT 07/M09 RMK AO1 SOG 73 6006 SLP368 T00691090,CWDO,2018-03-27T18:00:00Z,49.67,-54.78,6.9,-9.0,250,8,,,,1036.8,,TRUE,TRUE,,,,,,,,,,,,,,,,,,,,,,,,,,,METAR,92.0
CWDM 271800Z AUTO 21010KT 01/M03 RMK AO1 SOG 49 8012 SLP361 T00061029,CWDM,2018-03-27T18:00:00Z,50.47,-59.62,0.6,-2.9,210,10,,,,1036.1,,TRUE,TRUE,,,,,,,,,,,,,,,,,,,,,,,,,,,METAR,6.0
CWER 271800Z AUTO 03005KT RMK AO1,CWER,2018-03-27T18:00:00Z,47.0,-70.82,,,30,5,,,,,,TRUE,TRUE,,,,,,,,,,,,,,,,,,,,,,,,,,,METAR,5.0
CWPK 271800Z AUTO 17012G22KT 06/M13 RMK AO1 SOG 54 6044 PK WND 16022/1754 SLP226 T00601132,CWPK,2018-03-27T18:00:00Z,47.92,-74.62,6.0,-13.2,170,12,22,,,1022.6,,TRUE,TRUE,,,,,,,,,,,,,,,,,,,,,,,,,,,METAR,442.0
CXSE 271800Z AUTO 28011KT M34/M38 RMK AO1 SOG 49 2009 SLP157 T13401376,CXSE,2018-03-27T18:00:00Z,73.77,-105.28,-34.0,-37.6,280,11,,,,1015.7,,TRUE,TRUE,,,,,,,,,,,,,,,,,,,,,,,,,,,METAR,11.0
CXRB 271800Z AUTO M24/M27 RMK AO1 SOG 03 3009 SLP088 T12411267,CXRB,2018-03-27T18:00:00Z,74.72,-94.98,-24.1,-26.7,,,,,,1008.8,,TRUE,TRUE,,,,,,,,,,,,,,,,,,,,,,,,,,,METAR,68.0
CWWK 271800Z AUTO 17007KT 09/07 RMK AO1 PK WND 18019/1704 SLP232 T00910073 53004,CWWK,2018-03-27T18:00:00Z,49.02,-122.78,9.1,7.3,170,7,,,,1023.2,,TRUE,TRUE,,,,,,,,,,,,,,,,0.4,,,,,,,,,,,METAR,15.0
CWRT 271800Z AUTO 28011G20KT 04/M02 RMK AO1 PK WND 30032/1733 T00401015,CWRT,2018-03-27T18:00:00Z,49.62,-114.47,4.0,-1.5,280,11,20,,,,,TRUE,TRUE,,,,,,,,,,,,,,,,,,,,,,,,,,,METAR,1303.0
CXEG 271800Z AUTO M02/M03 RMK AO1 T10191026,CXEG,2018-03-27T18:00:00Z,53.3,-113.6,-1.9,-2.6,,,,,,,,TRUE,TRUE,,,,,,,,,,,,,,,,,,,,,,,,,,,METAR,715.0
CXDE 271800Z AUTO 28010KT M16/M26 RMK AO1 SLP175 T11611259 51006,CXDE,2018-03-27T18:00:00Z,65.22,-123.43,-16.1,-25.9,280,10,,,,1017.5,,TRUE,TRUE,,,,,,,,,,,,,,,,0.6,,,,,,,,,,,METAR,213.0
CZDB 271800Z AUTO 05014G20KT 07/M06 RMK AO1 SOG 06 6031 PK WND 05020/1755 SLP320 T00731060,CZDB,2018-03-27T18:00:00Z,45.42,-63.47,7.3,-6.0,50,14,20,,,1032.0,,TRUE,TRUE,,,,,,,,,,,,,,,,,,,,,,,,,,,METAR,38.0
CXNP 271800Z AUTO 04008G16KT 04/M06 RMK AO1 SOG 50 6033 SLP334 T00401064,CXNP,2018-03-27T18:00:00Z,45.75,-64.23,4.0,-6.4,40,8,16,,,1033.4,,TRUE,TRUE,,,,,,,,,,,,,,,,,,,,,,,,,,,METAR,20.0
CAHR 271800Z AUTO 02009KT 01/M04 RMK AO1 SOG 31 6030 SLP341 T00101036,CAHR,2018-03-27T18:00:00Z,46.35,-63.17,1.0,-3.6,20,9,,,,1034.1,,TRUE,TRUE,,,,,,,,,,,,,,,,,,,,,,,,,,,METAR,53.0
CWFF 271800Z AUTO 06011G19KT M11/M15 RMK AO1 SOG 31 6013 PK WND 06019/1755 SLP129 T11141149,CWFF,2018-03-27T18:00:00Z,52.82,-104.58,-11.4,-14.9,60,11,19,,,1012.9,,TRUE,TRUE,,,,,,,,,,,,,,,,,,,,,,,,,,,METAR,490.0
CWEZ 271800Z AUTO 20023KT 09/08 RMK AO1 5000 PK WND 21029/1715 SLP219 T00940078 50002,CWEZ,2018-03-27T18:00:00Z,48.78,-123.05,9.4,7.8,200,23,,,,1021.9,,TRUE,TRUE,,,,,,,,,,,,,,,,0.2,,,,,,,,,,,METAR,7.0
CWWS 271800Z AUTO 33022KT M09/M13 RMK AO1 1PAST HR SOG 83 1018 PK WND 33026/1734 SLP125 P0000 T10871131 50003,CWWS,2018-03-27T18:00:00Z,52.82,-97.62,-8.7,-13.1,330,22,,,,1012.5,,TRUE,TRUE,,,,,,,,,,,,,,,,0.3,,,,,0.005,,,,,,METAR,223.0
CWJH 271800Z AUTO 05004KT M15/ RMK AO1 SOG 63 8006 SLP163 T1152 50007,CWJH,2018-03-27T18:00:00Z,56.32,-103.27,-15.2,,50,4,,,,1016.3,,TRUE,TRUE,,,,,,,,,,,,,,,,0.7,,,,,,,,,,,METAR,344.0
CWIS 271800Z AUTO 17007KT 04/M18 RMK AO1 SOG 103 8033 SLP300 T00421175,CWIS,2018-03-27T18:00:00Z,47.28,-70.63,4.2,-17.5,170,7,,,,1030.0,,TRUE,TRUE,,,,,,,,,,,,,,,,,,,,,,,,,,,METAR,719.0
CWHQ 271800Z AUTO 11007KT 08/M11 RMK AO1 T00811106,CWHQ,2018-03-27T18:00:00Z,46.68,-71.97,8.1,-10.6,110,7,,,,,,TRUE,TRUE,,,,,,,,,,,,,,,,,,,,,,,,,,,METAR,55.0
CWDZ 271800Z AUTO 31006KT 02/M04 RMK AO1 T00151036,CWDZ,2018-03-27T18:00:00Z,51.42,-112.67,1.5,-3.6,310,6,,,,,,TRUE,TRUE,,,,,,,,,,,,,,,,,,,,,,,,,,,METAR,678.0
CWDK 271800Z AUTO 28020G27KT 07/M04 RMK AO1 SOG 00 6020 PK WND 27037/1710 SLP053 T00681039,CWDK,2018-03-27T18:00:00Z,50.02,-113.62,6.8,-3.9,280,20,27,,,1005.3,,TRUE,TRUE,,,,,,,,,,,,,,,,,,,,,,,,,,,METAR,1012.0
CWBO 271800Z AUTO 26016KT 04/M02 RMK AO1 SOG 11 6016 PK WND 25023/1728 SLP033 T00351017,CWBO,2018-03-27T18:00:00Z,50.53,-111.83,3.5,-1.7,260,16,,,,1003.3,,TRUE,TRUE,,,,,,,,,,,,,,,,,,,,,,,,,,,METAR,747.0
HKWJ 271800Z 00000KT CAVOK 30/22 Q1008,HKWJ,2018-03-27T18:00:00Z,1.75,40.07,30.0,22.0,0,0,,6.21,29.763779,,,,,,,,,,,CAVOK,,,,,,,,VFR,,,,,,,,,,,,METAR,244.0
SAZN 271800Z 18002KT CAVOK 2706 Q1009,SAZN,2018-03-27T18:00:00Z,-38.95,-68.15,,,180,2,,6.21,29.793306,,,,,,,,,,,CAVOK,,,,,,,,VFR,,,,,,,,,,,,METAR,271.0
SAOC 271800Z 36017KT CAVOK 26/08 Q1015,SAOC,2018-03-27T18:00:00Z,-33.12,-64.27,26.0,8.0,360,17,,6.21,29.970472,,,,,,,,,,,CAVOK,,,,,,,,VFR,,,,,,,,,,,,METAR,421.0
TKPN 271800Z 08011KT 9999 FEW023 29/20 Q1014,TKPN,2018-03-27T18:00:00Z,17.18,-62.57,29.0,20.0,80,11,,6.21,29.940945,,,,,,,,,,,FEW,2300,,,,,,,VFR,,,,,,,,,,,,METAR,17.0
LPMT 271800Z 34005KT CAVOK 20/11 Q1026,LPMT,2018-03-27T18:00:00Z,38.7,-9.05,20.0,11.0,340,5,,6.21,30.295275,,,,,,,,,,,CAVOK,,,,,,,,VFR,,,,,,,,,,,,METAR,11.0
LPMR 271800Z 34010KT CAVOK 14/10 Q1028,LPMR,2018-03-27T18:00:00Z,39.82,-8.87,14.0,10.0,340,10,,6.21,30.35433,,,,,,,,,,,CAVOK,,,,,,,,VFR,,,,,,,,,,,,METAR,54.0
LPOV 271800Z 35012KT CAVOK 13/09 Q1027,LPOV,2018-03-27T18:00:00Z,40.92,-8.65,13.0,9.0,350,12,,6.21,30.324802,,,,,,,,,,,CAVOK,,,,,,,,VFR,,,,,,,,,,,,METAR,17.0
FYOW 271800Z AUTO 00000KT //// // ////// 21/17 Q1019,FYOW,2018-03-27T18:00:00Z,-20.43,16.67,21.0,17.0,0,0,,,30.088583,,,TRUE,,,,,,,,,,,,,,,,,,,,,,,,,,,,METAR,1481.0
HRYR 271800Z 00000KT 9999 FEW023CB BKN025 20/18 Q1018 RERA NOSIG,HRYR,2018-03-27T18:00:00Z,-1.97,30.12,20.0,18.0,0,0,,6.21,30.059055,,,,,,TRUE,,,,,FEW,2300,BKN,2500,,,,,MVFR,,,,,,,,,,,,METAR,1497.0
HKNW 271800Z 06005KT 9999 BKN022 19/15 Q1020,HKNW,2018-03-27T18:00:00Z,-1.32,36.82,19.0,15.0,60,5,,6.21,30.11811,,,,,,,,,,,BKN,2200,,,,,,,MVFR,,,,,,,,,,,,METAR,1679.0
HKKI 271800Z 11003KT 9999 SCT020 BKN090 23/18 Q1014,HKKI,2018-03-27T18:00:00Z,-0.1,34.75,23.0,18.0,110,3,,6.21,29.940945,,,,,,,,,,,SCT,2000,BKN,9000,,,,,VFR,,,,,,,,,,,,METAR,1146.0
HKJK 271800Z 05007KT 9999 FEW020 SCT090 19/17 Q1021,HKJK,2018-03-27T18:00:00Z,-1.32,36.92,19.0,17.0,50,7,,6.21,30.147638,,,,,,,,,,,FEW,2000,SCT,9000,,,,,VFR,,,,,,,,,,,,METAR,1624.0
HKEL 271800Z 09007KT 9999 FEW019CB BKN270 17/11 Q1022,HKEL,2018-03-27T18:00:00Z,0.4,35.23,17.0,11.0,90,7,,6.21,30.177166,,,,,,,,,,,FEW,1900,BKN,27000,,,,,VFR,,,,,,,,,,,,METAR,2133.0
FPST 271800Z 35004KT 9999 FEW020CB BKN250 29/26 Q1010 NOSIG,FPST,2018-03-27T18:00:00Z,0.37,6.72,29.0,26.0,350,4,,6.21,29.822834,,,,,,TRUE,,,,,FEW,2000,BKN,25000,,,,,VFR,,,,,,,,,,,,METAR,13.0
FGBT 271800Z 23006KT 9999 SCT010 29/26 Q1010,FGBT,2018-03-27T18:00:00Z,1.88,9.8,29.0,26.0,230,6,,6.21,29.822834,,,,,,,,,,,SCT,1000,,,,,,,VFR,,,,,,,,,,,,METAR,8.0
FGSL 271800Z 24007KT 9999 FEW012 FEW020CB 28/24 Q1010 NOSIG,FGSL,2018-03-27T18:00:00Z,3.75,8.72,28.0,24.0,240,7,,6.21,29.822834,,,,,,TRUE,,,,,FEW,1200,FEW,2000,,,,,VFR,,,,,,,,,,,,METAR,56.0
CYCY 271800Z 32004KT 15SM -SN OVC049 M19/M22 A2982 RMK SC8 SLP103,CYCY,2018-03-27T18:00:00Z,70.47,-68.52,-19.0,-22.0,320,4,,15.0,29.819881,1010.3,,,,,,,,,-SN,OVC,4900,,,,,,,VFR,,,,,,,,,,,,METAR,26.0
CYZT 271800Z 30007KT 5SM -SHRA BKN010 BKN020 OVC040 07/06 A3023 RMK CF5SC1SC2 SLP239,CYZT,2018-03-27T18:00:00Z,50.67,-127.37,7.0,6.0,300,7,,5.0,30.230314,1023.9,,,,,,,,,-SHRA,BKN,1000,BKN,2000,OVC,4000,,,MVFR,,,,,,,,,,,,METAR,22.0
CZEM 271800Z 17011KT 15SM OVC060 06/M06 A2982 RMK SC8 PRESFR SLP100,CZEM,2018-03-27T18:00:00Z,52.22,-78.52,6.0,-6.0,170,11,,15.0,29.819881,1010.0,,,,,,,,,,OVC,6000,,,,,,,VFR,,,,,,,,,,,,METAR,7.0
CYZS 271800Z 07012KT 1 1/2SM -SN OVC030 M24/M28 A2998 RMK SN2SC6 SLP165,CYZS,2018-03-27T18:00:00Z,64.2,-83.37,-24.0,-28.0,70,12,,1.5,29.97933,1016.5,,,,,,,,,-SN,OVC,3000,,,,,,,IFR,,,,,,,,,,,,METAR,64.0
CYYG 271800Z 03012KT 15SM FEW260 03/M03 A3053 RMK CI1 CI TR SLP344,CYYG,2018-03-27T18:00:00Z,46.27,-63.12,3.0,-3.0,30,12,,15.0,30.528543,1034.4,,,,,,,,,,FEW,26000,,,,,,,VFR,,,,,,,,,,,,METAR,54.0
FEFF 271800Z 00000KT 9999 FEW013 24/23 Q1009 NOSIG,FEFF,2018-03-27T18:00:00Z,4.4,18.52,24.0,23.0,0,0,,6.21,29.793306,,,,,,TRUE,,,,,FEW,1300,,,,,,,VFR,,,,,,,,,,,,METAR,366.0
FKKR 271800Z 28006KT 180V320 6000 NSC 37/05 Q1006 NOSIG,FKKR,2018-03-27T18:00:00Z,9.32,13.37,37.0,5.0,280,6,,3.73,29.704725,,,,,,TRUE,,,,,CLR,,,,,,,,MVFR,,,,,,,,,,,,METAR,244.0
FKYS 271800Z /////KT 8000 FEW010 25/22 Q1014 NOSIG,FKYS,2018-03-27T18:00:00Z,3.82,11.52,25.0,22.0,,,,4.97,29.940945,,,,,,TRUE,,,,,FEW,1000,,,,,,,MVFR,,,,,,,,,,,,METAR,760.0
FKKD 271800Z VRB02KT 9999 SCT013 FEW016CB 28/25 Q1009 NOSIG,FKKD,2018-03-27T18:00:00Z,4.0,9.72,28.0,25.0,0,2,,6.21,29.793306,,,,,,TRUE,,,,,SCT,1300,FEW,1600,,,,,VFR,,,,,,,,,,,,METAR,9.0
FCPP 271800Z 06003KT 8000 -RA FEW010 SCT023 FEW030CB 25/24 Q1010 NOSIG,FCPP,2018-03-27T18:00:00Z,-4.82,11.9,25.0,24.0,60,3,,4.97,29.822834,,,,,,TRUE,,,,-RA,FEW,1000,SCT,2300,FEW,3000,,,MVFR,,,,,,,,,,,,METAR,17.0
FCBB 271800Z 25002KT 8000 -TSRA SCT020 FEW026CB 23/23 Q1013 NOSIG,FCBB,2018-03-27T18:00:00Z,-4.25,15.25,23.0,23.0,250,2,,4.97,29.911417,,,,,,TRUE,,,,-TSRA,SCT,2000,FEW,2600,,,,,MVFR,,,,,,,,,,,,METAR,316.0
FZAA 271800Z 27008KT 6000 -TSRA SCT014 FEW028CB OVC100 23/22 Q//// BECMG NSW,FZAA,2018-03-27T18:00:00Z,-4.38,15.45,23.0,22.0,270,8,,3.73,,,,,,,,,,,-TSRA,SCT,1400,FEW,2800,OVC,10000,,,MVFR,,,,,,,,,,,,METAR,312.0
DRRM 271800Z 04004KT CAVOK 37/M08 Q1010,DRRM,2018-03-27T18:00:00Z,13.5,7.12,37.0,-8.0,40,4,,6.21,29.822834,,,,,,,,,,,CAVOK,,,,,,,,VFR,,,,,,,,,,,,METAR,373.0
DRZR 271800Z 36004KT CAVOK 35/M05 Q1010,DRZR,2018-03-27T18:00:00Z,13.77,8.97,35.0,-5.0,360,4,,6.21,29.822834,,,,,,,,,,,CAVOK,,,,,,,,VFR,,,,,,,,,,,,METAR,453.0
FOON 271800Z 02006KT 8000 -TSRA SCT010 FEW016CB OVC033 21/20 Q1013,FOON,2018-03-27T18:00:00Z,-1.63,13.42,21.0,20.0,20,6,,4.97,29.911417,,,,,,,,,,-TSRA,SCT,1000,FEW,1600,OVC,3300,,,MVFR,,,,,,,,,,,,SPECI,441.0
FOOG 271800Z 18003KT 9999 SCT010 FEW020CB 27/24 Q1010,FOOG,2018-03-27T18:00:00Z,-0.7,8.75,27.0,24.0,180,3,,6.21,29.822834,,,,,,,,,,,SCT,1000,FEW,2000,,,,,VFR,,,,,,,,,,,,SPECI,4.0
UTTT 271800Z 24002KT CAVOK 11/10 Q1021 R08R/29//50 NOSIG,UTTT,2018-03-27T18:00:00Z,41.27,69.27,11.0,10.0,240,2,,6.21,30.147638,,,,,,TRUE,,,,,CAVOK,,,,,,,,VFR,,,,,,,,,,,,METAR,489.0
UTST 271800Z 21004KT 9999 FEW066CB 16/07 Q1018 R88/CLRD70 NOSIG,UTST,2018-03-27T18:00:00Z,37.28,67.32,16.0,7.0,210,4,,6.21,30.059055,,,,,,TRUE,,,,,FEW,6600,,,,,,,VFR,,,,,,,,,,,,SPECI,302.0
UTSS 271800Z 12006KT 080V150 6000 NSC 10/07 Q1020 R09/70D NOSIG,UTSS,2018-03-27T18:00:00Z,39.7,66.98,10.0,7.0,120,6,,3.73,30.11811,,,,,,TRUE,,,,,CLR,,,,,,,,MVFR,,,,,,,,,,,,METAR,724.0
UTSK 271800Z 00000KT 9999 FEW050CB 14/10 Q1018 R16/CLRD70,UTSK,2018-03-27T18:00:00Z,38.83,65.77,14.0,10.0,0,0,,6.21,30.059055,,,,,,,,,,,FEW,5000,,,,,,,VFR,,,,,,,,,,,,SPECI,1365.0
UTSB 271800Z 34006KT CAVOK 12/04 Q1018 R01/CLRD70 NOSIG,UTSB,2018-03-27T18:00:00Z,39.77,64.48,12.0,4.0,340,6,,6.21,30.059055,,,,,,TRUE,,,,,CAVOK,,,,,,,,VFR,,,,,,,,,,,,SPECI,226.0
UTSA 271800Z 19002KT 9999 NSC 10/03 Q1018 R07/CLRD70 NOSIG,UTSA,2018-03-27T18:00:00Z,40.12,65.17,10.0,3.0,190,2,,6.21,30.059055,,,,,,TRUE,,,,,CLR,,,,,,,,VFR,,,,,,,,,,,,SPECI,346.0
UTNU 271800Z 07008KT CAVOK 12/01 Q1019 R31/CLRD70 NOSIG,UTNU,2018-03-27T18:00:00Z,41.58,60.63,12.0,1.0,70,8,,6.21,30.088583,,,,,,TRUE,,,,,CAVOK,,,,,,,,VFR,,,,,,,,,,,,SPECI,98.0
UTNN 271800Z 06008KT CAVOK 11/M03 Q1019 R33/CLRD60 NOSIG,UTNN,2018-03-27T18:00:00Z,42.48,59.63,11.0,-3.0,60,8,,6.21,30.088583,,,,,,TRUE,,,,,CAVOK,,,,,,,,VFR,,,,,,,,,,,,SPECI,67.0
UTFN 271800Z 08004KT 040V110 9999 OVC030CB 12/09 Q1020 R28/190060 NOSIG,UTFN,2018-03-27T18:00:00Z,40.98,71.57,12.0,9.0,80,4,,6.21,30.11811,,,,,,TRUE,,,,,OVC,3000,,,,,,,MVFR,,,,,,,,,,,,METAR,490.0
MPTO 271800Z 03010KT 360V060 9999 SCT018TCU SCT090 31/20 Q1010 NOSIG,MPTO,2018-03-27T18:00:00Z,9.05,-79.37,31.0,20.0,30,10,,6.21,29.822834,,,,,,TRUE,,,,,SCT,1800,SCT,9000,,,,,VFR,,,,,,,,,,,,METAR,45.0
MNBL 271800Z 08008KT 9999 SCT017 31/25 Q1013,MNBL,2018-03-27T18:00:00Z,12.0,-83.77,31.0,25.0,80,8,,6.21,29.911417,,,,,,,,,,,SCT,1700,,,,,,,VFR,,,,,,,,,,,,METAR,5.0
MNJU 271800Z 08010KT 9999 SCT020 32/23 Q1012,MNJU,2018-03-27T18:00:00Z,12.08,-85.37,32.0,23.0,80,10,,6.21,29.88189,,,,,,,,,,,SCT,2000,,,,,,,VFR,,,,,,,,,,,,METAR,90.0
MNJG 271800Z 36004KT 9999 BKN020 23/18 Q1012,MNJG,2018-03-27T18:00:00Z,13.08,-86.02,23.0,18.0,360,4,,6.21,29.88189,,,,,,,,,,,BKN,2000,,,,,,,MVFR,,,,,,,,,,,,METAR,985.0
MNRS 271800Z 36010KT 9999 FEW018 30/23 Q1010,MNRS,2018-03-27T18:00:00Z,11.42,-85.82,30.0,23.0,360,10,,6.21,29.822834,,,,,,,,,,,FEW,1800,,,,,,,VFR,,,,,,,,,,,,METAR,53.0
MNPC 271800Z 08006KT 7000 BKN016 30/25 Q1013 HZ,MNPC,2018-03-27T18:00:00Z,14.05,-83.38,30.0,25.0,80,6,,4.35,29.911417,,,,,,,,,,HZ,BKN,1600,,,,,,,MVFR,,,,,,,,,,,,METAR,16.0
GOGK 271800Z VRB02KT 5000 DU NSC 35/13 Q1009,GOGK,2018-03-27T18:00:00Z,12.9,-14.97,35.0,13.0,0,2,,3.11,29.793306,,,,,,,,,,DU,CLR,,,,,,,,MVFR,,,,,,,,,,,,METAR,10.0
GOSM 271800Z 00000KT CAVOK 36/09 Q1009,GOSM,2018-03-27T18:00:00Z,15.6,-13.33,36.0,9.0,0,0,,6.21,29.793306,,,,,,,,,,,CAVOK,,,,,,,,VFR,,,,,,,,,,,,METAR,17.0
GOOG 271800Z 04004KT CAVOK 37/13 Q////,GOOG,2018-03-27T18:00:00Z,15.4,-15.08,37.0,13.0,40,4,,6.21,,,,,,,,,,,,CAVOK,,,,,,,,VFR,,,,,,,,,,,,METAR,21.0
GOSP 271800Z 04002KT CAVOK 37/04 Q1010,GOSP,2018-03-27T18:00:00Z,16.68,-14.97,37.0,4.0,40,2,,6.21,29.822834,,,,,,,,,,,CAVOK,,,,,,,,VFR,,,,,,,,,,,,METAR,7.0
VOTV 271800Z 17002KT 4000 HZ FEW015 FEW025CB 29/25 Q1012 NOSIG,VOTV,2018-03-27T18:00:00Z,8.47,76.95,29.0,25.0,170,2,,2.49,29.88189,,,,,,TRUE,,,,HZ,FEW,1500,FEW,2500,,,,,IFR,,,,,,,,,,,,METAR,8.0
VOTR 271800Z 13003KT 6000 FEW016 29/23 Q1011 NOSIG,VOTR,2018-03-27T18:00:00Z,10.77,78.72,29.0,23.0,130,3,,3.73,29.852362,,,,,,TRUE,,,,,FEW,1600,,,,,,,MVFR,,,,,,,,,,,,METAR,88.0
VOMM 271800Z 15005KT 6000 NSC 29/26 Q1012 NOSIG,VOMM,2018-03-27T18:00:00Z,13.0,80.17,29.0,26.0,150,5,,3.73,29.88189,,,,,,TRUE,,,,,CLR,,,,,,,,MVFR,,,,,,,,,,,,METAR,16.0
VOHS 271800Z 15003KT 6000 SCT100 26/22 Q1014 NOSIG,VOHS,2018-03-27T18:00:00Z,17.23,78.43,26.0,22.0,150,3,,3.73,29.940945,,,,,,TRUE,,,,,SCT,10000,,,,,,,MVFR,,,,,,,,,,,,METAR,1.0
VANP 271800Z 26004KT 3000 HZ NSC 27/05 Q1011 NOSIG,VANP,2018-03-27T18:00:00Z,21.08,79.05,27.0,5.0,260,4,,1.86,29.852362,,,,,,TRUE,,,,HZ,CLR,,,,,,,,IFR,,,,,,,,,,,,METAR,310.0
VABB 271800Z 18004KT 3000 HZ FEW020 28/25 Q1011 NOSIG,VABB,2018-03-27T18:00:00Z,19.1,72.87,28.0,25.0,180,4,,1.86,29.852362,,,,,,TRUE,,,,HZ,FEW,2000,,,,,,,IFR,,,,,,,,,,,,METAR,8.0
VAAH 271800Z 00000KT 4000 FU NSC 29/03 Q1010 NOSIG,VAAH,2018-03-27T18:00:00Z,23.07,72.62,29.0,3.0,0,0,,2.49,29.822834,,,,,,TRUE,,,,FU,CLR,,,,,,,,IFR,,,,,,,,,,,,METAR,55.0
VTUQ 271800Z AUTO 09005KT ////NDV ////// 25/20 Q1012 A2989,VTUQ,2018-03-27T18:00:00Z,14.95,102.32,25.0,20.0,90,5,,,29.88189,,,TRUE,,,,,,,,,,,,,,,,,,,,,,,,,,,,SPECI,234.0
DFFD 271800Z 04008KT CAVOK 38/M11 Q1010 NOSIG,DFFD,2018-03-27T18:00:00Z,12.33,-1.52,38.0,-11.0,40,8,,6.21,29.822834,,,,,,TRUE,,,,,CAVOK,,,,,,,,VFR,,,,,,,,,,,,METAR,306.0
DFOO 271800Z 04004KT CAVOK 38/M04 Q1010,DFOO,2018-03-27T18:00:00Z,11.17,-4.32,38.0,-4.0,40,4,,6.21,29.822834,,,,,,,,,,,CAVOK,,,,,,,,VFR,,,,,,,,,,,,METAR,460.0
FTTA 271800Z 00000KT 6000 NSC 36/12 Q1007,FTTA,2018-03-27T18:00:00Z,9.15,18.37,36.0,12.0,0,0,,3.73,29.734253,,,,,,,,,,,CLR,,,,,,,,MVFR,,,,,,,,,,,,METAR,365.0
FTTJ 271800Z 29007KT 7000 NSC 36/00 Q1005 NOSIG,FTTJ,2018-03-27T18:00:00Z,12.12,15.02,36.0,0.0,290,7,,4.35,29.675198,,,,,,TRUE,,,,,CLR,,,,,,,,MVFR,,,,,,,,,,,,METAR,295.0
DBBB 271800Z 21012KT 9999 FEW013 29/26 Q1009 NOSIG,DBBB,2018-03-27T18:00:00Z,6.33,2.37,29.0,26.0,210,12,,6.21,29.793306,,,,,,TRUE,,,,,FEW,1300,,,,,,,VFR,,,,,,,,,,,,METAR,9.0
DNKN 271800Z 01004KT CAVOK 39/M04 Q1011 NOSIG,DNKN,2018-03-27T18:00:00Z,12.05,8.52,39.0,-4.0,10,4,,6.21,29.852362,,,,,,TRUE,,,,,CAVOK,,,,,,,,VFR,,,,,,,,,,,,METAR,481.0
DXSK 271800Z 00000KT 8000 NSC 33/18 Q////,DXSK,2018-03-27T18:00:00Z,9.0,1.15,33.0,18.0,0,0,,4.97,,,,,,,,,,,,CLR,,,,,,,,MVFR,,,,,,,,,,,,METAR,387.0
DXNG 271800Z 30001KT CAVOK 34/04 Q1011 NOSIG,DXNG,2018-03-27T18:00:00Z,9.77,1.1,34.0,4.0,300,1,,6.21,29.852362,,,,,,TRUE,,,,,CAVOK,,,,,,,,VFR,,,,,,,,,,,,METAR,343.0
DXXX 271800Z 21013KT 9999 FEW014 29/25 Q1010 NOSIG,DXXX,2018-03-27T18:00:00Z,6.17,1.25,29.0,25.0,210,13,,6.21,29.822834,,,,,,TRUE,,,,,FEW,1400,,,,,,,VFR,,,,,,,,,,,,METAR,25.0
DGAA 271800Z 19014KT 9999 SCT017 BKN022 29/25 Q1009 NOSIG,DGAA,2018-03-27T18:00:00Z,5.58,-0.17,29.0,25.0,190,14,,6.21,29.793306,,,,,,TRUE,,,,,SCT,1700,BKN,2200,,,,,MVFR,,,,,,,,,,,,METAR,69.0
DRZA 271800Z 34008KT 010V300 8000 NSC 33/M05 Q1011,DRZA,2018-03-27T18:00:00Z,16.97,8.0,33.0,-5.0,340,8,,4.97,29.852362,,,,,,,,,,,CLR,,,,,,,,MVFR,,,,,,,,,,,,METAR,502.0
DRRT 271800Z 02006KT CAVOK 36/M09 Q1010,DRRT,2018-03-27T18:00:00Z,14.9,5.25,36.0,-9.0,20,6,,6.21,29.822834,,,,,,,,,,,CAVOK,,,,,,,,VFR,,,,,,,,,,,,METAR,391.0
DRRN 271800Z 03005KT CAVOK 38/M14 Q1008 NOSIG,DRRN,2018-03-27T18:00:00Z,13.47,2.17,38.0,-14.0,30,5,,6.21,29.763779,,,,,,TRUE,,,,,CAVOK,,,,,,,,VFR,,,,,,,,,,,,METAR,227.0
VMMC 271800Z 13004KT 4800 BR FEW010 SCT025 21/19 Q1015 NOSIG,VMMC,2018-03-27T18:00:00Z,22.15,113.58,21.0,19.0,130,4,,2.98,29.970472,,,,,,TRUE,,,,BR,FEW,1000,SCT,2500,,,,,IFR,,,,,,,,,,,,METAR,6.0
RCNN 271800Z 06001KT 5000 BR FEW010 17/16 Q1013 RMK A2994,RCNN,2018-03-27T18:00:00Z,22.93,120.2,17.0,16.0,60,1,,3.11,29.911417,,,,,,,,,,BR,FEW,1000,,,,,,,MVFR,,,,,,,,,,,,SPECI,19.0
RCMQ 271800Z 04002KT 3200 BR FEW010 SCT025 17/15 Q1014 RMK A2995,RCMQ,2018-03-27T18:00:00Z,24.27,120.62,17.0,15.0,40,2,,1.99,29.940945,,,,,,,,,,BR,FEW,1000,SCT,2500,,,,,IFR,,,,,,,,,,,,SPECI,5.0
RCSS 271800Z 11006KT 9999 FEW015 BKN045 21/19 Q1014 NOSIG RMK A2996,RCSS,2018-03-27T18:00:00Z,25.07,121.53,21.0,19.0,110,6,,6.21,29.940945,,,,,,TRUE,,,,,FEW,1500,BKN,4500,,,,,VFR,,,,,,,,,,,,SPECI,6.0
RCKH 271800Z 07004KT 030V100 3500 BR FEW014 SCT050 21/18 Q1014 TEMPO 3000 BR RMK A2995,RCKH,2018-03-27T18:00:00Z,22.57,120.33,21.0,18.0,70,4,,2.17,29.940945,,,,,,,,,,BR,FEW,1400,SCT,5000,,,,,IFR,,,,,,,,,,,,METAR,9.0
RCTP 271800Z 06005KT 9999 FEW010 18/17 Q1014 NOSIG RMK A2997,RCTP,2018-03-27T18:00:00Z,25.07,121.22,18.0,17.0,60,5,,6.21,29.940945,,,,,,TRUE,,,,,FEW,1000,,,,,,,VFR,,,,,,,,,,,,METAR,33.0
YGLA 271800Z AUTO 17005KT 9999 // NCD 24/20 Q1010,YGLA,2018-03-27T18:00:00Z,-23.87,151.22,24.0,20.0,170,5,,6.21,29.822834,,,TRUE,,,,,,,,CLR,,,,,,,,VFR,,,,,,,,,,,,METAR,52.0
YGEL 271800Z AUTO 15007KT 9999 // NCD 16/12 Q1017,YGEL,2018-03-27T18:00:00Z,-28.8,114.7,16.0,12.0,150,7,,6.21,30.029528,,,TRUE,,,,,,,,CLR,,,,,,,,VFR,,,,,,,,,,,,METAR,37.0
YHID 271800Z AUTO 29005KT 9999 // NCD 26/25 Q1005,YHID,2018-03-27T18:00:00Z,-10.58,142.3,26.0,25.0,290,5,,6.21,29.675198,,,TRUE,,,,,,,,CLR,,,,,,,,VFR,,,,,,,,,,,,METAR,13.0
YPJT 271800Z AUTO 00000KT 9999 // NCD 10/09 Q1018 RF00.0/000.0,YPJT,2018-03-27T18:00:00Z,-32.1,115.88,10.0,9.0,0,0,,6.21,30.059055,,,TRUE,,,,,,,,CLR,,,,,,,,VFR,,,,,,,,,,,,METAR,30.0
YMTG 271800Z AUTO 30016KT 9999 // OVC021 19/15 Q1008,YMTG,2018-03-27T18:00:00Z,-37.75,140.78,19.0,15.0,300,16,,6.21,29.763779,,,TRUE,,,,,,,,OVC,2100,,,,,,,MVFR,,,,,,,,,,,,METAR,65.0
YPWR 271800Z AUTO 35008KT 9999 // NCD 19/M01 Q1012,YPWR,2018-03-27T18:00:00Z,-31.12,136.82,19.0,-1.0,350,8,,6.21,29.88189,,,TRUE,,,,,,,,CLR,,,,,,,,VFR,,,,,,,,,,,,METAR,167.0
YLHI 271800Z AUTO 10012KT 9999 // SCT011 23/21 Q1015,YLHI,2018-03-27T18:00:00Z,-31.53,159.07,23.0,21.0,100,12,,6.21,29.970472,,,TRUE,,,,,,,,SCT,1100,,,,,,,VFR,,,,,,,,,,,,METAR,2.0
YCFS 271800Z AUTO 24007KT 9999 // NCD 19/18 Q1016,YCFS,2018-03-27T18:00:00Z,-30.32,153.12,19.0,18.0,240,7,,6.21,30.0,,,TRUE,,,,,,,,CLR,,,,,,,,VFR,,,,,,,,,,,,METAR,5.0
VOCL 271800Z 29002KT 5000 BR FEW015 SCT090 28/25 Q1012 NOSIG,VOCL,2018-03-27T18:00:00Z,11.13,75.95,28.0,25.0,290,2,,3.11,29.88189,,,,,,TRUE,,,,BR,FEW,1500,SCT,9000,,,,,MVFR,,,,,,,,,,,,METAR,104.0
VOCI 271800Z 00000KT 4000 HZ FEW015 FEW025CB SCT090 29/25 Q1012 NOSIG,VOCI,2018-03-27T18:00:00Z,10.15,76.4,29.0,25.0,0,0,,2.49,29.88189,,,,,,TRUE,,,,HZ,FEW,1500,FEW,2500,SCT,9000,,,IFR,,,,,,,,,,,,METAR,8.0
SKPS 271800Z 30005KT 9999 VCSH FEW020TCU SCT023 22/15 A3009 RMK TCU/NE VCSH/S,SKPS,2018-03-27T18:00:00Z,1.4,-77.28,22.0,15.0,300,5,,6.21,30.088583,,,,,,,,,,VCSH,FEW,2000,SCT,2300,,,,,VFR,,,,,,,,,,,,SPECI,1826.0
SKNV 271800Z 00000KT 7000 FEW023 BKN110 31/22 A2983 RMK HZ,SKNV,2018-03-27T18:00:00Z,2.97,-75.28,31.0,22.0,0,0,,4.35,29.828741,,,,,,,,,,,FEW,2300,BKN,11000,,,,,MVFR,,,,,,,,,,,,SPECI,443.0
SKVV 271800Z 12005KT 8000 SCT023 SCT200 32/21 A2984 RMK HZ,SKVV,2018-03-27T18:00:00Z,4.17,-73.62,32.0,21.0,120,5,,4.97,29.840551,,,,,,,,,,,SCT,2300,SCT,20000,,,,,MVFR,,,,,,,,,,,,SPECI,431.0
SKIB 271800Z 08006KT 9999 VCSH BKN020 BKN100 27/21 A3001 RMK VCSH/NW,SKIB,2018-03-27T18:00:00Z,4.42,-75.15,27.0,21.0,80,6,,6.21,30.008858,,,,,,,,,,VCSH,BKN,2000,BKN,10000,,,,,MVFR,,,,,,,,,,,,SPECI,928.0
SKAR 271800Z 29004KT 9999 SCT023 SCT100 27/XX A2996,SKAR,2018-03-27T18:00:00Z,4.45,-75.77,27.0,,290,4,,6.21,29.958662,,,,,,,,,,,SCT,2300,SCT,10000,,,,,VFR,,,,,,,,,,,,METAR,1219.0
SKPE 271800Z 33008KT 9999 SCT015 SCT080 26/21 A2997,SKPE,2018-03-27T18:00:00Z,4.82,-75.73,26.0,21.0,330,8,,6.21,29.970472,,,,,,,,,,,SCT,1500,SCT,8000,,,,,VFR,,,,,,,,,,,,METAR,1346.0
SKMZ 271800Z 32008KT 7000 VCFG BKN030 21/15 A3024 RMK VCFG/W,SKMZ,2018-03-27T18:00:00Z,5.03,-75.47,21.0,15.0,320,8,,4.35,30.239174,,,,,,,,,,VCFG,BKN,3000,,,,,,,MVFR,,,,,,,,,,,,SPECI,2080.0
SKUI 271800Z 33006KT 8000 BKN018 29/24 A2976 RMK HZ,SKUI,2018-03-27T18:00:00Z,5.72,-76.62,29.0,24.0,330,6,,4.97,29.760826,,,,,,,,,,,BKN,1800,,,,,,,MVFR,,,,,,,,,,,,SPECI,33.0
SKPC 271800Z 33006KT 9999 FEW023 BKN080 34/20 A2974,SKPC,2018-03-27T18:00:00Z,6.17,-67.5,34.0,20.0,330,6,,6.21,29.740158,,,,,,,,,,,FEW,2300,BKN,8000,,,,,VFR,,,,,,,,,,,,METAR,55.0
SKMD 271800Z 09012KT 9999 FEW035 28/15 A3003,SKMD,2018-03-27T18:00:00Z,6.22,-75.58,28.0,15.0,90,12,,6.21,30.029528,,,,,,,,,,,FEW,3500,,,,,,,VFR,,,,,,,,,,,,METAR,1499.0
SKUC 271800Z 06004KT 9999 SCT017 35/20 A2980,SKUC,2018-03-27T18:00:00Z,7.07,-70.72,35.0,20.0,60,4,,6.21,29.799213,,,,,,,,,,,SCT,1700,,,,,,,VFR,,,,,,,,,,,,METAR,128.0
SKEJ 271800Z 19005KT 9999 SCT010 BKN120 28/24 A2978,SKEJ,2018-03-27T18:00:00Z,7.02,-73.78,28.0,24.0,190,5,,6.21,29.778543,,,,,,,,,,,SCT,1000,BKN,12000,,,,,VFR,,,,,,,,,,,,METAR,134.0
SKLC 271800Z 31012G22KT 9999 FEW020 SCT100 31/23 A2979,SKLC,2018-03-27T18:00:00Z,7.82,-76.7,31.0,23.0,310,12,22,6.21,29.790354,,,,,,,,,,,FEW,2000,SCT,10000,,,,,VFR,,,,,,,,,,,,METAR,30.0
SKMR 271800Z 00000KT 9999 SCT020 34/23 A2975,SKMR,2018-03-27T18:00:00Z,8.82,-75.83,34.0,23.0,0,0,,6.21,29.749016,,,,,,,,,,,SCT,2000,,,,,,,VFR,,,,,,,,,,,,METAR,26.0
SKVP 271800Z 07014KT 9999 FEW020 35/20 A2982,SKVP,2018-03-27T18:00:00Z,10.42,-73.25,35.0,20.0,70,14,,6.21,29.819881,,,,,,,,,,,FEW,2000,,,,,,,VFR,,,,,,,,,,,,METAR,138.0
SKRH 271800Z 04012KT 9999 BKN030 27/23 A2983,SKRH,2018-03-27T18:00:00Z,11.52,-72.92,27.0,23.0,40,12,,6.21,29.828741,,,,,,,,,,,BKN,3000,,,,,,,MVFR,,,,,,,,,,,,METAR,4.0
SKSM 271800Z 24006KT 8000 FEW020TCU 31/25 A2979 RMK TCU/E/HZ,SKSM,2018-03-27T18:00:00Z,11.12,-74.22,31.0,25.0,240,6,,4.97,29.790354,,,,,,,,,,,FEW,2000,,,,,,,MVFR,,,,,,,,,,,,SPECI,4.0
SKPV 271800Z 05008KT 360V100 9999 FEW018 30/24 A2995,SKPV,2018-03-27T18:00:00Z,13.37,-81.33,30.0,24.0,50,8,,6.21,29.949802,,,,,,,,,,,FEW,1800,,,,,,,VFR,,,,,,,,,,,,METAR,6.0
UMKK 271800Z 01005MPS CAVOK 00/M06 Q1016 R06/60D NOSIG RMK QFE761/1014,UMKK,2018-03-27T18:00:00Z,54.88,20.6,0.0,-6.0,10,10,,6.21,30.0,,,,,,TRUE,,,,,CAVOK,,,,,,,,VFR,,,,,,,,,,,,METAR,21.0
ULOO 271800Z AUTO 31002MPS 280V340 7000 // NCD M03/M11 Q1015 RMK QFE757,ULOO,2018-03-27T18:00:00Z,57.78,28.4,-3.0,-11.0,310,4,,4.35,29.970472,,,TRUE,,,,,,,,CLR,,,,,,,,MVFR,,,,,,,,,,,,METAR,47.0
GOGS 271800Z VRB06KT 8000 NSC 25/19 Q1010,GOGS,2018-03-27T18:00:00Z,12.4,-16.75,25.0,19.0,0,6,,4.97,29.822834,,,,,,,,,,,CLR,,,,,,,,MVFR,,,,,,,,,,,,METAR,13.0
GOGG 271800Z 26006KT CAVOK 34/15 Q1010,GOGG,2018-03-27T18:00:00Z,12.55,-16.27,34.0,15.0,260,6,,6.21,29.822834,,,,,,,,,,,CAVOK,,,,,,,,VFR,,,,,,,,,,,,METAR,23.0
GOTT 271800Z 34008KT 8000 NSC 36/07 Q1009,GOTT,2018-03-27T18:00:00Z,13.73,-13.65,36.0,7.0,340,8,,4.97,29.793306,,,,,,,,,,,CLR,,,,,,,,MVFR,,,,,,,,,,,,METAR,50.0
GOOK 271800Z 36004KT CAVOK 37/02 Q1012,GOOK,2018-03-27T18:00:00Z,14.15,-16.07,37.0,2.0,360,4,,6.21,29.88189,,,,,,,,,,,CAVOK,,,,,,,,VFR,,,,,,,,,,,,METAR,7.0
GOOY 271800Z 36006KT 8000 NSC 21/19 Q1012,GOOY,2018-03-27T18:00:00Z,14.72,-17.5,21.0,19.0,360,6,,4.97,29.88189,,,,,,,,,,,CLR,,,,,,,,MVFR,,,,,,,,,,,,METAR,24.0
GOSS 271800Z 34008KT CAVOK 26/18 Q1011,GOSS,2018-03-27T18:00:00Z,16.05,-16.43,26.0,18.0,340,8,,6.21,29.852362,,,,,,,,,,,CAVOK,,,,,,,,VFR,,,,,,,,,,,,METAR,4.0
UUYY 271800Z VRB01MPS 5000 FU BR NSC M18/M21 Q1010 R36/61D NOSIG RMK QFE748/0998,UUYY,2018-03-27T18:00:00Z,61.65,50.82,-18.0,-21.0,0,2,,3.11,29.822834,,,,,,TRUE,,,,FU BR,CLR,,,,,,,,MVFR,,,,,,,,,,,,METAR,119.0
ULMM 271800Z 27002MPS 9999 -SHSN BKN020CB M08/M10 Q1005 R31/420150 NOSIG RMK QFE746,ULMM,2018-03-27T18:00:00Z,68.78,32.75,-8.0,-10.0,270,4,,6.21,29.675198,,,,,,TRUE,,,,-SHSN,BKN,2000,,,,,,,MVFR,,,,,,,,,,,,SPECI,51.0
ULAA 271800Z 25002MPS 9999 SCT026 M16/M19 Q1006 R08/950550 NOSIG RMK QFE754/1005,ULAA,2018-03-27T18:00:00Z,64.6,40.72,-16.0,-19.0,250,4,,6.21,29.704725,,,,,,TRUE,,,,,SCT,2600,,,,,,,VFR,,,,,,,,,,,,SPECI,19.0
WBKK 271800Z 00000KT 9999 FEW014 SCT140 BKN270 25/24 Q1009 NOSIG,WBKK,2018-03-27T18:00:00Z,5.92,116.03,25.0,24.0,0,0,,6.21,29.793306,,,,,,TRUE,,,,,FEW,1400,SCT,14000,BKN,27000,,,VFR,,,,,,,,,,,,METAR,3.0
GGOV 271800Z 30005KT 6000 NSC 30/16 Q1009 NOSIG,GGOV,2018-03-27T18:00:00Z,11.87,-15.65,30.0,16.0,300,5,,3.73,29.793306,,,,,,TRUE,,,,,CLR,,,,,,,,MVFR,,,,,,,,,,,,SPECI,36.0
OEYN 271800Z 14006KT CAVOK 30/13 Q1009 NOSIG,OEYN,2018-03-27T18:00:00Z,24.13,38.07,30.0,13.0,140,6,,6.21,29.793306,,,,,,TRUE,,,,,CAVOK,,,,,,,,VFR,,,,,,,,,,,,METAR,8.0
OEWJ 271800Z 00000KT 8000 NSC 26/24 Q1010 NOSIG,OEWJ,2018-03-27T18:00:00Z,26.18,36.47,26.0,24.0,0,0,,4.97,29.822834,,,,,,TRUE,,,,,CLR,,,,,,,,MVFR,,,,,,,,,,,,METAR,16.0
OEWD 271800Z 10006KT CAVOK 28/15 Q1015 NOSIG,OEWD,2018-03-27T18:00:00Z,20.5,45.2,28.0,15.0,100,6,,6.21,29.970472,,,,,,TRUE,,,,,CAVOK,,,,,,,,VFR,,,,,,,,,,,,METAR,617.0
OETR 271800Z 24003KT CAVOK 25/01 Q1016,OETR,2018-03-27T18:00:00Z,31.7,38.73,25.0,1.0,240,3,,6.21,30.0,,,,,,,,,,,CAVOK,,,,,,,,VFR,,,,,,,,,,,,METAR,855.0
OETF 271800Z 09010KT CAVOK 25/01 Q1021 NOSIG,OETF,2018-03-27T18:00:00Z,21.47,40.53,25.0,1.0,90,10,,6.21,30.147638,,,,,,TRUE,,,,,CAVOK,,,,,,,,VFR,,,,,,,,,,,,METAR,1449.0
OETB 271800Z 02008KT 9999 BKN040 30/00 Q1014 NOSIG,OETB,2018-03-27T18:00:00Z,28.37,36.62,30.0,0.0,20,8,,6.21,29.940945,,,,,,TRUE,,,,,BKN,4000,,,,,,,VFR,,,,,,,,,,,,METAR,770.0
OESK 271800Z 36004KT 8000 NSC 29/M02 Q1017,OESK,2018-03-27T18:00:00Z,29.77,40.1,29.0,-2.0,360,4,,4.97,30.029528,,,,,,,,,,,CLR,,,,,,,,MVFR,,,,,,,,,,,,METAR,684.0
OESH 271800Z 13006KT 9999 FEW035 30/08 Q1016 NOSIG,OESH,2018-03-27T18:00:00Z,17.47,47.12,30.0,8.0,130,6,,6.21,30.0,,,,,,TRUE,,,,,FEW,3500,,,,,,,VFR,,,,,,,,,,,,METAR,722.0
OERR 271800Z 08009KT 9999 FEW040 SCT100 27/10 Q1014 NOSIG,OERR,2018-03-27T18:00:00Z,30.88,41.12,27.0,10.0,80,9,,6.21,29.940945,,,,,,TRUE,,,,,FEW,4000,SCT,10000,,,,,VFR,,,,,,,,,,,,METAR,552.0
OERF 271800Z 12008KT CAVOK 27/M07 Q1014,OERF,2018-03-27T18:00:00Z,29.62,43.47,27.0,-7.0,120,8,,6.21,29.940945,,,,,,,,,,,CAVOK,,,,,,,,VFR,,,,,,,,,,,,METAR,447.0
OEPA 271800Z 12003KT CAVOK 28/03 Q1015 NOSIG,OEPA,2018-03-27T18:00:00Z,28.32,46.12,28.0,3.0,120,3,,6.21,29.970472,,,,,,TRUE,,,,,CAVOK,,,,,,,,VFR,,,,,,,,,,,,METAR,355.0
OENG 271800Z 12002KT CAVOK 24/03 Q1020 NOSIG,OENG,2018-03-27T18:00:00Z,17.62,44.42,24.0,3.0,120,2,,6.21,30.11811,,,,,,TRUE,,,,,CAVOK,,,,,,,,VFR,,,,,,,,,,,,METAR,1203.0
OEMK 271800Z 21002KT CAVOK 30/19 Q1011,OEMK,2018-03-27T18:00:00Z,21.43,40.0,30.0,19.0,210,2,,6.21,29.852362,,,,,,,,,,,CAVOK,,,,,,,,VFR,,,,,,,,,,,,METAR,369.0
OEKM 271800Z 11010KT CAVOK 21/01 Q1025 NOSIG,OEKM,2018-03-27T18:00:00Z,18.3,42.78,21.0,1.0,110,10,,6.21,30.265747,,,,,,TRUE,,,,,CAVOK,,,,,,,,VFR,,,,,,,,,,,,METAR,2054.0
TNCC 271800Z 10012KT 9999 FEW022 31/22 Q1012 NOSIG,TNCC,2018-03-27T18:00:00Z,12.2,-68.97,31.0,22.0,100,12,,6.21,29.88189,,,,,,TRUE,,,,,FEW,2200,,,,,,,VFR,,,,,,,,,,,,METAR,9.0
OEHL 271800Z 15008KT CAVOK 25/M02 Q1018 NOSIG,OEHL,2018-03-27T18:00:00Z,27.42,41.67,25.0,-2.0,150,8,,6.21,30.059055,,,,,,TRUE,,,,,CAVOK,,,,,,,,VFR,,,,,,,,,,,,METAR,1013.0
OEGT 271800Z 11004KT 7000 NSC 27/M02 Q1013,OEGT,2018-03-27T18:00:00Z,31.42,37.27,27.0,-2.0,110,4,,4.35,29.911417,,,,,,,,,,,CLR,,,,,,,,MVFR,,,,,,,,,,,,METAR,499.0
OEGS 271800Z 10006KT CAVOK 27/02 Q1016,OEGS,2018-03-27T18:00:00Z,26.3,43.77,27.0,2.0,100,6,,6.21,30.0,,,,,,,,,,,CAVOK,,,,,,,,VFR,,,,,,,,,,,,METAR,650.0
OEGN 271800Z 09005KT CAVOK 29/22 Q1013 NOSIG,OEGN,2018-03-27T18:00:00Z,16.88,42.57,29.0,22.0,90,5,,6.21,29.911417,,,,,,TRUE,,,,,CAVOK,,,,,,,,VFR,,,,,,,,,,,,METAR,3.0
OEDM 271800Z 12006KT CAVOK 27/M05 Q1019,OEDM,2018-03-27T18:00:00Z,24.45,44.12,27.0,-5.0,120,6,,6.21,30.088583,,,,,,,,,,,CAVOK,,,,,,,,VFR,,,,,,,,,,,,METAR,922.0
OEBH 271800Z 11009KT CAVOK 26/06 Q1018 NOSIG,OEBH,2018-03-27T18:00:00Z,19.97,42.62,26.0,6.0,110,9,,6.21,30.059055,,,,,,TRUE,,,,,CAVOK,,,,,,,,VFR,,,,,,,,,,,,METAR,1157.0
OEBA 271800Z 10009KT CAVOK 24/07 Q1021 NOSIG,OEBA,2018-03-27T18:00:00Z,20.3,41.62,24.0,7.0,100,9,,6.21,30.147638,,,,,,TRUE,,,,,CAVOK,,,,,,,,VFR,,,,,,,,,,,,METAR,1656.0
OEAR 271800Z 27003KT CAVOK 29/18 Q1013,OEAR,2018-03-27T18:00:00Z,,,29.0,18.0,270,3,,6.21,29.911417,,,,,,,,,,,CAVOK,,,,,,,,VFR,,,,,,,,,,,,METAR,
OEAO 271800Z 12002KT CAVOK 30/M08 Q1014,OEAO,2018-03-27T18:00:00Z,26.48,38.12,30.0,-8.0,120,2,,6.21,29.940945,,,,,,,,,,,CAVOK,,,,,,,,VFR,,,,,,,,,,,,METAR,624.0
OEAH 271800Z 31004KT CAVOK 28/M04 Q1014 NOSIG,OEAH,2018-03-27T18:00:00Z,25.27,49.47,28.0,-4.0,310,4,,6.21,29.940945,,,,,,TRUE,,,,,CAVOK,,,,,,,,VFR,,,,,,,,,,,,METAR,172.0
OEAB 271800Z 18003KT CAVOK 19/15 Q1026 NOSIG,OEAB,2018-03-27T18:00:00Z,18.22,42.63,19.0,15.0,180,3,,6.21,30.295275,,,,,,TRUE,,,,,CAVOK,,,,,,,,VFR,,,,,,,,,,,,METAR,2084.0
SVVA 271800Z 36003KT 9999 SCT016 32/22 Q1012,SVVA,2018-03-27T18:00:00Z,10.15,-67.92,32.0,22.0,360,3,,6.21,29.88189,,,,,,,,,,,SCT,1600,,,,,,,VFR,,,,,,,,,,,,METAR,431.0
SVSA 271800Z /////KT 8000 VCFG SCT020 SCT090 31/// Q1012,SVSA,2018-03-27T18:00:00Z,7.83,-72.45,,,,,,4.97,29.88189,,,,,,,,,,VCFG,SCT,2000,SCT,9000,,,,,MVFR,,,,,,,,,,,,METAR,378.0
SVMD 271800Z /////KT 9999 SCT020 SCT300 26/17 Q1019,SVMD,2018-03-27T18:00:00Z,8.58,-71.17,26.0,17.0,,,,6.21,30.088583,,,,,,,,,,,SCT,2000,SCT,30000,,,,,VFR,,,,,,,,,,,,METAR,1498.0
SVGU 271800Z /////KT 9999 FEW023 34/21 Q1012,SVGU,2018-03-27T18:00:00Z,9.03,-69.75,34.0,21.0,,,,6.21,29.88189,,,,,,,,,,,FEW,2300,,,,,,,VFR,,,,,,,,,,,,METAR,163.0
SVAC 271800Z /////KT 9999 SCT017 34/25 Q1013,SVAC,2018-03-27T18:00:00Z,9.55,-69.22,34.0,25.0,,,,6.21,29.911417,,,,,,,,,,,SCT,1700,,,,,,,VFR,,,,,,,,,,,,METAR,225.0
GUCY 271800Z 26010KT 3000 HZ BKN110 30/18 Q1010 NOSIG,GUCY,2018-03-27T18:00:00Z,9.57,-13.62,30.0,18.0,260,10,,1.86,29.822834,,,,,,TRUE,,,,HZ,BKN,11000,,,,,,,IFR,,,,,,,,,,,,METAR,26.0
GQPA 271800Z 09004KT 8000 NSC 34/M03 Q1014,GQPA,2018-03-27T18:00:00Z,20.52,-13.07,34.0,-3.0,90,4,,4.97,29.940945,,,,,,,,,,,CLR,,,,,,,,MVFR,,,,,,,,,,,,METAR,224.0
GQNO 271800Z 30012KT CAVOK 28/10 Q1011 NOSIG,GQNO,2018-03-27T18:00:00Z,18.3,-15.97,28.0,10.0,300,12,,6.21,29.852362,,,,,,TRUE,,,,,CAVOK,,,,,,,,VFR,,,,,,,,,,,,METAR,4.0
LFQG 271800Z AUTO 26007KT 220V280 9999 FEW015 BKN054 OVC072 12/11 Q1012,LFQG,2018-03-27T18:00:00Z,47.0,3.1,12.0,11.0,260,7,,6.21,29.88189,,,TRUE,,,,,,,,FEW,1500,BKN,5400,OVC,7200,,,VFR,,,,,,,,,,,,METAR,181.0
LFLW 271800Z AUTO 27010KT 8000 -DZ OVC007 09/09 Q1016,LFLW,2018-03-27T18:00:00Z,44.88,2.42,9.0,9.0,270,10,,4.97,30.0,,,TRUE,,,,,,,-DZ,OVC,700,,,,,,,IFR,,,,,,,,,,,,METAR,639.0
FDPP 271800Z AUTO 03004KT //// // ////// 18/14 Q1026,FDPP,2018-03-27T18:00:00Z,-25.97,31.25,18.0,14.0,30,4,,,30.295275,,,TRUE,,,,,,,,,,,,,,,,,,,,,,,,,,,,METAR,1099.0
UEEE 271800Z 33004MPS CAVOK M15/M22 Q1005 R23L/450150 NOSIG RMK QFE745,UEEE,2018-03-27T18:00:00Z,62.08,129.77,-15.0,-22.0,330,8,,6.21,29.675198,,,,,,TRUE,,,,,CAVOK,,,,,,,,VFR,,,,,,,,,,,,METAR,103.0
GANR 271800Z 04006KT CAVOK 37/M04 Q1012,GANR,2018-03-27T18:00:00Z,15.23,-9.58,37.0,-4.0,40,6,,6.21,29.88189,,,,,,,,,,,CAVOK,,,,,,,,VFR,,,,,,,,,,,,METAR,237.0
GAMB 271800Z 04008KT CAVOK 37/M09 Q1010,GAMB,2018-03-27T18:00:00Z,14.52,-4.08,37.0,-9.0,40,8,,6.21,29.822834,,,,,,,,,,,CAVOK,,,,,,,,VFR,,,,,,,,,,,,METAR,272.0
GABS 271800Z 07005KT 040V100 CAVOK 37/M11 Q1011 NOSIG,GABS,2018-03-27T18:00:00Z,12.52,-7.95,37.0,-11.0,70,5,,6.21,29.852362,,,,,,TRUE,,,,,CAVOK,,,,,,,,VFR,,,,,,,,,,,,METAR,381.0
WMKN 271800Z VRB02KT 9999 SCT022 BKN300 26/24 Q1011,WMKN,2018-03-27T18:00:00Z,5.37,103.08,26.0,24.0,0,2,,6.21,29.852362,,,,,,,,,,,SCT,2200,BKN,30000,,,,,VFR,,,,,,,,,,,,METAR,6.0
WMKM 271800Z VRB01KT 9999 FEW030 BKN280 24/23 Q1011,WMKM,2018-03-27T18:00:00Z,2.27,102.25,24.0,23.0,0,1,,6.21,29.852362,,,,,,,,,,,FEW,3000,BKN,28000,,,,,VFR,,,,,,,,,,,,METAR,9.0
WMKL 271800Z VRB02KT 9999 FEW025 SCT140 BKN270 28/24 Q1010,WMKL,2018-03-27T18:00:00Z,6.32,99.72,28.0,24.0,0,2,,6.21,29.822834,,,,,,,,,,,FEW,2500,SCT,14000,BKN,27000,,,VFR,,,,,,,,,,,,METAR,7.0
WMKI 271800Z 22005KT 190V250 8000 FEW030 SCT140 BKN280 26/24 Q1010,WMKI,2018-03-27T18:00:00Z,4.57,101.08,26.0,24.0,220,5,,4.97,29.822834,,,,,,,,,,,FEW,3000,SCT,14000,BKN,28000,,,MVFR,,,,,,,,,,,,METAR,39.0
WMKE 271800Z AUTO 00000KT //// // 25/24 Q1010,WMKE,2018-03-27T18:00:00Z,4.53,103.43,25.0,24.0,0,0,,,29.822834,,,TRUE,,,,,,,,,,,,,,,,,,,,,,,,,,,,METAR,5.0
WMKD 271800Z 02004KT 340V060 9999 FEW024 SCT160 BKN280 24/23 Q1010 NOSIG,WMKD,2018-03-27T18:00:00Z,3.77,103.22,24.0,23.0,20,4,,6.21,29.822834,,,,,,TRUE,,,,,FEW,2400,SCT,16000,BKN,28000,,,VFR,,,,,,,,,,,,METAR,16.0
WMKC 271800Z VRB02KT 9999 SCT020 BKN280 26/24 Q1011,WMKC,2018-03-27T18:00:00Z,6.17,102.27,26.0,24.0,0,2,,6.21,29.852362,,,,,,,,,,,SCT,2000,BKN,28000,,,,,VFR,,,,,,,,,,,,METAR,5.0
WMKB 271800Z 09004KT 060V120 8000 SCT025 SCT140 BKN270 27/25 Q1010 NOSIG,WMKB,2018-03-27T18:00:00Z,5.47,100.37,27.0,25.0,90,4,,4.97,29.822834,,,,,,TRUE,,,,,SCT,2500,SCT,14000,BKN,27000,,,MVFR,,,,,,,,,,,,METAR,4.0
WMKA 271800Z VRB02KT 9999 FEW030 SCT140 BKN280 26/25 Q1010,WMKA,2018-03-27T18:00:00Z,6.2,100.4,26.0,25.0,0,2,,6.21,29.822834,,,,,,,,,,,FEW,3000,SCT,14000,BKN,28000,,,VFR,,,,,,,,,,,,METAR,5.0
WMBA 271800Z VRB01KT 9000 FEW034 BKN280 25/24 Q1010,WMBA,2018-03-27T18:00:00Z,4.22,100.7,25.0,24.0,0,1,,5.59,29.822834,,,,,,,,,,,FEW,3400,BKN,28000,,,,,VFR,,,,,,,,,,,,METAR,8.0
WMAU 271800Z AUTO 23005KT //// // 24/24 Q//// QFF1010,WMAU,2018-03-27T18:00:00Z,2.38,103.88,24.0,24.0,230,5,,0.63,,,,TRUE,,,,,,,,,,,,,,,,,,,,,,,,,,,,METAR,45.0
GOBD 271800Z 35015KT CAVOK 25/16 Q1011 NOSIG,GOBD,2018-03-27T18:00:00Z,14.67,-17.07,25.0,16.0,350,15,,6.21,29.852362,,,,,,TRUE,,,,,CAVOK,,,,,,,,VFR,,,,,,,,,,,,METAR,88.0
NCAI 271800Z AUTO 03005KT 360V060 //// ////// 26/26 Q1011,NCAI,2018-03-27T18:00:00Z,-18.82,-159.77,26.0,26.0,30,5,,,29.852362,,,TRUE,,,,,,,,,,,,,,,,,,,,,,,,,,,,METAR,6.0
VIAR 271800Z 32005KT 3500 HZ FEW040 SCT100 22/17 Q1010 NOSIG,VIAR,2018-03-27T18:00:00Z,31.7,74.8,22.0,17.0,320,5,,2.17,29.822834,,,,,,TRUE,,,,HZ,FEW,4000,SCT,10000,,,,,IFR,,,,,,,,,,,,METAR,234.0
VILK 271800Z 00000KT 2500 HZ NSC 24/11 Q1009 NOSIG,VILK,2018-03-27T18:00:00Z,26.75,80.87,24.0,11.0,0,0,,1.55,29.793306,,,,,,TRUE,,,,HZ,CLR,,,,,,,,IFR,,,,,,,,,,,,METAR,128.0
VEPT 271800Z 11006KT 3000 HZ NSC 24/15 Q1008 NOSIG,VEPT,2018-03-27T18:00:00Z,25.6,85.08,24.0,15.0,110,6,,1.86,29.763779,,,,,,TRUE,,,,HZ,CLR,,,,,,,,IFR,,,,,,,,,,,,METAR,60.0
VEGY 271800Z 11007KT 3000 HZ NSC 21/10 Q1009,VEGY,2018-03-27T18:00:00Z,24.75,84.95,21.0,10.0,110,7,,1.86,29.793306,,,,,,,,,,HZ,CLR,,,,,,,,IFR,,,,,,,,,,,,METAR,116.0
DNMM 271800Z 20003KT 9999 SCT013 30/26 Q1011 NOSIG,DNMM,2018-03-27T18:00:00Z,6.57,3.32,30.0,26.0,200,3,,6.21,29.852362,,,,,,TRUE,,,,,SCT,1300,,,,,,,VFR,,,,,,,,,,,,METAR,38.0
YBCV 271800Z AUTO 17004KT 9999 // NCD 21/10 Q1013,YBCV,2018-03-27T18:00:00Z,-26.38,146.27,21.0,10.0,170,4,,6.21,29.911417,,,TRUE,,,,,,,,CLR,,,,,,,,VFR,,,,,,,,,,,,METAR,304.0
YBCS 271800Z 28002KT 9999 FEW002 24/24 Q1005,YBCS,2018-03-27T18:00:00Z,-16.87,145.75,24.0,24.0,280,2,,6.21,29.675198,,,,,,,,,,,FEW,200,,,,,,,VFR,,,,,,,,,,,,METAR,7.0
YBBN 271800Z 20007KT 9999 FEW020 22/20 Q1013 INTER 1800/2100 3000 SHRA BKN012,YBBN,2018-03-27T18:00:00Z,-27.38,153.13,22.0,20.0,200,7,,6.21,29.911417,,,,,,,,,,,FEW,2000,,,,,,,VFR,,,,,,,,,,,,METAR,5.0
YBAS 271800Z AUTO 28005KT 9999 // NCD 13/02 Q1014 RF00.0/000.0,YBAS,2018-03-27T18:00:00Z,-23.8,133.9,13.0,2.0,280,5,,6.21,29.940945,,,TRUE,,,,,,,,CLR,,,,,,,,VFR,,,,,,,,,,,,SPECI,541.0
YAYE 271800Z AUTO 16005KT 9999 // NCD 18/00 Q1014,YAYE,2018-03-27T18:00:00Z,-25.18,130.98,18.0,0.0,160,5,,6.21,29.940945,,,TRUE,,,,,,,,CLR,,,,,,,,VFR,,,,,,,,,,,,METAR,496.0
RJGG 271800Z 00000KT 7000 FEW020 10/08 Q1018 BECMG 36005KT TEMPO 4000 BR,RJGG,2018-03-27T18:00:00Z,34.87,136.8,10.0,8.0,0,0,,4.35,30.059055,,,,,,,,,,,FEW,2000,,,,,,,MVFR,,,,,,,,,,,,METAR,5.0
ROAH 271800Z 08004KT 050V120 9999 FEW025 20/15 Q1015 RMK 1CU025 A2998,ROAH,2018-03-27T18:00:00Z,26.17,127.65,20.0,15.0,80,4,,6.21,29.970472,,,,,,,,,,,FEW,2500,,,,,,,VFR,,,,,,,,,,,,METAR,8.0
RJTT 271800Z 24003KT CAVOK 15/10 Q1016 NOSIG RMK A3002,RJTT,2018-03-27T18:00:00Z,35.53,139.77,15.0,10.0,240,3,,6.21,30.0,,,,,,TRUE,,,,,CAVOK,,,,,,,,VFR,,,,,,,,,,,,METAR,8.0
RJBB 271800Z AUTO 04005KT 4500 BR NCD 12/10 Q1018 NOSIG,RJBB,2018-03-27T18:00:00Z,34.42,135.25,12.0,10.0,40,5,,2.8,30.059055,,,TRUE,,,TRUE,,,,BR,CLR,,,,,,,,IFR,,,,,,,,,,,,METAR,8.0
RJAA 271800Z 23003KT 7000 FEW030 SCT130 11/10 Q1016 BECMG 26005KT RMK 1CU030 3AC130 A3001,RJAA,2018-03-27T18:00:00Z,35.77,140.37,11.0,10.0,230,3,,4.35,30.0,,,,,,,,,,,FEW,3000,SCT,13000,,,,,MVFR,,,,,,,,,,,,SPECI,44.0
ZYHB 271800Z 26010MPS CAVOK 09/M02 Q0999 NOSIG,ZYHB,2018-03-27T18:00:00Z,45.62,126.25,9.0,-2.0,260,19,,6.21,29.498032,,,,,,TRUE,,,,,CAVOK,,,,,,,,VFR,,,,,,,,,,,,METAR,140.0
ZYCC 271800Z 28007G12MPS 250V330 3000 SA SCT030 13/M02 Q1004 NOSIG,ZYCC,2018-03-27T18:00:00Z,43.98,125.68,13.0,-2.0,280,14,23,1.86,29.64567,,,,,,TRUE,,,,SA,SCT,3000,,,,,,,IFR,,,,,,,,,,,,METAR,238.0
ZUCK 271800Z 14001MPS 1600 BR BCFG FEW006 15/15 Q1016 NOSIG,ZUCK,2018-03-27T18:00:00Z,29.72,106.63,15.0,15.0,140,2,,0.99,30.0,,,,,,TRUE,,,,BR BCFG,FEW,600,,,,,,,LIFR,,,,,,,,,,,,METAR,416.0
ZSOF 271800Z 16004MPS 6000 NSC 15/13 Q1012 NOSIG,ZSOF,2018-03-27T18:00:00Z,31.98,116.97,15.0,13.0,160,8,,3.73,29.88189,,,,,,TRUE,,,,,CLR,,,,,,,,MVFR,,,,,,,,,,,,METAR,63.0
ZSNJ 271800Z 17002MPS 9000 NSC 14/10 Q1014 NOSIG,ZSNJ,2018-03-27T18:00:00Z,31.75,118.87,14.0,10.0,170,4,,5.59,29.940945,,,,,,TRUE,,,,,CLR,,,,,,,,VFR,,,,,,,,,,,,METAR,33.0
ZLLL 271800Z 33004MPS CAVOK 03/M13 Q1016 NOSIG,ZLLL,2018-03-27T18:00:00Z,36.52,103.62,3.0,-13.0,330,8,,6.21,30.0,,,,,,TRUE,,,,,CAVOK,,,,,,,,VFR,,,,,,,,,,,,METAR,1947.0
ZJSY 271800Z 08004MPS 9999 BKN050 23/19 Q1014 NOSIG,ZJSY,2018-03-27T18:00:00Z,18.3,109.42,23.0,19.0,80,8,,6.21,29.940945,,,,,,TRUE,,,,,BKN,5000,,,,,,,VFR,,,,,,,,,,,,METAR,27.0
ZJHK 271800Z 24001MPS 6000 NSC 19/19 Q1014 NOSIG,ZJHK,2018-03-27T18:00:00Z,19.93,110.47,19.0,19.0,240,2,,3.73,29.940945,,,,,,TRUE,,,,,CLR,,,,,,,,MVFR,,,,,,,,,,,,METAR,23.0
ZHHH 271800Z 14002MPS CAVOK 17/13 Q1013 NOSIG,ZHHH,2018-03-27T18:00:00Z,30.78,114.22,17.0,13.0,140,4,,6.21,29.911417,,,,,,TRUE,,,,,CAVOK,,,,,,,,VFR,,,,,,,,,,,,METAR,33.0
ZHCC 271800Z 21003MPS CAVOK 21/12 Q1009 NOSIG,ZHCC,2018-03-27T18:00:00Z,34.52,113.83,21.0,12.0,210,6,,6.21,29.793306,,,,,,TRUE,,,,,CAVOK,,,,,,,,VFR,,,,,,,,,,,,METAR,151.0
ZGHA 271800Z 12001MPS CAVOK 14/11 Q1014 NOSIG,ZGHA,2018-03-27T18:00:00Z,28.18,113.22,14.0,11.0,120,2,,6.21,29.940945,,,,,,TRUE,,,,,CAVOK,,,,,,,,VFR,,,,,,,,,,,,METAR,66.0
ZBHH 271800Z 08002MPS 4000 HZ FEW040 11/M05 Q1012 NOSIG,ZBHH,2018-03-27T18:00:00Z,40.85,111.82,11.0,-5.0,80,4,,2.49,29.88189,,,,,,TRUE,,,,HZ,FEW,4000,,,,,,,IFR,,,,,,,,,,,,METAR,1065.0
DTTN 271800Z 31008KT 250V350 9999 SCT020 SCT030 13/08 Q1020,DTTN,2018-03-27T18:00:00Z,36.47,8.8,13.0,8.0,310,8,,6.21,30.11811,,,,,,,,,,,SCT,2000,SCT,3000,,,,,VFR,,,,,,,,,,,,METAR,144.0
DTTL 271800Z VRB09KT 9999 SCT020 13/10 Q1017,DTTL,2018-03-27T18:00:00Z,36.85,11.07,13.0,10.0,0,9,,6.21,30.029528,,,,,,,,,,,SCT,2000,,,,,,,VFR,,,,,,,,,,,,METAR,30.0
DTTK 271800Z 30010G22KT 240V350 9999 SCT023 16/05 Q1019,DTTK,2018-03-27T18:00:00Z,35.67,10.08,16.0,5.0,300,10,22,6.21,30.088583,,,,,,,,,,,SCT,2300,,,,,,,VFR,,,,,,,,,,,,METAR,68.0
DTTD 271800Z 05004KT 9999 BKN023 17/M00 Q1020 NOSIG,DTTD,2018-03-27T18:00:00Z,32.32,10.4,17.0,0.0,50,4,,6.21,30.11811,,,,,,TRUE,,,,,BKN,2300,,,,,,,MVFR,,,,,,,,,,,,METAR,301.0
DTTB 271800Z 29014KT 260V320 9999 SCT020TCU SCT030 13/09 Q1019,DTTB,2018-03-27T18:00:00Z,37.25,9.8,13.0,9.0,290,14,,6.21,30.088583,,,,,,,,,,,SCT,2000,SCT,3000,,,,,VFR,,,,,,,,,,,,METAR,3.0
UKWW 271800Z 29003MPS 9000 BKN021 BKN100 04/02 Q1009 R31/0///65 NOSIG,UKWW,2018-03-27T18:00:00Z,49.25,28.6,4.0,2.0,290,6,,5.59,29.793306,,,,,,TRUE,,,,,BKN,2100,BKN,10000,,,,,MVFR,,,,,,,,,,,,METAR,293.0
UKOH 271800Z 33005MPS 300V020 9999 BKN015 05/03 Q1011 R03/190060 NOSIG,UKOH,2018-03-27T18:00:00Z,46.67,32.5,5.0,3.0,330,10,,6.21,29.852362,,,,,,TRUE,,,,,BKN,1500,,,,,,,MVFR,,,,,,,,,,,,METAR,45.0
UKLN 271800Z 00000MPS CAVOK 05/M01 Q1011 R15/09//70 NOSIG,UKLN,2018-03-27T18:00:00Z,48.27,25.98,5.0,-1.0,0,0,,6.21,29.852362,,,,,,TRUE,,,,,CAVOK,,,,,,,,VFR,,,,,,,,,,,,METAR,252.0
UKKM 271800Z 36002MPS 9999 SCT042 04/M00 Q1008 R15/CLRD55 NOSIG,UKKM,2018-03-27T18:00:00Z,50.6,30.2,4.0,0.0,360,4,,6.21,29.763779,,,,,,TRUE,,,,,SCT,4200,,,,,,,VFR,,,,,,,,,,,,METAR,157.0
UKKK 271800Z VRB01MPS 8000 BKN040 04/M00 Q1008 R26/70D NOSIG,UKKK,2018-03-27T18:00:00Z,50.4,30.45,4.0,0.0,0,2,,4.97,29.763779,,,,,,TRUE,,,,,BKN,4000,,,,,,,MVFR,,,,,,,,,,,,METAR,179.0
UKLU 271800Z 30004MPS 9999 BKN046 07/M00 Q1012 NOSIG,UKLU,2018-03-27T18:00:00Z,48.63,22.27,7.0,0.0,300,8,,6.21,29.88189,,,,,,TRUE,,,,,BKN,4600,,,,,,,VFR,,,,,,,,,,,,METAR,117.0
UKLI 271800Z 33002MPS 7000 NSC 04/01 Q1011 R28/090070 NOSIG,UKLI,2018-03-27T18:00:00Z,48.88,24.68,4.0,1.0,330,4,,4.35,29.852362,,,,,,TRUE,,,,,CLR,,,,,,,,MVFR,,,,,,,,,,,,METAR,280.0
EIWF 271800Z 33011KT 290V360 9999 SCT037 08/03 Q1008,EIWF,2018-03-27T18:00:00Z,52.18,-7.08,8.0,3.0,330,11,,6.21,29.763779,,,,,,,,,,,SCT,3700,,,,,,,VFR,,,,,,,,,,,,METAR,36.0
EISG 271800Z 26011KT 8000 NSC 06/03 Q1006,EISG,2018-03-27T18:00:00Z,54.28,-8.6,6.0,3.0,260,11,,4.97,29.704725,,,,,,,,,,,CLR,,,,,,,,MVFR,,,,,,,,,,,,METAR,3.0
EIME 271800Z 26011G24KT 9999 FEW018 SCT030 BKN250 07/03 Q1006,EIME,2018-03-27T18:00:00Z,53.3,-6.45,7.0,3.0,260,11,24,6.21,29.704725,,,,,,,,,,,FEW,1800,SCT,3000,BKN,25000,,,VFR,,,,,,,,,,,,METAR,93.0
EIKY 271800Z 28005KT 240V320 9999 SCT037 BKN044 07/03 Q1009,EIKY,2018-03-27T18:00:00Z,52.18,-9.52,7.0,3.0,280,5,,6.21,29.793306,,,,,,,,,,,SCT,3700,BKN,4400,,,,,VFR,,,,,,,,,,,,METAR,34.0
EIDL 271800Z 26016KT 9999 FEW042 06/02 Q1004,EIDL,2018-03-27T18:00:00Z,55.05,-8.33,6.0,2.0,260,16,,6.21,29.64567,,,,,,,,,,,FEW,4200,,,,,,,VFR,,,,,,,,,,,,METAR,9.0
MGTU 271800Z 27004KT 9999 FEW018 35/22,MGTU,2018-03-27T18:00:00Z,,,35.0,22.0,270,4,,6.21,,,,,,,,,,,,FEW,1800,,,,,,,VFR,,,,,,,,,,,,METAR,
MGMT 271800Z 18004KT 9999 FEW014 34/24 QFE1009.0,MGMT,2018-03-27T18:00:00Z,,,34.0,24.0,180,4,,6.21,,,,,,,,,,,,FEW,1400,,,,,,,VFR,,,,,,,,,,,,METAR,
MGES 271800Z 05010KT 9999 BKN020 28/16 QFE909.8,MGES,2018-03-27T18:00:00Z,14.57,-89.32,28.0,16.0,50,10,,6.21,,,,,,,,,,,,BKN,2000,,,,,,,MVFR,,,,,,,,,,,,METAR,965.0
MGZA 271800Z 06010KT 9999 FEW020 34/16 QFE987/1,MGZA,2018-03-27T18:00:00Z,14.97,-89.52,34.0,16.0,60,10,,6.21,,,,,,,,,,,,FEW,2000,,,,,,,VFR,,,,,,,,,,,,METAR,490.0
MGCB 271800Z 05006KT 9999 BKN018 24/16 QFE871.0,MGCB,2018-03-27T18:00:00Z,15.48,-90.42,24.0,16.0,50,6,,6.21,,,,,,,,,,,,BKN,1800,,,,,,,MVFR,,,,,,,,,,,,METAR,1316.0
MGQZ 271800Z 20006KT 9000 SCT025 21/10 QFE772/7 HZ,MGQZ,2018-03-27T18:00:00Z,14.87,-91.5,21.0,10.0,200,6,,5.59,,,,,,,,,,,HZ,SCT,2500,,,,,,,VFR,,,,,,,,,,,,METAR,2371.0
MGRT 271800Z 22006KT 8000 SCT022 33/19 Q1013 A2991 HZ VOL. STA. MARIA Y SANTIAGUITO EN ACTIVIDAD,MGRT,2018-03-27T18:00:00Z,14.53,-91.7,33.0,19.0,220,6,,4.97,29.911417,,,,,,,,,,HZ SA,SCT,2200,,,,,,,MVFR,,,,,,,,,,,,METAR,200.0
MGSJ 271800Z 18010KT 8000 FEW020 34/25 Q1011 A2985 FU,MGSJ,2018-03-27T18:00:00Z,13.92,-90.83,34.0,25.0,180,10,,4.97,29.852362,,,,,,,,,,FU,FEW,2000,,,,,,,MVFR,,,,,,,,,,,,METAR,9.0
MGPB 271800Z 09010KT 9999 SCT018 30/24 Q1014 A2994,MGPB,2018-03-27T18:00:00Z,15.72,-88.58,30.0,24.0,90,10,,6.21,29.940945,,,,,,,,,,,SCT,1800,,,,,,,VFR,,,,,,,,,,,,METAR,10.0
MGHT 271800Z 18006KT 9999 FEW018 26/10 QFE820.5,MGHT,2018-03-27T18:00:00Z,15.32,-91.5,26.0,10.0,180,6,,6.21,,,,,,,,,,,,FEW,1800,,,,,,,VFR,,,,,,,,,,,,SPECI,1901.0
MGMM 271800Z 09010KT 9999 BKN018 32/20 Q1015 A2997,MGMM,2018-03-27T18:00:00Z,16.97,-89.87,32.0,20.0,90,10,,6.21,29.970472,,,,,,,,,,,BKN,1800,,,,,,,MVFR,,,,,,,,,,,,METAR,123.0
FMEP 271800Z AUTO 08003KT CAVOK 24/18 Q1013,FMEP,2018-03-27T18:00:00Z,-21.32,55.42,24.0,18.0,80,3,,6.21,29.911417,,,TRUE,,,,,,,,CAVOK,,,,,,,,VFR,,,,,,,,,,,,METAR,18.0
FMEE 271800Z AUTO 17005KT 9999 SCT066 23/19 Q1012 NOSIG,FMEE,2018-03-27T18:00:00Z,-20.87,55.52,23.0,19.0,170,5,,6.21,29.88189,,,TRUE,,,TRUE,,,,,SCT,6600,,,,,,,VFR,,,,,,,,,,,,METAR,25.0
DTTZ 271800Z 26011KT 9999 FEW030 18/02 Q1020 NOSIG,DTTZ,2018-03-27T18:00:00Z,33.92,8.08,18.0,2.0,260,11,,6.21,30.11811,,,,,,TRUE,,,,,FEW,3000,,,,,,,VFR,,,,,,,,,,,,METAR,93.0
DTTX 271800Z 30013KT 9999 FEW020 SCT030 17/05 Q1019 NOSIG,DTTX,2018-03-27T18:00:00Z,34.72,10.67,17.0,5.0,300,13,,6.21,30.088583,,,,,,TRUE,,,,,FEW,2000,SCT,3000,,,,,VFR,,,,,,,,,,,,METAR,23.0
DTTJ 271800Z 33003KT 9999 FEW020 16/06 Q1019 NOSIG,DTTJ,2018-03-27T18:00:00Z,33.87,10.77,16.0,6.0,330,3,,6.21,30.088583,,,,,,TRUE,,,,,FEW,2000,,,,,,,VFR,,,,,,,,,,,,METAR,4.0
DTTG 271800Z 31006KT 9999 BKN020 18/00 Q1020 NOSIG,DTTG,2018-03-27T18:00:00Z,33.73,9.92,18.0,0.0,310,6,,6.21,30.11811,,,,,,TRUE,,,,,BKN,2000,,,,,,,MVFR,,,,,,,,,,,,METAR,5.0
DTTF 271800Z 36008KT 9999 BKN026 16/04 Q1020 NOSIG,DTTF,2018-03-27T18:00:00Z,34.42,8.82,16.0,4.0,360,8,,6.21,30.11811,,,,,,TRUE,,,,,BKN,2600,,,,,,,MVFR,,,,,,,,,,,,METAR,314.0
DTTA 271800Z 28015KT 260V320 9999 SCT026 14/07 Q1019 NOSIG,DTTA,2018-03-27T18:00:00Z,36.85,10.22,14.0,7.0,280,15,,6.21,30.088583,,,,,,TRUE,,,,,SCT,2600,,,,,,,VFR,,,,,,,,,,,,METAR,4.0
DTNH 271800Z 32015KT 9999 FEW033 15/03 Q1018 NOSIG,DTNH,2018-03-27T18:00:00Z,36.07,10.43,15.0,3.0,320,15,,6.21,30.059055,,,,,,TRUE,,,,,FEW,3300,,,,,,,VFR,,,,,,,,,,,,METAR,2.0
DTMB 271800Z 29016KT 8000 SCT020 16/07 Q1019,DTMB,2018-03-27T18:00:00Z,35.77,10.75,16.0,7.0,290,16,,4.97,30.088583,,,,,,,,,,,SCT,2000,,,,,,,MVFR,,,,,,,,,,,,METAR,2.0
DTKA 271800Z 27017KT 9999 SCT020 14/08 Q1020,DTKA,2018-03-27T18:00:00Z,36.98,8.88,14.0,8.0,270,17,,6.21,30.11811,,,,,,,,,,,SCT,2000,,,,,,,VFR,,,,,,,,,,,,METAR,21.0
UMGG 271800Z 35006MPS 9999 OVC024 01/M02 Q1010 R28/D NOSIG,UMGG,2018-03-27T18:00:00Z,52.53,31.02,1.0,-2.0,350,12,,6.21,29.822834,,,,,,TRUE,,,,,OVC,2400,,,,,,,MVFR,,,,,,,,,,,,METAR,144.0
LETU 271800Z AUTO 02006KT 9999 NCD 17/08 Q1022,LETU,2018-03-27T18:00:00Z,,,17.0,8.0,20,6,,6.21,30.177166,,,TRUE,,,,,,,,CLR,,,,,,,,VFR,,,,,,,,,,,,METAR,
LEBR 271800Z AUTO 34012KT 9999 NSC 17/07 Q1022,LEBR,2018-03-27T18:00:00Z,42.2,-1.43,17.0,7.0,340,12,,6.21,30.177166,,,TRUE,,,,,,,,CLR,,,,,,,,VFR,,,,,,,,,,,,METAR,295.0
LELO 271800Z 28008KT 9999 FEW030 18/07 Q1022,LELO,2018-03-27T18:00:00Z,42.45,-2.32,18.0,7.0,280,8,,6.21,30.177166,,,,,,,,,,,FEW,3000,,,,,,,VFR,,,,,,,,,,,,METAR,363.0
LECV 271800Z 01006KT 9999 FEW050 15/M00 Q1024,LECV,2018-03-27T18:00:00Z,40.63,-3.72,15.0,0.0,10,6,,6.21,30.236221,,,,,,,,,,,FEW,5000,,,,,,,VFR,,,,,,,,,,,,METAR,710.0
LEBT 271800Z AUTO 09003KT 040V120 9999 NCD 18/07 Q1020,LEBT,2018-03-27T18:00:00Z,39.58,-0.45,18.0,7.0,90,3,,6.21,30.11811,,,TRUE,,,,,,,,CLR,,,,,,,,VFR,,,,,,,,,,,,METAR,50.0
LEAO 271800Z 26006KT CAVOK 19/06 Q1024,LEAO,2018-03-27T18:00:00Z,38.95,-3.73,19.0,6.0,260,6,,6.21,30.236221,,,,,,,,,,,CAVOK,,,,,,,,VFR,,,,,,,,,,,,METAR,629.0
TDCF 271800Z 28007KT 9999 FEW020 29/20 Q1012,TDCF,2018-03-27T18:00:00Z,15.33,-61.4,29.0,20.0,280,7,,6.21,29.88189,,,,,,,,,,,FEW,2000,,,,,,,VFR,,,,,,,,,,,,METAR,5.0
SLET 271800Z 13010KT 9999 BKN027 OVC080 23/12 Q1015,SLET,2018-03-27T18:00:00Z,-17.8,-63.17,23.0,12.0,130,10,,6.21,29.970472,,,,,,,,,,,BKN,2700,OVC,8000,,,,,MVFR,,,,,,,,,,,,METAR,414.0
FAVV 271800Z AUTO /////KT //// // ////// 19/14 Q1024,FAVV,2018-03-27T18:00:00Z,-26.57,27.97,19.0,14.0,,,,,30.236221,,,TRUE,,,,,,,,,,,,,,,,,,,,,,,,,,,,SPECI,1483.0
FAJB 271800Z AUTO 00000KT //// // ////// 18/11 Q1025,FAJB,2018-03-27T18:00:00Z,-26.15,28.0,18.0,11.0,0,0,,,30.265747,,,TRUE,,,,,,,,,,,,,,,,,,,,,,,,,,,,SPECI,1626.0
SUMU 271800Z 13012KT 9999 FEW040 22/15 Q1020 NOSIG,SUMU,2018-03-27T18:00:00Z,-34.82,-56.0,22.0,15.0,130,12,,6.21,30.11811,,,,,,TRUE,,,,,FEW,4000,,,,,,,VFR,,,,,,,,,,,,SPECI,32.0
SLVR 271800Z 16009KT 9999 BKN025 BKN070 23/12 Q1015,SLVR,2018-03-27T18:00:00Z,-17.63,-63.12,23.0,12.0,160,9,,6.21,29.970472,,,,,,,,,,,BKN,2500,BKN,7000,,,,,MVFR,,,,,,,,,,,,SPECI,373.0
SLTR 271800Z 13005KT 9999 FEW020 BKN070 26/18 Q1013,SLTR,2018-03-27T18:00:00Z,-14.83,-64.92,26.0,18.0,130,5,,6.21,29.911417,,,,,,,,,,,FEW,2000,BKN,7000,,,,,VFR,,,,,,,,,,,,SPECI,157.0
SLTJ 271800Z 13006KT 9999 BKN027 OVC070 17/10 Q1019,SLTJ,2018-03-27T18:00:00Z,-21.55,-64.72,17.0,10.0,130,6,,6.21,30.088583,,,,,,,,,,,BKN,2700,OVC,7000,,,,,MVFR,,,,,,,,,,,,SPECI,1858.0
SLLP 271800Z 13005KT 9999 SCT020 FEW023CB SCT200 14/02 Q1033,SLLP,2018-03-27T18:00:00Z,-16.52,-68.17,14.0,2.0,130,5,,6.21,30.501968,,,,,,,,,,,SCT,2000,FEW,2300,SCT,20000,,,VFR,,,,,,,,,,,,SPECI,4014.0
SLCB 271800Z 28003KT 9999 FEW030 25/10 Q1020,SLCB,2018-03-27T18:00:00Z,-17.42,-66.18,25.0,10.0,280,3,,6.21,30.11811,,,,,,,,,,,FEW,3000,,,,,,,VFR,,,,,,,,,,,,SPECI,2548.0
SGES 271800Z 27004KT 8000 -RA BKN013 OVC070 22/21 Q1015,SGES,2018-03-27T18:00:00Z,-25.45,-54.85,22.0,21.0,270,4,,4.97,29.970472,,,,,,,,,,-RA,BKN,1300,OVC,7000,,,,,MVFR,,,,,,,,,,,,SPECI,849.0
LPHR 271800Z 28014KT 9999 FEW012 BKN070 19/16 Q1031,LPHR,2018-03-27T18:00:00Z,38.52,-28.72,19.0,16.0,280,14,,6.21,30.442913,,,,,,,,,,,FEW,1200,BKN,7000,,,,,VFR,,,,,,,,,,,,SPECI,41.0
LPFL 271800Z 33008KT 290V350 9999 FEW019 SCT036 17/11 Q1032,LPFL,2018-03-27T18:00:00Z,39.45,-31.12,17.0,11.0,330,8,,6.21,30.47244,,,,,,,,,,,FEW,1900,SCT,3600,,,,,VFR,,,,,,,,,,,,SPECI,29.0
SBTF 271800Z 32002KT 9999 FEW013 FEW025TCU 31/25 Q1007,SBTF,2018-03-27T18:00:00Z,-3.37,-64.72,31.0,25.0,320,2,,6.21,29.734253,,,,,,,,,,,FEW,1300,FEW,2500,,,,,VFR,,,,,,,,,,,,SPECI,47.0
SBTT 271800Z 22002KT 9999 BKN013 OVC080 26/22 Q1011,SBTT,2018-03-27T18:00:00Z,-4.25,-69.93,26.0,22.0,220,2,,6.21,29.852362,,,,,,,,,,,BKN,1300,OVC,8000,,,,,MVFR,,,,,,,,,,,,METAR,85.0
SBSG 271800Z 16012KT 140V200 9999 SCT025 29/22 Q1010,SBSG,2018-03-27T18:00:00Z,-5.77,-35.37,29.0,22.0,160,12,,6.21,29.822834,,,,,,,,,,,SCT,2500,,,,,,,VFR,,,,,,,,,,,,METAR,83.0
SBBE 271800Z 33007KT 9999 BKN030 29/25 Q1008,SBBE,2018-03-27T18:00:00Z,-1.37,-48.47,29.0,25.0,330,7,,6.21,29.763779,,,,,,,,,,,BKN,3000,,,,,,,MVFR,,,,,,,,,,,,METAR,16.0
SBBG 271800Z 09015KT 9999 SCT018 BKN023 24/18 Q1017,SBBG,2018-03-27T18:00:00Z,-31.38,-54.12,24.0,18.0,90,15,,6.21,30.029528,,,,,,,,,,,SCT,1800,BKN,2300,,,,,MVFR,,,,,,,,,,,,METAR,180.0
SBPP 271800Z 21006KT 2000 -TSRA BKN001 FEW025CB OVC070 21/20 Q1 016,SBPP,2018-03-27T18:00:00Z,-22.55,-55.7,21.0,20.0,210,6,,1.24,,,,,,,,,,,-TSRA,BKN,100,FEW,2500,OVC,7000,,,LIFR,,,,,,,,,,,,METAR,660.0
SLYA 271800Z 00000KT 9999 SCT023 BKN080 23/16 Q1016,SLYA,2018-03-27T18:00:00Z,-21.97,-63.65,23.0,16.0,0,0,,6.21,30.0,,,,,,,,,,,SCT,2300,BKN,8000,,,,,VFR,,,,,,,,,,,,METAR,645.0
SLSI 271800Z 18006KT 9999 BKN017 OVC070 24/21 Q1014,SLSI,2018-03-27T18:00:00Z,-16.37,-60.95,24.0,21.0,180,6,,6.21,29.940945,,,,,,,,,,,BKN,1700,OVC,7000,,,,,MVFR,,,,,,,,,,,,METAR,413.0
SLSA 271800Z 17010KT 9999 BKN020 BKN070 25/18 Q1013,SLSA,2018-03-27T18:00:00Z,-13.77,-65.43,25.0,18.0,170,10,,6.21,29.911417,,,,,,,,,,,BKN,2000,BKN,7000,,,,,MVFR,,,,,,,,,,,,METAR,144.0
SLRY 271800Z 00000KT 9999 SCT020 28/19 Q1011,SLRY,2018-03-27T18:00:00Z,-14.3,-67.37,28.0,19.0,0,0,,6.21,29.852362,,,,,,,,,,,SCT,2000,,,,,,,VFR,,,,,,,,,,,,METAR,280.0
SLRQ 271800Z 00000KT 9999 SCT017 29/21 Q1012,SLRQ,2018-03-27T18:00:00Z,-14.42,-67.5,29.0,21.0,0,0,,6.21,29.88189,,,,,,,,,,,SCT,1700,,,,,,,VFR,,,,,,,,,,,,METAR,203.0
SLRI 271800Z 18004KT 9999 OVC020 25/21 Q1013,SLRI,2018-03-27T18:00:00Z,-11.02,-66.08,25.0,21.0,180,4,,6.21,29.911417,,,,,,,,,,,OVC,2000,,,,,,,MVFR,,,,,,,,,,,,METAR,135.0
SLRB 271800Z 00000KT 9999 OVC015 21/18 Q1018,SLRB,2018-03-27T18:00:00Z,-18.32,-59.75,21.0,18.0,0,0,,6.21,30.059055,,,,,,,,,,,OVC,1500,,,,,,,MVFR,,,,,,,,,,,,METAR,284.0
SLPS 271800Z 21005KT 9999 OVC015 26/20 Q1012,SLPS,2018-03-27T18:00:00Z,-18.98,-57.82,26.0,20.0,210,5,,6.21,29.88189,,,,,,,,,,,OVC,1500,,,,,,,MVFR,,,,,,,,,,,,METAR,135.0
SLOR 271800Z 33008KT 9999 SCT020 18/05 Q1031,SLOR,2018-03-27T18:00:00Z,-17.97,-67.08,18.0,5.0,330,8,,6.21,30.442913,,,,,,,,,,,SCT,2000,,,,,,,VFR,,,,,,,,,,,,METAR,3702.0
SLMG 271800Z 16004KT 9999 SCT020 BKN080 26/21 Q1011,SLMG,2018-03-27T18:00:00Z,-13.27,-64.07,26.0,21.0,160,4,,6.21,29.852362,,,,,,,,,,,SCT,2000,BKN,8000,,,,,VFR,,,,,,,,,,,,METAR,141.0
SLJO 271800Z 18008KT 9999 FEW020 BKN080 25/19 Q1013,SLJO,2018-03-27T18:00:00Z,-13.07,-64.67,25.0,19.0,180,8,,6.21,29.911417,,,,,,,,,,,FEW,2000,BKN,8000,,,,,VFR,,,,,,,,,,,,METAR,140.0
SLJE 271800Z 17005KT 9999 SCT020 BKN070 28/16 Q1017,SLJE,2018-03-27T18:00:00Z,-17.82,-60.75,28.0,16.0,170,5,,6.21,30.029528,,,,,,,,,,,SCT,2000,BKN,7000,,,,,VFR,,,,,,,,,,,,METAR,284.0
SLCP 271800Z 17006KT 9999 OVC030 23/19 Q1016,SLCP,2018-03-27T18:00:00Z,-16.15,-62.02,23.0,19.0,170,6,,6.21,30.0,,,,,,,,,,,OVC,3000,,,,,,,MVFR,,,,,,,,,,,,METAR,497.0
SLCO 271800Z 16008KT 9999 BKN025 SCT080 28/21 Q1012,SLCO,2018-03-27T18:00:00Z,-11.03,-68.78,28.0,21.0,160,8,,6.21,29.88189,,,,,,,,,,,BKN,2500,SCT,8000,,,,,MVFR,,,,,,,,,,,,METAR,272.0
SLCA 271800Z 00000KT 9999 FEW036 BKN070 24/11 Q1018,SLCA,2018-03-27T18:00:00Z,-20.0,-63.53,24.0,11.0,0,0,,6.21,30.059055,,,,,,,,,,,FEW,3600,BKN,7000,,,,,VFR,,,,,,,,,,,,METAR,798.0
VOBL 271800Z 19004KT 6000 FEW015 23/16 Q1018 NOSIG,VOBL,2018-03-27T18:00:00Z,13.2,77.7,23.0,16.0,190,4,,3.73,30.059055,,,,,,TRUE,,,,,FEW,1500,,,,,,,MVFR,,,,,,,,,,,,METAR,915.0
SAWG 271800Z 02023G33KT CAVOK 13/M01 Q0999,SAWG,2018-03-27T18:00:00Z,-51.62,-69.32,13.0,-1.0,20,23,33,6.21,29.498032,,,,,,,,,,,CAVOK,,,,,,,,VFR,,,,,,,,,,,,METAR,19.0
SASA 271800Z 05010KT 9999 BKN020 SCT200 19/09 Q1018,SASA,2018-03-27T18:00:00Z,-24.85,-65.47,19.0,9.0,50,10,,6.21,30.059055,,,,,,,,,,,BKN,2000,SCT,20000,,,,,MVFR,,,,,,,,,,,,METAR,1216.0
UTDL 271800Z 13002MPS 1400 R08/P2000D BR FU SCT070CB BKN086 12/11 Q1020 R08/29//55 NOSIG RMK QFE726/0968,UTDL,2018-03-27T18:00:00Z,40.22,69.7,12.0,11.0,130,4,,0.87,30.11811,,,,,,TRUE,,,,FU BR,SCT,7000,BKN,8600,,,,,LIFR,,,,,,,,,,,,SPECI,442.0
UTDT 271800Z 01002MPS 9999 VCTS SCT066CB 14/11 Q1019 35////// RMK QFE725/0966,UTDT,2018-03-27T18:00:00Z,37.87,68.87,14.0,11.0,10,4,,6.21,30.088583,,,,,,,,,,VCTS,SCT,6600,,,,,,,VFR,,,,,,,,,,,,METAR,449.0
UTDK 271800Z 02007MPS 9999 SCT097 15/08 Q1021 R01/09//70 RMK QFE708/0944,UTDK,2018-03-27T18:00:00Z,37.98,69.8,15.0,8.0,20,14,,6.21,30.147638,,,,,,,,,,,SCT,9700,,,,,,,VFR,,,,,,,,,,,,METAR,699.0
UTDD 271800Z 08004MPS 9999 VCTS SCT053CB BKN061 BKN093 12/09 Q1021 R09/29//50 TEMPO TS RMK QFE697/0930,UTDD,2018-03-27T18:00:00Z,38.53,68.82,12.0,9.0,80,8,,6.21,30.147638,,,,,,,,,,VCTS,SCT,5300,BKN,6100,BKN,9300,,,VFR,,,,,,,,,,,,METAR,803.0
UCFL 271800Z 04005MPS 9999 OVC100 06/03 Q1020 R07/CLRD70 RMK G/O,UCFL,2018-03-27T18:00:00Z,42.58,76.7,6.0,3.0,40,10,,6.21,30.11811,,,,,,,,,,,OVC,10000,,,,,,,VFR,,,,,,,,,,,,METAR,1648.0
UCFO 271800Z 10002MPS 9999 SCT040CB BKN116 10/09 Q1020 R12/29//50 NOSIG,UCFO,2018-03-27T18:00:00Z,40.6,72.8,10.0,9.0,100,4,,6.21,30.11811,,,,,,TRUE,,,,,SCT,4000,BKN,11600,,,,,VFR,,,,,,,,,,,,METAR,884.0
UCFM 271800Z 22002MPS 200V260 CAVOK 09/07 Q1020 R08/29//55 NOSIG,UCFM,2018-03-27T18:00:00Z,43.07,74.48,9.0,7.0,220,4,,6.21,30.11811,,,,,,TRUE,,,,,CAVOK,,,,,,,,VFR,,,,,,,,,,,,METAR,633.0
UAUU 271800Z 23008MPS CAVOK M04/M07 Q1013 R15/810160 NOSIG RMK QFE743/0991,UAUU,2018-03-27T18:00:00Z,53.2,63.55,-4.0,-7.0,230,16,,6.21,29.911417,,,,,,TRUE,,,,,CAVOK,,,,,,,,VFR,,,,,,,,,,,,METAR,182.0
UATT 271800Z 20003MPS 9999 OVC032 01/M00 Q1017 R13/0///60 NOSIG RMK QFE743/0991,UATT,2018-03-27T18:00:00Z,50.25,57.2,1.0,0.0,200,6,,6.21,30.029528,,,,,,TRUE,,,,,OVC,3200,,,,,,,VFR,,,,,,,,,,,,METAR,227.0
UATG 271800Z 12005MPS 9999 SCT033CB 08/01 Q1015 R14/CLRD70 NOSIG RMK QFE763/1018,UATG,2018-03-27T18:00:00Z,47.12,51.83,8.0,1.0,120,10,,6.21,29.970472,,,,,,TRUE,,,,,SCT,3300,,,,,,,VFR,,,,,,,,,,,,SPECI,-22.0
UATE 271800Z 11005MPS CAVOK 09/06 Q1012 R12/0///70 NOSIG RMK QFE757/1010,UATE,2018-03-27T18:00:00Z,43.87,51.1,9.0,6.0,110,10,,6.21,29.88189,,,,,,TRUE,,,,,CAVOK,,,,,,,,VFR,,,,,,,,,,,,METAR,22.0
UARR 271800Z 18006MPS 0350 R22/1000 FZFG VV001 M01/M01 Q1014 R22/220260 TEMPO 0200 FZFG VV001 RMK QBB050 QFE757/1010,UARR,2018-03-27T18:00:00Z,51.15,51.53,-1.0,-1.0,180,12,,0.22,29.940945,,,,,,,,,,FZFG,OVX,0,,,,,,,LIFR,,,,,,,,,,,100,SPECI,38.0
UASP 271800Z 19003MPS CAVOK M04/M05 Q1018 R21/0///60 NOSIG RMK QFE752/1003,UASP,2018-03-27T18:00:00Z,52.2,77.07,-4.0,-5.0,190,6,,6.21,30.059055,,,,,,TRUE,,,,,CAVOK,,,,,,,,VFR,,,,,,,,,,,,METAR,125.0
UASK 271800Z 04001MPS 7000 SCT160 M00/M01 Q1020 R12/090060 NOSIG RMK QFE740/0987,UASK,2018-03-27T18:00:00Z,50.03,82.5,0.0,-1.0,40,2,,4.35,30.11811,,,,,,TRUE,,,,,SCT,16000,,,,,,,MVFR,,,,,,,,,,,,METAR,286.0
UAOO 271800Z 03003MPS CAVOK 02/M02 Q1023 NOSIG RMK QFE755/1007,UAOO,2018-03-27T18:00:00Z,44.7,65.6,2.0,-2.0,30,6,,6.21,30.206694,,,,,,TRUE,,,,,CAVOK,,,,,,,,VFR,,,,,,,,,,,,SPECI,129.0
UAKK 271800Z 28004MPS 9999 BKN025 M00/M03 Q1019 R23/0///70 NOSIG RMK QFE717/0956,UAKK,2018-03-27T18:00:00Z,49.67,73.33,0.0,-3.0,280,8,,6.21,30.088583,,,,,,TRUE,,,,,BKN,2500,,,,,,,MVFR,,,,,,,,,,,,METAR,538.0
UAII 271800Z 09001MPS 8000 SCT050CB BKN100 10/08 Q1020 R10/0///70 NOSIG RMK QFE730/0973,UAII,2018-03-27T18:00:00Z,42.37,69.48,10.0,8.0,90,2,,4.97,30.11811,,,,,,TRUE,,,,,SCT,5000,BKN,10000,,,,,MVFR,,,,,,,,,,,,METAR,422.0
UACC 271800Z 24007MPS CAVOK M04/M06 Q1018 R22/0///70 NOSIG RMK QFE732/0977,UACC,2018-03-27T18:00:00Z,51.02,71.47,-4.0,-6.0,240,14,,6.21,30.059055,,,,,,TRUE,,,,,CAVOK,,,,,,,,VFR,,,,,,,,,,,,METAR,355.0
UADD 271800Z 23002MPS 9999 SCT046 OVC100 09/09 Q1020 R13/19//60 NOSIG RMK QFE708/0944,UADD,2018-03-27T18:00:00Z,42.85,71.3,9.0,9.0,230,4,,6.21,30.11811,,,,,,TRUE,,,,,SCT,4600,OVC,10000,,,,,VFR,,,,,,,,,,,,METAR,665.0
UAAA 271800Z 15002MPS 110V170 3300 BR SCT100 OVC200 07/06 Q1020 R88/2/0150 NOSIG,UAAA,2018-03-27T18:00:00Z,43.35,77.03,7.0,6.0,150,4,,2.05,30.11811,,,,,,TRUE,,,,BR,SCT,10000,OVC,20000,,,,,IFR,,,,,,,,,,,,METAR,681.0
UTAA 271800Z 12006KT 9999 NSC 16/11 Q1014 R88/70D NOSIG,UTAA,2018-03-27T18:00:00Z,37.98,58.37,16.0,11.0,120,6,,6.21,29.940945,,,,,,TRUE,,,,,CLR,,,,,,,,VFR,,,,,,,,,,,,METAR,210.0
FMSD 271800Z 08010KT 9999 SCT016 SCT033 26/23 Q1014,FMSD,2018-03-27T18:00:00Z,-25.02,46.95,26.0,23.0,80,10,,6.21,29.940945,,,,,,,,,,,SCT,1600,SCT,3300,,,,,VFR,,,,,,,,,,,,METAR,9.0
FMNM 271800Z 34006KT 9999 FEW020CB 28/25 Q1010 NOSIG,FMNM,2018-03-27T18:00:00Z,-15.67,46.35,28.0,25.0,340,6,,6.21,29.822834,,,,,,TRUE,,,,,FEW,2000,,,,,,,VFR,,,,,,,,,,,,METAR,18.0
FMMT 271800Z 00000KT 9999 SCT017 24/23 Q1013 NOSIG,FMMT,2018-03-27T18:00:00Z,-18.12,49.38,24.0,23.0,0,0,,6.21,29.911417,,,,,,TRUE,,,,,SCT,1700,,,,,,,VFR,,,,,,,,,,,,METAR,6.0
FMCH 271800Z 08002KT 9999 FEW020 25/24 Q1013 NOSIG,FMCH,2018-03-27T18:00:00Z,-11.52,43.27,25.0,24.0,80,2,,6.21,29.911417,,,,,,TRUE,,,,,FEW,2000,,,,,,,VFR,,,,,,,,,,,,METAR,29.0
VECC 271800Z 18009KT 2800 HZ NSC 27/18 Q1009 NOSIG,VECC,2018-03-27T18:00:00Z,22.65,88.43,27.0,18.0,180,9,,1.74,29.793306,,,,,,TRUE,,,,HZ,CLR,,,,,,,,IFR,,,,,,,,,,,,METAR,6.0
UDSG 271800Z 00000KT 9999 FEW043CB SCT046 08/M01 Q1016 R02/CLRD70 NOSIG,UDSG,2018-03-27T18:00:00Z,40.75,43.87,8.0,-1.0,0,0,,6.21,30.0,,,,,,TRUE,,,,,FEW,4300,SCT,4600,,,,,VFR,,,,,,,,,,,,METAR,1524.0
UDYZ 271800Z 28003KT 9999 NSC 15/00 Q1014 R09/010070 NOSIG,UDYZ,2018-03-27T18:00:00Z,40.15,44.4,15.0,0.0,280,3,,6.21,29.940945,,,,,,TRUE,,,,,CLR,,,,,,,,VFR,,,,,,,,,,,,METAR,865.0
ZYTX 271800Z 25002MPS CAVOK 12/06 Q1008 NOSIG,ZYTX,2018-03-27T18:00:00Z,41.63,123.48,12.0,6.0,250,4,,6.21,29.763779,,,,,,TRUE,,,,,CAVOK,,,,,,,,VFR,,,,,,,,,,,,METAR,35.0
ZYTL 271800Z 18002MPS 150V220 CAVOK 17/08 Q1007 NOSIG,ZYTL,2018-03-27T18:00:00Z,38.97,121.53,17.0,8.0,180,4,,6.21,29.734253,,,,,,TRUE,,,,,CAVOK,,,,,,,,VFR,,,,,,,,,,,,METAR,97.0
ZWWW 271800Z VRB02MPS CAVOK 10/03 Q1019 NOSIG,ZWWW,2018-03-27T18:00:00Z,43.88,87.47,10.0,3.0,0,4,,6.21,30.088583,,,,,,TRUE,,,,,CAVOK,,,,,,,,VFR,,,,,,,,,,,,METAR,654.0
ZWSH 271800Z 27009G15MPS 9999 BKN040 17/M06 Q1012 NOSIG,ZWSH,2018-03-27T18:00:00Z,39.55,76.02,17.0,-6.0,270,17,29,6.21,29.88189,,,,,,TRUE,,,,,BKN,4000,,,,,,,VFR,,,,,,,,,,,,METAR,1380.0
ZSSS 271800Z 14003MPS CAVOK 13/11 Q1016 NOSIG,ZSSS,2018-03-27T18:00:00Z,31.2,121.33,13.0,11.0,140,6,,6.21,30.0,,,,,,TRUE,,,,,CAVOK,,,,,,,,VFR,,,,,,,,,,,,METAR,7.0
ZSPD 271800Z 16003MPS 5000 BR NSC 10/09 Q1017 NOSIG,ZSPD,2018-03-27T18:00:00Z,31.15,121.8,10.0,9.0,160,6,,3.11,30.029528,,,,,,TRUE,,,,BR,CLR,,,,,,,,MVFR,,,,,,,,,,,,METAR,4.0
ZSHC 271800Z 00000MPS 3500 BR NSC 13/13 Q1015 NOSIG,ZSHC,2018-03-27T18:00:00Z,30.22,120.43,13.0,13.0,0,0,,2.17,29.970472,,,,,,TRUE,,,,BR,CLR,,,,,,,,IFR,,,,,,,,,,,,METAR,43.0
ZGGG 271800Z 09001MPS 8000 NSC 20/16 Q1014 NOSIG,ZGGG,2018-03-27T18:00:00Z,23.4,113.3,20.0,16.0,90,2,,4.97,29.940945,,,,,,TRUE,,,,,CLR,,,,,,,,MVFR,,,,,,,,,,,,METAR,15.0
ZBYN 271800Z 07002MPS 8000 NSC 11/M03 Q1011 NOSIG,ZBYN,2018-03-27T18:00:00Z,37.77,112.63,11.0,-3.0,70,4,,4.97,29.852362,,,,,,TRUE,,,,,CLR,,,,,,,,MVFR,,,,,,,,,,,,METAR,779.0
ZBTJ 271800Z 25003MPS 220V280 5000 HZ NSC 21/13 Q1005 NOSIG,ZBTJ,2018-03-27T18:00:00Z,39.12,117.35,21.0,13.0,250,6,,3.11,29.675198,,,,,,TRUE,,,,HZ,CLR,,,,,,,,MVFR,,,,,,,,,,,,METAR,3.0
ZBSJ 271800Z 33001MPS 8000 NSC 15/08 Q1004 NOSIG,ZBSJ,2018-03-27T18:00:00Z,38.28,114.7,15.0,8.0,330,2,,4.97,29.64567,,,,,,TRUE,,,,,CLR,,,,,,,,MVFR,,,,,,,,,,,,METAR,71.0
ZBAA 271800Z 35002MPS 3500 HZ NSC 15/08 Q1005 NOSIG,ZBAA,2018-03-27T18:00:00Z,40.07,116.58,15.0,8.0,350,4,,2.17,29.675198,,,,,,TRUE,,,,HZ,CLR,,,,,,,,IFR,,,,,,,,,,,,METAR,30.0
ZUUU 271800Z VRB01MPS CAVOK 15/12 Q1015 NOSIG,ZUUU,2018-03-27T18:00:00Z,30.58,103.95,15.0,12.0,0,2,,6.21,29.970472,,,,,,TRUE,,,,,CAVOK,,,,,,,,VFR,,,,,,,,,,,,METAR,508.0
ZUGY 271800Z 17001MPS 3500 -SHRA BR FEW004 BKN015 FEW026CB OVC030 14/14 Q1017 NOSIG,ZUGY,2018-03-27T18:00:00Z,26.53,106.8,14.0,14.0,170,2,,2.17,30.029528,,,,,,TRUE,,,,-SHRA BR,FEW,400,BKN,1500,FEW,2600,OVC,3000,IFR,,,,,,,,,,,,METAR,1074.0
ZSQD 271800Z 17007MPS CAVOK 15/07 Q1010 NOSIG,ZSQD,2018-03-27T18:00:00Z,36.27,120.38,15.0,7.0,170,14,,6.21,29.822834,,,,,,TRUE,,,,,CAVOK,,,,,,,,VFR,,,,,,,,,,,,METAR,77.0
ZSNB 271800Z 18003MPS 5000 BR NSC 14/12 Q1017 NOSIG,ZSNB,2018-03-27T18:00:00Z,29.83,121.47,14.0,12.0,180,6,,3.11,30.029528,,,,,,TRUE,,,,BR,CLR,,,,,,,,MVFR,,,,,,,,,,,,METAR,4.0
ZSFZ 271800Z 36002MPS 330V030 7000 BKN020 15/12 Q1017 NOSIG,ZSFZ,2018-03-27T18:00:00Z,25.93,119.67,15.0,12.0,360,4,,4.35,30.029528,,,,,,TRUE,,,,,BKN,2000,,,,,,,MVFR,,,,,,,,,,,,METAR,85.0
ZSAM 271800Z 05002MPS 9999 BKN050 18/14 Q1016 NOSIG,ZSAM,2018-03-27T18:00:00Z,24.53,118.13,18.0,14.0,50,4,,6.21,30.0,,,,,,TRUE,,,,,BKN,5000,,,,,,,VFR,,,,,,,,,,,,METAR,18.0
ZPPP 271800Z 18002MPS 8000 SHRA FEW026CB SCT026 OVC040 10/09 Q1021 NOSIG,ZPPP,2018-03-27T18:00:00Z,25.0,102.75,10.0,9.0,180,4,,4.97,30.147638,,,,,,TRUE,,,,SHRA,FEW,2600,SCT,2600,OVC,4000,,,MVFR,,,,,,,,,,,,METAR,1892.0
ZLXY 271800Z 26002MPS CAVOK 10/06 Q1010 NOSIG,ZLXY,2018-03-27T18:00:00Z,34.43,108.75,10.0,6.0,260,4,,6.21,29.822834,,,,,,TRUE,,,,,CAVOK,,,,,,,,VFR,,,,,,,,,,,,METAR,479.0
ZGSZ 271800Z 15003MPS 4800 BR NSC 20/18 Q1015 NOSIG,ZGSZ,2018-03-27T18:00:00Z,22.63,113.8,20.0,18.0,150,6,,2.98,29.970472,,,,,,TRUE,,,,BR,CLR,,,,,,,,IFR,,,,,,,,,,,,METAR,18.0
ZGOW 271800Z 00000MPS 7000 FEW020 17/16 Q1016 NOSIG,ZGOW,2018-03-27T18:00:00Z,23.55,116.5,17.0,16.0,0,0,,4.35,30.0,,,,,,TRUE,,,,,FEW,2000,,,,,,,MVFR,,,,,,,,,,,,METAR,3.0
ZGNN 271800Z 33001MPS 4000 BR NSC 20/19 Q1014 NOSIG,ZGNN,2018-03-27T18:00:00Z,22.62,108.17,20.0,19.0,330,2,,2.49,29.940945,,,,,,TRUE,,,,BR,CLR,,,,,,,,IFR,,,,,,,,,,,,METAR,73.0
YBDV 271800Z AUTO 15008KT //// // ////// 24/05 Q1011,YBDV,2018-03-27T18:00:00Z,-25.9,139.35,24.0,5.0,150,8,,,29.852362,,,TRUE,,,,,,,,,,,,,,,,,,,,,,,,,,,,METAR,47.0
CYTR 271800Z 16006KT 15SM -RAPL BKN022 OVC150 04/M01 A3018 RMK SC6AC2 SLP225,CYTR,2018-03-27T18:00:00Z,44.12,-77.52,4.0,-1.0,160,6,,15.0,30.180119,1022.5,,,,,,,,,-RA -PL,BKN,2200,OVC,15000,,,,,MVFR,,,,,,,,,,,,SPECI,86.0
CYQY 271800Z 06013G18KT 15SM BKN250 03/M05 A3057 RMK CI5 SLP356,CYQY,2018-03-27T18:00:00Z,46.17,-60.03,3.0,-5.0,60,13,18,15.0,30.569881,1035.6,,,,,,,,,,BKN,25000,,,,,,,VFR,,,,,,,,,,,,SPECI,62.0
CYQX 271800Z 26011G16KT 20SM FEW260 08/M15 A3059 RMK CI1 SLP369,CYQX,2018-03-27T18:00:00Z,48.95,-54.58,8.0,-15.0,260,11,16,20.0,30.590551,1036.9,,,,,,,,,,FEW,26000,,,,,,,VFR,,,,,,,,,,,,SPECI,151.0
CYQQ 271800Z 34012KT 20SM FEW011 SCT055 BKN080 BKN270 10/08 A3020 RMK SF1SC3AC1CI2 CONTRAILS SLP226,CYQQ,2018-03-27T18:00:00Z,49.72,-124.9,10.0,8.0,340,12,,20.0,30.200787,1022.6,,,,,,,,,,FEW,1100,SCT,5500,BKN,8000,BKN,27000,VFR,,,,,,,,,,,,SPECI,24.0
CYQM 271800Z 02013KT 15SM FEW220 02/M11 A3052 RMK CI1 CI TR SLP340,CYQM,2018-03-27T18:00:00Z,46.12,-64.67,2.0,-11.0,20,13,,15.0,30.519686,1034.0,,,,,,,,,,FEW,22000,,,,,,,VFR,,,,,,,,,,,,SPECI,71.0
CYQG 271800Z 21012G18KT 4SM -RA BR OVC004 09/08 A2995 RMK NS8 SLP148,CYQG,2018-03-27T18:00:00Z,42.27,-82.97,9.0,8.0,210,12,18,4.0,29.949802,1014.8,,,,,,,,,-RA BR,OVC,400,,,,,,,LIFR,,,,,,,,,,,,SPECI,190.0
CYQB 271800Z 06011KT 30SM BKN240 05/M07 A3039 RMK CI5 SLP296,CYQB,2018-03-27T18:00:00Z,46.78,-71.37,5.0,-7.0,60,11,,30.0,30.389763,1029.6,,,,,,,,,,BKN,24000,,,,,,,VFR,,,,,,,,,,,,SPECI,73.0
CYOW 271800Z 12011KT 15SM BKN110 BKN150 06/M06 A3022 RMK AC5AC2 PRESFR SLP241,CYOW,2018-03-27T18:00:00Z,45.32,-75.67,6.0,-6.0,120,11,,15.0,30.221457,1024.1,,,,,,,,,,BKN,11000,BKN,15000,,,,,VFR,,,,,,,,,,,,SPECI,114.0
CYMX 271800Z 13013G20KT 45SM OVC190 06/M09 A3030 RMK AS8 SLP267,CYMX,2018-03-27T18:00:00Z,45.67,-74.02,6.0,-9.0,130,13,20,45.0,30.301182,1026.7,,,,,,,,,,OVC,19000,,,,,,,VFR,,,,,,,,,,,,SPECI,82.0
CYJT 271800Z 27006KT 15SM FEW220 05/M08 A3062 RMK CI1 SLP372,CYJT,2018-03-27T18:00:00Z,48.55,-58.57,5.0,-8.0,270,6,,15.0,30.620079,1037.2,,,,,,,,,,FEW,22000,,,,,,,VFR,,,,,,,,,,,,SPECI,26.0
CYHZ 271800Z 06017G26KT 15SM FEW100 FEW260 09/M12 A3039 RMK AC1CI1 AC TR CI TR SLP298,CYHZ,2018-03-27T18:00:00Z,44.87,-63.5,9.0,-12.0,60,17,26,15.0,30.389763,1029.8,,,,,,,,,,FEW,10000,FEW,26000,,,,,VFR,,,,,,,,,,,,SPECI,145.0
CYFC 271800Z AUTO 09006KT 9SM CLR 05/M11 A3050 RMK SLP330,CYFC,2018-03-27T18:00:00Z,45.87,-66.52,5.0,-11.0,90,6,,9.0,30.499016,1033.0,,TRUE,,,,,,,,CLR,,,,,,,,VFR,,,,,,,,,,,,SPECI,20.0
CYFB 271800Z 15006KT 30SM FEW030 M17/M22 A3025 RMK SC1 SLP249,CYFB,2018-03-27T18:00:00Z,63.75,-68.55,-17.0,-22.0,150,6,,30.0,30.250984,1024.9,,,,,,,,,,FEW,3000,,,,,,,VFR,,,,,,,,,,,,SPECI,34.0
CYBG 271800Z 09012KT 25SM BKN240 10/M12 A3030 RMK CI7 SLP267,CYBG,2018-03-27T18:00:00Z,48.33,-70.98,10.0,-12.0,90,12,,25.0,30.301182,1026.7,,,,,,,,,,BKN,24000,,,,,,,VFR,,,,,,,,,,,,SPECI,159.0
CYAW 271800Z 05017KT 15SM FEW100 FEW250 11/M08 A3039 RMK AC1CI1 DA-756FT SLP293,CYAW,2018-03-27T18:00:00Z,44.63,-63.5,11.0,-8.0,50,17,,15.0,30.389763,1029.3,,,,,,,,,,FEW,10000,FEW,25000,,,,,VFR,,,,,,,,,,,,METAR,51.0
CYZR 271800Z AUTO 19010G19KT 9SM OVC006 07/06 A2995 RMK SLP147,CYZR,2018-03-27T18:00:00Z,43.0,-82.3,7.0,6.0,190,10,19,9.0,29.949802,1014.7,,TRUE,,,,,,,,OVC,600,,,,,,,IFR,,,,,,,,,,,,METAR,181.0
CYYY 271800Z 02008KT 30SM FEW260 01/M03 A3045 RMK CI2 SLP315,CYYY,2018-03-27T18:00:00Z,48.6,-68.22,1.0,-3.0,20,8,,30.0,30.448818,1031.5,,,,,,,,,,FEW,26000,,,,,,,VFR,,,,,,,,,,,,METAR,52.0
CYWA 271800Z AUTO 15010G18KT 8SM -RA FEW055 FEW063 SCT075 04/M05 A3013 RMK PCPN 0.5MM PAST HR SLP211,CYWA,2018-03-27T18:00:00Z,45.95,-77.32,4.0,-5.0,150,10,18,8.0,30.129921,1021.1,,TRUE,,,,,,,-RA,FEW,5500,FEW,6300,SCT,7500,,,VFR,,,,,,,,,,,,METAR,130.0
CYVV 271800Z 18016G21KT 5SM -RA OVC015 05/05 A2990 RMK SC8 PRESFR SLP135,CYVV,2018-03-27T18:00:00Z,44.75,-81.08,5.0,5.0,180,16,21,5.0,29.899607,1013.5,,,,,,,,,-RA,OVC,1500,,,,,,,MVFR,,,,,,,,,,,,METAR,222.0
CYVP 271800Z 07009KT 15SM FEW030 BKN045 OVC055 M05/M12 A3020 RMK SC1SC4SC3 PRESFR SLP233,CYVP,2018-03-27T18:00:00Z,58.12,-68.42,-5.0,-12.0,70,9,,15.0,30.200787,1023.3,,,,,,,,,,FEW,3000,BKN,4500,OVC,5500,,,VFR,,,,,,,,,,,,SPECI,60.0
CYTZ 271800Z AUTO 10007KT 9SM -RA OVC016 03/02 A3008 RMK PRESFR PCPN 0.8MM PAST HR SLP189,CYTZ,2018-03-27T18:00:00Z,43.63,-79.4,3.0,2.0,100,7,,9.0,30.079725,1018.9,,TRUE,,,,,,,-RA,OVC,1600,,,,,,,MVFR,,,,,,,,,,,,METAR,77.0
CYTL 271800Z AUTO 26014G19KT 9SM OVC038 03/M04 A2959 RMK SLP034,CYTL,2018-03-27T18:00:00Z,53.82,-89.88,3.0,-4.0,260,14,19,9.0,29.589567,1003.4,,TRUE,,,,,,,,OVC,3800,,,,,,,VFR,,,,,,,,,,,,SPECI,224.0
CYRL 271800Z 27010KT 15SM SCT023 03/M03 A2976 RMK SC3 SLP098,CYRL,2018-03-27T18:00:00Z,51.07,-93.78,3.0,-3.0,270,10,,15.0,29.760826,1009.8,,,,,,,,,,SCT,2300,,,,,,,VFR,,,,,,,,,,,,METAR,383.0
CYRJ 271800Z 10005KT 070V130 40SM SCT230 06/M08 A3026 RMK CI4 SLP257,CYRJ,2018-03-27T18:00:00Z,48.52,-72.27,6.0,-8.0,100,5,,40.0,30.259842,1025.7,,,,,,,,,,SCT,23000,,,,,,,VFR,,,,,,,,,,,,METAR,179.0
CYQT 271800Z 24009KT 230V360 20SM FEW015 BKN028 OVC035 03/M01 A2985 RMK SF1SC4SC3 SLP119,CYQT,2018-03-27T18:00:00Z,48.37,-89.32,3.0,-1.0,240,9,,20.0,29.84941,1011.9,,,,,,,,,,FEW,1500,BKN,2800,OVC,3500,,,MVFR,,,,,,,,,,,,METAR,199.0
CYND 271800Z 09009KT 15SM OVC140 03/M04 A3024 RMK AC8 SLP246,CYND,2018-03-27T18:00:00Z,45.52,-75.57,3.0,-4.0,90,9,,15.0,30.239174,1024.6,,,,,,,,,,OVC,14000,,,,,,,VFR,,,,,,,,,,,,METAR,64.0
CYNA 271800Z AUTO 24004KT 9SM CLR 02/M09 A3059 RMK SLP361,CYNA,2018-03-27T18:00:00Z,50.17,-61.82,2.0,-9.0,240,4,,9.0,30.590551,1036.1,,TRUE,,,,,,,,CLR,,,,,,,,VFR,,,,,,,,,,,,METAR,11.0
CYKO 271800Z 13033G38KT 1/4SM BLSN BKN220 M18/M21 A2996 RMK BLSN2CI3 PRESFR SLP149,CYKO,2018-03-27T18:00:00Z,60.82,-78.15,-18.0,-21.0,130,33,38,0.25,29.958662,1014.9,,,,,,,,,BLSN,BKN,22000,,,,,,,LIFR,,,,,,,,,,,,METAR,9.0
CYHU 271800Z AUTO 15014G21KT 9SM SCT190 BKN220 07/M06 A3032 RMK PRESFR SLP269,CYHU,2018-03-27T18:00:00Z,45.52,-73.42,7.0,-6.0,150,14,21,9.0,30.318897,1026.9,,TRUE,,,,,,,,SCT,19000,BKN,22000,,,,,VFR,,,,,,,,,,,,METAR,27.0
CYGR 271800Z 08011KT 20SM FEW270 01/M04 A3060 RMK CI1 CI TR SLP364,CYGR,2018-03-27T18:00:00Z,47.42,-61.77,1.0,-4.0,80,11,,20.0,30.59941,1036.4,,,,,,,,,,FEW,27000,,,,,,,VFR,,,,,,,,,,,,METAR,10.0
CYGP 271800Z 18010G15KT 130V210 15SM SKC 09/M18 A3053 RMK SLP343,CYGP,2018-03-27T18:00:00Z,48.77,-64.47,9.0,-18.0,180,10,15,15.0,30.528543,1034.3,,,,,,,,,,SKC,,,,,,,,VFR,,,,,,,,,,,,METAR,33.0
CYFT 271800Z 27008KT 15SM FEW025 SCT220 03/M05 A3039 RMK CU1CI3 CU TR SLP296,CYFT,2018-03-27T18:00:00Z,55.07,-59.17,3.0,-5.0,270,8,,15.0,30.389763,1029.6,,,,,,,,,,FEW,2500,SCT,22000,,,,,VFR,,,,,,,,,,,,SPECI,71.0
CZST 271800Z /////KT 12SM -SHRA FEW012 BKN025 OVC065 07/02 A3000 RMK SC2SC3SC3 TCU EMBD SLP159,CZST,2018-03-27T18:00:00Z,55.93,-129.98,7.0,2.0,,,,12.0,30.0,1015.9,,,,,,,,,-SHRA,FEW,1200,BKN,2500,OVC,6500,,,MVFR,,,,,,,,,,,,METAR,7.0
CZCP 271800Z AUTO 08012KT ////SM //// NCD M27/M30 A3000,CZCP,2018-03-27T18:00:00Z,70.17,-124.72,-27.0,-30.0,80,12,,,30.0,,,TRUE,,,,,,,,CLR,,,,,,,,,,,,,,,,,,,,METAR,93.0
CWZZ 271800Z AUTO ///// ////SM //// NCD M03/M20 A3014,CWZZ,2018-03-27T18:00:00Z,58.32,-62.57,-3.0,-20.0,,,,,30.138779,,,TRUE,,,,,,,,CLR,,,,,,,,,,,,,,,,,,,,METAR,483.0
CWVH 271800Z AUTO 09004KT M18/ A2996 RMK SLP183,CWVH,2018-03-27T18:00:00Z,68.9,-133.93,-18.0,,90,4,,,29.958662,1018.3,,TRUE,,,,,,,,,,,,,,,,,,,,,,,,,,,,METAR,261.0
CWUW 271800Z AUTO 23016KT ////SM //// BKN003 BKN018 M27/M29 A2976,CWUW,2018-03-27T18:00:00Z,68.65,-71.17,-27.0,-29.0,230,16,,,29.760826,,,TRUE,,,,,,,,BKN,300,BKN,1800,,,,,,,,,,,,,,,,,METAR,527.0
CWUP 271800Z AUTO ///// M22/ A2969 RMK PRESRR SLP107,CWUP,2018-03-27T18:00:00Z,68.47,-66.82,-22.0,,,,,,29.68996,1010.7,,TRUE,,,,,,,,,,,,,,,,,,,,,,,,,,,,METAR,390.0
CWSW 271800Z 17014G20KT 10SM -SN FEW010 BKN030 BKN210 02/M00 A2990 RMK SC1SC5CI1 SLP161,CWSW,2018-03-27T18:00:00Z,49.75,-114.87,2.0,0.0,170,14,20,10.0,29.899607,1016.1,,,,,,,,,-SN,FEW,1000,BKN,3000,BKN,21000,,,MVFR,,,,,,,,,,,,METAR,1138.0
CWRX 271800Z AUTO 24017KT ////SM //// ////// M26/M28 A2993,CWRX,2018-03-27T18:00:00Z,69.07,-79.02,-26.0,-28.0,240,17,,,29.929134,,,TRUE,,,,,,,,,,,,,,,,,,,,,,,,,,,,METAR,41.0
CWPX 271800Z AUTO ///// ////SM //// NCD M37/M42 A2982,CWPX,2018-03-27T18:00:00Z,69.02,-107.82,-37.0,-42.0,,,,,29.819881,,,TRUE,,,,,,,,CLR,,,,,,,,,,,,,,,,,,,,METAR,165.0
CWOB 271800Z AUTO 32017G24KT ////SM //// NCD M17/M22 A2997,CWOB,2018-03-27T18:00:00Z,63.32,-64.15,-17.0,-22.0,320,17,24,,29.970472,,,TRUE,,,,,,,,CLR,,,,,,,,,,,,,,,,,,,,METAR,367.0
CWLY 271800Z AUTO 20022G35KT 170V240 9SM FEW070 BKN091 12/01 A2996 RMK PRESFR SLP152,CWLY,2018-03-27T18:00:00Z,50.22,-121.58,12.0,1.0,200,22,35,9.0,29.958662,1015.2,,TRUE,,,,,,,,FEW,7000,BKN,9100,,,,,VFR,,,,,,,,,,,,METAR,229.0
CWLI 271800Z AUTO 33004KT ////SM //// BKN017 OVC025 M22/M24 A2998,CWLI,2018-03-27T18:00:00Z,69.58,-130.9,-22.0,-24.0,330,4,,,29.97933,,,TRUE,,,,,,,,BKN,1700,OVC,2500,,,,,,,,,,,,,,,,,METAR,102.0
CWKW 271800Z AUTO ///// A3009,CWKW,2018-03-27T18:00:00Z,59.97,-64.17,,,,,,,30.088583,,,TRUE,,,,,,,,,,,,,,,,,,,,,,,,,,,,METAR,551.0
CWKM 271800Z AUTO 08014KT M26/ A3000 RMK SLP165,CWKM,2018-03-27T18:00:00Z,69.6,-140.17,-26.0,,80,14,,,30.0,1016.5,,TRUE,,,,,,,,,,,,,,,,,,,,,,,,,,,,METAR,13.0
CWIL 271800Z AUTO VRB02KT ////SM NCD ///// A////,CWIL,2018-03-27T18:00:00Z,68.32,-100.07,,,0,2,,,,,,TRUE,,,,,,,,CLR,,,,,,,,,,,,,,,,,,,,METAR,36.0
CWCA 271800Z 27008KT 15SM FEW200 06/M07 A3044 RMK CI1 CI TR SLP311,CWCA,2018-03-27T18:00:00Z,53.7,-57.02,6.0,-7.0,270,8,,15.0,30.43996,1031.1,,,,,,,,,,FEW,20000,,,,,,,VFR,,,,,,,,,,,,METAR,14.0
CWAE 271800Z 18005KT 15SM FEW016 BKN041 04/04 A3011 RMK SC2SC5 WND ESTD SLP214,CWAE,2018-03-27T18:00:00Z,50.13,-122.95,4.0,4.0,180,5,,15.0,30.109253,1021.4,,,,,,,,,,FEW,1600,BKN,4100,,,,,VFR,,,,,,,,,,,,METAR,658.0
CYXP 271800Z 25014KT 15SM DRSN FEW020 M19/M24 A3012 RMK SC1 SLP204,CYXP,2018-03-27T18:00:00Z,66.15,-65.72,-19.0,-24.0,250,14,,15.0,30.121063,1020.4,,,,,,,,,DRSN,FEW,2000,,,,,,,VFR,,,,,,,,,,,,METAR,23.0
CYWY 271800Z 30008KT 15SM SKC M20/M28 A3001 RMK SLP185,CYWY,2018-03-27T18:00:00Z,63.22,-123.42,-20.0,-28.0,300,8,,15.0,30.008858,1018.5,,,,,,,,,,SKC,,,,,,,,VFR,,,,,,,,,,,,METAR,150.0
CYWJ 271800Z 29011KT 50SM SCT070 M18/M26 A2994 RMK AC3 HZ DIST E SLP168,CYWJ,2018-03-27T18:00:00Z,65.22,-123.43,-18.0,-26.0,290,11,,50.0,29.940945,1016.8,,,,,,,,,,SCT,7000,,,,,,,VFR,,,,,,,,,,,,METAR,176.0
CYWE 271800Z AUTO 34005KT 300V020 9SM CLR M27/M30 A2981 RMK SLP151,CYWE,2018-03-27T18:00:00Z,64.18,-114.08,-27.0,-30.0,340,5,,9.0,29.811024,1015.1,,TRUE,,,,,,,,CLR,,,,,,,,VFR,,,,,,,,,,,,METAR,371.0
CYVM 271800Z CCA 25003KT 15SM IC FEW015 FEW025 SCT080 M17/M20 A2994 RMK SC1SC2AC2 SC TR SLP141,CYVM,2018-03-27T18:00:00Z,67.53,-64.02,-17.0,-20.0,250,3,,15.0,29.940945,1014.1,,,,,,,,,IC,FEW,1500,FEW,2500,SCT,8000,,,VFR,,,,,,,,,,,,SPECI,6.0
CYUT 271800Z 11004KT 25SM FEW100 SCT220 BKN250 M29/M33 A3002 RMK AC2CS2CI1 SLP171,CYUT,2018-03-27T18:00:00Z,66.52,-86.25,-29.0,-33.0,110,4,,25.0,30.02067,1017.1,,,,,,,,,,FEW,10000,SCT,22000,BKN,25000,,,VFR,,,,,,,,,,,,METAR,24.0
CYTE 271800Z 25005KT 15SM FEW012 BKN048 OVC260 M18/M20 A3012 RMK SC2SC4CI2 SLP209,CYTE,2018-03-27T18:00:00Z,64.22,-76.52,-18.0,-20.0,250,5,,15.0,30.121063,1020.9,,,,,,,,,,FEW,1200,BKN,4800,OVC,26000,,,VFR,,,,,,,,,,,,SPECI,47.0
CYSY 271800Z 06007KT 15SM FEW020 M28/M32 A3008 RMK SC1 SC TR SLP202,CYSY,2018-03-27T18:00:00Z,72.0,-125.27,-28.0,-32.0,60,7,,15.0,30.079725,1020.2,,,,,,,,,,FEW,2000,,,,,,,VFR,,,,,,,,,,,,METAR,86.0
CYRT 271800Z 06019G27KT 1/8SM -SN +BLSN OVC033 M19/M22 A2966 RMK BLSN7SC1 SLP049,CYRT,2018-03-27T18:00:00Z,62.82,-92.12,-19.0,-22.0,60,19,27,0.13,29.660433,1004.9,,,,,,,,,-SN +BLSN,OVC,3300,,,,,,,LIFR,,,,,,,,,,,,METAR,32.0
CYRA 271800Z 00000KT 15SM FEW040 BKN080 BKN100 M22/M27 A2991 RMK SC1AC6AC1 AC TR SLP162,CYRA,2018-03-27T18:00:00Z,64.12,-117.32,-22.0,-27.0,0,0,,15.0,29.911417,1016.2,,,,,,,,,,FEW,4000,BKN,8000,BKN,10000,,,VFR,,,,,,,,,,,,METAR,213.0
CYPC 271800Z 06004KT 15SM SCT090 M28/M33 A3006 RMK AC3 SLP181,CYPC,2018-03-27T18:00:00Z,69.37,-124.07,-28.0,-33.0,60,4,,15.0,30.059055,1018.1,,,,,,,,,,SCT,9000,,,,,,,VFR,,,,,,,,,,,,METAR,6.0
CYLK 271800Z 24002KT 12SM -SN FEW055 SCT090 BKN220 M24/M27 A2987 RMK SC2AS2CI3 SLP144,CYLK,2018-03-27T18:00:00Z,62.42,-110.67,-24.0,-27.0,240,2,,12.0,29.870079,1014.4,,,,,,,,,-SN,FEW,5500,SCT,9000,BKN,22000,,,VFR,,,,,,,,,,,,METAR,179.0
CYLC 271800Z VRB02KT 15SM BKN016 M17/M21 A3027 RMK SC5 SLP260,CYLC,2018-03-27T18:00:00Z,62.85,-69.87,-17.0,-21.0,0,2,,15.0,30.268702,1026.0,,,,,,,,,,BKN,1600,,,,,,,MVFR,,,,,,,,,,,,METAR,53.0
CYKD 271800Z 09002KT 15SM SKC M23/M28 A3005 RMK SLP180,CYKD,2018-03-27T18:00:00Z,68.22,-135.0,-23.0,-28.0,90,2,,15.0,30.050198,1018.0,,,,,,,,,,SKC,,,,,,,,VFR,,,,,,,,,,,,METAR,7.0
CYJF 271800Z 02004KT 15SM FEW100 FEW240 M11/M19 A2994 RMK AC1CI1 AC TR SLP161,CYJF,2018-03-27T18:00:00Z,60.22,-123.47,-11.0,-19.0,20,4,,15.0,29.940945,1016.1,,,,,,,,,,FEW,10000,FEW,24000,,,,,VFR,,,,,,,,,,,,METAR,215.0
CYHY 271800Z 33008KT 15SM SCT230 M18/M24 A2994 RMK CI4 SLP163,CYHY,2018-03-27T18:00:00Z,60.82,-115.77,-18.0,-24.0,330,8,,15.0,29.940945,1016.3,,,,,,,,,,SCT,23000,,,,,,,VFR,,,,,,,,,,,,METAR,166.0
CYHK 271800Z 22004KT 10SM IC SKC M33/M37 A2993 RMK SLP146,CYHK,2018-03-27T18:00:00Z,68.62,-95.83,-33.0,-37.0,220,4,,10.0,29.929134,1014.6,,,,,,,,,IC,SKC,,,,,,,,VFR,,,,,,,,,,,,METAR,46.0
CYHI 271800Z 03004KT 15SM SKC M33/M38 A3009 RMK SLP199,CYHI,2018-03-27T18:00:00Z,70.77,-117.78,-33.0,-38.0,30,4,,15.0,30.088583,1019.9,,,,,,,,,,SKC,,,,,,,,VFR,,,,,,,,,,,,METAR,36.0
CYGT 271800Z 26020KT 3/4SM -SN BLSN BKN004 OVC008 M29/M32 A2985 RMK BLSN2ST3SC3 SLP119,CYGT,2018-03-27T18:00:00Z,69.37,-81.82,-29.0,-32.0,260,20,,0.75,29.84941,1011.9,,,,,,,,,-SN BLSN,BKN,400,OVC,800,,,,,LIFR,,,,,,,,,,,,METAR,51.0
CYGH 271800Z 00000KT 20SM FEW060 SCT250 M23/M29 A3005 RMK SC2CI2 SLP189,CYGH,2018-03-27T18:00:00Z,66.27,-128.62,-23.0,-29.0,0,0,,20.0,30.050198,1018.9,,,,,,,,,,FEW,6000,SCT,25000,,,,,VFR,,,,,,,,,,,,METAR,66.0
CYFS 271800Z 01002KT 15SM FEW090 M17/M26 A2997 RMK AC1 AC TR SLP171,CYFS,2018-03-27T18:00:00Z,61.75,-121.22,-17.0,-26.0,10,2,,15.0,29.970472,1017.1,,,,,,,,,,FEW,9000,,,,,,,VFR,,,,,,,,,,,,METAR,169.0
CYCS 271800Z 05025KT 1/8SM -SN BLSN OVC023 M20/M23 A2975 RMK BLSN5SC3 -19.3/-25.0/0.4/49 TR LOOSE LAST STFD OBS/NXT 281200Z SLP076,CYCS,2018-03-27T18:00:00Z,63.35,-90.72,-20.0,-23.0,50,25,,0.13,29.749016,1007.6,,,,,,,,,-SN BLSN,OVC,2300,,,,,,,LIFR,,,,,,,,,,,,METAR,11.0
CYCB 271800Z 02002KT 9SM IC VCFG FEW210 M38/M42 A2995 RMK CI2 SLP152,CYCB,2018-03-27T18:00:00Z,69.08,-105.12,-38.0,-42.0,20,2,,9.0,29.949802,1015.2,,,,,,,,,IC VCFG,FEW,21000,,,,,,,VFR,,,,,,,,,,,,METAR,27.0
CYBB 271800Z 22018KT 15SM IC DRSN SKC M30/M35 A2995 RMK SLP147,CYBB,2018-03-27T18:00:00Z,68.52,-89.82,-30.0,-35.0,220,18,,15.0,29.949802,1014.7,,,,,,,,,IC DRSN,SKC,,,,,,,,VFR,,,,,,,,,,,,METAR,15.0
CZSJ 271800Z AUTO 26010G15KT 210V280 9SM OVC020 01/M03 A2966 RMK SLP062,CZSJ,2018-03-27T18:00:00Z,53.07,-93.35,1.0,-3.0,260,10,15,9.0,29.660433,1006.2,,TRUE,,,,,,,,OVC,2000,,,,,,,MVFR,,,,,,,,,,,,METAR,290.0
CZMD 271800Z AUTO 24014G21KT 9SM BKN028 OVC034 02/M03 A2962 RMK SLP046,CZMD,2018-03-27T18:00:00Z,53.43,-91.77,2.0,-3.0,240,14,21,9.0,29.619095,1004.6,,TRUE,,,,,,,,BKN,2800,OVC,3400,,,,,MVFR,,,,,,,,,,,,METAR,278.0
CYYW 271800Z AUTO 27008G16KT 9SM BKN016 OVC024 01/M01 A2975 RMK SLP094,CYYW,2018-03-27T18:00:00Z,50.3,-88.9,1.0,-1.0,270,8,16,9.0,29.749016,1009.4,,TRUE,,,,,,,,BKN,1600,OVC,2400,,,,,MVFR,,,,,,,,,,,,METAR,351.0
CYYH 271800Z 20015KT 1 1/2SM IC BR SKC M35/M40 A2990 RMK FG2 PARHELIA SLP131,CYYH,2018-03-27T18:00:00Z,69.53,-93.57,-35.0,-40.0,200,15,,1.5,29.899607,1013.1,,,,,,,,,IC BR,SKC,,,,,,,,IFR,,,,,,,,,,,,METAR,28.0
CYXL 271800Z 25008KT 210V290 15SM SCT015 BKN025 02/M02 A2979 RMK SC4SC3 SLP110,CYXL,2018-03-27T18:00:00Z,50.12,-91.9,2.0,-2.0,250,8,,15.0,29.790354,1011.0,,,,,,,,,,SCT,1500,BKN,2500,,,,,MVFR,,,,,,,,,,,,METAR,390.0
CYVQ 271800Z 21002KT 30SM FEW050 FEW080 FEW180 FEW250 M25/M29 A3006 RMK SC1AC1AC1CI1 AC TR CI TR ACSL NE SLP193,CYVQ,2018-03-27T18:00:00Z,65.27,-126.78,-25.0,-29.0,210,2,,30.0,30.059055,1019.3,,,,,,,,,,FEW,5000,FEW,8000,FEW,18000,FEW,25000,VFR,,,,,,,,,,,,METAR,74.0
CYSP 271800Z 26005KT 220V300 3/4SM BR OVC002 00/M00 A2976 RMK FG6SF2 VIS VRB 1/2-11/2 SLP096,CYSP,2018-03-27T18:00:00Z,48.75,-86.35,0.0,0.0,260,5,,0.75,29.760826,1009.6,,,,,,,,,BR,OVC,200,,,,,,,LIFR,,,,,,,,,,,,METAR,315.0
CYSN 271800Z 18016G24KT 15SM -RA OVC029 05/02 A3005 RMK SC8 -RA INTMT SLP179,CYSN,2018-03-27T18:00:00Z,43.2,-79.17,5.0,2.0,180,16,24,15.0,30.050198,1017.9,,,,,,,,,-RA,OVC,2900,,,,,,,MVFR,,,,,,,,,,,,METAR,98.0
CYSC 271800Z AUTO 15008G17KT 9SM CLR 08/M12 A3035 RMK SLP289,CYSC,2018-03-27T18:00:00Z,45.43,-71.68,8.0,-12.0,150,8,17,9.0,30.351377,1028.9,,TRUE,,,,,,,,CLR,,,,,,,,VFR,,,,,,,,,,,,METAR,241.0
CYSB 271800Z 17016KT 2 1/2SM R22/5500VP6000FT/U -RASN OVC004 00/M00 A2988 RMK SF8 CIG VRB 002-006 SLP136,CYSB,2018-03-27T18:00:00Z,46.63,-80.8,0.0,0.0,170,16,,2.5,29.878937,1013.6,,,,,,,,,SN -RA,OVC,400,,,,,,,LIFR,,,,,,,,,,,,METAR,348.0
CYRQ 271800Z AUTO 13011KT 110V170 9SM CLR 07/M10 A3034 RMK PRESFR SLP277,CYRQ,2018-03-27T18:00:00Z,46.35,-72.68,7.0,-10.0,130,11,,9.0,30.339567,1027.7,,TRUE,,,,,,,,CLR,,,,,,,,VFR,,,,,,,,,,,,METAR,61.0
CYRB 271800Z 06019KT 10SM IC DRSN FEW040 SCT070 SCT140 BKN190 M24/M27 A2979 RMK SC1AC3AC1CI3 AC TR SLP099,CYRB,2018-03-27T18:00:00Z,74.72,-94.97,-24.0,-27.0,60,19,,10.0,29.790354,1009.9,,,,,,,,,IC DRSN,FEW,4000,SCT,7000,SCT,14000,BKN,19000,VFR,,,,,,,,,,,,SPECI,67.0
CYQK 271800Z 23011KT 15SM SCT008 02/M02 A2983 RMK SF4 SLP121,CYQK,2018-03-27T18:00:00Z,49.77,-94.37,2.0,-2.0,230,11,,15.0,29.828741,1012.1,,,,,,,,,,SCT,800,,,,,,,VFR,,,,,,,,,,,,METAR,411.0
CYPL 271800Z 26010G17KT 210V300 15SM BKN015 BKN030 03/M03 A2969 RMK SC6SC1 CU ASOCTD SLP075,CYPL,2018-03-27T18:00:00Z,51.47,-90.2,3.0,-3.0,260,10,17,15.0,29.68996,1007.5,,,,,,,,,,BKN,1500,BKN,3000,,,,,MVFR,,,,,,,,,,,,SPECI,373.0
CYOO 271800Z AUTO 13010G15KT 7SM -RA OVC021 03/00 A3008 RMK PRESFR PCPN 0.5MM PAST HR SLP192,CYOO,2018-03-27T18:00:00Z,43.92,-78.9,3.0,0.0,130,10,15,7.0,30.079725,1019.2,,TRUE,,,,,,,-RA,OVC,2100,,,,,,,MVFR,,,,,,,,,,,,METAR,139.0
CYLH 271800Z AUTO 25009G15KT 9SM OVC011 01/M01 A2966 RMK SLP060,CYLH,2018-03-27T18:00:00Z,52.2,-87.93,1.0,-1.0,250,9,15,9.0,29.660433,1006.0,,TRUE,,,,,,,,OVC,1100,,,,,,,MVFR,,,,,,,,,,,,METAR,254.0
CYKZ 271800Z 15011G16KT 10SM -RA FEW006 OVC008 02/01 A3006 RMK SF1ST8 SF TR SLP186,CYKZ,2018-03-27T18:00:00Z,43.87,-79.37,2.0,1.0,150,11,16,10.0,30.059055,1018.6,,,,,,,,,-RA,FEW,600,OVC,800,,,,,IFR,,,,,,,,,,,,METAR,198.0
CYKL 271800Z AUTO 21016G23KT 9SM FEW160 03/M08 A3020 RMK SLP259,CYKL,2018-03-27T18:00:00Z,54.78,-66.82,3.0,-8.0,210,16,23,9.0,30.200787,1025.9,,TRUE,,,,,,,,FEW,16000,,,,,,,VFR,,,,,,,,,,,,SPECI,521.0
CYGQ 271800Z 26009G15KT 240V310 12SM -SN SCT015 OVC021 01/M02 A2974 RMK SC4SC4 SLP090,CYGQ,2018-03-27T18:00:00Z,49.77,-86.92,1.0,-2.0,260,9,15,12.0,29.740158,1009.0,,,,,,,,,-SN,SCT,1500,OVC,2100,,,,,MVFR,,,,,,,,,,,,METAR,351.0
CYGK 271800Z 15014G19KT 15SM BKN070 OVC110 04/M03 A3022 RMK AC5AS3 PRESFR SLP238,CYGK,2018-03-27T18:00:00Z,44.22,-76.58,4.0,-3.0,150,14,19,15.0,30.221457,1023.8,,,,,,,,,,BKN,7000,OVC,11000,,,,,VFR,,,,,,,,,,,,METAR,93.0
CYFR 271800Z 31005KT 190V360 15SM SCT280 M20/M26 A2992 RMK CS4 SLP154,CYFR,2018-03-27T18:00:00Z,61.17,-113.67,-20.0,-26.0,310,5,,15.0,29.920275,1015.4,,,,,,,,,,SCT,28000,,,,,,,VFR,,,,,,,,,,,,METAR,164.0
CYER 271800Z AUTO 20012KT 9SM FEW044 OVC065 02/M01 A2952 RMK SLP998,CYER,2018-03-27T18:00:00Z,56.02,-87.68,2.0,-1.0,200,12,,9.0,29.518702,999.8,,TRUE,,,,,,,,FEW,4400,OVC,6500,,,,,VFR,,,,,,,,,,,,METAR,16.0
CYBN 271800Z AUTO 17014G22KT 4SM -RA OVC007 03/02 A3000 RMK PCPN 0.5MM PAST HR SLP168,CYBN,2018-03-27T18:00:00Z,44.27,-79.92,3.0,2.0,170,14,22,4.0,30.0,1016.8,,TRUE,,,,,,,-RA,OVC,700,,,,,,,IFR,,,,,,,,,,,,METAR,223.0
CYBC 271800Z AUTO 06005KT CLR 03/M11 A3047 RMK WX MISG VIS MISG PCPN MISG SLP323,CYBC,2018-03-27T18:00:00Z,49.12,-68.2,3.0,-11.0,60,5,,,30.469488,1032.3,,TRUE,,,,,,,,CLR,,,,,,,,,,,,,,,,,,,,METAR,22.0
CYZU 271800Z 00000KT 6SM -SN OVC013 M07/M09 A2959 RMK SC8 /S05/ SLP066,CYZU,2018-03-27T18:00:00Z,54.15,-115.78,-7.0,-9.0,0,0,,6.0,29.589567,1006.6,,,,,,,,,-SN,OVC,1300,,,,,,,MVFR,,,,,,,,,,,,METAR,785.0
CYXH 271800Z 22018KT 30SM OVC270 08/00 A2961 RMK CI8 SLP047 DENSITY ALT 2500FT,CYXH,2018-03-27T18:00:00Z,50.02,-110.72,8.0,0.0,220,18,,30.0,29.610237,1004.7,,,,,,,,,,OVC,27000,,,,,,,VFR,,,,,,,,,,,,METAR,716.0
CYVT 271800Z 12008KT 15SM BKN130 OVC170 M14/M22 A2985 RMK AC5AC3 SLP151,CYVT,2018-03-27T18:00:00Z,55.82,-108.42,-14.0,-22.0,120,8,,15.0,29.84941,1015.1,,,,,,,,,,BKN,13000,OVC,17000,,,,,VFR,,,,,,,,,,,,METAR,434.0
CYUX 271800Z 28017KT 1 1/4SM BR DRSN FEW004 BKN210 M26/M30 A2993 RMK SF1CI4 SLP139,CYUX,2018-03-27T18:00:00Z,68.77,-81.25,-26.0,-30.0,280,17,,1.25,29.929134,1013.9,,,,,,,,,BR DRSN,FEW,400,BKN,21000,,,,,IFR,,,,,,,,,,,,METAR,8.0
CYUS 271800Z AUTO 12012KT 110V200 ////SM //// NCD M34/M39 A2991,CYUS,2018-03-27T18:00:00Z,68.82,-93.42,-34.0,-39.0,120,12,,,29.911417,,,TRUE,,,,,,,,CLR,,,,,,,,,,,,,,,,,,,,METAR,42.0
CYUB 271800Z 00000KT 15SM -SN OVC027 M21/M24 A3006 RMK SC8 SLP183,CYUB,2018-03-27T18:00:00Z,69.45,-133.02,-21.0,-24.0,0,0,,15.0,30.059055,1018.3,,,,,,,,,-SN,OVC,2700,,,,,,,MVFR,,,,,,,,,,,,METAR,5.0
CYTH 271800Z CCA 33016G22KT 15SM DRSN FEW210 M13/M23 A2985 RMK CI1 CI TR SLP127,CYTH,2018-03-27T18:00:00Z,55.78,-97.87,-13.0,-23.0,330,16,22,15.0,29.84941,1012.7,,,,,,,,,DRSN,FEW,21000,,,,,,,VFR,,,,,,,,,,,,SPECI,218.0
CYSM 271800Z 21008KT 15SM OVC160 M13/M23 A2990 RMK AC8 SLP152,CYSM,2018-03-27T18:00:00Z,60.03,-111.97,-13.0,-23.0,210,8,,15.0,29.899607,1015.2,,,,,,,,,,OVC,16000,,,,,,,VFR,,,,,,,,,,,,METAR,203.0
CYSF 271800Z AUTO 28007KT 230V310 9SM CLR M18/M25 A2992 RMK SLP165,CYSF,2018-03-27T18:00:00Z,59.25,-105.82,-18.0,-25.0,280,7,,9.0,29.920275,1016.5,,TRUE,,,,,,,,CLR,,,,,,,,VFR,,,,,,,,,,,,METAR,250.0
CYQV 271800Z AUTO 15005KT 9SM CLR M02/M06 A2976 RMK SLP108,CYQV,2018-03-27T18:00:00Z,51.27,-102.47,-2.0,-6.0,150,5,,9.0,29.760826,1010.8,,TRUE,,,,,,,,CLR,,,,,,,,VFR,,,,,,,,,,,,METAR,498.0
CYPE 271800Z 02009KT 15SM -SN DRSN FEW020 SCT160 BKN210 M10/M14 A2972 RMK SC2AC1CI3 /S02/ SLP108,CYPE,2018-03-27T18:00:00Z,56.22,-117.45,-10.0,-14.0,20,9,,15.0,29.719488,1010.8,,,,,,,,,-SN DRSN,FEW,2000,SCT,16000,BKN,21000,,,VFR,,,,,,,,,,,,METAR,571.0
CYMJ 271800Z 25015G22KT 15SM FEW160 BKN260 04/M02 A2970 RMK AC1CI6 SLP081,CYMJ,2018-03-27T18:00:00Z,50.32,-105.53,4.0,-2.0,250,15,22,15.0,29.698818,1008.1,,,,,,,,,,FEW,16000,BKN,26000,,,,,VFR,,,,,,,,,,,,METAR,577.0
CYLT 271800Z 00000KT 15SM FEW200 M33/M36 A3009 RMK CI2 SLP198,CYLT,2018-03-27T18:00:00Z,82.52,-62.27,-33.0,-36.0,0,0,,15.0,30.088583,1019.8,,,,,,,,,,FEW,20000,,,,,,,VFR,,,,,,,,,,,,METAR,31.0
CYLJ 271800Z 07012KT 3SM -SN DRSN OVC042 M12/M15 A2979 RMK SC8 /S02/ SLP124,CYLJ,2018-03-27T18:00:00Z,54.12,-108.52,-12.0,-15.0,70,12,,3.0,29.790354,1012.4,,,,,,,,,-SN DRSN,OVC,4200,,,,,,,MVFR,,,,,,,,,,,,METAR,480.0
CYIO 271800Z 19005KT 14SM IC VCSH FEW025 FEW031 SCT055 SCT070 BKN230 M20/M22 A2974 RMK SC1SC1SC1AC1CC2 VIS-S-1 1/4 SLP083,CYIO,2018-03-27T18:00:00Z,72.67,-77.97,-20.0,-22.0,190,5,,14.0,29.740158,1008.3,,,,,,,,,IC VCSH,FEW,2500,FEW,3100,SCT,5500,SCT,7000,VFR,,,,,,,,,,,,METAR,57.0
CYEK 271800Z 36021G27KT 1/4SM +BLSN VV013 M18/M20 A2956 RMK BLSN8 SLP014,CYEK,2018-03-27T18:00:00Z,61.1,-94.07,-18.0,-20.0,360,21,27,0.25,29.56004,1001.4,,,,,,,,,+BLSN,OVX,0,,,,,,,LIFR,,,,,,,,,,,1300,METAR,10.0
CYBW 271800Z AUTO 29018G27KT 9SM SCT170 06/M04 A2959 RMK SLP050 DENSITY ALT 4100FT,CYBW,2018-03-27T18:00:00Z,51.1,-114.37,6.0,-4.0,290,18,27,9.0,29.589567,1005.0,,TRUE,,,,,,,,SCT,17000,,,,,,,VFR,,,,,,,,,,,,METAR,1200.0
CWVD 271800Z AUTO 36005KT M21/ A2969 RMK SLP130,CWVD,2018-03-27T18:00:00Z,67.52,-63.77,-21.0,,360,5,,,29.68996,1013.0,,TRUE,,,,,,,,,,,,,,,,,,,,,,,,,,,,METAR,573.0
CWRF 271800Z AUTO 21009KT M33/ A2975 RMK SLP140,CWRF,2018-03-27T18:00:00Z,69.42,-89.72,-33.0,,210,9,,,29.749016,1014.0,,TRUE,,,,,,,,,,,,,,,,,,,,,,,,,,,,METAR,325.0
CYTQ 271800Z 05008KT 6SM -SN OVC011 M13/M17 A3020 RMK SC8 SLP231,CYTQ,2018-03-27T18:00:00Z,58.67,-69.95,-13.0,-17.0,50,8,,6.0,30.200787,1023.1,,,,,,,,,-SN,OVC,1100,,,,,,,MVFR,,,,,,,,,,,,METAR,31.0
CYSJ 271800Z 36011KT 15SM SKC 07/M09 A3045 RMK SLP319,CYSJ,2018-03-27T18:00:00Z,45.32,-65.87,7.0,-9.0,360,11,,15.0,30.448818,1031.9,,,,,,,,,,SKC,,,,,,,,VFR,,,,,,,,,,,,SPECI,109.0
CYNC 271800Z CCA 16008G18KT 1/2SM SN VV004 00/M01 A2982 RMK SN8 WET SN PRESFR SLP099,CYNC,2018-03-27T18:00:00Z,53.02,-78.82,0.0,-1.0,160,8,18,0.5,29.819881,1009.9,,,,,,,,,SN,OVX,0,,,,,,,LIFR,,,,,,,,,,,400,METAR,14.0
CYLU 271800Z 15012KT 15SM FEW022 BKN026 OVC055 M06/M13 A3027 RMK SC1SC5SC2 SLP258,CYLU,2018-03-27T18:00:00Z,58.72,-65.97,-6.0,-13.0,150,12,,15.0,30.268702,1025.8,,,,,,,,,,FEW,2200,BKN,2600,OVC,5500,,,MVFR,,,,,,,,,,,,METAR,60.0
CYGW 271800Z AUTO 15012G22KT 9SM CLR 04/M05 A2977 RMK PRESFR TS/LTNG TEMPO UNAVBL SLP083,CYGW,2018-03-27T18:00:00Z,55.27,-77.77,4.0,-5.0,150,12,22,9.0,29.769686,1008.3,,TRUE,,,,,,,,CLR,,,,,,,,VFR,,,,,,,,,,,,METAR,12.0
CYDP 271800Z 28007KT 15SM FEW100 OVC210 02/M04 A3032 RMK AS2CS6 SLP270,CYDP,2018-03-27T18:00:00Z,56.53,-61.67,2.0,-4.0,280,7,,15.0,30.318897,1027.0,,,,,,,,,,FEW,10000,OVC,21000,,,,,VFR,,,,,,,,,,,,METAR,7.0
CYDF 271800Z 20010KT 15SM FEW210 07/M11 A3062 RMK CI1 SLP371,CYDF,2018-03-27T18:00:00Z,49.22,-57.4,7.0,-11.0,200,10,,15.0,30.620079,1037.1,,,,,,,,,,FEW,21000,,,,,,,VFR,,,,,,,,,,,,METAR,22.0
CYCX 271800Z 03008KT 360V060 15SM SKC 06/M12 A3050 RMK DA-1537FT SLP330,CYCX,2018-03-27T18:00:00Z,45.82,-66.42,6.0,-12.0,30,8,,15.0,30.499016,1033.0,,,,,,,,,,SKC,,,,,,,,VFR,,,,,,,,,,,,METAR,51.0
CYAY 271800Z AUTO 24018KT 9SM CLR 01/M05 A3056 RMK SLP351,CYAY,2018-03-27T18:00:00Z,51.38,-56.07,1.0,-5.0,240,18,,9.0,30.561024,1035.1,,TRUE,,,,,,,,CLR,,,,,,,,VFR,,,,,,,,,,,,METAR,28.0
LEGT 271800Z 32013KT CAVOK 19/03 Q1023,LEGT,2018-03-27T18:00:00Z,40.28,-3.72,19.0,3.0,320,13,,6.21,30.206694,,,,,,,,,,,CAVOK,,,,,,,,VFR,,,,,,,,,,,,METAR,612.0
CYZG 271800Z 14012G23KT 15SM FEW078 BKN210 M16/M23 A3002 RMK AS1CC4 SLP199,CYZG,2018-03-27T18:00:00Z,62.17,-75.67,-16.0,-23.0,140,12,23,15.0,30.02067,1019.9,,,,,,,,,,FEW,7800,BKN,21000,,,,,VFR,,,,,,,,,,,,METAR,226.0
CYWK 271800Z 18017G24KT 15SM BKN170 05/M09 A3027 RMK AC5 SLP282,CYWK,2018-03-27T18:00:00Z,52.92,-66.87,5.0,-9.0,180,17,24,15.0,30.268702,1028.2,,,,,,,,,,BKN,17000,,,,,,,VFR,,,,,,,,,,,,SPECI,551.0
CYQI 271800Z 07012G21KT 15SM FEW040 FEW250 11/M13 A3034 RMK SC1CI1 SC TR CI TR SLP278,CYQI,2018-03-27T18:00:00Z,43.83,-66.08,11.0,-13.0,70,12,21,15.0,30.339567,1027.8,,,,,,,,,,FEW,4000,FEW,25000,,,,,VFR,,,,,,,,,,,,METAR,43.0
CYOY 271800Z AUTO 13004KT 100V190 9SM FEW098 07/M11 A3037 RMK SLP293,CYOY,2018-03-27T18:00:00Z,46.88,-71.5,7.0,-11.0,130,4,,9.0,30.369095,1029.3,,TRUE,,,,,,,,FEW,9800,,,,,,,VFR,,,,,,,,,,,,METAR,168.0
CYNM 271800Z AUTO 16019G30KT 9SM BKN100 BKN120 04/M06 A2988 RMK PRESFR SLP136,CYNM,2018-03-27T18:00:00Z,49.77,-77.82,4.0,-6.0,160,19,30,9.0,29.878937,1013.6,,TRUE,,,,,,,,BKN,10000,BKN,12000,,,,,VFR,,,,,,,,,,,,METAR,281.0
CYMU 271800Z 11022G30KT 15SM FEW008 OVC075 01/M03 A2980 RMK ST1AC8 ST TR SLP100,CYMU,2018-03-27T18:00:00Z,56.52,-76.52,1.0,-3.0,110,22,30,15.0,29.799213,1010.0,,,,,,,,,,FEW,800,OVC,7500,,,,,VFR,,,,,,,,,,,,METAR,71.0
CYMT 271800Z AUTO 16014G20KT 9SM OVC180 05/M09 A3008 RMK SLP209,CYMT,2018-03-27T18:00:00Z,49.77,-74.52,5.0,-9.0,160,14,20,9.0,30.079725,1020.9,,TRUE,,,,,,,,OVC,18000,,,,,,,VFR,,,,,,,,,,,,METAR,387.0
CYMH 271800Z AUTO 30008KT 230V330 9SM CLR 08/M06 A3048 RMK SLP322,CYMH,2018-03-27T18:00:00Z,52.28,-55.85,8.0,-6.0,300,8,,9.0,30.481298,1032.2,,TRUE,,,,,,,,CLR,,,,,,,,VFR,,,,,,,,,,,,SPECI,11.0
CYKG 271800Z 14007KT 15SM BKN240 M14/M22 A3014 RMK CI6 SLP230,CYKG,2018-03-27T18:00:00Z,61.57,-71.92,-14.0,-22.0,140,7,,15.0,30.138779,1023.0,,,,,,,,,,BKN,24000,,,,,,,VFR,,,,,,,,,,,,METAR,151.0
CYIK 271800Z 10023KT 15SM IC DRSN FEW098 FEW220 M16/M23 A3005 RMK AC2CI1 CI TR SLP182,CYIK,2018-03-27T18:00:00Z,62.42,-77.93,-16.0,-23.0,100,23,,15.0,30.050198,1018.2,,,,,,,,,IC DRSN,FEW,9800,FEW,22000,,,,,VFR,,,,,,,,,,,,METAR,42.0
CYGV 271800Z AUTO 25002KT 9SM FEW230 03/M06 A3055 RMK SLP351,CYGV,2018-03-27T18:00:00Z,50.27,-63.62,3.0,-6.0,250,2,,9.0,30.549213,1035.1,,TRUE,,,,,,,,FEW,23000,,,,,,,VFR,,,,,,,,,,,,METAR,33.0
CYBX 271800Z 22009KT 15SM FEW250 M01/M03 A3056 RMK CI2 SLP352,CYBX,2018-03-27T18:00:00Z,51.45,-57.17,-1.0,-3.0,220,9,,15.0,30.561024,1035.2,,,,,,,,,,FEW,25000,,,,,,,VFR,,,,,,,,,,,,METAR,35.0
CYAS 271800Z 17004KT 100V200 15SM SCT140 BKN230 M17/M20 A3020 RMK AC3CI2 SLP244,CYAS,2018-03-27T18:00:00Z,60.02,-70.0,-17.0,-20.0,170,4,,15.0,30.200787,1024.4,,,,,,,,,,SCT,14000,BKN,23000,,,,,VFR,,,,,,,,,,,,METAR,117.0
CYAH 271800Z AUTO 18020G28KT 9SM CLR 04/M09 A2997 RMK PRESFR SLP167,CYAH,2018-03-27T18:00:00Z,53.75,-73.67,4.0,-9.0,180,20,28,9.0,29.970472,1016.7,,TRUE,,,,,,,,CLR,,,,,,,,VFR,,,,,,,,,,,,METAR,306.0
CYWH 271800Z CCA 23020G26KT 15SM VCSH SCT012 BKN025 OVC085 10/08 A3023 RMK SC4SC2AC2 VIS SW 5 CVCTV CLD EMBD SLP237,CYWH,2018-03-27T18:00:00Z,48.42,-123.38,10.0,8.0,230,20,26,15.0,30.230314,1023.7,,,,,,,,,VCSH,SCT,1200,BKN,2500,OVC,8500,,,MVFR,,,,,,,,,,,,METAR,10.0
CZMT 271800Z 26006KT 200V280 15SM SCT030 OVC055 05/02 A3014 RMK SC4SC4 SH S PRESRR SLP207,CZMT,2018-03-27T18:00:00Z,54.03,-132.13,5.0,2.0,260,6,,15.0,30.138779,1020.7,,,,,,,,,,SCT,3000,OVC,5500,,,,,VFR,,,,,,,,,,,,METAR,8.0
CZFA 271800Z 13005KT 30SM SKC M21/M27 A2986 RMK SLP189,CZFA,2018-03-27T18:00:00Z,62.2,-133.37,-21.0,-27.0,130,5,,30.0,29.861221,1018.9,,,,,,,,,,SKC,,,,,,,,VFR,,,,,,,,,,,,METAR,717.0
CYZY 271800Z AUTO 28010G17KT 240V300 9SM BKN060 05/M03 A2970 RMK SLP091,CYZY,2018-03-27T18:00:00Z,55.28,-123.12,5.0,-3.0,280,10,17,9.0,29.698818,1009.1,,TRUE,,,,,,,,BKN,6000,,,,,,,VFR,,,,,,,,,,,,SPECI,690.0
CYZW 271800Z 10004KT 5SM -SN OVC040 M10/M13 A2983 RMK SC8 SLP156,CYZW,2018-03-27T18:00:00Z,60.17,-132.75,-10.0,-13.0,100,4,,5.0,29.828741,1015.6,,,,,,,,,-SN,OVC,4000,,,,,,,MVFR,,,,,,,,,,,,METAR,705.0
CYYE 271800Z 24004KT 220V300 4SM -SN SCT016 BKN025 OVC040 M10/M14 A2990 RMK SC3SC3SC2 SLP160,CYYE,2018-03-27T18:00:00Z,58.82,-122.57,-10.0,-14.0,240,4,,4.0,29.899607,1016.0,,,,,,,,,-SN,SCT,1600,BKN,2500,OVC,4000,,,MVFR,,,,,,,,,,,,METAR,382.0
CYYD 271800Z 00000KT 25SM VCSH SCT065 06/M03 A2987 RMK SC4 SLP132,CYYD,2018-03-27T18:00:00Z,54.82,-127.18,6.0,-3.0,0,0,,25.0,29.870079,1013.2,,,,,,,,,VCSH,SCT,6500,,,,,,,VFR,,,,,,,,,,,,METAR,523.0
CYXY 271800Z 35004KT 5SM -SN SCT021 OVC035 M12/M14 A2979 RMK SC4SC4 SLP145,CYXY,2018-03-27T18:00:00Z,60.72,-135.07,-12.0,-14.0,350,4,,5.0,29.790354,1014.5,,,,,,,,,-SN,SCT,2100,OVC,3500,,,,,MVFR,,,,,,,,,,,,SPECI,703.0
CYXT 271800Z 22009G15KT 170V250 20SM VCSH FEW003 BKN010 BKN038 BKN059 05/02 A3003 RMK CF1CU5CU1CU1 CF TR SLP178,CYXT,2018-03-27T18:00:00Z,54.47,-128.57,5.0,2.0,220,9,15,20.0,30.029528,1017.8,,,,,,,,,VCSH,FEW,300,BKN,1000,BKN,3800,BKN,5900,MVFR,,,,,,,,,,,,METAR,217.0
CYXJ 271800Z 33008KT 10SM -SN FEW015 OVC020 M10/M14 A2976 RMK SF2SC6 SLP129,CYXJ,2018-03-27T18:00:00Z,56.25,-120.73,-10.0,-14.0,330,8,,10.0,29.760826,1012.9,,,,,,,,,-SN,FEW,1500,OVC,2000,,,,,MVFR,,,,,,,,,,,,METAR,695.0
CYWL 271800Z 29012KT 240V310 15SM SCT045 06/M02 A2987 RMK SC4 SLP143,CYWL,2018-03-27T18:00:00Z,52.18,-122.07,6.0,-2.0,290,12,,15.0,29.870079,1014.3,,,,,,,,,,SCT,4500,,,,,,,VFR,,,,,,,,,,,,METAR,940.0
CYQU 271800Z 31009KT 25SM OVC015 M08/M12 A2970 RMK SC8 SLP108,CYQU,2018-03-27T18:00:00Z,55.18,-118.88,-8.0,-12.0,310,9,,25.0,29.698818,1010.8,,,,,,,,,,OVC,1500,,,,,,,MVFR,,,,,,,,,,,,METAR,669.0
CYOC 271800Z 00000KT 35SM SKC M27/M31 A2998 RMK SLP192,CYOC,2018-03-27T18:00:00Z,67.57,-139.82,-27.0,-31.0,0,0,,35.0,29.97933,1019.2,,,,,,,,,,SKC,,,,,,,,VFR,,,,,,,,,,,,METAR,251.0
CYMA 271800Z 00000KT 20SM SKC M17/M26 A2992 RMK CLIMAT -16.8/-26.2/0.0 47023 SLP185,CYMA,2018-03-27T18:00:00Z,63.62,-135.87,-17.0,-26.0,0,0,,20.0,29.920275,1018.5,,,,,,,,,,SKC,,,,,,,,VFR,,,,,,,,,,,,METAR,504.0
CYLW 271800Z AUTO 13013G19KT 9SM FEW130 08/02 A3000 RMK SLP172,CYLW,2018-03-27T18:00:00Z,49.95,-119.37,8.0,2.0,130,13,19,9.0,30.0,1017.2,,TRUE,,,,,,,,FEW,13000,,,,,,,VFR,,,,,,,,,,,,METAR,430.0
CYKA 271800Z 31003KT 150V320 40SM FEW120 BKN180 BKN220 10/01 A2992 RMK AC2AC3CI1 SLP144,CYKA,2018-03-27T18:00:00Z,50.7,-120.45,10.0,1.0,310,3,,40.0,29.920275,1014.4,,,,,,,,,,FEW,12000,BKN,18000,BKN,22000,,,VFR,,,,,,,,,,,,METAR,346.0
CYIN 271800Z AUTO 28014G24KT 9SM SCT065 BKN084 08/M06 A2986 RMK SLP124 DENSITY ALT 3700FT,CYIN,2018-03-27T18:00:00Z,51.27,-121.68,8.0,-6.0,280,14,24,9.0,29.861221,1012.4,,TRUE,,,,,,,,SCT,6500,BKN,8400,,,,,VFR,,,,,,,,,,,,METAR,1128.0
CYGE 271800Z 14009KT 20SM -RA FEW015 SCT045 BKN065 OVC090 03/M00 A2982 RMK SC1SC2SC2AS3 SLP124,CYGE,2018-03-27T18:00:00Z,51.3,-116.98,3.0,0.0,140,9,,20.0,29.819881,1012.4,,,,,,,,,-RA,FEW,1500,SCT,4500,BKN,6500,OVC,9000,VFR,,,,,,,,,,,,METAR,785.0
CYDL 271800Z AUTO 07006KT 9SM SCT065 OVC076 M09/M12 A2980 RMK SLP137,CYDL,2018-03-27T18:00:00Z,58.42,-130.02,-9.0,-12.0,70,6,,9.0,29.799213,1013.7,,TRUE,,,,,,,,SCT,6500,OVC,7600,,,,,VFR,,,,,,,,,,,,METAR,816.0
CYDA 271800Z 08005KT 20SM SKC M19/M25 A2995 RMK SLP184,CYDA,2018-03-27T18:00:00Z,64.03,-139.12,-19.0,-25.0,80,5,,20.0,29.949802,1018.4,,,,,,,,,,SKC,,,,,,,,VFR,,,,,,,,,,,,METAR,369.0
CYCG 271800Z 15003KT 15SM -RA FEW025 BKN040 OVC065 04/02 A3007 RMK SC2SC3SC3 SLP198,CYCG,2018-03-27T18:00:00Z,49.28,-117.62,4.0,2.0,150,3,,15.0,30.070866,1019.8,,,,,,,,,-RA,FEW,2500,BKN,4000,OVC,6500,,,VFR,,,,,,,,,,,,METAR,495.0
CYCD 271800Z 03003KT 20SM SCT030 BKN070 BKN180 12/08 A3017 RMK SC3AC2AS2 SLP218,CYCD,2018-03-27T18:00:00Z,49.05,-123.87,12.0,8.0,30,3,,20.0,30.171259,1021.8,,,,,,,,,,SCT,3000,BKN,7000,BKN,18000,,,VFR,,,,,,,,,,,,METAR,30.0
CYBD 271800Z 25017G23KT 15SM FEW025 SCT045 BKN073 BKN092 08/04 A3009 RMK SC1SC2AC3AC1 SLP191,CYBD,2018-03-27T18:00:00Z,52.37,-126.57,8.0,4.0,250,17,23,15.0,30.088583,1019.1,,,,,,,,,,FEW,2500,SCT,4500,BKN,7300,BKN,9200,VFR,,,,,,,,,,,,METAR,35.0
CYCQ 271800Z CCA 05005KT 340V110 10SM -SN OVC020 M08/M13 A2978 RMK SC8 --SN HVIER PCPN W SLP131,CYCQ,2018-03-27T18:00:00Z,55.7,-121.62,-8.0,-13.0,50,5,,10.0,29.778543,1013.1,,,,,,,,,-SN,OVC,2000,,,,,,,MVFR,,,,,,,,,,,,METAR,609.0
NZCH 271800Z AUTO 27002KT 9999 NCD 10/06 Q1016 NOSIG,NZCH,2018-03-27T18:00:00Z,-43.47,172.55,10.0,6.0,270,2,,6.21,30.0,,,TRUE,,,TRUE,,,,,CLR,,,,,,,,VFR,,,,,,,,,,,,METAR,34.0
NZWN 271800Z AUTO 34020G31KT 9999 FEW017/// SCT055/// 20/17 Q1017 TEMPO 5000 RA,NZWN,2018-03-27T18:00:00Z,-41.32,174.8,20.0,17.0,340,20,31,6.21,30.029528,,,TRUE,,,,,,,,FEW,1700,SCT,5500,,,,,VFR,,,,,,,,,,,,SPECI,7.0
NZAA 271800Z AUTO 08002KT 9999 FEW060/// 17/16 Q1023 NOSIG,NZAA,2018-03-27T18:00:00Z,-37.02,174.8,17.0,16.0,80,2,,6.21,30.206694,,,TRUE,,,TRUE,,,,,FEW,6000,,,,,,,VFR,,,,,,,,,,,,METAR,6.0
SKRG 271800Z 12006KT 9999 SCT020 SCT080 22/12 A3023,SKRG,2018-03-27T18:00:00Z,6.17,-75.42,22.0,12.0,120,6,,6.21,30.230314,,,,,,,,,,,SCT,2000,SCT,8000,,,,,VFR,,,,,,,,,,,,METAR,2137.0
ROYN 271800Z AUTO 14004KT 9999 FEW022 BKN026 BKN080 20/18 Q1014,ROYN,2018-03-27T18:00:00Z,24.47,122.97,20.0,18.0,140,4,,6.21,29.940945,,,TRUE,,,,,,,,FEW,2200,BKN,2600,BKN,8000,,,MVFR,,,,,,,,,,,,METAR,17.0
RORY 271800Z AUTO 09004KT 9999 SCT028 SCT030 18/14 Q1016,RORY,2018-03-27T18:00:00Z,27.05,128.4,18.0,14.0,90,4,,6.21,30.0,,,TRUE,,,,,,,,SCT,2800,SCT,3000,,,,,VFR,,,,,,,,,,,,METAR,16.0
YSSY 271800Z 33004KT 9999 SCT045 19/14 Q1016,YSSY,2018-03-27T18:00:00Z,-33.95,151.17,19.0,14.0,330,4,,6.21,30.0,,,,,,,,,,,SCT,4500,,,,,,,VFR,,,,,,,,,,,,METAR,3.0
YPXM 271800Z AUTO ///00KT 9999 // NCD 23/22 Q1013,YPXM,2018-03-27T18:00:00Z,-10.45,105.67,23.0,22.0,,,,6.21,29.911417,,,TRUE,,,,,,,,CLR,,,,,,,,VFR,,,,,,,,,,,,METAR,259.0
YPPH 271800Z 08001KT CAVOK 10/09 Q1019 NOSIG,YPPH,2018-03-27T18:00:00Z,-31.93,115.98,10.0,9.0,80,1,,6.21,30.088583,,,,,,TRUE,,,,,CAVOK,,,,,,,,VFR,,,,,,,,,,,,METAR,13.0
YPLM 271800Z AUTO 21012KT 9999 // NCD 25/20 Q1010,YPLM,2018-03-27T18:00:00Z,-22.22,114.07,25.0,20.0,210,12,,6.21,29.822834,,,TRUE,,,,,,,,CLR,,,,,,,,VFR,,,,,,,,,,,,METAR,6.0
YPDN 271800Z 35007KT 9999 FEW013 27/24 Q1005,YPDN,2018-03-27T18:00:00Z,-12.42,130.9,27.0,24.0,350,7,,6.21,29.675198,,,,,,,,,,,FEW,1300,,,,,,,VFR,,,,,,,,,,,,METAR,30.0
YPCC 271800Z AUTO 07005KT 9999 // SCT025 SCT029 BKN038 26/22 Q1011,YPCC,2018-03-27T18:00:00Z,-12.17,96.82,26.0,22.0,70,5,,6.21,29.852362,,,TRUE,,,,,,,,SCT,2500,SCT,2900,BKN,3800,,,VFR,,,,,,,,,,,,METAR,3.0
FYWW 271800Z AUTO 07001KT //// // ////// 20/15 Q1022,FYWW,2018-03-27T18:00:00Z,-22.57,17.1,20.0,15.0,70,1,,,30.177166,,,TRUE,,,,,,,,,,,,,,,,,,,,,,,,,,,,METAR,1725.0
FYWH 271800Z AUTO 27002KT //// 19/M00 Q1023,FYWH,2018-03-27T18:00:00Z,-22.47,17.47,19.0,0.0,270,2,,,30.206694,,,TRUE,,,,,,,,,,,,,,,,,,,,,,,,,,,,METAR,1700.0
FYWE 271800Z /////KT 9999 FEW040CB FEW040TCU SCT090 ///// Q1023,FYWE,2018-03-27T18:00:00Z,-22.62,17.08,,,,,,6.21,30.206694,,,,,,,,,,,FEW,4000,FEW,4000,SCT,9000,,,VFR,,,,,,,,,,,,METAR,1700.0
FYML 271800Z AUTO 11009KT //// // ////// 32/11 Q1018,FYML,2018-03-27T18:00:00Z,-24.6,17.93,32.0,11.0,110,9,,,30.059055,,,TRUE,,,,,,,,,,,,,,,,,,,,,,,,,,,,METAR,1113.0
FYLZ 271800Z AUTO 20013KT //// // ////// 18/14 Q1012,FYLZ,2018-03-27T18:00:00Z,-26.67,15.25,18.0,14.0,200,13,,,29.88189,,,TRUE,,,,,,,,,,,,,,,,,,,,,,,,,,,,METAR,130.0
FYKT 271800Z 27001G14KT 9999 FEW040CB 32/08 Q1015,FYKT,2018-03-27T18:00:00Z,-26.52,18.12,32.0,8.0,270,1,14,6.21,29.970472,,,,,,,,,,,FEW,4000,,,,,,,VFR,,,,,,,,,,,,METAR,1061.0
FYGB 271800Z AUTO 13002KT //// // ////// 24/14 Q1022,FYGB,2018-03-27T18:00:00Z,-22.5,18.97,24.0,14.0,130,2,,,30.177166,,,TRUE,,,,,,,,,,,,,,,,,,,,,,,,,,,,METAR,1442.0
FBKE 271800Z 14003KT 9999 SCT025 FEW030CB 22/20 Q1017,FBKE,2018-03-27T18:00:00Z,-17.82,25.17,22.0,20.0,140,3,,6.21,30.029528,,,,,,,,,,,SCT,2500,FEW,3000,,,,,VFR,,,,,,,,,,,,METAR,1000.0
FBMN 271800Z 14004KT 9999 FEW030 25/19 Q1017,FBMN,2018-03-27T18:00:00Z,-19.97,23.42,25.0,19.0,140,4,,6.21,30.029528,,,,,,,,,,,FEW,3000,,,,,,,VFR,,,,,,,,,,,,METAR,900.0
FBFT 271800Z 10009KT 080V140 9999 BKN020 20/17 Q1021,FBFT,2018-03-27T18:00:00Z,-21.17,27.48,20.0,17.0,100,9,,6.21,30.147638,,,,,,,,,,,BKN,2000,,,,,,,MVFR,,,,,,,,,,,,METAR,1000.0
FBSP 271800Z 00000KT CAVOK 21/19 Q1021,FBSP,2018-03-27T18:00:00Z,-22.05,27.82,21.0,19.0,0,0,,6.21,30.147638,,,,,,,,,,,CAVOK,,,,,,,,VFR,,,,,,,,,,,,METAR,892.0
OTHH 271800Z AUTO 04003KT CAVOK 26/13 Q1013 NOSIG,OTHH,2018-03-27T18:00:00Z,25.25,51.6,26.0,13.0,40,3,,6.21,29.911417,,,TRUE,,,TRUE,,,,,CAVOK,,,,,,,,VFR,,,,,,,,,,,,METAR,0.0
OTBD 271800Z 05002KT CAVOK 27/15 Q1014 NOSIG,OTBD,2018-03-27T18:00:00Z,25.25,51.57,27.0,15.0,50,2,,6.21,29.940945,,,,,,TRUE,,,,,CAVOK,,,,,,,,VFR,,,,,,,,,,,,METAR,10.0
FIMR 271800Z 06006KT 9999 FEW016 SCT090 25/23 Q1013,FIMR,2018-03-27T18:00:00Z,-19.75,63.37,25.0,23.0,60,6,,6.21,29.911417,,,,,,,,,,,FEW,1600,SCT,9000,,,,,VFR,,,,,,,,,,,,METAR,31.0
YCCY 271800Z AUTO 11009KT //// // ////// 28/20 Q1007,YCCY,2018-03-27T18:00:00Z,-20.67,140.5,28.0,20.0,110,9,,,29.734253,,,TRUE,,,,,,,,,,,,,,,,,,,,,,,,,,,,METAR,570.0
YCBP 271800Z AUTO 01013KT 9999 // NCD 20/M01 Q1012,YCBP,2018-03-27T18:00:00Z,-29.03,134.72,20.0,-1.0,10,13,,6.21,29.88189,,,TRUE,,,,,,,,CLR,,,,,,,,VFR,,,,,,,,,,,,METAR,226.0
YCBB 271800Z AUTO 36005KT //// // ////// 15/13 Q1016,YCBB,2018-03-27T18:00:00Z,-31.33,149.27,15.0,13.0,360,5,,,30.0,,,TRUE,,,,,,,,,,,,,,,,,,,,,,,,,,,,METAR,645.0
YCBA 271800Z AUTO 07005KT 9999 // NCD 16/M05 Q////,YCBA,2018-03-27T18:00:00Z,-31.53,145.8,16.0,-5.0,70,5,,6.21,,,,TRUE,,,,,,,,CLR,,,,,,,,VFR,,,,,,,,,,,,METAR,221.0
YCAS 271800Z AUTO 21007KT //// // ////// 20/17 Q1015,YCAS,2018-03-27T18:00:00Z,-28.88,153.07,20.0,17.0,210,7,,,29.970472,,,TRUE,,,,,,,,,,,,,,,,,,,,,,,,,,,,METAR,26.0
YCAR 271800Z AUTO 17016KT 9999 // NCD 25/21 Q1012,YCAR,2018-03-27T18:00:00Z,-24.88,113.67,25.0,21.0,170,16,,6.21,29.88189,,,TRUE,,,,,,,,CLR,,,,,,,,VFR,,,,,,,,,,,,METAR,8.0
YBWX 271800Z AUTO 20015KT //// // ////// 31/24 Q1008,YBWX,2018-03-27T18:00:00Z,-20.88,115.4,31.0,24.0,200,15,,,29.763779,,,TRUE,,,,,,,,,,,,,,,,,,,,,,,,,,,,METAR,6.0
YBWP 271800Z AUTO 09003KT //// // SCT009 BKN019 OVC033 25/24 Q1005,YBWP,2018-03-27T18:00:00Z,-12.68,141.92,25.0,24.0,90,3,,,29.675198,,,TRUE,,,,,,,,SCT,900,BKN,1900,OVC,3300,,,,,,,,,,,,,,,METAR,12.0
YBUD 271800Z AUTO 17008KT 9999 // NCD 22/21 Q1011,YBUD,2018-03-27T18:00:00Z,-24.9,152.32,22.0,21.0,170,8,,6.21,29.852362,,,TRUE,,,,,,,,CLR,,,,,,,,VFR,,,,,,,,,,,,METAR,82.0
YBTL 271800Z AUTO 13008KT 9999 -DZ SCT038 SCT054 BKN095 25/24 Q1007,YBTL,2018-03-27T18:00:00Z,-19.25,146.75,25.0,24.0,130,8,,6.21,29.734253,,,TRUE,,,,,,,-DZ,SCT,3800,SCT,5400,BKN,9500,,,VFR,,,,,,,,,,,,METAR,6.0
RJAW 271800Z 07016KT 9999 SCT008 BKN010 21/20 Q1014 RMK 4ST008 7CU010 A2996,RJAW,2018-03-27T18:00:00Z,24.77,141.32,21.0,20.0,70,16,,6.21,29.940945,,,,,,,,,,,SCT,800,BKN,1000,,,,,MVFR,,,,,,,,,,,,SPECI,116.0
WAJJ 271800Z 26003KT 9000 FEW012 25/23 Q1006 NOSIG,WAJJ,2018-03-27T18:00:00Z,-2.58,140.52,25.0,23.0,260,3,,5.59,29.704725,,,,,,TRUE,,,,,FEW,1200,,,,,,,VFR,,,,,,,,,,,,METAR,88.0
FAOB 271800Z AUTO 29012KT //// // ////// 20/07 Q1009,FAOB,2018-03-27T18:00:00Z,-34.6,20.27,20.0,7.0,290,12,,,29.793306,,,TRUE,,,,,,,,,,,,,,,,,,,,,,,,,,,,METAR,75.0
FALW 271800Z AUTO 24003KT //// // ////// 18/13 Q1013,FALW,2018-03-27T18:00:00Z,-32.97,18.17,18.0,13.0,240,3,,,29.911417,,,TRUE,,,,,,,,,,,,,,,,,,,,,,,,,,,,METAR,0.0
FABL 271800Z 02003KT 340V050 CAVOK 19/12 Q1023 NOSIG,FABL,2018-03-27T18:00:00Z,-29.1,26.3,19.0,12.0,20,3,,6.21,30.206694,,,,,,TRUE,,,,,CAVOK,,,,,,,,VFR,,,,,,,,,,,,METAR,1348.0
MKJS 271800Z 07022KT 9999 FEW024 29/20 Q1015,MKJS,2018-03-27T18:00:00Z,18.5,-77.92,29.0,20.0,70,22,,6.21,29.970472,,,,,,,,,,,FEW,2400,,,,,,,VFR,,,,,,,,,,,,METAR,1.0
DAUH 271800Z 31008KT CAVOK 19/M05 Q1022,DAUH,2018-03-27T18:00:00Z,31.67,6.15,19.0,-5.0,310,8,,6.21,30.177166,,,,,,,,,,,CAVOK,,,,,,,,VFR,,,,,,,,,,,,METAR,142.0
DAOO 271800Z 24006KT CAVOK 18/07 Q1024,DAOO,2018-03-27T18:00:00Z,35.62,-0.6,18.0,7.0,240,6,,6.21,30.236221,,,,,,,,,,,CAVOK,,,,,,,,VFR,,,,,,,,,,,,METAR,90.0
DAON 271800Z 00000KT CAVOK 18/07 Q1024,DAON,2018-03-27T18:00:00Z,35.02,-1.47,18.0,7.0,0,0,,6.21,30.236221,,,,,,,,,,,CAVOK,,,,,,,,VFR,,,,,,,,,,,,METAR,247.0
DABC 271800Z 32009KT 9999 FEW026 09/03 Q1023,DABC,2018-03-27T18:00:00Z,36.27,6.62,9.0,3.0,320,9,,6.21,30.206694,,,,,,,,,,,FEW,2600,,,,,,,VFR,,,,,,,,,,,,METAR,694.0
DABB 271800Z 31010KT 9999 FEW023TCU SCT033 13/07 Q1021,DABB,2018-03-27T18:00:00Z,36.82,7.82,13.0,7.0,310,10,,6.21,30.147638,,,,,,,,,,,FEW,2300,SCT,3300,,,,,VFR,,,,,,,,,,,,METAR,4.0
DAAT 271800Z 31012KT CAVOK 23/// Q1020,DAAT,2018-03-27T18:00:00Z,22.82,5.47,,,310,12,,6.21,30.11811,,,,,,,,,,,CAVOK,,,,,,,,VFR,,,,,,,,,,,,SPECI,1377.0
DAAG 271800Z 25008KT 9999 FEW023 14/10 Q1025,DAAG,2018-03-27T18:00:00Z,36.72,3.22,14.0,10.0,250,8,,6.21,30.265747,,,,,,,,,,,FEW,2300,,,,,,,VFR,,,,,,,,,,,,METAR,25.0
TTCP 271800Z 13014KT 9999 FEW020 29/22 Q1012 NOSIG,TTCP,2018-03-27T18:00:00Z,11.15,-60.85,29.0,22.0,130,14,,6.21,29.88189,,,,,,TRUE,,,,,FEW,2000,,,,,,,VFR,,,,,,,,,,,,METAR,8.0
TTPP 271800Z 11012KT 9999 SCT022 31/20 Q1011 NOSIG,TTPP,2018-03-27T18:00:00Z,10.58,-61.35,31.0,20.0,110,12,,6.21,29.852362,,,,,,TRUE,,,,,SCT,2200,,,,,,,VFR,,,,,,,,,,,,METAR,15.0
SYEC 271800Z 04010KT 360V080 9999 SHRA BKN019 BKN090 26/24 Q1011 NOSIG,SYEC,2018-03-27T18:00:00Z,6.8,-58.1,26.0,24.0,40,10,,6.21,29.852362,,,,,,TRUE,,,,SHRA,BKN,1900,BKN,9000,,,,,MVFR,,,,,,,,,,,,METAR,10.0
RJNK 271800Z 19002KT 9999 NSC 08/03 Q1017,RJNK,2018-03-27T18:00:00Z,36.37,136.42,8.0,3.0,190,2,,6.21,30.029528,,,,,,,,,,,CLR,,,,,,,,VFR,,,,,,,,,,,,METAR,9.0
RJCC 271800Z 00000KT 9999 FEW015 03/02 Q1013 RMK 1ST015 A2991,RJCC,2018-03-27T18:00:00Z,42.77,141.67,3.0,2.0,0,0,,6.21,29.911417,,,,,,,,,,,FEW,1500,,,,,,,VFR,,,,,,,,,,,,SPECI,30.0
RJFF 271800Z AUTO VRB02KT 9999 NCD 11/07 Q1018 RMK A3008,RJFF,2018-03-27T18:00:00Z,33.57,130.43,11.0,7.0,0,2,,6.21,30.059055,,,TRUE,,,,,,,,CLR,,,,,,,,VFR,,,,,,,,,,,,METAR,12.0
RJFS 271800Z 01004KT 8000 NSC 08/07 Q1019,RJFS,2018-03-27T18:00:00Z,33.15,130.3,8.0,7.0,10,4,,4.97,30.088583,,,,,,,,,,,CLR,,,,,,,,MVFR,,,,,,,,,,,,METAR,5.0
RJOH 271800Z 22003KT 9999 NSC 08/04 Q1017,RJOH,2018-03-27T18:00:00Z,35.47,133.25,8.0,4.0,220,3,,6.21,30.029528,,,,,,,,,,,CLR,,,,,,,,VFR,,,,,,,,,,,,METAR,9.0
RJFR 271800Z 35003KT CAVOK 10/06 Q1018,RJFR,2018-03-27T18:00:00Z,33.82,131.03,10.0,6.0,350,3,,6.21,30.059055,,,,,,,,,,,CAVOK,,,,,,,,VFR,,,,,,,,,,,,METAR,6.0
CXTH 271800Z AUTO 08011KT M10/M12 RMK AO1 PK WND 08017/1737 T10951116 50006,CXTH,2018-03-27T18:00:00Z,53.63,-111.68,-9.5,-11.6,80,11,,,,,,TRUE,TRUE,,,,,,,,,,,,,,,,0.6,,,,,,,,,,,METAR,678.0
CXFM 271800Z AUTO 22017KT 03/M01 RMK AO1 PK WND 21024/1716 T00281009,CXFM,2018-03-27T18:00:00Z,49.48,-111.48,2.8,-0.9,220,17,,,,,,TRUE,TRUE,,,,,,,,,,,,,,,,,,,,,,,,,,,METAR,881.0
CXDB 271800Z AUTO 22041KT 03/M03 RMK AO1 PK WND 19053/1758 T00301026,CXDB,2018-03-27T18:00:00Z,49.05,-112.82,3.0,-2.6,220,41,,,,,,TRUE,TRUE,,,,,,,,,,,,,,,,,,,,,,,,,,,METAR,1310.0
CXAK 271800Z AUTO 24007KT M03/M04 RMK AO1 T10341037,CXAK,2018-03-27T18:00:00Z,52.35,-112.6,-3.4,-3.7,240,7,,,,,,TRUE,TRUE,,,,,,,,,,,,,,,,,,,,,,,,,,,METAR,795.0
CPRY 271800Z AUTO 27015KT 05/M01 RMK AO1 PK WND 27022/1734 T00521007,CPRY,2018-03-27T18:00:00Z,49.48,-112.68,5.2,-0.7,270,15,,,,,,TRUE,TRUE,,,,,,,,,,,,,,,,,,,,,,,,,,,METAR,937.0
CWOE 271800Z AUTO 22008KT 05/M02 RMK AO1 SOG 29 6027 PK WND 25017/1703 SLP078 T00501022,CWOE,2018-03-27T18:00:00Z,49.12,-110.47,5.0,-2.2,220,8,,,,1007.8,,TRUE,TRUE,,,,,,,,,,,,,,,,,,,,,,,,,,,METAR,935.0
CXWM 271800Z AUTO 27012KT 04/M01 RMK AO1 PK WND 25022/1724 T00431006,CXWM,2018-03-27T18:00:00Z,49.5,-112.12,4.3,-0.6,270,12,,,,,,TRUE,TRUE,,,,,,,,,,,,,,,,,,,,,,,,,,,METAR,944.0
HTMG 271800Z 00000KT 9999 BKN023 23/22 Q1015,HTMG,2018-03-27T18:00:00Z,-6.82,37.63,23.0,22.0,0,0,,6.21,29.970472,,,,,,,,,,,BKN,2300,,,,,,,MVFR,,,,,,,,,,,,METAR,526.0
HTZA 271800Z 00000KT 9999 FEW016 27/25 Q1012 NOSIG,HTZA,2018-03-27T18:00:00Z,-6.22,39.22,27.0,25.0,0,0,,6.21,29.88189,,,,,,TRUE,,,,,FEW,1600,,,,,,,VFR,,,,,,,,,,,,METAR,15.0
HTMW 271800Z 00000KT 9999 FEW024 FEW025CB BKN090 25/21 Q1013 NOSIG,HTMW,2018-03-27T18:00:00Z,-2.47,32.92,25.0,21.0,0,0,,6.21,29.911417,,,,,,TRUE,,,,,FEW,2400,FEW,2500,BKN,9000,,,VFR,,,,,,,,,,,,METAR,1140.0
HTKJ 271800Z 11014KT 9999 FEW025CB BKN026 23/19 Q1015 NOSIG ,HTKJ,2018-03-27T18:00:00Z,-3.42,37.07,23.0,19.0,110,14,,6.21,29.970472,,,,,,TRUE,,,,,FEW,2500,BKN,2600,,,,,MVFR,,,,,,,,,,,,METAR,896.0
HTDA 271800Z 00000KT 9999 FEW014 BKN070 26/25 Q1012 NOSIG,HTDA,2018-03-27T18:00:00Z,-6.88,39.2,26.0,25.0,0,0,,6.21,29.88189,,,,,,TRUE,,,,,FEW,1400,BKN,7000,,,,,VFR,,,,,,,,,,,,METAR,55.0
KMHV 271800Z AUTO 04015G22KT 10SM CLR 14/M08 A3021 RMK A01,KMHV,2018-03-27T18:00:00Z,35.07,-118.15,14.0,-8.0,40,15,22,10.0,30.209646,,,TRUE,TRUE,,,,,,,CLR,,,,,,,,VFR,,,,,,,,,,,,METAR,849.0
K46U 271800Z AUTO VRB03KT 10SM CLR 00/M09 A3023 RMK A01,K46U,2018-03-27T18:00:00Z,43.18,-111.05,0.0,-9.0,0,3,,10.0,30.230314,,,TRUE,TRUE,,,,,,,CLR,,,,,,,,VFR,,,,,,,,,,,,METAR,1717.0
KGZN 271800Z AUTO 10009G14KT 9SM -RA CLR 16/15 A3004 RMK AO2,KGZN,2018-03-27T18:00:00Z,32.37,-99.02,16.0,15.0,100,9,14,9.0,30.041338,,,TRUE,TRUE,,,,,,-RA,CLR,,,,,,,,VFR,,,,,,,,,,,,METAR,522.0
LFVP 271800Z 08011KT CAVOK 04/M06 Q1037 NOSIG,LFVP,2018-03-27T18:00:00Z,46.77,-56.18,4.0,-6.0,80,11,,6.21,30.620079,,,,,,TRUE,,,,,CAVOK,,,,,,,,VFR,,,,,,,,,,,,METAR,8.0
WSSS 271800Z VRB02KT 9999 FEW015 BKN160 25/23 Q1011 NOSIG,WSSS,2018-03-27T18:00:00Z,1.37,103.97,25.0,23.0,0,2,,6.21,29.852362,,,,,,TRUE,,,,,FEW,1500,BKN,16000,,,,,VFR,,,,,,,,,,,,METAR,16.0
MNMG 271800Z 09020KT 9999 BKN029 33/20 Q1010 A2984 NOSIG,MNMG,2018-03-27T18:00:00Z,12.15,-86.17,33.0,20.0,90,20,,6.21,29.822834,,,,,,TRUE,,,,,BKN,2900,,,,,,,MVFR,,,,,,,,,,,,METAR,59.0
UBBG 271800Z 26004KT 230V300 9999 SCT100 14/06 Q1013 R30/CLRD// NOSIG,UBBG,2018-03-27T18:00:00Z,40.73,46.32,14.0,6.0,260,4,,6.21,29.911417,,,,,,TRUE,,,,,SCT,10000,,,,,,,VFR,,,,,,,,,,,,SPECI,330.0
FQMA 271800Z 12003KT 9999 FEW020 25/21 Q1018 NOSIG,FQMA,2018-03-27T18:00:00Z,-25.92,32.57,25.0,21.0,120,3,,6.21,30.059055,,,,,,TRUE,,,,,FEW,2000,,,,,,,VFR,,,,,,,,,,,,METAR,44.0
HKMO 271800Z 00000KT 9999 FEW022 SCT080 27/24 Q1012 NOSIG,HKMO,2018-03-27T18:00:00Z,-4.02,39.62,27.0,24.0,0,0,,6.21,29.88189,,,,,,TRUE,,,,,FEW,2200,SCT,8000,,,,,VFR,,,,,,,,,,,,METAR,55.0
CWXC 271800Z AUTO 16008KT 10/M16 RMK AO1 SLP256 T00991157 56043,CWXC,2018-03-27T18:00:00Z,48.88,-71.03,9.9,-15.7,160,8,,,,1025.6,,TRUE,TRUE,,,,,,,,,,,,,,,,-4.3,,,,,,,,,,,METAR,300.0
CWXA 271800Z AUTO 26011G18KT 04/M05 RMK AO1 PK WND 27027/1700 SLP061 T00421053 53025,CWXA,2018-03-27T18:00:00Z,51.07,-115.07,4.2,-5.3,260,11,18,,,1006.1,,TRUE,TRUE,,,,,,,,,,,,,,,,2.5,,,,,,,,,,,METAR,1298.0
CWVU 271800Z AUTO 01024KT 03/M02 RMK AO1 PK WND 01030/1730 SLP306 T00271016 56035,CWVU,2018-03-27T18:00:00Z,44.28,-66.33,2.7,-1.6,10,24,,,,1030.6,,TRUE,TRUE,,,,,,,,,,,,,,,,-3.5,,,,,,,,,,,METAR,16.0
CXDK 271800Z AUTO M15/M23 RMK AO1 SLP172 T11511234 51015,CXDK,2018-03-27T18:00:00Z,61.27,-124.47,-15.1,-23.4,,,,,,1017.2,,TRUE,TRUE,,,,,,,,,,,,,,,,1.5,,,,,,,,,,,METAR,283.0
CWBY 271800Z AUTO 15007KT 05/M12 RMK AO1 SOG 75 8031 SLP345 T00491123,CWBY,2018-03-27T18:00:00Z,49.82,-64.28,4.9,-12.3,150,7,,,,1034.5,,TRUE,TRUE,,,,,,,,,,,,,,,,,,,,,,,,,,,METAR,53.0
CXTN 271800Z AUTO 00000KT M30/M34 RMK AO1 SLP163 T13031342 51011,CXTN,2018-03-27T18:00:00Z,69.2,-122.35,-30.3,-34.2,0,0,,,,1016.3,,TRUE,TRUE,,,,,,,,,,,,,,,,1.1,,,,,,,,,,,METAR,552.0
CXLL 271800Z AUTO 23002KT M15/M24 RMK AO1 SOG 62 1007 SLP168 T11481242,CXLL,2018-03-27T18:00:00Z,61.12,-122.85,-14.8,-24.2,230,2,,,,1016.8,,TRUE,TRUE,,,,,,,,,,,,,,,,,,,,,,,,,,,METAR,183.0
CXLC 271800Z AUTO 33005KT M23/M28 RMK AO1 SOG 36 3005 SLP134 T12341284,CXLC,2018-03-27T18:00:00Z,63.6,-113.85,-23.4,-28.4,330,5,,,,1013.4,,TRUE,TRUE,,,,,,,,,,,,,,,,,,,,,,,,,,,METAR,373.0
CXHF 271800Z AUTO 05/M10 RMK AO1 T00461096,CXHF,2018-03-27T18:00:00Z,45.83,-75.65,4.6,-9.6,,,,,,,,TRUE,TRUE,,,,,,,,,,,,,,,,,,,,,,,,,,,METAR,190.0
CWQS 271800Z AUTO 28016KT 07/02 RMK AO1 3034 PK WND 24020/1701 SLP222 T00660023 50002,CWQS,2018-03-27T18:00:00Z,53.32,-132.77,6.6,2.3,280,16,,,,1022.2,,TRUE,TRUE,,,,,,,,,,,,,,,,0.2,,,,,,,,,,,METAR,14.0
CWWL 271800Z AUTO 27010KT 06/ RMK AO1 1034 SLP211 T0064 50004,CWWL,2018-03-27T18:00:00Z,53.5,-130.63,6.4,,270,10,,,,1021.1,,TRUE,TRUE,,,,,,,,,,,,,,,,0.4,,,,,,,,,,,METAR,17.0
CWEK 271800Z AUTO 25016KT 07/02 RMK AO1 PK WND 25022/1747 SLP188 T00670015 51034,CWEK,2018-03-27T18:00:00Z,54.58,-130.7,6.7,1.5,250,16,,,,1018.8,,TRUE,TRUE,,,,,,,,,,,,,,,,3.4,,,,,,,,,,,METAR,8.0
CWZL 271800Z AUTO 29007KT 06/M00 RMK AO1 1033 SLP224 T00641001 50004,CWZL,2018-03-27T18:00:00Z,53.03,-131.6,6.4,-0.1,290,7,,,,1022.4,,TRUE,TRUE,,,,,,,,,,,,,,,,0.4,,,,,,,,,,,METAR,17.0
VRMM 271800Z 09005KT 9999 FEW019 29/25 Q1012 NOSIG,VRMM,2018-03-27T18:00:00Z,4.2,73.52,29.0,25.0,90,5,,6.21,29.88189,,,,,,TRUE,,,,,FEW,1900,,,,,,,VFR,,,,,,,,,,,,METAR,2.0
CWRY 271800Z AUTO 29008KT 06/M01 RMK AO1 SOG 16 5022 PK WND 26028/1720 SLP072 T00551012,CWRY,2018-03-27T18:00:00Z,49.12,-112.03,5.5,-1.2,290,8,,,,1007.2,,TRUE,TRUE,,,,,,,,,,,,,,,,,,,,,,,,,,,METAR,1050.0
CWWX 271800Z AUTO 21009G19KT 03/02 RMK AO1 PK WND 21019/1729 SLP124 T00280023 56030,CWWX,2018-03-27T18:00:00Z,45.32,-81.73,2.8,2.3,210,9,19,,,1012.4,,TRUE,TRUE,,,,,,,,,,,,,,,,-3.0,,,,,,,,,,,METAR,181.0
SBPR 271800Z 09009KT 9999 SCT030 28/15 Q1020,SBPR,2018-03-27T18:00:00Z,-19.9,-43.98,28.0,15.0,90,9,,6.21,30.11811,,,,,,,,,,,SCT,3000,,,,,,,VFR,,,,,,,,,,,,METAR,927.0
SBMT 271800Z 13005KT 9999 SCT045 BKN080 27/18 Q1018,SBMT,2018-03-27T18:00:00Z,-23.52,-46.62,27.0,18.0,130,5,,6.21,30.059055,,,,,,,,,,,SCT,4500,BKN,8000,,,,,VFR,,,,,,,,,,,,METAR,722.0
SBLS 271800Z 12008KT 050V160 9999 FEW040 27/13 Q1019,SBLS,2018-03-27T18:00:00Z,-19.67,-43.88,27.0,13.0,120,8,,6.21,30.088583,,,,,,,,,,,FEW,4000,,,,,,,VFR,,,,,,,,,,,,METAR,852.0
SBIP 271800Z 36005KT 9999 SCT030 33/19 Q1016,SBIP,2018-03-27T18:00:00Z,-19.47,-42.48,33.0,19.0,360,5,,6.21,30.0,,,,,,,,,,,SCT,3000,,,,,,,VFR,,,,,,,,,,,,METAR,239.0
SBFS 271800Z /////KT 9999 FEW020 ///// Q////,SBFS,2018-03-27T18:00:00Z,-22.02,-41.07,,,,,,6.21,,,,,,,,,,,,FEW,2000,,,,,,,VFR,,,,,,,,,,,,METAR,3.0
SBBQ 271800Z 07008KT 9999 BKN035 25/16 Q1022,SBBQ,2018-03-27T18:00:00Z,-21.25,-43.77,25.0,16.0,70,8,,6.21,30.177166,,,,,,,,,,,BKN,3500,,,,,,,VFR,,,,,,,,,,,,METAR,1171.0
SBBI 271800Z 02008KT 8000 -RA SCT013 BKN015 BKN070 20/17 Q1020,SBBI,2018-03-27T18:00:00Z,-25.4,-49.23,20.0,17.0,20,8,,4.97,30.11811,,,,,,,,,,-RA,SCT,1300,BKN,1500,BKN,7000,,,MVFR,,,,,,,,,,,,METAR,923.0
SBAX 271800Z 14003KT 9999 SCT030 28/14 Q1019,SBAX,2018-03-27T18:00:00Z,-19.57,-46.97,28.0,14.0,140,3,,6.21,30.088583,,,,,,,,,,,SCT,3000,,,,,,,VFR,,,,,,,,,,,,METAR,998.0
SBAF 271800Z 24012KT 9999 FEW030 FEW040TCU 30/22 Q1014,SBAF,2018-03-27T18:00:00Z,-22.87,-43.37,30.0,22.0,240,12,,6.21,29.940945,,,,,,,,,,,FEW,3000,FEW,4000,,,,,VFR,,,,,,,,,,,,METAR,34.0
SBTU 271800Z /////KT 9999 SCT025 ///// Q1011,SBTU,2018-03-27T18:00:00Z,-3.78,-49.72,,,,,,6.21,29.852362,,,,,,,,,,,SCT,2500,,,,,,,VFR,,,,,,,,,,,,SPECI,40.0
SBTK 271800Z 22003KT 9999 OVC020 26/22 Q1014,SBTK,2018-03-27T18:00:00Z,-8.17,-70.77,26.0,22.0,220,3,,6.21,29.940945,,,,,,,,,,,OVC,2000,,,,,,,MVFR,,,,,,,,,,,,METAR,188.0
SBOI 271800Z 04009KT 9999 FEW030 31/24 Q1009,SBOI,2018-03-27T18:00:00Z,3.85,-51.82,31.0,24.0,40,9,,6.21,29.793306,,,,,,,,,,,FEW,3000,,,,,,,VFR,,,,,,,,,,,,METAR,39.0
SBMY 271800Z 07005KT 9999 FEW021 34/24 Q1008,SBMY,2018-03-27T18:00:00Z,-5.82,-61.28,34.0,24.0,70,5,,6.21,29.763779,,,,,,,,,,,FEW,2100,,,,,,,VFR,,,,,,,,,,,,METAR,49.0
SBMD 271800Z 17005KT 9999 BKN020 29/24 Q1009,SBMD,2018-03-27T18:00:00Z,-0.87,-52.6,29.0,24.0,170,5,,6.21,29.793306,,,,,,,,,,,BKN,2000,,,,,,,MVFR,,,,,,,,,,,,METAR,206.0
SBLB 271800Z 08012KT 9999 SCT018 SCT080 29/21 Q1017 W///S3,SBLB,2018-03-27T18:00:00Z,-22.1,-39.92,29.0,21.0,80,12,,6.21,30.029528,,,,,,,,,,,SCT,1800,SCT,8000,,,,,VFR,,,,,,,,,,,,SPECI,10.0
SBIZ 271800Z 12006KT 9999 BKN020 FEW025TCU 34/22 Q1009,SBIZ,2018-03-27T18:00:00Z,-5.52,-47.45,34.0,22.0,120,6,,6.21,29.793306,,,,,,,,,,,BKN,2000,FEW,2500,,,,,MVFR,,,,,,,,,,,,METAR,123.0
SBIH 271800Z 12005KT 9999 SCT025 33/22 Q1008,SBIH,2018-03-27T18:00:00Z,-4.25,-56.0,33.0,22.0,120,5,,6.21,29.763779,,,,,,,,,,,SCT,2500,,,,,,,VFR,,,,,,,,,,,,METAR,34.0
SBIC 271800Z 09006KT 9999 FEW020 30/25 Q1009,SBIC,2018-03-27T18:00:00Z,-3.12,-58.47,30.0,25.0,90,6,,6.21,29.793306,,,,,,,,,,,FEW,2000,,,,,,,VFR,,,,,,,,,,,,METAR,43.0
SBHT 271800Z 10004KT 9999 BKN025 31/24 Q1009,SBHT,2018-03-27T18:00:00Z,-3.25,-52.27,31.0,24.0,100,4,,6.21,29.793306,,,,,,,,,,,BKN,2500,,,,,,,MVFR,,,,,,,,,,,,METAR,74.0
SBGM 271800Z 15001KT 9999 FEW025 BKN033 28/21 Q1012,SBGM,2018-03-27T18:00:00Z,-10.78,-65.28,28.0,21.0,150,1,,6.21,29.88189,,,,,,,,,,,FEW,2500,BKN,3300,,,,,VFR,,,,,,,,,,,,METAR,146.0
SBEK 271800Z 00000KT 9999 FEW020 BKN080 27/26 Q1009,SBEK,2018-03-27T18:00:00Z,-6.23,-57.78,27.0,26.0,0,0,,6.21,29.793306,,,,,,,,,,,FEW,2000,BKN,8000,,,,,VFR,,,,,,,,,,,,METAR,98.0
SBCI 271800Z 12005KT 9999 FEW020 FEW023TCU 32/22 Q1010,SBCI,2018-03-27T18:00:00Z,-7.32,-47.47,32.0,22.0,120,5,,6.21,29.822834,,,,,,,,,,,FEW,2000,FEW,2300,,,,,VFR,,,,,,,,,,,,METAR,183.0
SBCC 271800Z 32009KT 9999 SCT045 FEW048TCU BKN100 27/21 Q1011,SBCC,2018-03-27T18:00:00Z,-9.32,-54.95,27.0,21.0,320,9,,6.21,29.852362,,,,,,,,,,,SCT,4500,FEW,4800,BKN,10000,,,VFR,,,,,,,,,,,,METAR,536.0
SBAA 271800Z 10004KT 9999 BKN030 35/21 Q1010,SBAA,2018-03-27T18:00:00Z,-8.35,-49.3,35.0,21.0,100,4,,6.21,29.822834,,,,,,,,,,,BKN,3000,,,,,,,MVFR,,,,,,,,,,,,METAR,199.0
SBPJ 271800Z 06004KT 9999 SCT030 BKN100 32/21 Q1011,SBPJ,2018-03-27T18:00:00Z,-10.28,-48.37,32.0,21.0,60,4,,6.21,29.852362,,,,,,,,,,,SCT,3000,BKN,10000,,,,,VFR,,,,,,,,,,,,METAR,236.0
SBBW 271800Z 04006KT 9999 BKN020 BKN100 30/22 Q1012,SBBW,2018-03-27T18:00:00Z,-15.87,-52.37,30.0,22.0,40,6,,6.21,29.88189,,,,,,,,,,,BKN,2000,BKN,10000,,,,,MVFR,,,,,,,,,,,,METAR,350.0
SBAN 271800Z 05005KT 9999 BKN035 26/14 Q1018,SBAN,2018-03-27T18:00:00Z,-16.22,-48.97,26.0,14.0,50,5,,6.21,30.059055,,,,,,,,,,,BKN,3500,,,,,,,VFR,,,,,,,,,,,,METAR,1137.0
DNPO 271800Z 19006KT 9999 BKN010 FEW020CB 30/26 Q1009 NOSIG,DNPO,2018-03-27T18:00:00Z,4.83,7.02,30.0,26.0,190,6,,6.21,29.793306,,,,,,TRUE,,,,,BKN,1000,FEW,2000,,,,,MVFR,,,,,,,,,,,,METAR,18.0
GOOD 271800Z 00000KT CAVOK 36/13 Q1010,GOOD,2018-03-27T18:00:00Z,14.65,-16.22,36.0,13.0,0,0,,6.21,29.822834,,,,,,,,,,,CAVOK,,,,,,,,VFR,,,,,,,,,,,,METAR,9.0
SBMG 271800Z 05007KT 9999 BKN025 BKN090 26/20 Q1014,SBMG,2018-03-27T18:00:00Z,-23.48,-52.02,26.0,20.0,50,7,,6.21,29.940945,,,,,,,,,,,BKN,2500,BKN,9000,,,,,MVFR,,,,,,,,,,,,METAR,542.0
SBCX 271800Z 22004KT 0100 FG VV000 19/19 Q1020,SBCX,2018-03-27T18:00:00Z,-29.2,-51.18,19.0,19.0,220,4,,0.06,30.11811,,,,,,,,,,FG,OVX,0,,,,,,,LIFR,,,,,,,,,,,0,METAR,754.0
SBQV 271800Z 15012KT 9999 SCT040 25/17 Q1018,SBQV,2018-03-27T18:00:00Z,-14.87,-40.87,25.0,17.0,150,12,,6.21,30.059055,,,,,,,,,,,SCT,4000,,,,,,,VFR,,,,,,,,,,,,SPECI,893.0
SBKG 271800Z 11013KT 9999 FEW020 BKN045 30/20 Q1012,SBKG,2018-03-27T18:00:00Z,-7.27,-35.87,30.0,20.0,110,13,,6.21,29.88189,,,,,,,,,,,FEW,2000,BKN,4500,,,,,VFR,,,,,,,,,,,,SPECI,560.0
SBSM 271800Z 11010KT 9999 BKN025 BKN030 25/20 Q1016,SBSM,2018-03-27T18:00:00Z,-29.72,-53.7,25.0,20.0,110,10,,6.21,30.0,,,,,,,,,,,BKN,2500,BKN,3000,,,,,MVFR,,,,,,,,,,,,SPECI,85.0
SBIL 271800Z 14010KT 9999 FEW020 FEW027TCU 29/24 Q1014,SBIL,2018-03-27T18:00:00Z,-14.8,-39.02,29.0,24.0,140,10,,6.21,29.940945,,,,,,,,,,,FEW,2000,FEW,2700,,,,,VFR,,,,,,,,,,,,SPECI,5.0
SBUL 271800Z 02009KT 360V080 9999 SCT045 28/13 Q1018,SBUL,2018-03-27T18:00:00Z,-18.87,-48.22,28.0,13.0,20,9,,6.21,30.059055,,,,,,,,,,,SCT,4500,,,,,,,VFR,,,,,,,,,,,,METAR,922.0
SBTA 271800Z 15002KT 9999 SCT035 FEW040TCU 30/21 Q1016,SBTA,2018-03-27T18:00:00Z,-23.03,-45.5,30.0,21.0,150,2,,6.21,30.0,,,,,,,,,,,SCT,3500,FEW,4000,,,,,VFR,,,,,,,,,,,,METAR,586.0
SBST 271800Z 23003KT 170V280 9999 OVC017 26/23 Q1015,SBST,2018-03-27T18:00:00Z,-23.92,-46.28,26.0,23.0,230,3,,6.21,29.970472,,,,,,,,,,,OVC,1700,,,,,,,MVFR,,,,,,,,,,,,METAR,3.0
SBSR 271800Z 33002KT 9999 SCT030 SCT090 30/18 Q1016,SBSR,2018-03-27T18:00:00Z,-20.8,-49.4,30.0,18.0,330,2,,6.21,30.0,,,,,,,,,,,SCT,3000,SCT,9000,,,,,VFR,,,,,,,,,,,,METAR,543.0
SBSC 271800Z 16011KT 9999 SCT035 31/23 Q1014,SBSC,2018-03-27T18:00:00Z,-22.92,-43.72,31.0,23.0,160,11,,6.21,29.940945,,,,,,,,,,,SCT,3500,,,,,,,VFR,,,,,,,,,,,,METAR,3.0
CXPA 271800Z AUTO 33009KT M09/M12 RMK AO1 T10921115 50007,CXPA,2018-03-27T18:00:00Z,55.62,-118.3,-9.2,-11.5,330,9,,,,,,TRUE,TRUE,,,,,,,,,,,,,,,,0.7,,,,,,,,,,,METAR,621.0
CXOY 271800Z AUTO 22014KT M00/M02 RMK AO1 T10011019,CXOY,2018-03-27T18:00:00Z,51.38,-110.35,-0.1,-1.9,220,14,,,,,,TRUE,TRUE,,,,,,,,,,,,,,,,,,,,,,,,,,,METAR,767.0
CXHR 271800Z AUTO 28015KT 04/M02 RMK AO1 PK WND 27019/1753 T00381015,CXHR,2018-03-27T18:00:00Z,51.18,-112.5,3.8,-1.5,280,15,,,,,,TRUE,TRUE,,,,,,,,,,,,,,,,,,,,,,,,,,,METAR,971.0
CXDP 271800Z AUTO 10010KT M08/M10 RMK AO1 4PAST HR M P0002 T10811097 50024,CXDP,2018-03-27T18:00:00Z,54.32,-113.95,-8.1,-9.7,100,10,,,,,,TRUE,TRUE,,,,,,,,,,,,,,,,2.4,,,,,0.02,,,,,,METAR,614.0
CXBR 271800Z AUTO 26049KT 08/M02 RMK AO1 PK WND 26060/1703 T00781023,CXBR,2018-03-27T18:00:00Z,49.62,-113.82,7.8,-2.3,260,49,,,,,,TRUE,TRUE,,,,,,,,,,,,,,,,,,,,,,,,,,,METAR,1073.0
CXAF 271800Z AUTO 11010KT M10/M12 RMK AO1 T11001115 50027,CXAF,2018-03-27T18:00:00Z,54.28,-112.97,-10.0,-11.5,110,10,,,,,,TRUE,TRUE,,,,,,,,,,,,,,,,2.7,,,,,,,,,,,METAR,664.0
CXSC 271800Z AUTO 24018KT 08/01 RMK AO1 PK WND 25028/1703 T00800009,CXSC,2018-03-27T18:00:00Z,50.3,-110.08,8.0,0.9,240,18,,,,,,TRUE,TRUE,,,,,,,,,,,,,,,,,,,,,,,,,,,METAR,800.0
CWHP 271800Z AUTO 22007KT M01/M03 RMK AO1 SLP374 T10061027 58018,CWHP,2018-03-27T18:00:00Z,49.07,-61.7,-0.6,-2.7,220,7,,,,1037.4,,TRUE,TRUE,,,,,,,,,,,,,,,,-1.8,,,,,,,,,,,METAR,4.0
CXYH 271800Z AUTO M15/M23 RMK AO1 SOG 38 1014 SLP152 T11451226,CXYH,2018-03-27T18:00:00Z,61.25,-123.75,-14.5,-22.6,,,,,,1015.2,,TRUE,TRUE,,,,,,,,,,,,,,,,,,,,,,,,,,,METAR,204.0
CXTV 271800Z AUTO 26004KT M22/M25 RMK AO1 SOG 34 3015 SLP176 T12171250,CXTV,2018-03-27T18:00:00Z,68.75,-133.5,-21.7,-25.0,260,4,,,,1017.6,,TRUE,TRUE,,,,,,,,,,,,,,,,,,,,,,,,,,,METAR,85.0
CWVI 271800Z AUTO 09009KT M08/M09 RMK AO1 SLP071 T10761094 56011,CWVI,2018-03-27T18:00:00Z,53.52,-112.1,-7.6,-9.4,90,9,,,,1007.1,,TRUE,TRUE,,,,,,,,,,,,,,,,-1.1,,,,,,,,,,,METAR,639.0
CWJO 271800Z AUTO 10007G15KT 09/M14 RMK AO1 PK WND 10017/1745 SLP268 T00931139 56055,CWJO,2018-03-27T18:00:00Z,48.43,-71.15,9.3,-13.9,100,7,15,,,1026.8,,TRUE,TRUE,,,,,,,,,,,,,,,,-5.5,,,,,,,,,,,METAR,133.0
CTRA 271800Z AUTO 23006KT 03/M04 RMK AO1 2PAST HR SOG 38 5001 SLP118 P0001 T00261038 50002,CTRA,2018-03-27T18:00:00Z,49.67,-93.73,2.6,-3.8,230,6,,,,1011.8,,TRUE,TRUE,,,,,,,,,,,,,,,,0.2,,,,,0.01,,,,,,METAR,435.0
CTNK 271800Z AUTO 13005KT 01/M02 RMK AO1 SOG 16 8032 SLP190 T00131023,CTNK,2018-03-27T18:00:00Z,45.53,-78.27,1.3,-2.3,130,5,,,,1019.0,,TRUE,TRUE,,,,,,,,,,,,,,,,,,,,,,,,,,,METAR,410.0
CWDJ 271800Z AUTO 20007KT 02/M03 RMK AO1 SOG 12 8022 SLP094 T00211030,CWDJ,2018-03-27T18:00:00Z,50.4,-104.58,2.1,-3.0,200,7,,,,1009.4,,TRUE,TRUE,,,,,,,,,,,,,,,,,,,,,,,,,,,METAR,573.0
CWCO 271800Z AUTO 14007KT 04/02 RMK AO1 3PAST HR 8035 SLP156 P0001 T00360020 50020,CWCO,2018-03-27T18:00:00Z,44.45,-80.17,3.6,2.0,140,7,,,,1015.6,,TRUE,TRUE,,,,,,,,,,,,,,,,2.0,,,,,0.01,,,,,,METAR,221.0
CWCJ 271800Z AUTO 26005KT 01/01 RMK AO1 SOG 49 5006 SLP094 T00060006 50029,CWCJ,2018-03-27T18:00:00Z,48.6,-86.28,0.6,0.6,260,5,,,,1009.4,,TRUE,TRUE,,,,,,,,,,,,,,,,2.9,,,,,,,,,,,METAR,206.0
CWCF 271800Z AUTO 31013G18KT M06/M11 RMK AO1 SOG 10 1019 PK WND 32022/1740 SLP119 T10641106,CWCF,2018-03-27T18:00:00Z,52.35,-97.03,-6.4,-10.6,310,13,18,,,1011.9,,TRUE,TRUE,,,,,,,,,,,,,,,,,,,,,,,,,,,METAR,222.0
CWBZ 271800Z AUTO 05003KT 07/M06 RMK AO1 SLP252 T00731060 58043,CWBZ,2018-03-27T18:00:00Z,45.12,-74.27,7.3,-6.0,50,3,,,,1025.2,,TRUE,TRUE,,,,,,,,,,,,,,,,-4.3,,,,,,,,,,,METAR,49.0
CWBS 271800Z AUTO 03005KT 03/M03 RMK AO1 T00321026,CWBS,2018-03-27T18:00:00Z,46.18,-72.92,3.2,-2.6,30,5,,,,,,TRUE,TRUE,,,,,,,,,,,,,,,,,,,,,,,,,,,METAR,16.0
CWBA 271800Z AUTO 18007KT 03/M00 RMK AO1 SOG 40 PK WND 15019/1704 T00261002,CWBA,2018-03-27T18:00:00Z,46.72,-79.1,2.6,-0.2,180,7,,,,,,TRUE,TRUE,,,,,,,,,,,,,,,,,,,,,,,,,,,METAR,181.0
CWAV 271800Z AUTO 27018G25KT 07/M08 RMK AO1 SOG 38 8001 PK WND 26027/1743 SLP035 T00731081,CWAV,2018-03-27T18:00:00Z,51.77,-114.67,7.3,-8.1,270,18,25,,,1003.5,,TRUE,TRUE,,,,,,,,,,,,,,,,,,,,,,,,,,,METAR,1114.0
CWAQ 271800Z AUTO 22013G19KT 04/M01 RMK AO1 SOG 00 8025 PK WND 23019/1757 SLP096 T00441014,CWAQ,2018-03-27T18:00:00Z,49.05,-105.48,4.4,-1.4,220,13,19,,,1009.6,,TRUE,TRUE,,,,,,,,,,,,,,,,,,,,,,,,,,,METAR,756.0
CWAF 271800Z AUTO 06009KT 01/M02 RMK AO1 T00091021,CWAF,2018-03-27T18:00:00Z,48.07,-69.53,0.9,-2.1,60,9,,,,,,TRUE,TRUE,,,,,,,,,,,,,,,,,,,,,,,,,,,METAR,5.0
CWMQ 271800Z AUTO 26020G28KT 10/M03 RMK AO1 SOG 00 7035 PK WND 26033/1746 SLP051 T01041028,CWMQ,2018-03-27T18:00:00Z,49.9,-109.47,10.4,-2.8,260,20,28,,,1005.1,,TRUE,TRUE,,,,,,,,,,,,,,,,,,,,,,,,,,,METAR,767.0
CWMM 271800Z AUTO 28003KT 09/07 RMK AO1 9PAST HR SOG 00 3003 SLP227 P0004 T00860071 50124,CWMM,2018-03-27T18:00:00Z,49.22,-122.68,8.6,7.1,280,3,,,,1022.7,,TRUE,TRUE,,,,,,,,,,,,,,,,0.0,,,,,0.04,,,,,,METAR,5.0
CWMJ 271800Z AUTO 16014G20KT 05/M09 RMK AO1 SOG 23 6041 PK WND 15022/1709 SLP228 T00461094,CWMJ,2018-03-27T18:00:00Z,46.27,-76.0,4.6,-9.4,160,14,20,,,1022.8,,TRUE,TRUE,,,,,,,,,,,,,,,,,,,,,,,,,,,METAR,200.0
CWLM 271800Z AUTO 26020G27KT 09/08 RMK AO1 3003 PK WND 25031/1726 SLP233 T00940079 50002,CWLM,2018-03-27T18:00:00Z,48.42,-123.32,9.4,7.9,260,20,27,,,1023.3,,TRUE,TRUE,,,,,,,,,,,,,,,,0.2,,,,,,,,,,,METAR,70.0
CWLE 271800Z AUTO 23002KT 05/M01 RMK AO1 SOG 01 8026 SLP063 T00451010,CWLE,2018-03-27T18:00:00Z,50.95,-107.15,4.5,-1.0,230,2,,,,1006.3,,TRUE,TRUE,,,,,,,,,,,,,,,,,,,,,,,,,,,METAR,665.0
CWLC 271800Z AUTO 25005KT 05/02 RMK AO1 PK WND 25017/1744 T00510015,CWLC,2018-03-27T18:00:00Z,54.3,-130.62,5.1,1.5,250,5,,,,,,TRUE,TRUE,,,,,,,,,,,,,,,,,,,,,,,,,,,METAR,27.0
CWKX 271800Z AUTO 07006KT M09/M12 RMK AO1 SOG 45 1024 SLP152 T10891122 50005,CWKX,2018-03-27T18:00:00Z,58.43,-130.02,-8.9,-12.2,70,6,,,,1015.2,,TRUE,TRUE,,,,,,,,,,,,,,,,0.5,,,,,,,,,,,METAR,793.0
CWKH 271800Z AUTO 09/05 RMK AO1 3013 SLP217 T00860051 50002,CWKH,2018-03-27T18:00:00Z,48.57,-123.55,8.6,5.1,,,,,,1021.7,,TRUE,TRUE,,,,,,,,,,,,,,,,0.2,,,,,,,,,,,METAR,366.0
CWKG 271800Z AUTO 08009G17KT 10/M10 RMK AO1 SOG 26 6037 PK WND 08020/1713 SLP291 T00971102,CWKG,2018-03-27T18:00:00Z,44.43,-65.2,9.7,-10.2,80,9,17,,,1029.1,,TRUE,TRUE,,,,,,,,,,,,,,,,,,,,,,,,,,,METAR,165.0
CWJX 271800Z AUTO 25007KT 06/M01 RMK AO1 SOG 03 6029 SLP041 T00601011,CWJX,2018-03-27T18:00:00Z,50.88,-109.5,6.0,-1.1,250,7,,,,1004.1,,TRUE,TRUE,,,,,,,,,,,,,,,,,,,,,,,,,,,METAR,672.0
CWJW 271800Z AUTO 18003KT 05/M02 RMK AO1 3002 SLP065 T00461021 50002,CWJW,2018-03-27T18:00:00Z,52.93,-118.03,4.6,-2.1,180,3,,,,1006.5,,TRUE,TRUE,,,,,,,,,,,,,,,,0.2,,,,,,,,,,,METAR,1020.0
CWJV 271800Z AUTO 30005KT 10/02 RMK AO1 SLP149 T01030017 50000,CWJV,2018-03-27T18:00:00Z,50.22,-119.18,10.3,1.7,300,5,,,,1014.9,,TRUE,TRUE,,,,,,,,,,,,,,,,0.0,,,,,,,,,,,METAR,556.0
CWJT 271800Z AUTO 12004KT 06/M09 RMK AO1 SLP257 T00591087 56038,CWJT,2018-03-27T18:00:00Z,46.07,-74.57,5.9,-8.7,120,4,,,,1025.7,,TRUE,TRUE,,,,,,,,,,,,,,,,-3.8,,,,,,,,,,,METAR,239.0
CWJR 271800Z AUTO 15010G20KT 04/02 RMK AO1 PK WND 16020/1750 SLP191 T00430021 56009,CWJR,2018-03-27T18:00:00Z,49.07,-116.5,4.3,2.1,150,10,20,,,1019.1,,TRUE,TRUE,,,,,,,,,,,,,,,,-0.9,,,,,,,,,,,METAR,646.0
CWJI 271800Z AUTO 23012KT 04/M02 RMK AO1 SOG 05 8026 PK WND 23019/1710 SLP089 T00431024,CWJI,2018-03-27T18:00:00Z,49.72,-105.92,4.3,-2.4,230,12,,,,1008.9,,TRUE,TRUE,,,,,,,,,,,,,,,,,,,,,,,,,,,METAR,724.0
CMFM 271800Z AUTO 18005KT 06/M17 RMK AO1 SOG 93 8036 SLP291 T00571172,CMFM,2018-03-27T18:00:00Z,47.32,-71.15,5.7,-17.2,180,5,,,,1029.1,,TRUE,TRUE,,,,,,,,,,,,,,,,,,,,,,,,,,,METAR,672.0
CWWZ 271800Z AUTO 17015KT 05/02 RMK AO1 2PAST HR PRESFR SOG 00 8039 PK WND 16021/1729 SLP179 P0001 T00470018 50021,CWWZ,2018-03-27T18:00:00Z,43.25,-79.22,4.7,1.8,170,15,,,,1017.9,,TRUE,TRUE,,,,,,,,,,,,,,,,2.1,,,,,0.01,,,,,,METAR,79.0
CWPO 271800Z AUTO 22008KT 04/M01 RMK AO1 SLP137 T00371006 58005,CWPO,2018-03-27T18:00:00Z,49.2,-98.9,3.7,-0.6,220,8,,,,1013.7,,TRUE,TRUE,,,,,,,,,,,,,,,,-0.5,,,,,,,,,,,METAR,470.0
CWPC 271800Z AUTO 17018KT 03/M01 RMK AO1 PRESFR PK WND 17020/1753 SLP178 T00261007 58046,CWPC,2018-03-27T18:00:00Z,42.87,-79.25,2.6,-0.7,170,18,,,,1017.8,,TRUE,TRUE,,,,,,,,,,,,,,,,-4.6,,,,,,,,,,,METAR,184.0
CWLS 271800Z AUTO 18010G19KT 03/02 RMK AO1 4PAST HR SOG 00 6032 PK WND 17022/1715 SLP156 P0002 T00290023 50020,CWLS,2018-03-27T18:00:00Z,43.97,-80.75,2.9,2.3,180,10,19,,,1015.6,,TRUE,TRUE,,,,,,,,,,,,,,,,2.0,,,,,0.02,,,,,,METAR,415.0
CWBE 271800Z AUTO 15013KT 01/M00 RMK AO1 PK WND 14023/1711 SLP150 T00071002 56032,CWBE,2018-03-27T18:00:00Z,45.98,-81.48,0.7,-0.2,150,13,,,,1015.0,,TRUE,TRUE,,,,,,,,,,,,,,,,-3.2,,,,,,,,,,,METAR,196.0
CTCK 271800Z AUTO 11009KT 05/M06 RMK AO1 SOG 09 7046 SLP244 T00521060,CTCK,2018-03-27T18:00:00Z,45.25,-74.97,5.2,-6.0,110,9,,,,1024.4,,TRUE,TRUE,,,,,,,,,,,,,,,,,,,,,,,,,,,METAR,85.0
CWDV 271800Z AUTO 28008KT M00/M02 RMK AO1 SOG 48 6001 PK WND 28017/1740 SLP120 T10021015 50002,CWDV,2018-03-27T18:00:00Z,49.02,-90.47,-0.2,-1.5,280,8,,,,1012.0,,TRUE,TRUE,,,,,,,,,,,,,,,,0.2,,,,,,,,,,,METAR,489.0
SEGS 271800Z AUTO 09013KT ////NDV ////// 28/22 Q1009 A2982,SEGS,2018-03-27T18:00:00Z,-0.45,-90.27,28.0,22.0,90,13,,,29.793306,,,TRUE,,,,,,,,,,,,,,,,,,,,,,,,,,,,METAR,16.0
LYBE 271800Z 26006KT CAVOK 05/02 Q1014 NOSIG,LYBE,2018-03-27T18:00:00Z,44.82,20.28,5.0,2.0,260,6,,6.21,29.940945,,,,,,TRUE,,,,,CAVOK,,,,,,,,VFR,,,,,,,,,,,,METAR,99.0
TQPF 271800Z 10010KT 9999 SCT018 28/20 Q1014,TQPF,2018-03-27T18:00:00Z,18.18,-63.03,28.0,20.0,100,10,,6.21,29.940945,,,,,,,,,,,SCT,1800,,,,,,,VFR,,,,,,,,,,,,METAR,31.0
CYZP 271800Z AUTO /////KT RMK WND MISG CLD MISG WX MISG VIS MISG PCPN MISG T MISG TD MISG ICG MISG DENSITY ALT MISG,CYZP,2018-03-27T18:00:00Z,53.25,-131.82,,,,,,,,,,TRUE,,,,,,,,,,,,,,,,,,,,,,,,,,,,METAR,6.0
CYXS 271800Z AUTO 29013G24KT 260V330 9SM FEW046 SCT055 BKN083 06/M03 A2982 RMK SLP124,CYXS,2018-03-27T18:00:00Z,53.9,-122.68,6.0,-3.0,290,13,24,9.0,29.819881,1012.4,,TRUE,,,,,,,,FEW,4600,SCT,5500,BKN,8300,,,VFR,,,,,,,,,,,,METAR,691.0
CYXQ 271800Z 00000KT 30SM FEW150 M17/M25 A2977 RMK AC1 AC TR SLP148,CYXQ,2018-03-27T18:00:00Z,62.42,-140.87,-17.0,-25.0,0,0,,30.0,29.769686,1014.8,,,,,,,,,,FEW,15000,,,,,,,VFR,,,,,,,,,,,,METAR,649.0
CYXE 271800Z 09014KT 15SM BKN015 OVC090 M05/M09 A2971 RMK SC5AC3 SLP098,CYXE,2018-03-27T18:00:00Z,52.17,-106.7,-5.0,-9.0,90,14,,15.0,29.71063,1009.8,,,,,,,,,,BKN,1500,OVC,9000,,,,,MVFR,,,,,,,,,,,,METAR,504.0
CYXC 271800Z 18015G23KT 25SM SCT045 BKN100 04/M01 A2990 RMK SC4AC3 SLP151,CYXC,2018-03-27T18:00:00Z,49.6,-115.77,4.0,-1.0,180,15,23,25.0,29.899607,1015.1,,,,,,,,,,SCT,4500,BKN,10000,,,,,VFR,,,,,,,,,,,,METAR,939.0
CYVL 271800Z AUTO 22005KT 9SM FEW048 M24/M26 A2990 RMK SLP170,CYVL,2018-03-27T18:00:00Z,67.02,-126.13,-24.0,-26.0,220,5,,9.0,29.899607,1017.0,,TRUE,,,,,,,,FEW,4800,,,,,,,VFR,,,,,,,,,,,,METAR,259.0
CYUA 271800Z AUTO 12005KT ////SM //// NCD M23/M29 A3002,CYUA,2018-03-27T18:00:00Z,68.95,-137.28,-23.0,-29.0,120,5,,,30.02067,,,TRUE,,,,,,,,CLR,,,,,,,,,,,,,,,,,,,,METAR,38.0
CYRV 271800Z AUTO 03005KT 9SM -RA OVC013 02/01 A2994 RMK SLP156,CYRV,2018-03-27T18:00:00Z,50.97,-118.17,2.0,1.0,30,5,,9.0,29.940945,1015.6,,TRUE,,,,,,,-RA,OVC,1300,,,,,,,MVFR,,,,,,,,,,,,METAR,443.0
CYQZ 271800Z AUTO 31012G23KT 270V350 9SM FEW055 BKN072 BKN085 08/M02 A2986 RMK SLP133,CYQZ,2018-03-27T18:00:00Z,53.02,-122.52,8.0,-2.0,310,12,23,9.0,29.861221,1013.3,,TRUE,,,,,,,,FEW,5500,BKN,7200,BKN,8500,,,VFR,,,,,,,,,,,,METAR,545.0
CYQD 271800Z 34007KT 15SM SCT040 OVC070 M11/M19 A2991 RMK SC4AC4 SLP150,CYQD,2018-03-27T18:00:00Z,53.97,-101.08,-11.0,-19.0,340,7,,15.0,29.911417,1015.0,,,,,,,,,,SCT,4000,OVC,7000,,,,,VFR,,,,,,,,,,,,METAR,271.0
CYPR 271800Z AUTO 26014G19KT 200V270 9SM SCT018 BKN025 BKN031 OVC060 05/03 A3011 RMK SLP198,CYPR,2018-03-27T18:00:00Z,54.28,-130.42,5.0,3.0,260,14,19,9.0,30.109253,1019.8,,TRUE,,,,,,,,SCT,1800,BKN,2500,BKN,3100,OVC,6000,MVFR,,,,,,,,,,,,METAR,34.0
CYKY 271800Z 20005KT 15SM BKN090 BKN170 M01/M04 A2959 RMK AC6AC1 SLP055,CYKY,2018-03-27T18:00:00Z,51.52,-109.17,-1.0,-4.0,200,5,,15.0,29.589567,1005.5,,,,,,,,,,BKN,9000,BKN,17000,,,,,VFR,,,,,,,,,,,,METAR,694.0
CYIV 271800Z 33014G21KT 15SM FEW025 FEW090 FEW220 M03/M11 A2972 RMK SC1AC1CC1 SC TR AC TR SLP079,CYIV,2018-03-27T18:00:00Z,53.85,-94.65,-3.0,-11.0,330,14,21,15.0,29.719488,1007.9,,,,,,,,,,FEW,2500,FEW,9000,FEW,22000,,,VFR,,,,,,,,,,,,METAR,237.0
CYFO 271800Z 31008KT 260V020 15SM BKN250 M12/M22 A2990 RMK CI5 SLP150,CYFO,2018-03-27T18:00:00Z,54.67,-101.67,-12.0,-22.0,310,8,,15.0,29.899607,1015.0,,,,,,,,,,BKN,25000,,,,,,,VFR,,,,,,,,,,,,METAR,304.0
CYEV 271800Z 08003KT 15SM FEW130 M18/M25 A3003 RMK AC1 AC TR SLP182,CYEV,2018-03-27T18:00:00Z,68.32,-133.5,-18.0,-25.0,80,3,,15.0,30.029528,1018.2,,,,,,,,,,FEW,13000,,,,,,,VFR,,,,,,,,,,,,METAR,68.0
CYDQ 271800Z AUTO 31009KT 9SM -SN OVC018 M09/M12 A2975 RMK SLP124,CYDQ,2018-03-27T18:00:00Z,55.75,-120.17,-9.0,-12.0,310,9,,9.0,29.749016,1012.4,,TRUE,,,,,,,-SN,OVC,1800,,,,,,,MVFR,,,,,,,,,,,,SPECI,655.0
CYDB 271800Z 00000KT 30SM SCT150 BKN180 M14/M22 A2974 RMK AC3AC3 SLP145,CYDB,2018-03-27T18:00:00Z,61.37,-139.05,-14.0,-22.0,0,0,,30.0,29.740158,1014.5,,,,,,,,,,SCT,15000,BKN,18000,,,,,VFR,,,,,,,,,,,,METAR,801.0
CYCP 271800Z VRB03KT 5SM BR FEW005 SCT010 BKN030 BKN055TCU 02/02 A2984 RMK SF1SF2SC2TCU2 SLP131,CYCP,2018-03-27T18:00:00Z,52.13,-119.28,2.0,2.0,0,3,,5.0,29.840551,1013.1,,,,,,,,,BR,FEW,500,SCT,1000,BKN,3000,BKN,5500,MVFR,,,,,,,,,,,,METAR,683.0
CYBV 271800Z 32014G21KT 15SM FEW090 SCT220 M06/M11 A2984 RMK AC1CS3 SLP121,CYBV,2018-03-27T18:00:00Z,52.35,-97.03,-6.0,-11.0,320,14,21,15.0,29.840551,1012.1,,,,,,,,,,FEW,9000,SCT,22000,,,,,VFR,,,,,,,,,,,,METAR,222.0
CYAZ 271800Z 30011G23KT 10SM SCT009 BKN016 OVC025 09/08 A3024 RMK SF4ST3SC1 SLP244,CYAZ,2018-03-27T18:00:00Z,49.08,-125.77,9.0,8.0,300,11,23,10.0,30.239174,1024.4,,,,,,,,,,SCT,900,BKN,1600,OVC,2500,,,MVFR,,,,,,,,,,,,METAR,24.0
CYYN 271800Z AUTO 22018KT 9SM SCT240 03/M01 A2963 RMK SLP060,CYYN,2018-03-27T18:00:00Z,50.27,-107.67,3.0,-1.0,220,18,,9.0,29.630905,1006.0,,TRUE,,,,,,,,SCT,24000,,,,,,,VFR,,,,,,,,,,,,METAR,818.0
CYYL 271800Z AUTO 30011KT 9SM CLR M16/M22 A2987 RMK SLP153,CYYL,2018-03-27T18:00:00Z,56.87,-101.07,-16.0,-22.0,300,11,,9.0,29.870079,1015.3,,TRUE,,,,,,,,CLR,,,,,,,,VFR,,,,,,,,,,,,METAR,357.0
CYVC 271800Z 04006KT 15SM OVC070 M14/M20 A2992 RMK AC8 SLP168,CYVC,2018-03-27T18:00:00Z,55.15,-105.27,-14.0,-20.0,40,6,,15.0,29.920275,1016.8,,,,,,,,,,OVC,7000,,,,,,,VFR,,,,,,,,,,,,METAR,379.0
CYQW 271800Z AUTO 10018KT 9SM OVC018 M09/M13 A2971 RMK PRESFR SLP098,CYQW,2018-03-27T18:00:00Z,52.77,-108.25,-9.0,-13.0,100,18,,9.0,29.71063,1009.8,,TRUE,,,,,,,,OVC,1800,,,,,,,MVFR,,,,,,,,,,,,METAR,548.0
CYQR 271800Z 19009KT 15SM FEW170 SCT250 01/M02 A2973 RMK AC1CI2 SLP098,CYQR,2018-03-27T18:00:00Z,50.43,-104.67,1.0,-2.0,190,9,,15.0,29.731298,1009.8,,,,,,,,,,FEW,17000,SCT,25000,,,,,VFR,,,,,,,,,,,,METAR,577.0
CYQL 271800Z 27026G35KT 60SM FEW040 SCT170 BKN260 07/M01 A2966 RMK SC1AC3CI3 SLP068 DENSITY ALT 3100FT,CYQL,2018-03-27T18:00:00Z,49.63,-112.8,7.0,-1.0,270,26,35,60.0,29.660433,1006.8,,,,,,,,,,FEW,4000,SCT,17000,BKN,26000,,,VFR,,,,,,,,,,,,METAR,929.0
CYQF 271800Z 19007KT 8SM BKN080 M02/M05 A2957 RMK AC7 SLP058,CYQF,2018-03-27T18:00:00Z,52.17,-113.9,-2.0,-5.0,190,7,,8.0,29.568897,1005.8,,,,,,,,,,BKN,8000,,,,,,,VFR,,,,,,,,,,,,METAR,905.0
CYPY 271800Z AUTO 23004KT 160V270 9SM CLR M15/M23 A2993 RMK SLP168,CYPY,2018-03-27T18:00:00Z,58.77,-111.12,-15.0,-23.0,230,4,,9.0,29.929134,1016.8,,TRUE,,,,,,,,CLR,,,,,,,,VFR,,,,,,,,,,,,METAR,232.0
CYPG 271800Z 25006KT 15SM FEW220 05/M02 A2985 RMK CI2 SLP120,CYPG,2018-03-27T18:00:00Z,49.88,-98.27,5.0,-2.0,250,6,,15.0,29.84941,1012.0,,,,,,,,,,FEW,22000,,,,,,,VFR,,,,,,,,,,,,METAR,269.0
CYOJ 271800Z 17003KT 110V210 15SM -SN FEW030 SCT080 BKN260 M13/M18 A2988 RMK SC2AS1CI3 SLP158,CYOJ,2018-03-27T18:00:00Z,58.62,-117.17,-13.0,-18.0,170,3,,15.0,29.878937,1015.8,,,,,,,,,-SN,FEW,3000,SCT,8000,BKN,26000,,,VFR,,,,,,,,,,,,METAR,338.0
CYNE 271800Z AUTO 33008KT 270V020 9SM M08/M17 A2986 RMK CLD MISG SLP129,CYNE,2018-03-27T18:00:00Z,53.97,-97.82,-8.0,-17.0,330,8,,9.0,29.861221,1012.9,,TRUE,,,,,,,,,,,,,,,,,,,,,,,,,,,,METAR,223.0
CYLL 271800Z 10014KT 1 1/2SM -SN DRSN OVC017 M09/M11 A2963 RMK SC8 SLP078,CYLL,2018-03-27T18:00:00Z,53.32,-110.07,-9.0,-11.0,100,14,,1.5,29.630905,1007.8,,,,,,,,,-SN DRSN,OVC,1700,,,,,,,IFR,,,,,,,,,,,,METAR,669.0
CYKJ 271800Z AUTO 31005KT 250V350 9SM CLR M18/M25 A2985 RMK SLP166,CYKJ,2018-03-27T18:00:00Z,57.25,-105.62,-18.0,-25.0,310,5,,9.0,29.84941,1016.6,,TRUE,,,,,,,,CLR,,,,,,,,VFR,,,,,,,,,,,,METAR,509.0
CYGX 271800Z 30016G23KT 6SM BR SKC M15/M20 A2974 RMK SLP086,CYGX,2018-03-27T18:00:00Z,56.35,-94.7,-15.0,-20.0,300,16,23,6.0,29.740158,1008.6,,,,,,,,,BR,SKC,,,,,,,,VFR,,,,,,,,,,,,METAR,145.0
CYEN 271800Z 22015KT 15SM SCT140 BKN220 04/M02 A2980 RMK AC3CS4 PRESFR SLP120,CYEN,2018-03-27T18:00:00Z,49.22,-102.97,4.0,-2.0,220,15,,15.0,29.799213,1012.0,,,,,,,,,,SCT,14000,BKN,22000,,,,,VFR,,,,,,,,,,,,METAR,581.0
CYDN 271800Z AUTO 07006KT 9SM CLR 01/M03 A2983 RMK SLP119,CYDN,2018-03-27T18:00:00Z,51.1,-100.03,1.0,-3.0,70,6,,9.0,29.828741,1011.9,,TRUE,,,,,,,,CLR,,,,,,,,VFR,,,,,,,,,,,,METAR,305.0
CYBU 271800Z AUTO 01012KT 9SM OVC049 M11/M16 A2986 RMK PRESFR SLP141,CYBU,2018-03-27T18:00:00Z,53.32,-104.0,-11.0,-16.0,10,12,,9.0,29.861221,1014.1,,TRUE,,,,,,,,OVC,4900,,,,,,,VFR,,,,,,,,,,,,METAR,374.0
CYBR 271800Z 22006KT 15SM BKN250 01/M03 A2983 RMK CI7 SLP128,CYBR,2018-03-27T18:00:00Z,49.92,-99.95,1.0,-3.0,220,6,,15.0,29.828741,1012.8,,,,,,,,,,BKN,25000,,,,,,,VFR,,,,,,,,,,,,METAR,409.0
CYBK 271800Z 35007KT 10SM -SN BKN030 BKN050 M29/M33 A2990 RMK SC5SC2 SLP131,CYBK,2018-03-27T18:00:00Z,64.28,-96.07,-29.0,-33.0,350,7,,10.0,29.899607,1013.1,,,,,,,,,-SN,BKN,3000,BKN,5000,,,,,MVFR,,,,,,,,,,,,METAR,18.0
CYAB 271800Z 11014KT 10SM FEW005 FEW016 FEW023 BKN040 BKN070 M15/M19 A2969 RMK ST1SC1SC1SC3AC2 SC TR CIG ESTD SLP059,CYAB,2018-03-27T18:00:00Z,73.0,-85.05,-15.0,-19.0,110,14,,10.0,29.68996,1005.9,,,,,,,,,,FEW,500,FEW,1600,FEW,2300,BKN,4000,VFR,,,,,,,,,,,,METAR,22.0
CZUM 271800Z AUTO 21008G16KT 160V250 9SM CLR 06/M10 A3034 RMK SLP300,CZUM,2018-03-27T18:00:00Z,53.53,-64.08,6.0,-10.0,210,8,16,9.0,30.339567,1030.0,,TRUE,,,,,,,,CLR,,,,,,,,VFR,,,,,,,,,,,,METAR,440.0
CZPC 271800Z AUTO 25039G48KT 9SM BKN180 OVC220 05/M02 A2965 RMK SLP070,CZPC,2018-03-27T18:00:00Z,49.52,-114.0,5.0,-2.0,250,39,48,9.0,29.648623,1007.0,,TRUE,,,,,,,,BKN,18000,OVC,22000,,,,,VFR,,,,,,,,,,,,METAR,1190.0
CZFN 271800Z 00000KT 20SM FEW160 M23/M29 A3003 RMK AS2 SLP184,CZFN,2018-03-27T18:00:00Z,64.92,-125.57,-23.0,-29.0,0,0,,20.0,30.029528,1018.4,,,,,,,,,,FEW,16000,,,,,,,VFR,,,,,,,,,,,,METAR,98.0
CZFM 271800Z 10002KT 35SM SKC M21/M28 A3003 RMK SLP176,CZFM,2018-03-27T18:00:00Z,67.4,-134.87,-21.0,-28.0,100,2,,35.0,30.029528,1017.6,,,,,,,,,,SKC,,,,,,,,VFR,,,,,,,,,,,,METAR,43.0
CYPD 271800Z AUTO 07016G23KT 9SM CLR 08/M13 A3048 RMK SLP328,CYPD,2018-03-27T18:00:00Z,45.67,-61.37,8.0,-13.0,70,16,23,9.0,30.481298,1032.8,,TRUE,,,,,,,,CLR,,,,,,,,VFR,,,,,,,,,,,,METAR,114.0
CWYM 271800Z AUTO ///// M22/ A2972 RMK SLP136,CWYM,2018-03-27T18:00:00Z,64.95,-63.57,-22.0,,,,,,29.719488,1013.6,,TRUE,,,,,,,,,,,,,,,,,,,,,,,,,,,,METAR,583.0
CWXR 271800Z AUTO 33002KT M28/ A3001 RMK SLP179,CWXR,2018-03-27T18:00:00Z,69.27,-119.22,-28.0,,330,2,,,30.008858,1017.9,,TRUE,,,,,,,,,,,,,,,,,,,,,,,,,,,,METAR,69.0
CWTU 271800Z AUTO ///// A3032,CWTU,2018-03-27T18:00:00Z,54.72,-58.35,,,,,,,30.318897,,,TRUE,,,,,,,,,,,,,,,,,,,,,,,,,,,,METAR,683.0
CWSA 271800Z AUTO 06028G37KT 9SM FEW080 SCT095 04/00 A3029 RMK SLP259,CWSA,2018-03-27T18:00:00Z,43.93,-60.0,4.0,0.0,60,28,37,9.0,30.28937,1025.9,,TRUE,,,,,,,,FEW,8000,SCT,9500,,,,,VFR,,,,,,,,,,,,METAR,4.0
CWRH 271800Z AUTO ///// M16/ A3009 RMK SLP235,CWRH,2018-03-27T18:00:00Z,61.57,-64.65,-16.0,,,,,,30.088583,1023.5,,TRUE,,,,,,,,,,,,,,,,,,,,,,,,,,,,METAR,369.0
CWKP 271800Z AUTO 10002KT M27/ A2987 RMK SLP173,CWKP,2018-03-27T18:00:00Z,69.67,-121.67,-27.0,,100,2,,,29.870079,1017.3,,TRUE,,,,,,,,,,,,,,,,,,,,,,,,,,,,METAR,330.0
CWGZ 271800Z 06004KT 040V110 15SM SCT045 BKN095 M16/M24 A2984 RMK SC3AC3 SLP113,CWGZ,2018-03-27T18:00:00Z,76.42,-82.9,-16.0,-24.0,60,4,,15.0,29.840551,1011.3,,,,,,,,,,SCT,4500,BKN,9500,,,,,VFR,,,,,,,,,,,,METAR,45.0
CWFD 271800Z AUTO 02019G24KT ////SM //// BKN002 BKN048 BKN060 ///// A////,CWFD,2018-03-27T18:00:00Z,66.57,-61.58,,,20,19,24,,,,,TRUE,,,,,,,,BKN,200,BKN,4800,BKN,6000,,,,,,,,,,,,,,,METAR,393.0
CWEU 271800Z 08002KT 15SM SKC M36/M40 A3008 RMK SLP191,CWEU,2018-03-27T18:00:00Z,80.0,-85.92,-36.0,-40.0,80,2,,15.0,30.079725,1019.1,,,,,,,,,,SKC,,,,,,,,VFR,,,,,,,,,,,,METAR,10.0
CYZX 271800Z 06016KT 15SM SKC 06/M06 A3046 RMK SLP316,CYZX,2018-03-27T18:00:00Z,44.98,-64.92,6.0,-6.0,60,16,,15.0,30.46063,1031.6,,,,,,,,,,SKC,,,,,,,,VFR,,,,,,,,,,,,SPECI,28.0
CYZV 271800Z 14011KT 30SM FEW170 BKN260 01/M06 A3053 RMK AC1CI7 AC TR CONTRAILS SLP344,CYZV,2018-03-27T18:00:00Z,50.22,-66.27,1.0,-6.0,140,11,,30.0,30.528543,1034.4,,,,,,,,,,FEW,17000,BKN,26000,,,,,VFR,,,,,,,,,,,,SPECI,55.0
CYZF 271800Z 35008KT 310V020 15SM FEW040 SCT270 M18/M25 A2988 RMK SC1CI4 SC TR SLP149,CYZF,2018-03-27T18:00:00Z,62.47,-114.45,-18.0,-25.0,350,8,,15.0,29.878937,1014.9,,,,,,,,,,FEW,4000,SCT,27000,,,,,VFR,,,,,,,,,,,,SPECI,206.0
CYYZ 271800Z 14009KT 8SM -RA SCT007 OVC012 03/01 A3005 RMK SF3SC5 SLP182,CYYZ,2018-03-27T18:00:00Z,43.67,-79.62,3.0,1.0,140,9,,8.0,30.050198,1018.2,,,,,,,,,-RA,SCT,700,OVC,1200,,,,,MVFR,,,,,,,,,,,,SPECI,173.0
CYYT 271800Z 12006KT 070V140 15SM BKN240 07/M13 A3064 RMK CI5 SLP385,CYYT,2018-03-27T18:00:00Z,47.62,-52.72,7.0,-13.0,120,6,,15.0,30.640747,1038.5,,,,,,,,,,BKN,24000,,,,,,,VFR,,,,,,,,,,,,SPECI,140.0
CYYR 271800Z 25013KT 15SM BKN270 06/M05 A3043 RMK CI6 CONTRAILS SLP307,CYYR,2018-03-27T18:00:00Z,53.32,-60.42,6.0,-5.0,250,13,,15.0,30.431103,1030.7,,,,,,,,,,BKN,27000,,,,,,,VFR,,,,,,,,,,,,SPECI,49.0
CYYJ 271800Z 23010KT 20SM FEW025 BKN080 12/07 A3020 RMK SC1AC6 SLP227,CYYJ,2018-03-27T18:00:00Z,48.63,-123.42,12.0,7.0,230,10,,20.0,30.200787,1022.7,,,,,,,,,,FEW,2500,BKN,8000,,,,,VFR,,,,,,,,,,,,SPECI,19.0
CYYC 271800Z 28025G40KT 40SM SCT150 BKN190 09/M07 A2959 RMK AC3AC3 SLP049 DENSITY ALT 4100FT,CYYC,2018-03-27T18:00:00Z,51.12,-114.02,9.0,-7.0,280,25,40,40.0,29.589567,1004.9,,,,,,,,,,SCT,15000,BKN,19000,,,,,VFR,,,,,,,,,,,,SPECI,1084.0
CYXX 271800Z 18017G24KT 15SM -SHRA FEW019 SCT027 BKN035 OVC050 09/07 A3020 RMK CU2SC2SC3SC1 CVCTV CLD EMBD SLP231,CYXX,2018-03-27T18:00:00Z,49.03,-122.38,9.0,7.0,180,17,24,15.0,30.200787,1023.1,,,,,,,,,-SHRA,FEW,1900,SCT,2700,BKN,3500,OVC,5000,VFR,,,,,,,,,,,,SPECI,58.0
CYWG 271800Z 27007KT 15SM SCT270 03/M02 A2986 RMK CI3 SLP125,CYWG,2018-03-27T18:00:00Z,49.88,-97.22,3.0,-2.0,270,7,,15.0,29.861221,1012.5,,,,,,,,,,SCT,27000,,,,,,,VFR,,,,,,,,,,,,SPECI,239.0
CYVR 271800Z 16009G15KT 20SM FEW007 BKN041 BKN047 OVC230 10/08 A3018 RMK CF1SC4SC2CI1 CONTRAILS SLP220,CYVR,2018-03-27T18:00:00Z,49.17,-123.17,10.0,8.0,160,9,15,20.0,30.180119,1022.0,,,,,,,,,,FEW,700,BKN,4100,BKN,4700,OVC,23000,VFR,,,,,,,,,,,,SPECI,2.0
CYUL 271800Z 13014G21KT 30SM OVC220 07/M07 A3031 RMK CS8 SLP267,CYUL,2018-03-27T18:00:00Z,45.47,-73.73,7.0,-7.0,130,14,21,30.0,30.31004,1026.7,,,,,,,,,,OVC,22000,,,,,,,VFR,,,,,,,,,,,,SPECI,36.0
AYPY 271800Z VRB02KT 9999 BKN150 25/25 Q1006,AYPY,2018-03-27T18:00:00Z,-9.42,147.22,25.0,25.0,0,2,,6.21,29.704725,,,,,,,,,,,BKN,15000,,,,,,,VFR,,,,,,,,,,,,METAR,47.0
OEKJ 271800Z 15009KT CAVOK 27/M03 Q1019,OEKJ,2018-03-27T18:00:00Z,24.07,47.58,27.0,-3.0,150,9,,6.21,30.088583,,,,,,,,,,,CAVOK,,,,,,,,VFR,,,,,,,,,,,,METAR,503.0
CWQK 271800Z AUTO 28022KT 09/08 RMK AO1 PK WND 28028/1728 SLP240 T00930075 53014,CWQK,2018-03-27T18:00:00Z,48.3,-123.53,9.3,7.5,280,22,,,,1024.0,,TRUE,TRUE,,,,,,,,,,,,,,,,1.4,,,,,,,,,,,METAR,5.0
CWQH 271800Z AUTO 16006KT 10/M13 RMK AO1 SOG 04 T00971127,CWQH,2018-03-27T18:00:00Z,45.37,-71.82,9.7,-12.7,160,6,,,,,,TRUE,TRUE,,,,,,,,,,,,,,,,,,,,,,,,,,,METAR,181.0
CXZC 271800Z AUTO 16005KT 01/M00 RMK AO1 5PAST HR SOG 46 8032 SLP085 P0002 T00111001 50005,CXZC,2018-03-27T18:00:00Z,51.3,-80.62,1.1,-0.1,160,5,,,,1008.5,,TRUE,TRUE,,,,,,,,,,,,,,,,0.5,,,,,0.02,,,,,,METAR,9.0
CXBI 271800Z AUTO 15011KT 01/M00 RMK AO1 7PAST HR 8036 PK WND 14017/1708 SLP179 P0011 T00121002 50077,CXBI,2018-03-27T18:00:00Z,44.48,-79.55,1.2,-0.2,150,11,,,,1017.9,,TRUE,TRUE,,,,,,,,,,,,,,,,7.7,,,,,0.11,,,,,,METAR,289.0
CWQO 271800Z AUTO 04007KT 01/M04 RMK AO1 T00131035,CWQO,2018-03-27T18:00:00Z,48.42,-68.9,1.3,-3.5,40,7,,,,,,TRUE,TRUE,,,,,,,,,,,,,,,,,,,,,,,,,,,METAR,1.0
GBYD 271800Z 27006KT CAVOK 28/16 Q1010,GBYD,2018-03-27T18:00:00Z,13.33,-16.65,28.0,16.0,270,6,,6.21,29.822834,,,,,,,,,,,CAVOK,,,,,,,,VFR,,,,,,,,,,,,METAR,36.0
SBAR 271800Z 10012KT 9999 SCT018 BKN100 30/22 Q1012,SBAR,2018-03-27T18:00:00Z,-10.97,-37.07,30.0,22.0,100,12,,6.21,29.88189,,,,,,,,,,,SCT,1800,BKN,10000,,,,,VFR,,,,,,,,,,,,METAR,9.0
FNLU 271800Z 21009KT 9999 SCT020 BKN080 28/24 Q1009 NOSIG,FNLU,2018-03-27T18:00:00Z,-8.83,13.22,28.0,24.0,210,9,,6.21,29.793306,,,,,,TRUE,,,,,SCT,2000,BKN,8000,,,,,VFR,,,,,,,,,,,,METAR,70.0
FQBR 271800Z /////KT 9000 DZ SCT013 BKN030 25/24 Q1014,FQBR,2018-03-27T18:00:00Z,-19.8,34.88,25.0,24.0,,,,5.59,29.940945,,,,,,,,,,DZ,SCT,1300,BKN,3000,,,,,MVFR,,,,,,,,,,,,SPECI,16.0
VIJP 271800Z VRB01KT 2000 HZ NSC 27/M06 Q1011 NOSIG,VIJP,2018-03-27T18:00:00Z,26.82,75.78,27.0,-6.0,0,1,,1.24,29.852362,,,,,,TRUE,,,,HZ,CLR,,,,,,,,IFR,,,,,,,,,,,,METAR,390.0
MDPC 271800Z 04008KT 8000 -RA FEW016CB SCT018 OVC060 22/21 Q1015 CB/NE/E/W/NW/W,MDPC,2018-03-27T18:00:00Z,18.57,-68.37,22.0,21.0,40,8,,4.97,29.970472,,,,,,,,,,-RA,FEW,1600,SCT,1800,OVC,6000,,,MVFR,,,,,,,,,,,,METAR,12.0
MDST 271800Z 05010KT 9999 SCT024 29/19 Q1016 NOSIG,MDST,2018-03-27T18:00:00Z,19.4,-70.6,29.0,19.0,50,10,,6.21,30.0,,,,,,TRUE,,,,,SCT,2400,,,,,,,VFR,,,,,,,,,,,,METAR,184.0
NTAA 271800Z 06007KT 040V100 9999 FEW020 SCT300 28/22 Q1013 NOSIG,NTAA,2018-03-27T18:00:00Z,-17.55,-149.62,28.0,22.0,60,7,,6.21,29.911417,,,,,,TRUE,,,,,FEW,2000,SCT,30000,,,,,VFR,,,,,,,,,,,,METAR,2.0
EPWA 271800Z 33006KT 9999 BKN019 01/M03 Q1014 NOSIG,EPWA,2018-03-27T18:00:00Z,52.17,20.97,1.0,-3.0,330,6,,6.21,29.940945,,,,,,TRUE,,,,,BKN,1900,,,,,,,MVFR,,,,,,,,,,,,METAR,107.0
EPRZ 271800Z 31008KT 5000 -RA BR OVC005 02/01 Q1013,EPRZ,2018-03-27T18:00:00Z,50.1,22.05,2.0,1.0,310,8,,3.11,29.911417,,,,,,,,,,-RA BR,OVC,500,,,,,,,IFR,,,,,,,,,,,,METAR,202.0
EPPO 271800Z 13008KT 9999 SCT033 00/M02 Q1014 R10/090095,EPPO,2018-03-27T18:00:00Z,52.42,16.82,0.0,-2.0,130,8,,6.21,29.940945,,,,,,,,,,,SCT,3300,,,,,,,VFR,,,,,,,,,,,,SPECI,92.0
EPLL 271800Z 29004KT 9999 SCT012 OVC015 M00/M03 Q1014,EPLL,2018-03-27T18:00:00Z,51.72,19.4,0.0,-3.0,290,4,,6.21,29.940945,,,,,,,,,,,SCT,1200,OVC,1500,,,,,MVFR,,,,,,,,,,,,METAR,184.0
EPKK 271800Z VRB01KT 9999 BKN053 02/M02 Q1014,EPKK,2018-03-27T18:00:00Z,50.07,19.8,2.0,-2.0,0,1,,6.21,29.940945,,,,,,,,,,,BKN,5300,,,,,,,VFR,,,,,,,,,,,,METAR,237.0
EPGD 271800Z 06006KT CAVOK M01/M08 Q1015,EPGD,2018-03-27T18:00:00Z,54.37,18.47,-1.0,-8.0,60,6,,6.21,29.970472,,,,,,,,,,,CAVOK,,,,,,,,VFR,,,,,,,,,,,,METAR,138.0
EPWR 271800Z 07004KT 050V130 9999 SCT018 02/M02 Q1014,EPWR,2018-03-27T18:00:00Z,51.1,16.87,2.0,-2.0,70,4,,6.21,29.940945,,,,,,,,,,,SCT,1800,,,,,,,VFR,,,,,,,,,,,,METAR,121.0
EPSY 271800Z VRB03KT CAVOK M04/M07 Q1014,EPSY,2018-03-27T18:00:00Z,53.47,20.93,-4.0,-7.0,0,3,,6.21,29.940945,,,,,,,,,,,CAVOK,,,,,,,,VFR,,,,,,,,,,,,METAR,141.0
EPSC 271800Z 10003KT CAVOK 04/M01 Q1013,EPSC,2018-03-27T18:00:00Z,53.58,14.9,4.0,-1.0,100,3,,6.21,29.911417,,,,,,,,,,,CAVOK,,,,,,,,VFR,,,,,,,,,,,,METAR,47.0
EPRA 271800Z 36005KT 9000 -SNRA BKN025 OVC031 01/M00 Q1013,EPRA,2018-03-27T18:00:00Z,51.38,21.22,1.0,0.0,360,5,,5.59,29.911417,,,,,,,,,,-SN -RA,BKN,2500,OVC,3100,,,,,MVFR,,,,,,,,,,,,METAR,178.0
EPMO 271800Z 02004KT 340V070 9999 OVC023 M00/M04 Q1015,EPMO,2018-03-27T18:00:00Z,52.45,20.65,0.0,-4.0,20,4,,6.21,29.970472,,,,,,,,,,,OVC,2300,,,,,,,MVFR,,,,,,,,,,,,METAR,104.0
EPLB 271800Z 36005KT 320V020 9999 BKN025 02/M01 Q1013,EPLB,2018-03-27T18:00:00Z,51.23,22.72,2.0,-1.0,360,5,,6.21,29.911417,,,,,,,,,,,BKN,2500,,,,,,,MVFR,,,,,,,,,,,,METAR,206.0
EPKT 271800Z 02005KT 9999 FEW011 00/M02 Q1013,EPKT,2018-03-27T18:00:00Z,50.47,19.08,0.0,-2.0,20,5,,6.21,29.911417,,,,,,,,,,,FEW,1100,,,,,,,VFR,,,,,,,,,,,,METAR,284.0
EPBY 271800Z 16003KT 9999 SCT032 BKN039 02/M04 Q1015,EPBY,2018-03-27T18:00:00Z,53.1,18.0,2.0,-4.0,160,3,,6.21,29.970472,,,,,,,,,,,SCT,3200,BKN,3900,,,,,VFR,,,,,,,,,,,,METAR,71.0
GMTT 271800Z 35006KT CAVOK 18/10 Q1024 NOSIG,GMTT,2018-03-27T18:00:00Z,35.72,-5.9,18.0,10.0,350,6,,6.21,30.236221,,,,,,TRUE,,,,,CAVOK,,,,,,,,VFR,,,,,,,,,,,,METAR,21.0
GMMX 271800Z 33005KT 300V360 CAVOK 27/M09 Q1021 NOSIG,GMMX,2018-03-27T18:00:00Z,31.62,-8.02,27.0,-9.0,330,5,,6.21,30.147638,,,,,,TRUE,,,,,CAVOK,,,,,,,,VFR,,,,,,,,,,,,METAR,466.0
GMMN 271800Z 02011KT CAVOK 18/11 Q1023 NOSIG,GMMN,2018-03-27T18:00:00Z,33.37,-7.57,18.0,11.0,20,11,,6.21,30.206694,,,,,,TRUE,,,,,CAVOK,,,,,,,,VFR,,,,,,,,,,,,METAR,206.0
GMME 271800Z 02012KT CAVOK 17/10 Q1023 NOSIG,GMME,2018-03-27T18:00:00Z,34.03,-6.77,17.0,10.0,20,12,,6.21,30.206694,,,,,,TRUE,,,,,CAVOK,,,,,,,,VFR,,,,,,,,,,,,METAR,75.0
GMAD 271800Z 26010KT 8000 NSC 27/03 Q1019 NOSIG,GMAD,2018-03-27T18:00:00Z,30.32,-9.42,27.0,3.0,260,10,,4.97,30.088583,,,,,,TRUE,,,,,CLR,,,,,,,,MVFR,,,,,,,,,,,,METAR,74.0
GMTN 271800Z VRB02KT CAVOK 20/09 Q1023 NOSIG,GMTN,2018-03-27T18:00:00Z,35.57,-5.32,20.0,9.0,0,2,,6.21,30.206694,,,,,,TRUE,,,,,CAVOK,,,,,,,,VFR,,,,,,,,,,,,METAR,10.0
GMMW 271800Z 04007KT CAVOK 19/04 Q1024 NOSIG,GMMW,2018-03-27T18:00:00Z,34.98,-3.02,19.0,4.0,40,7,,6.21,30.236221,,,,,,TRUE,,,,,CAVOK,,,,,,,,VFR,,,,,,,,,,,,METAR,175.0
GMML 271800Z 15009KT 2000 HZ FEW020 SCT200 32/M01 Q1016 NOSIG,GMML,2018-03-27T18:00:00Z,27.13,-13.23,32.0,-1.0,150,9,,1.24,30.0,,,,,,TRUE,,,,HZ,FEW,2000,SCT,20000,,,,,IFR,,,,,,,,,,,,METAR,6.0
GMMI 271800Z 34004KT 8000 NSC 23/16 Q1021 NOSIG,GMMI,2018-03-27T18:00:00Z,31.4,-9.68,23.0,16.0,340,4,,4.97,30.147638,,,,,,TRUE,,,,,CLR,,,,,,,,MVFR,,,,,,,,,,,,METAR,8.0
GMMH 271800Z 02020KT 8000 NSC 19/14 Q1015 NOSIG,GMMH,2018-03-27T18:00:00Z,23.72,-15.93,19.0,14.0,20,20,,4.97,29.970472,,,,,,TRUE,,,,,CLR,,,,,,,,MVFR,,,,,,,,,,,,METAR,11.0
GMMD 271800Z 22004KT CAVOK 24/03 Q1021 NOSIG,GMMD,2018-03-27T18:00:00Z,32.4,-6.32,24.0,3.0,220,4,,6.21,30.147638,,,,,,TRUE,,,,,CAVOK,,,,,,,,VFR,,,,,,,,,,,,METAR,509.0
GMFO 271800Z 33005KT CAVOK 17/09 Q1025 NOSIG,GMFO,2018-03-27T18:00:00Z,34.77,-1.92,17.0,9.0,330,5,,6.21,30.265747,,,,,,TRUE,,,,,CAVOK,,,,,,,,VFR,,,,,,,,,,,,METAR,470.0
GMFM 271800Z 07003KT CAVOK 18/10 Q1024 NOSIG,GMFM,2018-03-27T18:00:00Z,33.87,-5.52,18.0,10.0,70,3,,6.21,30.236221,,,,,,TRUE,,,,,CAVOK,,,,,,,,VFR,,,,,,,,,,,,METAR,549.0
GMFK 271800Z 20006KT 160V260 CAVOK 21/M06 Q1026 NOSIG,GMFK,2018-03-27T18:00:00Z,31.95,-4.4,21.0,-6.0,200,6,,6.21,30.295275,,,,,,TRUE,,,,,CAVOK,,,,,,,,VFR,,,,,,,,,,,,METAR,1045.0
GMFF 271800Z 04003KT 010V070 CAVOK 20/08 Q1025 NOSIG,GMFF,2018-03-27T18:00:00Z,33.92,-4.97,20.0,8.0,40,3,,6.21,30.265747,,,,,,TRUE,,,,,CAVOK,,,,,,,,VFR,,,,,,,,,,,,METAR,579.0
GMAT 271800Z 10010KT 3000 SA NSC 30/M03 Q1019 NOSIG,GMAT,2018-03-27T18:00:00Z,28.43,-11.15,30.0,-3.0,100,10,,1.86,30.088583,,,,,,TRUE,,,,SA,CLR,,,,,,,,IFR,,,,,,,,,,,,METAR,200.0
GMAG 271800Z 14008KT 5000 NSC 28/M04 Q1019 NOSIG,GMAG,2018-03-27T18:00:00Z,29.03,-10.05,28.0,-4.0,140,8,,3.11,30.088583,,,,,,TRUE,,,,,CLR,,,,,,,,MVFR,,,,,,,,,,,,METAR,333.0
TRPG 271800Z 12010KT 9999 FEW022 26/20 Q1014,TRPG,2018-03-27T18:00:00Z,16.78,-62.2,26.0,20.0,120,10,,6.21,29.940945,,,,,,,,,,,FEW,2200,,,,,,,VFR,,,,,,,,,,,,METAR,168.0
SBGR 271800Z 10003KT 9999 SCT036 FEW040TCU BKN100 27/22 Q1017,SBGR,2018-03-27T18:00:00Z,-23.42,-46.47,27.0,22.0,100,3,,6.21,30.029528,,,,,,,,,,,SCT,3600,FEW,4000,BKN,10000,,,VFR,,,,,,,,,,,,METAR,750.0
UGSB 271800Z 00000KT CAVOK 14/10 Q1015 R13/70D NOSIG,UGSB,2018-03-27T18:00:00Z,41.62,41.6,14.0,10.0,0,0,,6.21,29.970472,,,,,,TRUE,,,,,CAVOK,,,,,,,,VFR,,,,,,,,,,,,METAR,32.0
UGKO 271800Z 30005KT 9999 BKN048 16/08 Q1013 R07/09//70 NOSIG,UGKO,2018-03-27T18:00:00Z,42.18,42.48,16.0,8.0,300,5,,6.21,29.911417,,,,,,TRUE,,,,,BKN,4800,,,,,,,VFR,,,,,,,,,,,,METAR,68.0
UGTB 271800Z 05005KT 9999 SCT050CB 10/07 Q1016 R31L/CLRD70 NOSIG,UGTB,2018-03-27T18:00:00Z,41.67,44.95,10.0,7.0,50,5,,6.21,30.0,,,,,,TRUE,,,,,SCT,5000,,,,,,,VFR,,,,,,,,,,,,METAR,495.0
SBPK 271800Z 12013KT 9999 FEW020 OVC040 24/18 Q1019,SBPK,2018-03-27T18:00:00Z,-31.72,-52.33,24.0,18.0,120,13,,6.21,30.088583,,,,,,,,,,,FEW,2000,OVC,4000,,,,,VFR,,,,,,,,,,,,METAR,13.0
UTAV 271800Z 05006KT CAVOK 15/08 Q1018 NOSIG,UTAV,2018-03-27T18:00:00Z,39.08,63.62,15.0,8.0,50,6,,6.21,30.059055,,,,,,TRUE,,,,,CAVOK,,,,,,,,VFR,,,,,,,,,,,,METAR,192.0
UTAT 271800Z 10014KT CAVOK 13/01 Q1019 R08/CLRD70 NOSIG,UTAT,2018-03-27T18:00:00Z,41.77,59.83,13.0,1.0,100,14,,6.21,30.088583,,,,,,TRUE,,,,,CAVOK,,,,,,,,VFR,,,,,,,,,,,,SPECI,83.0
UTAM 271800Z 06006KT 6000 SCT100 BKN230 17/11 Q1018 NOSIG,UTAM,2018-03-27T18:00:00Z,37.62,61.9,17.0,11.0,60,6,,3.73,30.059055,,,,,,TRUE,,,,,SCT,10000,BKN,23000,,,,,MVFR,,,,,,,,,,,,METAR,222.0
UTAK 271800Z 29004KT CAVOK 08/07 Q1014 R16R/CLRD70 NOSIG,UTAK,2018-03-27T18:00:00Z,40.05,53.0,8.0,7.0,290,4,,6.21,29.940945,,,,,,TRUE,,,,,CAVOK,,,,,,,,VFR,,,,,,,,,,,,SPECI,85.0
UBBB 271800Z 29006KT CAVOK 08/06 Q1014 R88/CLRD// NOSIG,UBBB,2018-03-27T18:00:00Z,40.45,50.07,8.0,6.0,290,6,,6.21,29.940945,,,,,,TRUE,,,,,CAVOK,,,,,,,,VFR,,,,,,,,,,,,SPECI,-6.0
KTKI 271800Z 31004KT 3SM -RA BR SCT006 BKN009 OVC028 18/18 A3003 RMK AO2 P0001 T01780178,KTKI,2018-03-27T18:00:00Z,33.18,-96.58,17.8,17.8,310,4,,3.0,30.029528,,,,TRUE,,,,,,-RA BR,SCT,600,BKN,900,OVC,2800,,,IFR,,,,,,0.01,,,,,,SPECI,179.0
TBPB 271800Z 10014KT 9999 SCT018 30/23 Q1012 NOSIG,TBPB,2018-03-27T18:00:00Z,13.07,-59.48,30.0,23.0,100,14,,6.21,29.88189,,,,,,TRUE,,,,,SCT,1800,,,,,,,VFR,,,,,,,,,,,,METAR,52.0
SBFI 271800Z 26002KT 4500 -RA BR BKN004 OVC009 22/22 Q1015,SBFI,2018-03-27T18:00:00Z,-25.6,-54.48,22.0,22.0,260,2,,2.8,29.970472,,,,,,,,,,-RA BR,BKN,400,OVC,900,,,,,LIFR,,,,,,,,,,,,METAR,243.0
SBPB 271800Z 03010KT 9999 FEW020 32/24 Q1008,SBPB,2018-03-27T18:00:00Z,-2.92,-41.75,32.0,24.0,30,10,,6.21,29.763779,,,,,,,,,,,FEW,2000,,,,,,,VFR,,,,,,,,,,,,METAR,5.0
VHHH 271800Z 16005KT 110V180 9999 FEW025 22/18 Q1015 NOSIG,VHHH,2018-03-27T18:00:00Z,22.32,113.92,22.0,18.0,160,5,,6.21,29.970472,,,,,,TRUE,,,,,FEW,2500,,,,,,,VFR,,,,,,,,,,,,METAR,9.0
CWQP 271800Z AUTO 16016KT 03/M00 RMK AO1 SOG 02 8029 PK WND 16024/1710 SLP229 T00341004,CWQP,2018-03-27T18:00:00Z,43.83,-77.15,3.4,-0.4,160,16,,,,1022.9,,TRUE,TRUE,,,,,,,,,,,,,,,,,,,,,,,,,,,METAR,79.0
CWQR 271800Z AUTO 33001KT 01/ RMK AO1 T0011,CWQR,2018-03-27T18:00:00Z,50.22,-64.22,1.1,,330,1,,,,,,TRUE,TRUE,,,,,,,,,,,,,,,,,,,,,,,,,,,METAR,9.0
CWQV 271800Z AUTO 08019KT 07/M11 RMK AO1 PK WND 08025/1701 T00721114,CWQV,2018-03-27T18:00:00Z,48.27,-70.12,7.2,-11.4,80,19,,,,,,TRUE,TRUE,,,,,,,,,,,,,,,,,,,,,,,,,,,METAR,1.0
CWRJ 271800Z AUTO 07005KT M05/M07 RMK AO1 SOG 13 6031 SLP072 T10481068,CWRJ,2018-03-27T18:00:00Z,51.57,-107.92,-4.8,-6.8,70,5,,,,1007.2,,TRUE,TRUE,,,,,,,,,,,,,,,,,,,,,,,,,,,METAR,586.0
CWRK 271800Z AUTO 17007KT 02/M02 RMK AO1 2PAST HR SOG 02 8034 SLP205 P0001 T00171023 50002,CWRK,2018-03-27T18:00:00Z,45.07,-77.87,1.7,-2.3,170,7,,,,1020.5,,TRUE,TRUE,,,,,,,,,,,,,,,,0.2,,,,,0.01,,,,,,METAR,331.0
CWRZ 271800Z AUTO 23007KT M01/M03 RMK AO1 SLP359 T10081033 58023,CWRZ,2018-03-27T18:00:00Z,48.42,-64.32,-0.8,-3.3,230,7,,,,1035.9,,TRUE,TRUE,,,,,,,,,,,,,,,,-2.3,,,,,,,,,,,METAR,16.0
CWSD 271800Z AUTO 03012KT M01/M05 RMK AO1 SOG 54 6029 SLP348 T10061050,CWSD,2018-03-27T18:00:00Z,46.42,-63.85,-0.6,-5.0,30,12,,,,1034.8,,TRUE,TRUE,,,,,,,,,,,,,,,,,,,,,,,,,,,METAR,24.0
CWSG 271800Z AUTO 06010KT 01/M03 RMK AO1 SLP321 T00111027 58042,CWSG,2018-03-27T18:00:00Z,49.12,-66.65,1.1,-2.7,60,10,,,,1032.1,,TRUE,TRUE,,,,,,,,,,,,,,,,-4.2,,,,,,,,,,,METAR,5.0
CWSK 271800Z AUTO 36001KT 06/06 RMK AO1 3008 SLP220 T00610058 50097,CWSK,2018-03-27T18:00:00Z,49.78,-123.17,6.1,5.8,360,1,,,,1022.0,,TRUE,TRUE,,,,,,,,,,,,,,,,9.7,,,,,,,,,,,METAR,60.0
CWSL 271800Z AUTO 04002KT 06/04 RMK AO1 SOG 03 8001 SLP148 T00580044,CWSL,2018-03-27T18:00:00Z,50.7,-119.27,5.8,4.4,40,2,,,,1014.8,,TRUE,TRUE,,,,,,,,,,,,,,,,,,,,,,,,,,,METAR,351.0
CWSR 271800Z AUTO 09011KT M11/M15 RMK AO1 SOG 19 8019 PK WND 08017/1735 SLP096 T11071152,CWSR,2018-03-27T18:00:00Z,53.37,-107.53,-10.7,-15.2,90,11,,,,1009.6,,TRUE,TRUE,,,,,,,,,,,,,,,,,,,,,,,,,,,METAR,584.0
CWST 271800Z AUTO 03005KT 03/M06 RMK AO1 PRESFR SOG 27 8043 SLP294 T00301062,CWST,2018-03-27T18:00:00Z,47.35,-70.02,3.0,-6.2,30,5,,,,1029.4,,TRUE,TRUE,,,,,,,,,,,,,,,,,,,,,,,,,,,METAR,31.0
CXFR 271800Z AUTO 36006KT M10/M14 RMK AO1 T11001136 50006,CXFR,2018-03-27T18:00:00Z,56.08,-118.43,-10.0,-13.6,360,6,,,,,,TRUE,TRUE,,,,,,,,,,,,,,,,0.6,,,,,,,,,,,METAR,655.0
CXCP 271800Z AUTO 28012KT 05/M02 RMK AO1 T00541021,CXCP,2018-03-27T18:00:00Z,50.28,-113.35,5.4,-2.1,280,12,,,,,,TRUE,TRUE,,,,,,,,,,,,,,,,,,,,,,,,,,,METAR,1006.0
CXKI 271800Z AUTO M00/M01 RMK AO1 6PAST HR SOG 31 8033 SLP132 P0002 T10041008 50006,CXKI,2018-03-27T18:00:00Z,48.22,-80.0,-0.4,-0.8,,,,,,1013.2,,TRUE,TRUE,,,,,,,,,,,,,,,,0.6,,,,,0.02,,,,,,METAR,324.0
CXKM 271800Z AUTO 19005KT M04/M05 RMK AO1 T10371048,CXKM,2018-03-27T18:00:00Z,52.82,-111.85,-3.7,-4.8,190,5,,,,,,TRUE,TRUE,,,,,,,,,,,,,,,,,,,,,,,,,,,METAR,675.0
CXLB 271800Z AUTO 05017G24KT 08/M07 RMK AO1 PK WND 07024/1754 SLP281 T00791072 55034,CXLB,2018-03-27T18:00:00Z,44.37,-64.3,7.9,-7.2,50,17,24,,,1028.1,,TRUE,TRUE,,,,,,,,,,,,,,,,-3.4,,,,,,,,,,,METAR,4.0
CXRL 271800Z AUTO 11012KT M12/M14 RMK AO1 PK WND 12018/1745 T11201135 50012,CXRL,2018-03-27T18:00:00Z,54.5,-111.7,-12.0,-13.5,110,12,,,,,,TRUE,TRUE,,,,,,,,,,,,,,,,1.2,,,,,,,,,,,METAR,585.0
CXTD 271800Z AUTO 08010G15KT 09/M12 RMK AO1 PK WND 08021/1747 SLP332 T00901115 57032,CXTD,2018-03-27T18:00:00Z,45.62,-61.68,9.0,-11.5,80,10,15,,,1033.2,,TRUE,TRUE,,,,,,,,,,,,,,,,-3.2,,,,,,,,,,,METAR,68.0
CXZV 271800Z AUTO 14007KT 01/M04 RMK AO1 SOG 108 8027 SLP342 T00071039,CXZV,2018-03-27T18:00:00Z,50.22,-66.25,0.7,-3.9,140,7,,,,1034.2,,TRUE,TRUE,,,,,,,,,,,,,,,,,,,,,,,,,,,METAR,52.0
CXVN 271800Z AUTO 17008G17KT 04/02 RMK AO1 SOG 00 8037 PK WND 18018/1729 SLP175 T00440021 50020,CXVN,2018-03-27T18:00:00Z,43.18,-79.4,4.4,2.1,170,8,17,,,1017.5,,TRUE,TRUE,,,,,,,,,,,,,,,,2.0,,,,,,,,,,,METAR,79.0
CXTO 271800Z AUTO 03/01 RMK AO1 6PAST HR SOG 00 8037 SLP183 P0002 T00300012 50022,CXTO,2018-03-27T18:00:00Z,43.67,-79.4,3.0,1.2,,,,,,1018.3,,TRUE,TRUE,,,,,,,,,,,,,,,,2.2,,,,,0.02,,,,,,METAR,113.0
VIDP 271800Z 00000KT 3500 HZ NSC 26/10 Q1010 NOSIG,VIDP,2018-03-27T18:00:00Z,28.57,77.12,26.0,10.0,0,0,,2.17,29.822834,,,,,,TRUE,,,,HZ,CLR,,,,,,,,IFR,,,,,,,,,,,,METAR,233.0
CZKD 271800Z AUTO 31015G21KT M14/M19 RMK AO1 SOG 55 3021 PK WND 31023/1729 SLP102 T11391188,CZKD,2018-03-27T18:00:00Z,56.03,-96.52,-13.9,-18.8,310,15,21,,,1010.2,,TRUE,TRUE,,,,,,,,,,,,,,,,,,,,,,,,,,,METAR,183.0
CZMJ 271800Z AUTO 22012G18KT 04/M03 RMK AO1 SOG 06 8027 PK WND 23018/1751 SLP085 T00381027,CZMJ,2018-03-27T18:00:00Z,50.33,-105.57,3.8,-2.7,220,12,18,,,1008.5,,TRUE,TRUE,,,,,,,,,,,,,,,,,,,,,,,,,,,METAR,577.0
CWBU 271800Z AUTO 04012KT M11/M17 RMK AO1 SOG 26 8009 SLP138 T11131166,CWBU,2018-03-27T18:00:00Z,53.33,-104.02,-11.3,-16.6,40,12,,,,1013.8,,TRUE,TRUE,,,,,,,,,,,,,,,,,,,,,,,,,,,METAR,373.0
CZTB 271800Z AUTO 26008KT 03/M02 RMK AO1 SOG 26 5001 SLP118 T00271023 50003,CZTB,2018-03-27T18:00:00Z,48.37,-89.32,2.7,-2.3,260,8,,,,1011.8,,TRUE,TRUE,,,,,,,,,,,,,,,,0.3,,,,,,,,,,,METAR,199.0
CWIK 271800Z AUTO 22008KT 01/M04 RMK AO1 SOG 12 8023 SLP101 T00091042,CWIK,2018-03-27T18:00:00Z,50.37,-102.58,0.9,-4.2,220,8,,,,1010.1,,TRUE,TRUE,,,,,,,,,,,,,,,,,,,,,,,,,,,METAR,602.0
CWNE 271800Z AUTO 04009KT 01/M04 RMK AO1 SLP350 T00091037 58028,CWNE,2018-03-27T18:00:00Z,47.07,-64.0,0.9,-3.7,40,9,,,,1035.0,,TRUE,TRUE,,,,,,,,,,,,,,,,-2.8,,,,,,,,,,,METAR,15.0
CWNK 271800Z AUTO 23007KT 04/M02 RMK AO1 T00351016,CWNK,2018-03-27T18:00:00Z,49.5,-98.03,3.5,-1.6,230,7,,,,,,TRUE,TRUE,,,,,,,,,,,,,,,,,,,,,,,,,,,METAR,268.0
CWNM 271800Z AUTO 27011KT 04/02 RMK AO1 8PAST HR SOG 00 8006 SLP187 P0007 T00380021 50084,CWNM,2018-03-27T18:00:00Z,49.5,-117.28,3.8,2.1,270,11,,,,1018.7,,TRUE,TRUE,,,,,,,,,,,,,,,,8.4,,,,,0.07,,,,,,METAR,535.0
CWNP 271800Z AUTO 04001KT 03/02 RMK AO1 4PAST HR SOG 35 6007 SLP163 P0002 T00290018 50056,CWNP,2018-03-27T18:00:00Z,50.27,-117.82,2.9,1.8,40,1,,,,1016.3,,TRUE,TRUE,,,,,,,,,,,,,,,,5.6,,,,,0.02,,,,,,METAR,524.0
CWPR 271800Z AUTO 20001KT 04/01 RMK AO1 SOG 27 3017 SLP191 T00430006,CWPR,2018-03-27T18:00:00Z,49.47,-120.52,4.3,0.6,200,1,,,,1019.1,,TRUE,TRUE,,,,,,,,,,,,,,,,,,,,,,,,,,,METAR,700.0
CWPE 271800Z AUTO 11008KT 06/M01 RMK AO1 SOG 01 6040 SLP315 T00621010,CWPE,2018-03-27T18:00:00Z,45.07,-66.47,6.2,-1.0,110,8,,,,1031.5,,TRUE,TRUE,,,,,,,,,,,,,,,,,,,,,,,,,,,METAR,1.0
CWPD 271800Z AUTO 20011G19KT 05/M17 RMK AO1 SLP284 T00491166 56037,CWPD,2018-03-27T18:00:00Z,47.57,-71.22,4.9,-16.6,200,11,19,,,1028.4,,TRUE,TRUE,,,,,,,,,,,,,,,,-3.7,,,,,,,,,,,METAR,803.0
CWOD 271800Z AUTO 13009KT 05/M07 RMK AO1 SOG 22 6050 SLP240 T00501068,CWOD,2018-03-27T18:00:00Z,48.85,-72.55,5.0,-6.8,130,9,,,,1024.0,,TRUE,TRUE,,,,,,,,,,,,,,,,,,,,,,,,,,,METAR,137.0
CWOC 271800Z AUTO 10006KT 01/M14 RMK AO1 SLP358 T00141137 58032,CWOC,2018-03-27T18:00:00Z,48.02,-65.32,1.4,-13.7,100,6,,,,1035.8,,TRUE,TRUE,,,,,,,,,,,,,,,,-3.2,,,,,,,,,,,METAR,47.0
CWNQ 271800Z AUTO 12006KT 08/M11 RMK AO1 SLP276 T00761111 58047,CWNQ,2018-03-27T18:00:00Z,46.22,-72.65,7.6,-11.1,120,6,,,,1027.6,,TRUE,TRUE,,,,,,,,,,,,,,,,-4.7,,,,,,,,,,,METAR,10.0
CWPZ 271800Z AUTO 27010G20KT 05/M06 RMK AO1 SOG 57 1033 PK WND 28020/1756 SLP130 T00521061,CWPZ,2018-03-27T18:00:00Z,54.38,-125.97,5.2,-6.1,270,10,20,,,1013.0,,TRUE,TRUE,,,,,,,,,,,,,,,,,,,,,,,,,,,METAR,713.0
CZSP 271800Z AUTO 04009KT 01/M03 RMK AO1 SOG 01 6027 SLP353 T00141028,CZSP,2018-03-27T18:00:00Z,46.45,-62.58,1.4,-2.8,40,9,,,,1035.3,,TRUE,TRUE,,,,,,,,,,,,,,,,,,,,,,,,,,,METAR,30.0
CZCR 271800Z AUTO 08012KT M01/M06 RMK AO1 SOG 97 7042 SLP344 T10071057,CZCR,2018-03-27T18:00:00Z,47.97,-66.32,-0.7,-5.7,80,12,,,,1034.4,,TRUE,TRUE,,,,,,,,,,,,,,,,,,,,,,,,,,,METAR,38.0
CXSP 271800Z AUTO 08010KT M10/M13 RMK AO1 T11021131 50018,CXSP,2018-03-27T18:00:00Z,54.02,-111.27,-10.2,-13.1,80,10,,,,,,TRUE,TRUE,,,,,,,,,,,,,,,,1.8,,,,,,,,,,,METAR,649.0
CXSL 271800Z AUTO 10008KT M10/M12 RMK AO1 T11021123 50033,CXSL,2018-03-27T18:00:00Z,54.28,-112.5,-10.2,-12.3,100,8,,,,,,TRUE,TRUE,,,,,,,,,,,,,,,,3.3,,,,,,,,,,,METAR,680.0
CXHD 271800Z AUTO 13004KT M05/M06 RMK AO1 T10451060 50010,CXHD,2018-03-27T18:00:00Z,53.18,-112.25,-4.5,-6.0,130,4,,,,,,TRUE,TRUE,,,,,,,,,,,,,,,,1.0,,,,,,,,,,,METAR,688.0
CPXL 271800Z AUTO 23011KT 05/M01 RMK AO1 PK WND 22019/1742 T00541007,CPXL,2018-03-27T18:00:00Z,49.87,-111.38,5.4,-0.7,230,11,,,,,,TRUE,TRUE,,,,,,,,,,,,,,,,,,,,,,,,,,,METAR,799.0
CPSV 271800Z AUTO 21015KT 06/01 RMK AO1 PK WND 21022/1717 T00570006,CPSV,2018-03-27T18:00:00Z,49.92,-110.92,5.7,0.6,210,15,,,,,,TRUE,TRUE,,,,,,,,,,,,,,,,,,,,,,,,,,,METAR,766.0
CPST 271800Z AUTO 31005KT 04/M04 RMK AO1 T00431038,CPST,2018-03-27T18:00:00Z,51.03,-113.28,4.3,-3.8,310,5,,,,,,TRUE,TRUE,,,,,,,,,,,,,,,,,,,,,,,,,,,METAR,967.0
CPRO 271800Z AUTO 24012KT 03/M01 RMK AO1 PK WND 23018/1712 T00251008,CPRO,2018-03-27T18:00:00Z,50.83,-112.05,2.5,-0.8,240,12,,,,,,TRUE,TRUE,,,,,,,,,,,,,,,,,,,,,,,,,,,METAR,714.0
CPFI 271800Z AUTO 27022KT 08/M02 RMK AO1 PK WND 27036/1739 T00791017,CPFI,2018-03-27T18:00:00Z,49.8,-112.03,7.9,-1.7,270,22,,,,,,TRUE,TRUE,,,,,,,,,,,,,,,,,,,,,,,,,,,METAR,833.0
CWGM 271800Z AUTO 23035G52KT 05/M03 RMK AO1 PK WND 23054/1734 T00501027 50016,CWGM,2018-03-27T18:00:00Z,49.13,-113.78,5.0,-2.7,230,35,52,,,,,TRUE,TRUE,,,,,,,,,,,,,,,,1.6,,,,,,,,,,,METAR,1296.0
CWGL 271800Z AUTO 14017G23KT 02/M00 RMK AO1 PK WND 15023/1754 SLP176 T00171001 58038,CWGL,2018-03-27T18:00:00Z,44.52,-79.22,1.7,-0.1,140,17,23,,,1017.6,,TRUE,TRUE,,,,,,,,,,,,,,,,-3.8,,,,,,,,,,,METAR,221.0
CWGD 271800Z AUTO 17011G17KT 05/04 RMK AO1 2PAST HR 6023 PK WND 18020/1705 SLP143 P0001 T00500041 50052,CWGD,2018-03-27T18:00:00Z,43.77,-81.72,5.0,4.1,170,11,17,,,1014.3,,TRUE,TRUE,,,,,,,,,,,,,,,,5.2,,,,,0.01,,,,,,METAR,214.0
CWGB 271800Z AUTO 06011KT 08/07 RMK AO1 SLP218 T00830068 51021,CWGB,2018-03-27T18:00:00Z,49.35,-124.17,8.3,6.8,60,11,,,,1021.8,,TRUE,TRUE,,,,,,,,,,,,,,,,2.1,,,,,,,,,,,METAR,5.0
CWFQ 271800Z AUTO 17009G15KT 08/M15 RMK AO1 SOG 23 8039 SLP270 T00801146,CWFQ,2018-03-27T18:00:00Z,45.03,-72.82,8.0,-14.6,170,9,15,,,1027.0,,TRUE,TRUE,,,,,,,,,,,,,,,,,,,,,,,,,,,METAR,152.0
CWFJ 271800Z AUTO 26031G41KT 08/M04 RMK AO1 PK WND 26041/1753 T00761037,CWFJ,2018-03-27T18:00:00Z,49.2,-113.27,7.6,-3.7,260,31,41,,,,,TRUE,TRUE,,,,,,,,,,,,,,,,,,,,,,,,,,,METAR,1136.0
CWEW 271800Z AUTO 09003KT 06/M07 RMK AO1 SOG 09 6042 SLP282 T00581072 50002,CWEW,2018-03-27T18:00:00Z,45.82,-73.43,5.8,-7.2,90,3,,,,1028.2,,TRUE,TRUE,,,,,,,,,,,,,,,,0.2,,,,,,,,,,,METAR,21.0
CWEL 271800Z AUTO 08004KT 09/07 RMK AO1 SLP216 T00910073 53014,CWEL,2018-03-27T18:00:00Z,49.22,-123.78,9.1,7.3,80,4,,,,1021.6,,TRUE,TRUE,,,,,,,,,,,,,,,,1.4,,,,,,,,,,,METAR,5.0
CWEB 271800Z AUTO 30021KT 09/08 RMK AO1 1024 PK WND 31024/1748 SLP251 T00890078 50091,CWEB,2018-03-27T18:00:00Z,49.38,-126.55,8.9,7.8,300,21,,,,1025.1,,TRUE,TRUE,,,,,,,,,,,,,,,,9.1,,,,,,,,,,,METAR,7.0
CXVW 271800Z AUTO 34008KT M09/M10 RMK AO1 T10851101 50061,CXVW,2018-03-27T18:00:00Z,55.1,-117.2,-8.5,-10.1,340,8,,,,,,TRUE,TRUE,,,,,,,,,,,,,,,,6.1,,,,,,,,,,,METAR,698.0
CWWB 271800Z AUTO 05/02 RMK AO1 SLP181 T00470015 56037,CWWB,2018-03-27T18:00:00Z,43.3,-79.78,4.7,1.5,,,,,,1018.1,,TRUE,TRUE,,,,,,,,,,,,,,,,-3.7,,,,,,,,,,,METAR,76.0
CWNC 271800Z AUTO 12009KT 03/M00 RMK AO1 4PAST HR SOG 00 8031 SLP207 P0002 T00281001 50006,CWNC,2018-03-27T18:00:00Z,43.95,-78.17,2.8,-0.1,120,9,,,,1020.7,,TRUE,TRUE,,,,,,,,,,,,,,,,0.6,,,,,0.02,,,,,,METAR,78.0
CWNZ 271800Z AUTO 22005KT 02/01 RMK AO1 3PAST HR SOG 66 6031 SLP070 P0001 T00210010 50018,CWNZ,2018-03-27T18:00:00Z,49.75,-84.17,2.1,1.0,220,5,,,,1007.0,,TRUE,TRUE,,,,,,,,,,,,,,,,1.8,,,,,0.01,,,,,,METAR,256.0
FDMY 271800Z AUTO 09001KT //// // ////// 23/19 Q1030,FDMY,2018-03-27T18:00:00Z,-25.87,31.52,23.0,19.0,90,1,,,30.413385,,,TRUE,,,,,,,,,,,,,,,,,,,,,,,,,,,,METAR,480.0
MYGF 271800Z 16009KT 9999 SCT035 24/14 A3024,MYGF,2018-03-27T18:00:00Z,26.55,-78.7,24.0,14.0,160,9,,6.21,30.239174,,,,,,,,,,,SCT,3500,,,,,,,VFR,,,,,,,,,,,,METAR,2.0
CWYL 271800Z AUTO 26013KT M01/M02 RMK AO1 3PAST HR SOG 139 6012 PK WND 25019/1743 SLP091 P0005 T10141020 50052,CWYL,2018-03-27T18:00:00Z,51.45,-116.32,-1.4,-2.0,260,13,,,,1009.1,,TRUE,TRUE,,,,,,,,,,,,,,,,5.2,,,,,0.05,,,,,,METAR,1615.0
CWYJ 271800Z AUTO 24008G19KT 10/08 RMK AO1 PK WND 24019/1750 SLP236 T00990080 53005,CWYJ,2018-03-27T18:00:00Z,48.45,-123.3,9.9,8.0,240,8,19,,,1023.6,,TRUE,TRUE,,,,,,,,,,,,,,,,0.5,,,,,,,,,,,METAR,39.0
CZSM 271800Z AUTO 19006KT M13/M25 RMK AO1 SOG 63 7012 SLP147 T11281249 50012,CZSM,2018-03-27T18:00:00Z,60.03,-111.93,-12.8,-24.9,190,6,,,,1014.7,,TRUE,TRUE,,,,,,,,,,,,,,,,1.2,,,,,,,,,,,METAR,203.0
CZHY 271800Z AUTO 33006KT M18/M24 RMK AO1 SOG 23 3006 SLP155 T11841241,CZHY,2018-03-27T18:00:00Z,60.83,-115.78,-18.4,-24.1,330,6,,,,1015.5,,TRUE,TRUE,,,,,,,,,,,,,,,,,,,,,,,,,,,METAR,164.0
CZEV 271800Z AUTO 13001KT M17/M25 RMK AO1 SOG 51 1010 SLP180 T11661254,CZEV,2018-03-27T18:00:00Z,68.32,-133.52,-16.6,-25.4,130,1,,,,1018.0,,TRUE,TRUE,,,,,,,,,,,,,,,,,,,,,,,,,,,METAR,103.0
CWMT 271800Z AUTO 28005KT M19/M26 RMK AO1 SLP156 T11881260 52007,CWMT,2018-03-27T18:00:00Z,63.13,-117.25,-18.8,-26.0,280,5,,,,1015.6,,TRUE,TRUE,,,,,,,,,,,,,,,,0.7,,,,,,,,,,,METAR,271.0
CWWF 271800Z AUTO 25007KT 03/M03 RMK AO1 SOG 10 8021 SLP106 T00331034,CWWF,2018-03-27T18:00:00Z,49.7,-103.8,3.3,-3.4,250,7,,,,1010.6,,TRUE,TRUE,,,,,,,,,,,,,,,,,,,,,,,,,,,METAR,589.0
CWWA 271800Z AUTO 01001KT 08/06 RMK AO1 SLP224 T00760061 53004,CWWA,2018-03-27T18:00:00Z,49.35,-123.17,7.6,6.1,10,1,,,,1022.4,,TRUE,TRUE,,,,,,,,,,,,,,,,0.4,,,,,,,,,,,METAR,178.0
CWVQ 271800Z AUTO 13010G15KT 07/M06 RMK AO1 SOG 07 8039 SLP259 T00651055,CWVQ,2018-03-27T18:00:00Z,45.42,-73.92,6.5,-5.5,130,10,15,,,1025.9,,TRUE,TRUE,,,,,,,,,,,,,,,,,,,,,,,,,,,METAR,39.0
CWVP 271800Z AUTO 23012G18KT M00/M05 RMK AO1 SOG 43 6024 PK WND 24021/1728 SLP067 T10021051,CWVP,2018-03-27T18:00:00Z,49.63,-109.52,-0.2,-5.1,230,12,18,,,1006.7,,TRUE,TRUE,,,,,,,,,,,,,,,,,,,,,,,,,,,METAR,1271.0
CWVN 271800Z AUTO 22011KT 02/M02 RMK AO1 SOG 05 8035 SLP094 T00171021,CWVN,2018-03-27T18:00:00Z,49.07,-107.57,1.7,-2.1,220,11,,,,1009.4,,TRUE,TRUE,,,,,,,,,,,,,,,,,,,,,,,,,,,METAR,785.0
CWUX 271800Z AUTO 11014G19KT 08/M12 RMK AO1 PK WND 12020/1739 SLP265 T00791119 56047,CWUX,2018-03-27T18:00:00Z,48.3,-70.93,7.9,-11.9,110,14,19,,,1026.5,,TRUE,TRUE,,,,,,,,,,,,,,,,-4.7,,,,,,,,,,,METAR,135.0
CWUS 271800Z AUTO 12003KT 09/00 RMK AO1 SLP179 T00860000 53010,CWUS,2018-03-27T18:00:00Z,49.57,-119.65,8.6,0.0,120,3,,,,1017.9,,TRUE,TRUE,,,,,,,,,,,,,,,,1.0,,,,,,,,,,,METAR,454.0
CWTY 271800Z AUTO 15007KT 07/M09 RMK AO1 SLP276 T00661089 58050,CWTY,2018-03-27T18:00:00Z,46.35,-72.52,6.6,-8.9,150,7,,,,1027.6,,TRUE,TRUE,,,,,,,,,,,,,,,,-5.0,,,,,,,,,,,METAR,6.0
CWTT 271800Z AUTO 21010KT 04/M06 RMK AO1 T00411061,CWTT,2018-03-27T18:00:00Z,45.27,-72.17,4.1,-6.1,210,10,,,,,,TRUE,TRUE,,,,,,,,,,,,,,,,,,,,,,,,,,,METAR,209.0
CWTN 271800Z AUTO 11004KT 01/M04 RMK AO1 PRESFR SLP300 T00131037 58045,CWTN,2018-03-27T18:00:00Z,47.07,-70.78,1.3,-3.7,110,4,,,,1030.0,,TRUE,TRUE,,,,,,,,,,,,,,,,-4.5,,,,,,,,,,,METAR,6.0
CWTA 271800Z AUTO 14005KT 07/M08 RMK AO1 SOG 60 8038 SLP270 T00661075,CWTA,2018-03-27T18:00:00Z,45.5,-73.58,6.6,-7.5,140,5,,,,1027.0,,TRUE,TRUE,,,,,,,,,,,,,,,,,,,,,,,,,,,METAR,63.0
CWYY 271800Z AUTO 12002KT 10/01 RMK AO1 SOG 00 3004 SLP190 T00990010,CWYY,2018-03-27T18:00:00Z,49.03,-119.43,9.9,1.0,120,2,,,,1019.0,,TRUE,TRUE,,,,,,,,,,,,,,,,,,,,,,,,,,,METAR,283.0
CWZA 271800Z AUTO 11004KT 08/06 RMK AO1 4PAST HR SOG 00 3005 SLP223 P0002 T00800061 50063,CWZA,2018-03-27T18:00:00Z,49.25,-121.77,8.0,6.1,110,4,,,,1022.3,,TRUE,TRUE,,,,,,,,,,,,,,,,6.3,,,,,0.02,,,,,,METAR,15.0
CWZS 271800Z AUTO 16009G16KT 08/M16 RMK AO1 PK WND 16017/1711 SLP317 T00811157 56044,CWZS,2018-03-27T18:00:00Z,48.47,-67.43,8.1,-15.7,160,9,16,,,1031.7,,TRUE,TRUE,,,,,,,,,,,,,,,,-4.4,,,,,,,,,,,METAR,166.0
CWZO 271800Z AUTO 00021KT RMK AO1,CWZO,2018-03-27T18:00:00Z,48.55,-123.23,,,0,21,,,,,,TRUE,TRUE,,,,,,,,,,,,,,,,,,,,,,,,,,,METAR,1.0
CXHM 271800Z AUTO 21003KT 04/ RMK AO1 6037 SLP178 T0044 50026,CXHM,2018-03-27T18:00:00Z,43.28,-79.9,4.4,,210,3,,,,1017.8,,TRUE,TRUE,,,,,,,,,,,,,,,,2.6,,,,,,,,,,,METAR,107.0
CXKA 271800Z AUTO 17010KT 01/M00 RMK AO1 3PAST HR SOG 66 6031 SLP078 P0001 T00121001 50018,CXKA,2018-03-27T18:00:00Z,49.4,-82.45,1.2,-0.1,170,10,,,,1007.8,,TRUE,TRUE,,,,,,,,,,,,,,,,1.8,,,,,0.01,,,,,,METAR,218.0
CXKE 271800Z AUTO 18009G19KT 08/M12 RMK AO1 SOG 00 6042 PK WND 19019/1751 SLP237 T00751115,CXKE,2018-03-27T18:00:00Z,45.0,-75.63,7.5,-11.5,180,9,19,,,1023.7,,TRUE,TRUE,,,,,,,,,,,,,,,,,,,,,,,,,,,METAR,99.0
CERM 271800Z AUTO 13008KT 08/M14 RMK AO1 SOG 71 8045 SLP319 T00771135,CERM,2018-03-27T18:00:00Z,47.42,-68.32,7.7,-13.5,130,8,,,,1031.9,,TRUE,TRUE,,,,,,,,,,,,,,,,,,,,,,,,,,,METAR,154.0
CWBK 271800Z AUTO 04012KT 01/M03 RMK AO1 SOG 03 8031 SLP330 T00121034,CWBK,2018-03-27T18:00:00Z,45.77,-62.67,1.2,-3.4,40,12,,,,1033.0,,TRUE,TRUE,,,,,,,,,,,,,,,,,,,,,,,,,,,METAR,2.0
CWXI 271800Z AUTO 23017G23KT M01/M03 RMK AO1 SOG 24 6006 PK WND 23025/1730 SLP340 T10061034,CWXI,2018-03-27T18:00:00Z,51.02,-57.1,-0.6,-3.4,230,17,23,,,1034.0,,TRUE,TRUE,,,,,,,,,,,,,,,,,,,,,,,,,,,METAR,6.0
LRTM 271800Z AUTO 24007KT 5000 RA SCT019/// BKN023/// OVC041/// 05/04 Q1011,LRTM,2018-03-27T18:00:00Z,46.47,24.42,5.0,4.0,240,7,,3.11,29.852362,,,TRUE,,,,,,,RA,SCT,1900,BKN,2300,OVC,4100,,,MVFR,,,,,,,,,,,,METAR,309.0
CWDC 271800Z AUTO 20005KT M17/M25 RMK AO1 SOG 56 8011 SLP168 T11741251,CWDC,2018-03-27T18:00:00Z,59.57,-108.47,-17.4,-25.1,200,5,,,,1016.8,,TRUE,TRUE,,,,,,,,,,,,,,,,,,,,,,,,,,,METAR,318.0
CWEH 271800Z AUTO 24012KT 01/ RMK AO1 SOG 85 8026 SLP084 T0005,CWEH,2018-03-27T18:00:00Z,49.42,-108.97,0.5,,240,12,,,,1008.4,,TRUE,TRUE,,,,,,,,,,,,,,,,,,,,,,,,,,,METAR,1078.0
CWKO 271800Z AUTO 22015KT 02/M03 RMK AO1 SOG 14 8027 PK WND 22022/1707 SLP103 T00161026,CWKO,2018-03-27T18:00:00Z,49.17,-105.97,1.6,-2.6,220,15,,,,1010.3,,TRUE,TRUE,,,,,,,,,,,,,,,,,,,,,,,,,,,METAR,917.0
CWOY 271800Z AUTO 12010KT M03/M07 RMK AO1 SOG 15 6024 SLP092 T10301066 50002,CWOY,2018-03-27T18:00:00Z,51.77,-104.2,-3.0,-6.6,120,10,,,,1009.2,,TRUE,TRUE,,,,,,,,,,,,,,,,0.2,,,,,,,,,,,METAR,560.0
CWCT 271800Z AUTO 11003KT M05/M07 RMK AO1 3PAST HR SOG 14 8004 SLP062 P0005 T10451067 50013,CWCT,2018-03-27T18:00:00Z,52.07,-111.47,-4.5,-6.7,110,3,,,,1006.2,,TRUE,TRUE,,,,,,,,,,,,,,,,1.3,,,,,0.05,,,,,,METAR,791.0
CWLB 271800Z AUTO 11008KT M10/M15 RMK AO1 SOG 17 6016 SLP095 T11031147 50012,CWLB,2018-03-27T18:00:00Z,54.77,-112.02,-10.3,-14.7,110,8,,,,1009.5,,TRUE,TRUE,,,,,,,,,,,,,,,,1.2,,,,,,,,,,,METAR,567.0
CWEQ 271800Z AUTO 05014KT M06/M12 RMK AO1 SOG 25 8001 PK WND 05017/1758 SLP126 T10621117,CWEQ,2018-03-27T18:00:00Z,52.12,-101.22,-6.2,-11.7,50,14,,,,1012.6,,TRUE,TRUE,,,,,,,,,,,,,,,,,,,,,,,,,,,METAR,335.0
CWJD 271800Z AUTO 36005KT M07/M19 RMK AO1 SOG 47 3012 SLP140 T10671194,CWJD,2018-03-27T18:00:00Z,53.17,-99.27,-6.7,-19.4,360,5,,,,1014.0,,TRUE,TRUE,,,,,,,,,,,,,,,,,,,,,,,,,,,METAR,223.0
CWLP 271800Z AUTO 29016KT 07/ RMK AO1 PK WND 30021/1739 SLP238 T0073,CWLP,2018-03-27T18:00:00Z,50.93,-127.63,7.3,,290,16,,,,1023.8,,TRUE,TRUE,,,,,,,,,,,,,,,,,,,,,,,,,,,METAR,17.0
CWZG 271800Z AUTO 25006KT 01/M02 RMK AO1 SOG 23 5005 SLP091 T00071019,CWZG,2018-03-27T18:00:00Z,51.2,-115.53,0.7,-1.9,250,6,,,,1009.1,,TRUE,TRUE,,,,,,,,,,,,,,,,,,,,,,,,,,,METAR,1397.0
CWVT 271800Z AUTO 10006KT M14/M21 RMK AO1 SOG 34 7018 SLP165 T11421212 50002,CWVT,2018-03-27T18:00:00Z,55.82,-108.42,-14.2,-21.2,100,6,,,,1016.5,,TRUE,TRUE,,,,,,,,,,,,,,,,0.2,,,,,,,,,,,METAR,434.0
CWZW 271800Z AUTO 10005KT M10/M13 RMK AO1 2PAST HR SOG 48 1021 SLP156 P0001 T11031126 50004,CWZW,2018-03-27T18:00:00Z,60.17,-132.73,-10.3,-12.6,100,5,,,,1015.6,,TRUE,TRUE,,,,,,,,,,,,,,,,0.4,,,,,0.01,,,,,,METAR,705.0
CWRM 271800Z AUTO 16002KT 01/M03 RMK AO1 SOG 37 7014 SLP038 T00051033,CWRM,2018-03-27T18:00:00Z,52.42,-114.92,0.5,-3.3,160,2,,,,1003.8,,TRUE,TRUE,,,,,,,,,,,,,,,,,,,,,,,,,,,METAR,988.0
CWWE 271800Z AUTO 05011G19KT 07/M03 RMK AO1 PK WND 03019/1744 SLP281 T00671033 57035,CWWE,2018-03-27T18:00:00Z,43.97,-64.67,6.7,-3.3,50,11,19,,,1028.1,,TRUE,TRUE,,,,,,,,,,,,,,,,-3.5,,,,,,,,,,,METAR,9.0
CXDI 271800Z AUTO 18010G18KT 04/03 RMK AO1 3PAST HR SOG 00 6038 PK WND 17021/1708 SLP169 P0001 T00410029 50025,CXDI,2018-03-27T18:00:00Z,42.87,-80.55,4.1,2.9,180,10,18,,,1016.9,,TRUE,TRUE,,,,,,,,,,,,,,,,2.5,,,,,0.01,,,,,,METAR,232.0
CXCK 271800Z AUTO 14001KT M20/M26 RMK AO1 SOG 50 1018 SLP179 T11981257,CXCK,2018-03-27T18:00:00Z,62.12,-136.2,-19.8,-25.7,140,1,,,,1017.9,,TRUE,TRUE,,,,,,,,,,,,,,,,,,,,,,,,,,,METAR,540.0
CXCH 271800Z AUTO 07/M19 RMK AO1 8PAST HR SOG 11 M P0003 T00651191 50008,CXCH,2018-03-27T18:00:00Z,46.63,-60.95,6.5,-19.1,,,,,,,,TRUE,TRUE,,,,,,,,,,,,,,,,0.8,,,,,0.03,,,,,,METAR,44.0
CXCA 271800Z AUTO 33005KT 02/M02 RMK AO1 SOG 32 7004 SLP104 T00221018 50004,CXCA,2018-03-27T18:00:00Z,49.15,-88.35,2.2,-1.8,330,5,,,,1010.4,,TRUE,TRUE,,,,,,,,,,,,,,,,0.4,,,,,,,,,,,METAR,228.0
CXBO 271800Z AUTO 09012KT RMK AO1,CXBO,2018-03-27T18:00:00Z,46.83,-71.2,,,90,12,,,,,,TRUE,TRUE,,,,,,,,,,,,,,,,,,,,,,,,,,,METAR,100.0
CXKT 271800Z AUTO 04008KT 06/M06 RMK AO1 SOG 31 6039 SLP308 T00561062,CXKT,2018-03-27T18:00:00Z,45.07,-64.48,5.6,-6.2,40,8,,,,1030.8,,TRUE,TRUE,,,,,,,,,,,,,,,,,,,,,,,,,,,METAR,49.0
CXBK 271800Z AUTO 22011KT 02/M03 RMK AO1 SOG 18 8022 SLP080 T00171029 50002,CXBK,2018-03-27T18:00:00Z,50.2,-104.7,1.7,-2.9,220,11,,,,1008.0,,TRUE,TRUE,,,,,,,,,,,,,,,,0.2,,,,,,,,,,,METAR,580.0
CWNH 271800Z AUTO 34004KT 04/M12 RMK AO1 SOG 49 7040 SLP307 T00371117,CWNH,2018-03-27T18:00:00Z,47.78,-69.53,3.7,-11.7,340,4,,,,1030.7,,TRUE,TRUE,,,,,,,,,,,,,,,,,,,,,,,,,,,METAR,148.0
CWSF 271800Z AUTO 09010G15KT 02/M06 RMK AO1 SOG 31 8045 SLP325 T00171057,CWSF,2018-03-27T18:00:00Z,49.25,-65.32,1.7,-5.7,90,10,15,,,1032.5,,TRUE,TRUE,,,,,,,,,,,,,,,,,,,,,,,,,,,METAR,29.0
CWRA 271800Z AUTO 06006KT RMK AO1 58013,CWRA,2018-03-27T18:00:00Z,46.63,-53.07,,,60,6,,,,,,TRUE,TRUE,,,,,,,,,,,,,,,,-1.3,,,,,,,,,,,METAR,28.0
CWEP 271800Z AUTO 03009KT 01/M02 RMK AO1 SOG 02 6030 SLP346 T00071019,CWEP,2018-03-27T18:00:00Z,46.45,-61.97,0.7,-1.9,30,9,,,,1034.6,,TRUE,TRUE,,,,,,,,,,,,,,,,,,,,,,,,,,,METAR,11.0
CWRN 271800Z AUTO 05018G25KT 02/M04 RMK AO1 PK WND 06027/1745 SLP322 T00241043 58032,CWRN,2018-03-27T18:00:00Z,45.35,-60.98,2.4,-4.3,50,18,25,,,1032.2,,TRUE,TRUE,,,,,,,,,,,,,,,,-3.2,,,,,,,,,,,METAR,8.0
CWHO 271800Z AUTO 22009KT 03/M04 RMK AO1 PK WND 24020/1703 SLP293 T00281035 58004,CWHO,2018-03-27T18:00:00Z,55.45,-60.22,2.8,-3.5,220,9,,,,1029.3,,TRUE,TRUE,,,,,,,,,,,,,,,,-0.4,,,,,,,,,,,METAR,8.0
CXEA 271800Z AUTO 25008G15KT 02/M03 RMK AO1 SOG 46 8004 SLP103 T00231034,CXEA,2018-03-27T18:00:00Z,50.63,-93.22,2.3,-3.4,250,8,15,,,1010.3,,TRUE,TRUE,,,,,,,,,,,,,,,,,,,,,,,,,,,METAR,355.0
CXDW 271800Z AUTO 25010KT 03/M02 RMK AO1 SOG 03 8004 SLP126 T00331018,CXDW,2018-03-27T18:00:00Z,49.4,-98.32,3.3,-1.8,250,10,,,,1012.6,,TRUE,TRUE,,,,,,,,,,,,,,,,,,,,,,,,,,,METAR,341.0
CXEC 271800Z AUTO 16002KT M03/M04 RMK AO1 3PAST HR SOG 21 8009 SLP054 P0001 T10251035 50013,CXEC,2018-03-27T18:00:00Z,53.57,-113.52,-2.5,-3.5,160,2,,,,1005.4,,TRUE,TRUE,,,,,,,,,,,,,,,,1.3,,,,,0.01,,,,,,METAR,671.0
CXET 271800Z AUTO 16012KT 02/01 RMK AO1 4PAST HR SOG 00 8039 PK WND 16022/1706 SLP165 P0002 T00210007 50014,CXET,2018-03-27T18:00:00Z,44.23,-79.78,2.1,0.7,160,12,,,,1016.5,,TRUE,TRUE,,,,,,,,,,,,,,,,1.4,,,,,0.02,,,,,,METAR,251.0
CXGH 271800Z AUTO 34006KT 02/M04 RMK AO1 T00201042,CXGH,2018-03-27T18:00:00Z,50.63,-97.0,2.0,-4.2,340,6,,,,,,TRUE,TRUE,,,,,,,,,,,,,,,,,,,,,,,,,,,METAR,217.0
CXHA 271800Z AUTO 22011G16KT 08/07 RMK AO1 2PAST HR 6019 SLP152 P0001 T00820072 50064,CXHA,2018-03-27T18:00:00Z,42.03,-82.9,8.2,7.2,220,11,16,,,1015.2,,TRUE,TRUE,,,,,,,,,,,,,,,,6.4,,,,,0.01,,,,,,METAR,191.0
CXIB 271800Z AUTO 05002KT 03/M11 RMK AO1 SOG 23 6020 SLP370 T00331107,CXIB,2018-03-27T18:00:00Z,46.67,-60.38,3.3,-10.7,50,2,,,,1037.0,,TRUE,TRUE,,,,,,,,,,,,,,,,,,,,,,,,,,,METAR,8.0
CXMD 271800Z AUTO 26007KT 07/M03 RMK AO1 SOG 00 8006 SLP123 T00671032,CXMD,2018-03-27T18:00:00Z,49.22,-98.08,6.7,-3.2,260,7,,,,1012.3,,TRUE,TRUE,,,,,,,,,,,,,,,,,,,,,,,,,,,METAR,301.0
CXMM 271800Z AUTO 08007KT M13/M18 RMK AO1 SOG 35 8007 SLP138 T11321178,CXMM,2018-03-27T18:00:00Z,56.65,-111.22,-13.2,-17.8,80,7,,,,1013.8,,TRUE,TRUE,,,,,,,,,,,,,,,,,,,,,,,,,,,METAR,369.0
CXNM 271800Z AUTO 12017G24KT 01/M12 RMK AO1 SOG 117 PK WND 11025/1700 T00051120,CXNM,2018-03-27T18:00:00Z,46.82,-60.67,0.5,-12.0,120,17,24,,,,,TRUE,TRUE,,,,,,,,,,,,,,,,,,,,,,,,,,,METAR,439.0
CXMY 271800Z AUTO 11/M14 RMK AO1 T01091140,CXMY,2018-03-27T18:00:00Z,44.98,-62.48,10.9,-14.0,,,,,,,,TRUE,TRUE,,,,,,,,,,,,,,,,,,,,,,,,,,,METAR,40.0
CXOX 271800Z AUTO 05003KT M14/M20 RMK AO1 SOG 59 8008 SLP163 T11441195 50002,CXOX,2018-03-27T18:00:00Z,55.15,-105.27,-14.4,-19.5,50,3,,,,1016.3,,TRUE,TRUE,,,,,,,,,,,,,,,,0.2,,,,,,,,,,,METAR,379.0
CXRH 271800Z AUTO 25005KT 06/ RMK AO1 T0062,CXRH,2018-03-27T18:00:00Z,49.57,-57.88,6.2,,250,5,,,,,,TRUE,TRUE,,,,,,,,,,,,,,,,,,,,,,,,,,,METAR,68.0
CXSH 271800Z AUTO 14011KT 06/M09 RMK AO1 SLP278 T00611094 56046,CXSH,2018-03-27T18:00:00Z,46.58,-72.73,6.1,-9.4,140,11,,,,1027.8,,TRUE,TRUE,,,,,,,,,,,,,,,,-4.6,,,,,,,,,,,METAR,110.0
CXTP 271800Z AUTO 26008KT 10/M18 RMK AO1 SOG 37 6015 SLP367 T00991180,CXTP,2018-03-27T18:00:00Z,48.55,-53.97,9.9,-18.0,260,8,,,,1036.7,,TRUE,TRUE,,,,,,,,,,,,,,,,,,,,,,,,,,,METAR,107.0
CXWN 271800Z AUTO 23004KT 05/M03 RMK AO1 SLP119 T00541034 51001,CXWN,2018-03-27T18:00:00Z,49.88,-97.13,5.4,-3.4,230,4,,,,1011.9,,TRUE,TRUE,,,,,,,,,,,,,,,,0.1,,,,,,,,,,,METAR,230.0
CWGT 271800Z AUTO 12003KT 09/06 RMK AO1 SLP222 T00930062 51019,CWGT,2018-03-27T18:00:00Z,49.48,-124.43,9.3,6.2,120,3,,,,1022.2,,TRUE,TRUE,,,,,,,,,,,,,,,,1.9,,,,,,,,,,,METAR,5.0
CWGR 271800Z AUTO 07010KT M00/M04 RMK AO1 7024 SLP361 T10041036 50003,CWGR,2018-03-27T18:00:00Z,47.42,-61.8,-0.4,-3.6,70,10,,,,1036.1,,TRUE,TRUE,,,,,,,,,,,,,,,,0.3,,,,,,,,,,,METAR,60.0
CWGW 271800Z AUTO 17012G19KT 02/M00 RMK AO1 SOG 36 6016 PK WND 14026/1730 SLP137 T00171001,CWGW,2018-03-27T18:00:00Z,49.75,-114.9,1.7,-0.1,170,12,19,,,1013.7,,TRUE,TRUE,,,,,,,,,,,,,,,,,,,,,,,,,,,METAR,1137.0
CWGX 271800Z AUTO 29015G21KT M15/M20 RMK AO1 SOG 32 1038 PK WND 28021/1720 SLP084 T11471196 50005,CWGX,2018-03-27T18:00:00Z,56.35,-94.7,-14.7,-19.6,290,15,21,,,1008.4,,TRUE,TRUE,,,,,,,,,,,,,,,,0.5,,,,,,,,,,,METAR,145.0
CWGY 271800Z AUTO 29003KT M01/M05 RMK AO1 SLP057 T10051054 56022,CWGY,2018-03-27T18:00:00Z,51.67,-110.2,-0.5,-5.4,290,3,,,,1005.7,,TRUE,TRUE,,,,,,,,,,,,,,,,-2.2,,,,,,,,,,,METAR,707.0
CWHL 271800Z AUTO 23010KT 06/03 RMK AO1 1035 SLP197 T00580026 50004,CWHL,2018-03-27T18:00:00Z,54.17,-130.35,5.8,2.6,230,10,,,,1019.7,,TRUE,TRUE,,,,,,,,,,,,,,,,0.4,,,,,,,,,,,METAR,5.0
CWHT 271800Z AUTO 23001KT M07/M12 RMK AO1 SOG 23 1019 SLP136 T10651121 50004,CWHT,2018-03-27T18:00:00Z,60.77,-137.58,-6.5,-12.1,230,1,,,,1013.6,,TRUE,TRUE,,,,,,,,,,,,,,,,0.4,,,,,,,,,,,METAR,599.0
CWHV 271800Z AUTO 12011G17KT 09/M16 RMK AO1 PK WND 13018/1747 SLP289 T00881155 58047,CWHV,2018-03-27T18:00:00Z,46.2,-70.77,8.8,-15.5,120,11,17,,,1028.9,,TRUE,TRUE,,,,,,,,,,,,,,,,-4.7,,,,,,,,,,,METAR,229.0
CWID 271800Z AUTO 31001KT M12/M23 RMK AO1 SLP160 T11161234 51007,CWID,2018-03-27T18:00:00Z,61.32,-117.6,-11.6,-23.4,310,1,,,,1016.0,,TRUE,TRUE,,,,,,,,,,,,,,,,0.7,,,,,,,,,,,METAR,161.0
CWII 271800Z AUTO 24010KT 01/M02 RMK AO1 T00111016,CWII,2018-03-27T18:00:00Z,50.7,-96.57,1.1,-1.6,240,10,,,,,,TRUE,TRUE,,,,,,,,,,,,,,,,,,,,,,,,,,,METAR,220.0
CWIG 271800Z AUTO 07004KT RMK AO1,CWIG,2018-03-27T18:00:00Z,47.07,-70.53,,,70,4,,,,,,TRUE,TRUE,,,,,,,,,,,,,,,,,,,,,,,,,,,METAR,18.0
CWIJ 271800Z AUTO 30006KT M36/M39 RMK AO1 SOG 43 2011 SLP144 T13561391,CWIJ,2018-03-27T18:00:00Z,65.77,-111.23,-35.6,-39.1,300,6,,,,1014.4,,TRUE,TRUE,,,,,,,,,,,,,,,,,,,,,,,,,,,METAR,500.0
CWIP 271800Z AUTO 13005KT 01/ RMK AO1 T0013,CWIP,2018-03-27T18:00:00Z,50.17,-66.43,1.3,,130,5,,,,,,TRUE,TRUE,,,,,,,,,,,,,,,,,,,,,,,,,,,METAR,25.0
CWME 271800Z AUTO 21011G20KT 07/04 RMK AO1 2PAST HR 1030 PK WND 21020/1711 SLP216 P0001 T00650036 50012,CWME,2018-03-27T18:00:00Z,52.18,-127.47,6.5,3.6,210,11,20,,,1021.6,,TRUE,TRUE,,,,,,,,,,,,,,,,1.2,,,,,0.01,,,,,,METAR,32.0
CWRU 271800Z AUTO 30022KT 07/03 RMK AO1 1028 PK WND 31028/1725 SLP230 T00710032 50002,CWRU,2018-03-27T18:00:00Z,50.12,-127.93,7.1,3.2,300,22,,,,1023.0,,TRUE,TRUE,,,,,,,,,,,,,,,,0.2,,,,,,,,,,,METAR,98.0
WBKL 271800Z VRB01KT 9999 FEW012 BKN140 BKN290 26/24 Q1009,WBKL,2018-03-27T18:00:00Z,5.28,115.25,26.0,24.0,0,1,,6.21,29.793306,,,,,,,,,,,FEW,1200,BKN,14000,BKN,29000,,,VFR,,,,,,,,,,,,METAR,30.0
WBGY 271800Z 00000KT 9999 SCT022 BKN150 24/23 Q1010,WBGY,2018-03-27T18:00:00Z,1.22,111.43,24.0,23.0,0,0,,6.21,29.822834,,,,,,,,,,,SCT,2200,BKN,15000,,,,,VFR,,,,,,,,,,,,METAR,34.0
WBGS 271800Z 18004KT 120V230 9999 SCT018 BKN150 24/23 Q1010,WBGS,2018-03-27T18:00:00Z,2.27,111.98,24.0,23.0,180,4,,6.21,29.822834,,,,,,,,,,,SCT,1800,BKN,15000,,,,,VFR,,,,,,,,,,,,METAR,8.0
WBGR 271800Z VRB01KT 9999 FEW016 BKN150 25/24 Q1009,WBGR,2018-03-27T18:00:00Z,4.32,113.97,25.0,24.0,0,1,,6.21,29.793306,,,,,,,,,,,FEW,1600,BKN,15000,,,,,VFR,,,,,,,,,,,,METAR,18.0
WBGB 271800Z VRB03KT 9999 SCT016 SCT150 BKN300 25/25 Q1009,WBGB,2018-03-27T18:00:00Z,3.12,113.02,25.0,25.0,0,3,,6.21,29.793306,,,,,,,,,,,SCT,1600,SCT,15000,BKN,30000,,,VFR,,,,,,,,,,,,METAR,5.0
WMSA 271800Z VRB02KT 8000 FEW026 BKN280 25/23 Q1011,WMSA,2018-03-27T18:00:00Z,3.13,101.55,25.0,23.0,0,2,,4.97,29.852362,,,,,,,,,,,FEW,2600,BKN,28000,,,,,MVFR,,,,,,,,,,,,METAR,27.0
WMKJ 271800Z VRB02KT 9999 FEW023 BKN130 23/23 Q1010,WMKJ,2018-03-27T18:00:00Z,1.62,103.67,23.0,23.0,0,2,,6.21,29.822834,,,,,,,,,,,FEW,2300,BKN,13000,,,,,VFR,,,,,,,,,,,,METAR,40.0
WMKP 271800Z VRB02KT 7000 -RA FEW008 SCT140 BKN260 27/25 Q1010 NOSIG,WMKP,2018-03-27T18:00:00Z,5.28,100.27,27.0,25.0,0,2,,4.35,29.822834,,,,,,TRUE,,,,-RA,FEW,800,SCT,14000,BKN,26000,,,MVFR,,,,,,,,,,,,METAR,4.0
WMKK 271800Z 14003KT 110V170 8000 FEW030 SCT140 BKN280 25/24 Q1010 NOSIG,WMKK,2018-03-27T18:00:00Z,2.75,101.72,25.0,24.0,140,3,,4.97,29.822834,,,,,,TRUE,,,,,FEW,3000,SCT,14000,BKN,28000,,,MVFR,,,,,,,,,,,,METAR,22.0
WBSB 271800Z 11001KT 9999 SCT015 BKN280 26/25 Q1010 NOSIG,WBSB,2018-03-27T18:00:00Z,4.92,114.92,26.0,25.0,110,1,,6.21,29.822834,,,,,,TRUE,,,,,SCT,1500,BKN,28000,,,,,VFR,,,,,,,,,,,,METAR,15.0
WBGG 271800Z 00000KT 9999 SCT020 BKN150 24/23 Q1010 NOSIG,WBGG,2018-03-27T18:00:00Z,1.47,110.35,24.0,23.0,0,0,,6.21,29.822834,,,,,,TRUE,,,,,SCT,2000,BKN,15000,,,,,VFR,,,,,,,,,,,,METAR,27.0
CWJC 271800Z AUTO 30008KT M26/M29 RMK AO1 SOG 14 8003 SLP126 T12551293 50002,CWJC,2018-03-27T18:00:00Z,61.13,-100.9,-25.5,-29.3,300,8,,,,1012.6,,TRUE,TRUE,,,,,,,,,,,,,,,,0.2,,,,,,,,,,,METAR,357.0
CWJB 271800Z AUTO 04006KT 05/ RMK AO1 SOG 50 T0048,CWJB,2018-03-27T18:00:00Z,46.78,-71.27,4.8,,40,6,,,,,,TRUE,TRUE,,,,,,,,,,,,,,,,,,,,,,,,,,,METAR,91.0
CWIZ 271800Z AUTO 15012KT 06/M04 RMK AO1 SOG 00 T00611043,CWIZ,2018-03-27T18:00:00Z,45.28,-73.33,6.1,-4.3,150,12,,,,,,TRUE,TRUE,,,,,,,,,,,,,,,,,,,,,,,,,,,METAR,45.0
CWIW 271800Z AUTO 10011KT M05/M08 RMK AO1 SOG 20 8030 SLP090 T10531077,CWIW,2018-03-27T18:00:00Z,51.67,-105.4,-5.3,-7.7,100,11,,,,1009.0,,TRUE,TRUE,,,,,,,,,,,,,,,,,,,,,,,,,,,METAR,526.0
CWIT 271800Z AUTO 15018G28KT 07/M09 RMK AO1 SOG 01 8038 PK WND 15029/1735 SLP256 T00671091,CWIT,2018-03-27T18:00:00Z,45.17,-73.67,6.7,-9.1,150,18,28,,,1025.6,,TRUE,TRUE,,,,,,,,,,,,,,,,,,,,,,,,,,,METAR,52.0
WBKS 271800Z VRB03KT 8000 FEW015 BKN290 25/24 Q1008,WBKS,2018-03-27T18:00:00Z,5.9,118.07,25.0,24.0,0,3,,4.97,29.763779,,,,,,,,,,,FEW,1500,BKN,29000,,,,,MVFR,,,,,,,,,,,,METAR,13.0
WBKT 271800Z 00000KT 9999 FEW014 SCT140 BKN270 25/24 Q1009,WBKT,2018-03-27T18:00:00Z,6.92,116.82,25.0,24.0,0,0,,6.21,29.793306,,,,,,,,,,,FEW,1400,SCT,14000,BKN,27000,,,VFR,,,,,,,,,,,,METAR,5.0
WBKW 271800Z 33004KT 290V010 9999 FEW017 BKN140 25/23 Q1009,WBKW,2018-03-27T18:00:00Z,4.32,118.12,25.0,23.0,330,4,,6.21,29.793306,,,,,,,,,,,FEW,1700,BKN,14000,,,,,VFR,,,,,,,,,,,,METAR,20.0
LERT 271800Z 27007KT 250V310 CAVOK 18/13 Q1024 NOSIG,LERT,2018-03-27T18:00:00Z,36.63,-6.33,18.0,13.0,270,7,,6.21,30.236221,,,,,,TRUE,,,,,CAVOK,,,,,,,,VFR,,,,,,,,,,,,METAR,26.0
LERI 271800Z 25012KT CAVOK 21/03 Q1021 NOSIG,LERI,2018-03-27T18:00:00Z,37.95,-1.22,21.0,3.0,250,12,,6.21,30.147638,,,,,,TRUE,,,,,CAVOK,,,,,,,,VFR,,,,,,,,,,,,METAR,75.0
DAAS 271800Z 34006KT 9999 FEW026 09/03 Q1023,DAAS,2018-03-27T18:00:00Z,36.18,5.33,9.0,3.0,340,6,,6.21,30.206694,,,,,,,,,,,FEW,2600,,,,,,,VFR,,,,,,,,,,,,METAR,1038.0
DAOB 271800Z 28010KT 9999 FEW023 10/05 Q1026,DAOB,2018-03-27T18:00:00Z,35.33,1.47,10.0,5.0,280,10,,6.21,30.295275,,,,,,,,,,,FEW,2300,,,,,,,VFR,,,,,,,,,,,,METAR,989.0
DABS 271800Z 34010KT 9999 FEW040 09/02 Q1021,DABS,2018-03-27T18:00:00Z,35.43,8.12,9.0,2.0,340,10,,6.21,30.147638,,,,,,,,,,,FEW,4000,,,,,,,VFR,,,,,,,,,,,,METAR,813.0
DAOF 271800Z 07013KT 6000 SCT046 26/M07 Q1022,DAOF,2018-03-27T18:00:00Z,27.7,-8.17,26.0,-7.0,70,13,,3.73,30.177166,,,,,,,,,,,SCT,4600,,,,,,,MVFR,,,,,,,,,,,,METAR,431.0
DAUA 271800Z 04013KT 9000 NSC 22/M11 Q1022,DAUA,2018-03-27T18:00:00Z,27.83,-0.18,22.0,-11.0,40,13,,5.59,30.177166,,,,,,,,,,,CLR,,,,,,,,VFR,,,,,,,,,,,,METAR,263.0
DAUB 271800Z 31007KT 9999 FEW040 19/06 Q1021,DAUB,2018-03-27T18:00:00Z,34.78,5.72,19.0,6.0,310,7,,6.21,30.147638,,,,,,,,,,,FEW,4000,,,,,,,VFR,,,,,,,,,,,,METAR,87.0
DAUG 271800Z 36011KT CAVOK 19/M03 Q1023,DAUG,2018-03-27T18:00:00Z,32.37,3.82,19.0,-3.0,360,11,,6.21,30.206694,,,,,,,,,,,CAVOK,,,,,,,,VFR,,,,,,,,,,,,METAR,450.0
DAUU 271800Z 34006KT CAVOK 19/M05 Q1022,DAUU,2018-03-27T18:00:00Z,31.92,5.4,19.0,-5.0,340,6,,6.21,30.177166,,,,,,,,,,,CAVOK,,,,,,,,VFR,,,,,,,,,,,,METAR,141.0
DAUZ 271800Z 32019KT 8000 NSC 17/01 Q1020,DAUZ,2018-03-27T18:00:00Z,28.05,9.62,17.0,1.0,320,19,,4.97,30.11811,,,,,,,,,,,CLR,,,,,,,,MVFR,,,,,,,,,,,,METAR,562.0
DAOL 271800Z 24006KT 9999 FEW026 17/09 Q1025,DAOL,2018-03-27T18:00:00Z,35.53,-0.52,17.0,9.0,240,6,,6.21,30.265747,,,,,,,,,,,FEW,2600,,,,,,,VFR,,,,,,,,,,,,METAR,112.0
DAAY 271800Z 34008KT 9999 FEW026 15/04 Q1028,DAAY,2018-03-27T18:00:00Z,33.53,-0.25,15.0,4.0,340,8,,6.21,30.35433,,,,,,,,,,,FEW,2600,,,,,,,VFR,,,,,,,,,,,,METAR,1149.0
DAOI 271800Z 26008KT 9999 FEW030 17/09 Q1024,DAOI,2018-03-27T18:00:00Z,36.22,1.32,17.0,9.0,260,8,,6.21,30.236221,,,,,,,,,,,FEW,3000,,,,,,,VFR,,,,,,,,,,,,METAR,143.0
DAOR 271800Z 34007KT CAVOK 21/M01 Q1024,DAOR,2018-03-27T18:00:00Z,31.65,-2.27,21.0,-1.0,340,7,,6.21,30.236221,,,,,,,,,,,CAVOK,,,,,,,,VFR,,,,,,,,,,,,METAR,773.0
DAUL 271800Z 32014KT 9999 FEW030 16/M01 Q1023,DAUL,2018-03-27T18:00:00Z,33.77,2.92,16.0,-1.0,320,14,,6.21,30.206694,,,,,,,,,,,FEW,3000,,,,,,,VFR,,,,,,,,,,,,METAR,765.0
DAAD 271800Z 32013KT 9999 SCT030 17/07 Q1023,DAAD,2018-03-27T18:00:00Z,35.32,4.2,17.0,7.0,320,13,,6.21,30.206694,,,,,,,,,,,SCT,3000,,,,,,,VFR,,,,,,,,,,,,METAR,461.0
DAAE 271800Z 12006KT 9999 SCT020 14/11 Q1023,DAAE,2018-03-27T18:00:00Z,36.72,5.07,14.0,11.0,120,6,,6.21,30.206694,,,,,,,,,,,SCT,2000,,,,,,,VFR,,,,,,,,,,,,METAR,2.0
DAAJ 271800Z 36019KT 4000 HZ NSC 21/M00 Q1018,DAAJ,2018-03-27T18:00:00Z,24.28,9.47,21.0,0.0,360,19,,2.49,30.059055,,,,,,,,,,HZ,CLR,,,,,,,,IFR,,,,,,,,,,,,METAR,968.0
DAAP 271800Z 34015KT CAVOK 19/M02 Q1021,DAAP,2018-03-27T18:00:00Z,26.72,8.62,19.0,-2.0,340,15,,6.21,30.147638,,,,,,,,,,,CAVOK,,,,,,,,VFR,,,,,,,,,,,,METAR,558.0
DAAV 271800Z 23002KT 9999 FEW023 15/09 Q1023,DAAV,2018-03-27T18:00:00Z,36.8,5.88,15.0,9.0,230,2,,6.21,30.206694,,,,,,,,,,,FEW,2300,,,,,,,VFR,,,,,,,,,,,,METAR,11.0
DABT 271800Z 34006KT 9999 FEW020 10/03 Q1022,DABT,2018-03-27T18:00:00Z,35.75,6.32,10.0,3.0,340,6,,6.21,30.177166,,,,,,,,,,,FEW,2000,,,,,,,VFR,,,,,,,,,,,,METAR,823.0
DATM 271800Z 01020KT 6000 DRSA NSC 30/M06 Q1014,DATM,2018-03-27T18:00:00Z,21.38,0.92,30.0,-6.0,10,20,,3.73,29.940945,,,,,,,,,,DRSA,CLR,,,,,,,,MVFR,,,,,,,,,,,,METAR,396.0
DAFH 271800Z 31007KT CAVOK 16/01 Q1025,DAFH,2018-03-27T18:00:00Z,32.93,3.32,16.0,1.0,310,7,,6.21,30.265747,,,,,,,,,,,CAVOK,,,,,,,,VFR,,,,,,,,,,,,METAR,774.0
DAUK 271800Z 33004KT CAVOK 18/M00 Q1022,DAUK,2018-03-27T18:00:00Z,33.08,6.12,18.0,0.0,330,4,,6.21,30.177166,,,,,,,,,,,CAVOK,,,,,,,,VFR,,,,,,,,,,,,METAR,85.0
DAUO 271800Z 30003KT 9999 FEW040 18/03 Q1022,DAUO,2018-03-27T18:00:00Z,33.5,6.78,18.0,3.0,300,3,,6.21,30.177166,,,,,,,,,,,FEW,4000,,,,,,,VFR,,,,,,,,,,,,METAR,63.0
DAOV 271800Z 00000KT CAVOK 15/14 Q1025,DAOV,2018-03-27T18:00:00Z,35.2,0.15,15.0,14.0,0,0,,6.21,30.265747,,,,,,,,,,,CAVOK,,,,,,,,VFR,,,,,,,,,,,,METAR,514.0
DAUT 271800Z 04013KT CAVOK 20/M02 Q1023,DAUT,2018-03-27T18:00:00Z,29.25,0.27,20.0,-2.0,40,13,,6.21,30.206694,,,,,,,,,,,CAVOK,,,,,,,,VFR,,,,,,,,,,,,METAR,312.0
DAOY 271800Z 33012KT CAVOK 10/02 Q1025,DAOY,2018-03-27T18:00:00Z,33.72,1.08,10.0,2.0,330,12,,6.21,30.265747,,,,,,,,,,,CAVOK,,,,,,,,VFR,,,,,,,,,,,,METAR,1347.0
LFLN 271800Z AUTO 21006KT 180V260 9999 FEW009 SCT021 BKN030 11/09 Q1012 NOSIG,LFLN,2018-03-27T18:00:00Z,46.42,4.02,11.0,9.0,210,6,,6.21,29.88189,,,TRUE,,,TRUE,,,,,FEW,900,SCT,2100,BKN,3000,,,MVFR,,,,,,,,,,,,METAR,244.0
LFRQ 271800Z AUTO 29007KT 9999 BKN012 OVC025 11/09 Q1014 TEMPO 29017G27KT BECMG 3000 RA SCT004 OVC008,LFRQ,2018-03-27T18:00:00Z,47.97,-4.17,11.0,9.0,290,7,,6.21,29.940945,,,TRUE,,,,,,,,BKN,1200,OVC,2500,,,,,MVFR,,,,,,,,,,,,SPECI,94.0
LFRC 271800Z AUTO 27017KT 9999 SCT034 SCT220 09/05 Q1010 TEMPO 28020G30KT,LFRC,2018-03-27T18:00:00Z,49.63,-1.47,9.0,5.0,270,17,,6.21,29.822834,,,TRUE,,,,,,,,SCT,3400,SCT,22000,,,,,VFR,,,,,,,,,,,,SPECI,138.0
DAUE 271800Z 34009KT CAVOK 19/M02 Q1024,DAUE,2018-03-27T18:00:00Z,30.57,2.87,19.0,-2.0,340,9,,6.21,30.236221,,,,,,,,,,,CAVOK,,,,,,,,VFR,,,,,,,,,,,,METAR,397.0
DAUI 271800Z 03016KT CAVOK 22/M06 Q1021,DAUI,2018-03-27T18:00:00Z,27.25,2.52,22.0,-6.0,30,16,,6.21,30.147638,,,,,,,,,,,CAVOK,,,,,,,,VFR,,,,,,,,,,,,METAR,269.0
VTBD 271800Z 20005KT 9999 FEW030 28/26 Q1011 NOSIG,VTBD,2018-03-27T18:00:00Z,13.92,100.6,28.0,26.0,200,5,,6.21,29.852362,,,,,,TRUE,,,,,FEW,3000,,,,,,,VFR,,,,,,,,,,,,METAR,3.0
VTBS 271800Z 19007KT 9000 FEW017 27/24 Q1011 NOSIG,VTBS,2018-03-27T18:00:00Z,13.68,100.75,27.0,24.0,190,7,,5.59,29.852362,,,,,,TRUE,,,,,FEW,1700,,,,,,,VFR,,,,,,,,,,,,METAR,2.0
VTBU 271800Z 18004KT 3000 BR FEW020 28/23 Q1011 NOSIG,VTBU,2018-03-27T18:00:00Z,12.68,101.0,28.0,23.0,180,4,,1.86,29.852362,,,,,,TRUE,,,,BR,FEW,2000,,,,,,,IFR,,,,,,,,,,,,METAR,5.0
VTCC 271800Z 14003KT 9999 FEW035 26/16 Q1012 NOSIG,VTCC,2018-03-27T18:00:00Z,18.77,98.97,26.0,16.0,140,3,,6.21,29.88189,,,,,,TRUE,,,,,FEW,3500,,,,,,,VFR,,,,,,,,,,,,METAR,314.0
VTCT 271800Z 11003KT 9999 FEW030 OVC040 24/23 Q1011,VTCT,2018-03-27T18:00:00Z,19.95,99.88,24.0,23.0,110,3,,6.21,29.852362,,,,,,,,,,,FEW,3000,OVC,4000,,,,,VFR,,,,,,,,,,,,METAR,390.0
VTSG 271800Z 08004KT 040V110 9999 FEW020 25/22 Q1011,VTSG,2018-03-27T18:00:00Z,8.1,98.98,25.0,22.0,80,4,,6.21,29.852362,,,,,,,,,,,FEW,2000,,,,,,,VFR,,,,,,,,,,,,METAR,25.0
VTSP 271800Z 00000KT 8000 FEW020 SCT100 27/23 Q1010 NOSIG,VTSP,2018-03-27T18:00:00Z,8.12,98.32,27.0,23.0,0,0,,4.97,29.822834,,,,,,TRUE,,,,,FEW,2000,SCT,10000,,,,,MVFR,,,,,,,,,,,,METAR,10.0
VTSS 271800Z 28003KT 9999 FEW020 25/23 Q1011 NOSIG,VTSS,2018-03-27T18:00:00Z,6.92,100.38,25.0,23.0,280,3,,6.21,29.852362,,,,,,TRUE,,,,,FEW,2000,,,,,,,VFR,,,,,,,,,,,,METAR,35.0
VTUK 271800Z 02002KT 6000 NSC 24/20 Q1011 NOSIG,VTUK,2018-03-27T18:00:00Z,16.47,102.78,24.0,20.0,20,2,,3.73,29.852362,,,,,,TRUE,,,,,CLR,,,,,,,,MVFR,,,,,,,,,,,,METAR,204.0
UHBB 271800Z 02010MPS 0900 R36/1200D +SHSNRA VV004 M01/M01 Q0993 R36/090060 NOSIG RMK QBB120 QFE728/0970,UHBB,2018-03-27T18:00:00Z,50.43,127.42,-1.0,-1.0,20,19,,0.56,29.320866,,,,,,TRUE,,,,+SHSN RA,OVX,0,,,,,,,LIFR,,,,,,,,,,,400,METAR,195.0
UHHH 271800Z 11002MPS CAVOK 03/M02 Q0992 R23L/090060 NOSIG RMK QFE738/0984,UHHH,2018-03-27T18:00:00Z,48.52,135.18,3.0,-2.0,110,4,,6.21,29.291338,,,,,,TRUE,,,,,CAVOK,,,,,,,,VFR,,,,,,,,,,,,METAR,72.0
UHPP 271800Z 01004MPS 9999 NSC M09/M12 Q1011 R34L/CLRD70 NOSIG RMK QFE755/1006,UHPP,2018-03-27T18:00:00Z,53.17,158.45,-9.0,-12.0,10,8,,6.21,29.852362,,,,,,TRUE,,,,,CLR,,,,,,,,VFR,,,,,,,,,,,,METAR,40.0
UHWW 271800Z 20003MPS 0100 0050W R25L/0400U FG VV001 00/M00 Q1002 R25L/0///70 NOSIG RMK QBB030 MT OBSC QFE750,UHWW,2018-03-27T18:00:00Z,43.4,132.15,0.0,0.0,200,6,,0.06,29.586615,,,,,,TRUE,,,,FG,OVX,0,,,,,,,LIFR,,,,,,,,,,,100,METAR,14.0
UHMA 271800Z 01004MPS 9999 FEW016 M21/M25 Q1009 RMK END R01/01003MPS QFE753/1004,UHMA,2018-03-27T18:00:00Z,64.73,177.73,-21.0,-25.0,10,8,,6.21,29.793306,,,,,,,,,,,FEW,1600,,,,,,,VFR,,,,,,,,,,,,METAR,62.0
UHMM 271800Z 10009MPS 2400 1100W R10/1100D SHSN BLSN VV007 M06/M08 Q0996 RMK QFE733,UHMM,2018-03-27T18:00:00Z,59.92,150.72,-6.0,-8.0,100,17,,1.49,29.409449,,,,,,,,,,BLSN SHSN,OVX,0,,,,,,,LIFR,,,,,,,,,,,700,METAR,175.0
UHSS 271800Z 12002MPS 5000 BR BKN016 05/03 Q1005 R19/150065 NOSIG RMK MT OBSC QFE752/1003,UHSS,2018-03-27T18:00:00Z,46.88,142.72,5.0,3.0,120,4,,3.11,29.675198,,,,,,TRUE,,,,BR,BKN,1600,,,,,,,MVFR,,,,,,,,,,,,METAR,31.0
VDPP 271800Z VRB03KT 9000 FEW017 27/23 Q1009,VDPP,2018-03-27T18:00:00Z,11.55,104.83,27.0,23.0,0,3,,5.59,29.793306,,,,,,,,,,,FEW,1700,,,,,,,VFR,,,,,,,,,,,,METAR,10.0
VDSR 271800Z VRB02KT 9000 SCT015 26/24 Q1009,VDSR,2018-03-27T18:00:00Z,13.42,103.83,26.0,24.0,0,2,,5.59,29.793306,,,,,,,,,,,SCT,1500,,,,,,,VFR,,,,,,,,,,,,METAR,15.0
VYYY 271800Z 21003KT 7000 NSC 26/23 Q1010,VYYY,2018-03-27T18:00:00Z,16.9,96.13,26.0,23.0,210,3,,4.35,29.822834,,,,,,,,,,,CLR,,,,,,,,MVFR,,,,,,,,,,,,METAR,33.0
VVCR 271800Z 36004KT 9999 FEW017 26/19 Q1013 NOSIG,VVCR,2018-03-27T18:00:00Z,12.0,109.22,26.0,19.0,360,4,,6.21,29.911417,,,,,,TRUE,,,,,FEW,1700,,,,,,,VFR,,,,,,,,,,,,METAR,12.0
VVCI 271800Z 15003KT CAVOK 22/19 Q1013 NOSIG,VVCI,2018-03-27T18:00:00Z,20.82,106.73,22.0,19.0,150,3,,6.21,29.911417,,,,,,TRUE,,,,,CAVOK,,,,,,,,VFR,,,,,,,,,,,,METAR,3.0
VVCT 271800Z 13007KT 7000 FEW015 SCT040 26/22 Q1011 NOSIG,VVCT,2018-03-27T18:00:00Z,10.08,105.72,26.0,22.0,130,7,,4.35,29.852362,,,,,,TRUE,,,,,FEW,1500,SCT,4000,,,,,MVFR,,,,,,,,,,,,METAR,3.0
VVDN 271800Z VRB02KT 7000 FEW015 23/21 Q1015 NOSIG,VVDN,2018-03-27T18:00:00Z,16.02,108.2,23.0,21.0,0,2,,4.35,29.970472,,,,,,TRUE,,,,,FEW,1500,,,,,,,MVFR,,,,,,,,,,,,METAR,7.0
VVNB 271800Z 10006KT 4700 BR FEW009 SCT019 22/19 Q1013 NOSIG,VVNB,2018-03-27T18:00:00Z,21.22,105.8,22.0,19.0,100,6,,2.92,29.911417,,,,,,TRUE,,,,BR,FEW,900,SCT,1900,,,,,IFR,,,,,,,,,,,,METAR,12.0
VVPB 271800Z 15002KT 5000 BR FEW020 20/20 Q1014 NOSIG,VVPB,2018-03-27T18:00:00Z,16.38,107.7,20.0,20.0,150,2,,3.11,29.940945,,,,,,TRUE,,,,BR,FEW,2000,,,,,,,MVFR,,,,,,,,,,,,METAR,17.0
VVTS 271800Z 14007KT 120V190 9999 SCT017 27/23 Q1010 NOSIG,VVTS,2018-03-27T18:00:00Z,10.82,106.67,27.0,23.0,140,7,,6.21,29.822834,,,,,,TRUE,,,,,SCT,1700,,,,,,,VFR,,,,,,,,,,,,METAR,19.0
LEHC 271800Z AUTO 28022KT 9999 FEW070 14/06 Q1021,LEHC,2018-03-27T18:00:00Z,42.08,-0.32,14.0,6.0,280,22,,6.21,30.147638,,,TRUE,,,,,,,,FEW,7000,,,,,,,VFR,,,,,,,,,,,,METAR,539.0
LEBG 271800Z 23006KT 200V260 9999 FEW050 15/06 Q1024,LEBG,2018-03-27T18:00:00Z,42.37,-3.62,15.0,6.0,230,6,,6.21,30.236221,,,,,,,,,,,FEW,5000,,,,,,,VFR,,,,,,,,,,,,METAR,891.0
LEBA 271800Z 21001KT CAVOK 21/10 Q1023,LEBA,2018-03-27T18:00:00Z,37.85,-4.82,21.0,10.0,210,1,,6.21,30.206694,,,,,,,,,,,CAVOK,,,,,,,,VFR,,,,,,,,,,,,METAR,92.0
LECH 271800Z AUTO 21006KT 9999 NCD 18/05 Q1020,LECH,2018-03-27T18:00:00Z,40.2,0.07,18.0,5.0,210,6,,6.21,30.11811,,,TRUE,,,,,,,,CLR,,,,,,,,VFR,,,,,,,,,,,,METAR,337.0
GEML 271800Z 14005KT 080V190 CAVOK 18/11 Q1024,GEML,2018-03-27T18:00:00Z,35.27,-2.95,18.0,11.0,140,5,,6.21,30.236221,,,,,,,,,,,CAVOK,,,,,,,,VFR,,,,,,,,,,,,METAR,55.0
LKPD 271800Z 08003KT 9999 SCT045 03/00 Q1012 NOSIG RMK BLU BLU,LKPD,2018-03-27T18:00:00Z,50.02,15.73,3.0,0.0,80,3,,6.21,29.88189,,,,,,TRUE,,,,,SCT,4500,,,,,,,VFR,,,,,,,,,,,,SPECI,226.0
LKNA 271800Z 02003KT CAVOK 04/M05 Q1012 NOSIG RMK BLU BLU,LKNA,2018-03-27T18:00:00Z,49.17,16.12,4.0,-5.0,20,3,,6.21,29.88189,,,,,,TRUE,,,,,CAVOK,,,,,,,,VFR,,,,,,,,,,,,SPECI,472.0
LKLN 271800Z AUTO 22006KT 9999 SCT054 BKN065 BKN085 05/M02 Q1011,LKLN,2018-03-27T18:00:00Z,49.68,13.27,5.0,-2.0,220,6,,6.21,29.852362,,,TRUE,,,,,,,,SCT,5400,BKN,6500,BKN,8500,,,VFR,,,,,,,,,,,,METAR,362.0
LKKB 271800Z 16004KT 110V220 9999 -SHRA SCT030 BKN050 05/00 Q1012 NOSIG,LKKB,2018-03-27T18:00:00Z,50.12,14.53,5.0,0.0,160,4,,6.21,29.88189,,,,,,TRUE,,,,-SHRA,SCT,3000,BKN,5000,,,,,VFR,,,,,,,,,,,,METAR,286.0
LKCV 271800Z VRB02KT CAVOK 04/00 Q1012 NOSIG RMK BLU BLU,LKCV,2018-03-27T18:00:00Z,49.93,15.38,4.0,0.0,0,2,,6.21,29.88189,,,,,,TRUE,,,,,CAVOK,,,,,,,,VFR,,,,,,,,,,,,SPECI,242.0
SBMQ 271800Z 06007KT 9999 SCT027 BKN100 34/24 Q1008,SBMQ,2018-03-27T18:00:00Z,0.05,-51.07,34.0,24.0,60,7,,6.21,29.763779,,,,,,,,,,,SCT,2700,BKN,10000,,,,,VFR,,,,,,,,,,,,METAR,15.0
TGPY 271800Z 09015KT 9999 SCT021 29/24 Q1011 NOSIG,TGPY,2018-03-27T18:00:00Z,12.0,-61.78,29.0,24.0,90,15,,6.21,29.852362,,,,,,TRUE,,,,,SCT,2100,,,,,,,VFR,,,,,,,,,,,,METAR,7.0
TNCA 271800Z 08019KT 9999 SCT025 31/24 Q1011 NOSIG,TNCA,2018-03-27T18:00:00Z,12.5,-70.0,31.0,24.0,80,19,,6.21,29.852362,,,,,,TRUE,,,,,SCT,2500,,,,,,,VFR,,,,,,,,,,,,METAR,18.0
LPLA 271800Z /////KT 9999 FEW025 20/15 Q1031,LPLA,2018-03-27T18:00:00Z,38.77,-27.1,20.0,15.0,,,,6.21,30.442913,,,,,,,,,,,FEW,2500,,,,,,,VFR,,,,,,,,,,,,SPECI,55.0
LEMO 271800Z 04004KT CAVOK 20/11 Q1023 NOSIG,LEMO,2018-03-27T18:00:00Z,37.17,-5.62,20.0,11.0,40,4,,6.21,30.206694,,,,,,TRUE,,,,,CAVOK,,,,,,,,VFR,,,,,,,,,,,,METAR,88.0
TVSM 271800Z 09010KT 9999 SCT020 30/22 Q1011 NOSIG ,TVSM,2018-03-27T18:00:00Z,12.88,-61.18,30.0,22.0,90,10,,6.21,29.852362,,,,,,TRUE,,,,,SCT,2000,,,,,,,VFR,,,,,,,,,,,,METAR,2.0
TVSA 271800Z 08009KT 9999 BKN018 29/23 Q1012 NOSIG ,TVSA,2018-03-27T18:00:00Z,13.15,-61.15,29.0,23.0,80,9,,6.21,29.88189,,,,,,TRUE,,,,,BKN,1800,,,,,,,MVFR,,,,,,,,,,,,METAR,17.0
ORER 271800Z 09003KT 9000 NSC 19/05 Q1017 NOSIG,ORER,2018-03-27T18:00:00Z,36.23,43.97,19.0,5.0,90,3,,5.59,30.029528,,,,,,TRUE,,,,,CLR,,,,,,,,VFR,,,,,,,,,,,,METAR,409.0
ORNI 271800Z 36004KT 6000 FEW040 25/07 Q1014 NOSIG,ORNI,2018-03-27T18:00:00Z,31.98,44.4,25.0,7.0,360,4,,3.73,29.940945,,,,,,TRUE,,,,,FEW,4000,,,,,,,MVFR,,,,,,,,,,,,METAR,53.0
ORMM 271800Z 30004KT CAVOK 29/07 Q1013 NOSIG,ORMM,2018-03-27T18:00:00Z,30.57,47.67,29.0,7.0,300,4,,6.21,29.911417,,,,,,TRUE,,,,,CAVOK,,,,,,,,VFR,,,,,,,,,,,,METAR,2.0
RKNY 271800Z AUTO 25015KT 220V290 6000 NCD 16/06 Q1011,RKNY,2018-03-27T18:00:00Z,38.07,128.67,16.0,6.0,250,15,,3.73,29.852362,,,TRUE,,,,,,,,CLR,,,,,,,,MVFR,,,,,,,,,,,,METAR,74.0
RKJB 271800Z AUTO 07003KT 3400 BR NCD 09/07 Q1018,RKJB,2018-03-27T18:00:00Z,34.98,126.38,9.0,7.0,70,3,,2.11,30.059055,,,TRUE,,,,,,,BR,CLR,,,,,,,,IFR,,,,,,,,,,,,METAR,2.0
RKTN 271800Z 29003KT CAVOK 11/04 Q1016 NOSIG,RKTN,2018-03-27T18:00:00Z,35.88,128.65,11.0,4.0,290,3,,6.21,30.0,,,,,,TRUE,,,,,CAVOK,,,,,,,,VFR,,,,,,,,,,,,METAR,35.0
RKTU 271800Z 09003KT 6000 NSC 08/07 Q1017 NOSIG,RKTU,2018-03-27T18:00:00Z,36.7,127.5,8.0,7.0,90,3,,3.73,30.029528,,,,,,TRUE,,,,,CLR,,,,,,,,MVFR,,,,,,,,,,,,METAR,66.0
RKPK 271800Z 04003KT CAVOK 08/05 Q1017 NOSIG,RKPK,2018-03-27T18:00:00Z,35.17,128.92,8.0,5.0,40,3,,6.21,30.029528,,,,,,TRUE,,,,,CAVOK,,,,,,,,VFR,,,,,,,,,,,,METAR,15.0
RKPC 271800Z 21002KT 6000 NSC 09/03 Q1018 NOSIG,RKPC,2018-03-27T18:00:00Z,33.5,126.48,9.0,3.0,210,2,,3.73,30.059055,,,,,,TRUE,,,,,CLR,,,,,,,,MVFR,,,,,,,,,,,,METAR,27.0
RKSS 271800Z 17003KT 140V210 2500 BR NSC 09/05 Q1016 NOSIG,RKSS,2018-03-27T18:00:00Z,37.53,126.78,9.0,5.0,170,3,,1.55,30.0,,,,,,TRUE,,,,BR,CLR,,,,,,,,IFR,,,,,,,,,,,,METAR,19.0
RKSI 271800Z 13007KT 2400 BR NSC 08/06 Q1016 NOSIG,RKSI,2018-03-27T18:00:00Z,37.47,126.45,8.0,6.0,130,7,,1.49,30.0,,,,,,TRUE,,,,BR,CLR,,,,,,,,IFR,,,,,,,,,,,,METAR,7.0
LFRK 271800Z AUTO 27018KT 9999 OVC025 10/05 Q1011 TEMPO 27015G25KT,LFRK,2018-03-27T18:00:00Z,49.17,-0.45,10.0,5.0,270,18,,6.21,29.852362,,,TRUE,,,,,,,,OVC,2500,,,,,,,MVFR,,,,,,,,,,,,SPECI,67.0
LFRH 271800Z AUTO 27010KT 9999 BKN019 OVC025 11/10 Q1015 TEMPO 0800 BCFG BKN003,LFRH,2018-03-27T18:00:00Z,47.77,-3.45,11.0,10.0,270,10,,6.21,29.970472,,,TRUE,,,,,,,,BKN,1900,OVC,2500,,,,,MVFR,,,,,,,,,,,,SPECI,44.0
LFAT 271800Z AUTO 26010KT 210V280 8000 SCT008 SCT048 OVC054 09/08 Q1006 NOSIG,LFAT,2018-03-27T18:00:00Z,50.52,1.62,9.0,8.0,260,10,,4.97,29.704725,,,TRUE,,,TRUE,,,,,SCT,800,SCT,4800,OVC,5400,,,MVFR,,,,,,,,,,,,METAR,14.0
FBSK 271800Z 11003KT CAVOK 21/16 Q1021 NOSIG,FBSK,2018-03-27T18:00:00Z,-24.55,25.92,21.0,16.0,110,3,,6.21,30.147638,,,,,,TRUE,,,,,CAVOK,,,,,,,,VFR,,,,,,,,,,,,METAR,1005.0
UMMS 271800Z 05002MPS CAVOK M02/M14 Q1012 R31/CLRD// NOSIG,UMMS,2018-03-27T18:00:00Z,53.88,28.03,-2.0,-14.0,50,4,,6.21,29.88189,,,,,,TRUE,,,,,CAVOK,,,,,,,,VFR,,,,,,,,,,,,SPECI,205.0
LPPD 271800Z 26010KT 9999 FEW018 BKN035 17/14 Q1031,LPPD,2018-03-27T18:00:00Z,37.72,-25.68,17.0,14.0,260,10,,6.21,30.442913,,,,,,,,,,,FEW,1800,BKN,3500,,,,,VFR,,,,,,,,,,,,METAR,72.0
LPAZ 271800Z 29006KT 9999 FEW030 18/11 Q1031,LPAZ,2018-03-27T18:00:00Z,36.97,-25.17,18.0,11.0,290,6,,6.21,30.442913,,,,,,,,,,,FEW,3000,,,,,,,VFR,,,,,,,,,,,,METAR,100.0
LPPT 271800Z 32007KT CAVOK 20/08 Q1026,LPPT,2018-03-27T18:00:00Z,38.77,-9.12,20.0,8.0,320,7,,6.21,30.295275,,,,,,,,,,,CAVOK,,,,,,,,VFR,,,,,,,,,,,,METAR,123.0
LPPS 271800Z 06016KT 030V090 9999 SCT015 17/12 Q1025,LPPS,2018-03-27T18:00:00Z,33.07,-16.35,17.0,12.0,60,16,,6.21,30.265747,,,,,,,,,,,SCT,1500,,,,,,,VFR,,,,,,,,,,,,METAR,82.0
LPPR 271800Z 31007KT 280V340 CAVOK 13/09 Q1028,LPPR,2018-03-27T18:00:00Z,41.22,-8.67,13.0,9.0,310,7,,6.21,30.35433,,,,,,,,,,,CAVOK,,,,,,,,VFR,,,,,,,,,,,,METAR,73.0
LPMA 271800Z 02016KT 9999 FEW015 18/11 Q1025,LPMA,2018-03-27T18:00:00Z,32.7,-16.77,18.0,11.0,20,16,,6.21,30.265747,,,,,,,,,,,FEW,1500,,,,,,,VFR,,,,,,,,,,,,METAR,55.0
LPFR 271800Z 25008KT CAVOK 17/14 Q1024,LPFR,2018-03-27T18:00:00Z,37.02,-7.97,17.0,14.0,250,8,,6.21,30.236221,,,,,,,,,,,CAVOK,,,,,,,,VFR,,,,,,,,,,,,METAR,4.0
LFSD 271800Z AUTO 19011KT 4300 -RA BR OVC005 07/07 Q1011,LFSD,2018-03-27T18:00:00Z,47.27,5.07,7.0,7.0,190,11,,2.67,29.852362,,,TRUE,,,,,,,-RA BR,OVC,500,,,,,,,IFR,,,,,,,,,,,,METAR,227.0
LFRT 271800Z AUTO 29009KT 9999 OVC022 10/06 Q1013,LFRT,2018-03-27T18:00:00Z,48.52,-2.85,10.0,6.0,290,9,,6.21,29.911417,,,TRUE,,,,,,,,OVC,2200,,,,,,,MVFR,,,,,,,,,,,,METAR,136.0
LFPN 271800Z AUTO 28012KT 240V300 9999 SCT024 BKN050 BKN060 11/08 Q1009 TEMPO 4000 -SHRA SCT020TCU,LFPN,2018-03-27T18:00:00Z,48.75,2.12,11.0,8.0,280,12,,6.21,29.793306,,,TRUE,,,,,,,,SCT,2400,BKN,5000,BKN,6000,,,VFR,,,,,,,,,,,,SPECI,164.0
LFPM 271800Z AUTO 27012KT 240V300 9999 FEW028 SCT033 BKN045 12/08 Q1009,LFPM,2018-03-27T18:00:00Z,48.62,2.67,12.0,8.0,270,12,,6.21,29.793306,,,TRUE,,,,,,,,FEW,2800,SCT,3300,BKN,4500,,,VFR,,,,,,,,,,,,METAR,92.0
TIST 271800Z 08005KT 10SM -RA SCT023 BKN034 OVC050 23/22 A2996 RMK AO2 P0000 T02280217 $,TIST,2018-03-27T18:00:00Z,18.33,-64.98,22.8,21.7,80,5,,10.0,29.958662,,,,TRUE,TRUE,,,,,-RA,SCT,2300,BKN,3400,OVC,5000,,,VFR,,,,,,0.005,,,,,,SPECI,7.0
KBTL 271800Z 22010KT 2SM BR OVC004 11/10 A2993 RMK AO2 T01060100 $,KBTL,2018-03-27T18:00:00Z,42.32,-85.23,10.6,10.0,220,10,,2.0,29.929134,,,,TRUE,TRUE,,,,,BR,OVC,400,,,,,,,LIFR,,,,,,,,,,,,SPECI,290.0
CYOA 271800Z 32011KT 8SM SKC M32/M34 A2971,CYOA,2018-03-27T18:00:00Z,64.7,-110.62,-32.0,-34.0,320,11,,8.0,29.71063,,,,,,,,,,,SKC,,,,,,,,VFR,,,,,,,,,,,,METAR,469.0
SYCJ 271800Z 07016KT 9999 SCT022 31/22 Q1011 NOSIG,SYCJ,2018-03-27T18:00:00Z,6.5,-58.25,31.0,22.0,70,16,,6.21,29.852362,,,,,,TRUE,,,,,SCT,2200,,,,,,,VFR,,,,,,,,,,,,METAR,30.0
TLPL 271800Z 10015KT 9999 SCT029 30/22 Q1013 NOSIG,TLPL,2018-03-27T18:00:00Z,13.75,-60.95,30.0,22.0,100,15,,6.21,29.911417,,,,,,TRUE,,,,,SCT,2900,,,,,,,VFR,,,,,,,,,,,,METAR,3.0
ULLI 271800Z 26003MPS CAVOK M06/M11 Q1014 R28L/090060 NOSIG,ULLI,2018-03-27T18:00:00Z,59.8,30.27,-6.0,-11.0,260,6,,6.21,29.940945,,,,,,TRUE,,,,,CAVOK,,,,,,,,VFR,,,,,,,,,,,,METAR,4.0
UUBW 271800Z 34002MPS CAVOK M05/M08 Q1010 R30/010055 NOSIG,UUBW,2018-03-27T18:00:00Z,55.55,38.15,-5.0,-8.0,340,4,,6.21,29.822834,,,,,,TRUE,,,,,CAVOK,,,,,,,,VFR,,,,,,,,,,,,METAR,115.0
UUDD 271800Z 03003MPS CAVOK M04/M10 Q1009 R88/520295 NOSIG,UUDD,2018-03-27T18:00:00Z,55.4,37.9,-4.0,-10.0,30,6,,6.21,29.793306,,,,,,TRUE,,,,,CAVOK,,,,,,,,VFR,,,,,,,,,,,,SPECI,168.0
UUDL 271800Z 31001MPS CAVOK M07/M16 Q1011 R23/010060 NOSIG RMK QFE750,UUDL,2018-03-27T18:00:00Z,57.57,40.17,-7.0,-16.0,310,2,,6.21,29.852362,,,,,,TRUE,,,,,CAVOK,,,,,,,,VFR,,,,,,,,,,,,METAR,88.0
UUEE 271800Z 36004MPS CAVOK M06/M15 Q1010 R06L/510251 R06R/510251 NOSIG,UUEE,2018-03-27T18:00:00Z,55.97,37.42,-6.0,-15.0,360,8,,6.21,29.822834,,,,,,TRUE,,,,,CAVOK,,,,,,,,VFR,,,,,,,,,,,,METAR,190.0
UUWW 271800Z 01003G08MPS CAVOK M06/M14 Q1010 R06/510345 NOSIG,UUWW,2018-03-27T18:00:00Z,55.6,37.27,-6.0,-14.0,10,6,16,6.21,29.822834,,,,,,TRUE,,,,,CAVOK,,,,,,,,VFR,,,,,,,,,,,,METAR,203.0
UUMO 271800Z 06003MPS CAVOK M04/M10 Q1011 R08/090060 NOSIG RMK QFE743/0991,UUMO,2018-03-27T18:00:00Z,55.52,37.5,-4.0,-10.0,60,6,,6.21,29.852362,,,,,,TRUE,,,,,CAVOK,,,,,,,,VFR,,,,,,,,,,,,METAR,174.0
ULWC 271800Z 27001MPS 9999 SCT026 M09/M14 Q1011 R03/710160 NOSIG RMK QFE748/0998,ULWC,2018-03-27T18:00:00Z,59.28,38.02,-9.0,-14.0,270,2,,6.21,29.852362,,,,,,TRUE,,,,,SCT,2600,,,,,,,VFR,,,,,,,,,,,,METAR,115.0
UUBC 271800Z 03004MPS 9999 -SN OVC028 M03/M07 Q1009 R31/290150 NOSIG RMK QFE740/0987,UUBC,2018-03-27T18:00:00Z,54.55,36.37,-3.0,-7.0,30,8,,6.21,29.793306,,,,,,TRUE,,,,-SN,OVC,2800,,,,,,,MVFR,,,,,,,,,,,,METAR,199.0
UUOB 271800Z 34004MPS 3100 BR OVC010 01/01 Q1005 R29/290055 NOSIG,UUOB,2018-03-27T18:00:00Z,50.65,36.58,1.0,1.0,340,8,,1.93,29.675198,,,,,,TRUE,,,,BR,OVC,1000,,,,,,,IFR,,,,,,,,,,,,METAR,224.0
UUOK 271800Z 33002MPS 3000 BR NSC 00/00 Q1005 R12/190065 NOSIG RMK QFE736/0982,UUOK,2018-03-27T18:00:00Z,51.75,36.28,0.0,0.0,330,4,,1.86,29.675198,,,,,,TRUE,,,,BR,CLR,,,,,,,,IFR,,,,,,,,,,,,METAR,209.0
UWGG 271800Z 01004MPS 2500 -SN OVC008 M04/M05 Q1009 R36L/490333 NOSIG RMK QFE749,UWGG,2018-03-27T18:00:00Z,56.23,43.78,-4.0,-5.0,10,8,,1.55,29.793306,,,,,,TRUE,,,,-SN,OVC,800,,,,,,,IFR,,,,,,,,,,,,SPECI,73.0
UWUU 271800Z 21004MPS 180V240 9999 OVC040 M02/M06 Q1011 R14R/1///56 NOSIG RMK QFE748/0997,UWUU,2018-03-27T18:00:00Z,54.57,55.87,-2.0,-6.0,210,8,,6.21,29.852362,,,,,,TRUE,,,,,OVC,4000,,,,,,,VFR,,,,,,,,,,,,SPECI,137.0
USCC 271800Z 12001MPS CAVOK M02/M06 Q1008 R27/000060 NOSIG RMK QFE736,USCC,2018-03-27T18:00:00Z,55.3,61.5,-2.0,-6.0,120,2,,6.21,29.763779,,,,,,TRUE,,,,,CAVOK,,,,,,,,VFR,,,,,,,,,,,,SPECI,234.0
USNN 271800Z 24002MPS CAVOK M14/M18 Q1005 R21/32//55 NOSIG RMK QFE749,USNN,2018-03-27T18:00:00Z,60.95,76.48,-14.0,-18.0,240,4,,6.21,29.675198,,,,,,TRUE,,,,,CAVOK,,,,,,,,VFR,,,,,,,,,,,,SPECI,54.0
USRR 271800Z 28002MPS 7000 NSC M16/M19 Q1004 R25/CLRD60 NOSIG RMK QFE748,USRR,2018-03-27T18:00:00Z,61.33,73.42,-16.0,-19.0,280,4,,4.35,29.64567,,,,,,TRUE,,,,,CLR,,,,,,,,MVFR,,,,,,,,,,,,SPECI,44.0
USSS 271800Z 22002MPS 180V250 CAVOK M05/M06 Q1006 R26L/250050 R26R/450337 NOSIG RMK QFE734/0979,USSS,2018-03-27T18:00:00Z,56.75,60.82,-5.0,-6.0,220,4,,6.21,29.704725,,,,,,TRUE,,,,,CAVOK,,,,,,,,VFR,,,,,,,,,,,,SPECI,233.0
URKA 271800Z 22003MPS 9999 BKN048 09/09 Q1010 R22/010070 NOSIG RMK QFE753/1004,URKA,2018-03-27T18:00:00Z,45.0,37.35,9.0,9.0,220,6,,6.21,29.822834,,,,,,TRUE,,,,,BKN,4800,,,,,,,VFR,,,,,,,,,,,,METAR,53.0
URKK 271800Z 25005MPS 9999 FEW026 11/08 Q1010 R23L/15//65 NOSIG RMK QFE754,URKK,2018-03-27T18:00:00Z,45.03,39.15,11.0,8.0,250,10,,6.21,29.822834,,,,,,TRUE,,,,,FEW,2600,,,,,,,VFR,,,,,,,,,,,,SPECI,34.0
URML 271800Z 14003MPS 9000 NSC 05/04 Q1011 R14/01//70 NOSIG RMK QFE758/1011,URML,2018-03-27T18:00:00Z,42.82,47.65,5.0,4.0,140,6,,5.59,29.852362,,,,,,TRUE,,,,,CLR,,,,,,,,VFR,,,,,,,,,,,,METAR,4.0
URMM 271800Z 00000MPS 8000 NSC 07/06 Q1011 R12/090070 TEMPO 0300 FG OVC002 RMK QFE730/0974,URMM,2018-03-27T18:00:00Z,44.22,43.1,7.0,6.0,0,0,,4.97,29.852362,,,,,,,,,,,CLR,,,,,,,,MVFR,,,,,,,,,,,,METAR,314.0
YABA 271800Z AUTO 31007KT 9999 // OVC038 16/12 Q1017,YABA,2018-03-27T18:00:00Z,-34.93,117.8,16.0,12.0,310,7,,6.21,30.029528,,,TRUE,,,,,,,,OVC,3800,,,,,,,VFR,,,,,,,,,,,,METAR,69.0
FVHA 271800Z 12006KT CAVOK 18/16 Q1023 NOSIG,FVHA,2018-03-27T18:00:00Z,-17.92,31.12,18.0,16.0,120,6,,6.21,30.206694,,,,,,TRUE,,,,,CAVOK,,,,,,,,VFR,,,,,,,,,,,,METAR,1503.0
FAUT 271800Z 06003KT CAVOK 22/17 Q1018,FAUT,2018-03-27T18:00:00Z,-31.52,28.67,22.0,17.0,60,3,,6.21,30.059055,,,,,,,,,,,CAVOK,,,,,,,,VFR,,,,,,,,,,,,METAR,732.0
FAPP 271800Z 07003KT 9999 FEW040 18/14 Q1023 NOSIG,FAPP,2018-03-27T18:00:00Z,-23.83,29.45,18.0,14.0,70,3,,6.21,30.206694,,,,,,TRUE,,,,,FEW,4000,,,,,,,VFR,,,,,,,,,,,,METAR,1242.0
FAPN 271800Z AUTO 29004KT //// 22/16 Q1021,FAPN,2018-03-27T18:00:00Z,-25.33,27.17,22.0,16.0,290,4,,,30.147638,,,TRUE,,,,,,,,,,,,,,,,,,,,,,,,,,,,METAR,1039.0
FAMM 271800Z 03002KT CAVOK 20/14 Q1023 NOSIG,FAMM,2018-03-27T18:00:00Z,-25.8,25.52,20.0,14.0,30,2,,6.21,30.206694,,,,,,TRUE,,,,,CAVOK,,,,,,,,VFR,,,,,,,,,,,,METAR,1277.0
FALA 271800Z 20004KT CAVOK 20/12 Q1024 NOSIG,FALA,2018-03-27T18:00:00Z,-25.92,27.92,20.0,12.0,200,4,,6.21,30.236221,,,,,,TRUE,,,,,CAVOK,,,,,,,,VFR,,,,,,,,,,,,METAR,1377.0
FAOR 271800Z 28006KT 190V310 CAVOK 20/10 Q1026 NOSIG,FAOR,2018-03-27T18:00:00Z,-26.12,28.22,20.0,10.0,280,6,,6.21,30.295275,,,,,,TRUE,,,,,CAVOK,,,,,,,,VFR,,,,,,,,,,,,METAR,1700.0
FALE 271800Z 02009KT CAVOK 23/20 Q1017 NOSIG,FALE,2018-03-27T18:00:00Z,-29.62,31.12,23.0,20.0,20,9,,6.21,30.029528,,,,,,TRUE,,,,,CAVOK,,,,,,,,VFR,,,,,,,,,,,,METAR,109.0
FAKN 271800Z 08005KT 9999 FEW020 21/16 Q1023 NOSIG,FAKN,2018-03-27T18:00:00Z,-25.38,31.1,21.0,16.0,80,5,,6.21,30.206694,,,,,,TRUE,,,,,FEW,2000,,,,,,,VFR,,,,,,,,,,,,METAR,862.0
FAKM 271800Z 06005KT CAVOK 19/08 Q1020,FAKM,2018-03-27T18:00:00Z,-28.8,24.77,19.0,8.0,60,5,,6.21,30.11811,,,,,,,,,,,CAVOK,,,,,,,,VFR,,,,,,,,,,,,METAR,1192.0
FAHS 271800Z AUTO 19003KT //// 13/06 Q1019,FAHS,2018-03-27T18:00:00Z,-24.37,31.02,13.0,6.0,190,3,,,30.088583,,,TRUE,,,,,,,,,,,,,,,,,,,,,,,,,,,,METAR,500.0
FAGG 271800Z 29007KT CAVOK 19/16 Q1009,FAGG,2018-03-27T18:00:00Z,-34.0,22.37,19.0,16.0,290,7,,6.21,29.793306,,,,,,,,,,,CAVOK,,,,,,,,VFR,,,,,,,,,,,,METAR,193.0
FAEL 271800Z 06005KT CAVOK 21/20 Q1012,FAEL,2018-03-27T18:00:00Z,-33.02,27.82,21.0,20.0,60,5,,6.21,29.88189,,,,,,,,,,,CAVOK,,,,,,,,VFR,,,,,,,,,,,,METAR,125.0
FACT 271800Z 32007KT CAVOK 18/15 Q1012 NOSIG,FACT,2018-03-27T18:00:00Z,-33.97,18.6,18.0,15.0,320,7,,6.21,29.88189,,,,,,TRUE,,,,,CAVOK,,,,,,,,VFR,,,,,,,,,,,,METAR,42.0
GMTA 271800Z 36004KT CAVOK 18/10 Q1024 NOSIG,GMTA,2018-03-27T18:00:00Z,35.17,-3.85,18.0,10.0,360,4,,6.21,30.236221,,,,,,TRUE,,,,,CAVOK,,,,,,,,VFR,,,,,,,,,,,,METAR,14.0
GMMZ 271800Z 12011KT 8000 NSC 23/M06 Q1024 NOSIG,GMMZ,2018-03-27T18:00:00Z,30.92,-6.9,23.0,-6.0,120,11,,4.97,30.236221,,,,,,TRUE,,,,,CLR,,,,,,,,MVFR,,,,,,,,,,,,METAR,1140.0
GMMC 271800Z 04012KT CAVOK 17/09 Q1023,GMMC,2018-03-27T18:00:00Z,33.57,-7.67,17.0,9.0,40,12,,6.21,30.206694,,,,,,,,,,,CAVOK,,,,,,,,VFR,,,,,,,,,,,,METAR,62.0
GMMB 271800Z AUTO 36011KT 340V050 //// R32/P2000N NCD 17/10 Q1024 NOSIG,GMMB,2018-03-27T18:00:00Z,33.65,-7.22,17.0,10.0,360,11,,1.24,30.236221,,,TRUE,,,TRUE,,,,,CLR,,,,,,,,IFR,,,,,,,,,,,,METAR,191.0
FAWK 271800Z AUTO 32003KT //// ///// Q1025,FAWK,2018-03-27T18:00:00Z,-25.82,28.22,,,320,3,,,30.265747,,,TRUE,,,,,,,,,,,,,,,,,,,,,,,,,,,,METAR,1500.0
FAWB 271800Z AUTO 25002KT //// 19/16 Q1022,FAWB,2018-03-27T18:00:00Z,-25.63,28.22,19.0,16.0,250,2,,,30.177166,,,TRUE,,,,,,,,,,,,,,,,,,,,,,,,,,,,METAR,1248.0
FAUP 271800Z 04005KT 9999 FEW050CB 29/03 Q1014 NOSIG,FAUP,2018-03-27T18:00:00Z,-28.38,21.27,29.0,3.0,40,5,,6.21,29.940945,,,,,,TRUE,,,,,FEW,5000,,,,,,,VFR,,,,,,,,,,,,METAR,836.0
FAPE 271800Z 04004KT 020V080 CAVOK 21/18 Q1008 NOSIG,FAPE,2018-03-27T18:00:00Z,-33.97,25.6,21.0,18.0,40,4,,6.21,29.763779,,,,,,TRUE,,,,,CAVOK,,,,,,,,VFR,,,,,,,,,,,,METAR,60.0
FQNP 271800Z /////KT 9999 BKN020 FEW025CB 25/23 Q1014 RMK CB TO SW/W VC TS,FQNP,2018-03-27T18:00:00Z,-15.08,39.27,25.0,23.0,,,,6.21,29.940945,,,,,,,,,,,BKN,2000,FEW,2500,,,,,MVFR,,,,,,,,,,,,SPECI,441.0
UUOO 271800Z 02002MPS 2700 -SNRA OVC004 00/00 Q1004 R30/290250 NOSIG RMK QFE740,UUOO,2018-03-27T18:00:00Z,51.82,39.23,0.0,0.0,20,4,,1.68,29.64567,,,,,,TRUE,,,,-SN -RA,OVC,400,,,,,,,LIFR,,,,,,,,,,,,SPECI,157.0
URMN 271800Z 21002MPS 9999 NSC 09/06 Q1010 R24/////// NOSIG RMK QFE721,URMN,2018-03-27T18:00:00Z,43.52,43.63,9.0,6.0,210,4,,6.21,29.822834,,,,,,TRUE,,,,,CLR,,,,,,,,VFR,,,,,,,,,,,,SPECI,445.0
URMT 271800Z 21002MPS 180V250 1500 1000W R25/P2000D BR BCFG NSC 07/06 Q1010 R25/190060 TEMPO 0400 FG BKN002 BKN020CB RMK QFE719,URMT,2018-03-27T18:00:00Z,45.12,42.12,7.0,6.0,210,4,,0.93,29.822834,,,,,,,,,,BCFG BR,CLR,,,,,,,,LIFR,,,,,,,,,,,,SPECI,453.0
URSS 271800Z 12001MPS 9999 NSC 12/09 Q1012 WS ALL RWY R06/090070 R02/////// NOSIG RMK R02/09001MPS QFE758,URSS,2018-03-27T18:00:00Z,43.45,39.95,12.0,9.0,120,2,,6.21,29.88189,,,,,,TRUE,,,,,CLR,,,,,,,,VFR,,,,,,,,,,,,METAR,16.0
URWA 271800Z 10003MPS CAVOK 05/02 Q1012 R09/010060 NOSIG RMK QFE761/1015,URWA,2018-03-27T18:00:00Z,46.28,48.02,5.0,2.0,100,6,,6.21,29.88189,,,,,,TRUE,,,,,CAVOK,,,,,,,,VFR,,,,,,,,,,,,SPECI,-20.0
URWW 271800Z 15006MPS 3800 BR NSC 04/04 Q1007 R06/290060 TEMPO 0300 FG,URWW,2018-03-27T18:00:00Z,48.78,44.33,4.0,4.0,150,12,,2.36,29.734253,,,,,,,,,,BR,CLR,,,,,,,,IFR,,,,,,,,,,,,SPECI,147.0
URWI 271800Z AUTO 18006MPS 9999 // NCD 08/07 Q1010,URWI,2018-03-27T18:00:00Z,46.37,44.33,8.0,7.0,180,12,,6.21,29.822834,,,TRUE,,,,,,,,CLR,,,,,,,,VFR,,,,,,,,,,,,SPECI,150.0
UNAA 271800Z 20006MPS CAVOK 00/M04 Q1020 R20/190060 NOSIG RMK QFE742,UNAA,2018-03-27T18:00:00Z,53.75,91.4,0.0,-4.0,200,12,,6.21,30.11811,,,,,,TRUE,,,,,CAVOK,,,,,,,,VFR,,,,,,,,,,,,SPECI,245.0
UNBB 271800Z 15003MPS CAVOK M03/M05 Q1018 R06/CLRD66 NOSIG RMK QFE741,UNBB,2018-03-27T18:00:00Z,53.37,83.53,-3.0,-5.0,150,6,,6.21,30.059055,,,,,,TRUE,,,,,CAVOK,,,,,,,,VFR,,,,,,,,,,,,METAR,255.0
UNEE 271800Z 20006MPS CAVOK M02/M08 Q1016 R23/921050 NOSIG RMK QFE739,UNEE,2018-03-27T18:00:00Z,55.27,86.08,-2.0,-8.0,200,12,,6.21,30.0,,,,,,TRUE,,,,,CAVOK,,,,,,,,VFR,,,,,,,,,,,,METAR,260.0
UNKL 271800Z 24005MPS 200V270 CAVOK M00/M08 Q1014 R29/CLRD65 NOSIG RMK QFE735,UNKL,2018-03-27T18:00:00Z,56.17,92.48,0.0,-8.0,240,10,,6.21,29.940945,,,,,,TRUE,,,,,CAVOK,,,,,,,,VFR,,,,,,,,,,,,METAR,276.0
UNNT 271800Z 22005MPS CAVOK M03/M06 Q1015 R25/150065 R34/150065 NOSIG RMK QFE751/1002,UNNT,2018-03-27T18:00:00Z,55.02,82.63,-3.0,-6.0,220,10,,6.21,29.970472,,,,,,TRUE,,,,,CAVOK,,,,,,,,VFR,,,,,,,,,,,,SPECI,111.0
UNOO 271800Z 23004MPS CAVOK M06/M09 Q1011 R25/CLRD60 NOSIG RMK QFE750,UNOO,2018-03-27T18:00:00Z,54.97,73.32,-6.0,-9.0,230,8,,6.21,29.852362,,,,,,TRUE,,,,,CAVOK,,,,,,,,VFR,,,,,,,,,,,,METAR,95.0
UNTT 271800Z 22008MPS CAVOK M02/M06 Q1012 NOSIG RMK QFE744,UNTT,2018-03-27T18:00:00Z,56.38,85.22,-2.0,-6.0,220,16,,6.21,29.88189,,,,,,TRUE,,,,,CAVOK,,,,,,,,VFR,,,,,,,,,,,,METAR,182.0
USTR 271800Z 01001MPS 8000 -SHSN BKN008 OVC040CB M03/M05 Q1007 R21/450260 TEMPO 1000 SHSN BR VV003 RMK QFE746/0995,USTR,2018-03-27T18:00:00Z,57.17,65.32,-3.0,-5.0,10,2,,4.97,29.734253,,,,,,,,,,-SHSN,BKN,800,OVC,4000,,,,,IFR,,,,,,,,,,,,SPECI,115.0
USPP 271800Z 04002MPS 8000 -SN BKN033 M06/M08 Q1008 R03/290250 NOSIG RMK QFE746,USPP,2018-03-27T18:00:00Z,57.92,56.02,-6.0,-8.0,40,4,,4.97,29.763779,,,,,,TRUE,,,,-SN,BKN,3300,,,,,,,MVFR,,,,,,,,,,,,SPECI,123.0
USHH 271800Z 27002MPS CAVOK M14/M20 Q1006 R24/010060 NOSIG RMK QFE750,USHH,2018-03-27T18:00:00Z,61.03,69.08,-14.0,-20.0,270,4,,6.21,29.704725,,,,,,TRUE,,,,,CAVOK,,,,,,,,VFR,,,,,,,,,,,,METAR,23.0
UWKD 271800Z 23002MPS 2300 -SNRA OVC038 M01/M01 Q1006 R29/620240 TEMPO 2000 SNRA RMK QFE743/0991,UWKD,2018-03-27T18:00:00Z,55.62,49.28,-1.0,-1.0,230,4,,1.43,29.704725,,,,,,,,,,-SN -RA,OVC,3800,,,,,,,IFR,,,,,,,,,,,,SPECI,126.0
UWKE 271800Z 22009MPS 9999 -SHSN DRSN OVC019CB M01/M03 Q1006 R21/450545 NOSIG RMK QFE738/0984,UWKE,2018-03-27T18:00:00Z,55.57,52.08,-1.0,-3.0,220,17,,6.21,29.704725,,,,,,TRUE,,,,-SHSN DRSN,OVC,1900,,,,,,,MVFR,,,,,,,,,,,,SPECI,196.0
UWKS 271800Z 03004MPS 2400 -SN BR SCT007 M04/M04 Q1006 R06/490535 TEMPO 1500 SN BR BKN004 RMK QFE739,UWKS,2018-03-27T18:00:00Z,56.08,47.35,-4.0,-4.0,30,8,,1.49,29.704725,,,,,,,,,,-SN BR,SCT,700,,,,,,,IFR,,,,,,,,,,,,METAR,170.0
UWLW 271800Z 17003MPS 8000 SCT033 02/M04 Q1007 R20/800555 NOSIG RMK QFE750,UWLW,2018-03-27T18:00:00Z,54.4,48.8,2.0,-4.0,170,6,,4.97,29.734253,,,,,,TRUE,,,,,SCT,3300,,,,,,,MVFR,,,,,,,,,,,,SPECI,66.0
UWOR 271800Z 23006MPS 9999 BKN040 M01/M03 Q1016 R25/810255 NOSIG RMK QFE739/0985,UWOR,2018-03-27T18:00:00Z,51.07,58.6,-1.0,-3.0,230,12,,6.21,30.0,,,,,,TRUE,,,,,BKN,4000,,,,,,,VFR,,,,,,,,,,,,METAR,277.0
UWOO 271800Z 10002MPS 9999 SCT048 M08/M09 Q1016 R26/810255 NOSIG RMK QFE751/1002,UWOO,2018-03-27T18:00:00Z,51.8,55.47,-8.0,-9.0,100,4,,6.21,30.0,,,,,,TRUE,,,,,SCT,4800,,,,,,,VFR,,,,,,,,,,,,SPECI,109.0
UWSS 271800Z 17005MPS 1000 R12/1600 SN BR OVC005 M00/M01 Q1009 R12/210355 TEMPO 0500 +SN FZFG RMK QFE745,UWSS,2018-03-27T18:00:00Z,51.57,46.07,0.0,-1.0,170,10,,0.62,29.793306,,,,,,,,,,SN BR,OVC,500,,,,,,,LIFR,,,,,,,,,,,,SPECI,166.0
UWWW 271800Z 22005MPS 9999 SCT033 M01/M05 Q1009 R15/420245 NOSIG RMK QFE745/0994,UWWW,2018-03-27T18:00:00Z,53.5,50.17,-1.0,-5.0,220,10,,6.21,29.793306,,,,,,TRUE,,,,,SCT,3300,,,,,,,VFR,,,,,,,,,,,,SPECI,146.0
USCM 271800Z 23005MPS 9000 SCT028 M04/M09 Q1012 R18/090060 TEMPO 25012MPS RMK QFE721,USCM,2018-03-27T18:00:00Z,53.4,58.75,-4.0,-9.0,230,10,,5.59,29.88189,,,,,,,,,,,SCT,2800,,,,,,,VFR,,,,,,,,,,,,METAR,435.0
UIAA 271800Z 31006MPS 9999 NSC M03/M15 Q1013 R29/CLRD70 NOSIG RMK QFE701/0935,UIAA,2018-03-27T18:00:00Z,52.02,113.32,-3.0,-15.0,310,12,,6.21,29.911417,,,,,,TRUE,,,,,CLR,,,,,,,,VFR,,,,,,,,,,,,SPECI,685.0
UIBB 271800Z AUTO 23003MPS 200V260 9999 // ///098/// M04/M04 Q1013 RMK QFE717/0956,UIBB,2018-03-27T18:00:00Z,56.37,101.7,-4.0,-4.0,230,6,,6.21,29.911417,,,TRUE,,,,,,,,,,,,,,,,,,,,,,,,,,,,METAR,490.0
UIII 271800Z 09002MPS CAVOK M06/M09 Q1017 R12/60D NOSIG RMK QFE720/0960,UIII,2018-03-27T18:00:00Z,52.27,104.4,-6.0,-9.0,90,4,,6.21,30.029528,,,,,,TRUE,,,,,CAVOK,,,,,,,,VFR,,,,,,,,,,,,METAR,513.0
UIUU 271800Z VRB01MPS 9999 NSC M05/M08 Q1018 R26/60D NOSIG RMK QFE719/0958,UIUU,2018-03-27T18:00:00Z,51.8,107.45,-5.0,-8.0,0,2,,6.21,30.059055,,,,,,TRUE,,,,,CLR,,,,,,,,VFR,,,,,,,,,,,,METAR,515.0
CWXL 271800Z AUTO 25012KT 05/M01 RMK AO1 PK WND 24017/1700 T00451008,CWXL,2018-03-27T18:00:00Z,49.73,-111.45,4.5,-0.8,250,12,,,,,,TRUE,TRUE,,,,,,,,,,,,,,,,,,,,,,,,,,,METAR,817.0
CWZV 271800Z AUTO 31014KT 06/ RMK AO1 PK WND 30026/1700 SLP230 T0059 53041,CWZV,2018-03-27T18:00:00Z,51.93,-131.02,5.9,,310,14,,,,1023.0,,TRUE,TRUE,,,,,,,,,,,,,,,,4.1,,,,,,,,,,,METAR,92.0
SBMO 271800Z 14011KT 9999 SCT030 29/21 Q1012,SBMO,2018-03-27T18:00:00Z,-9.52,-35.77,29.0,21.0,140,11,,6.21,29.88189,,,,,,,,,,,SCT,3000,,,,,,,VFR,,,,,,,,,,,,METAR,115.0
SBBV 271800Z 10011KT 9999 BKN040 BKN070 34/19 Q1009,SBBV,2018-03-27T18:00:00Z,2.85,-60.7,34.0,19.0,100,11,,6.21,29.793306,,,,,,,,,,,BKN,4000,BKN,7000,,,,,VFR,,,,,,,,,,,,METAR,140.0
MHTG 271800Z 09008KT 9999 SCT030 25/15 Q1020 A3012 NOSIG,MHTG,2018-03-27T18:00:00Z,14.07,-87.22,25.0,15.0,90,8,,6.21,30.11811,,,,,,TRUE,,,,,SCT,3000,,,,,,,VFR,,,,,,,,,,,,METAR,1004.0
MHLM 271800Z 35008KT 9999 SCT030 33/24 Q1013 A2992 NOSIG,MHLM,2018-03-27T18:00:00Z,15.45,-87.93,33.0,24.0,350,8,,6.21,29.911417,,,,,,TRUE,,,,,SCT,3000,,,,,,,VFR,,,,,,,,,,,,METAR,26.0
MHLC 271800Z 09006KT 9999 FEW025TCU 30/23 Q1014 A2995 NOSIG,MHLC,2018-03-27T18:00:00Z,15.75,-86.85,30.0,23.0,90,6,,6.21,29.940945,,,,,,TRUE,,,,,FEW,2500,,,,,,,VFR,,,,,,,,,,,,METAR,15.0
ORSU 271800Z 30005KT CAVOK 11/06 Q1020,ORSU,2018-03-27T18:00:00Z,35.57,45.32,11.0,6.0,300,5,,6.21,30.11811,,,,,,,,,,,CAVOK,,,,,,,,VFR,,,,,,,,,,,,METAR,761.0
YCIN 271800Z AUTO 00000KT 9999 // NCD 26/25 Q1004,YCIN,2018-03-27T18:00:00Z,-17.58,123.83,26.0,25.0,0,0,,6.21,29.64567,,,TRUE,,,,,,,,CLR,,,,,,,,VFR,,,,,,,,,,,,SPECI,91.0
YBRM 271800Z AUTO 29003KT 9999 // NCD 29/27 Q1005,YBRM,2018-03-27T18:00:00Z,-17.93,122.22,29.0,27.0,290,3,,6.21,29.675198,,,TRUE,,,,,,,,CLR,,,,,,,,VFR,,,,,,,,,,,,SPECI,9.0
YBRK 271800Z AUTO 14007KT 9999 // BKN027 OVC033 25/20 Q1010,YBRK,2018-03-27T18:00:00Z,-23.37,150.47,25.0,20.0,140,7,,6.21,29.822834,,,TRUE,,,,,,,,BKN,2700,OVC,3300,,,,,MVFR,,,,,,,,,,,,METAR,14.0
YFRT 271800Z AUTO 19006KT //// // ////// 16/14 Q1016,YFRT,2018-03-27T18:00:00Z,-30.83,128.12,16.0,14.0,190,6,,,30.0,,,TRUE,,,,,,,,,,,,,,,,,,,,,,,,,,,,METAR,156.0
YMAV 271800Z AUTO 02013KT //// // BKN096 OVC120 20/07 Q1010,YMAV,2018-03-27T18:00:00Z,-38.03,144.48,20.0,7.0,20,13,,,29.822834,,,TRUE,,,,,,,,BKN,9600,OVC,12000,,,,,,,,,,,,,,,,,METAR,8.0
YPEA 271800Z AUTO 18002KT 9999 // NCD 11/09 Q1019,YPEA,2018-03-27T18:00:00Z,-31.67,116.02,11.0,9.0,180,2,,6.21,30.088583,,,TRUE,,,,,,,,CLR,,,,,,,,VFR,,,,,,,,,,,,METAR,49.0
YMLT 271800Z AUTO 33010KT 9999 // SCT029 SCT036 BKN053 13/10 Q1011,YMLT,2018-03-27T18:00:00Z,-41.52,147.18,13.0,10.0,330,10,,6.21,29.852362,,,TRUE,,,,,,,,SCT,2900,SCT,3600,BKN,5300,,,VFR,,,,,,,,,,,,SPECI,178.0
YMHB 271800Z 35011KT 9999 FEW040 SCT060 BKN077 14/09 Q1009 RF00.0/000.2,YMHB,2018-03-27T18:00:00Z,-42.82,147.52,14.0,9.0,350,11,,6.21,29.793306,,,,,,,,,,,FEW,4000,SCT,6000,BKN,7700,,,VFR,,,,,,,,,,,,SPECI,27.0
YPKG 271800Z AUTO 12006KT 9999 // NCD 16/09 Q1017,YPKG,2018-03-27T18:00:00Z,-30.77,121.45,16.0,9.0,120,6,,6.21,30.029528,,,TRUE,,,,,,,,CLR,,,,,,,,VFR,,,,,,,,,,,,METAR,360.0
YSCB 271800Z 00000KT CAVOK 11/11 Q1017 NOSIG,YSCB,2018-03-27T18:00:00Z,-35.28,149.17,11.0,11.0,0,0,,6.21,30.029528,,,,,,TRUE,,,,,CAVOK,,,,,,,,VFR,,,,,,,,,,,,METAR,577.0
YPPD 271800Z AUTO 17003KT //// // NCD 27/25 Q1006,YPPD,2018-03-27T18:00:00Z,-20.37,118.62,27.0,25.0,170,3,,,29.704725,,,TRUE,,,,,,,,CLR,,,,,,,,,,,,,,,,,,,,METAR,6.0
YSDU 271800Z AUTO 11009KT 9999 // NCD 15/13 Q1015,YSDU,2018-03-27T18:00:00Z,-32.22,148.57,15.0,13.0,110,9,,6.21,29.970472,,,TRUE,,,,,,,,CLR,,,,,,,,VFR,,,,,,,,,,,,SPECI,275.0
YSNF 271800Z AUTO 06014KT 9999 // SCT020 23/19 Q1017,YSNF,2018-03-27T18:00:00Z,-29.02,167.92,23.0,19.0,60,14,,6.21,30.029528,,,TRUE,,,,,,,,SCT,2000,,,,,,,VFR,,,,,,,,,,,,SPECI,109.0
SBCT 271800Z 08007KT 9999 SCT013 BKN020 23/18 Q1019,SBCT,2018-03-27T18:00:00Z,-25.52,-49.17,23.0,18.0,80,7,,6.21,30.088583,,,,,,,,,,,SCT,1300,BKN,2000,,,,,MVFR,,,,,,,,,,,,METAR,908.0
MKJP 271800Z 20009KT 9999 FEW024 29/21 Q1014,MKJP,2018-03-27T18:00:00Z,17.92,-76.78,29.0,21.0,200,9,,6.21,29.940945,,,,,,,,,,,FEW,2400,,,,,,,VFR,,,,,,,,,,,,METAR,3.0
YSRI 271800Z AUTO 00000KT 9999 // BKN047 15/14 Q1016,YSRI,2018-03-27T18:00:00Z,-33.6,150.77,15.0,14.0,0,0,,6.21,30.0,,,TRUE,,,,,,,,BKN,4700,,,,,,,VFR,,,,,,,,,,,,SPECI,21.0
LZSL 271800Z 36005KT CAVOK 05/M04 Q1012,LZSL,2018-03-27T18:00:00Z,48.63,19.13,5.0,-4.0,360,5,,6.21,29.88189,,,,,,,,,,,CAVOK,,,,,,,,VFR,,,,,,,,,,,,METAR,313.0
LZPP 271800Z 01006KT 9999 SCT035 06/00 Q1013,LZPP,2018-03-27T18:00:00Z,48.62,17.83,6.0,0.0,10,6,,6.21,29.911417,,,,,,,,,,,SCT,3500,,,,,,,VFR,,,,,,,,,,,,METAR,161.0
LKMT 271800Z 16002KT 9999 BKN040 02/M00 Q1014 NOSIG,LKMT,2018-03-27T18:00:00Z,49.67,18.12,2.0,0.0,160,2,,6.21,29.940945,,,,,,TRUE,,,,,BKN,4000,,,,,,,VFR,,,,,,,,,,,,METAR,256.0
LKKV 271800Z VRB01KT CAVOK 02/M02 Q1010,LKKV,2018-03-27T18:00:00Z,50.2,12.92,2.0,-2.0,0,1,,6.21,29.822834,,,,,,,,,,,CAVOK,,,,,,,,VFR,,,,,,,,,,,,METAR,604.0
LZZI 271800Z 03004KT 9999 BKN039 03/M01 Q1013,LZZI,2018-03-27T18:00:00Z,49.23,18.62,3.0,-1.0,30,4,,6.21,29.911417,,,,,,,,,,,BKN,3900,,,,,,,VFR,,,,,,,,,,,,METAR,311.0
LKPR 271800Z 14004KT 090V170 CAVOK 04/M01 Q1012 NOSIG,LKPR,2018-03-27T18:00:00Z,50.1,14.27,4.0,-1.0,140,4,,6.21,29.88189,,,,,,TRUE,,,,,CAVOK,,,,,,,,VFR,,,,,,,,,,,,METAR,365.0
LKTB 271800Z 07010KT CAVOK 03/00 Q1013 NOSIG,LKTB,2018-03-27T18:00:00Z,49.13,16.68,3.0,0.0,70,10,,6.21,29.911417,,,,,,TRUE,,,,,CAVOK,,,,,,,,VFR,,,,,,,,,,,,METAR,246.0
MGGT 271800Z 36012KT 9999 BKN020 25/13 Q1025 A3027,MGGT,2018-03-27T18:00:00Z,14.57,-90.53,25.0,13.0,360,12,,6.21,30.265747,,,,,,,,,,,BKN,2000,,,,,,,MVFR,,,,,,,,,,,,METAR,1509.0
MBPV 271800Z 03008KT 9999 SCT015 25/19 Q1017,MBPV,2018-03-27T18:00:00Z,21.77,-72.27,25.0,19.0,30,8,,6.21,30.029528,,,,,,,,,,,SCT,1500,,,,,,,VFR,,,,,,,,,,,,METAR,5.0
SBCB 271800Z 09018KT 9999 FEW010 31/22 Q1015,SBCB,2018-03-27T18:00:00Z,-22.92,-42.08,31.0,22.0,90,18,,6.21,29.970472,,,,,,,,,,,FEW,1000,,,,,,,VFR,,,,,,,,,,,,METAR,4.0
ORBI 271800Z 22006KT CAVOK 24/06 Q1014 NOSIG,ORBI,2018-03-27T18:00:00Z,33.27,44.23,24.0,6.0,220,6,,6.21,29.940945,,,,,,TRUE,,,,,CAVOK,,,,,,,,VFR,,,,,,,,,,,,METAR,35.0
TAPA 271800Z 09008KT 9999 SCT023 28/21 Q1013 NOSIG,TAPA,2018-03-27T18:00:00Z,17.12,-61.78,28.0,21.0,90,8,,6.21,29.911417,,,,,,TRUE,,,,,SCT,2300,,,,,,,VFR,,,,,,,,,,,,METAR,14.0
SVBM 271800Z 09003KT 9999 BKN016 30/21 Q1014,SVBM,2018-03-27T18:00:00Z,10.05,-69.37,30.0,21.0,90,3,,6.21,29.940945,,,,,,,,,,,BKN,1600,,,,,,,MVFR,,,,,,,,,,,,METAR,614.0
MHAM 271800Z 04004KT 9999 FEW032 36/21,MHAM,2018-03-27T18:00:00Z,13.27,-87.65,36.0,21.0,40,4,,6.21,,,,,,,,,,,,FEW,3200,,,,,,,VFR,,,,,,,,,,,,METAR,5.0
MHTE 271800Z 08004KT 9999 FEW022TCU 31/24 Q1011 TCU NW HZ,MHTE,2018-03-27T18:00:00Z,15.78,-87.48,31.0,24.0,80,4,,6.21,29.852362,,,,,,,,,,HZ,FEW,2200,,,,,,,VFR,,,,,,,,,,,,SPECI,3.0
MHTR 271800Z 10008KT 9999 SCT025TCU 29/23 TCU E SW HZ,MHTR,2018-03-27T18:00:00Z,15.93,-85.93,29.0,23.0,100,8,,6.21,,,,,,,,,,,HZ,SCT,2500,,,,,,,VFR,,,,,,,,,,,,SPECI,3.0
MHYR 271800Z 09008KT 9999 SCT025TCU 31/16 TCU ALL HZ,MHYR,2018-03-27T18:00:00Z,15.13,-87.12,31.0,16.0,90,8,,6.21,,,,,,,,,,,HZ,SCT,2500,,,,,,,VFR,,,,,,,,,,,,SPECI,670.0
MHNO 271800Z 36006KT 9999 SCT040TCU 32/21 TCU E SW HZ,MHNO,2018-03-27T18:00:00Z,14.43,-89.18,32.0,21.0,360,6,,6.21,,,,,,,,,,,HZ,SCT,4000,,,,,,,VFR,,,,,,,,,,,,SPECI,2.0
MHSR 271800Z 02006KT 9999 BKN02527/14 HZ,MHSR,2018-03-27T18:00:00Z,14.78,-88.78,27.0,14.0,20,6,,6.21,,,,,,,,,,,HZ,,,,,,,,,,,,,,,,,,,,,SPECI,1079.0
MHCA 271800Z 05004KT 9999 BKN028TCU 30/20 Q1016 TCU ALL,MHCA,2018-03-27T18:00:00Z,14.9,-85.78,30.0,20.0,50,4,,6.21,30.0,,,,,,,,,,,BKN,2800,,,,,,,MVFR,,,,,,,,,,,,SPECI,442.0
MHCH 271800Z 02014KT 9999 BKN034 37/20 HZ,MHCH,2018-03-27T18:00:00Z,13.32,-87.15,37.0,20.0,20,14,,6.21,,,,,,,,,,,HZ,BKN,3400,,,,,,,VFR,,,,,,,,,,,,METAR,48.0
MHLE 271800Z 06004KT 9999 SCT024 22/11,MHLE,2018-03-27T18:00:00Z,14.32,-88.15,22.0,11.0,60,4,,6.21,,,,,,,,,,,,SCT,2400,,,,,,,VFR,,,,,,,,,,,,METAR,1100.0
OEDR 271800Z 05005KT CAVOK 27/02 Q1012 NOSIG,OEDR,2018-03-27T18:00:00Z,26.27,50.17,27.0,2.0,50,5,,6.21,29.88189,,,,,,TRUE,,,,,CAVOK,,,,,,,,VFR,,,,,,,,,,,,METAR,17.0
OEDF 271800Z 00000KT CAVOK 27/07 Q1013 NOSIG,OEDF,2018-03-27T18:00:00Z,26.47,49.8,27.0,7.0,0,0,,6.21,29.911417,,,,,,TRUE,,,,,CAVOK,,,,,,,,VFR,,,,,,,,,,,,METAR,22.0
SBGO 271800Z 34008KT 9999 SCT049 30/15 Q1016,SBGO,2018-03-27T18:00:00Z,-16.62,-49.22,30.0,15.0,340,8,,6.21,30.0,,,,,,,,,,,SCT,4900,,,,,,,VFR,,,,,,,,,,,,METAR,747.0
SBCP 271800Z 09011KT 9999 FEW020 30/20 Q1016,SBCP,2018-03-27T18:00:00Z,-21.7,-41.3,30.0,20.0,90,11,,6.21,30.0,,,,,,,,,,,FEW,2000,,,,,,,VFR,,,,,,,,,,,,METAR,11.0
OERK 271800Z 14003KT CAVOK 26/M06 Q1018 NOSIG,OERK,2018-03-27T18:00:00Z,24.95,46.72,26.0,-6.0,140,3,,6.21,30.059055,,,,,,TRUE,,,,,CAVOK,,,,,,,,VFR,,,,,,,,,,,,METAR,612.0
OEMA 271800Z 11010KT CAVOK 32/M11 Q1015 NOSIG,OEMA,2018-03-27T18:00:00Z,24.55,39.7,32.0,-11.0,110,10,,6.21,29.970472,,,,,,TRUE,,,,,CAVOK,,,,,,,,VFR,,,,,,,,,,,,METAR,631.0
OEJN 271800Z 00000KT 9999 FEW040 SCT200 29/19 Q1010 NOSIG,OEJN,2018-03-27T18:00:00Z,21.68,39.15,29.0,19.0,0,0,,6.21,29.822834,,,,,,TRUE,,,,,FEW,4000,SCT,20000,,,,,VFR,,,,,,,,,,,,METAR,15.0
SBRP 271800Z 36005KT 9999 SCT045 32/15 Q1015,SBRP,2018-03-27T18:00:00Z,-21.12,-47.77,32.0,15.0,360,5,,6.21,29.970472,,,,,,,,,,,SCT,4500,,,,,,,VFR,,,,,,,,,,,,METAR,549.0
SGAS 271800Z 03005KT 360V060 9999 BKN027 OVC080 21/19 Q1015RERA,SGAS,2018-03-27T18:00:00Z,-25.25,-57.52,21.0,19.0,30,5,,6.21,,,,,,,,,,,,BKN,2700,OVC,8000,,,,,MVFR,,,,,,,,,,,,SPECI,101.0
SEQM 271800Z 35013KT 9999 SCT033 BKN300 22/10 Q1022 NOSIG RMK A3020,SEQM,2018-03-27T18:00:00Z,-0.12,-78.35,22.0,10.0,350,13,,6.21,30.177166,,,,,,TRUE,,,,,SCT,3300,BKN,30000,,,,,VFR,,,,,,,,,,,,SPECI,2400.0
SEMT 271800Z 20006KT 9999 SCT020 28/21 Q1010 RMK A2982,SEMT,2018-03-27T18:00:00Z,-0.95,-80.67,28.0,21.0,200,6,,6.21,29.822834,,,,,,,,,,,SCT,2000,,,,,,,VFR,,,,,,,,,,,,SPECI,14.0
SELT 271800Z 18009KT 9999 BKN030 BKN300 20/09 Q1026,SELT,2018-03-27T18:00:00Z,-0.92,-78.62,20.0,9.0,180,9,,6.21,30.295275,,,,,,,,,,,BKN,3000,BKN,30000,,,,,MVFR,,,,,,,,,,,,METAR,2785.0
SETN 271800Z 29006KT 210V320 9999 FEW026 BKN100 29/27 Q1009 A2981,SETN,2018-03-27T18:00:00Z,0.98,-79.63,29.0,27.0,290,6,,6.21,29.793306,,,,,,,,,,,FEW,2600,BKN,10000,,,,,VFR,,,,,,,,,,,,METAR,10.0
SEGU 271800Z 04007KT 320V060 9999 FEW023 SCT030 OVC100 29/23 Q1009 NOSIG RMK A2980,SEGU,2018-03-27T18:00:00Z,-2.13,-79.87,29.0,23.0,40,7,,6.21,29.793306,,,,,,TRUE,,,,,FEW,2300,SCT,3000,OVC,10000,,,VFR,,,,,,,,,,,,SPECI,9.0
SERO 271800Z 30007KT 9999 FEW013 SCT100 BKN200 29/23 Q1009,SERO,2018-03-27T18:00:00Z,-3.43,-79.98,29.0,23.0,300,7,,6.21,29.793306,,,,,,,,,,,FEW,1300,SCT,10000,BKN,20000,,,VFR,,,,,,,,,,,,METAR,51.0
SESA 271800Z 35006KT 9999 FEW020 BKN090 28/23 Q1010,SESA,2018-03-27T18:00:00Z,-2.2,-80.97,28.0,23.0,350,6,,6.21,29.822834,,,,,,,,,,,FEW,2000,BKN,9000,,,,,VFR,,,,,,,,,,,,METAR,8.0
SETU 271800Z 08008KT 9999 OVC023 14/10 Q1030,SETU,2018-03-27T18:00:00Z,0.82,-77.7,14.0,10.0,80,8,,6.21,30.413385,,,,,,,,,,,OVC,2300,,,,,,,MVFR,,,,,,,,,,,,METAR,2940.0
SEAM 271800Z 18004KT 9999 FEW03 22/12 Q1024,SEAM,2018-03-27T18:00:00Z,-1.18,-78.57,22.0,12.0,180,4,,6.21,30.236221,,,,,,,,,,,,,,,,,,,,,,,,,,,,,,,METAR,2520.0
SERB 271800Z 04012KT 9999 SCT040 23/09 Q1026,SERB,2018-03-27T18:00:00Z,-1.62,-78.67,23.0,9.0,40,12,,6.21,30.295275,,,,,,,,,,,SCT,4000,,,,,,,VFR,,,,,,,,,,,,METAR,2796.0
SECA 271800Z 08012G22KT 060V120 9999 SCT040 30/14 Q1014,SECA,2018-03-27T18:00:00Z,-4.0,-79.37,30.0,14.0,80,12,22,6.21,29.940945,,,,,,,,,,,SCT,4000,,,,,,,VFR,,,,,,,,,,,,METAR,1121.0
SECU 271800Z 08010KT 9999 BKN040 23/10 Q1023,SECU,2018-03-27T18:00:00Z,-2.87,-78.97,23.0,10.0,80,10,,6.21,30.206694,,,,,,,,,,,BKN,4000,,,,,,,VFR,,,,,,,,,,,,METAR,2531.0
SEJD 271800Z 16001KT 1000 -RA BR SCT003 BKN013 OVC100 21/21 Q1015,SEJD,2018-03-27T18:00:00Z,-1.07,-77.58,21.0,21.0,160,1,,0.62,29.970472,,,,,,,,,,-RA BR,SCT,300,BKN,1300,OVC,10000,,,LIFR,,,,,,,,,,,,METAR,375.0
SESM 271800Z 07004KT 2000 -RA FEW003 SCT 3000FT OVC100 19/17 Q1017 A3005,SESM,2018-03-27T18:00:00Z,-1.5,-78.07,19.0,17.0,70,4,,1.24,30.029528,,,,,,,,,,-RA,FEW,300,OVC,10000,,,,,IFR,,,,,,,,,,,,METAR,1056.0
SECO 271800Z 29002KT 9999 SCT020 BKN100 22/22 Q1013 RMK A2993,SECO,2018-03-27T18:00:00Z,-0.45,-76.98,22.0,22.0,290,2,,6.21,29.911417,,,,,,,,,,,SCT,2000,BKN,10000,,,,,VFR,,,,,,,,,,,,METAR,220.0
SEST 271800Z 30010KT 9999 FEW020 30/23 Q1008 RMK A2980,SEST,2018-03-27T18:00:00Z,-0.9,-89.58,30.0,23.0,300,10,,6.21,29.763779,,,,,,,,,,,FEW,2000,,,,,,,VFR,,,,,,,,,,,,METAR,6.0
SENL 271800Z 19002KT 9999 SCT016 BKN100 24/22 Q1014,SENL,2018-03-27T18:00:00Z,0.1,-76.87,24.0,22.0,190,2,,6.21,29.940945,,,,,,,,,,,SCT,1600,BKN,10000,,,,,VFR,,,,,,,,,,,,METAR,293.0
SEMC 271800Z 12002KT 6000 HZ BKN023 BKN100 23/21 Q1016,SEMC,2018-03-27T18:00:00Z,-2.3,-78.12,23.0,21.0,120,2,,3.73,30.0,,,,,,,,,,HZ,BKN,2300,BKN,10000,,,,,MVFR,,,,,,,,,,,,METAR,1052.0
SCFA 271800Z 18010KT 9999 FEW020 BKN028 20/13 Q1012 NOSIG,SCFA,2018-03-27T18:00:00Z,-23.42,-70.42,20.0,13.0,180,10,,6.21,29.88189,,,,,,TRUE,,,,,FEW,2000,BKN,2800,,,,,MVFR,,,,,,,,,,,,METAR,120.0
SCAT 271800Z 33012KT 9999 BKN020 18/11 Q1014,SCAT,2018-03-27T18:00:00Z,-27.27,-70.77,18.0,11.0,330,12,,6.21,29.940945,,,,,,,,,,,BKN,2000,,,,,,,MVFR,,,,,,,,,,,,METAR,204.0
SCIE 271800Z 24012KT CAVOK 19/13 Q1014,SCIE,2018-03-27T18:00:00Z,-36.77,-73.07,19.0,13.0,240,12,,6.21,29.940945,,,,,,,,,,,CAVOK,,,,,,,,VFR,,,,,,,,,,,,METAR,16.0
SCCF 271800Z 26017KT 9999 FEW060 21/01 Q1022,SCCF,2018-03-27T18:00:00Z,-22.5,-68.9,21.0,1.0,260,17,,6.21,30.177166,,,,,,,,,,,FEW,6000,,,,,,,VFR,,,,,,,,,,,,METAR,2312.0
SCBA 271800Z 29013KT 9999 SCT030 BKN50 13/05 Q1004,SCBA,2018-03-27T18:00:00Z,-45.92,-71.67,13.0,5.0,290,13,,6.21,29.64567,,,,,,,,,,,SCT,3000,,,,,,,VFR,,,,,,,,,,,,SPECI,524.0
SCAR 271800Z 22008KT 190V250 CAVOK 25/15 Q1011,SCAR,2018-03-27T18:00:00Z,-18.35,-70.32,25.0,15.0,220,8,,6.21,29.852362,,,,,,,,,,,CAVOK,,,,,,,,VFR,,,,,,,,,,,,METAR,59.0
SCSE 271800Z 24009KT 9999 BKN015 16/12 Q1014,SCSE,2018-03-27T18:00:00Z,-29.92,-71.2,16.0,12.0,240,9,,6.21,29.940945,,,,,,,,,,,BKN,1500,,,,,,,MVFR,,,,,,,,,,,,METAR,146.0
SCDA 271800Z 21009KT 9999 OVC031 22/15 Q1012,SCDA,2018-03-27T18:00:00Z,-20.52,-70.17,22.0,15.0,210,9,,6.21,29.88189,,,,,,,,,,,OVC,3100,,,,,,,VFR,,,,,,,,,,,,METAR,52.0
SCTE 271800Z 02010KT 9999 SCT020 OVC050 16/11 Q1013 NOSIG,SCTE,2018-03-27T18:00:00Z,-41.42,-73.07,16.0,11.0,20,10,,6.21,29.911417,,,,,,TRUE,,,,,SCT,2000,OVC,5000,,,,,VFR,,,,,,,,,,,,METAR,86.0
SCQP 271800Z VRB04KT 9999 FEW022 18/13 Q1014,SCQP,2018-03-27T18:00:00Z,-38.92,-72.65,18.0,13.0,0,4,,6.21,29.940945,,,,,,,,,,,FEW,2200,,,,,,,VFR,,,,,,,,,,,,METAR,97.0
SCJO 271800Z 01002KT 9999 SCT030 OVC080 17/10 Q1014,SCJO,2018-03-27T18:00:00Z,-40.6,-73.03,17.0,10.0,10,2,,6.21,29.940945,,,,,,,,,,,SCT,3000,OVC,8000,,,,,VFR,,,,,,,,,,,,METAR,65.0
SCVD 271800Z 26008KT 9999 OVC031 18/11 Q1015,SCVD,2018-03-27T18:00:00Z,-39.65,-73.07,18.0,11.0,260,8,,6.21,29.970472,,,,,,,,,,,OVC,3100,,,,,,,VFR,,,,,,,,,,,,METAR,14.0
SCNT 271800Z 28007KT 230V360 CAVOK 12/M03 Q0998,SCNT,2018-03-27T18:00:00Z,-51.67,-72.53,12.0,-3.0,280,7,,6.21,29.468504,,,,,,,,,,,CAVOK,,,,,,,,VFR,,,,,,,,,,,,METAR,67.0
SCCI 271800Z 31016KT 9999 FEW040 SCT080 13/M07 Q0998 NOSIG,SCCI,2018-03-27T18:00:00Z,-53.0,-70.83,13.0,-7.0,310,16,,6.21,29.468504,,,,,,TRUE,,,,,FEW,4000,SCT,8000,,,,,VFR,,,,,,,,,,,,METAR,37.0
SCIP 271800Z 13008KT 9999 SCT025 BKN050 24/21 Q1022 R ESHRA NOSIG,SCIP,2018-03-27T18:00:00Z,-27.17,-109.43,24.0,21.0,130,8,,6.21,30.177166,,,,,,TRUE,,,,SHRA,SCT,2500,BKN,5000,,,,,VFR,,,,,,,,,,,,METAR,69.0
SCPQ 271800Z 35017G27KT 2000 -RA BR BKN004 OVC010 13/12 Q1011,SCPQ,2018-03-27T18:00:00Z,-42.33,-73.72,13.0,12.0,350,17,27,1.24,29.852362,,,,,,,,,,-RA BR,BKN,400,OVC,1000,,,,,LIFR,,,,,,,,,,,,METAR,5.0
SCGE 271800Z 17010KT CAVOK 21/15 Q1016,SCGE,2018-03-27T18:00:00Z,-37.38,-72.42,21.0,15.0,170,10,,6.21,30.0,,,,,,,,,,,CAVOK,,,,,,,,VFR,,,,,,,,,,,,METAR,114.0
SCRM 271800Z 26041G52KT 3000 DZ BKN025 01/M03 Q0976,SCRM,2018-03-27T18:00:00Z,-62.18,-58.98,1.0,-3.0,260,41,52,1.86,28.818897,,,,,,,,,,DZ,BKN,2500,,,,,,,IFR,,,,,,,,,,,,METAR,45.0
SCCH 271800Z 24008KT CAVOK 24/09 Q1012,SCCH,2018-03-27T18:00:00Z,-36.57,-72.02,24.0,9.0,240,8,,6.21,29.88189,,,,,,,,,,,CAVOK,,,,,,,,VFR,,,,,,,,,,,,METAR,148.0
SCTN 271800Z 01016KT 9999 FEW025 BKN060 14/10 Q1011,SCTN,2018-03-27T18:00:00Z,-42.92,-72.7,14.0,10.0,10,16,,6.21,29.852362,,,,,,,,,,,FEW,2500,BKN,6000,,,,,VFR,,,,,,,,,,,,METAR,4.0
SCCY 271800Z 21004KT 170V260 9999 -SHRA BKN033 OVC053 13/09 Q1004,SCCY,2018-03-27T18:00:00Z,-45.57,-72.1,13.0,9.0,210,4,,6.21,29.64567,,,,,,,,,,-SHRA,BKN,3300,OVC,5300,,,,,VFR,,,,,,,,,,,,METAR,311.0
SCIC 271800Z 20007KT CAVOK 25/11 Q1012,SCIC,2018-03-27T18:00:00Z,-34.97,-71.22,25.0,11.0,200,7,,6.21,29.88189,,,,,,,,,,,CAVOK,,,,,,,,VFR,,,,,,,,,,,,METAR,242.0
NIUE 271800Z 36005KT 330V030 9999 DZ SCT017 BKN030 OVC100 23/23 Q1008,NIUE,2018-03-27T18:00:00Z,-19.07,-169.92,23.0,23.0,360,5,,6.21,29.763779,,,,,,,,,,DZ,SCT,1700,BKN,3000,OVC,10000,,,MVFR,,,,,,,,,,,,METAR,20.0
SBTE 271800Z 13005KT 9999 BKN040 32/22 Q1009,SBTE,2018-03-27T18:00:00Z,-5.03,-42.82,32.0,22.0,130,5,,6.21,29.793306,,,,,,,,,,,BKN,4000,,,,,,,VFR,,,,,,,,,,,,METAR,69.0
SPHI 271800Z 20012KT CAVOK 28/20 Q1009 RMK SCT150 BIRD HAZARD RWY 19/01 PP000,SPHI,2018-03-27T18:00:00Z,-6.77,-79.82,28.0,20.0,200,12,,6.21,29.793306,,,,,,,,,,,CAVOK,,,,,,,,VFR,,,,,,,,,,,,SPECI,34.0
SPQT 271800Z 20005KT 9999 BKN017 29/23 Q1011 NOSIG RMK BIRD HAZARD PP000,SPQT,2018-03-27T18:00:00Z,-3.78,-73.32,29.0,23.0,200,5,,6.21,29.852362,,,,,,TRUE,,,,,BKN,1700,,,,,,,MVFR,,,,,,,,,,,,SPECI,126.0
SPQU 271800Z 26012KT 220V290 9999 FEW060 20/10 Q1024 NOSIG RMK PP000,SPQU,2018-03-27T18:00:00Z,-16.33,-71.57,20.0,10.0,260,12,,6.21,30.236221,,,,,,TRUE,,,,,FEW,6000,,,,,,,VFR,,,,,,,,,,,,SPECI,2554.0
SPRU 271800Z 16007KT 9999 BKN060 21/18 Q1010 RMK PP000,SPRU,2018-03-27T18:00:00Z,-8.08,-79.12,21.0,18.0,160,7,,6.21,29.822834,,,,,,,,,,,BKN,6000,,,,,,,VFR,,,,,,,,,,,,SPECI,30.0
SPSO 271800Z 30009KT CAVOK 22/19 Q1010 RMK BIRD HAZARD RWY 22/04 PP000,SPSO,2018-03-27T18:00:00Z,-13.73,-76.22,22.0,19.0,300,9,,6.21,29.822834,,,,,,,,,,,CAVOK,,,,,,,,VFR,,,,,,,,,,,,SPECI,10.0
SPTN 271800Z 22007KT 9999 FEW033 25/18 Q1012 RMK PP000,SPTN,2018-03-27T18:00:00Z,-18.07,-70.28,25.0,18.0,220,7,,6.21,29.88189,,,,,,,,,,,FEW,3300,,,,,,,VFR,,,,,,,,,,,,SPECI,458.0
SPLO 271800Z 17005KT CAVOK 24/19 Q1011 RMK PP000,SPLO,2018-03-27T18:00:00Z,-17.7,-71.35,24.0,19.0,170,5,,6.21,29.852362,,,,,,,,,,,CAVOK,,,,,,,,VFR,,,,,,,,,,,,METAR,9.0
SPJR 271800Z 20003KT 140V250 7000 -RA SCT025 OVC040 15/11 Q1026 RMK PP002,SPJR,2018-03-27T18:00:00Z,-7.12,-78.47,15.0,11.0,200,3,,4.35,30.295275,,,,,,,,,,-RA,SCT,2500,OVC,4000,,,,,MVFR,,,,,,,,,,,,SPECI,2622.0
SPJL 271800Z 36007KT 9999 SCT020 16/04 Q1031 RMK PP000,SPJL,2018-03-27T18:00:00Z,-15.47,-70.15,16.0,4.0,360,7,,6.21,30.442913,,,,,,,,,,,SCT,2000,,,,,,,VFR,,,,,,,,,,,,SPECI,3827.0
SPJI 271800Z 00000KT 9999 BKN030 29/24 Q1021 RMK PP000,SPJI,2018-03-27T18:00:00Z,-7.17,-76.72,29.0,24.0,0,0,,6.21,30.147638,,,,,,,,,,,BKN,3000,,,,,,,MVFR,,,,,,,,,,,,SPECI,363.0
SPHY 271800Z /////KT 8000 3000NE BCFG SCT013 BKN050 15/07 Q1033 RMK BIRD HAZARD RWY 03/21 PP000,SPHY,2018-03-27T18:00:00Z,-13.7,-73.35,15.0,7.0,,,,4.97,30.501968,,,,,,,,,,BCFG,SCT,1300,BKN,5000,,,,,MVFR,,,,,,,,,,,,SPECI,3548.0
SPHO 271800Z 35004KT 270V070 9999 FEW030 FEW035TCU 23/10 Q1024 RMK PP000,SPHO,2018-03-27T18:00:00Z,-13.17,-74.22,23.0,10.0,350,4,,6.21,30.236221,,,,,,,,,,,FEW,3000,FEW,3500,,,,,VFR,,,,,,,,,,,,SPECI,2749.0
SPGM 271800Z 07004KT 9999 SCT030 BKN090 28/21 Q1014 RMK BIRD HAZARD RWY19 PP000,SPGM,2018-03-27T18:00:00Z,-9.28,-76.0,28.0,21.0,70,4,,6.21,29.940945,,,,,,,,,,,SCT,3000,BKN,9000,,,,,VFR,,,,,,,,,,,,SPECI,665.0
SPCL 271800Z 17006KT 9999 BKN018 BKN080 27/21 Q1014 RMK PP000,SPCL,2018-03-27T18:00:00Z,-8.38,-74.58,27.0,21.0,170,6,,6.21,29.940945,,,,,,,,,,,BKN,1800,BKN,8000,,,,,MVFR,,,,,,,,,,,,SPECI,149.0
SPMS 271800Z 11004KT 9999 FEW015 BKN100 26/21 Q1013 RMK BIRD HAZARD RWY 09/27 PP000,SPMS,2018-03-27T18:00:00Z,-5.9,-76.12,26.0,21.0,110,4,,6.21,29.911417,,,,,,,,,,,FEW,1500,BKN,10000,,,,,VFR,,,,,,,,,,,,SPECI,179.0
SPST 271800Z 00000KT 9999 SCT020 SCT080 29/22 Q1013 RMK BIRD HAZARD RWY 17/35 PP000,SPST,2018-03-27T18:00:00Z,-6.52,-76.37,29.0,22.0,0,0,,6.21,29.911417,,,,,,,,,,,SCT,2000,SCT,8000,,,,,VFR,,,,,,,,,,,,SPECI,282.0
SPTU 271800Z VRB04KT 9999 SCT015 SCT200 28/17 Q1011 RMK BIRD HAZARD RWY 01/19 PP000,SPTU,2018-03-27T18:00:00Z,-12.62,-69.2,28.0,17.0,0,4,,6.21,29.852362,,,,,,,,,,,SCT,1500,SCT,20000,,,,,VFR,,,,,,,,,,,,SPECI,266.0
SPYL 271800Z 27010KT CAVOK 26/20 Q1010 RMK BIRD HAZARD RWY 17/35 PP000,SPYL,2018-03-27T18:00:00Z,-4.57,-81.25,26.0,20.0,270,10,,6.21,29.822834,,,,,,,,,,,CAVOK,,,,,,,,VFR,,,,,,,,,,,,SPECI,90.0
FMCZ 271800Z AUTO 34003KT 9999 NCD 27/25 Q1012 TEMPO 4000 SHRA BKN015CB,FMCZ,2018-03-27T18:00:00Z,-12.8,45.27,27.0,25.0,340,3,,6.21,29.88189,,,TRUE,,,,,,,,CLR,,,,,,,,VFR,,,,,,,,,,,,SPECI,7.0
YBMA 271800Z AUTO 12009KT 9999 // SCT064 BKN088 OVC115 28/18 Q1008,YBMA,2018-03-27T18:00:00Z,-20.67,139.47,28.0,18.0,120,9,,6.21,29.763779,,,TRUE,,,,,,,,SCT,6400,BKN,8800,OVC,11500,,,VFR,,,,,,,,,,,,METAR,344.0
YBCG 271800Z AUTO 20006KT 9999 // SCT040 SCT050 22/21 Q1013,YBCG,2018-03-27T18:00:00Z,-28.17,153.5,22.0,21.0,200,6,,6.21,29.911417,,,TRUE,,,,,,,,SCT,4000,SCT,5000,,,,,VFR,,,,,,,,,,,,METAR,6.0
YAMB 271800Z AUTO 19006KT 9999 // BKN035 OVC047 22/19 Q1013,YAMB,2018-03-27T18:00:00Z,-27.63,152.72,22.0,19.0,190,6,,6.21,29.911417,,,TRUE,,,,,,,,BKN,3500,OVC,4700,,,,,VFR,,,,,,,,,,,,METAR,28.0
SAZS 271800Z 30024KT 9999 SCT045 19/M04 Q1011,SAZS,2018-03-27T18:00:00Z,-41.13,-71.17,19.0,-4.0,300,24,,6.21,29.852362,,,,,,,,,,,SCT,4500,,,,,,,VFR,,,,,,,,,,,,METAR,840.0
WSSL 271800Z 24004KT CAVOK 25/22 Q1011 RMK 1430Z Q1011,WSSL,2018-03-27T18:00:00Z,1.42,103.87,25.0,22.0,240,4,,6.21,29.852362,,,,,,,,,,,CAVOK,,,,,,,,VFR,,,,,,,,,,,,SPECI,14.0
WSAP 271800Z 24003KT 9999 FEW016 BKN150 25/23 Q1011,WSAP,2018-03-27T18:00:00Z,1.37,103.92,25.0,23.0,240,3,,6.21,29.852362,,,,,,,,,,,FEW,1600,BKN,15000,,,,,VFR,,,,,,,,,,,,METAR,32.0
WADL 271800Z AUTO 00000KT 2700 NCD 25/24 Q1010,WADL,2018-03-27T18:00:00Z,-8.75,116.28,25.0,24.0,0,0,,1.68,29.822834,,,TRUE,,,,,,,,CLR,,,,,,,,IFR,,,,,,,,,,,,METAR,97.0
VOCB 271800Z 20008KT 6000 NSC 28/24 Q1014 NOSIG,VOCB,2018-03-27T18:00:00Z,11.02,77.03,28.0,24.0,200,8,,3.73,29.940945,,,,,,TRUE,,,,,CLR,,,,,,,,MVFR,,,,,,,,,,,,METAR,399.0
PLCH 271800Z 20005KT 50KM FEW020 28/23 Q1010,PLCH,2018-03-27T18:00:00Z,1.98,-157.35,28.0,23.0,200,5,,31.07,29.822834,,,,,,,,,,,FEW,2000,,,,,,,VFR,,,,,,,,,,,,METAR,3.0
NGTA 271800Z 10011KT 9999 FEW020 27/24 Q1007,NGTA,2018-03-27T18:00:00Z,1.37,173.13,27.0,24.0,100,11,,6.21,29.734253,,,,,,,,,,,FEW,2000,,,,,,,VFR,,,,,,,,,,,,METAR,2.0
LCPH 271800Z 36004KT CAVOK 13/08 Q1013,LCPH,2018-03-27T18:00:00Z,34.72,32.47,13.0,8.0,360,4,,6.21,29.911417,,,,,,,,,,,CAVOK,,,,,,,,VFR,,,,,,,,,,,,METAR,8.0
LCLK 271800Z 34003KT 300V020 9999 SCT003 18/07 Q1013 NOSIG,LCLK,2018-03-27T18:00:00Z,34.87,33.62,18.0,7.0,340,3,,6.21,29.911417,,,,,,TRUE,,,,,SCT,300,,,,,,,VFR,,,,,,,,,,,,METAR,2.0
OJAQ 271800Z 13006KT 6000 -RA SCT080 BKN200 28/11 Q1011 NOSIG,OJAQ,2018-03-27T18:00:00Z,29.62,35.02,28.0,11.0,130,6,,3.73,29.852362,,,,,,TRUE,,,,-RA,SCT,8000,BKN,20000,,,,,MVFR,,,,,,,,,,,,METAR,51.0
SBRJ 271800Z 17009KT 9999 FEW025 FEW030TCU 31/23 Q1014,SBRJ,2018-03-27T18:00:00Z,-22.88,-43.17,31.0,23.0,170,9,,6.21,29.940945,,,,,,,,,,,FEW,2500,FEW,3000,,,,,VFR,,,,,,,,,,,,METAR,3.0
HSSS 271800Z 32004KT CAVOK 37/04 Q1005 NOSIG,HSSS,2018-03-27T18:00:00Z,15.58,32.53,37.0,4.0,320,4,,6.21,29.675198,,,,,,TRUE,,,,,CAVOK,,,,,,,,VFR,,,,,,,,,,,,METAR,380.0
GQPP 271800Z 34018KT 7000 DRSA NSC 20/15 Q1013 NOSIG,GQPP,2018-03-27T18:00:00Z,20.92,-17.02,20.0,15.0,340,18,,4.35,29.911417,,,,,,TRUE,,,,DRSA,CLR,,,,,,,,MVFR,,,,,,,,,,,,METAR,3.0
UBBY 271800Z VRB02KT 9999 BKN100 14/08 Q1015 R33/////// NOSIG RMK MT OP,UBBY,2018-03-27T18:00:00Z,41.57,46.67,14.0,8.0,0,2,,6.21,29.970472,,,,,,TRUE,,,,,BKN,10000,,,,,,,VFR,,,,,,,,,,,,METAR,390.0
SPME 271800Z 36010KT 9999 SCT017 BKN030 29/19 Q1009 RMK BIRD HAZARD RWY 32/14 PP000,SPME,2018-03-27T18:00:00Z,-3.53,-80.4,29.0,19.0,360,10,,6.21,29.793306,,,,,,,,,,,SCT,1700,BKN,3000,,,,,MVFR,,,,,,,,,,,,SPECI,27.0
RPVM 271800Z 09001KT 9999 FEW020 OVC250 25/21 Q1009 NOSIG RMK A2980,RPVM,2018-03-27T18:00:00Z,10.32,123.98,25.0,21.0,90,1,,6.21,29.793306,,,,,,TRUE,,,,,FEW,2000,OVC,25000,,,,,VFR,,,,,,,,,,,,METAR,10.0
RPLL 271800Z VRB02KT 9999 FEW025 25/23 Q1010 NOSIG RMK A2983,RPLL,2018-03-27T18:00:00Z,14.52,121.0,25.0,23.0,0,2,,6.21,29.822834,,,,,,TRUE,,,,,FEW,2500,,,,,,,VFR,,,,,,,,,,,,METAR,21.0
SBGL 271800Z 13010KT 9999 FEW025 31/21 Q1014,SBGL,2018-03-27T18:00:00Z,-22.82,-43.25,31.0,21.0,130,10,,6.21,29.940945,,,,,,,,,,,FEW,2500,,,,,,,VFR,,,,,,,,,,,,METAR,6.0
RPLB 271800Z 06006KT 9999 BKN020 23/20 Q1009 NOSIG RMK A2980,RPLB,2018-03-27T18:00:00Z,14.8,120.27,23.0,20.0,60,6,,6.21,29.793306,,,,,,TRUE,,,,,BKN,2000,,,,,,,MVFR,,,,,,,,,,,,METAR,17.0
RPMD 271800Z 34004KT 9999 FEW016 BKN290 24/20 Q1008 RMK A2977,RPMD,2018-03-27T18:00:00Z,7.12,125.65,24.0,20.0,340,4,,6.21,29.763779,,,,,,,,,,,FEW,1600,BKN,29000,,,,,VFR,,,,,,,,,,,,METAR,18.0
SKBG 271800Z 24004KT 6000 SCT012 SCT070 27/20 A2994 RMK HZ,SKBG,2018-03-27T18:00:00Z,7.13,-73.18,27.0,20.0,240,4,,3.73,29.940945,,,,,,,,,,,SCT,1200,SCT,7000,,,,,MVFR,,,,,,,,,,,,METAR,1189.0
TLPC 271800Z 10009KT 9999 BKN025 30/21 Q1013 NOSIG,TLPC,2018-03-27T18:00:00Z,14.02,-61.0,30.0,21.0,100,9,,6.21,29.911417,,,,,,TRUE,,,,,BKN,2500,,,,,,,MVFR,,,,,,,,,,,,METAR,2.0
TDPD 271800Z 10009KT 9999 FEW024 28/19 Q1014,TDPD,2018-03-27T18:00:00Z,15.55,-61.3,28.0,19.0,100,9,,6.21,29.940945,,,,,,,,,,,FEW,2400,,,,,,,VFR,,,,,,,,,,,,METAR,14.0
SBMN 271800Z 10010KT 9999 SCT020 FEW025TCU 30/23 Q1008,SBMN,2018-03-27T18:00:00Z,-3.13,-59.97,30.0,23.0,100,10,,6.21,29.763779,,,,,,,,,,,SCT,2000,FEW,2500,,,,,VFR,,,,,,,,,,,,METAR,84.0
YLRE 271800Z AUTO 07008KT 040V110 9999 // NCD 24/18 Q1010,YLRE,2018-03-27T18:00:00Z,-23.43,144.28,24.0,18.0,70,8,,6.21,29.822834,,,TRUE,,,,,,,,CLR,,,,,,,,VFR,,,,,,,,,,,,METAR,193.0
YMAY 271800Z AUTO 00000KT 9999 // NCD 13/10 Q1016,YMAY,2018-03-27T18:00:00Z,-36.07,146.93,13.0,10.0,0,0,,6.21,30.0,,,TRUE,,,,,,,,CLR,,,,,,,,VFR,,,,,,,,,,,,METAR,171.0
YMDG 271800Z AUTO 14005KT 9999 // NCD 14/13 Q1017,YMDG,2018-03-27T18:00:00Z,-32.57,149.62,14.0,13.0,140,5,,6.21,30.029528,,,TRUE,,,,,,,,CLR,,,,,,,,VFR,,,,,,,,,,,,METAR,471.0
YMEK 271800Z AUTO 17007KT 9999 // NCD 25/14 Q1015,YMEK,2018-03-27T18:00:00Z,-26.62,118.55,25.0,14.0,170,7,,6.21,29.970472,,,TRUE,,,,,,,,CLR,,,,,,,,VFR,,,,,,,,,,,,METAR,522.0
YMEN 271800Z AUTO 36012KT 9999 // SCT100 BKN110 18/05 Q1011,YMEN,2018-03-27T18:00:00Z,-37.72,144.9,18.0,5.0,360,12,,6.21,29.852362,,,TRUE,,,,,,,,SCT,10000,BKN,11000,,,,,VFR,,,,,,,,,,,,METAR,86.0
YMER 271800Z AUTO 00000KT 9999 // NCD 14/13 Q1014,YMER,2018-03-27T18:00:00Z,-36.92,149.9,14.0,13.0,0,0,,6.21,29.940945,,,TRUE,,,,,,,,CLR,,,,,,,,VFR,,,,,,,,,,,,METAR,2.0
YMIA 271800Z AUTO 36005KT 9999 // NCD 17/M00 Q1012,YMIA,2018-03-27T18:00:00Z,-34.23,142.08,17.0,0.0,360,5,,6.21,29.88189,,,TRUE,,,,,,,,CLR,,,,,,,,VFR,,,,,,,,,,,,METAR,51.0
YMML 271800Z 01019KT CAVOK 18/05 Q1011 FM1800 36025G38KT CAVOK FM1800 MOD/SEV TURB BLW 5000FT,YMML,2018-03-27T18:00:00Z,-37.67,144.82,18.0,5.0,10,19,,6.21,29.852362,,,,,,,,,,,CAVOK,,,,,,,,VFR,,,,,,,,,,,,METAR,141.0
YMOR 271800Z AUTO 07008KT 9999 // NCD 19/14 Q1015,YMOR,2018-03-27T18:00:00Z,-29.5,149.85,19.0,14.0,70,8,,6.21,29.970472,,,TRUE,,,,,,,,CLR,,,,,,,,VFR,,,,,,,,,,,,METAR,214.0
LQBK 271800Z 17003KT CAVOK 06/01 Q1013 NOSIG,LQBK,2018-03-27T18:00:00Z,44.93,17.3,6.0,1.0,170,3,,6.21,29.911417,,,,,,TRUE,,,,,CAVOK,,,,,,,,VFR,,,,,,,,,,,,METAR,122.0
LQMO 271800Z 34008KT 9999 FEW045 12/M03 Q1011,LQMO,2018-03-27T18:00:00Z,43.28,17.83,12.0,-3.0,340,8,,6.21,29.852362,,,,,,,,,,,FEW,4500,,,,,,,VFR,,,,,,,,,,,,METAR,48.0
LQSA 271800Z 12004KT 8000 SCT060 04/01 Q1013 NOSIG,LQSA,2018-03-27T18:00:00Z,43.82,18.32,4.0,1.0,120,4,,4.97,29.911417,,,,,,TRUE,,,,,SCT,6000,,,,,,,MVFR,,,,,,,,,,,,METAR,511.0
LQTZ 271800Z VRB02KT 9999 BKN045 06/03 Q1014,LQTZ,2018-03-27T18:00:00Z,44.47,18.73,6.0,3.0,0,2,,6.21,29.940945,,,,,,,,,,,BKN,4500,,,,,,,VFR,,,,,,,,,,,,METAR,306.0
BIAR 271800Z 14013KT 9999 BKN040 03/M03 Q1008,BIAR,2018-03-27T18:00:00Z,65.67,-18.07,3.0,-3.0,140,13,,6.21,29.763779,,,,,,,,,,,BKN,4000,,,,,,,VFR,,,,,,,,,,,,METAR,27.0
BIEG 271800Z 08015KT 8000 2000N -SHRA VCSH SCT020 BKN030 BKN050 02/M02 Q1010 R04/120095,BIEG,2018-03-27T18:00:00Z,65.27,-14.4,2.0,-2.0,80,15,,4.97,29.822834,,,,,,,,,,VCSH -SHRA,SCT,2000,BKN,3000,BKN,5000,,,MVFR,,,,,,,,,,,,SPECI,38.0
BIKF 271800Z 10019KT 9999 FEW015 SCT021 BKN028 03/01 Q1000,BIKF,2018-03-27T18:00:00Z,63.98,-22.6,3.0,1.0,100,19,,6.21,29.52756,,,,,,,,,,,FEW,1500,SCT,2100,BKN,2800,,,MVFR,,,,,,,,,,,,METAR,54.0
BIRK 271800Z 09014KT 9999 VCSH FEW020 BKN035 OVC085 04/M02 Q1001,BIRK,2018-03-27T18:00:00Z,64.13,-21.93,4.0,-2.0,90,14,,6.21,29.557087,,,,,,,,,,VCSH,FEW,2000,BKN,3500,OVC,8500,,,VFR,,,,,,,,,,,,METAR,61.0
EIDW 271800Z 29006KT 250V330 9999 VCSH FEW020 SCT060 BKN250 07/02 Q1006 NOSIG,EIDW,2018-03-27T18:00:00Z,53.42,-6.25,7.0,2.0,290,6,,6.21,29.704725,,,,,,TRUE,,,,VCSH,FEW,2000,SCT,6000,BKN,25000,,,VFR,,,,,,,,,,,,METAR,85.0
EINN 271800Z 26013KT 9999 FEW025 BKN044 08/02 Q1009 NOSIG,EINN,2018-03-27T18:00:00Z,52.7,-8.92,8.0,2.0,260,13,,6.21,29.793306,,,,,,TRUE,,,,,FEW,2500,BKN,4400,,,,,VFR,,,,,,,,,,,,METAR,20.0
EICK 271800Z 31009KT 9999 FEW020 BKN032 07/03 Q1009 NOSIG,EICK,2018-03-27T18:00:00Z,51.85,-8.47,7.0,3.0,310,9,,6.21,29.793306,,,,,,TRUE,,,,,FEW,2000,BKN,3200,,,,,VFR,,,,,,,,,,,,METAR,162.0
EIKN 271800Z 29016KT 9999 -SHRA FEW020CB SCT024 BKN036 04/02 Q1006 NOSIG,EIKN,2018-03-27T18:00:00Z,53.92,-8.82,4.0,2.0,290,16,,6.21,29.704725,,,,,,TRUE,,,,-SHRA,FEW,2000,SCT,2400,BKN,3600,,,VFR,,,,,,,,,,,,METAR,64.0
SAWH 271800Z 36011G30KT 9999 SCT048 SCT075 BKN100 10/00 Q0997,SAWH,2018-03-27T18:00:00Z,-54.85,-68.3,10.0,0.0,360,11,30,6.21,29.438976,,,,,,,,,,,SCT,4800,SCT,7500,BKN,10000,,,VFR,,,,,,,,,,,,METAR,14.0
LYBT 271800Z 21005KT 8000 NSC 05/02 Q1014 NOSIG,LYBT,2018-03-27T18:00:00Z,44.93,20.25,5.0,2.0,210,5,,4.97,29.940945,,,,,,TRUE,,,,,CLR,,,,,,,,MVFR,,,,,,,,,,,,METAR,80.0
LYKV 271800Z VRB02KT 9999 BKN050 06/01 Q1014 NOSIG,LYKV,2018-03-27T18:00:00Z,43.82,20.58,6.0,1.0,0,2,,6.21,29.940945,,,,,,TRUE,,,,,BKN,5000,,,,,,,VFR,,,,,,,,,,,,METAR,209.0
LYNI 271800Z 06003KT CAVOK 04/01 Q1014 NOSIG,LYNI,2018-03-27T18:00:00Z,43.32,21.88,4.0,1.0,60,3,,6.21,29.940945,,,,,,TRUE,,,,,CAVOK,,,,,,,,VFR,,,,,,,,,,,,METAR,202.0
LYPG 271800Z 33005KT 9999 FEW030 BKN080 09/04 Q1013 NOSIG,LYPG,2018-03-27T18:00:00Z,42.37,19.25,9.0,4.0,330,5,,6.21,29.911417,,,,,,TRUE,,,,,FEW,3000,BKN,8000,,,,,VFR,,,,,,,,,,,,METAR,43.0
LYTV 271800Z VRB02KT CAVOK 08/08 Q1013 NOSIG,LYTV,2018-03-27T18:00:00Z,42.38,18.72,8.0,8.0,0,2,,6.21,29.911417,,,,,,TRUE,,,,,CAVOK,,,,,,,,VFR,,,,,,,,,,,,METAR,5.0
LYUZ 271800Z AUTO 29004KT 9999 FEW045/// BKN069/// 00/M01 Q1012,LYUZ,2018-03-27T18:00:00Z,43.9,19.7,0.0,-1.0,290,4,,6.21,29.88189,,,TRUE,,,,,,,,FEW,4500,BKN,6900,,,,,VFR,,,,,,,,,,,,METAR,904.0
LYVR 271800Z 22005KT 8000 BKN026 06/03 Q1014 NOSIG,LYVR,2018-03-27T18:00:00Z,45.13,21.32,6.0,3.0,220,5,,4.97,29.940945,,,,,,TRUE,,,,,BKN,2600,,,,,,,MVFR,,,,,,,,,,,,METAR,85.0
KNEL 271800Z AUTO VRB04KT 10SM CLR 07/M03 A3046 RMK AO2 SLP313 T00671028 10067 21011 58018 $,KNEL,2018-03-27T18:00:00Z,40.02,-74.33,6.7,-2.8,0,4,,10.0,30.46063,1031.3,,TRUE,TRUE,TRUE,,,,,,CLR,,,,,,,,VFR,-1.8,6.7,-1.1,,,,,,,,,SPECI,31.0
FQQL 271800Z 15007KT 110V180 9999 SCT020 28/24 Q1013,FQQL,2018-03-27T18:00:00Z,-17.87,36.87,28.0,24.0,150,7,,6.21,29.911417,,,,,,,,,,,SCT,2000,,,,,,,VFR,,,,,,,,,,,,METAR,16.0
FQCH 271800Z 15007KT 9999 TS BKN015 SCT020CB 21/21 Q1020 RMK CB TO N/E/S/W,FQCH,2018-03-27T18:00:00Z,-19.15,33.43,21.0,21.0,150,7,,6.21,30.11811,,,,,,,,,,TS,BKN,1500,SCT,2000,,,,,MVFR,,,,,,,,,,,,SPECI,732.0
SUAA 271800Z 05007KT 9999 FEW033 24/14 Q1019,SUAA,2018-03-27T18:00:00Z,-34.77,-56.25,24.0,14.0,50,7,,6.21,30.088583,,,,,,,,,,,FEW,3300,,,,,,,VFR,,,,,,,,,,,,METAR,54.0
SULS 271800Z 09013KT 9999 FEW026 SCT070 22/14 Q1020,SULS,2018-03-27T18:00:00Z,-34.87,-55.1,22.0,14.0,90,13,,6.21,30.11811,,,,,,,,,,,FEW,2600,SCT,7000,,,,,VFR,,,,,,,,,,,,METAR,30.0
SUCA 271800Z 13009KT 9999 SCT026 20/15 Q1017,SUCA,2018-03-27T18:00:00Z,-34.45,-57.77,20.0,15.0,130,9,,6.21,30.029528,,,,,,,,,,,SCT,2600,,,,,,,VFR,,,,,,,,,,,,METAR,23.0
SUSO 271800Z 09008KT 9999 BKN002 24/17 Q1016,SUSO,2018-03-27T18:00:00Z,-31.43,-57.98,24.0,17.0,90,8,,6.21,30.0,,,,,,,,,,,BKN,200,,,,,,,LIFR,,,,,,,,,,,,METAR,34.0
MYNN 271800Z 04014KT 9999 BKN018 24/15 A3020 RMK PKWND 22KT,MYNN,2018-03-27T18:00:00Z,25.03,-77.47,24.0,15.0,40,14,,6.21,30.200787,,,,,,,,,,,BKN,1800,,,,,,,MVFR,,,,,,,,,,,,METAR,3.0
RPLC 271800Z 27002KT 9999 FEW020 BKN300 25/20 Q1011 NOSIG RMK A2985 METAR ,RPLC,2018-03-27T18:00:00Z,15.17,120.58,25.0,20.0,270,2,,6.21,29.852362,,,,,,TRUE,,,,,FEW,2000,BKN,30000,,,,,VFR,,,,,,,,,,,,SPECI,196.0
RPVP 271800Z 27006KT 9999 FEW020 25/22 Q1009 RMK A2980 METAR ,RPVP,2018-03-27T18:00:00Z,9.75,118.72,25.0,22.0,270,6,,6.21,29.793306,,,,,,,,,,,FEW,2000,,,,,,,VFR,,,,,,,,,,,,SPECI,16.0
RPVD 271800Z 32004KT 9999 FEW015 BKN220 24/21 Q1008 RMK A2977,RPVD,2018-03-27T18:00:00Z,9.33,123.3,24.0,21.0,320,4,,6.21,29.763779,,,,,,,,,,,FEW,1500,BKN,22000,,,,,VFR,,,,,,,,,,,,SPECI,8.0
MWCB 271800Z 06009KT 050V110 9999 SCT016 26/20 Q1017,MWCB,2018-03-27T18:00:00Z,19.68,-79.88,26.0,20.0,60,9,,6.21,30.029528,,,,,,,,,,,SCT,1600,,,,,,,VFR,,,,,,,,,,,,METAR,2.0
MWCR 271800Z 05020KT 9999 SCT018 28/21 Q1016,MWCR,2018-03-27T18:00:00Z,19.3,-81.37,28.0,21.0,50,20,,6.21,30.0,,,,,,,,,,,SCT,1800,,,,,,,VFR,,,,,,,,,,,,METAR,3.0
SAAR 271800Z 36009KT CAVOK 24/11 Q1017,SAAR,2018-03-27T18:00:00Z,-32.92,-60.77,24.0,11.0,360,9,,6.21,30.029528,,,,,,,,,,,CAVOK,,,,,,,,VFR,,,,,,,,,,,,METAR,25.0
SABE 271800Z 10011KT 9999 FEW035 21/14 Q1018,SABE,2018-03-27T18:00:00Z,-34.57,-58.42,21.0,14.0,100,11,,6.21,30.059055,,,,,,,,,,,FEW,3500,,,,,,,VFR,,,,,,,,,,,,METAR,6.0
SACO 271800Z 05012KT CAVOK 26/04 Q1016,SACO,2018-03-27T18:00:00Z,-31.32,-64.22,26.0,4.0,50,12,,6.21,30.0,,,,,,,,,,,CAVOK,,,,,,,,VFR,,,,,,,,,,,,METAR,474.0
SADF 271800Z 09009KT 9999 FEW025 22/14 Q1018,SADF,2018-03-27T18:00:00Z,-34.45,-58.58,22.0,14.0,90,9,,6.21,30.059055,,,,,,,,,,,FEW,2500,,,,,,,VFR,,,,,,,,,,,,METAR,4.0
SAEZ 271800Z 05011KT 9999 FEW043 23/13 Q1018,SAEZ,2018-03-27T18:00:00Z,-34.82,-58.52,23.0,13.0,50,11,,6.21,30.059055,,,,,,,,,,,FEW,4300,,,,,,,VFR,,,,,,,,,,,,METAR,20.0
SAME 271800Z 05010KT CAVOK 26/06 Q1014,SAME,2018-03-27T18:00:00Z,-32.82,-68.77,26.0,6.0,50,10,,6.21,29.940945,,,,,,,,,,,CAVOK,,,,,,,,VFR,,,,,,,,,,,,METAR,704.0
SANT 271800Z 14004KT 9999 FEW040 SCT200 26/14 Q1016,SANT,2018-03-27T18:00:00Z,-26.85,-65.08,26.0,14.0,140,4,,6.21,30.0,,,,,,,,,,,FEW,4000,SCT,20000,,,,,VFR,,,,,,,,,,,,METAR,450.0
SARC 271800Z 18006KT 9999 FEW039 SCT200 25/15 Q1014,SARC,2018-03-27T18:00:00Z,-27.43,-58.77,25.0,15.0,180,6,,6.21,29.940945,,,,,,,,,,,FEW,3900,SCT,20000,,,,,VFR,,,,,,,,,,,,METAR,62.0
SARE 271800Z 14007KT 9999 SCT043 25/15 Q1014,SARE,2018-03-27T18:00:00Z,-27.43,-59.03,25.0,15.0,140,7,,6.21,29.940945,,,,,,,,,,,SCT,4300,,,,,,,VFR,,,,,,,,,,,,METAR,52.0
SARF 271800Z 09005KT 9999 FEW022 26/17 Q1014,SARF,2018-03-27T18:00:00Z,-26.22,-58.22,26.0,17.0,90,5,,6.21,29.940945,,,,,,,,,,,FEW,2200,,,,,,,VFR,,,,,,,,,,,,METAR,60.0
SARI 271800Z 23004KT 4000 -RA SCT005 BKN006 OVC030 21/20 Q1015,SARI,2018-03-27T18:00:00Z,-25.72,-54.47,21.0,20.0,230,4,,2.49,29.970472,,,,,,,,,,-RA,SCT,500,BKN,600,OVC,3000,,,IFR,,,,,,,,,,,,METAR,270.0
SARL 271800Z 14012KT 9999 BKN018 SCT200 26/19 Q1015,SARL,2018-03-27T18:00:00Z,-29.67,-57.13,26.0,19.0,140,12,,6.21,29.970472,,,,,,,,,,,BKN,1800,SCT,20000,,,,,MVFR,,,,,,,,,,,,METAR,70.0
SARP 271800Z 23003KT 9999 SCT035 BKN200 26/18 Q1015,SARP,2018-03-27T18:00:00Z,-27.38,-55.97,26.0,18.0,230,3,,6.21,29.970472,,,,,,,,,,,SCT,3500,BKN,20000,,,,,VFR,,,,,,,,,,,,METAR,125.0
SASJ 271800Z 00000KT 9999 FEW025 BKN100 20/11 Q1018,SASJ,2018-03-27T18:00:00Z,-24.37,-65.1,20.0,11.0,0,0,,6.21,30.059055,,,,,,,,,,,FEW,2500,BKN,10000,,,,,VFR,,,,,,,,,,,,METAR,1167.0
SAVC 271800Z 29009KT 250V330 9999 FEW040 SCT045 18/09 Q1006,SAVC,2018-03-27T18:00:00Z,-45.77,-67.47,18.0,9.0,290,9,,6.21,29.704725,,,,,,,,,,,FEW,4000,SCT,4500,,,,,VFR,,,,,,,,,,,,METAR,46.0
SAWE 271800Z 32019KT 9999 FEW018 12/02 Q1000,SAWE,2018-03-27T18:00:00Z,-53.78,-67.75,12.0,2.0,320,19,,6.21,29.52756,,,,,,,,,,,FEW,1800,,,,,,,VFR,,,,,,,,,,,,METAR,22.0
SAZM 271800Z 36011KT 320V040 CAVOK 23/10 Q1018,SAZM,2018-03-27T18:00:00Z,-37.92,-57.57,23.0,10.0,360,11,,6.21,30.059055,,,,,,,,,,,CAVOK,,,,,,,,VFR,,,,,,,,,,,,METAR,21.0
OIBL 271800Z 27006KT 6000 NSC 24/24 Q1012,OIBL,2018-03-27T18:00:00Z,26.53,54.82,24.0,24.0,270,6,,3.73,29.88189,,,,,,,,,,,CLR,,,,,,,,MVFR,,,,,,,,,,,,METAR,14.0
OIMD 271800Z AUTO 21012KT //// // ////// 19/M01 Q1017,OIMD,2018-03-27T18:00:00Z,34.38,58.63,19.0,-1.0,210,12,,,30.029528,,,TRUE,,,,,,,,,,,,,,,,,,,,,,,,,,,,METAR,1100.0
OIMQ 271800Z AUTO 29002KT //// // ////// 20/M02 Q1018,OIMQ,2018-03-27T18:00:00Z,35.23,58.47,20.0,-2.0,290,2,,,30.059055,,,TRUE,,,,,,,,,,,,,,,,,,,,,,,,,,,,METAR,1140.0
OINE 271800Z 06004KT CAVOK 13/12 Q1012,OINE,2018-03-27T18:00:00Z,37.38,55.45,13.0,12.0,60,4,,6.21,29.88189,,,,,,,,,,,CAVOK,,,,,,,,VFR,,,,,,,,,,,,METAR,130.0
OITM 271800Z 24008KT 6000 NSC 16/01 Q1019,OITM,2018-03-27T18:00:00Z,37.35,46.15,16.0,1.0,240,8,,3.73,30.088583,,,,,,,,,,,CLR,,,,,,,,MVFR,,,,,,,,,,,,METAR,1340.0
OIAW 271800Z 03002KT CAVOK 26/03 Q1012,OIAW,2018-03-27T18:00:00Z,31.32,48.77,26.0,3.0,30,2,,6.21,29.88189,,,,,,,,,,,CAVOK,,,,,,,,VFR,,,,,,,,,,,,METAR,22.0
OIFM 271800Z 27010KT CAVOK 18/M07 Q1022 A3019,OIFM,2018-03-27T18:00:00Z,32.75,51.87,18.0,-7.0,270,10,,6.21,30.177166,,,,,,,,,,,CAVOK,,,,,,,,VFR,,,,,,,,,,,,METAR,1542.0
OIII 271800Z 00000KT CAVOK 21/M07 Q1017 A3005 NOSIG,OIII,2018-03-27T18:00:00Z,35.68,51.3,21.0,-7.0,0,0,,6.21,30.029528,,,,,,TRUE,,,,,CAVOK,,,,,,,,VFR,,,,,,,,,,,,METAR,1191.0
OIKB 271800Z 22004KT CAVOK 26/20 Q1012 A2990,OIKB,2018-03-27T18:00:00Z,27.22,56.37,26.0,20.0,220,4,,6.21,29.88189,,,,,,,,,,,CAVOK,,,,,,,,VFR,,,,,,,,,,,,METAR,10.0
OIKK 271800Z 02004KT CAVOK 19/M11 Q1025 A3027,OIKK,2018-03-27T18:00:00Z,30.25,56.97,19.0,-11.0,20,4,,6.21,30.265747,,,,,,,,,,,CAVOK,,,,,,,,VFR,,,,,,,,,,,,METAR,1754.0
OIMM 271800Z 17008KT CAVOK 14/12 Q1019 A3010,OIMM,2018-03-27T18:00:00Z,36.23,59.62,14.0,12.0,170,8,,6.21,30.088583,,,,,,,,,,,CAVOK,,,,,,,,VFR,,,,,,,,,,,,METAR,980.0
OISS 271800Z 00000KT CAVOK 20/M03 Q1023 A3021,OISS,2018-03-27T18:00:00Z,29.52,52.57,20.0,-3.0,0,0,,6.21,30.206694,,,,,,,,,,,CAVOK,,,,,,,,VFR,,,,,,,,,,,,METAR,1491.0
OITT 271800Z 26006KT CAVOK 15/M00 Q1018 A3009 NOSIG,OITT,2018-03-27T18:00:00Z,38.13,46.23,15.0,0.0,260,6,,6.21,30.059055,,,,,,TRUE,,,,,CAVOK,,,,,,,,VFR,,,,,,,,,,,,METAR,1361.0
OIZH 271800Z 36006KT CAVOK 25/M07 Q1021 A3017,OIZH,2018-03-27T18:00:00Z,29.47,60.92,25.0,-7.0,360,6,,6.21,30.147638,,,,,,,,,,,CAVOK,,,,,,,,VFR,,,,,,,,,,,,METAR,1370.0
OIAH 271800Z 27004KT CAVOK 25/M04 Q1018,OIAH,2018-03-27T18:00:00Z,30.33,50.83,25.0,-4.0,270,4,,6.21,30.059055,,,,,,,,,,,CAVOK,,,,,,,,VFR,,,,,,,,,,,,METAR,738.0
OICM 271800Z AUTO 32002KT //// // ////// 26/09 Q1014,OICM,2018-03-27T18:00:00Z,,,26.0,9.0,320,2,,,29.940945,,,TRUE,,,,,,,,,,,,,,,,,,,,,,,,,,,,METAR,
RPMZ 271800Z 00000KT 9999 FEW017 SCT300 24/22 Q1009 RMK A2980,RPMZ,2018-03-27T18:00:00Z,6.92,122.07,24.0,22.0,0,0,,6.21,29.793306,,,,,,,,,,,FEW,1700,SCT,30000,,,,,VFR,,,,,,,,,,,,METAR,6.0
RPLI 271800Z 07002KT 9999 FEW019 23/17 Q1010 NOSIG RMK A2983,RPLI,2018-03-27T18:00:00Z,18.17,120.52,23.0,17.0,70,2,,6.21,29.822834,,,,,,TRUE,,,,,FEW,1900,,,,,,,VFR,,,,,,,,,,,,METAR,5.0
MTPP 271800Z 28013KT 9999 FEW026 30/20 Q1012 A2990,MTPP,2018-03-27T18:00:00Z,18.57,-72.28,30.0,20.0,280,13,,6.21,29.88189,,,,,,,,,,,FEW,2600,,,,,,,VFR,,,,,,,,,,,,METAR,37.0
OPRN 271800Z 31014KT 8000 NSC 25/07 Q1012 NOSIG RMK A2988,OPRN,2018-03-27T18:00:00Z,33.62,73.08,25.0,7.0,310,14,,4.97,29.88189,,,,,,TRUE,,,,,CLR,,,,,,,,MVFR,,,,,,,,,,,,METAR,508.0
OPNH 271800Z 13504KT 6000 NSC 30/10 Q1008 NOSIG,OPNH,2018-03-27T18:00:00Z,26.22,68.37,30.0,10.0,135,4,,3.73,29.763779,,,,,,TRUE,,,,,CLR,,,,,,,,MVFR,,,,,,,,,,,,METAR,38.0
UBBN 271800Z 26006KT 9999 SCT100 18/M01 Q1014 R14R/CLRD// NOSIG RMK MT OP QFE685,UBBN,2018-03-27T18:00:00Z,39.18,45.45,18.0,-1.0,260,6,,6.21,29.940945,,,,,,TRUE,,,,,SCT,10000,,,,,,,VFR,,,,,,,,,,,,METAR,873.0
ZGKL 271800Z 32002MPS 7000 NSC 16/15 Q1014 NOSIG,ZGKL,2018-03-27T18:00:00Z,25.22,110.03,16.0,15.0,320,4,,4.35,29.940945,,,,,,TRUE,,,,,CLR,,,,,,,,MVFR,,,,,,,,,,,,METAR,166.0
LUKK 271800Z 33002KT 9999 SCT049 05/M01 Q1011 R08/D NOSIG,LUKK,2018-03-27T18:00:00Z,46.93,28.93,5.0,-1.0,330,2,,6.21,29.852362,,,,,,TRUE,,,,,SCT,4900,,,,,,,VFR,,,,,,,,,,,,METAR,122.0
YKRY 271800Z AUTO 14010KT 9999 // BKN013 OVC029 20/18 Q1014,YKRY,2018-03-27T18:00:00Z,-26.57,151.83,20.0,18.0,140,10,,6.21,29.940945,,,TRUE,,,,,,,,BKN,1300,OVC,2900,,,,,MVFR,,,,,,,,,,,,METAR,434.0
SBUG 271800Z 13008KT 9999 BKN037 26/19 Q1015,SBUG,2018-03-27T18:00:00Z,-29.77,-57.02,26.0,19.0,130,8,,6.21,29.970472,,,,,,,,,,,BKN,3700,,,,,,,VFR,,,,,,,,,,,,METAR,74.0
GVNP 271800Z 04015KT 9999 FEW017 24/16 Q1014 NOSIG,GVNP,2018-03-27T18:00:00Z,14.95,-23.48,24.0,16.0,40,15,,6.21,29.940945,,,,,,TRUE,,,,,FEW,1700,,,,,,,VFR,,,,,,,,,,,,METAR,70.0
SBNT 271800Z 11018KT 9999 SCT026 30/22 Q1010,SBNT,2018-03-27T18:00:00Z,-5.92,-35.25,30.0,22.0,110,18,,6.21,29.822834,,,,,,,,,,,SCT,2600,,,,,,,VFR,,,,,,,,,,,,METAR,49.0
SBRF 271800Z 11010KT 9999 SCT023 28/23 Q1011,SBRF,2018-03-27T18:00:00Z,-8.13,-34.92,28.0,23.0,110,10,,6.21,29.852362,,,,,,,,,,,SCT,2300,,,,,,,VFR,,,,,,,,,,,,METAR,19.0
SBPV 271800Z 23005KT 9999 BKN012 FEW020TCU BKN090 25/22 Q1011,SBPV,2018-03-27T18:00:00Z,-8.72,-63.9,25.0,22.0,230,5,,6.21,29.852362,,,,,,,,,,,BKN,1200,FEW,2000,BKN,9000,,,MVFR,,,,,,,,,,,,METAR,88.0
OISF 271800Z 10004KT CAVOK 20/01 Q1019,OISF,2018-03-27T18:00:00Z,28.9,53.72,20.0,1.0,100,4,,6.21,30.088583,,,,,,,,,,,CAVOK,,,,,,,,VFR,,,,,,,,,,,,METAR,1383.0
OIAA 271800Z 17004KT CAVOK 28/08 Q1013,OIAA,2018-03-27T18:00:00Z,30.37,48.25,28.0,8.0,170,4,,6.21,29.911417,,,,,,,,,,,CAVOK,,,,,,,,VFR,,,,,,,,,,,,METAR,11.0
YSTW 271800Z AUTO 17008KT 9999 // NCD 16/12 Q1016 RF00.0/000.0,YSTW,2018-03-27T18:00:00Z,-31.07,150.85,16.0,12.0,170,8,,6.21,30.0,,,TRUE,,,,,,,,CLR,,,,,,,,VFR,,,,,,,,,,,,SPECI,410.0
OIBK 271800Z 30006KT 3000 BR NSC 22/20 Q1012,OIBK,2018-03-27T18:00:00Z,26.53,53.98,22.0,20.0,300,6,,1.86,29.88189,,,,,,,,,,BR,CLR,,,,,,,,IFR,,,,,,,,,,,,METAR,30.0
OICC 271800Z AUTO 00000KT CAVOK 19/M03 Q1020 A3014,OICC,2018-03-27T18:00:00Z,34.35,47.17,19.0,-3.0,0,0,,6.21,30.11811,,,TRUE,,,,,,,,CAVOK,,,,,,,,VFR,,,,,,,,,,,,METAR,1322.0
VOML 271800Z 36004KT 6000 FEW020 28/25 Q1012 NOSIG,VOML,2018-03-27T18:00:00Z,12.97,74.88,28.0,25.0,360,4,,3.73,29.88189,,,,,,TRUE,,,,,FEW,2000,,,,,,,MVFR,,,,,,,,,,,,METAR,103.0
TKPK 271800Z 05010KT 9999 FEW025 29/20 Q1014,TKPK,2018-03-27T18:00:00Z,17.3,-62.72,29.0,20.0,50,10,,6.21,29.940945,,,,,,,,,,,FEW,2500,,,,,,,VFR,,,,,,,,,,,,METAR,48.0
TFFF 271800Z AUTO 11012KT 070V150 CAVOK 30/19 Q1012 TEMPO 4000 SHRA SCT018TCU,TFFF,2018-03-27T18:00:00Z,14.6,-61.0,30.0,19.0,110,12,,6.21,29.88189,,,TRUE,,,,,,,,CAVOK,,,,,,,,VFR,,,,,,,,,,,,SPECI,5.0
YWLM 271800Z AUTO 05005KT 9999 // NCD 17/16 Q1016,YWLM,2018-03-27T18:00:00Z,-32.8,151.83,17.0,16.0,50,5,,6.21,30.0,,,TRUE,,,,,,,,CLR,,,,,,,,VFR,,,,,,,,,,,,METAR,9.0
YWHA 271800Z AUTO 33006KT 9999 // NCD 16/M00 Q1012,YWHA,2018-03-27T18:00:00Z,-33.07,137.52,16.0,0.0,330,6,,6.21,29.88189,,,TRUE,,,,,,,,CLR,,,,,,,,VFR,,,,,,,,,,,,METAR,13.0
YWGT 271800Z AUTO 21004KT 9999 // BKN115 13/11 Q1015,YWGT,2018-03-27T18:00:00Z,-36.42,146.3,13.0,11.0,210,4,,6.21,29.970472,,,TRUE,,,,,,,,BKN,11500,,,,,,,VFR,,,,,,,,,,,,METAR,153.0
YTRE 271800Z AUTO 00000KT //// // ////// 16/16 Q1016,YTRE,2018-03-27T18:00:00Z,-31.88,152.52,16.0,16.0,0,0,,,30.0,,,TRUE,,,,,,,,,,,,,,,,,,,,,,,,,,,,METAR,12.0
YTNK 271800Z AUTO 13010KT 9999 // SCT120 26/10 Q1009,YTNK,2018-03-27T18:00:00Z,-19.63,134.18,26.0,10.0,130,10,,6.21,29.793306,,,TRUE,,,,,,,,SCT,12000,,,,,,,VFR,,,,,,,,,,,,METAR,377.0
YTEF 271800Z AUTO 00000KT 9999 // NCD 27/18 Q1008,YTEF,2018-03-27T18:00:00Z,-21.72,122.23,27.0,18.0,0,0,,6.21,29.763779,,,TRUE,,,,,,,,CLR,,,,,,,,VFR,,,,,,,,,,,,METAR,296.0
YSWG 271800Z AUTO 08003KT 9999 // NCD 11/07 Q1015,YSWG,2018-03-27T18:00:00Z,-35.13,147.47,11.0,7.0,80,3,,6.21,29.970472,,,TRUE,,,,,,,,CLR,,,,,,,,VFR,,,,,,,,,,,,METAR,213.0
OIGG 271800Z 00000KT CAVOK 11/10 Q1013,OIGG,2018-03-27T18:00:00Z,37.33,49.6,11.0,10.0,0,0,,6.21,29.911417,,,,,,,,,,,CAVOK,,,,,,,,VFR,,,,,,,,,,,,METAR,-13.0
OIIE 271800Z 21006KT CAVOK 22/M07 Q1016,OIIE,2018-03-27T18:00:00Z,35.42,51.15,22.0,-7.0,210,6,,6.21,30.0,,,,,,,,,,,CAVOK,,,,,,,,VFR,,,,,,,,,,,,METAR,1008.0
OITR 271800Z 30006KT CAVOK 15/M00 Q1018,OITR,2018-03-27T18:00:00Z,37.67,45.07,15.0,0.0,300,6,,6.21,30.059055,,,,,,,,,,,CAVOK,,,,,,,,VFR,,,,,,,,,,,,METAR,1312.0
OINZ 271800Z 07006KT CAVOK 14/12 Q1011,OINZ,2018-03-27T18:00:00Z,36.63,53.2,14.0,12.0,70,6,,6.21,29.852362,,,,,,,,,,,CAVOK,,,,,,,,VFR,,,,,,,,,,,,METAR,11.0
OIYY 271800Z 17004KT CAVOK 22/M15 Q1021,OIYY,2018-03-27T18:00:00Z,31.9,54.28,22.0,-15.0,170,4,,6.21,30.147638,,,,,,,,,,,CAVOK,,,,,,,,VFR,,,,,,,,,,,,METAR,1236.0
OIFS 271800Z 33004KT CAVOK 13/M08 Q1027,OIFS,2018-03-27T18:00:00Z,32.32,50.85,13.0,-8.0,330,4,,6.21,30.324802,,,,,,,,,,,CAVOK,,,,,,,,VFR,,,,,,,,,,,,METAR,2078.0
OIIP 271800Z 30004KT CAVOK 20/M09 Q1017,OIIP,2018-03-27T18:00:00Z,35.78,50.83,20.0,-9.0,300,4,,6.21,30.029528,,,,,,,,,,,CAVOK,,,,,,,,VFR,,,,,,,,,,,,METAR,1271.0
OIBP 271800Z 00000KT CAVOK 22/18 Q1010 A2984,OIBP,2018-03-27T18:00:00Z,27.38,52.73,22.0,18.0,0,0,,6.21,29.822834,,,,,,,,,,,CAVOK,,,,,,,,VFR,,,,,,,,,,,,METAR,9.0
OIBB 271800Z 09004KT CAVOK 25/11 Q1013 A2994,OIBB,2018-03-27T18:00:00Z,28.97,50.82,25.0,11.0,90,4,,6.21,29.911417,,,,,,,,,,,CAVOK,,,,,,,,VFR,,,,,,,,,,,,METAR,19.0
OISY 271800Z 10004KT 8000 NSC 16/M04 Q1026,OISY,2018-03-27T18:00:00Z,30.7,51.55,16.0,-4.0,100,4,,4.97,30.295275,,,,,,,,,,,CLR,,,,,,,,MVFR,,,,,,,,,,,,METAR,1811.0
OISL 271800Z 00000KT CAVOK 24/02 Q1016,OISL,2018-03-27T18:00:00Z,27.67,54.37,24.0,2.0,0,0,,6.21,30.0,,,,,,,,,,,CAVOK,,,,,,,,VFR,,,,,,,,,,,,METAR,805.0
OINR 271800Z 00000KT CAVOK 12/11 Q1012,OINR,2018-03-27T18:00:00Z,36.88,50.67,12.0,11.0,0,0,,6.21,29.88189,,,,,,,,,,,CAVOK,,,,,,,,VFR,,,,,,,,,,,,METAR,-20.0
OINN 271800Z 30006KT CAVOK 11/10 Q1012,OINN,2018-03-27T18:00:00Z,36.67,51.47,11.0,10.0,300,6,,6.21,29.88189,,,,,,,,,,,CAVOK,,,,,,,,VFR,,,,,,,,,,,,METAR,-19.0
OIKQ 271800Z 22008KT 3500 BR NSC 24/23 Q1012,OIKQ,2018-03-27T18:00:00Z,26.75,55.9,24.0,23.0,220,8,,2.17,29.88189,,,,,,,,,,BR,CLR,,,,,,,,IFR,,,,,,,,,,,,METAR,12.0
OICI 271800Z 11004KT CAVOK 16/M01 Q1022 A3020,OICI,2018-03-27T18:00:00Z,33.58,46.4,16.0,-1.0,110,4,,6.21,30.177166,,,,,,,,,,,CAVOK,,,,,,,,VFR,,,,,,,,,,,,METAR,1343.0
OIAM 271800Z 00000KT CAVOK 28/08 Q1013,OIAM,2018-03-27T18:00:00Z,30.55,49.15,28.0,8.0,0,0,,6.21,29.911417,,,,,,,,,,,CAVOK,,,,,,,,VFR,,,,,,,,,,,,METAR,4.0
OIZJ 271800Z 30012KT 4000 SA NSC 28/19 Q1010,OIZJ,2018-03-27T18:00:00Z,25.65,57.8,28.0,19.0,300,12,,2.49,29.822834,,,,,,,,,,SA,CLR,,,,,,,,IFR,,,,,,,,,,,,METAR,4.0
OIMN 271800Z 27002KT CAVOK 12/06 Q1018,OIMN,2018-03-27T18:00:00Z,37.48,57.3,12.0,6.0,270,2,,6.21,30.059055,,,,,,,,,,,CAVOK,,,,,,,,VFR,,,,,,,,,,,,METAR,1074.0
OIMB 271800Z 08004KT CAVOK 16/M10 Q1022,OIMB,2018-03-27T18:00:00Z,32.9,59.28,16.0,-10.0,80,4,,6.21,30.177166,,,,,,,,,,,CAVOK,,,,,,,,VFR,,,,,,,,,,,,METAR,1491.0
OING 271800Z 00000KT CAVOK 12/10 Q1013,OING,2018-03-27T18:00:00Z,36.9,54.4,12.0,10.0,0,0,,6.21,29.911417,,,,,,,,,,,CAVOK,,,,,,,,VFR,,,,,,,,,,,,METAR,155.0
OIZB 271800Z 36008KT CAVOK 24/01 Q1013,OIZB,2018-03-27T18:00:00Z,31.1,61.55,24.0,1.0,360,8,,6.21,29.911417,,,,,,,,,,,CAVOK,,,,,,,,VFR,,,,,,,,,,,,METAR,489.0
OIZI 271800Z 00000KT CAVOK 27/M02 Q1015,OIZI,2018-03-27T18:00:00Z,27.23,60.72,27.0,-2.0,0,0,,6.21,29.970472,,,,,,,,,,,CAVOK,,,,,,,,VFR,,,,,,,,,,,,METAR,591.0
LFBC 271800Z AUTO 28013KT 250V320 6000 2600 +DZ OVC004 12/12 Q1020 TEMPO 3000 RADZ,LFBC,2018-03-27T18:00:00Z,44.52,-1.12,12.0,12.0,280,13,,3.73,30.11811,,,TRUE,,,,,,,+DZ,OVC,400,,,,,,,LIFR,,,,,,,,,,,,SPECI,33.0
LFBG 271800Z AUTO 27013KT 9999 OVC007 12/11 Q1018 TEMPO 3000 RADZ,LFBG,2018-03-27T18:00:00Z,45.67,-0.32,12.0,11.0,270,13,,6.21,30.059055,,,TRUE,,,,,,,,OVC,700,,,,,,,IFR,,,,,,,,,,,,SPECI,31.0
LFBM 271800Z AUTO 25009KT 3800 -RA BR BKN004 OVC008 12/11 Q1022 TEMPO 2000 DZRA,LFBM,2018-03-27T18:00:00Z,43.92,-0.5,12.0,11.0,250,9,,2.36,30.177166,,,TRUE,,,,,,,-RA BR,BKN,400,OVC,800,,,,,LIFR,,,,,,,,,,,,SPECI,63.0
LFBY 271800Z AUTO 25009KT 220V290 1100 // BKN007 BKN014 OVC020 12/11 Q1023,LFBY,2018-03-27T18:00:00Z,43.67,-1.07,12.0,11.0,250,9,,0.68,30.206694,,,TRUE,,,,,,,,BKN,700,BKN,1400,OVC,2000,,,LIFR,,,,,,,,,,,,METAR,32.0
LFKS 271800Z AUTO 27008KT 240V320 CAVOK 15/02 Q1012,LFKS,2018-03-27T18:00:00Z,41.92,9.4,15.0,2.0,270,8,,6.21,29.88189,,,TRUE,,,,,,,,CAVOK,,,,,,,,VFR,,,,,,,,,,,,METAR,22.0
LFMC 271800Z 27015KT 240V300 9999 SCT073 SCT110 14/04 Q1012,LFMC,2018-03-27T18:00:00Z,43.37,6.37,14.0,4.0,270,15,,6.21,29.88189,,,,,,,,,,,SCT,7300,SCT,11000,,,,,VFR,,,,,,,,,,,,METAR,78.0
LFMO 271800Z AUTO 11003KT 9999 OVC058 13/05 Q1015 NOSIG,LFMO,2018-03-27T18:00:00Z,44.12,4.87,13.0,5.0,110,3,,6.21,29.970472,,,TRUE,,,TRUE,,,,,OVC,5800,,,,,,,VFR,,,,,,,,,,,,METAR,55.0
LFMY 271800Z AUTO VRB02KT CAVOK 12/06 Q1015,LFMY,2018-03-27T18:00:00Z,43.6,5.08,12.0,6.0,0,2,,6.21,29.970472,,,TRUE,,,,,,,,CAVOK,,,,,,,,VFR,,,,,,,,,,,,METAR,60.0
LFOA 271800Z AUTO 26012KT 9999 -DZ SCT018 BKN028 BKN041 12/11 Q1012 TEMPO 26015G25KT 4000 SHRA BKN012 BKN020TCU,LFOA,2018-03-27T18:00:00Z,47.03,2.63,12.0,11.0,260,12,,6.21,29.88189,,,TRUE,,,,,,,-DZ,SCT,1800,BKN,2800,BKN,4100,,,MVFR,,,,,,,,,,,,SPECI,179.0
LFPV 271800Z AUTO 28016KT 9999 FEW025 BKN052 BKN064 11/07 Q1009 TEMPO 26012G22KT SCT008 BKN014,LFPV,2018-03-27T18:00:00Z,48.77,2.2,11.0,7.0,280,16,,6.21,29.793306,,,TRUE,,,,,,,,FEW,2500,BKN,5200,BKN,6400,,,VFR,,,,,,,,,,,,SPECI,179.0
GCFV 271800Z 03012KT 5000 HZ FEW011 SCT025 20/16 Q1020,GCFV,2018-03-27T18:00:00Z,28.43,-13.87,20.0,16.0,30,12,,3.11,30.11811,,,,,,,,,,HZ,FEW,1100,SCT,2500,,,,,MVFR,,,,,,,,,,,,METAR,23.0
GCLA 271800Z 03014KT 350V060 9999 SCT030 19/13 Q1021,GCLA,2018-03-27T18:00:00Z,28.62,-17.75,19.0,13.0,30,14,,6.21,30.147638,,,,,,,,,,,SCT,3000,,,,,,,VFR,,,,,,,,,,,,METAR,31.0
GCLP 271800Z 36014KT 7000 FEW035 20/14 Q1019 NOSIG,GCLP,2018-03-27T18:00:00Z,27.92,-15.37,20.0,14.0,360,14,,4.35,30.088583,,,,,,TRUE,,,,,FEW,3500,,,,,,,MVFR,,,,,,,,,,,,METAR,25.0
GCRR 271800Z 05015KT 5000 HZ FEW040 23/13 Q1019,GCRR,2018-03-27T18:00:00Z,28.93,-13.58,23.0,13.0,50,15,,3.11,30.088583,,,,,,,,,,HZ,FEW,4000,,,,,,,MVFR,,,,,,,,,,,,METAR,40.0
GCTS 271800Z 07021KT 9999 FEW030 19/14 Q1019 NOSIG,GCTS,2018-03-27T18:00:00Z,28.05,-16.57,19.0,14.0,70,21,,6.21,30.088583,,,,,,TRUE,,,,,FEW,3000,,,,,,,VFR,,,,,,,,,,,,METAR,72.0
GCXO 271800Z 28007KT 250V320 7000 2000NW FEW001 BKN006 14/13 Q1021 NOSIG,GCXO,2018-03-27T18:00:00Z,28.48,-16.35,14.0,13.0,280,7,,4.35,30.147638,,,,,,TRUE,,,,,FEW,100,BKN,600,,,,,IFR,,,,,,,,,,,,METAR,632.0
LESA 271800Z 27007KT 9999 FEW048 17/06 Q1026,LESA,2018-03-27T18:00:00Z,40.95,-5.5,17.0,6.0,270,7,,6.21,30.295275,,,,,,,,,,,FEW,4800,,,,,,,VFR,,,,,,,,,,,,METAR,795.0
LEVD 271800Z 32012KT CAVOK 17/03 Q1024,LEVD,2018-03-27T18:00:00Z,41.72,-4.83,17.0,3.0,320,12,,6.21,30.236221,,,,,,,,,,,CAVOK,,,,,,,,VFR,,,,,,,,,,,,METAR,854.0
LEVS 271800Z 31012KT 270V340 CAVOK 18/03 Q1023,LEVS,2018-03-27T18:00:00Z,40.37,-3.77,18.0,3.0,310,12,,6.21,30.206694,,,,,,,,,,,CAVOK,,,,,,,,VFR,,,,,,,,,,,,METAR,687.0
GCGM 271800Z AUTO 16005KT 110V270 CAVOK 19/14 Q1018 RMK R09/VRB03KT ARP/VRB02KT,GCGM,2018-03-27T18:00:00Z,28.03,-17.22,19.0,14.0,160,5,,6.21,30.059055,,,TRUE,,,,,,,,CAVOK,,,,,,,,VFR,,,,,,,,,,,,METAR,219.0
GCHI 271800Z AUTO 36019KT 9999 OVC024/// 18/13 Q1020,GCHI,2018-03-27T18:00:00Z,27.82,-17.87,18.0,13.0,360,19,,6.21,30.11811,,,TRUE,,,,,,,,OVC,2400,,,,,,,MVFR,,,,,,,,,,,,METAR,30.0
LEAM 271800Z VRB02KT CAVOK 17/11 Q1023,LEAM,2018-03-27T18:00:00Z,36.85,-2.37,17.0,11.0,0,2,,6.21,30.206694,,,,,,,,,,,CAVOK,,,,,,,,VFR,,,,,,,,,,,,METAR,21.0
LEAS 271800Z 30012KT CAVOK 12/10 Q1024 NOSIG,LEAS,2018-03-27T18:00:00Z,43.53,-6.02,12.0,10.0,300,12,,6.21,30.236221,,,,,,TRUE,,,,,CAVOK,,,,,,,,VFR,,,,,,,,,,,,METAR,134.0
LEBB 271800Z 32008KT 290V350 9999 SCT028 14/10 Q1024 NOSIG,LEBB,2018-03-27T18:00:00Z,43.28,-2.92,14.0,10.0,320,8,,6.21,30.236221,,,,,,TRUE,,,,,SCT,2800,,,,,,,VFR,,,,,,,,,,,,METAR,34.0
LECO 271800Z 23009KT 9999 FEW031 15/09 Q1026 NOSIG,LECO,2018-03-27T18:00:00Z,43.28,-8.37,15.0,9.0,230,9,,6.21,30.295275,,,,,,TRUE,,,,,FEW,3100,,,,,,,VFR,,,,,,,,,,,,METAR,103.0
LEGE 271800Z 17005KT 9999 FEW040 12/08 Q1018 NOSIG,LEGE,2018-03-27T18:00:00Z,41.88,2.77,12.0,8.0,170,5,,6.21,30.059055,,,,,,TRUE,,,,,FEW,4000,,,,,,,VFR,,,,,,,,,,,,METAR,129.0
LEGR 271800Z 32005KT 280V350 CAVOK 20/07 Q1024,LEGR,2018-03-27T18:00:00Z,37.17,-3.77,20.0,7.0,320,5,,6.21,30.236221,,,,,,,,,,,CAVOK,,,,,,,,VFR,,,,,,,,,,,,METAR,559.0
LEMH 271800Z 26005KT 230V290 CAVOK 12/09 Q1020,LEMH,2018-03-27T18:00:00Z,39.87,4.22,12.0,9.0,260,5,,6.21,30.11811,,,,,,,,,,,CAVOK,,,,,,,,VFR,,,,,,,,,,,,METAR,82.0
LERS 271800Z 26006KT 200V330 9999 FEW050 20/08 Q1018,LERS,2018-03-27T18:00:00Z,41.13,1.17,20.0,8.0,260,6,,6.21,30.059055,,,,,,,,,,,FEW,5000,,,,,,,VFR,,,,,,,,,,,,METAR,76.0
LESO 271800Z 26009KT 200V330 9999 BKN020 13/10 Q1024,LESO,2018-03-27T18:00:00Z,43.35,-1.8,13.0,10.0,260,9,,6.21,30.236221,,,,,,,,,,,BKN,2000,,,,,,,MVFR,,,,,,,,,,,,METAR,8.0
LEST 271800Z 26006KT 170V300 9999 SCT015 11/07 Q1027 NOSIG,LEST,2018-03-27T18:00:00Z,42.88,-8.42,11.0,7.0,260,6,,6.21,30.324802,,,,,,TRUE,,,,,SCT,1500,,,,,,,VFR,,,,,,,,,,,,METAR,367.0
LEVT 271800Z 33006KT 9999 FEW030 SCT075 15/09 Q1023,LEVT,2018-03-27T18:00:00Z,42.87,-2.72,15.0,9.0,330,6,,6.21,30.206694,,,,,,,,,,,FEW,3000,SCT,7500,,,,,VFR,,,,,,,,,,,,METAR,509.0
LEZG 271800Z 33011KT 9999 FEW035 18/08 Q1022,LEZG,2018-03-27T18:00:00Z,41.67,-1.02,18.0,8.0,330,11,,6.21,30.177166,,,,,,,,,,,FEW,3500,,,,,,,VFR,,,,,,,,,,,,METAR,258.0
LEAL 271800Z VRB01KT CAVOK 18/08 Q1022 NOSIG,LEAL,2018-03-27T18:00:00Z,38.27,-0.55,18.0,8.0,0,1,,6.21,30.177166,,,,,,TRUE,,,,,CAVOK,,,,,,,,VFR,,,,,,,,,,,,METAR,31.0
LEBL 271800Z 22012KT 9999 FEW040 14/10 Q1018 NOSIG,LEBL,2018-03-27T18:00:00Z,41.27,2.07,14.0,10.0,220,12,,6.21,30.059055,,,,,,TRUE,,,,,FEW,4000,,,,,,,VFR,,,,,,,,,,,,METAR,6.0
LEIB 271800Z 22010KT CAVOK 15/11 Q1022 NOSIG,LEIB,2018-03-27T18:00:00Z,38.87,1.37,15.0,11.0,220,10,,6.21,30.177166,,,,,,TRUE,,,,,CAVOK,,,,,,,,VFR,,,,,,,,,,,,METAR,12.0
OLBA 271800Z 13004KT 070V150 8000 SCT080 22/11 Q1014 NOSIG,OLBA,2018-03-27T18:00:00Z,33.82,35.47,22.0,11.0,130,4,,4.97,29.940945,,,,,,TRUE,,,,,SCT,8000,,,,,,,MVFR,,,,,,,,,,,,METAR,19.0
LRCT 271800Z 25004KT 7000 RA BKN015 OVC040 04/03 Q1011 WHT WHT,LRCT,2018-03-27T18:00:00Z,46.5,23.88,4.0,3.0,250,4,,4.35,29.852362,,,,,,,,,,RA,BKN,1500,OVC,4000,,,,,MVFR,,,,,,,,,,,,METAR,331.0
LEMD 271800Z 27006KT 220V340 CAVOK 20/03 Q1023 NOSIG,LEMD,2018-03-27T18:00:00Z,40.48,-3.57,20.0,3.0,270,6,,6.21,30.206694,,,,,,TRUE,,,,,CAVOK,,,,,,,,VFR,,,,,,,,,,,,METAR,582.0
LEVC 271800Z 12005KT CAVOK 20/06 Q1019 NOSIG,LEVC,2018-03-27T18:00:00Z,39.5,-0.47,20.0,6.0,120,5,,6.21,30.088583,,,,,,TRUE,,,,,CAVOK,,,,,,,,VFR,,,,,,,,,,,,METAR,62.0
LEPA 271800Z 24010KT CAVOK 14/10 Q1021 NOSIG,LEPA,2018-03-27T18:00:00Z,39.53,2.72,14.0,10.0,240,10,,6.21,30.147638,,,,,,TRUE,,,,,CAVOK,,,,,,,,VFR,,,,,,,,,,,,METAR,8.0
LEMG 271800Z 02006KT 350V050 CAVOK 18/09 Q1023 NOSIG,LEMG,2018-03-27T18:00:00Z,36.67,-4.5,18.0,9.0,20,6,,6.21,30.206694,,,,,,TRUE,,,,,CAVOK,,,,,,,,VFR,,,,,,,,,,,,METAR,7.0
LEVX 271800Z 27009KT 230V330 9999 FEW016 11/08 Q1027 NOSIG,LEVX,2018-03-27T18:00:00Z,42.22,-8.62,11.0,8.0,270,9,,6.21,30.324802,,,,,,TRUE,,,,,FEW,1600,,,,,,,VFR,,,,,,,,,,,,METAR,256.0
DIAP 271800Z 23009KT 9999 SCT012 29/26 Q1009 NOSIG,DIAP,2018-03-27T18:00:00Z,5.25,-3.92,29.0,26.0,230,9,,6.21,29.793306,,,,,,TRUE,,,,,SCT,1200,,,,,,,VFR,,,,,,,,,,,,SPECI,8.0
WIII 271800Z 29003KT 5000 HZ FEW020 25/24 Q1011 NOSIG,WIII,2018-03-27T18:00:00Z,-6.13,106.67,25.0,24.0,290,3,,3.11,29.852362,,,,,,TRUE,,,,HZ,FEW,2000,,,,,,,MVFR,,,,,,,,,,,,METAR,8.0
LHBP 271800Z 30007KT CAVOK 08/M01 Q1012 NOSIG,LHBP,2018-03-27T18:00:00Z,47.42,19.27,8.0,-1.0,300,7,,6.21,29.88189,,,,,,TRUE,,,,,CAVOK,,,,,,,,VFR,,,,,,,,,,,,METAR,185.0
LZTT 271800Z 17002KT 9999 FEW010 BKN026 00/M02 Q1011,LZTT,2018-03-27T18:00:00Z,49.07,20.25,0.0,-2.0,170,2,,6.21,29.852362,,,,,,,,,,,FEW,1000,BKN,2600,,,,,MVFR,,,,,,,,,,,,METAR,707.0
LZKZ 271800Z 01012KT 9999 BKN047 05/M00 Q1012,LZKZ,2018-03-27T18:00:00Z,48.67,21.23,5.0,0.0,10,12,,6.21,29.88189,,,,,,,,,,,BKN,4700,,,,,,,VFR,,,,,,,,,,,,METAR,232.0
LZIB 271800Z 30007KT 9999 FEW033 BKN085 06/01 Q1013 NOSIG,LZIB,2018-03-27T18:00:00Z,48.17,17.22,6.0,1.0,300,7,,6.21,29.911417,,,,,,TRUE,,,,,FEW,3300,BKN,8500,,,,,VFR,,,,,,,,,,,,METAR,134.0
LBSF 271800Z 27012KT 8000 FEW069 05/02 Q1013 NOSIG,LBSF,2018-03-27T18:00:00Z,42.7,23.42,5.0,2.0,270,12,,4.97,29.911417,,,,,,TRUE,,,,,FEW,6900,,,,,,,MVFR,,,,,,,,,,,,METAR,530.0
SBVT 271800Z 05007KT 9999 FEW023 FEW025TCU 29/23 Q1016,SBVT,2018-03-27T18:00:00Z,-20.27,-40.27,29.0,23.0,50,7,,6.21,30.0,,,,,,,,,,,FEW,2300,FEW,2500,,,,,VFR,,,,,,,,,,,,METAR,4.0
LBBG 271800Z VRB02KT 6000 -RA FEW004 BKN035 06/06 Q1013 R99/29//95 NOSIG,LBBG,2018-03-27T18:00:00Z,42.57,27.52,6.0,6.0,0,2,,3.73,29.911417,,,,,,TRUE,,,,-RA,FEW,400,BKN,3500,,,,,MVFR,,,,,,,,,,,,SPECI,28.0
LBWN 271800Z 29004KT 9999 SCT015 OVC021 07/06 Q1013 R99/29//95 NOSIG,LBWN,2018-03-27T18:00:00Z,43.22,27.82,7.0,6.0,290,4,,6.21,29.911417,,,,,,TRUE,,,,,SCT,1500,OVC,2100,,,,,MVFR,,,,,,,,,,,,SPECI,43.0
LEZL 271800Z VRB01KT CAVOK 23/11 Q1023 NOSIG,LEZL,2018-03-27T18:00:00Z,37.42,-5.9,23.0,11.0,0,1,,6.21,30.206694,,,,,,TRUE,,,,,CAVOK,,,,,,,,VFR,,,,,,,,,,,,METAR,31.0
LFCK 271800Z AUTO 27016KT 6000 RA OVC006/// ///CB 11/10 Q1020 TEMPO 3000 RA OVC002 BECMG 28018G30KT,LFCK,2018-03-27T18:00:00Z,43.55,2.28,11.0,10.0,270,16,,3.73,30.11811,,,TRUE,,,,,,,RA,OVC,600,,,,,,,IFR,,,,,,,,,,,,METAR,240.0
LFLP 271800Z AUTO 15008KT 6000 -DZ FEW016 BKN026 BKN033 06/04 Q1015 TEMPO 4000 RADZ BKN012 OVC020,LFLP,2018-03-27T18:00:00Z,45.92,6.08,6.0,4.0,150,8,,3.73,29.970472,,,TRUE,,,,,,,-DZ,FEW,1600,BKN,2600,BKN,3300,,,MVFR,,,,,,,,,,,,METAR,463.0
LFLU 271800Z AUTO 04004KT 9000 OVC042 09/07 Q1015,LFLU,2018-03-27T18:00:00Z,44.92,4.98,9.0,7.0,40,4,,5.59,29.970472,,,TRUE,,,,,,,,OVC,4200,,,,,,,VFR,,,,,,,,,,,,METAR,160.0
LFLX 271800Z AUTO 26012KT 9999 SCT024 BKN031 BKN043 13/10 Q1013 NOSIG,LFLX,2018-03-27T18:00:00Z,46.85,1.72,13.0,10.0,260,12,,6.21,29.911417,,,TRUE,,,TRUE,,,,,SCT,2400,BKN,3100,BKN,4300,,,VFR,,,,,,,,,,,,METAR,157.0
LFOH 271800Z AUTO 26015KT 9999 // OVC028 08/06 Q1010,LFOH,2018-03-27T18:00:00Z,49.52,0.07,8.0,6.0,260,15,,6.21,29.822834,,,TRUE,,,,,,,,OVC,2800,,,,,,,MVFR,,,,,,,,,,,,METAR,103.0
LFOP 271800Z AUTO 28014KT 9999 BKN016 OVC024 09/07 Q1009 TEMPO 28017G27KT BKN013,LFOP,2018-03-27T18:00:00Z,49.37,1.17,9.0,7.0,280,14,,6.21,29.793306,,,TRUE,,,,,,,,BKN,1600,OVC,2400,,,,,MVFR,,,,,,,,,,,,METAR,157.0
LFQA 271800Z AUTO 21007KT 9999 BKN021 BKN027 OVC037 10/08 Q1007,LFQA,2018-03-27T18:00:00Z,49.2,4.15,10.0,8.0,210,7,,6.21,29.734253,,,TRUE,,,,,,,,BKN,2100,BKN,2700,OVC,3700,,,MVFR,,,,,,,,,,,,METAR,95.0
LFQB 271800Z AUTO 21009KT CAVOK 10/08 Q1009,LFQB,2018-03-27T18:00:00Z,48.32,4.02,10.0,8.0,210,9,,6.21,29.793306,,,TRUE,,,,,,,,CAVOK,,,,,,,,VFR,,,,,,,,,,,,METAR,118.0
LFSN 271800Z AUTO 20007KT 160V240 3800 -RADZ BR OVC007 06/05 Q1009,LFSN,2018-03-27T18:00:00Z,48.67,6.22,6.0,5.0,200,7,,2.36,29.793306,,,TRUE,,,,,,,-RA -DZ BR,OVC,700,,,,,,,IFR,,,,,,,,,,,,METAR,217.0
LFCR 271800Z AUTO 28014KT 6000 -DZ OVC004 09/09 Q1017 TEMPO 2500 RADZ,LFCR,2018-03-27T18:00:00Z,44.38,2.47,9.0,9.0,280,14,,3.73,30.029528,,,TRUE,,,,,,,-DZ,OVC,400,,,,,,,LIFR,,,,,,,,,,,,SPECI,580.0
OMRK 271800Z 25004KT 8000 NSC 21/18 Q1014 A2996,OMRK,2018-03-27T18:00:00Z,25.62,55.92,21.0,18.0,250,4,,4.97,29.940945,,,,,,,,,,,CLR,,,,,,,,MVFR,,,,,,,,,,,,METAR,31.0
OMFJ 271800Z 06007KT 7000 NSC 26/23 Q1013 RMK A2991,OMFJ,2018-03-27T18:00:00Z,25.1,56.32,26.0,23.0,60,7,,4.35,29.911417,,,,,,,,,,,CLR,,,,,,,,MVFR,,,,,,,,,,,,METAR,28.0
OMDW 271800Z 24004KT CAVOK 24/18 Q1015 NOSIG,OMDW,2018-03-27T18:00:00Z,24.9,55.17,24.0,18.0,240,4,,6.21,29.970472,,,,,,TRUE,,,,,CAVOK,,,,,,,,VFR,,,,,,,,,,,,METAR,25.0
OMDB 271800Z 22005KT CAVOK 26/19 Q1014 NOSIG,OMDB,2018-03-27T18:00:00Z,25.25,55.37,26.0,19.0,220,5,,6.21,29.940945,,,,,,TRUE,,,,,CAVOK,,,,,,,,VFR,,,,,,,,,,,,METAR,5.0
OMAL 271800Z 33005KT CAVOK 24/11 Q1016 NOSIG,OMAL,2018-03-27T18:00:00Z,24.25,55.6,24.0,11.0,330,5,,6.21,30.0,,,,,,TRUE,,,,,CAVOK,,,,,,,,VFR,,,,,,,,,,,,METAR,262.0
OMAD 271800Z 32002KT CAVOK 26/12 Q1014 WS ALL RWY NOSIG,OMAD,2018-03-27T18:00:00Z,24.42,54.47,26.0,12.0,320,2,,6.21,29.940945,,,,,,TRUE,,,,,CAVOK,,,,,,,,VFR,,,,,,,,,,,,METAR,3.0
OMAA 271800Z 23002KT CAVOK 25/17 Q1014 WS ALL RWY TEMPO VRB02KT,OMAA,2018-03-27T18:00:00Z,24.42,54.63,25.0,17.0,230,2,,6.21,29.940945,,,,,,,,,,,CAVOK,,,,,,,,VFR,,,,,,,,,,,,METAR,27.0
LBPD 271800Z AUTO VRB02KT 9999 OVC066/// 10/08 Q1012 R99/19//95 NOSIG,LBPD,2018-03-27T18:00:00Z,42.13,24.8,10.0,8.0,0,2,,6.21,29.88189,,,TRUE,,,TRUE,,,,,OVC,6600,,,,,,,VFR,,,,,,,,,,,,SPECI,185.0
UKBB 271800Z VRB01MPS 9999 BKN049 03/00 Q1008 R88/CLRD// NOSIG,UKBB,2018-03-27T18:00:00Z,50.33,30.9,3.0,0.0,0,2,,6.21,29.763779,,,,,,TRUE,,,,,BKN,4900,,,,,,,VFR,,,,,,,,,,,,SPECI,119.0
LBPL 271800Z 24006KT 9999 BKN056 07/03 Q1014,LBPL,2018-03-27T18:00:00Z,43.45,24.5,7.0,3.0,240,6,,6.21,29.940945,,,,,,,,,,,BKN,5600,,,,,,,VFR,,,,,,,,,,,,METAR,101.0
LBPG 271800Z 21008KT 9999 BKN100 09/06 Q1011,LBPG,2018-03-27T18:00:00Z,42.28,24.72,9.0,6.0,210,8,,6.21,29.852362,,,,,,,,,,,BKN,10000,,,,,,,VFR,,,,,,,,,,,,METAR,58.0
OMSJ 271800Z 00000KT CAVOK 25/19 Q1014,OMSJ,2018-03-27T18:00:00Z,25.32,55.52,25.0,19.0,0,0,,6.21,29.940945,,,,,,,,,,,CAVOK,,,,,,,,VFR,,,,,,,,,,,,METAR,33.0
UKDD 271800Z 31006MPS 9999 OVC013 02/01 Q1007 R26/210360 NOSIG,UKDD,2018-03-27T18:00:00Z,48.37,35.1,2.0,1.0,310,12,,6.21,29.734253,,,,,,TRUE,,,,,OVC,1300,,,,,,,MVFR,,,,,,,,,,,,SPECI,149.0
UKDE 271800Z 28005MPS 250V320 5000 BR OVC007 02/02 Q1007 R02/210368 TEMPO 0300 FG VV002,UKDE,2018-03-27T18:00:00Z,47.87,35.32,2.0,2.0,280,10,,3.11,29.734253,,,,,,,,,,BR,OVC,700,,,,,,,IFR,,,,,,,,,,,,SPECI,113.0
UKOO 271800Z 33002MPS CAVOK 05/01 Q1011 R16/090060 NOSIG,UKOO,2018-03-27T18:00:00Z,46.42,30.68,5.0,1.0,330,4,,6.21,29.852362,,,,,,TRUE,,,,,CAVOK,,,,,,,,VFR,,,,,,,,,,,,SPECI,35.0
UKHH 271800Z 33004MPS 3900 BR BKN005 OVC/// 01/01 Q1006 R25/71//59 NOSIG,UKHH,2018-03-27T18:00:00Z,49.92,36.28,1.0,1.0,330,8,,2.42,29.704725,,,,,,TRUE,,,,BR,BKN,500,,,,,,,IFR,,,,,,,,,,,,SPECI,155.0
LDSP 271800Z 31007KT 9999 FEW060 11/M01 Q1013 NOSIG,LDSP,2018-03-27T18:00:00Z,43.52,16.3,11.0,-1.0,310,7,,6.21,29.911417,,,,,,TRUE,,,,,FEW,6000,,,,,,,VFR,,,,,,,,,,,,METAR,21.0
LDRI 271800Z 02005KT 7000 -RA FEW033 BKN050 09/04 Q1013,LDRI,2018-03-27T18:00:00Z,45.22,14.57,9.0,4.0,20,5,,4.35,29.911417,,,,,,,,,,-RA,FEW,3300,BKN,5000,,,,,MVFR,,,,,,,,,,,,METAR,85.0
LDPL 271800Z 08006KT CAVOK 06/03 Q1013 NOSIG,LDPL,2018-03-27T18:00:00Z,44.88,13.92,6.0,3.0,80,6,,6.21,29.911417,,,,,,TRUE,,,,,CAVOK,,,,,,,,VFR,,,,,,,,,,,,METAR,63.0
LDOS 271800Z 20006KT CAVOK 04/03 Q1013,LDOS,2018-03-27T18:00:00Z,45.47,18.82,4.0,3.0,200,6,,6.21,29.911417,,,,,,,,,,,CAVOK,,,,,,,,VFR,,,,,,,,,,,,METAR,89.0
LDDU 271800Z 09006KT CAVOK 09/06 Q1013 NOSIG,LDDU,2018-03-27T18:00:00Z,42.57,18.27,9.0,6.0,90,6,,6.21,29.911417,,,,,,TRUE,,,,,CAVOK,,,,,,,,VFR,,,,,,,,,,,,METAR,165.0
UKDR 271800Z 28003MPS CAVOK 02/00 Q1009 R36/19//60 NOSIG,UKDR,2018-03-27T18:00:00Z,48.05,33.22,2.0,0.0,280,6,,6.21,29.793306,,,,,,TRUE,,,,,CAVOK,,,,,,,,VFR,,,,,,,,,,,,SPECI,124.0
UKLL 271800Z 01004MPS 340V040 8000 OVC013 03/M00 Q1012 R31/CLRD// NOSIG,UKLL,2018-03-27T18:00:00Z,49.82,23.93,3.0,0.0,10,8,,4.97,29.88189,,,,,,TRUE,,,,,OVC,1300,,,,,,,MVFR,,,,,,,,,,,,SPECI,325.0
SBPL 271800Z 14012KT 9999 SCT035 SCT070 31/19 Q1012,SBPL,2018-03-27T18:00:00Z,-9.37,-40.57,31.0,19.0,140,12,,6.21,29.88189,,,,,,,,,,,SCT,3500,SCT,7000,,,,,VFR,,,,,,,,,,,,METAR,375.0
MZBZ 271800Z 08013G23KT 9999 BKN024 29/24 A2999 Q1015 NOSIG,MZBZ,2018-03-27T18:00:00Z,17.52,-88.3,29.0,24.0,80,13,23,6.21,29.970472,,,,,,TRUE,,,,,BKN,2400,,,,,,,MVFR,,,,,,,,,,,,METAR,5.0
NWWW 271800Z AUTO 10006KT 040V140 9999 FEW041/// BKN120/// ///TCU 24/22 Q1008 TEMPO 4000 SHRA BKN014 SCT020CB,NWWW,2018-03-27T18:00:00Z,-22.02,166.22,24.0,22.0,100,6,,6.21,29.763779,,,TRUE,,,,,,,,FEW,4100,BKN,12000,,,,,VFR,,,,,,,,,,,,SPECI,16.0
AGGH 271800Z 16003KT 9999 HZ FEW015 SCT300 24/23 Q1006,AGGH,2018-03-27T18:00:00Z,-9.42,160.05,24.0,23.0,160,3,,6.21,29.704725,,,,,,,,,,HZ,FEW,1500,SCT,30000,,,,,VFR,,,,,,,,,,,,METAR,9.0
SBJP 271800Z 12015KT 9999 BKN030 30/21 Q1011,SBJP,2018-03-27T18:00:00Z,-7.15,-34.95,30.0,21.0,120,15,,6.21,29.852362,,,,,,,,,,,BKN,3000,,,,,,,MVFR,,,,,,,,,,,,METAR,66.0
SOCA 271800Z AUTO 05014KT 8000 BKN024 BKN031 OVC042 28/24 Q1010 TEMPO 3000 SHRA SCT012TCU,SOCA,2018-03-27T18:00:00Z,4.82,-52.37,28.0,24.0,50,14,,4.97,29.822834,,,TRUE,,,,,,,,BKN,2400,BKN,3100,OVC,4200,,,MVFR,,,,,,,,,,,,SPECI,9.0
TFFR 271800Z AUTO 18006KT 130V240 9999 FEW035 29/22 Q1013 NOSIG,TFFR,2018-03-27T18:00:00Z,16.27,-61.53,29.0,22.0,180,6,,6.21,29.911417,,,TRUE,,,TRUE,,,,,FEW,3500,,,,,,,VFR,,,,,,,,,,,,METAR,11.0
LDZD 271800Z 34002KT CAVOK 07/00 Q1013 NOSIG,LDZD,2018-03-27T18:00:00Z,44.1,15.37,7.0,0.0,340,2,,6.21,29.911417,,,,,,TRUE,,,,,CAVOK,,,,,,,,VFR,,,,,,,,,,,,METAR,84.0
LDZA 271800Z 00000KT CAVOK 07/02 Q1013 NOSIG,LDZA,2018-03-27T18:00:00Z,45.72,16.07,7.0,2.0,0,0,,6.21,29.911417,,,,,,TRUE,,,,,CAVOK,,,,,,,,VFR,,,,,,,,,,,,METAR,107.0
LFJL 271800Z AUTO 18011KT 4500 -RA BR OVC009 06/05 Q1009 TEMPO RADZ,LFJL,2018-03-27T18:00:00Z,48.97,6.25,6.0,5.0,180,11,,2.8,29.793306,,,TRUE,,,,,,,-RA BR,OVC,900,,,,,,,IFR,,,,,,,,,,,,SPECI,264.0
LFKC 271800Z AUTO 21011G22KT 170V240 CAVOK 13/03 Q1013 NOSIG,LFKC,2018-03-27T18:00:00Z,42.52,8.8,13.0,3.0,210,11,22,6.21,29.911417,,,TRUE,,,TRUE,,,,,CAVOK,,,,,,,,VFR,,,,,,,,,,,,METAR,58.0
VGHS 271800Z 14005KT 3500 HZ NSC 26/21 Q1010 NOSIG,VGHS,2018-03-27T18:00:00Z,23.85,90.4,26.0,21.0,140,5,,2.17,29.822834,,,,,,TRUE,,,,HZ,CLR,,,,,,,,IFR,,,,,,,,,,,,METAR,10.0
FSIA 271800Z VRB02KT CAVOK 27/23 Q1012 NOSIG,FSIA,2018-03-27T18:00:00Z,-4.67,55.52,27.0,23.0,0,2,,6.21,29.88189,,,,,,TRUE,,,,,CAVOK,,,,,,,,VFR,,,,,,,,,,,,METAR,3.0
SBNF 271800Z 08006KT 9999 FEW020 BKN090 25/21 Q1015,SBNF,2018-03-27T18:00:00Z,-26.88,-48.65,25.0,21.0,80,6,,6.21,29.970472,,,,,,,,,,,FEW,2000,BKN,9000,,,,,VFR,,,,,,,,,,,,METAR,5.0
LFKF 271800Z AUTO 27012KT 9999 FEW037 BKN170 OVC190 12/07 Q1015 BECMG 24015G25KT RA,LFKF,2018-03-27T18:00:00Z,41.5,9.08,12.0,7.0,270,12,,6.21,29.970472,,,TRUE,,,,,,,,FEW,3700,BKN,17000,OVC,19000,,,VFR,,,,,,,,,,,,SPECI,23.0
LFKJ 271800Z AUTO 20004KT 160V230 9999 FEW027 12/07 Q1015 NOSIG,LFKJ,2018-03-27T18:00:00Z,41.92,8.8,12.0,7.0,200,4,,6.21,29.970472,,,TRUE,,,TRUE,,,,,FEW,2700,,,,,,,VFR,,,,,,,,,,,,METAR,9.0
LFLC 271800Z AUTO 28007KT 240V320 9999 FEW021 SCT033 BKN045 13/08 Q1013 NOSIG,LFLC,2018-03-27T18:00:00Z,45.77,3.17,13.0,8.0,280,7,,6.21,29.911417,,,TRUE,,,TRUE,,,,,FEW,2100,SCT,3300,BKN,4500,,,VFR,,,,,,,,,,,,METAR,330.0
LFLS 271800Z AUTO 08006KT 4400 -DZ BR BKN018 OVC023 07/05 Q1015 TEMPO DZRA BKN008 OVC015,LFLS,2018-03-27T18:00:00Z,45.37,5.32,7.0,5.0,80,6,,2.73,29.970472,,,TRUE,,,,,,,-DZ BR,BKN,1800,OVC,2300,,,,,IFR,,,,,,,,,,,,SPECI,386.0
LFMP 271800Z AUTO 31025G40KT 9999 FEW062 BKN088 16/08 Q1017 TEMPO 31020G30KT,LFMP,2018-03-27T18:00:00Z,42.72,2.87,16.0,8.0,310,25,40,6.21,30.029528,,,TRUE,,,,,,,,FEW,6200,BKN,8800,,,,,VFR,,,,,,,,,,,,SPECI,48.0
LFMV 271800Z AUTO VRB01KT 9999 BKN068 BKN150 13/06 Q1015 NOSIG,LFMV,2018-03-27T18:00:00Z,43.9,4.9,13.0,6.0,0,1,,6.21,29.970472,,,TRUE,,,TRUE,,,,,BKN,6800,BKN,15000,,,,,VFR,,,,,,,,,,,,METAR,38.0
LFSL 271800Z AUTO 27008KT 220V320 4300 -DZ BR OVC004 11/11 Q1017 TEMPO OVC006,LFSL,2018-03-27T18:00:00Z,45.03,1.48,11.0,11.0,270,8,,2.67,30.029528,,,TRUE,,,,,,,-DZ BR,OVC,400,,,,,,,LIFR,,,,,,,,,,,,SPECI,310.0
LFBA 271800Z AUTO 25010KT 220V280 3600 -RA BR BKN010/// OVC016/// ///TCU 12/11 Q1020 TEMPO 27015G25KT 2000 RADZ BKN003 OVC006,LFBA,2018-03-27T18:00:00Z,44.17,0.6,12.0,11.0,250,10,,2.24,30.11811,,,TRUE,,,,,,,-RA BR,BKN,1000,OVC,1600,,,,,IFR,,,,,,,,,,,,METAR,60.0
LFMI 271800Z AUTO 23005KT CAVOK 12/10 Q1015 BECMG 30010KT,LFMI,2018-03-27T18:00:00Z,43.52,4.92,12.0,10.0,230,5,,6.21,29.970472,,,TRUE,,,,,,,,CAVOK,,,,,,,,VFR,,,,,,,,,,,,METAR,24.0
LFOV 271800Z AUTO 31010KT 280V350 9999 SCT029 BKN039 BKN045 12/08 Q1012,LFOV,2018-03-27T18:00:00Z,48.03,-0.75,12.0,8.0,310,10,,6.21,29.88189,,,TRUE,,,,,,,,SCT,2900,BKN,3900,BKN,4500,,,VFR,,,,,,,,,,,,METAR,101.0
LFRI 271800Z AUTO 27013KT 9999 OVC009 12/10 Q1015 NOSIG,LFRI,2018-03-27T18:00:00Z,46.7,-1.37,12.0,10.0,270,13,,6.21,29.970472,,,TRUE,,,TRUE,,,,,OVC,900,,,,,,,IFR,,,,,,,,,,,,METAR,91.0
LFRM 271800Z AUTO 27010KT 240V320 9999 FEW034 14/08 Q1012 NOSIG,LFRM,2018-03-27T18:00:00Z,47.95,0.2,14.0,8.0,270,10,,6.21,29.88189,,,TRUE,,,TRUE,,,,,FEW,3400,,,,,,,VFR,,,,,,,,,,,,METAR,52.0
SBRB 271800Z 20004KT 9999 BKN025 SCT100 26/19 Q1013,SBRB,2018-03-27T18:00:00Z,-10.0,-67.78,26.0,19.0,200,4,,6.21,29.911417,,,,,,,,,,,BKN,2500,SCT,10000,,,,,MVFR,,,,,,,,,,,,METAR,143.0
LFRO 271800Z AUTO 26013KT 9999 BKN021 09/07 Q1013 NOSIG,LFRO,2018-03-27T18:00:00Z,48.75,-3.47,9.0,7.0,260,13,,6.21,29.911417,,,TRUE,,,TRUE,,,,,BKN,2100,,,,,,,MVFR,,,,,,,,,,,,METAR,89.0
LFRV 271800Z AUTO 28012KT 260V320 9999 BKN025 BKN032 12/09 Q1014,LFRV,2018-03-27T18:00:00Z,47.72,-2.72,12.0,9.0,280,12,,6.21,29.940945,,,TRUE,,,,,,,,BKN,2500,BKN,3200,,,,,MVFR,,,,,,,,,,,,METAR,133.0
LFRZ 271800Z AUTO 27011KT 9999 BKN010 BKN014 12/10 Q1015 TEMPO 28020G30KT,LFRZ,2018-03-27T18:00:00Z,47.32,-2.17,12.0,10.0,270,11,,6.21,29.970472,,,TRUE,,,,,,,,BKN,1000,BKN,1400,,,,,MVFR,,,,,,,,,,,,METAR,4.0
LFSG 271800Z AUTO 20011KT 170V230 6000 -DZ BKN008 OVC022 06/04 Q1010,LFSG,2018-03-27T18:00:00Z,48.33,6.07,6.0,4.0,200,11,,3.73,29.822834,,,TRUE,,,,,,,-DZ,BKN,800,OVC,2200,,,,,IFR,,,,,,,,,,,,METAR,330.0
LFBE 271800Z AUTO 26011KT 5000 -DZ BR OVC005 12/11 Q1019 TEMPO 1200 -DZ,LFBE,2018-03-27T18:00:00Z,44.82,0.52,12.0,11.0,260,11,,3.11,30.088583,,,TRUE,,,,,,,-DZ BR,OVC,500,,,,,,,IFR,,,,,,,,,,,,SPECI,52.0
LFGJ 271800Z AUTO 19014KT 4700 BR OVC007 07/06 Q1012 TEMPO BKN004,LFGJ,2018-03-27T18:00:00Z,47.05,5.43,7.0,6.0,190,14,,2.92,29.88189,,,TRUE,,,,,,,BR,OVC,700,,,,,,,IFR,,,,,,,,,,,,SPECI,196.0
LFMH 271800Z AUTO 13005KT 9999 OVC032 10/07 Q1014 NOSIG,LFMH,2018-03-27T18:00:00Z,45.52,4.28,10.0,7.0,130,5,,6.21,29.940945,,,TRUE,,,TRUE,,,,,OVC,3200,,,,,,,VFR,,,,,,,,,,,,METAR,402.0
LFMD 271800Z AUTO 00000KT CAVOK 13/05 Q1010 TEMPO 26010G20KT,LFMD,2018-03-27T18:00:00Z,43.53,6.95,13.0,5.0,0,0,,6.21,29.822834,,,TRUE,,,,,,,,CAVOK,,,,,,,,VFR,,,,,,,,,,,,SPECI,9.0
LFOT 271800Z AUTO 25011KT 9999 BKN026 BKN032 BKN043 14/10 Q1012 NOSIG,LFOT,2018-03-27T18:00:00Z,47.43,0.72,14.0,10.0,250,11,,6.21,29.88189,,,TRUE,,,TRUE,,,,,BKN,2600,BKN,3200,BKN,4300,,,MVFR,,,,,,,,,,,,METAR,108.0
LFRG 271800Z AUTO 29015KT 9999 OVC024 08/06 Q1010 TEMPO 28017G30KT,LFRG,2018-03-27T18:00:00Z,49.37,0.15,8.0,6.0,290,15,,6.21,29.822834,,,TRUE,,,,,,,,OVC,2400,,,,,,,MVFR,,,,,,,,,,,,SPECI,146.0
LFST 271800Z AUTO 18008KT 140V200 9999 -RADZ FEW035 BKN042 OVC048 08/04 Q1010 TEMPO 4000 RA,LFST,2018-03-27T18:00:00Z,48.53,7.62,8.0,4.0,180,8,,6.21,29.822834,,,TRUE,,,,,,,-RA -DZ,FEW,3500,BKN,4200,OVC,4800,,,VFR,,,,,,,,,,,,SPECI,154.0
LFTH 271800Z AUTO 27018KT CAVOK 13/07 Q1013 BECMG 26015G25KT,LFTH,2018-03-27T18:00:00Z,43.1,6.15,13.0,7.0,270,18,,6.21,29.911417,,,TRUE,,,,,,,,CAVOK,,,,,,,,VFR,,,,,,,,,,,,SPECI,4.0
LFTW 271800Z AUTO 20003KT 180V260 CAVOK 13/08 Q1015 NOSIG,LFTW,2018-03-27T18:00:00Z,43.75,4.42,13.0,8.0,200,3,,6.21,29.970472,,,TRUE,,,TRUE,,,,,CAVOK,,,,,,,,VFR,,,,,,,,,,,,METAR,96.0
LFSI 271800Z AUTO 21008KT 9999 SCT009 BKN013 BKN029 08/08 Q1009,LFSI,2018-03-27T18:00:00Z,48.62,4.9,8.0,8.0,210,8,,6.21,29.793306,,,TRUE,,,,,,,,SCT,900,BKN,1300,BKN,2900,,,MVFR,,,,,,,,,,,,METAR,140.0
LFSO 271800Z AUTO 20012KT 9999 -DZ OVC007 06/05 Q1009,LFSO,2018-03-27T18:00:00Z,48.57,5.97,6.0,5.0,200,12,,6.21,29.793306,,,TRUE,,,,,,,-DZ,OVC,700,,,,,,,IFR,,,,,,,,,,,,METAR,350.0
LFSX 271800Z AUTO 18005KT 140V240 4400 BR OVC009 06/05 Q1011 TEMPO RADZ,LFSX,2018-03-27T18:00:00Z,47.77,6.33,6.0,5.0,180,5,,2.73,29.852362,,,TRUE,,,,,,,BR,OVC,900,,,,,,,IFR,,,,,,,,,,,,SPECI,273.0
LFYR 271800Z AUTO 25008KT 220V280 9999 FEW022 SCT036 OVC066 13/10 Q1012,LFYR,2018-03-27T18:00:00Z,47.32,1.67,13.0,10.0,250,8,,6.21,29.88189,,,TRUE,,,,,,,,FEW,2200,SCT,3600,OVC,6600,,,VFR,,,,,,,,,,,,METAR,86.0
LFBI 271800Z AUTO 27013KT 9999 BKN017 BKN022 OVC036 13/09 Q1015 TEMPO 4000 -RADZ BKN008 OVC014,LFBI,2018-03-27T18:00:00Z,46.57,0.32,13.0,9.0,270,13,,6.21,29.970472,,,TRUE,,,,,,,,BKN,1700,BKN,2200,OVC,3600,,,MVFR,,,,,,,,,,,,SPECI,120.0
LFBL 271800Z AUTO 26011KT 230V290 3500 -RA BR OVC004 10/10 Q1016 NOSIG,LFBL,2018-03-27T18:00:00Z,45.87,1.17,10.0,10.0,260,11,,2.17,30.0,,,TRUE,,,TRUE,,,,-RA BR,OVC,400,,,,,,,LIFR,,,,,,,,,,,,METAR,402.0
LFBO 271800Z AUTO 26015KT 6000 -RA OVC011/// ///CB 11/10 Q1020 TEMPO 3000 OVC003 BECMG 27016G28KT,LFBO,2018-03-27T18:00:00Z,43.62,1.37,11.0,10.0,260,15,,3.73,30.11811,,,TRUE,,,,,,,-RA,OVC,1100,,,,,,,MVFR,,,,,,,,,,,,SPECI,153.0
LFBP 271800Z AUTO 25012KT 4500 -RA BR BKN007 OVC011 11/10 Q1023 TEMPO 27015G25KT 2000 DZRA,LFBP,2018-03-27T18:00:00Z,43.37,-0.42,11.0,10.0,250,12,,2.8,30.206694,,,TRUE,,,,,,,-RA BR,BKN,700,OVC,1100,,,,,IFR,,,,,,,,,,,,SPECI,185.0
LFBT 271800Z AUTO 26014KT 9000 -RA FEW009 SCT032 BKN044 10/09 Q1023 TEMPO 28018G35KT 4000 -RA BKN012,LFBT,2018-03-27T18:00:00Z,43.17,0.0,10.0,9.0,260,14,,5.59,30.206694,,,TRUE,,,,,,,-RA,FEW,900,SCT,3200,BKN,4400,,,VFR,,,,,,,,,,,,SPECI,363.0
LFBZ 271800Z AUTO 25009KT 200V280 9999 OVC014 12/11 Q1024 TEMPO RA BECMG BKN020,LFBZ,2018-03-27T18:00:00Z,43.47,-1.52,12.0,11.0,250,9,,6.21,30.236221,,,TRUE,,,,,,,,OVC,1400,,,,,,,MVFR,,,,,,,,,,,,SPECI,71.0
LFKB 271800Z AUTO 14003KT CAVOK 11/07 Q1013 NOSIG,LFKB,2018-03-27T18:00:00Z,42.53,9.47,11.0,7.0,140,3,,6.21,29.911417,,,TRUE,,,TRUE,,,,,CAVOK,,,,,,,,VFR,,,,,,,,,,,,METAR,12.0
LFLB 271800Z AUTO 22008KT 190V250 5000 -DZ BR BKN025 BKN032 BKN047 07/06 Q1016 TEMPO RADZ BKN012 OVC030,LFLB,2018-03-27T18:00:00Z,45.63,5.87,7.0,6.0,220,8,,3.11,30.0,,,TRUE,,,,,,,-DZ BR,BKN,2500,BKN,3200,BKN,4700,,,MVFR,,,,,,,,,,,,SPECI,239.0
LFOC 271800Z AUTO 29015KT 7000 FEW045 13/07 Q1011 TEMPO 27015G30KT 4000 -SHRA,LFOC,2018-03-27T18:00:00Z,48.03,1.37,13.0,7.0,290,15,,4.35,29.852362,,,TRUE,,,,,,,,FEW,4500,,,,,,,MVFR,,,,,,,,,,,,METAR,127.0
LFML 271800Z AUTO 26006KT CAVOK 12/07 Q1015 NOSIG,LFML,2018-03-27T18:00:00Z,43.45,5.22,12.0,7.0,260,6,,6.21,29.970472,,,TRUE,,,TRUE,,,,,CAVOK,,,,,,,,VFR,,,,,,,,,,,,METAR,36.0
LFOE 271800Z AUTO 28017KT 9999 OVC036 11/07 Q1009 TEMPO 27020G30KT,LFOE,2018-03-27T18:00:00Z,49.02,1.22,11.0,7.0,280,17,,6.21,29.793306,,,TRUE,,,,,,,,OVC,3600,,,,,,,VFR,,,,,,,,,,,,SPECI,146.0
LFOJ 271800Z AUTO 28013KT 9999 FEW035 SCT044 BKN054 13/08 Q1010 TEMPO 27015G30KT 4000 -SHRA,LFOJ,2018-03-27T18:00:00Z,47.97,1.75,13.0,8.0,280,13,,6.21,29.822834,,,TRUE,,,,,,,,FEW,3500,SCT,4400,BKN,5400,,,VFR,,,,,,,,,,,,SPECI,125.0
LFRJ 271800Z AUTO 29008KT 9999 OVC020 10/07 Q1014 TEMPO 3000 -RADZ OVC002,LFRJ,2018-03-27T18:00:00Z,48.52,-4.15,10.0,7.0,290,8,,6.21,29.940945,,,TRUE,,,,,,,,OVC,2000,,,,,,,MVFR,,,,,,,,,,,,METAR,115.0
LFRL 271800Z AUTO 28008KT 9999 3400 FEW007 BKN015 OVC022 10/09 Q1014 BECMG 29015G25KT 3000 -RADZ BKN005 OVC010,LFRL,2018-03-27T18:00:00Z,48.27,-4.42,10.0,9.0,280,8,,6.21,29.940945,,,TRUE,,,,,,,,FEW,700,BKN,1500,OVC,2200,,,MVFR,,,,,,,,,,,,METAR,82.0
UBBQ 271800Z 00000KT 9999 NSC 09/06 Q1013 R34/////// NOSIG RMK MT OP,UBBQ,2018-03-27T18:00:00Z,40.82,47.72,9.0,6.0,0,0,,6.21,29.911417,,,,,,TRUE,,,,,CLR,,,,,,,,VFR,,,,,,,,,,,,METAR,338.0
LFLY 271800Z AUTO 14005KT 100V170 4900 BR FEW010 BKN020 OVC029 08/06 Q1014 TEMPO BKN009,LFLY,2018-03-27T18:00:00Z,45.72,4.95,8.0,6.0,140,5,,3.04,29.940945,,,TRUE,,,,,,,BR,FEW,1000,BKN,2000,OVC,2900,,,MVFR,,,,,,,,,,,,METAR,201.0
LFMK 271800Z AUTO 29020KT 9999 FEW025/// BKN060/// BKN072/// ///CB 12/09 Q1019 TEMPO 4000 RA BR OVC015 BECMG 29020G30KT,LFMK,2018-03-27T18:00:00Z,43.22,2.32,12.0,9.0,290,20,,6.21,30.088583,,,TRUE,,,,,,,,FEW,2500,BKN,6000,BKN,7200,,,VFR,,,,,,,,,,,,SPECI,130.0
LFMT 271800Z AUTO 29015KT 9999 SCT047 16/08 Q1015 NOSIG,LFMT,2018-03-27T18:00:00Z,43.57,3.97,16.0,8.0,290,15,,6.21,29.970472,,,TRUE,,,TRUE,,,,,SCT,4700,,,,,,,VFR,,,,,,,,,,,,METAR,6.0
LFMU 271800Z AUTO 26014KT 9999 OVC049 15/09 Q1016 NOSIG,LFMU,2018-03-27T18:00:00Z,43.32,3.35,15.0,9.0,260,14,,6.21,30.0,,,TRUE,,,TRUE,,,,,OVC,4900,,,,,,,VFR,,,,,,,,,,,,METAR,17.0
LFOB 271800Z AUTO 27014KT 9999 BKN016 OVC024 11/08 Q1008 TEMPO BKN013,LFOB,2018-03-27T18:00:00Z,49.47,2.12,11.0,8.0,270,14,,6.21,29.763779,,,TRUE,,,,,,,,BKN,1600,OVC,2400,,,,,MVFR,,,,,,,,,,,,SPECI,111.0
LFOK 271800Z AUTO 21011KT 9999 FEW005/// BKN009/// BKN021/// ///TCU 09/09 Q1008 BECMG BKN025,LFOK,2018-03-27T18:00:00Z,48.78,4.18,9.0,9.0,210,11,,6.21,29.763779,,,TRUE,,,,,,,,FEW,500,BKN,900,BKN,2100,,,IFR,,,,,,,,,,,,SPECI,162.0
LFPB 271800Z AUTO 28011KT 9999 SCT019 SCT033 BKN040 11/09 Q1009 TEMPO 27015G25KT,LFPB,2018-03-27T18:00:00Z,48.97,2.45,11.0,9.0,280,11,,6.21,29.793306,,,TRUE,,,,,,,,SCT,1900,SCT,3300,BKN,4000,,,VFR,,,,,,,,,,,,SPECI,65.0
LFRD 271800Z AUTO 29013KT 9999 BKN018 BKN024 OVC030 09/07 Q1013 NOSIG,LFRD,2018-03-27T18:00:00Z,48.58,-2.07,9.0,7.0,290,13,,6.21,29.911417,,,TRUE,,,TRUE,,,,,BKN,1800,BKN,2400,OVC,3000,,,MVFR,,,,,,,,,,,,METAR,59.0
LFRN 271800Z AUTO 30012KT 280V350 9999 SCT035 BKN041 12/08 Q1013 NOSIG,LFRN,2018-03-27T18:00:00Z,48.07,-1.72,12.0,8.0,300,12,,6.21,29.911417,,,TRUE,,,TRUE,,,,,SCT,3500,BKN,4100,,,,,VFR,,,,,,,,,,,,METAR,37.0
LFSB 271800Z 21002KT 9999 OVC033 08/03 Q1011 NOSIG,LFSB,2018-03-27T18:00:00Z,47.6,7.52,8.0,3.0,210,2,,6.21,29.852362,,,,,,TRUE,,,,,OVC,3300,,,,,,,VFR,,,,,,,,,,,,METAR,271.0
LFBD 271800Z AUTO 28013KT 4700 -DZ BR OVC006 12/12 Q1020 TEMPO 1500 RA OVC004,LFBD,2018-03-27T18:00:00Z,44.82,-0.7,12.0,12.0,280,13,,2.92,30.11811,,,TRUE,,,,,,,-DZ BR,OVC,600,,,,,,,IFR,,,,,,,,,,,,SPECI,61.0
LFBH 271800Z AUTO 29013KT 9999 OVC006 12/11 Q1017 TEMPO 27015G30KT 1500 -DZ OVC002,LFBH,2018-03-27T18:00:00Z,46.18,-1.2,12.0,11.0,290,13,,6.21,30.029528,,,TRUE,,,,,,,,OVC,600,,,,,,,IFR,,,,,,,,,,,,SPECI,10.0
LFLL 271800Z 13006KT 090V150 4100 BR FEW007 OVC021 08/06 Q1014 NOSIG,LFLL,2018-03-27T18:00:00Z,45.72,5.07,8.0,6.0,130,6,,2.55,29.940945,,,,,,TRUE,,,,BR,FEW,700,OVC,2100,,,,,IFR,,,,,,,,,,,,METAR,240.0
LFMN 271800Z 07006KT CAVOK 13/09 Q1010 NOSIG,LFMN,2018-03-27T18:00:00Z,43.63,7.2,13.0,9.0,70,6,,6.21,29.822834,,,,,,TRUE,,,,,CAVOK,,,,,,,,VFR,,,,,,,,,,,,METAR,10.0
LFPG 271800Z 27013KT 9999 SHRA BKN016 BKN033 BKN053 11/09 Q1008 NOSIG,LFPG,2018-03-27T18:00:00Z,49.02,2.52,11.0,9.0,270,13,,6.21,29.763779,,,,,,TRUE,,,,SHRA,BKN,1600,BKN,3300,BKN,5300,,,MVFR,,,,,,,,,,,,METAR,109.0
LFPO 271800Z 27011KT 9999 FEW026 BKN060 12/08 Q1009 NOSIG,LFPO,2018-03-27T18:00:00Z,48.72,2.38,12.0,8.0,270,11,,6.21,29.793306,,,,,,TRUE,,,,,FEW,2600,BKN,6000,,,,,VFR,,,,,,,,,,,,METAR,96.0
LFQQ 271800Z AUTO 25009KT 9999 OVC007 10/09 Q1005 TEMPO 3000 -DZRA,LFQQ,2018-03-27T18:00:00Z,50.57,3.1,10.0,9.0,250,9,,6.21,29.675198,,,TRUE,,,,,,,,OVC,700,,,,,,,IFR,,,,,,,,,,,,SPECI,52.0
LFRB 271800Z AUTO 28009KT 250V310 9999 BKN014 OVC019 10/09 Q1014 BECMG 22015G25KT 3000 RA SCT005 BKN008,LFRB,2018-03-27T18:00:00Z,48.45,-4.42,10.0,9.0,280,9,,6.21,29.940945,,,TRUE,,,,,,,,BKN,1400,OVC,1900,,,,,MVFR,,,,,,,,,,,,SPECI,103.0
LFRS 271800Z AUTO 28014KT 9999 OVC010 12/10 Q1015 TEMPO 28015G30KT BKN020,LFRS,2018-03-27T18:00:00Z,47.17,-1.6,12.0,10.0,280,14,,6.21,29.970472,,,TRUE,,,,,,,,OVC,1000,,,,,,,MVFR,,,,,,,,,,,,SPECI,27.0
LJLJ 271800Z 13004KT 9999 VCSH FEW040 SCT055 BKN070 06/02 Q1013 NOSIG,LJLJ,2018-03-27T18:00:00Z,46.22,14.47,6.0,2.0,130,4,,6.21,29.911417,,,,,,TRUE,,,,VCSH,FEW,4000,SCT,5500,BKN,7000,,,VFR,,,,,,,,,,,,METAR,385.0
LJMB 271800Z 34016KT 9999 -RA SCT045 SCT070 OVC090 06/04 Q1014,LJMB,2018-03-27T18:00:00Z,46.47,15.67,6.0,4.0,340,16,,6.21,29.940945,,,,,,,,,,-RA,SCT,4500,SCT,7000,OVC,9000,,,VFR,,,,,,,,,,,,METAR,265.0
LJPZ 271800Z 11004KT 9999 FEW065 SCT080 10/03 Q1013,LJPZ,2018-03-27T18:00:00Z,45.47,13.62,10.0,3.0,110,4,,6.21,29.911417,,,,,,,,,,,FEW,6500,SCT,8000,,,,,VFR,,,,,,,,,,,,METAR,2.0
LJCE 271800Z 27008KT CAVOK 07/04 Q1014 RMK BLU,LJCE,2018-03-27T18:00:00Z,45.9,15.52,7.0,4.0,270,8,,6.21,29.940945,,,,,,,,,,,CAVOK,,,,,,,,VFR,,,,,,,,,,,,METAR,155.0
LEAB 271800Z 30011KT CAVOK 17/03 Q1024 NOSIG,LEAB,2018-03-27T18:00:00Z,38.95,-1.85,17.0,3.0,300,11,,6.21,30.236221,,,,,,TRUE,,,,,CAVOK,,,,,,,,VFR,,,,,,,,,,,,METAR,704.0
LEBZ 271800Z 35007KT CAVOK 22/06 Q1024,LEBZ,2018-03-27T18:00:00Z,38.87,-6.82,22.0,6.0,350,7,,6.21,30.236221,,,,,,,,,,,CAVOK,,,,,,,,VFR,,,,,,,,,,,,METAR,192.0
LELC 271800Z 22013KT 190V250 CAVOK 19/05 Q1021 NOSIG,LELC,2018-03-27T18:00:00Z,37.77,-0.8,19.0,5.0,220,13,,6.21,30.147638,,,,,,TRUE,,,,,CAVOK,,,,,,,,VFR,,,,,,,,,,,,METAR,3.0
LELN 271800Z 29010KT CAVOK 15/M04 Q1024,LELN,2018-03-27T18:00:00Z,42.57,-5.65,15.0,-4.0,290,10,,6.21,30.236221,,,,,,,,,,,CAVOK,,,,,,,,VFR,,,,,,,,,,,,METAR,914.0
LETO 271800Z 02005KT CAVOK 19/06 Q1023 NOSIG,LETO,2018-03-27T18:00:00Z,40.47,-3.47,19.0,6.0,20,5,,6.21,30.206694,,,,,,TRUE,,,,,CAVOK,,,,,,,,VFR,,,,,,,,,,,,METAR,608.0
SBCJ 271800Z 07004KT 9999 SCT030 28/21 Q1013,SBCJ,2018-03-27T18:00:00Z,-6.12,-50.0,28.0,21.0,70,4,,6.21,29.911417,,,,,,,,,,,SCT,3000,,,,,,,VFR,,,,,,,,,,,,METAR,621.0
SBCG 271800Z 35013KT 9999 VCSH SCT030 FEW035TCU 28/21 Q1014,SBCG,2018-03-27T18:00:00Z,-20.47,-54.67,28.0,21.0,350,13,,6.21,29.940945,,,,,,,,,,VCSH,SCT,3000,FEW,3500,,,,,VFR,,,,,,,,,,,,METAR,567.0
SBCY 271800Z 28005KT 9999 BKN020 26/24 Q1011 RERA,SBCY,2018-03-27T18:00:00Z,-15.65,-56.12,26.0,24.0,280,5,,6.21,29.852362,,,,,,,,,,,BKN,2000,,,,,,,MVFR,,,,,,,,,,,,METAR,182.0
OPST 271800Z 36002KT 4000 FU NSC 21/15 Q1010 NOSIG RH69,OPST,2018-03-27T18:00:00Z,32.53,74.37,21.0,15.0,360,2,,2.49,29.822834,,,,,,TRUE,,,,FU,CLR,,,,,,,,IFR,,,,,,,,,,,,METAR,247.0
SBKP 271800Z 35007KT 300V050 9999 VCSH SCT040 FEW050TCU 30/16 Q 1016,SBKP,2018-03-27T18:00:00Z,-23.0,-47.12,30.0,16.0,350,7,,6.21,,,,,,,,,,,VCSH,SCT,4000,FEW,5000,,,,,VFR,,,,,,,,,,,,METAR,661.0
LEJR 271800Z 34005KT CAVOK 21/11 Q1023,LEJR,2018-03-27T18:00:00Z,36.75,-6.07,21.0,11.0,340,5,,6.21,30.206694,,,,,,,,,,,CAVOK,,,,,,,,VFR,,,,,,,,,,,,METAR,30.0
LELL 271800Z VRB02KT 9999 FEW010 15/11 Q1018,LELL,2018-03-27T18:00:00Z,41.52,2.1,15.0,11.0,0,2,,6.21,30.059055,,,,,,,,,,,FEW,1000,,,,,,,VFR,,,,,,,,,,,,METAR,250.0
LEPP 271800Z 07005KT 040V100 9999 FEW018 SCT035 12/09 Q1023,LEPP,2018-03-27T18:00:00Z,42.77,-1.65,12.0,9.0,70,5,,6.21,30.206694,,,,,,,,,,,FEW,1800,SCT,3500,,,,,VFR,,,,,,,,,,,,METAR,459.0
LEXJ 271800Z 25009KT 220V290 9999 BKN020 14/11 Q1024,LEXJ,2018-03-27T18:00:00Z,43.42,-3.82,14.0,11.0,250,9,,6.21,30.236221,,,,,,,,,,,BKN,2000,,,,,,,MVFR,,,,,,,,,,,,METAR,6.0
LETL 271800Z AUTO 33013KT 9999 NCD 15/01 Q1023,LETL,2018-03-27T18:00:00Z,40.42,-1.22,15.0,1.0,330,13,,6.21,30.206694,,,TRUE,,,,,,,,CLR,,,,,,,,VFR,,,,,,,,,,,,METAR,1013.0
LEAG 271800Z AUTO VRB08KT CAVOK 22/12 Q1023,LEAG,2018-03-27T18:00:00Z,,,22.0,12.0,0,8,,6.21,30.206694,,,TRUE,,,,,,,,CAVOK,,,,,,,,VFR,,,,,,,,,,,,METAR,
LRBS 271800Z 00000KT 7000 BKN023 06/05 Q1012 TEMPO 5000 -DZ,LRBS,2018-03-27T18:00:00Z,44.5,26.08,6.0,5.0,0,0,,4.35,29.88189,,,,,,,,,,,BKN,2300,,,,,,,MVFR,,,,,,,,,,,,SPECI,91.0
LRCK 271800Z 27008KT 5000 BR SCT015 04/03 Q1012 R36/19//95 NOSIG,LRCK,2018-03-27T18:00:00Z,44.37,28.48,4.0,3.0,270,8,,3.11,29.88189,,,,,,TRUE,,,,BR,SCT,1500,,,,,,,MVFR,,,,,,,,,,,,SPECI,108.0
LROP 271800Z 20002KT 5000 BR OVC025 04/03 Q1012 NOSIG,LROP,2018-03-27T18:00:00Z,44.57,26.1,4.0,3.0,200,2,,3.11,29.88189,,,,,,TRUE,,,,BR,OVC,2500,,,,,,,MVFR,,,,,,,,,,,,METAR,95.0
LRSB 271800Z 31010KT 9999 SCT020 BKN035 04/01 Q1011 R27/29//95,LRSB,2018-03-27T18:00:00Z,45.78,24.08,4.0,1.0,310,10,,6.21,29.852362,,,,,,,,,,,SCT,2000,BKN,3500,,,,,VFR,,,,,,,,,,,,METAR,444.0
LRTR 271800Z 16001KT 9999 FEW042 06/05 Q1012 R11/190095,LRTR,2018-03-27T18:00:00Z,45.82,21.33,6.0,5.0,160,1,,6.21,29.88189,,,,,,,,,,,FEW,4200,,,,,,,VFR,,,,,,,,,,,,SPECI,88.0
LRBC 271800Z 17005KT 7000 SCT043 OVC050 04/01 Q1011,LRBC,2018-03-27T18:00:00Z,46.52,26.92,4.0,1.0,170,5,,4.35,29.852362,,,,,,,,,,,SCT,4300,OVC,5000,,,,,MVFR,,,,,,,,,,,,METAR,185.0
LRSV 271800Z 23006KT 7000 NSC 02/00 Q1010 RERA,LRSV,2018-03-27T18:00:00Z,47.68,26.35,2.0,0.0,230,6,,4.35,29.822834,,,,,,,,,,,CLR,,,,,,,,MVFR,,,,,,,,,,,,METAR,351.0
LRIA 271800Z 34003KT 9999 BKN048 04/00 Q1012,LRIA,2018-03-27T18:00:00Z,47.17,27.62,4.0,0.0,340,3,,6.21,29.88189,,,,,,,,,,,BKN,4800,,,,,,,VFR,,,,,,,,,,,,METAR,104.0
LRCV 271800Z AUTO 24006KT 9000 NCD 05/00 Q1012,LRCV,2018-03-27T18:00:00Z,44.32,23.88,5.0,0.0,240,6,,5.59,29.88189,,,TRUE,,,,,,,,CLR,,,,,,,,VFR,,,,,,,,,,,,METAR,191.0
LRTC 271800Z AUTO 23004KT 9999 FEW024/// BKN075/// 06/04 Q1012,LRTC,2018-03-27T18:00:00Z,45.07,28.72,6.0,4.0,230,4,,6.21,29.88189,,,TRUE,,,,,,,,FEW,2400,BKN,7500,,,,,VFR,,,,,,,,,,,,METAR,6.0
NGFU 271800Z 36010KT 9999 FEW019 SCT300 28/23 Q1008,NGFU,2018-03-27T18:00:00Z,-8.52,179.22,28.0,23.0,360,10,,6.21,29.763779,,,,,,,,,,,FEW,1900,SCT,30000,,,,,VFR,,,,,,,,,,,,METAR,1.0
SBSN 271800Z 07009KT 9999 SCT020 31/24 Q1009,SBSN,2018-03-27T18:00:00Z,-2.42,-54.78,31.0,24.0,70,9,,6.21,29.793306,,,,,,,,,,,SCT,2000,,,,,,,VFR,,,,,,,,,,,,METAR,72.0
GVSV 271800Z 06019KT 9999 FEW022 24/15 Q1015 NOSIG,GVSV,2018-03-27T18:00:00Z,16.83,-25.07,24.0,15.0,60,19,,6.21,29.970472,,,,,,TRUE,,,,,FEW,2200,,,,,,,VFR,,,,,,,,,,,,METAR,20.0
MROC 271800Z 09020G30KT 060V120 CAVOK 29/15 A2996 NOSIG,MROC,2018-03-27T18:00:00Z,10.0,-84.22,29.0,15.0,90,20,30,6.21,29.958662,,,,,,TRUE,,,,,CAVOK,,,,,,,,VFR,,,,,,,,,,,,METAR,920.0
SBCZ 271800Z 20004KT 3000 -RA BKN008 OVC080 22/21 Q1013,SBCZ,2018-03-27T18:00:00Z,-7.62,-72.77,22.0,21.0,200,4,,1.86,29.911417,,,,,,,,,,-RA,BKN,800,OVC,8000,,,,,IFR,,,,,,,,,,,,METAR,170.0
TNCM 271800Z 13010KT 100V160 9999 FEW018 28/21 Q1014 A2995 NOSIG ,TNCM,2018-03-27T18:00:00Z,18.05,-63.12,28.0,21.0,130,10,,6.21,29.940945,,,,,,TRUE,,,,,FEW,1800,,,,,,,VFR,,,,,,,,,,,,METAR,4.0
MDAB 271800Z 00000KT 7000 RA BKN014 OVC070 22/22 Q1018,MDAB,2018-03-27T18:00:00Z,19.2,-69.43,22.0,22.0,0,0,,4.35,30.059055,,,,,,,,,,RA,BKN,1400,OVC,7000,,,,,MVFR,,,,,,,,,,,,METAR,35.0
MDCY 271800Z 08015KT 9999 BKN014 BKN070 25/21 Q1017,MDCY,2018-03-27T18:00:00Z,19.27,-69.73,25.0,21.0,80,15,,6.21,30.029528,,,,,,,,,,,BKN,1400,BKN,7000,,,,,MVFR,,,,,,,,,,,,METAR,10.0
MDLR 271800Z 04008KT 8000 VCSH SCT020 28/23 Q1015,MDLR,2018-03-27T18:00:00Z,18.45,-68.92,28.0,23.0,40,8,,4.97,29.970472,,,,,,,,,,VCSH,SCT,2000,,,,,,,MVFR,,,,,,,,,,,,METAR,8.0
MDSD 271800Z 36005KT 340V060 7000 -RA FEW014CB BKN016 BKN070 25/22 Q1014 CB/NE/E/SE/N,MDSD,2018-03-27T18:00:00Z,18.42,-69.67,25.0,22.0,360,5,,4.35,29.940945,,,,,,,,,,-RA,FEW,1400,BKN,1600,BKN,7000,,,MVFR,,,,,,,,,,,,METAR,18.0
LRCL 271800Z 29006KT 9999 BKN036 05/02 Q1011 R07/29//95,LRCL,2018-03-27T18:00:00Z,46.78,23.68,5.0,2.0,290,6,,6.21,29.852362,,,,,,,,,,,BKN,3600,,,,,,,VFR,,,,,,,,,,,,METAR,413.0
LRAR 271800Z 21002KT CAVOK 04/04 Q1013 R09/29//95,LRAR,2018-03-27T18:00:00Z,46.18,21.27,4.0,4.0,210,2,,6.21,29.911417,,,,,,,,,,,CAVOK,,,,,,,,VFR,,,,,,,,,,,,METAR,118.0
RKSM 271800Z 21003KT 4400 BR SKC 10/08 A3004,RKSM,2018-03-27T18:00:00Z,37.42,127.12,10.0,8.0,210,3,,2.73,30.041338,,,,,,,,,,BR,SKC,,,,,,,,IFR,,,,,,,,,,,,METAR,20.0
SBSP 271800Z 07005KT 9999 BKN048 27/17 Q1019,SBSP,2018-03-27T18:00:00Z,-23.62,-46.63,27.0,17.0,70,5,,6.21,30.088583,,,,,,,,,,,BKN,4800,,,,,,,VFR,,,,,,,,,,,,METAR,803.0
SBLO 271800Z 09009KT 9999 BKN030 25/21 Q1016,SBLO,2018-03-27T18:00:00Z,-23.32,-51.12,25.0,21.0,90,9,,6.21,30.0,,,,,,,,,,,BKN,3000,,,,,,,MVFR,,,,,,,,,,,,METAR,570.0
LRSM 271800Z AUTO 25006KT 9999 BKN055/// 06/03 Q1011,LRSM,2018-03-27T18:00:00Z,47.7,22.88,6.0,3.0,250,6,,6.21,29.852362,,,TRUE,,,,,,,,BKN,5500,,,,,,,VFR,,,,,,,,,,,,METAR,124.0
LROD 271800Z 15004KT 6000 NSC 04/03 Q1013 R01/29//95,LROD,2018-03-27T18:00:00Z,47.03,21.92,4.0,3.0,150,4,,3.73,29.911417,,,,,,,,,,,CLR,,,,,,,,MVFR,,,,,,,,,,,,METAR,140.0
SPJC 271800Z 30005KT 250V340 CAVOK 24/19 Q1010 NOSIG RMK PP000,SPJC,2018-03-27T18:00:00Z,-12.02,-77.12,24.0,19.0,300,5,,6.21,29.822834,,,,,,TRUE,,,,,CAVOK,,,,,,,,VFR,,,,,,,,,,,,SPECI,13.0
WAMM 271800Z VRB01KT 9000 SCT021 25/24 Q1008 NOSIG,WAMM,2018-03-27T18:00:00Z,1.55,124.92,25.0,24.0,0,1,,5.59,29.763779,,,,,,TRUE,,,,,SCT,2100,,,,,,,VFR,,,,,,,,,,,,METAR,80.0
OKBK 271800Z 19005KT CAVOK 25/06 Q1014 NOSIG,OKBK,2018-03-27T18:00:00Z,29.22,47.97,25.0,6.0,190,5,,6.21,29.940945,,,,,,TRUE,,,,,CAVOK,,,,,,,,VFR,,,,,,,,,,,,METAR,55.0
OJAM 271800Z 00000KT 4000 DU NSC 21/05 Q1016 NOSIG,OJAM,2018-03-27T18:00:00Z,31.97,35.97,21.0,5.0,0,0,,2.49,30.0,,,,,,TRUE,,,,DU,CLR,,,,,,,,IFR,,,,,,,,,,,,METAR,773.0
OJAI 271800Z 00000KT 8000 NSC 19/02 Q1016 NOSIG,OJAI,2018-03-27T18:00:00Z,31.72,36.0,19.0,2.0,0,0,,4.97,30.0,,,,,,TRUE,,,,,CLR,,,,,,,,MVFR,,,,,,,,,,,,METAR,730.0
SBCF 271800Z 06009KT 9999 SCT040 27/12 Q1019,SBCF,2018-03-27T18:00:00Z,-19.63,-43.97,27.0,12.0,60,9,,6.21,30.088583,,,,,,,,,,,SCT,4000,,,,,,,VFR,,,,,,,,,,,,METAR,828.0
LPBJ 271800Z 34008KT CAVOK 22/06 Q1025,LPBJ,2018-03-27T18:00:00Z,38.08,-7.93,22.0,6.0,340,8,,6.21,30.265747,,,,,,,,,,,CAVOK,,,,,,,,VFR,,,,,,,,,,,,SPECI,194.0
SMZO 271800Z 04010KT 9999 SCT030 31/23 Q1010 NOSIG,SMZO,2018-03-27T18:00:00Z,5.82,-55.18,31.0,23.0,40,10,,6.21,29.822834,,,,,,TRUE,,,,,SCT,3000,,,,,,,VFR,,,,,,,,,,,,METAR,10.0
SMJP 271800Z 06012KT 9999 -SHRA FEW018CB SCT025 30/23 Q1010 NOSIG,SMJP,2018-03-27T18:00:00Z,5.45,-55.17,30.0,23.0,60,12,,6.21,29.822834,,,,,,TRUE,,,,-SHRA,FEW,1800,SCT,2500,,,,,VFR,,,,,,,,,,,,METAR,16.0
MDJB 271800Z 06010KT 8000 -RA FEW016CB BKN018 SCT070 27/23 Q1015 CB NE/E/W,MDJB,2018-03-27T18:00:00Z,18.57,-69.98,27.0,23.0,60,10,,4.97,29.970472,,,,,,,,,,-RA,FEW,1600,BKN,1800,SCT,7000,,,MVFR,,,,,,,,,,,,METAR,30.0
SCVM 271800Z 33011KT CAVOK 17/13 Q1012,SCVM,2018-03-27T18:00:00Z,-32.95,-71.48,17.0,13.0,330,11,,6.21,29.88189,,,,,,,,,,,CAVOK,,,,,,,,VFR,,,,,,,,,,,,METAR,141.0
TUPJ 271800Z 00000KT 9999SM -SHRA BKN018 28/20 A2997 RMK Q1014,TUPJ,2018-03-27T18:00:00Z,18.43,-64.52,28.0,20.0,0,0,,99.0,29.970472,,,,,,,,,,-SHRA,BKN,1800,,,,,,,MVFR,,,,,,,,,,,,METAR,4.0
MRLB 271800Z 07024KT CAVOK 34/18 A2978 NOSIG,MRLB,2018-03-27T18:00:00Z,10.6,-85.55,34.0,18.0,70,24,,6.21,29.778543,,,,,,TRUE,,,,,CAVOK,,,,,,,,VFR,,,,,,,,,,,,METAR,82.0
SKBQ 271800Z 36018KT 330V040 9999 FEW015 31/23 A2978,SKBQ,2018-03-27T18:00:00Z,10.9,-74.77,31.0,23.0,360,18,,6.21,29.778543,,,,,,,,,,,FEW,1500,,,,,,,VFR,,,,,,,,,,,,METAR,10.0
GVBA 271800Z 02015KT 9999 FEW014 22/16 Q1015 NOSIG,GVBA,2018-03-27T18:00:00Z,16.13,-22.88,22.0,16.0,20,15,,6.21,29.970472,,,,,,TRUE,,,,,FEW,1400,,,,,,,VFR,,,,,,,,,,,,METAR,22.0
MRLM 271800Z 08004KT 9999 FEW030 BKN130 28/22 A2991,MRLM,2018-03-27T18:00:00Z,9.97,-83.03,28.0,22.0,80,4,,6.21,29.911417,,,,,,,,,,,FEW,3000,BKN,13000,,,,,VFR,,,,,,,,,,,,METAR,2.0
SBPS 271800Z 09008KT 9999 SCT017 BKN090 28/23 Q1014,SBPS,2018-03-27T18:00:00Z,-16.43,-39.07,28.0,23.0,90,8,,6.21,29.940945,,,,,,,,,,,SCT,1700,BKN,9000,,,,,VFR,,,,,,,,,,,,METAR,51.0
SBSL 271800Z 02012KT 9999 BKN020 FEW030TCU 30/24 Q1009,SBSL,2018-03-27T18:00:00Z,-2.6,-44.22,30.0,24.0,20,12,,6.21,29.793306,,,,,,,,,,,BKN,2000,FEW,3000,,,,,MVFR,,,,,,,,,,,,METAR,53.0
MRPV 271800Z 06021G35KT 9999 FEW040 25/14 A3000 NOSIG,MRPV,2018-03-27T18:00:00Z,9.95,-84.15,25.0,14.0,60,21,35,6.21,30.0,,,,,,TRUE,,,,,FEW,4000,,,,,,,VFR,,,,,,,,,,,,METAR,994.0
SVMI 271800Z 07006KT 9999 BKN016 29/23 Q1012,SVMI,2018-03-27T18:00:00Z,10.58,-67.0,29.0,23.0,70,6,,6.21,29.88189,,,,,,,,,,,BKN,1600,,,,,,,MVFR,,,,,,,,,,,,METAR,48.0
SBSJ 271800Z 11006KT 9999 SCT040 30/19 Q1017,SBSJ,2018-03-27T18:00:00Z,-23.22,-45.87,30.0,19.0,110,6,,6.21,30.029528,,,,,,,,,,,SCT,4000,,,,,,,VFR,,,,,,,,,,,,METAR,646.0
ZMUB 271800Z 19003MPS CAVOK M04/M08 Q1016 NOSIG RMK QFE654.5 72,ZMUB,2018-03-27T18:00:00Z,47.83,106.78,-4.0,-8.0,190,6,,6.21,30.0,,,,,,TRUE,,,,,CAVOK,,,,,,,,VFR,,,,,,,,,,,,SPECI,1330.0
FQPB 271800Z 12004KT 9999 FEW020 FEW025CB 28/25 Q1013 RMK CB TO DIST. LIT TS CB TO W/NW,FQPB,2018-03-27T18:00:00Z,-12.97,40.5,28.0,25.0,120,4,,6.21,29.911417,,,,,,,,,,,FEW,2000,FEW,2500,,,,,VFR,,,,,,,,,,,,SPECI,50.0
GVAC 271800Z 03016KT 9999 SCT014 24/16 Q1015 NOSIG,GVAC,2018-03-27T18:00:00Z,16.72,-22.93,24.0,16.0,30,16,,6.21,29.970472,,,,,,TRUE,,,,,SCT,1400,,,,,,,VFR,,,,,,,,,,,,METAR,55.0
SBMA 271800Z 07006KT 9999 SCT023 35/23 Q1010,SBMA,2018-03-27T18:00:00Z,-5.37,-49.13,35.0,23.0,70,6,,6.21,29.822834,,,,,,,,,,,SCT,2300,,,,,,,VFR,,,,,,,,,,,,METAR,102.0
MDBH 271800Z 13018KT 9999 FEW022CB FEW027 30/19 Q1014 CB/SW/W/NW/N,MDBH,2018-03-27T18:00:00Z,18.25,-71.12,30.0,19.0,130,18,,6.21,29.940945,,,,,,,,,,,FEW,2200,FEW,2700,,,,,VFR,,,,,,,,,,,,METAR,3.0
SBFN 271800Z 12007KT 080V160 9999 BKN021 29/24 Q1011,SBFN,2018-03-27T18:00:00Z,-3.85,-32.42,29.0,24.0,120,7,,6.21,29.852362,,,,,,,,,,,BKN,2100,,,,,,,MVFR,,,,,,,,,,,,METAR,56.0
SBFZ 271800Z 07009KT 9999 SCT023 FEW025TCU SCT100 29/25 Q1009,SBFZ,2018-03-27T18:00:00Z,-3.77,-38.52,29.0,25.0,70,9,,6.21,29.793306,,,,,,,,,,,SCT,2300,FEW,2500,SCT,10000,,,VFR,,,,,,,,,,,,METAR,25.0
OSDI 271800Z 11008KT CAVOK 21/03 Q1015,OSDI,2018-03-27T18:00:00Z,33.42,36.52,21.0,3.0,110,8,,6.21,29.970472,,,,,,,,,,,CAVOK,,,,,,,,VFR,,,,,,,,,,,,METAR,605.0
OSLK 271800Z 03006KT CAVOK 18/11 Q1014,OSLK,2018-03-27T18:00:00Z,35.4,35.95,18.0,11.0,30,6,,6.21,29.940945,,,,,,,,,,,CAVOK,,,,,,,,VFR,,,,,,,,,,,,METAR,48.0
OSKL 271800Z 11002KT 4000 HZ 19/01 Q1015,OSKL,2018-03-27T18:00:00Z,37.03,41.2,19.0,1.0,110,2,,2.49,29.970472,,,,,,,,,,HZ,,,,,,,,,,,,,,,,,,,,,METAR,455.0
BIIS 271800Z VRB04KT 9999 FEW035 OVC070 05/M04 Q1004,BIIS,2018-03-27T18:00:00Z,66.05,-23.13,5.0,-4.0,0,4,,6.21,29.64567,,,,,,,,,,,FEW,3500,OVC,7000,,,,,VFR,,,,,,,,,,,,METAR,3.0
SKBO 271800Z 05005KT 9999 VCSH SCT020 SCT070 17/11 A3027 RMKVCSH/N,SKBO,2018-03-27T18:00:00Z,4.7,-74.12,17.0,11.0,50,5,,6.21,30.268702,,,,,,,,,,VCSH,SCT,2000,SCT,7000,,,,,VFR,,,,,,,,,,,,SPECI,2548.0
SKCL 271800Z VRB05KT 9999 SCT030 BKN300 30/19 A2989,SKCL,2018-03-27T18:00:00Z,3.53,-76.37,30.0,19.0,0,5,,6.21,29.890747,,,,,,,,,,,SCT,3000,BKN,30000,,,,,VFR,,,,,,,,,,,,METAR,969.0
SKCG 271800Z 01017KT 9999 FEW012 31/23 A2976,SKCG,2018-03-27T18:00:00Z,10.43,-75.52,31.0,23.0,10,17,,6.21,29.760826,,,,,,,,,,,FEW,1200,,,,,,,VFR,,,,,,,,,,,,METAR,1.0
SKCC 271800Z 01010KT 7000 SCT015 SCT90 30/21 A2988 RMK HZ,SKCC,2018-03-27T18:00:00Z,7.92,-72.52,30.0,21.0,10,10,,4.35,29.878937,,,,,,,,,,,SCT,1500,,,,,,,MVFR,,,,,,,,,,,,METAR,317.0
SKSP 271800Z 07014KT 9999 FEW018 30/22 A2993,SKSP,2018-03-27T18:00:00Z,12.57,-81.72,30.0,22.0,70,14,,6.21,29.929134,,,,,,,,,,,FEW,1800,,,,,,,VFR,,,,,,,,,,,,METAR,-2.0
SBCR 271800Z 22006KT 9999 BKN030 SCT080 25/19 Q1013,SBCR,2018-03-27T18:00:00Z,-19.0,-57.67,25.0,19.0,220,6,,6.21,29.911417,,,,,,,,,,,BKN,3000,SCT,8000,,,,,MVFR,,,,,,,,,,,,METAR,141.0
SBBR 271800Z 06007KT 9999 BKN035 28/16 Q1018,SBBR,2018-03-27T18:00:00Z,-15.87,-47.92,28.0,16.0,60,7,,6.21,30.059055,,,,,,,,,,,BKN,3500,,,,,,,VFR,,,,,,,,,,,,METAR,1061.0
SBPA 271800Z 12010KT 090V150 7000 BKN011 OVC023 23/20 Q1018,SBPA,2018-03-27T18:00:00Z,-30.0,-51.17,23.0,20.0,120,10,,4.35,30.059055,,,,,,,,,,,BKN,1100,OVC,2300,,,,,MVFR,,,,,,,,,,,,METAR,3.0
FIMP 271800Z 33003KT 9999 SCT017 26/22 Q1013,FIMP,2018-03-27T18:00:00Z,-20.42,57.67,26.0,22.0,330,3,,6.21,29.911417,,,,,,,,,,,SCT,1700,,,,,,,VFR,,,,,,,,,,,,METAR,57.0
LWSK 271800Z 03010KT 9999 FEW036 BKN090 08/02 Q1013 NOSIG,LWSK,2018-03-27T18:00:00Z,41.97,21.63,8.0,2.0,30,10,,6.21,29.911417,,,,,,TRUE,,,,,FEW,3600,BKN,9000,,,,,VFR,,,,,,,,,,,,METAR,239.0
SBSV 271800Z 15010KT 9999 VCSH SCT017 FEW020TCU BKN070 28/22 Q1 013,SBSV,2018-03-27T18:00:00Z,-12.9,-38.32,28.0,22.0,150,10,,6.21,,,,,,,,,,,VCSH,SCT,1700,FEW,2000,BKN,7000,,,VFR,,,,,,,,,,,,METAR,6.0
SBEG 271800Z 06011KT 9999 VCSH SCT025 FEW030TCU 31/23 Q1008,SBEG,2018-03-27T18:00:00Z,-3.02,-60.03,31.0,23.0,60,11,,6.21,29.763779,,,,,,,,,,VCSH,SCT,2500,FEW,3000,,,,,VFR,,,,,,,,,,,,METAR,2.0
NFNA 271800Z 10007KT 9999 -SHRA SCT020 SCT048 24/23 Q1009,NFNA,2018-03-27T18:00:00Z,-18.05,178.57,24.0,23.0,100,7,,6.21,29.793306,,,,,,,,,,-SHRA,SCT,2000,SCT,4800,,,,,VFR,,,,,,,,,,,,METAR,5.0
LBIA 271800Z 09008KT 8000 FEW007 OVC027 07/06 Q1013,LBIA,2018-03-27T18:00:00Z,42.45,26.35,7.0,6.0,90,8,,4.97,29.911417,,,,,,,,,,,FEW,700,OVC,2700,,,,,MVFR,,,,,,,,,,,,METAR,155.0
YARG 271800Z AUTO 00000KT 9999 // NCD 28/20 Q1006,YARG,2018-03-27T18:00:00Z,-16.63,128.45,28.0,20.0,0,0,,6.21,29.704725,,,TRUE,,,,,,,,CLR,,,,,,,,VFR,,,,,,,,,,,,METAR,165.0
OIMC 271800Z AUTO 00000KT //// // ////// 17/12 Q1017,OIMC,2018-03-27T18:00:00Z,36.5,61.07,17.0,12.0,0,0,,,30.029528,,,TRUE,,,,,,,,,,,,,,,,,,,,,,,,,,,,METAR,288.0
SKLT 271800Z 21006KT 150V240 9999 BKN013 BKN080 27/24 A2986 REDZ,SKLT,2018-03-27T18:00:00Z,-4.2,-69.93,27.0,24.0,210,6,,6.21,29.861221,,,,,,,,,,,BKN,1300,BKN,8000,,,,,MVFR,,,,,,,,,,,,METAR,84.0
NCRG 271800Z 30009KT 9999 FEW014 BKN090 25/24 Q1010,NCRG,2018-03-27T18:00:00Z,-21.2,-159.82,25.0,24.0,300,9,,6.21,29.822834,,,,,,,,,,,FEW,1400,BKN,9000,,,,,VFR,,,,,,,,,,,,METAR,7.0
NCPY 271800Z AUTO 06008KT //// //// 29/25 Q1010,NCPY,2018-03-27T18:00:00Z,-9.02,-158.07,29.0,25.0,60,8,,,29.822834,,,TRUE,,,,,,,,,,,,,,,,,,,,,,,,,,,,METAR,2.0
NCMH 271800Z AUTO NIL,NCMH,2018-03-27T18:00:00Z,-10.38,-161.0,,,,,,,,,,TRUE,,,,,,,,,,,,,,,,,,,,,,,,,,,,METAR,0.0
MDPP 271800Z 04010KT 9999 SCT024 27/21 Q1016,MDPP,2018-03-27T18:00:00Z,19.75,-70.57,27.0,21.0,40,10,,6.21,30.0,,,,,,,,,,,SCT,2400,,,,,,,VFR,,,,,,,,,,,,METAR,5.0
OPPS 271800Z 23008KT 4000 HZ SCT250 21/08 Q1011,OPPS,2018-03-27T18:00:00Z,34.02,71.52,21.0,8.0,230,8,,2.49,29.852362,,,,,,,,,,HZ,SCT,25000,,,,,,,IFR,,,,,,,,,,,,METAR,360.0
LBGO 271800Z AUTO 14004KT 9999 FEW025/// OVC029/// 06/06 Q1014,LBGO,2018-03-27T18:00:00Z,43.15,25.72,6.0,6.0,140,4,,6.21,29.940945,,,TRUE,,,,,,,,FEW,2500,OVC,2900,,,,,MVFR,,,,,,,,,,,,METAR,86.0
OPSK 271800Z 18006KT 4000 HZ NSC 26/16 Q1006 NOSIG,OPSK,2018-03-27T18:00:00Z,27.72,68.8,26.0,16.0,180,6,,2.49,29.704725,,,,,,TRUE,,,,HZ,CLR,,,,,,,,IFR,,,,,,,,,,,,METAR,58.0
SKIP 271800Z 10008KT 9999 BKN020 14/09 A3038,SKIP,2018-03-27T18:00:00Z,0.88,-77.67,14.0,9.0,100,8,,6.21,30.380905,,,,,,,,,,,BKN,2000,,,,,,,MVFR,,,,,,,,,,,,METAR,2961.0
MHRO 271800Z 07018KT 9999 FEW022 30/23 Q1015 A2997 NOSIG,MHRO,2018-03-27T18:00:00Z,16.32,-86.53,30.0,23.0,70,18,,6.21,29.970472,,,,,,TRUE,,,,,FEW,2200,,,,,,,VFR,,,,,,,,,,,,METAR,5.0
FDLB 271800Z AUTO 11003KT //// // ////// 22/19 Q1021,FDLB,2018-03-27T18:00:00Z,,,22.0,19.0,110,3,,,30.147638,,,TRUE,,,,,,,,,,,,,,,,,,,,,,,,,,,,METAR,
KFKA 271759Z AUTO 32009KT 7SM OVC008 01/M01 A3006 RMK AO2,KFKA,2018-03-27T17:59:00Z,43.68,-92.17,1.0,-1.0,320,9,,7.0,30.059055,,,TRUE,TRUE,,,,,,,OVC,800,,,,,,,IFR,,,,,,,,,,,,METAR,389.0
KTDR 271759Z AUTO 16013G25KT 10SM BKN035 25/15 A3026 RMK AO2 WSHFT 49 SLP251 $,KTDR,2018-03-27T17:59:00Z,30.05,-85.52,25.0,15.0,160,13,25,10.0,30.259842,1025.1,,TRUE,TRUE,TRUE,,,,,,BKN,3500,,,,,,,VFR,,,,,,,,,,,,METAR,5.0
KNGU 271759Z 05007KT 10SM BKN065 OVC250 08/01 A3048 RMK AO2 SLP320 T00780006 10089 20044 56026,KNGU,2018-03-27T17:59:00Z,36.92,-76.27,7.8,0.6,50,7,,10.0,30.481298,1032.0,,,TRUE,,,,,,,BKN,6500,OVC,25000,,,,,VFR,-2.6,8.9,4.4,,,,,,,,,SPECI,5.0
KNPA 271759Z 10011KT 7SM OVC007 19/17 A3025 RMK AO2 T01940167 $,KNPA,2018-03-27T17:59:00Z,30.35,-87.32,19.4,16.7,100,11,,7.0,30.250984,,,,TRUE,TRUE,,,,,,OVC,700,,,,,,,IFR,,,,,,,,,,,,SPECI,9.0
KHIO 271759Z 19008KT 10SM SCT026 BKN055 OVC085 09/07 A3044 RMK AO2 T00940067,KHIO,2018-03-27T17:59:00Z,45.55,-122.95,9.4,6.7,190,8,,10.0,30.43996,,,,TRUE,,,,,,,SCT,2600,BKN,5500,OVC,8500,,,VFR,,,,,,,,,,,,METAR,68.0
KBPK 271759Z AUTO VRB03KT 10SM -RA BKN007 BKN029 OVC095 15/15 A3003 RMK AO2 LTG DSNT SE P0001 T01500150,KBPK,2018-03-27T17:59:00Z,36.37,-92.47,15.0,15.0,0,3,,10.0,30.029528,,,TRUE,TRUE,,,,,,-RA,BKN,700,BKN,2900,OVC,9500,,,IFR,,,,,,0.01,,,,,,METAR,280.0
MHSC 271758Z AUTO 34014G23KT 9999 FEW060 SCT120 SCT170 SCT190 31/14 A2999 RMK AO2 PK WND 35029/41 SLP109 T03130135 10315 20230 57015 $,MHSC,2018-03-27T17:58:00Z,14.37,-87.62,31.3,13.5,340,14,23,6.21,29.991142,1010.9,,TRUE,TRUE,TRUE,,,,,,FEW,6000,SCT,12000,SCT,17000,SCT,19000,VFR,-1.5,31.5,23.0,,,,,,,,,METAR,626.0
KBIF 271758Z AUTO 19010G15KT 8SM CLR 17/M01 A2995 RMK AO2 SLP099 T01701011 10173 20105 55005 $,KBIF,2018-03-27T17:58:00Z,31.85,-106.38,17.0,-1.1,190,10,15,8.0,29.949802,1009.9,,TRUE,TRUE,TRUE,,,,,,CLR,,,,,,,,VFR,-0.5,17.3,10.5,,,,,,,,,METAR,1203.0
KFEW 271758Z AUTO 23010G16KT 10SM CLR 06/M10 A3012 RMK AO2 SLP210 T00581099 10058 21083 58009 $,KFEW,2018-03-27T17:58:00Z,41.13,-104.87,5.8,-9.9,230,10,16,10.0,30.121063,1021.0,,TRUE,TRUE,TRUE,,,,,,CLR,,,,,,,,VFR,-0.9,5.8,-8.3,,,,,,,,,METAR,1878.0
PHSF 271758Z 34007G15KT 10SM FEW025 SCT030 15/09 A3026 RMK SLPNO,PHSF,2018-03-27T17:58:00Z,19.77,-155.55,15.0,9.0,340,7,15,10.0,30.259842,,,,,,,,,,,FEW,2500,SCT,3000,,,,,VFR,,,,,,,,,,,,METAR,1887.0
KNKT 271758Z 06006KT 7SM OVC060 13/06 A3043 RMK SLP301 T01280056 10128 20044 58025,KNKT,2018-03-27T17:58:00Z,34.9,-76.88,12.8,5.6,60,6,,7.0,30.431103,1030.1,,,,,,,,,,OVC,6000,,,,,,,VFR,-2.5,12.8,4.4,,,,,,,,,SPECI,9.0
PAFB 271758Z 07003KT 10SM CLR M11/M22 A2981 RMK AO2A SLP105 4/025 T11121220 11111 21167 52021,PAFB,2018-03-27T17:58:00Z,64.83,-147.62,-11.2,-22.0,70,3,,10.0,29.811024,1010.5,,,TRUE,,,,,,,CLR,,,,,,,,VFR,2.1,-11.1,-16.7,,,,,,,25.0,,METAR,137.0
KHRT 271758Z 13013G23KT 10SM OVC030 22/17 A3025 RMK SLP245 T02200165 $,KHRT,2018-03-27T17:58:00Z,30.42,-86.67,22.0,16.5,130,13,23,10.0,30.250984,1024.5,,,,TRUE,,,,,,OVC,3000,,,,,,,MVFR,,,,,,,,,,,,SPECI,12.0
KHIF 271758Z 27003KT 10SM SCT200 05/M09 A3026 RMK AO2A SLP253 T00471095 10047 21029 50006,KHIF,2018-03-27T17:58:00Z,41.12,-111.97,4.7,-9.5,270,3,,10.0,30.259842,1025.3,,,TRUE,,,,,,,SCT,20000,,,,,,,VFR,0.6,4.7,-2.9,,,,,,,,,SPECI,1459.0
KGXF 271758Z 29005KT 10SM FEW090 19/M09 A3001 RMK AO2A SLP156 T01861094 10186 20080 52011,KGXF,2018-03-27T17:58:00Z,32.87,-112.72,18.6,-9.4,290,5,,10.0,30.008858,1015.6,,,TRUE,,,,,,,FEW,9000,,,,,,,VFR,1.1,18.6,8.0,,,,,,,,,SPECI,262.0
KMEI 271758Z VRB03KT 10SM OVC017 17/12 A3027 RMK AO2 SLP247 T01670117 10167 20128 56010,KMEI,2018-03-27T17:58:00Z,32.33,-88.75,16.7,11.7,0,3,,10.0,30.268702,1024.7,,,TRUE,,,,,,,OVC,1700,,,,,,,MVFR,-1.0,16.7,12.8,,,,,,,,,METAR,89.0
KMRH 271758Z AUTO 05009KT 10SM OVC070 13/05 A3041 RMK AO2 SLP298 T01280050 10133 20061 58025,KMRH,2018-03-27T17:58:00Z,34.73,-76.65,12.8,5.0,50,9,,10.0,30.410433,1029.8,,TRUE,TRUE,,,,,,,OVC,7000,,,,,,,VFR,-2.5,13.3,6.1,,,,,,,,,METAR,3.0
KRUE 271758Z AUTO 00000KT 3SM -RA BR SCT045 BKN070 OVC080 18/17 A2999 RMK AO2 LTG DSNT NE P0000 T01780172,KRUE,2018-03-27T17:58:00Z,35.25,-93.1,17.8,17.2,0,0,,3.0,29.991142,,,TRUE,TRUE,,,,,,-RA BR,SCT,4500,BKN,7000,OVC,8000,,,MVFR,,,,,,0.005,,,,,,METAR,115.0
KCGS 271758Z AUTO 24004KT 10SM SCT060 BKN075 BKN095 06/M03 A3045 RMK AO1 T00631032,KCGS,2018-03-27T17:58:00Z,38.98,-76.92,6.3,-3.2,240,4,,10.0,30.448818,,,TRUE,TRUE,,,,,,,SCT,6000,BKN,7500,BKN,9500,,,VFR,,,,,,,,,,,,SPECI,15.0
RKSO 271758Z 09005KT 2 1/2SM BR CLR 07/06 A3003 RMK AO2A SLP172 55001 $,RKSO,2018-03-27T17:58:00Z,37.07,127.02,7.0,6.0,90,5,,2.5,30.029528,1017.2,,,TRUE,TRUE,,,,,BR,CLR,,,,,,,,IFR,-0.1,,,,,,,,,,,SPECI,12.0
KNTD 271758Z 04012G20KT 10SM FEW280 22/M01 A3017 RMK AO2 SLP216 T02171011 10217 20072 51010 VISNO N $,KNTD,2018-03-27T17:58:00Z,34.12,-119.12,21.7,-1.1,40,12,20,10.0,30.171259,1021.6,,,TRUE,TRUE,,,,,,FEW,28000,,,,,,,VFR,1.0,21.7,7.2,,,,,,,,,SPECI,4.0
K0J4 271758Z AUTO 16009KT 10SM OVC033 22/13 A3028 RMK AO2 SLP252 T02220133 10222 20111 58014 $,K0J4,2018-03-27T17:58:00Z,31.05,-86.32,22.2,13.3,160,9,,10.0,30.280512,1025.2,,TRUE,TRUE,TRUE,,,,,,OVC,3300,,,,,,,VFR,-1.4,22.2,11.1,,,,,,,,,METAR,96.0
KJQF 271758Z 36003KT 10SM OVC031 09/02 A3045,KJQF,2018-03-27T17:58:00Z,35.38,-80.72,9.0,2.0,360,3,,10.0,30.448818,,,,,,,,,,,OVC,3100,,,,,,,VFR,,,,,,,,,,,,METAR,210.0
OAIX 271758Z 36010KT 9999 CLR 17/M04 A3013 RMK AO2A SLP133 T01681040 10219 20165 52008,OAIX,2018-03-27T17:58:00Z,34.95,69.27,16.8,-4.0,360,10,,6.21,30.129921,1013.3,,,TRUE,,,,,,,CLR,,,,,,,,VFR,0.8,21.9,16.5,,,,,,,,,METAR,1492.0
KEDW 271758Z 01008KT 90SM SCT300 15/M09 A3020 RMK AO2A SLP223 T01481086 10148 20025 58003,KEDW,2018-03-27T17:58:00Z,34.88,-117.87,14.8,-8.6,10,8,,90.0,30.200787,1022.3,,,TRUE,,,,,,,SCT,30000,,,,,,,VFR,-0.3,14.8,2.5,,,,,,,,,SPECI,702.0
KBKF 271758Z 15004KT 10SM FEW040 FEW075 BKN220 02/M01 A3015 RMK AO2A SLP217 4/002 T00211007 10021 21045 58004,KBKF,2018-03-27T17:58:00Z,39.72,-104.75,2.1,-0.7,150,4,,10.0,30.15059,1021.7,,,TRUE,,,,,,,FEW,4000,FEW,7500,BKN,22000,,,VFR,-0.4,2.1,-4.5,,,,,,,2.0,,SPECI,1726.0
KSLI 271758Z 16004KT 10SM CLR 21/00 A3013 RMK AO2A SLP206 T02070000 10207 20065 50002,KSLI,2018-03-27T17:58:00Z,33.77,-118.03,20.7,0.0,160,4,,10.0,30.129921,1020.6,,,TRUE,,,,,,,CLR,,,,,,,,VFR,0.2,20.7,6.5,,,,,,,,,SPECI,11.0
KEUF 271758Z AUTO 18009G16KT 10SM BKN060 21/13 A3029 RMK AO2 SLP256 T02110133 10217 20111 58022,KEUF,2018-03-27T17:58:00Z,31.95,-85.13,21.1,13.3,180,9,16,10.0,30.28937,1025.6,,TRUE,TRUE,,,,,,,BKN,6000,,,,,,,VFR,-2.2,21.7,11.1,,,,,,,,,SPECI,87.0
K1OW 271758Z AUTO 21009KT 10SM CLR 06/M08 A3011 RMK AO2 SLP212 T00571079 10057 21062 58012 PWINO $,K1OW,2018-03-27T17:58:00Z,,,5.7,-7.9,210,9,,10.0,30.109253,1021.2,,TRUE,TRUE,TRUE,,,,TRUE,,CLR,,,,,,,,VFR,-1.2,5.7,-6.2,,,,,,,,,SPECI,
PWAK 271758Z AUTO 03012KT 9999 OVC060 24/19 A2990 RMK AO2 SLP131 53002,PWAK,2018-03-27T17:58:00Z,19.28,166.65,24.0,19.0,30,12,,6.21,29.899607,1013.1,,TRUE,TRUE,,,,,,,OVC,6000,,,,,,,VFR,0.2,,,,,,,,,,,SPECI,4.0
KGOV 271758Z AUTO 25007KT 3SM BR OVC003 07/07 A2983 RMK AO2 SLP115 60004 T00680066 10068 20034 55007 $,KGOV,2018-03-27T17:58:00Z,44.68,-84.73,6.8,6.6,250,7,,3.0,29.828741,1011.5,,TRUE,TRUE,TRUE,,,,,BR,OVC,300,,,,,,,LIFR,-0.7,6.8,3.4,,,,,0.04,,,,METAR,353.0
PAFR 271758Z AUTO 03003KT 10SM OVC048 M04/M12 A2977 RMK AO2 SLP092 T10421125 11041 21104,PAFR,2018-03-27T17:58:00Z,61.27,-149.65,-4.2,-12.5,30,3,,10.0,29.769686,1009.2,,TRUE,TRUE,,,,,,,OVC,4800,,,,,,,VFR,,-4.1,-10.4,,,,,,,,,METAR,115.0
PASY 271758Z AUTO 29004KT 7SM FEW033 BKN050 M01/M03 A2990 RMK AO2 SLP129 T10111028 11000 21020 53011 FZRANO $,PASY,2018-03-27T17:58:00Z,52.72,174.12,-1.1,-2.8,290,4,,7.0,29.899607,1012.9,,TRUE,TRUE,TRUE,,,TRUE,,,FEW,3300,BKN,5000,,,,,VFR,1.1,0.0,-2.0,,,,,,,,,METAR,31.0
KROG 271758Z 36007KT 10SM -RA OVC005 12/12 A3003 RMK AO2 SLP165 P0004 60205 T01220122 10144 20122 51008,KROG,2018-03-27T17:58:00Z,36.37,-94.08,12.2,12.2,360,7,,10.0,30.029528,1016.5,,,TRUE,,,,,,-RA,OVC,500,,,,,,,IFR,0.8,14.4,12.2,,,0.04,,,,,,SPECI,415.0
KGFA 271758Z AUTO 23036G42KT 10SM BKN095 07/M03 A2983 RMK AO2 PK WND 24047/20 SLP125 T00651029 10080 20020 57022 $,KGFA,2018-03-27T17:58:00Z,47.5,-111.17,6.5,-2.9,230,36,42,10.0,29.828741,1012.5,,TRUE,TRUE,TRUE,,,,,,BKN,9500,,,,,,,VFR,-2.2,8.0,2.0,,,,,,,,,SPECI,1075.0
KGRK 271758Z AUTO 15011G20KT 10SM SCT035 BKN070 OVC190 26/17 A2997 RMK AO2 LTG DSNT W SLP140 T02580166 10258 20203 50003,KGRK,2018-03-27T17:58:00Z,31.07,-97.83,25.8,16.6,150,11,20,10.0,29.970472,1014.0,,TRUE,TRUE,,,,,,,SCT,3500,BKN,7000,OVC,19000,,,VFR,0.3,25.8,20.3,,,,,,,,,METAR,309.0
KHEY 271758Z AUTO 12008KT 8SM BKN025 20/14 A3028 RMK AO2 SLP256 T01980135 10198 20109 57016,KHEY,2018-03-27T17:58:00Z,31.35,-85.65,19.8,13.5,120,8,,8.0,30.280512,1025.6,,TRUE,TRUE,,,,,,,BKN,2500,,,,,,,MVFR,-1.6,19.8,10.9,,,,,,,,,SPECI,97.0
KHLR 271758Z AUTO 16013KT 10SM BKN034 OVC070 26/17 A2995 RMK AO2 SLP133 T02550173 10264 20198 51005,KHLR,2018-03-27T17:58:00Z,31.13,-97.72,25.5,17.3,160,13,,10.0,29.949802,1013.3,,TRUE,TRUE,,,,,,,BKN,3400,OVC,7000,,,,,VFR,0.5,26.4,19.8,,,,,,,,,SPECI,283.0
KHUA 271758Z AUTO 17011KT 9SM OVC019 14/09 A3027 RMK AO2 SLP251 T01420088 10142 20089 57020,KHUA,2018-03-27T17:58:00Z,34.68,-86.68,14.2,8.8,170,11,,9.0,30.268702,1025.1,,TRUE,TRUE,,,,,,,OVC,1900,,,,,,,MVFR,-2.0,14.2,8.9,,,,,,,,,METAR,209.0
KLOR 271758Z AUTO 11003KT 8SM OVC027 19/13 A3028 RMK AO2 SLP236 T01930134 10201 20107 58016,KLOR,2018-03-27T17:58:00Z,31.35,-85.75,19.3,13.4,110,3,,8.0,30.280512,1023.6,,TRUE,TRUE,,,,,,,OVC,2700,,,,,,,MVFR,-1.6,20.1,10.7,,,,,,,,,SPECI,74.0
KPOE 271758Z AUTO 16012G19KT 9SM FEW030 25/18 A3007 RMK AO2 SLP182 T02510182 10257 20216 58007,KPOE,2018-03-27T17:58:00Z,31.05,-93.2,25.1,18.2,160,12,19,9.0,30.070866,1018.2,,TRUE,TRUE,,,,,,,FEW,3000,,,,,,,VFR,-0.7,25.7,21.6,,,,,,,,,SPECI,101.0
KRIV 271758Z AUTO 34022G30KT 10SM CLR 19/M10 A3011 RMK AO2 PK WND 34031/1658 SLP193 T01861104 10186 20012 50001,KRIV,2018-03-27T17:58:00Z,33.87,-117.27,18.6,-10.4,340,22,30,10.0,30.109253,1019.3,,TRUE,TRUE,,,,,,,CLR,,,,,,,,VFR,0.1,18.6,1.2,,,,,,,,,SPECI,469.0
KSUU 271758Z AUTO 01015G20KT 10SM CLR 19/03 A3023 RMK AO2 PK WND 02026/49 SLP244 T01870033 10187 20117 51006 $,KSUU,2018-03-27T17:58:00Z,38.27,-121.92,18.7,3.3,10,15,20,10.0,30.230314,1024.4,,TRUE,TRUE,TRUE,,,,,,CLR,,,,,,,,VFR,0.6,18.7,11.7,,,,,,,,,SPECI,19.0
KADS 271758Z 30004KT 1SM RA OVC005 18/16 A3004,KADS,2018-03-27T17:58:00Z,32.97,-96.82,18.0,16.0,300,4,,1.0,30.041338,,,,,,,,,,RA,OVC,500,,,,,,,IFR,,,,,,,,,,,,METAR,196.0
K4MR 271758Z AUTO 06013KT 10SM OVC010 06/04 A3008 RMK AO2 SLP167 T00640039 10080 20047 50002 $,K4MR,2018-03-27T17:58:00Z,34.3,-103.8,6.4,3.9,60,13,,10.0,30.079725,1016.7,,TRUE,TRUE,TRUE,,,,,,OVC,1000,,,,,,,MVFR,0.2,8.0,4.7,,,,,,,,,METAR,1326.0
KBAB 271758Z AUTO 32011KT 10SM CLR 18/05 A3022 RMK AO2 SLP237 T01770046 10177 20060 50001 $,KBAB,2018-03-27T17:58:00Z,39.12,-121.42,17.7,4.6,320,11,,10.0,30.221457,1023.7,,TRUE,TRUE,TRUE,,,,,,CLR,,,,,,,,VFR,0.1,17.7,6.0,,,,,,,,,METAR,34.0
KCVS 271758Z AUTO 04020KT 10SM OVC008 06/06 A3008 RMK AO2 PK WND 03026/14 SLP168 T00610061 10068 20046 50003 $,KCVS,2018-03-27T17:58:00Z,34.37,-103.32,6.1,6.1,40,20,,10.0,30.079725,1016.8,,TRUE,TRUE,TRUE,,,,,,OVC,800,,,,,,,IFR,0.3,6.8,4.6,,,,,,,,,METAR,1309.0
KDMA 271758Z AUTO 26006KT 10SM CLR 16/M04 A3001 RMK AO2 SLP142 T01631043 10163 20050 50007 $,KDMA,2018-03-27T17:58:00Z,32.17,-110.87,16.3,-4.3,260,6,,10.0,30.008858,1014.2,,TRUE,TRUE,TRUE,,,,,,CLR,,,,,,,,VFR,0.7,16.3,5.0,,,,,,,,,METAR,824.0
KFHU 271758Z AUTO 00000KT 10SM SCT070 12/M08 A3002 RMK AO2 SLP135 T01201077 10124 20031 $,KFHU,2018-03-27T17:58:00Z,31.58,-110.35,12.0,-7.7,0,0,,10.0,30.02067,1013.5,,TRUE,TRUE,TRUE,,,,,,SCT,7000,,,,,,,VFR,,12.4,3.1,,,,,,,,,METAR,1438.0
KHMN 271758Z AUTO 17008KT 10SM FEW075 19/M02 A2997 RMK AO2 SLP101 T01851019 10188 20081 58007 $,KHMN,2018-03-27T17:58:00Z,32.85,-106.08,18.5,-1.9,170,8,,10.0,29.970472,1010.1,,TRUE,TRUE,TRUE,,,,,,FEW,7500,,,,,,,VFR,-0.7,18.8,8.1,,,,,,,,,METAR,1248.0
KINS 271758Z AUTO 35003KT 10SM CLR 12/M11 A3022 RMK AO2 SLP217 T01171112 10117 20011 50001 $,KINS,2018-03-27T17:58:00Z,36.58,-115.67,11.7,-11.2,350,3,,10.0,30.221457,1021.7,,TRUE,TRUE,TRUE,,,,,,CLR,,,,,,,,VFR,0.1,11.7,1.1,,,,,,,,,SPECI,955.0
KLSV 271758Z AUTO 02015G20KT 10SM CLR 15/M09 A3019 RMK AO2 SLP217 T01491092 10149 20111 50005,KLSV,2018-03-27T17:58:00Z,36.22,-115.02,14.9,-9.2,20,15,20,10.0,30.188976,1021.7,,TRUE,TRUE,,,,,,,CLR,,,,,,,,VFR,0.5,14.9,11.1,,,,,,,,,METAR,570.0
KLUF 271758Z AUTO 05005KT 10SM CLR 20/M03 A2998 RMK AO2 SLP146 60000 T01951034 10196 20096 50007 $,KLUF,2018-03-27T17:58:00Z,33.52,-112.37,19.5,-3.4,50,5,,10.0,29.97933,1014.6,,TRUE,TRUE,TRUE,,,,,,CLR,,,,,,,,VFR,0.7,19.6,9.6,,,,,0.005,,,,METAR,332.0
KMUO 271758Z AUTO 32013KT 10SM CLR 10/M01 A3031 RMK AO2 SLP276 T01041010 10104 21034 57007 $,KMUO,2018-03-27T17:58:00Z,43.03,-115.87,10.4,-1.0,320,13,,10.0,30.31004,1027.6,,TRUE,TRUE,TRUE,,,,,,CLR,,,,,,,,VFR,-0.7,10.4,-3.4,,,,,,,,,METAR,913.0
KNYL 271757Z 35014KT 7SM CLR 22/M10 A3006 RMK AO2 SLP176 T02171100 10217 20094 51012,KNYL,2018-03-27T17:57:00Z,32.63,-114.62,21.7,-10.0,350,14,,7.0,30.059055,1017.6,,,TRUE,,,,,,,CLR,,,,,,,,VFR,1.2,21.7,9.4,,,,,,,,,SPECI,65.0
EQYG 271757Z AUTO 00000KT 10SM CLR 14/ A2996 RMK AO2 SLP139 T0144 10178 20144 53002 $ ,EQYG,2018-03-27T17:57:00Z,,,14.4,,0,0,,10.0,29.958662,1013.9,,TRUE,TRUE,TRUE,,,,,,CLR,,,,,,,,VFR,0.2,17.8,14.4,,,,,,,,,METAR,
OPMT 271757Z 05006KT 4000 FU NSC 26/17 Q1008 NOSIG,OPMT,2018-03-27T17:57:00Z,30.18,71.42,26.0,17.0,50,6,,2.49,29.763779,,,,,,TRUE,,,,FU,CLR,,,,,,,,IFR,,,,,,,,,,,,METAR,123.0
KNSI 271757Z 33014KT 10SM FEW280 19/02 A3018 RMK AO2 SLP213 T01890017 10189 20100 51011 $,KNSI,2018-03-27T17:57:00Z,33.22,-119.45,18.9,1.7,330,14,,10.0,30.180119,1021.3,,,TRUE,TRUE,,,,,,FEW,28000,,,,,,,VFR,1.1,18.9,10.0,,,,,,,,,METAR,154.0
PHNG 271757Z AUTO 27004KT 10SM CLR 21/18 A2988 RMK AO2 SLP113 T02110183 53015 $,PHNG,2018-03-27T17:57:00Z,21.43,-157.77,21.1,18.3,270,4,,10.0,29.878937,1011.3,,TRUE,TRUE,TRUE,,,,,,CLR,,,,,,,,VFR,1.5,,,,,,,,,,,SPECI,3.0
KFLG 271757Z 07016KT 10SM CLR 06/M12 A3006 RMK AO2 SLP159 T00561122 10061 21067 51006,KFLG,2018-03-27T17:57:00Z,35.13,-111.67,5.6,-12.2,70,16,,10.0,30.059055,1015.9,,,TRUE,,,,,,,CLR,,,,,,,,VFR,0.6,6.1,-6.7,,,,,,,,,METAR,2134.0
KMIB 271756Z AUTO 22008KT 10SM FEW190 05/M01 A2987 RMK AO2 SLP138 T00451013 10045 21025 57010 $,KMIB,2018-03-27T17:56:00Z,48.42,-101.33,4.5,-1.3,220,8,,10.0,29.870079,1013.8,,TRUE,TRUE,TRUE,,,,,,FEW,19000,,,,,,,VFR,-1.0,4.5,-2.5,,,,,,,,,METAR,508.0
KDOV 271756Z AUTO 15006KT 10SM FEW100 SCT130 BKN160 BKN180 06/M02 A3046 RMK AO2 SLP318 T00591017 10059 20008 58031 $,KDOV,2018-03-27T17:56:00Z,39.12,-75.47,5.9,-1.7,150,6,,10.0,30.46063,1031.8,,TRUE,TRUE,TRUE,,,,,,FEW,10000,SCT,13000,BKN,16000,BKN,18000,VFR,-3.1,5.9,0.8,,,,,,,,,SPECI,9.0
BGTL 271756Z COR AUTO 13008KT 9999 CLR M22/M28 A2977 RMK AO2 SLP074 4/008 T12191280 11219 21298 57022 TSNO $ COR 1818,BGTL,2018-03-27T17:56:00Z,76.53,-68.7,-21.9,-28.0,130,8,,6.21,29.769686,1007.4,TRUE,TRUE,TRUE,TRUE,,TRUE,,,,CLR,,,,,,,,VFR,-2.2,-21.9,-29.8,,,,,,,8.0,,METAR,77.0
KADW 271756Z AUTO 23006KT 10SM -DZ FEW060 FEW070 SCT150 SCT180 SCT210 07/M04 A3044 RMK AO2 DZB53 SLP317 P0000 60000 T00731042 10075 21012 57034,KADW,2018-03-27T17:56:00Z,38.82,-76.87,7.3,-4.2,230,6,,10.0,30.43996,1031.7,,TRUE,TRUE,,,,,,-DZ,FEW,6000,FEW,7000,SCT,15000,SCT,18000,VFR,-3.4,7.5,-1.2,,,0.005,,0.005,,,,METAR,86.0
RODN 271756Z AUTO 09005KT 10SM CLR 17/14 A2999 RMK AO2 SLP162 T01730144 10179 20142 57014,RODN,2018-03-27T17:56:00Z,26.35,127.77,17.3,14.4,90,5,,10.0,29.991142,1016.2,,TRUE,TRUE,,,,,,,CLR,,,,,,,,VFR,-1.4,17.9,14.2,,,,,,,,,SPECI,45.0
EGVA 271756Z AUTO 30006KT M M FEW040 OVC050 M A2973 RMK AO2 SLPNO ALSTG ESTMD 52017 RVRNO $,EGVA,2018-03-27T17:56:00Z,51.67,-1.77,,,300,6,,,29.731298,,,TRUE,TRUE,TRUE,,,,,,FEW,4000,OVC,5000,,,,,,1.7,,,,,,,,,,,SPECI,87.0
OICS 271756Z 15002KT 8000 FEW040 16/M02 Q1019,OICS,2018-03-27T17:56:00Z,35.25,47.02,16.0,-2.0,150,2,,4.97,30.088583,,,,,,,,,,,FEW,4000,,,,,,,MVFR,,,,,,,,,,,,METAR,1373.0
PAGH 271756Z AUTO 09016KT 10SM CLR M10/M21 A2982 RMK AO2 SLP105 T11001206 11100 21133 51009 FZRANO,PAGH,2018-03-27T17:56:00Z,66.88,-157.17,-10.0,-20.6,90,16,,10.0,29.819881,1010.5,,TRUE,TRUE,,,,TRUE,,,CLR,,,,,,,,VFR,0.9,-10.0,-13.3,,,,,,,,,SPECI,60.0
KNJK 271756Z COR 35018KT 7SM CLR 22/M12 A3011 RMK AO2 PK WND 34029/1701 SLP213 T02171122 10222 20094 51011,KNJK,2018-03-27T17:56:00Z,32.82,-115.67,21.7,-12.2,350,18,,7.0,30.109253,1021.3,TRUE,,TRUE,,,,,,,CLR,,,,,,,,VFR,1.1,22.2,9.4,,,,,,,,,METAR,-13.0
KBLM 271756Z AUTO 08004KT 10SM CLR 04/M03 A3048 RMK AO2 SLP328 6//// T00441033 10050 20000 58026,KBLM,2018-03-27T17:56:00Z,40.17,-74.12,4.4,-3.3,80,4,,10.0,30.481298,1032.8,,TRUE,TRUE,,,,,,,CLR,,,,,,,,VFR,-2.6,5.0,0.0,,,,,,,,,METAR,48.0
KBKX 271756Z AUTO 29006KT 10SM CLR 04/00 A3008 RMK AO2 SLP216 T00440000 10044 21017 58000,KBKX,2018-03-27T17:56:00Z,44.28,-96.82,4.4,0.0,290,6,,10.0,30.079725,1021.6,,TRUE,TRUE,,,,,,,CLR,,,,,,,,VFR,0.0,4.4,-1.7,,,,,,,,,METAR,502.0
KBID 271756Z AUTO 03009KT 10SM CLR 07/M03 A3046 RMK AO2 SLP318 6//// T00671033 10067 20006 56029,KBID,2018-03-27T17:56:00Z,41.17,-71.58,6.7,-3.3,30,9,,10.0,30.46063,1031.8,,TRUE,TRUE,,,,,,,CLR,,,,,,,,VFR,-2.9,6.7,0.6,,,,,,,,,METAR,33.0
KBHB 271756Z AUTO 03009KT 10SM CLR 07/M13 A3046 RMK AO2 SLP320 6//// T00721133 10072 21039 56041 PNO $,KBHB,2018-03-27T17:56:00Z,44.45,-68.37,7.2,-13.3,30,9,,10.0,30.46063,1032.0,,TRUE,TRUE,TRUE,,,,,,CLR,,,,,,,,VFR,-4.1,7.2,-3.9,,,,,,,,,METAR,26.0
KAWO 271756Z AUTO 16011KT 10SM -RA OVC017 08/07 A3030 RMK AO2 SLP264 P0010 60034 T00830072 10083 20078 53009,KAWO,2018-03-27T17:56:00Z,48.17,-122.17,8.3,7.2,160,11,,10.0,30.301182,1026.4,,TRUE,TRUE,,,,,,-RA,OVC,1700,,,,,,,MVFR,0.9,8.3,7.8,,,0.1,,,,,,SPECI,42.0
KAUO 271756Z AUTO 09008KT 10SM FEW024 OVC050 16/10 A3033 RMK AO2 SLP297 T01560100 10161 20094 58017,KAUO,2018-03-27T17:56:00Z,32.62,-85.42,15.6,10.0,90,8,,10.0,30.33071,1029.7,,TRUE,TRUE,,,,,,,FEW,2400,OVC,5000,,,,,VFR,-1.7,16.1,9.4,,,,,,,,,METAR,236.0
KASH 271756Z 10008KT 10SM CLR 09/M12 A3046 RMK AO2 SLP326 T00891122 10089 21033 56037,KASH,2018-03-27T17:56:00Z,42.78,-71.52,8.9,-12.2,100,8,,10.0,30.46063,1032.6,,,TRUE,,,,,,,CLR,,,,,,,,VFR,-3.7,8.9,-3.3,,,,,,,,,METAR,61.0
KARG 271756Z AUTO 19023G31KT 10SM BKN018 20/16 A3001 RMK AO2 PK WND 20031/1754 RAB06E21 SLP162 P0000 60000 T02000161 10200 20161 58010,KARG,2018-03-27T17:56:00Z,36.12,-90.92,20.0,16.1,190,23,31,10.0,30.008858,1016.2,,TRUE,TRUE,,,,,,,BKN,1800,,,,,,,MVFR,-1.0,20.0,16.1,,,0.005,,0.005,,,,METAR,83.0
KAJO 271756Z AUTO 06020G28KT 10SM CLR 21/M07 A3013 RMK AO2 PK WND 04028/1752 SLP216 6//// T02061072 10211 20022 $,KAJO,2018-03-27T17:56:00Z,33.9,-117.6,20.6,-7.2,60,20,28,10.0,30.129921,1021.6,,TRUE,TRUE,TRUE,,,,,,CLR,,,,,,,,VFR,,21.1,2.2,,,,,,,,,SPECI,163.0
KADF 271756Z AUTO 19019G26KT 10SM BKN034 BKN045 OVC090 27/18 A3001 RMK AO2 PK WND 19026/1756 SLP162 T02670183 10267 20178 58013,KADF,2018-03-27T17:56:00Z,34.1,-93.07,26.7,18.3,190,19,26,10.0,30.008858,1016.2,,TRUE,TRUE,,,,,,,BKN,3400,BKN,4500,OVC,9000,,,VFR,-1.3,26.7,17.8,,,,,,,,,METAR,56.0
K7N0 271756Z AUTO 15008KT 9SM SCT022 BKN029 OVC036 26/19 A3018 RMK AO2 SLP218 T02560189 10256 20206 50002,K7N0,2018-03-27T17:56:00Z,29.95,-90.07,25.6,18.9,150,8,,9.0,30.180119,1021.8,,TRUE,TRUE,,,,,,,SCT,2200,BKN,2900,OVC,3600,,,MVFR,0.2,25.6,20.6,,,,,,,,,METAR,0.0
K1M4 271756Z AUTO 17010KT 10SM SCT015 BKN026 15/11 A3027 RMK AO2 SLP275 T01500111 10150 20078 58023,K1M4,2018-03-27T17:56:00Z,34.28,-87.6,15.0,11.1,170,10,,10.0,30.268702,1027.5,,TRUE,TRUE,,,,,,,SCT,1500,BKN,2600,,,,,MVFR,-2.3,15.0,7.8,,,,,,,,,METAR,284.0
KNXP 271756Z AUTO 36015KT 10SM CLR 16/M12 A3023 RMK AO2 PK WND 34027/1713 SLP218 T01611122 10161 20089 50003,KNXP,2018-03-27T17:56:00Z,34.28,-116.17,16.1,-12.2,360,15,,10.0,30.230314,1021.8,,TRUE,TRUE,,,,,,,CLR,,,,,,,,VFR,0.3,16.1,8.9,,,,,,,,,SPECI,626.0
KBMI 271756Z 32013KT 10SM BKN007 OVC013 05/03 A3004 RMK AO2 SLP200 P0001 60005 T00500033 10111 20050 50014 $,KBMI,2018-03-27T17:56:00Z,40.47,-88.92,5.0,3.3,320,13,,10.0,30.041338,1020.0,,,TRUE,TRUE,,,,,,BKN,700,OVC,1300,,,,,IFR,1.4,11.1,5.0,,,0.01,,0.05,,,,METAR,267.0
KCGZ 271756Z AUTO 27005KT 10SM CLR 17/M06 A3001 RMK AO2 SLP160 T01721056 10172 20067 50007 $,KCGZ,2018-03-27T17:56:00Z,32.95,-111.77,17.2,-5.6,270,5,,10.0,30.008858,1016.0,,TRUE,TRUE,TRUE,,,,,,CLR,,,,,,,,VFR,0.7,17.2,6.7,,,,,,,,,SPECI,446.0
KBVX 271756Z AUTO 18010G15KT 10SM OVC013 19/17 A3001 RMK AO2 LTG DSNT NW RAE00 SLP162 P0000 60002 T01890167 10189 20167 58004,KBVX,2018-03-27T17:56:00Z,35.73,-91.65,18.9,16.7,180,10,15,10.0,30.008858,1016.2,,TRUE,TRUE,,,,,,,OVC,1300,,,,,,,MVFR,-0.4,18.9,16.7,,,0.005,,0.02,,,,METAR,141.0
KBTP 271756Z AUTO 14007KT 10SM -RA OVC005 04/03 A3016 RMK AO2 CIG 003V009 SLPNO P0005 6//// T00390033 58022,KBTP,2018-03-27T17:56:00Z,40.77,-79.95,3.9,3.3,140,7,,10.0,30.159449,,,TRUE,TRUE,,,,,,-RA,OVC,500,,,,,,,IFR,-2.2,,,,,0.05,,,,,,METAR,380.0
KBOK 271756Z AUTO 29005KT 10SM CLR 11/06 A3044 RMK AO2 SLP323 T01110061 10117 20033 58004,KBOK,2018-03-27T17:56:00Z,42.07,-124.28,11.1,6.1,290,5,,10.0,30.43996,1032.3,,TRUE,TRUE,,,,,,,CLR,,,,,,,,VFR,-0.4,11.7,3.3,,,,,,,,,SPECI,140.0
KLFI 271756Z AUTO 06007KT 9SM OVC065 08/02 A3047 RMK AO2 SLP325 T00760019 10079 20038 57026,KLFI,2018-03-27T17:56:00Z,37.07,-76.37,7.6,1.9,60,7,,9.0,30.469488,1032.5,,TRUE,TRUE,,,,,,,OVC,6500,,,,,,,VFR,-2.6,7.9,3.8,,,,,,,,,METAR,3.0
KLTS 271756Z AUTO 03013KT 10SM OVC009 10/07 A3012 RMK AO2 PRESRR SLP197 60001 T01010068 10114 20096 52030 VISNO RWY17L $,KLTS,2018-03-27T17:56:00Z,34.67,-99.27,10.1,6.8,30,13,,10.0,30.121063,1019.7,,TRUE,TRUE,TRUE,,,,,,OVC,900,,,,,,,IFR,3.0,11.4,9.6,,,,,,,,,SPECI,420.0
KLCI 271756Z AUTO 05006KT 10SM CLR 08/M14 A3044 RMK AO2 SLP328 T00781139 10078 21022 57040,KLCI,2018-03-27T17:56:00Z,43.57,-71.42,7.8,-13.9,50,6,,10.0,30.43996,1032.8,,TRUE,TRUE,,,,,,,CLR,,,,,,,,VFR,-4.0,7.8,-2.2,,,,,,,,,METAR,166.0
KLBL 271756Z AUTO 04013KT 10SM OVC024 07/01 A3017 RMK AO2 RAB20E52 SLPNO P0000 6//// T00720011 51001,KLBL,2018-03-27T17:56:00Z,37.03,-100.97,7.2,1.1,40,13,,10.0,30.171259,,,TRUE,TRUE,,,,,,,OVC,2400,,,,,,,MVFR,0.1,,,,,0.005,,,,,,METAR,879.0
KKLS 271756Z AUTO 16011G14KT 10SM -RA BKN034 OVC042 09/07 A3044 RMK AO2 SLP312 P0000 60001 T00890067 10089 20072 52007,KKLS,2018-03-27T17:56:00Z,46.12,-122.9,8.9,6.7,160,11,14,10.0,30.43996,1031.2,,TRUE,TRUE,,,,,,-RA,BKN,3400,OVC,4200,,,,,VFR,0.7,8.9,7.2,,,0.005,,,,,,SPECI,5.0
KJAC 271756Z VRB04KT 10SM FEW055 M01/M08 A3019 RMK AO2 SLP262 T10061083 10017 21117 58007,KJAC,2018-03-27T17:56:00Z,43.62,-110.73,-0.6,-8.3,0,4,,10.0,30.188976,1026.2,,,TRUE,,,,,,,FEW,5500,,,,,,,VFR,-0.7,1.7,-11.7,,,,,,,,,SPECI,1961.0
KIWD 271756Z AUTO 28009KT 10SM OVC012 01/M02 A2995 RMK AO2 SLP156 60000 T00061017 10006 21006 51014 FZRANO,KIWD,2018-03-27T17:56:00Z,46.52,-90.12,0.6,-1.7,280,9,,10.0,29.949802,1015.6,,TRUE,TRUE,,,,TRUE,,,OVC,1200,,,,,,,MVFR,1.4,0.6,-0.6,,,,,0.005,,,,METAR,375.0
KITH 271756Z 16019G23KT 10SM SCT095 04/M07 A3025 RMK AO2 PK WND 15026/1731 SLP254 T00441072 10044 20006 58034,KITH,2018-03-27T17:56:00Z,42.47,-76.45,4.4,-7.2,160,19,23,10.0,30.250984,1025.4,,,TRUE,,,,,,,SCT,9500,,,,,,,VFR,-3.4,4.4,0.6,,,,,,,,,METAR,335.0
KLGD 271756Z AUTO 00000KT 10SM SCT047 BKN090 09/M01 A3029 RMK AO2 SLP386 T00941006 10100 20011 57009,KLGD,2018-03-27T17:56:00Z,45.27,-118.0,9.4,-0.6,0,0,,10.0,30.28937,1038.6,,TRUE,TRUE,,,,,,,SCT,4700,BKN,9000,,,,,VFR,-0.9,10.0,1.1,,,,,,,,,SPECI,827.0
KLEW 271756Z AUTO 05006KT 10SM CLR 07/M13 A3045 RMK AO2 SLP328 T00671133 10067 21050 58043,KLEW,2018-03-27T17:56:00Z,44.03,-70.27,6.7,-13.3,50,6,,10.0,30.448818,1032.8,,TRUE,TRUE,,,,,,,CLR,,,,,,,,VFR,-4.3,6.7,-5.0,,,,,,,,,METAR,88.0
KLPC 271756Z AUTO 34009KT 10SM CLR 19/01 A3020 RMK AO2 SLP229 T01940006 10194 20028 58007,KLPC,2018-03-27T17:56:00Z,34.67,-120.47,19.4,0.6,340,9,,10.0,30.200787,1022.9,,TRUE,TRUE,,,,,,,CLR,,,,,,,,VFR,-0.7,19.4,2.8,,,,,,,,,SPECI,27.0
KM19 271756Z AUTO 18028G34KT 10SM 21/16 A3001 RMK AO2 PK WND 17034/1750 SLP165 T02060156 10206 20167 58013 $,KM19,2018-03-27T17:56:00Z,35.65,-91.17,20.6,15.6,180,28,34,10.0,30.008858,1016.5,,TRUE,TRUE,TRUE,,,,,,,,,,,,,,,-1.3,20.6,16.7,,,,,,,,,METAR,73.0
KLZU 271756Z 06006KT 5SM BR OVC007 08/06 A3038 RMK AO2 SLP300 60000 T00830061 10083 20072 58018,KLZU,2018-03-27T17:56:00Z,33.98,-83.97,8.3,6.1,60,6,,5.0,30.380905,1030.0,,,TRUE,,,,,,BR,OVC,700,,,,,,,IFR,-1.8,8.3,7.2,,,,,0.005,,,,METAR,323.0
KLRD 271756Z 14009KT 10SM OVC036 28/19 A2989 RMK AO2 SLP121 T02780189 10278 20228 58004,KLRD,2018-03-27T17:56:00Z,27.55,-99.47,27.8,18.9,140,9,,10.0,29.890747,1012.1,,,TRUE,,,,,,,OVC,3600,,,,,,,VFR,-0.4,27.8,22.8,,,,,,,,,SPECI,155.0
KNXF 271756Z AUTO 26006KT 10SM CLR 16/09 A3014 RMK AO2 SLP292 T01610089 10167 20083 51007,KNXF,2018-03-27T17:56:00Z,33.28,-117.45,16.1,8.9,260,6,,10.0,30.138779,1029.2,,TRUE,TRUE,,,,,,,CLR,,,,,,,,VFR,0.7,16.7,8.3,,,,,,,,,METAR,27.0
KCVO 271756Z AUTO 00000KT 10SM OVC044 09/07 A3050 RMK AO2 RAB19E37 SLP330 P0000 60000 T00890072 10089 20039 51005,KCVO,2018-03-27T17:56:00Z,44.5,-123.27,8.9,7.2,0,0,,10.0,30.499016,1033.0,,TRUE,TRUE,,,,,,,OVC,4400,,,,,,,VFR,0.5,8.9,3.9,,,0.005,,,,,,SPECI,75.0
KCVN 271756Z AUTO 03021G27KT 10SM OVC008 06/03 A3008 RMK AO2 PK WND 03027/1756 SLP181 T00560028 10061 20044 50005,KCVN,2018-03-27T17:56:00Z,34.42,-103.07,5.6,2.8,30,21,27,10.0,30.079725,1018.1,,TRUE,TRUE,,,,,,,OVC,800,,,,,,,IFR,0.5,6.1,4.4,,,,,,,,,SPECI,1284.0
KCOE 271756Z AUTO 19012KT 10SM BKN033 OVC048 06/02 A3015 RMK AO2 SLP242 60000 T00560017 10056 20033 58007,KCOE,2018-03-27T17:56:00Z,47.77,-116.82,5.6,1.7,190,12,,10.0,30.15059,1024.2,,TRUE,TRUE,,,,,,,BKN,3300,OVC,4800,,,,,VFR,-0.7,5.6,3.3,,,,,,,,,SPECI,707.0
KCOD 271756Z AUTO 27014G22KT 10SM CLR 08/M09 A2998 RMK AO2 SLP164 T00781094 10078 20006 58019,KCOD,2018-03-27T17:56:00Z,44.52,-109.02,7.8,-9.4,270,14,22,10.0,29.97933,1016.4,,TRUE,TRUE,,,,,,,CLR,,,,,,,,VFR,-1.9,7.8,0.6,,,,,,,,,SPECI,1553.0
KMJX 271756Z AUTO VRB03KT 10SM CLR 06/M02 A3048 RMK AO2 SLP328 T00611022 10067 21017 58027,KMJX,2018-03-27T17:56:00Z,39.93,-74.3,6.1,-2.2,0,3,,10.0,30.481298,1032.8,,TRUE,TRUE,,,,,,,CLR,,,,,,,,VFR,-2.7,6.7,-1.7,,,,,,,,,METAR,25.0
KCWI 271756Z AUTO 30015KT 8SM OVC014 04/02 A3006 RMK AO2 SLP208 T00390017 10039 20011 51004,KCWI,2018-03-27T17:56:00Z,41.82,-90.32,3.9,1.7,300,15,,8.0,30.059055,1020.8,,TRUE,TRUE,,,,,,,OVC,1400,,,,,,,MVFR,0.4,3.9,1.1,,,,,,,,,METAR,216.0
KNGP 271756Z 12016KT 6SM HZ SCT021 BKN037 OVC048 27/22 A2993 RMK AO2 SLP135 T02720222 10272 20222 58000 $,KNGP,2018-03-27T17:56:00Z,27.68,-97.27,27.2,22.2,120,16,,6.0,29.929134,1013.5,,,TRUE,TRUE,,,,,HZ,SCT,2100,BKN,3700,OVC,4800,,,VFR,0.0,27.2,22.2,,,,,,,,,SPECI,6.0
KQFR 271756Z AUTO 35003KT 10SM OVC065 M03/M13 A2979 RMK AO1,KQFR,2018-03-27T17:56:00Z,,,-3.0,-13.0,350,3,,10.0,29.790354,,,TRUE,TRUE,,,,,,,OVC,6500,,,,,,,VFR,,,,,,,,,,,,METAR,
KEWK 271756Z AUTO 02011KT 10SM OVC015 05/03 A3015 RMK AO2 SLP214 60000 T00500028 10050 20039 56002 TSNO,KEWK,2018-03-27T17:56:00Z,38.03,-97.27,5.0,2.8,20,11,,10.0,30.15059,1021.4,,TRUE,TRUE,,,TRUE,,,,OVC,1500,,,,,,,MVFR,-0.2,5.0,3.9,,,,,0.005,,,,METAR,467.0
KEUL 271756Z AUTO 34004KT 10SM CLR 10/M01 A3034 RMK AO2 SLP283 T01001006 10100 21022 58004,KEUL,2018-03-27T17:56:00Z,43.62,-116.62,10.0,-0.6,340,4,,10.0,30.339567,1028.3,,TRUE,TRUE,,,,,,,CLR,,,,,,,,VFR,-0.4,10.0,-2.2,,,,,,,,,SPECI,740.0
KESC 271756Z AUTO 29011KT 10SM OVC016 06/02 A2987 RMK AO2 SLP140 60002 T00560022 10061 20022 53007,KESC,2018-03-27T17:56:00Z,45.75,-87.08,5.6,2.2,290,11,,10.0,29.870079,1014.0,,TRUE,TRUE,,,,,,,OVC,1600,,,,,,,MVFR,0.7,6.1,2.2,,,,,0.02,,,,METAR,187.0
KENV 271756Z AUTO 36008G15KT 320V030 10SM CLR 08/M07 A3028 RMK AO2 SLP266 T00831072 10083 21011 57003,KENV,2018-03-27T17:56:00Z,40.72,-114.02,8.3,-7.2,360,8,15,10.0,30.280512,1026.6,,TRUE,TRUE,,,,,,,CLR,,,,,,,,VFR,-0.3,8.3,-1.1,,,,,,,,,SPECI,1292.0
KEKQ 271756Z AUTO 20009G21KT 170V240 10SM CLR 18/11 A3021 RMK AO2 SLP252 6//// T01830111 10183 20106 58023 PNO $,KEKQ,2018-03-27T17:56:00Z,36.85,-84.85,18.3,11.1,200,9,21,10.0,30.209646,1025.2,,TRUE,TRUE,TRUE,,,,,,CLR,,,,,,,,VFR,-2.3,18.3,10.6,,,,,,,,,METAR,294.0
KEGE 271756Z 23007KT 10SM CLR 06/M08 A3010 RMK AO2 SLP207 T00561083 10056 21039 58015,KEGE,2018-03-27T17:56:00Z,39.63,-106.92,5.6,-8.3,230,7,,10.0,30.100393,1020.7,,,TRUE,,,,,,,CLR,,,,,,,,VFR,-1.5,5.6,-3.9,,,,,,,,,SPECI,1993.0
KEEN 271756Z AUTO 19009KT 160V230 10SM CLR 10/M13 A3043 RMK AO2 SLP328 T01001133 10106 21044 56039,KEEN,2018-03-27T17:56:00Z,42.88,-72.27,10.0,-13.3,190,9,,10.0,30.431103,1032.8,,TRUE,TRUE,,,,,,,CLR,,,,,,,,VFR,-3.9,10.6,-4.4,,,,,,,,,METAR,149.0
KEAR 271756Z AUTO 36009KT 10SM CLR 07/M02 A3017 RMK AO2 SLP227 T00721017 10072 20000 58002,KEAR,2018-03-27T17:56:00Z,40.72,-99.0,7.2,-1.7,360,9,,10.0,30.171259,1022.7,,TRUE,TRUE,,,,,,,CLR,,,,,,,,VFR,-0.2,7.2,0.0,,,,,,,,,METAR,649.0
KDYR 271756Z AUTO 20008G24KT 10SM FEW027 SCT080 21/14 A3009 RMK AO2 SLP204 6//// T02060139 10206 20133 58013 PNO $,KDYR,2018-03-27T17:56:00Z,36.0,-89.4,20.6,13.9,200,8,24,10.0,30.088583,1020.4,,TRUE,TRUE,TRUE,,,,,,FEW,2700,SCT,8000,,,,,VFR,-1.3,20.6,13.3,,,,,,,,,METAR,103.0
KDVL 271756Z AUTO 24007KT 10SM CLR 03/M02 A2992 RMK AO2 SLP165 T00281022 10028 21050 58005,KDVL,2018-03-27T17:56:00Z,48.12,-98.92,2.8,-2.2,240,7,,10.0,29.920275,1016.5,,TRUE,TRUE,,,,,,,CLR,,,,,,,,VFR,-0.5,2.8,-5.0,,,,,,,,,METAR,443.0
KDIJ 271756Z AUTO 00000KT 10SM FEW060 00/M09 A3021 RMK AO2 SLP264 T00001089 10006 21122 58007,KDIJ,2018-03-27T17:56:00Z,43.75,-111.1,0.0,-8.9,0,0,,10.0,30.209646,1026.4,,TRUE,TRUE,,,,,,,FEW,6000,,,,,,,VFR,-0.7,0.6,-12.2,,,,,,,,,SPECI,1899.0
KFKL 271756Z AUTO 15011G16KT 10SM -RA OVC004 02/01 A3013 RMK AO2 RAE14B53UPB14E53SNB28E38 SLP216 P0006 60042 T00220011 10022 20000 58029 FZRANO,KFKL,2018-03-27T17:56:00Z,41.37,-79.87,2.2,1.1,150,11,16,10.0,30.129921,1021.6,,TRUE,TRUE,,,,TRUE,,-RA,OVC,400,,,,,,,LIFR,-2.9,2.2,0.0,,,0.06,,0.42,,,,METAR,469.0
KNY0 271756Z AUTO 15011KT 10SM CLR 03/M08 A3037 RMK AO2,KNY0,2018-03-27T17:56:00Z,42.98,-74.33,3.0,-8.0,150,11,,10.0,30.369095,,,TRUE,TRUE,,,,,,,CLR,,,,,,,,VFR,,,,,,,,,,,,METAR,271.0
KP60 271756Z AUTO VRB03KT M03/M09 A3014 RMK AO1 SLP264 T10331094 11033 21194 58013 $,KP60,2018-03-27T17:56:00Z,44.55,-110.42,-3.3,-9.4,0,3,,,30.138779,1026.4,,TRUE,TRUE,TRUE,,,,,,,,,,,,,,,-1.3,-3.3,-19.4,,,,,,,,,SPECI,2388.0
KSXT 271756Z AUTO VRB04KT 10SM CLR 06/02 A3040 RMK AO2 SLP303 T00610017 10061 20017 53002,KSXT,2018-03-27T17:56:00Z,42.6,-123.37,6.1,1.7,0,4,,10.0,30.398623,1030.3,,TRUE,TRUE,,,,,,,CLR,,,,,,,,VFR,0.2,6.1,1.7,,,,,,,,,SPECI,1170.0
KFOD 271756Z AUTO 31007KT 10SM OVC013 02/M01 A3013 RMK AO2 SLP243 T00171011 10028 20011 51003 FZRANO,KFOD,2018-03-27T17:56:00Z,42.53,-94.17,1.7,-1.1,310,7,,10.0,30.129921,1024.3,,TRUE,TRUE,,,,TRUE,,,OVC,1300,,,,,,,MVFR,0.3,2.8,1.1,,,,,,,,,METAR,355.0
KFNL 271756Z AUTO 18009KT 10SM SCT026 07/M01 A3014 RMK AO2 SLP204 T00671011 10072 21039 58013,KFNL,2018-03-27T17:56:00Z,40.45,-105.02,6.7,-1.1,180,9,,10.0,30.138779,1020.4,,TRUE,TRUE,,,,,,,SCT,2600,,,,,,,VFR,-1.3,7.2,-3.9,,,,,,,,,SPECI,1529.0
PAZK 271756Z AUTO 00000KT 10SM CLR M08/M20 A2964 RMK AO2 SLP116 T10831200 11083 21178 51023 FZRANO,PAZK,2018-03-27T17:56:00Z,61.93,-147.17,-8.3,-20.0,0,0,,10.0,29.639763,1011.6,,TRUE,TRUE,,,,TRUE,,,CLR,,,,,,,,VFR,2.3,-8.3,-17.8,,,,,,,,,METAR,1003.0
PASL 271756Z AUTO VRB03KT 5SM -SN BR SCT012 OVC018 M03/M05 A2969 RMK AO2 SLP051 P0000 60000 T10331050 11033 21050 53010 FZRANO,PASL,2018-03-27T17:56:00Z,61.72,-157.15,-3.3,-5.0,0,3,,5.0,29.68996,1005.1,,TRUE,TRUE,,,,TRUE,,-SN BR,SCT,1200,OVC,1800,,,,,MVFR,1.0,-3.3,-5.0,,,0.005,,0.005,,,,METAR,55.0
PAPN 271756Z AUTO 22020G26KT 10SM -RA BKN012 OVC026 01/M01 A2978 RMK AO2 PK WND 22026/1756 UPB30E37SNB1657E07 SLP085 P0000 60002 T00111006 10011 20000 53028 FZRANO,PAPN,2018-03-27T17:56:00Z,57.58,-157.57,1.1,-0.6,220,20,26,10.0,29.778543,1008.5,,TRUE,TRUE,,,,TRUE,,-RA,BKN,1200,OVC,2600,,,,,MVFR,2.8,1.1,0.0,,,0.005,,0.02,,,,METAR,18.0
PANI 271756Z AUTO 09005KT 10SM CLR M01/M04 A2956 RMK AO2 SLP980 T10061039 11006 21033 53012 FZRANO,PANI,2018-03-27T17:56:00Z,61.58,-159.53,-0.6,-3.9,90,5,,10.0,29.56004,998.0,,TRUE,TRUE,,,,TRUE,,,CLR,,,,,,,,VFR,1.2,-0.6,-3.3,,,,,,,,,METAR,26.0
KGPZ 271756Z AUTO 30007KT 10SM CLR 03/M02 A2997 RMK AO2 SLP167 60000 T00281022 10028 21011 58001,KGPZ,2018-03-27T17:56:00Z,47.22,-93.52,2.8,-2.2,300,7,,10.0,29.970472,1016.7,,TRUE,TRUE,,,,,,,CLR,,,,,,,,VFR,-0.1,2.8,-1.1,,,,,0.005,,,,METAR,413.0
KGDV 271756Z AUTO 21012KT 10SM CLR 09/M03 A2990 RMK AO2 SLP141 T00941028 10094 21039 58026,KGDV,2018-03-27T17:56:00Z,47.12,-104.78,9.4,-2.8,210,12,,10.0,29.899607,1014.1,,TRUE,TRUE,,,,,,,CLR,,,,,,,,VFR,-2.6,9.4,-3.9,,,,,,,,,SPECI,749.0
KGBD 271756Z AUTO 01012KT 10SM OVC021 07/02 A3017 RMK AO2 SLP224 T00720017 10072 20044 58001,KGBD,2018-03-27T17:56:00Z,38.35,-98.87,7.2,1.7,10,12,,10.0,30.171259,1022.4,,TRUE,TRUE,,,,,,,OVC,2100,,,,,,,MVFR,-0.1,7.2,4.4,,,,,,,,,METAR,575.0
KGAI 271756Z AUTO 19007KT 10SM -RA FEW024 BKN030 BKN050 06/M01 A3044 RMK AO2 SLP341 P0000 60000 T00611006 10067 20000 58031,KGAI,2018-03-27T17:56:00Z,39.17,-77.17,6.1,-0.6,190,7,,10.0,30.43996,1034.1,,TRUE,TRUE,,,,,,-RA,FEW,2400,BKN,3000,BKN,5000,,,MVFR,-3.1,6.7,0.0,,,0.005,,0.005,,,,METAR,165.0
KGAD 271756Z AUTO 12006KT 10SM OVC026 16/10 A3031 RMK AO2 SLP267 T01560100 10156 20100 58023,KGAD,2018-03-27T17:56:00Z,33.97,-86.07,15.6,10.0,120,6,,10.0,30.31004,1026.7,,TRUE,TRUE,,,,,,,OVC,2600,,,,,,,MVFR,-2.3,15.6,10.0,,,,,,,,,METAR,173.0
KFRM 271756Z AUTO 31010KT 10SM CLR 02/M02 A3011 RMK AO2 SLP211 T00221017 10022 20000 51004 FZRANO,KFRM,2018-03-27T17:56:00Z,43.63,-94.42,2.2,-1.7,310,10,,10.0,30.109253,1021.1,,TRUE,TRUE,,,,TRUE,,,CLR,,,,,,,,VFR,0.4,2.2,0.0,,,,,,,,,METAR,354.0
PFSH 271756Z AUTO 01008KT 10SM CLR M17/M20 A2966 RMK AO2 SLP043 T11671200 11150 21200 53011 PWINO FZRANO $,PFSH,2018-03-27T17:56:00Z,64.37,-161.22,-16.7,-20.0,10,8,,10.0,29.660433,1004.3,,TRUE,TRUE,TRUE,,,TRUE,TRUE,,CLR,,,,,,,,VFR,1.1,-15.0,-20.0,,,,,,,,,METAR,7.0
PFNO 271756Z AUTO 07020KT 10SM CLR M13/M20 A2975 RMK AO2 SLP074 T11331200 11128 21150 51007 FZRANO,PFNO,2018-03-27T17:56:00Z,66.82,-161.02,-13.3,-20.0,70,20,,10.0,29.749016,1007.4,,TRUE,TRUE,,,,TRUE,,,CLR,,,,,,,,VFR,0.7,-12.8,-15.0,,,,,,,,,METAR,17.0
PFKW 271756Z AUTO 11008KT 5SM -SN SCT038 BKN046 OVC060 01/M02 A2949 RMK AO2 RAB40E42SNB42 SLP985 P0000 60000 T00061022 10006 21011 53010 FZRANO,PFKW,2018-03-27T17:56:00Z,60.8,-161.43,0.6,-2.2,110,8,,5.0,29.489174,998.5,,TRUE,TRUE,,,,TRUE,,-SN,SCT,3800,BKN,4600,OVC,6000,,,MVFR,1.0,0.6,-1.1,,,0.005,,0.005,,,,METAR,8.0
PFEL 271756Z AUTO 35005KT 10SM OVC055 M08/M17 A2966 RMK AO2 SLP045 T10781172 11072 21089 53012 FZRANO,PFEL,2018-03-27T17:56:00Z,64.62,-162.27,-7.8,-17.2,350,5,,10.0,29.660433,1004.5,,TRUE,TRUE,,,,TRUE,,,OVC,5500,,,,,,,VFR,1.2,-7.2,-8.9,,,,,,,,,METAR,49.0
PPIT 271756Z AUTO 07013KT 6SM -SN BR OVC018 M03/M03 A2948 RMK AO2 UPE1657B24E43SNB1657E24B43 SLP982 P0000 60000 T10281033 11011 21039 53013 FZRANO TSNO,PPIT,2018-03-27T17:56:00Z,60.9,-162.43,-2.8,-3.3,70,13,,6.0,29.480314,998.2,,TRUE,TRUE,,,TRUE,TRUE,,-SN BR,OVC,1800,,,,,,,MVFR,1.3,-1.1,-3.9,,,0.005,,0.005,,,,METAR,4.0
KGTR 271756Z 16014G18KT 10SM OVC047 19/12 A3026 RMK AO2 SLP249 T01890122 10189 20111 58017,KGTR,2018-03-27T17:56:00Z,33.45,-88.57,18.9,12.2,160,14,18,10.0,30.259842,1024.9,,,TRUE,,,,,,,OVC,4700,,,,,,,VFR,-1.7,18.9,11.1,,,,,,,,,METAR,80.0
KGTU 271756Z 15009G16KT 10SM FEW029 SCT033 OVC070 25/19 A3000 RMK AO2 SLP152 T02500189 10250 20206 50000,KGTU,2018-03-27T17:56:00Z,30.68,-97.68,25.0,18.9,150,9,16,10.0,30.0,1015.2,,,TRUE,,,,,,,FEW,2900,SCT,3300,OVC,7000,,,VFR,0.0,25.0,20.6,,,,,,,,,SPECI,240.0
PAED 271756Z 34004KT 10SM SCT050 BKN070 M04/M12 A2980 RMK AO2A SLP089 T10411125 11041 21058 52024 $,PAED,2018-03-27T17:56:00Z,61.25,-149.8,-4.1,-12.5,340,4,,10.0,29.799213,1008.9,,,TRUE,TRUE,,,,,,SCT,5000,BKN,7000,,,,,VFR,2.4,-4.1,-5.8,,,,,,,,,SPECI,59.0
KNUC 271756Z 09008KT 10SM FEW200 18/04 A3016 RMK SLP212 T01830039 51011,KNUC,2018-03-27T17:56:00Z,33.02,-118.57,18.3,3.9,90,8,,10.0,30.159449,1021.2,,,,,,,,,,FEW,20000,,,,,,,VFR,1.1,,,,,,,,,,,SPECI,55.0
KAQV 271756Z AUTO VRB04KT 10SM 27/17 A3006 RMK AO2 SLPNO 6//// T02670172,KAQV,2018-03-27T17:56:00Z,31.4,-93.3,26.7,17.2,0,4,,10.0,30.059055,,,TRUE,TRUE,,,,,,,,,,,,,,,,,,,,,,,,,,,SPECI,111.0
KHDN 271756Z AUTO 31003KT 10SM CLR 01/M09 A3015 RMK AO2 SLP231 T00111089 10011 21078 58011 FZRANO,KHDN,2018-03-27T17:56:00Z,40.47,-107.22,1.1,-8.9,310,3,,10.0,30.15059,1023.1,,TRUE,TRUE,,,,TRUE,,,CLR,,,,,,,,VFR,-1.1,1.1,-7.8,,,,,,,,,SPECI,2012.0
KGXY 271756Z AUTO 20004KT 10SM BKN041 09/M03 A3015 RMK AO2 SLP221 T00891033 10094 21039 58014,KGXY,2018-03-27T17:56:00Z,40.42,-104.62,8.9,-3.3,200,4,,10.0,30.15059,1022.1,,TRUE,TRUE,,,,,,,BKN,4100,,,,,,,VFR,-1.4,9.4,-3.9,,,,,,,,,SPECI,1420.0
KGUC 271756Z AUTO 00000KT 10SM FEW037 04/M05 A3006 RMK AO2 SLP181 60000 T00391050 10039 21039 58004,KGUC,2018-03-27T17:56:00Z,38.52,-106.92,3.9,-5.0,0,0,,10.0,30.059055,1018.1,,TRUE,TRUE,,,,,,,FEW,3700,,,,,,,VFR,-0.4,3.9,-3.9,,,,,,,,,SPECI,2339.0
KHEZ 271756Z AUTO 17009KT 10SM FEW030 OVC070 24/17 A3016 RMK AO2 RAB14E25 SLP216 P0000 60000 T02440172 10244 20200 58002,KHEZ,2018-03-27T17:56:00Z,31.62,-91.3,24.4,17.2,170,9,,10.0,30.159449,1021.6,,TRUE,TRUE,,,,,,,FEW,3000,OVC,7000,,,,,VFR,-0.2,24.4,20.0,,,0.005,,0.005,,,,METAR,83.0
KHNB 271756Z AUTO 19012KT 10SM -RA OVC015 13/11 A3009 RMK AO2 RAE22B40 SLP190 P0000 60000 T01330111 10133 20117 58012,KHNB,2018-03-27T17:56:00Z,38.25,-86.95,13.3,11.1,190,12,,10.0,30.088583,1019.0,,TRUE,TRUE,,,,,,-RA,OVC,1500,,,,,,,MVFR,-1.2,13.3,11.7,,,0.005,,0.005,,,,METAR,161.0
KHND 271756Z 01013G22KT 10SM CLR 14/M10 A3020 RMK AO2 SLP225 T01391100 10139 20083 52003 $,KHND,2018-03-27T17:56:00Z,35.98,-115.13,13.9,-10.0,10,13,22,10.0,30.200787,1022.5,,,TRUE,TRUE,,,,,,CLR,,,,,,,,VFR,0.3,13.9,8.3,,,,,,,,,SPECI,749.0
KHYI 271756Z 16015KT 10SM SCT030 BKN050 OVC075 27/19 A2996 RMK AO2 SLP138 60008 T02670189 10272 20189 58007 $,KHYI,2018-03-27T17:56:00Z,29.88,-97.87,26.7,18.9,160,15,,10.0,29.958662,1013.8,,,TRUE,TRUE,,,,,,SCT,3000,BKN,5000,OVC,7500,,,VFR,-0.7,27.2,18.9,,,,,,,,,SPECI,182.0
OTBH 271756Z 00000KT 9000 HZ CLR 25/14 A2994 RMK AO2A SLP140 T02540142 10364 20254 53004 $,OTBH,2018-03-27T17:56:00Z,25.12,51.32,25.4,14.2,0,0,,5.59,29.940945,1014.0,,,TRUE,TRUE,,,,,HZ,CLR,,,,,,,,VFR,0.4,36.4,25.4,,,,,,,,,METAR,40.0
KMMT 271756Z AUTO 02003KT 10SM OVC017 10/04 A3042 RMK AO2 SLP304 60000 T00970039 10099 20071 57023 $,KMMT,2018-03-27T17:56:00Z,33.92,-80.78,9.7,3.9,20,3,,10.0,30.41929,1030.4,,TRUE,TRUE,TRUE,,,,,,OVC,1700,,,,,,,MVFR,-2.3,9.9,7.1,,,,,,,,,SPECI,77.0
KPAM 271756Z 14014G18KT 10SM SCT034 25/16 A3026 RMK AO2A SLPNO ALSTG ESTMD T02490153 10249 20142 57010 $,KPAM,2018-03-27T17:56:00Z,30.07,-85.57,24.9,15.3,140,14,18,10.0,30.259842,,,,TRUE,TRUE,,,,,,SCT,3400,,,,,,,VFR,-1.0,24.9,14.2,,,,,,,,,SPECI,5.0
KMTW 271756Z AUTO 28012KT 10SM OVC013 07/04 A2992 RMK AO2 SLP155 60000 T00670039 10072 20044 50007,KMTW,2018-03-27T17:56:00Z,44.12,-87.67,6.7,3.9,280,12,,10.0,29.920275,1015.5,,TRUE,TRUE,,,,,,,OVC,1300,,,,,,,MVFR,0.7,7.2,4.4,,,,,0.005,,,,METAR,198.0
KMSV 271756Z AUTO 16007KT 10SM CLR 03/M08 A3039 RMK AO2 SLP308 T00331078 10033 21050 58030,KMSV,2018-03-27T17:56:00Z,41.7,-74.78,3.3,-7.8,160,7,,10.0,30.389763,1030.8,,TRUE,TRUE,,,,,,,CLR,,,,,,,,VFR,-3.0,3.3,-5.0,,,,,,,,,METAR,428.0
KMRF 271756Z AUTO 15012KT 10SM CLR 17/06 A3003 RMK AO2 SLP125 6//// T01720061 10172 20117,KMRF,2018-03-27T17:56:00Z,30.37,-104.02,17.2,6.1,150,12,,10.0,30.029528,1012.5,,TRUE,TRUE,,,,,,,CLR,,,,,,,,VFR,,17.2,11.7,,,,,,,,,SPECI,1481.0
KMQY 271756Z 19014G19KT 10SM FEW050 18/11 A3021 RMK AO2 SLP173 T01780106 10178 20100 56021,KMQY,2018-03-27T17:56:00Z,36.02,-86.52,17.8,10.6,190,14,19,10.0,30.209646,1017.3,,,TRUE,,,,,,,FEW,5000,,,,,,,VFR,-2.1,17.8,10.0,,,,,,,,,METAR,166.0
KMNM 271756Z AUTO VRB05KT 10SM OVC018 06/02 A2991 RMK AO2 SLP150 60001 T00610022 10061 20033 53008 $,KMNM,2018-03-27T17:56:00Z,45.12,-87.62,6.1,2.2,0,5,,10.0,29.911417,1015.0,,TRUE,TRUE,TRUE,,,,,,OVC,1800,,,,,,,MVFR,0.8,6.1,3.3,,,,,0.01,,,,METAR,191.0
KMML 271756Z AUTO 28010KT 10SM CLR 03/M01 A3008 RMK AO2 SLP201 T00281006 10033 21006 58001,KMML,2018-03-27T17:56:00Z,44.45,-95.82,2.8,-0.6,280,10,,10.0,30.079725,1020.1,,TRUE,TRUE,,,,,,,CLR,,,,,,,,VFR,-0.1,3.3,-0.6,,,,,,,,,METAR,359.0
KMKY 271756Z AUTO 08018G25KT 10SM FEW045 27/13 A3021 RMK AO2 SLP228 T02670128 10272 20178 58016,KMKY,2018-03-27T17:56:00Z,26.0,-81.67,26.7,12.8,80,18,25,10.0,30.209646,1022.8,,TRUE,TRUE,,,,,,,FEW,4500,,,,,,,VFR,-1.6,27.2,17.8,,,,,,,,,METAR,2.0
KISO 271756Z 34006KT 10SM BKN037 OVC043 08/03 A3047 RMK AO2,KISO,2018-03-27T17:56:00Z,35.32,-77.62,8.0,3.0,340,6,,10.0,30.469488,,,,TRUE,,,,,,,BKN,3700,OVC,4300,,,,,VFR,,,,,,,,,,,,METAR,29.0
KISM 271756Z 12018G23KT 10SM FEW046 24/13 A3028 RMK AO2 PK WND 12026/1657 SLP256 T02440128 10250 20167 58013,KISM,2018-03-27T17:56:00Z,28.28,-81.43,24.4,12.8,120,18,23,10.0,30.280512,1025.6,,,TRUE,,,,,,,FEW,4600,,,,,,,VFR,-1.3,25.0,16.7,,,,,,,,,METAR,25.0
KILE 271756Z AUTO 17011G19KT 10SM BKN038 BKN050 OVC070 26/18 A2999 RMK AO2 SLP161 6//// T02610183 10267 20211 51005 PNO $,KILE,2018-03-27T17:56:00Z,31.07,-97.67,26.1,18.3,170,11,19,10.0,29.991142,1016.1,,TRUE,TRUE,TRUE,,,,,,BKN,3800,BKN,5000,OVC,7000,,,VFR,0.5,26.7,21.1,,,,,,,,,SPECI,258.0
KMVN 271756Z AUTO 23009KT 4SM RA BR OVC007 13/13 A3006 RMK AO2 CIG 004V010 SLP177 P0016 60029 T01330128 10139 20122 58002,KMVN,2018-03-27T17:56:00Z,38.32,-88.87,13.3,12.8,230,9,,4.0,30.059055,1017.7,,TRUE,TRUE,,,,,,RA BR,OVC,700,,,,,,,IFR,-0.2,13.9,12.2,,,0.16,,0.29,,,,METAR,146.0
KOLU 271756Z AUTO 32010KT 10SM CLR 11/M01 A3015 RMK AO2 SLP218 T01061006 10106 20011 56006,KOLU,2018-03-27T17:56:00Z,41.45,-97.32,10.6,-0.6,320,10,,10.0,30.15059,1021.8,,TRUE,TRUE,,,,,,,CLR,,,,,,,,VFR,-0.6,10.6,1.1,,,,,,,,,METAR,440.0
KOCH 271756Z AUTO 16013G19KT 10SM 27/17 A3003 RMK AO2 SLP168 60000 T02670172 10272 20206 56020 $,KOCH,2018-03-27T17:56:00Z,31.57,-94.72,26.7,17.2,160,13,19,10.0,30.029528,1016.8,,TRUE,TRUE,TRUE,,,,,,,,,,,,,,,-2.0,27.2,20.6,,,,,,,,,SPECI,108.0
KOAJ 271756Z AUTO 02006KT 10SM OVC046 10/04 A3044 RMK AO2 SLP313 60000 T01000044 10100 20033 56023,KOAJ,2018-03-27T17:56:00Z,34.82,-77.62,10.0,4.4,20,6,,10.0,30.43996,1031.3,,TRUE,TRUE,,,,,,,OVC,4600,,,,,,,VFR,-2.3,10.0,3.3,,,,,0.005,,,,METAR,29.0
KMYR 271756Z 11003KT 9SM FU OVC026 11/06 A3043 RMK AO2 SLP305 T01060056 10117 20056 56023,KMYR,2018-03-27T17:56:00Z,33.67,-78.92,10.6,5.6,110,3,,9.0,30.431103,1030.5,,,TRUE,,,,,,FU,OVC,2600,,,,,,,MVFR,-2.3,11.7,5.6,,,,,,,,,METAR,8.0
KOTG 271756Z AUTO 26013KT 7SM CLR 02/M01 A3010 RMK AO2 SLP213 T00171006 10022 21006 50002 FZRANO,KOTG,2018-03-27T17:56:00Z,43.63,-95.57,1.7,-0.6,260,13,,7.0,30.100393,1021.3,,TRUE,TRUE,,,,TRUE,,,CLR,,,,,,,,VFR,0.2,2.2,-0.6,,,,,,,,,METAR,480.0
KOTH 271756Z 36003KT 10SM CLR 11/06 A3053 RMK AO2 SLP337 T01060061 10106 20033 51002,KOTH,2018-03-27T17:56:00Z,43.42,-124.25,10.6,6.1,360,3,,10.0,30.528543,1033.7,,,TRUE,,,,,,,CLR,,,,,,,,VFR,0.2,10.6,3.3,,,,,,,,,SPECI,4.0
KSPD 271756Z AUTO 02011KT 07/M01 A3014 RMK AO1 SLP196 T00721006 10078 20011 58003,KSPD,2018-03-27T17:56:00Z,37.28,-102.62,7.2,-0.6,20,11,,,30.138779,1019.6,,TRUE,TRUE,,,,,,,,,,,,,,,,-0.3,7.8,1.1,,,,,,,,,METAR,1335.0
KSDY 271756Z AUTO 25014KT 10SM CLR 09/M04 A2988 RMK AO2 SLP138 T00941039 10094 21039 58026,KSDY,2018-03-27T17:56:00Z,47.7,-104.2,9.4,-3.9,250,14,,10.0,29.878937,1013.8,,TRUE,TRUE,,,,,,,CLR,,,,,,,,VFR,-2.6,9.4,-3.9,,,,,,,,,SPECI,605.0
KSFM 271756Z AUTO 10004KT 10SM 06/M14 A3046 RMK AO2 SLP321 T00611139 10061 21028 58037 $,KSFM,2018-03-27T17:56:00Z,43.38,-70.72,6.1,-13.9,100,4,,10.0,30.46063,1032.1,,TRUE,TRUE,TRUE,,,,,,,,,,,,,,,-3.7,6.1,-2.8,,,,,,,,,METAR,74.0
KSFZ 271756Z AUTO 10SM CLR 07/M08 A3044 RMK AO2 SLP258 T00721083 10078 21017 56031 $,KSFZ,2018-03-27T17:56:00Z,41.92,-71.5,7.2,-8.3,,,,10.0,30.43996,1025.8,,TRUE,TRUE,TRUE,,,,,,CLR,,,,,,,,VFR,-3.1,7.8,-1.7,,,,,,,,,METAR,134.0
KNLC 271756Z 35003KT 10SM FEW090 FEW220 14/03 A3026 RMK AO2 SLP249 RH/48 T01440033 10144 20039 51009,KNLC,2018-03-27T17:56:00Z,36.32,-119.95,14.4,3.3,350,3,,10.0,30.259842,1024.9,,,TRUE,,,,,,,FEW,9000,FEW,22000,,,,,VFR,0.9,14.4,3.9,,,,,,,,,METAR,72.0
KNSE 271756Z 12009KT 10SM BKN023 OVC030 21/16 A3025 RMK AO2 SLP232 T02060161 10206 20122 58008 $,KNSE,2018-03-27T17:56:00Z,30.73,-87.02,20.6,16.1,120,9,,10.0,30.250984,1023.2,,,TRUE,TRUE,,,,,,BKN,2300,OVC,3000,,,,,MVFR,-0.8,20.6,12.2,,,,,,,,,SPECI,61.0
KSGT 271756Z AUTO 17019G27KT 10SM SCT041 SCT055 23/17 A3006 RMK AO2 PK WND 17029/1751 SLP177 T02280167 10228 20178 58010,KSGT,2018-03-27T17:56:00Z,34.6,-91.57,22.8,16.7,170,19,27,10.0,30.059055,1017.7,,TRUE,TRUE,,,,,,,SCT,4100,SCT,5500,,,,,VFR,-1.0,22.8,17.8,,,,,,,,,METAR,68.0
KSGJ 271756Z 12013KT 10SM CLR 22/14 A3034 RMK AO2 SLP273 T02220139 10228 20178 58010,KSGJ,2018-03-27T17:56:00Z,29.97,-81.32,22.2,13.9,120,13,,10.0,30.339567,1027.3,,,TRUE,,,,,,,CLR,,,,,,,,VFR,-1.0,22.8,17.8,,,,,,,,,METAR,3.0
KSKX 271756Z AUTO 13021G29KT 10SM FEW075 08/M06 A3003 RMK AO2 PK WND 13030/1735 SLP154 60000 T00831061 10089 21006 50004 $,KSKX,2018-03-27T17:56:00Z,36.45,-105.67,8.3,-6.1,130,21,29,10.0,30.029528,1015.4,,TRUE,TRUE,TRUE,,,,,,FEW,7500,,,,,,,VFR,0.4,8.9,-0.6,,,,,,,,,SPECI,2161.0
KSGU 271756Z AUTO 36007KT 10SM CLR 12/M09 A3017 RMK AO2 SLP211 T01171089 10117 20039 56001,KSGU,2018-03-27T17:56:00Z,37.07,-113.52,11.7,-8.9,360,7,,10.0,30.171259,1021.1,,TRUE,TRUE,,,,,,,CLR,,,,,,,,VFR,-0.1,11.7,3.9,,,,,,,,,SPECI,896.0
KSRC 271756Z AUTO 17015KT 10SM SCT030 OVC035 21/18 A3003 RMK AO2 SLP177 6//// T02110178 10211 20172 58006,KSRC,2018-03-27T17:56:00Z,35.22,-91.73,21.1,17.8,170,15,,10.0,30.029528,1017.7,,TRUE,TRUE,,,,,,,SCT,3000,OVC,3500,,,,,VFR,-0.6,21.1,17.2,,,,,,,,,METAR,80.0
KSQI 271756Z AUTO 29010KT 9SM OVC012 06/03 A3003 RMK AO2 SLPNO P0003 60015 T00610033 10061 20044 51006 $,KSQI,2018-03-27T17:56:00Z,41.75,-89.67,6.1,3.3,290,10,,9.0,30.029528,,,TRUE,TRUE,TRUE,,,,,,OVC,1200,,,,,,,MVFR,0.6,6.1,4.4,,,0.03,,0.15,,,,METAR,197.0
KSMN 271756Z AUTO 21008KT 10SM OVC055 08/M05 A3018 RMK AO2 SLP236 T00831050 10083 20000 58019,KSMN,2018-03-27T17:56:00Z,45.12,-113.87,8.3,-5.0,210,8,,10.0,30.180119,1023.6,,TRUE,TRUE,,,,,,,OVC,5500,,,,,,,VFR,-1.9,8.3,0.0,,,,,,,,,SPECI,1233.0
KTVF 271756Z AUTO 23011KT 8SM CLR 01/M02 A2994 RMK AO2 SLP154 T00111017 10017 21028 58003 FZRANO,KTVF,2018-03-27T17:56:00Z,48.07,-96.17,1.1,-1.7,230,11,,8.0,29.940945,1015.4,,TRUE,TRUE,,,,TRUE,,,CLR,,,,,,,,VFR,-0.3,1.7,-2.8,,,,,,,,,METAR,340.0
KUCP 271756Z AUTO 15008G15KT 10SM OVC006 05/05 A3012 RMK AO2 RAE41 CIG 005V011 PRESFR SLP222 P0002 60029 T00500050 10050 20017 58035,KUCP,2018-03-27T17:56:00Z,41.03,-80.42,5.0,5.0,150,8,15,10.0,30.121063,1022.2,,TRUE,TRUE,,,,,,,OVC,600,,,,,,,IFR,-3.5,5.0,1.7,,,0.02,,0.29,,,,METAR,327.0
KRUT 271756Z AUTO 12011KT 10SM CLR 07/M12 A3039 RMK AO2 SLP312 T00671117 10067 21033 58034 $,KRUT,2018-03-27T17:56:00Z,43.52,-72.95,6.7,-11.7,120,11,,10.0,30.389763,1031.2,,TRUE,TRUE,TRUE,,,,,,CLR,,,,,,,,VFR,-3.4,6.7,-3.3,,,,,,,,,METAR,240.0
KRKD 271756Z AUTO 03008KT 10SM CLR 06/M11 A3046 RMK AO2 RAE1658 SLP317 P0000 60000 T00611111 10061 20000 58036,KRKD,2018-03-27T17:56:00Z,44.07,-69.08,6.1,-11.1,30,8,,10.0,30.46063,1031.7,,TRUE,TRUE,,,,,,,CLR,,,,,,,,VFR,-3.6,6.1,0.0,,,0.005,,0.005,,,,METAR,17.0
KPWT 271756Z AUTO 20014G19KT 9SM OVC003 08/07 A3028 RMK AO2 RAE52 SLP273 P0001 60002 T00780072 10078 20067 56001,KPWT,2018-03-27T17:56:00Z,47.5,-122.75,7.8,7.2,200,14,19,9.0,30.280512,1027.3,,TRUE,TRUE,,,,,,,OVC,300,,,,,,,LIFR,-0.1,7.8,6.7,,,0.01,,,,,,SPECI,147.0
KPWG 271756Z AUTO 17009KT 10SM SCT034 BKN041 OVC065 23/19 A3000 RMK AO2 SLP165 T02330189 10244 20206 51008,KPWG,2018-03-27T17:56:00Z,31.47,-97.32,23.3,18.9,170,9,,10.0,30.0,1016.5,,TRUE,TRUE,,,,,,,SCT,3400,BKN,4100,OVC,6500,,,VFR,0.8,24.4,20.6,,,,,,,,,SPECI,180.0
KPVU 271756Z 24005KT 10SM FEW050 04/M04 A3027 RMK AO2 SLP260 T00441044 10044 21044 50001,KPVU,2018-03-27T17:56:00Z,40.22,-111.72,4.4,-4.4,240,5,,10.0,30.268702,1026.0,,,TRUE,,,,,,,FEW,5000,,,,,,,VFR,0.1,4.4,-4.4,,,,,,,,,SPECI,1369.0
KPVG 271756Z AUTO VRB05KT 10SM OVC060 A3046 RMK AO2 SLPNO 6//// 56030 FZRANO PNO $,KPVG,2018-03-27T17:56:00Z,36.78,-76.45,,,0,5,,10.0,30.46063,,,TRUE,TRUE,TRUE,,,TRUE,,,OVC,6000,,,,,,,VFR,-3.0,,,,,,,,,,,METAR,7.0
KPVC 271756Z AUTO 03010KT 10SM CLR 06/M01 A3045 RMK AO2 SLP309 T00561006 10056 20033 58032,KPVC,2018-03-27T17:56:00Z,42.07,-70.22,5.6,-0.6,30,10,,10.0,30.448818,1030.9,,TRUE,TRUE,,,,,,,CLR,,,,,,,,VFR,-3.2,5.6,3.3,,,,,,,,,METAR,2.0
KPTV 271756Z AUTO VRB03KT 10SM CLR 17/04 A3026 RMK AO2 SLP263 T01670044 10167 20033 53004,KPTV,2018-03-27T17:56:00Z,36.02,-119.07,16.7,4.4,0,3,,10.0,30.259842,1026.3,,TRUE,TRUE,,,,,,,CLR,,,,,,,,VFR,0.4,16.7,3.3,,,,,,,,,SPECI,135.0
KPTN 271756Z AUTO 13013G18KT 10SM BKN025 BKN033 26/20 A3013 RMK AO2 SLP205 T02610200 10261 20211 50002,KPTN,2018-03-27T17:56:00Z,29.72,-91.32,26.1,20.0,130,13,18,10.0,30.129921,1020.5,,TRUE,TRUE,,,,,,,BKN,2500,BKN,3300,,,,,MVFR,0.2,26.1,21.1,,,,,,,,,METAR,3.0
KPQI 271756Z AUTO 17004KT 10SM CLR 05/M11 A3049 RMK AO2 SLP368 60000 T00501111 10056 21133 56042,KPQI,2018-03-27T17:56:00Z,46.67,-68.03,5.0,-11.1,170,4,,10.0,30.490158,1036.8,,TRUE,TRUE,,,,,,,CLR,,,,,,,,VFR,-4.2,5.6,-13.3,,,,,0.005,,,,METAR,146.0
KPIB 271756Z AUTO 12008KT 10SM OVC012 17/14 A3024 RMK AO2 SLP239 T01720139 10172 20144 58005,KPIB,2018-03-27T17:56:00Z,31.47,-89.32,17.2,13.9,120,8,,10.0,30.239174,1023.9,,TRUE,TRUE,,,,,,,OVC,1200,,,,,,,MVFR,-0.5,17.2,14.4,,,,,,,,,METAR,91.0
KUDG 271756Z AUTO 02006KT 10SM OVC022 08/04 A3044 RMK AO2 RAE01 SLP315 P0000 60000 T00830039 10089 20056 56017,KUDG,2018-03-27T17:56:00Z,34.45,-79.88,8.3,3.9,20,6,,10.0,30.43996,1031.5,,TRUE,TRUE,,,,,,,OVC,2200,,,,,,,MVFR,-1.7,8.9,5.6,,,0.005,,0.005,,,,METAR,59.0
KVBT 271756Z AUTO 01011KT 10SM -RA OVC004 13/12 A3004 RMK AO2 SLP171 P0004 60191 T01280122 10150 20128 50000,KVBT,2018-03-27T17:56:00Z,36.35,-94.22,12.8,12.2,10,11,,10.0,30.041338,1017.1,,TRUE,TRUE,,,,,,-RA,OVC,400,,,,,,,LIFR,0.0,15.0,12.8,,,0.04,,1.91,,,,METAR,395.0
KYKN 271756Z AUTO 27008KT 10SM CLR 10/00 A3013 RMK AO2 SLP222 T01000000 10100 20000 58007,KYKN,2018-03-27T17:56:00Z,42.92,-97.37,10.0,0.0,270,8,,10.0,30.129921,1022.2,,TRUE,TRUE,,,,,,,CLR,,,,,,,,VFR,-0.7,10.0,0.0,,,,,,,,,METAR,398.0
KY50 271756Z AUTO 29010KT 10SM OVC017 05/02 A2998 RMK AO2 SLP180 6//// T00500017 10056 20033 50011 $,KY50,2018-03-27T17:56:00Z,44.03,-89.3,5.0,1.7,290,10,,10.0,29.97933,1018.0,,TRUE,TRUE,TRUE,,,,,,OVC,1700,,,,,,,MVFR,1.1,5.6,3.3,,,,,,,,,METAR,262.0
KWVL 271756Z AUTO 05007KT 10SM CLR 07/M13 A3040 RMK AO2 PRESFR SLP327 T00671133 10067 21044 58043 TSNO,KWVL,2018-03-27T17:56:00Z,44.52,-69.67,6.7,-13.3,50,7,,10.0,30.398623,1032.7,,TRUE,TRUE,,,TRUE,,,,CLR,,,,,,,,VFR,-4.3,6.7,-4.4,,,,,,,,,METAR,101.0
KVIS 271756Z AUTO 18006KT 10SM CLR 14/04 A3026 RMK AO2 SLP257 P0001 60001 T01440044 10144 20050 51006,KVIS,2018-03-27T17:56:00Z,36.32,-119.4,14.4,4.4,180,6,,10.0,30.259842,1025.7,,TRUE,TRUE,,,,,,,CLR,,,,,,,,VFR,0.6,14.4,5.0,,,0.01,,,,,,SPECI,89.0
PACM 271756Z AUTO 07009KT 9SM -SN FEW013 BKN032 OVC050 M04/M07 A2954 RMK AO2 UPB05E39SNE00B09E19B39 SLP000 P0000 60000 T10441067 11044 21050 53016 FZRANO,PACM,2018-03-27T17:56:00Z,61.85,-165.57,-4.4,-6.7,70,9,,9.0,29.53937,1000.0,,TRUE,TRUE,,,,TRUE,,-SN,FEW,1300,BKN,3200,OVC,5000,,,VFR,1.6,-4.4,-5.0,,,0.005,,0.005,,,,METAR,4.0
PABV 271756Z AUTO 00000KT 10SM FEW100 M04/M12 A2983 RMK AO2 SLP108 T10441117 11044 21089 51027 FZRANO $,PABV,2018-03-27T17:56:00Z,61.42,-149.52,-4.4,-11.7,0,0,,10.0,29.828741,1010.8,,TRUE,TRUE,TRUE,,,TRUE,,,FEW,10000,,,,,,,VFR,2.7,-4.4,-8.9,,,,,,,,,METAR,29.0
PAAK 271756Z AUTO 24003KT 10SM FEW055 M01/M03 A3002 RMK AO2 SLP168 60000 T10061028 10011 21011 52015 FZRANO,PAAK,2018-03-27T17:56:00Z,52.22,-174.2,-0.6,-2.8,240,3,,10.0,30.02067,1016.8,,TRUE,TRUE,,,,TRUE,,,FEW,5500,,,,,,,VFR,1.5,1.1,-1.1,,,,,0.005,,,,METAR,17.0
PAFE 271756Z AUTO 11005KT 10SM FEW020 BKN035 OVC090 04/02 A2997 RMK AO2 RAB10E21 SLP162 P0000 60000 T00390017 10039 21006 53031,PAFE,2018-03-27T17:56:00Z,56.97,-133.92,3.9,1.7,110,5,,10.0,29.970472,1016.2,,TRUE,TRUE,,,,,,,FEW,2000,BKN,3500,OVC,9000,,,VFR,3.1,3.9,-0.6,,,0.005,,0.005,,,,METAR,9.0
PADK 271756Z AUTO 20006KT 10SM OVC070 M02/M03 A2999 RMK AO2 SLP156 60000 T10171033 10000 21028 53007 FZRANO,PADK,2018-03-27T17:56:00Z,51.88,-176.65,-1.7,-3.3,200,6,,10.0,29.991142,1015.6,,TRUE,TRUE,,,,TRUE,,,OVC,7000,,,,,,,VFR,0.7,0.0,-2.8,,,,,0.005,,,,METAR,4.0
PAKP 271756Z AUTO 21012KT 10SM CLR M17/M25 A2972 RMK AO2 SLP137 T11671250 11167 21194 51007 FZRANO,PAKP,2018-03-27T17:56:00Z,68.13,-151.73,-16.7,-25.0,210,12,,10.0,29.719488,1013.7,,TRUE,TRUE,,,,TRUE,,,CLR,,,,,,,,VFR,0.7,-16.7,-19.4,,,,,,,,,METAR,642.0
PAKK 271756Z AUTO 04005KT 10SM CLR M08/M18 A2961 RMK AO2 SLP043 T10781178 11078 21100 53010 FZRANO,PAKK,2018-03-27T17:56:00Z,64.93,-161.15,-7.8,-17.8,40,5,,10.0,29.610237,1004.3,,TRUE,TRUE,,,,TRUE,,,CLR,,,,,,,,VFR,1.0,-7.8,-10.0,,,,,,,,,METAR,47.0
PHNY 271756Z AUTO 29004KT 10SM OVC046 20/18 A2997 RMK AO2 SLP133 60000 T02000178 10200 20183 53016,PHNY,2018-03-27T17:56:00Z,20.77,-156.93,20.0,17.8,290,4,,10.0,29.970472,1013.3,,TRUE,TRUE,,,,,,,OVC,4600,,,,,,,VFR,1.6,20.0,18.3,,,,,,,,,SPECI,399.0
PMDY 271756Z AUTO 22009KT 10SM OVC050 21/16 A2988 RMK AO2 SLP118 T02060156 10206 20189 53003,PMDY,2018-03-27T17:56:00Z,28.22,-177.37,20.6,15.6,220,9,,10.0,29.878937,1011.8,,TRUE,TRUE,,,,,,,OVC,5000,,,,,,,VFR,0.3,20.6,18.9,,,,,,,,,SPECI,4.0
KBIX 271756Z AUTO 09008KT 10SM OVC010 20/17 A3021 RMK AO2 CIG 009 RWY03 SLPNO T01980170 10198 20174 50004,KBIX,2018-03-27T17:56:00Z,30.42,-88.92,19.8,17.0,90,8,,10.0,30.209646,,,TRUE,TRUE,,,,,,,OVC,1000,,,,,,,MVFR,0.4,19.8,17.4,,,,,,,,,SPECI,10.0
KHST 271756Z AUTO 07020G25KT 10SM FEW042 SCT200 24/14 A3021 RMK AO2 PK WND 08027/08 SLP233 60000 T02410136 10245 20217 58010,KHST,2018-03-27T17:56:00Z,25.47,-80.37,24.1,13.6,70,20,25,10.0,30.209646,1023.3,,TRUE,TRUE,,,,,,,FEW,4200,SCT,20000,,,,,VFR,-1.0,24.5,21.7,,,,,,,,,SPECI,2.0
KLRF 271756Z AUTO 17012G17KT 10SM SCT029 BKN190 24/18 A3001 RMK AO2 RAB07E16 SLP163 P0000 60000 T02350177 10235 20199 58006,KLRF,2018-03-27T17:56:00Z,34.92,-92.15,23.5,17.7,170,12,17,10.0,30.008858,1016.3,,TRUE,TRUE,,,,,,,SCT,2900,BKN,19000,,,,,VFR,-0.6,23.5,19.9,,,0.005,,,,,,SPECI,95.0
KRDR 271756Z AUTO 27008KT 10SM CLR 07/M02 A2992 RMK AO2 SLP145 T00681019 10068 21042 58002 $,KRDR,2018-03-27T17:56:00Z,47.97,-97.4,6.8,-1.9,270,8,,10.0,29.920275,1014.5,,TRUE,TRUE,TRUE,,,,,,CLR,,,,,,,,VFR,-0.2,6.8,-4.2,,,,,,,,,SPECI,278.0
KVAD 271756Z COR 16008KT 10SM SCT023 SCT110 BKN180 BKN210 22/14 A3031 RMK AO2 SLPNO T02210137 10223 20138 57018 RVRNO $ COR 1759,KVAD,2018-03-27T17:56:00Z,30.97,-83.2,22.1,13.7,160,8,,10.0,30.31004,,TRUE,,TRUE,TRUE,,,,,,SCT,2300,SCT,11000,BKN,18000,BKN,21000,VFR,-1.8,22.3,13.8,,,,,,,,,SPECI,71.0
KSSC 271756Z AUTO 34003KT 10SM OVC016 10/04 A3041 RMK AO2 DZB32E41 SLP300 P0000 60000 T00950037 10097 20063 57021,KSSC,2018-03-27T17:56:00Z,33.97,-80.47,9.5,3.7,340,3,,10.0,30.410433,1030.0,,TRUE,TRUE,,,,,,,OVC,1600,,,,,,,MVFR,-2.1,9.7,6.3,,,0.005,,,,,,SPECI,74.0
KXNO 271756Z AUTO 04004KT 10SM OVC017 12/06 M RMK AO2 SLPNO T01170056 10117 20086 $,KXNO,2018-03-27T17:56:00Z,33.62,-81.07,11.7,5.6,40,4,,10.0,,,,TRUE,TRUE,TRUE,,,,,,OVC,1700,,,,,,,MVFR,,11.7,8.6,,,,,,,,,METAR,98.0
KWRI 271756Z AUTO 00000KT 10SM FEW140 OVC180 08/M04 A3044 RMK AO2 SLP309 T00761045 10076 21010 57031 $,KWRI,2018-03-27T17:56:00Z,40.02,-74.58,7.6,-4.5,0,0,,10.0,30.43996,1030.9,,TRUE,TRUE,TRUE,,,,,,FEW,14000,OVC,18000,,,,,VFR,-3.1,7.6,-1.0,,,,,,,,,SPECI,41.0
PARS 271756Z AUTO 00000KT 10SM BKN047 OVC055 M04/M09 A2955 RMK AO2 SLP012 60000 T10441089 11044 21072 51011 FZRANO $,PARS,2018-03-27T17:56:00Z,61.77,-161.32,-4.4,-8.9,0,0,,10.0,29.551182,1001.2,,TRUE,TRUE,TRUE,,,TRUE,,,BKN,4700,OVC,5500,,,,,VFR,1.1,-4.4,-7.2,,,,,0.005,,,,METAR,16.0
PARY 271756Z AUTO 07013G17KT 10SM BKN055 M12/M21 A2973 RMK AO2 SLP095 T11221211 11122 21150 53013 FZRANO,PARY,2018-03-27T17:56:00Z,64.73,-155.47,-12.2,-21.1,70,13,17,10.0,29.731298,1009.5,,TRUE,TRUE,,,,TRUE,,,BKN,5500,,,,,,,VFR,1.3,-12.2,-15.0,,,,,,,,,METAR,199.0
PASD 271756Z 27011KT 10SM SCT035 BKN050 03/M03 A2989 RMK AO2 SLP123 T00331028 10033 20028 53030,PASD,2018-03-27T17:56:00Z,55.33,-160.5,3.3,-2.8,270,11,,10.0,29.890747,1012.3,,,TRUE,,,,,,,SCT,3500,BKN,5000,,,,,VFR,3.0,3.3,2.8,,,,,,,,,METAR,7.0
PASK 271756Z AUTO 06012KT 10SM CLR M17/M22 A2978 RMK AO2 SLP082 T11721217 11172 21206 52009 FZRANO $,PASK,2018-03-27T17:56:00Z,66.6,-160.0,-17.2,-21.7,60,12,,10.0,29.778543,1008.2,,TRUE,TRUE,TRUE,,,TRUE,,,CLR,,,,,,,,VFR,0.9,-17.2,-20.6,,,,,,,,,METAR,8.0
PASX 271756Z AUTO 09005KT 10SM BKN047 OVC110 M03/M09 A2983 RMK AO2 SLP110 T10281094 11028 21094 51024 FZRANO,PASX,2018-03-27T17:56:00Z,60.48,-151.03,-2.8,-9.4,90,5,,10.0,29.828741,1011.0,,TRUE,TRUE,,,,TRUE,,,BKN,4700,OVC,11000,,,,,VFR,2.4,-2.8,-9.4,,,,,,,,,METAR,32.0
PATE 271756Z AUTO 13005KT 10SM CLR M09/M13 A2960 RMK AO2 SLP032 T10891128 11067 21094 53011 FZRANO,PATE,2018-03-27T17:56:00Z,65.23,-166.33,-8.9,-12.8,130,5,,10.0,29.601377,1003.2,,TRUE,TRUE,,,,TRUE,,,CLR,,,,,,,,VFR,1.1,-6.7,-9.4,,,,,,,,,METAR,90.0
PAUN 271756Z AUTO 06018KT 10SM CLR M08/M16 A2965 RMK AO2 SLP046 T10781161 11078 21083 53013 FZRANO,PAUN,2018-03-27T17:56:00Z,63.88,-160.8,-7.8,-16.1,60,18,,10.0,29.648623,1004.6,,TRUE,TRUE,,,,TRUE,,,CLR,,,,,,,,VFR,1.3,-7.8,-8.3,,,,,,,,,METAR,6.0
PAVD 271756Z 07003KT 10SM SCT100 BKN150 BKN250 M02/M12 A2981 RMK AO2 SLP118 1751Z WEA: NONE TWR WND 04005KT T10171122 11017 21039 52032 $,PAVD,2018-03-27T17:56:00Z,61.13,-146.25,-1.7,-12.2,70,3,,10.0,29.811024,1011.8,,,TRUE,TRUE,,,,,,SCT,10000,BKN,15000,BKN,25000,,,VFR,3.2,-1.7,-3.9,,,,,,,,,METAR,37.0
PAWM 271756Z AUTO 00000KT 10SM OVC055 M09/M14 A2963 RMK AO2 SLP038 T10891144 11072 21111 53012 FZRANO,PAWM,2018-03-27T17:56:00Z,64.68,-163.42,-8.9,-14.4,0,0,,10.0,29.630905,1003.8,,TRUE,TRUE,,,,TRUE,,,OVC,5500,,,,,,,VFR,1.2,-7.2,-11.1,,,,,,,,,METAR,82.0
PFKT 271756Z AUTO 12010KT 10SM OVC060 M08/M12 A2964 RMK AO2 SLP036 T10831122 11072 21083 53011 FZRANO,PFKT,2018-03-27T17:56:00Z,65.33,-166.47,-8.3,-12.2,120,10,,10.0,29.639763,1003.6,,TRUE,TRUE,,,,TRUE,,,OVC,6000,,,,,,,VFR,1.1,-7.2,-8.3,,,,,,,,,METAR,9.0
KNFL 271756Z VRB03KT 10SM SCT180 SCT200 08/M07 A3038 RMK AO2 SLP245 T00831067 10089 21056 50002,KNFL,2018-03-27T17:56:00Z,39.42,-118.7,8.3,-6.7,0,3,,10.0,30.380905,1024.5,,,TRUE,,,,,,,SCT,18000,SCT,20000,,,,,VFR,0.2,8.9,-5.6,,,,,,,,,METAR,1199.0
PFYU 271756Z 05007KT 10SM CLR M17/M25 A2990 RMK AO2 SLP154 SKC 6//// T11671250 11161 21228 $,PFYU,2018-03-27T17:56:00Z,66.57,-145.27,-16.7,-25.0,50,7,,10.0,29.899607,1015.4,,,TRUE,TRUE,,,,,,CLR,,,,,,,,VFR,,-16.1,-22.8,,,,,,,,,METAR,131.0
PPIZ 271756Z AUTO 14008KT 10SM CLR M21/M23 A2977 RMK AO2 SLP086 60000 T12061228 11189 21256 53015 FZRANO TSNO,PPIZ,2018-03-27T17:56:00Z,69.73,-163.0,-20.6,-22.8,140,8,,10.0,29.769686,1008.6,,TRUE,TRUE,,,TRUE,TRUE,,,CLR,,,,,,,,VFR,1.5,-18.9,-25.6,,,,,,,,,SPECI,8.0
PAKF 271756Z AUTO 27009G15KT 10SM UP OVC040 02/M04 A2991 RMK AO2 UPB09 SLP127 P0000 60000 T00221044 10033 20022 53030 FZRANO,PAKF,2018-03-27T17:56:00Z,54.85,-163.42,2.2,-4.4,270,9,15,10.0,29.911417,1012.7,,TRUE,TRUE,,,,TRUE,,UP,OVC,4000,,,,,,,VFR,3.0,3.3,2.2,,,0.005,,0.005,,,,METAR,6.0
PAMB 271756Z AUTO 20016KT 6SM UP BR OVC006 01/00 A2962 RMK AO2 RAE52UPB52 CIG 005V010 SLP038 P0000 60000 T00060000 10006 20000 53015 FZRANO $,PAMB,2018-03-27T17:56:00Z,58.98,-159.05,0.6,0.0,200,16,,6.0,29.619095,1003.8,,TRUE,TRUE,TRUE,,,TRUE,,BR UP,OVC,600,,,,,,,IFR,1.5,0.6,0.0,,,0.005,,0.005,,,,METAR,16.0
PAMH 271756Z 00000KT 10SM CLR M16/M22 A2976 RMK AO2 SLP293 11140 21220 52020 PWINO FZRANO RVRNO,PAMH,2018-03-27T17:56:00Z,63.9,-152.32,-16.0,-22.0,0,0,,10.0,29.760826,1029.3,,,TRUE,,,,TRUE,TRUE,,CLR,,,,,,,,VFR,2.0,-14.0,-22.0,,,,,,,,,METAR,214.0
PAMK 271756Z AUTO 09009KT 10SM FEW037 SCT100 M06/M10 A2959 RMK AO2 SLP023 T10561100 11056 21094 53009 FZRANO $,PAMK,2018-03-27T17:56:00Z,63.48,-162.12,-5.6,-10.0,90,9,,10.0,29.589567,1002.3,,TRUE,TRUE,TRUE,,,TRUE,,,FEW,3700,SCT,10000,,,,,VFR,0.9,-5.6,-9.4,,,,,,,,,METAR,28.0
PAOO 271756Z AUTO 02003KT 3SM -SN BR BKN014 OVC042 M01/M01 A2947 RMK AO2 SLP989 P0000 6//// T10061011 10000 21006 53020 FZRANO,PAOO,2018-03-27T17:56:00Z,60.53,-165.12,-0.6,-1.1,20,3,,3.0,29.471457,998.9,,TRUE,TRUE,,,,TRUE,,-SN BR,BKN,1400,OVC,4200,,,,,MVFR,2.0,0.0,-0.6,,,0.005,,,,,,METAR,18.0
PAOU 271756Z AUTO 10SM FEW019 SCT055 01/M01 A2983 RMK AO2 SLP101 60000 T00111006 10017 20011 53033 FZRANO $,PAOU,2018-03-27T17:56:00Z,56.0,-161.17,1.1,-0.6,,,,10.0,29.828741,1010.1,,TRUE,TRUE,TRUE,,,TRUE,,,FEW,1900,SCT,5500,,,,,VFR,3.3,1.7,1.1,,,,,0.005,,,,METAR,4.0
PAPO 271756Z AUTO 13008KT 10SM CLR M15/M18 A2975 RMK AO2 SLP073 T11501183 11144 21172 53010 FZRANO,PAPO,2018-03-27T17:56:00Z,68.35,-166.8,-15.0,-18.3,130,8,,10.0,29.749016,1007.3,,TRUE,TRUE,,,,TRUE,,,CLR,,,,,,,,VFR,1.0,-14.4,-17.2,,,,,,,,,METAR,6.0
PARC 271756Z AUTO 33003KT 10SM CLR M22/M27 A2981 RMK AO2 SLP183 T12221272 11222 21306 53008 FZRANO,PARC,2018-03-27T17:56:00Z,68.12,-145.58,-22.2,-27.2,330,3,,10.0,29.811024,1018.3,,TRUE,TRUE,,,,TRUE,,,CLR,,,,,,,,VFR,0.8,-22.2,-30.6,,,,,,,,,METAR,636.0
KABH 271756Z AUTO 10004KT A3016 RMK AO2 SLPNO 58003 $,KABH,2018-03-27T17:56:00Z,38.75,-104.3,,,100,4,,,30.159449,,,TRUE,TRUE,TRUE,,,,,,,,,,,,,,,-0.3,,,,,,,,,,,METAR,1840.0
PABL 271756Z AUTO 17012KT 10SM CLR M15/M21 A2972 RMK AO2 SLP067 T11501206 11122 21161 51008 FZRANO,PABL,2018-03-27T17:56:00Z,65.98,-161.15,-15.0,-20.6,170,12,,10.0,29.719488,1006.7,,TRUE,TRUE,,,,TRUE,,,CLR,,,,,,,,VFR,0.8,-12.2,-16.1,,,,,,,,,METAR,7.0
PADM 271756Z AUTO 06017KT 10SM OVC038 M03/M07 A2959 RMK AO2 SLP029 T10281067 11022 21028 53010 FZRANO,PADM,2018-03-27T17:56:00Z,61.87,-162.03,-2.8,-6.7,60,17,,10.0,29.589567,1002.9,,TRUE,TRUE,,,,TRUE,,,OVC,3800,,,,,,,VFR,1.0,-2.2,-2.8,,,,,,,,,METAR,31.0
PADU 271756Z 21007KT 10SM BKN043 OVC050 02/M03 A2996 RMK AO2 SLP151 VCSH NW MH T00221028 10028 20017 53023,PADU,2018-03-27T17:56:00Z,53.9,-166.53,2.2,-2.8,210,7,,10.0,29.958662,1015.1,,,TRUE,,,,,,,BKN,4300,OVC,5000,,,,,VFR,2.3,2.8,1.7,,,,,,,,,METAR,4.0
PAGA 271756Z AUTO 00000KT 7SM FEW055 M16/M21 A2975 RMK AO2 SLP080 T11561206 11128 21233 53012 FZRANO,PAGA,2018-03-27T17:56:00Z,64.73,-156.93,-15.6,-20.6,0,0,,7.0,29.749016,1008.0,,TRUE,TRUE,,,,TRUE,,,FEW,5500,,,,,,,VFR,1.2,-12.8,-23.3,,,,,,,,,SPECI,46.0
PAHL 271756Z AUTO 07010G15KT 10SM CLR M11/M20 A2977 RMK AO2 SLP092 T11061200 11106 21161 53009 FZRANO,PAHL,2018-03-27T17:56:00Z,65.7,-156.35,-10.6,-20.0,70,10,15,10.0,29.769686,1009.2,,TRUE,TRUE,,,,TRUE,,,CLR,,,,,,,,VFR,0.9,-10.6,-16.1,,,,,,,,,METAR,65.0
PAHY 271756Z AUTO 10SM SCT028 BKN033 OVC060 04/02 A3007 RMK AO2 RAE49 SLP284 P0000 60000 T00390022 10056 20033 52036 $,PAHY,2018-03-27T17:56:00Z,55.2,-132.83,3.9,2.2,,,,10.0,30.070866,1028.4,,TRUE,TRUE,TRUE,,,,,,SCT,2800,BKN,3300,OVC,6000,,,VFR,3.6,5.6,3.3,,,0.005,,0.005,,,,METAR,1.0
PAIG 271756Z AUTO 13009KT 8SM -SN FEW021 OVC033 01/00 A2974 RMK AO2 SLP081 P0000 60000 T00060000 10006 20000 53018 FZRANO $,PAIG,2018-03-27T17:56:00Z,59.32,-155.9,0.6,0.0,130,9,,8.0,29.740158,1008.1,,TRUE,TRUE,TRUE,,,TRUE,,-SN,FEW,2100,OVC,3300,,,,,VFR,1.8,0.6,0.0,,,0.005,,0.005,,,,METAR,28.0
PAIK 271756Z AUTO VRB04KT 10SM CLR M09/M20 A2979 RMK AO2 SLP095 T10941200 11094 21167 52010 FZRANO,PAIK,2018-03-27T17:56:00Z,66.98,-160.43,-9.4,-20.0,0,4,,10.0,29.790354,1009.5,,TRUE,TRUE,,,,TRUE,,,CLR,,,,,,,,VFR,1.0,-9.4,-16.7,,,,,,,,,METAR,51.0
PAIN 271756Z AUTO 00000KT 10SM CLR M18/M24 A2975 RMK AO2 SLP128 T11781244 11178 21256 51021 FZRANO,PAIN,2018-03-27T17:56:00Z,63.73,-148.92,-17.8,-24.4,0,0,,10.0,29.749016,1012.8,,TRUE,TRUE,,,,TRUE,,,CLR,,,,,,,,VFR,2.1,-17.8,-25.6,,,,,,,,,METAR,524.0
PAIW 271756Z AUTO 05007KT 10SM OVC060 M08/M09 A2965 RMK AO2 SNE06B32E50 SLP043 P0000 60000 T10831089 11083 21083 53005 FZRANO,PAIW,2018-03-27T17:56:00Z,65.62,-168.1,-8.3,-8.9,50,7,,10.0,29.648623,1004.3,,TRUE,TRUE,,,,TRUE,,,OVC,6000,,,,,,,VFR,0.5,-8.3,-8.3,,,0.005,,0.005,,,,METAR,7.0
PAJZ 271756Z AUTO 17018KT 5SM BR OVC008 01/M01 A2970 RMK AO2 RAB08E10B28E37SNB10E28 SLP067 P0000 60000 T00061006 10006 20000 53014 FZRANO $,PAJZ,2018-03-27T17:56:00Z,59.73,-157.27,0.6,-0.6,170,18,,5.0,29.698818,1006.7,,TRUE,TRUE,TRUE,,,TRUE,,BR,OVC,800,,,,,,,IFR,1.4,0.6,0.0,,,0.005,,0.005,,,,METAR,82.0
KNRS 271756Z 29005KT 10SM CLR 16/05 A3014 RMK AO2 SLP205 T01610050 10167 20061 51004 PNO $,KNRS,2018-03-27T17:56:00Z,32.57,-117.12,16.1,5.0,290,5,,10.0,30.138779,1020.5,,,TRUE,TRUE,,,,,,CLR,,,,,,,,VFR,0.4,16.7,6.1,,,,,,,,,SPECI,7.0
KALK 271756Z AUTO 22005KT 10SM BKN070 11/M08 A3003 RMK AO2 SLP116 6//// T01111083 10133 20000 50004,KALK,2018-03-27T17:56:00Z,31.6,-110.43,11.1,-8.3,220,5,,10.0,30.029528,1011.6,,TRUE,TRUE,,,,,,,BKN,7000,,,,,,,VFR,0.4,13.3,0.0,,,,,,,,,SPECI,1453.0
PHBK 271756Z AUTO 08004KT 10SM CLR 20/18 A2990 RMK AO2 SLP126 T02000183 10200 20167 53016,PHBK,2018-03-27T17:56:00Z,22.03,-159.78,20.0,18.3,80,4,,10.0,29.899607,1012.6,,TRUE,TRUE,,,,,,,CLR,,,,,,,,VFR,1.6,20.0,16.7,,,,,,,,,SPECI,8.0
KNTU 271756Z 05005KT 10SM FEW030 SCT070 BKN130 OVC200 07/02 A3046 RMK AO2 SLP317 T00720022 10089 20044 56026,KNTU,2018-03-27T17:56:00Z,36.82,-76.02,7.2,2.2,50,5,,10.0,30.46063,1031.7,,,TRUE,,,,,,,FEW,3000,SCT,7000,BKN,13000,OVC,20000,VFR,-2.6,8.9,4.4,,,,,,,,,METAR,7.0
KNYG 271756Z 17009KT 10SM OVC070 07/02 A3047 RMK AO2 RAB19E35 SLP319 P0000 60000 T00670017 10072 20011 58035,KNYG,2018-03-27T17:56:00Z,38.5,-77.28,6.7,1.7,170,9,,10.0,30.469488,1031.9,,,TRUE,,,,,,,OVC,7000,,,,,,,VFR,-3.5,7.2,1.1,,,0.005,,,,,,SPECI,4.0
KFRI 271756Z AUTO 36009KT 10SM BKN025 OVC160 08/02 A3015 RMK AO2 BKN V OVC SLP213 T00750020 10075 20040 50003,KFRI,2018-03-27T17:56:00Z,39.03,-96.77,7.5,2.0,360,9,,10.0,30.15059,1021.3,,TRUE,TRUE,,,,,,,BKN,2500,OVC,16000,,,,,MVFR,0.3,7.5,4.0,,,,,,,,,SPECI,325.0
KLSF 271756Z AUTO 05003KT 10SM FEW200 20/11 A3029 RMK AO2 SLP262 T02010113 10201 20107 58027,KLSF,2018-03-27T17:56:00Z,32.32,-84.97,20.1,11.3,50,3,,10.0,30.28937,1026.2,,TRUE,TRUE,,,,,,,FEW,20000,,,,,,,VFR,-2.7,20.1,10.7,,,,,,,,,SPECI,71.0
KMXF 271756Z AUTO 12006KT 10SM SCT030 OVC170 18/10 A3028 RMK AO2 SLP256 T01820100 10184 20103 57019 $,KMXF,2018-03-27T17:56:00Z,32.37,-86.37,18.2,10.0,120,6,,10.0,30.280512,1025.6,,TRUE,TRUE,TRUE,,,,,,SCT,3000,OVC,17000,,,,,VFR,-1.9,18.4,10.3,,,,,,,,,SPECI,51.0
KPOB 271756Z AUTO 11003KT 10SM BKN030 OVC047 08/02 A3044 RMK AO2 SLP312 60000 T00780018 10078 20040 57024 $,KPOB,2018-03-27T17:56:00Z,35.17,-79.02,7.8,1.8,110,3,,10.0,30.43996,1031.2,,TRUE,TRUE,TRUE,,,,,,BKN,3000,OVC,4700,,,,,MVFR,-2.4,7.8,4.0,,,,,,,,,SPECI,66.0
KSVN 271756Z AUTO 02005KT 10SM OVC017 17/11 A3036 RMK AO2 CIG 016 RWY28 SLPNO T01670114 10169 20120 57015 $,KSVN,2018-03-27T17:56:00Z,32.02,-81.15,16.7,11.4,20,5,,10.0,30.360237,,,TRUE,TRUE,TRUE,,,,,,OVC,1700,,,,,,,MVFR,-1.5,16.9,12.0,,,,,,,,,SPECI,13.0
PAEI 271756Z 00000KT 10SM CLR M16/M23 A2978 RMK AO2A SLP099 4/024 T11611233 11145 21232 52020 RVRNO $,PAEI,2018-03-27T17:56:00Z,64.67,-147.1,-16.1,-23.3,0,0,,10.0,29.778543,1009.9,,,TRUE,TRUE,,,,,,CLR,,,,,,,,VFR,2.0,-14.5,-23.2,,,,,,,24.0,,METAR,167.0
RKJK 271756Z 00000KT 6SM BR CLR 09/09 A3005 RMK AO2A SLP180 T00910091 10119 20079 53001 $,RKJK,2018-03-27T17:56:00Z,35.9,126.62,9.1,9.1,0,0,,6.0,30.050198,1018.0,,,TRUE,TRUE,,,,,BR,CLR,,,,,,,,VFR,0.1,11.9,7.9,,,,,,,,,SPECI,9.0
RKSG 271756Z 00000KT 4SM BR CLR 09/09 A3003 RMK AO2A SLP172 T00860086 10133 20086 55000 PWINO $,RKSG,2018-03-27T17:56:00Z,36.97,127.02,8.6,8.6,0,0,,4.0,30.029528,1017.2,,,TRUE,TRUE,,,,TRUE,BR,CLR,,,,,,,,MVFR,0.0,13.3,8.6,,,,,,,,,SPECI,16.0
KGNR 271756Z AUTO 13009KT 05/M13 A3039 RMK AO1 PRESFR SLP308 T00501128 10050 21044 58039,KGNR,2018-03-27T17:56:00Z,45.47,-69.55,5.0,-12.8,130,9,,,30.389763,1030.8,,TRUE,TRUE,,,,,,,,,,,,,,,,-3.9,5.0,-4.4,,,,,,,,,METAR,427.0
KP28 271756Z AUTO 02014G22KT 08/02 A3014 RMK AO1 SLP210 T00780022 10078 20056 50005,KP28,2018-03-27T17:56:00Z,37.28,-98.55,7.8,2.2,20,14,22,,30.138779,1021.0,,TRUE,TRUE,,,,,,,,,,,,,,,,0.5,7.8,5.6,,,,,,,,,SPECI,469.0
KNID 271756Z 02018G23KT 10SM CLR 18/M09 A3019 RMK AO2 PK WND 01028/1700 SLP220 6//// T01781094 10178 20083 58005 PNO $,KNID,2018-03-27T17:56:00Z,35.67,-117.67,17.8,-9.4,20,18,23,10.0,30.188976,1022.0,,,TRUE,TRUE,,,,,,CLR,,,,,,,,VFR,-0.5,17.8,8.3,,,,,,,,,METAR,696.0
KMHS 271756Z AUTO 03005KT 10SM CLR 11/M01 A3037 RMK AO2 SLP304 T01061006 10106 20011 50005,KMHS,2018-03-27T17:56:00Z,41.32,-122.32,10.6,-0.6,30,5,,10.0,30.369095,1030.4,,TRUE,TRUE,,,,,,,CLR,,,,,,,,VFR,0.5,10.6,1.1,,,,,,,,,METAR,1078.0
K79J 271756Z AUTO 12007KT 100V170 10SM BKN030 22/13 A3026 RMK AO2 SLP245 T02220128 10233 20117 56012,K79J,2018-03-27T17:56:00Z,31.32,-86.4,22.2,12.8,120,7,,10.0,30.259842,1024.5,,TRUE,TRUE,,,,,,,BKN,3000,,,,,,,MVFR,-1.2,23.3,11.7,,,,,,,,,SPECI,94.0
K8D3 271756Z AUTO 25012KT 06/00 A3002 RMK AO1 SLP179 T00560000 10056 21061 50004,K8D3,2018-03-27T17:56:00Z,45.67,-96.98,5.6,0.0,250,12,,,30.02067,1017.9,,TRUE,TRUE,,,,,,,,,,,,,,,,0.4,5.6,-6.1,,,,,,,,,SPECI,354.0
ETEB 271756Z AUTO 14005KT 9999 OVC080 06/M01 A2983 RMK AO2 SLP130 60000 T00641013 10093 20064 57016 $,ETEB,2018-03-27T17:56:00Z,49.32,10.62,6.4,-1.3,140,5,,6.21,29.828741,1013.0,,TRUE,TRUE,TRUE,,,,,,OVC,8000,,,,,,,VFR,-1.6,9.3,6.4,,,,,0.005,,,,METAR,467.0
KNCA 271756Z 01007KT 10SM OVC055 12/04 A3042 RMK AO2 SLP304 T01170044 10122 20022 56025,KNCA,2018-03-27T17:56:00Z,34.72,-77.45,11.7,4.4,10,7,,10.0,30.41929,1030.4,,,TRUE,,,,,,,OVC,5500,,,,,,,VFR,-2.5,12.2,2.2,,,,,,,,,METAR,8.0
KLHW 271756Z AUTO 10007KT 10SM OVC015 17/12 A3036 RMK AO2 SLP284 T01660115 10167 20121 57014 $,KLHW,2018-03-27T17:56:00Z,31.87,-81.57,16.6,11.5,100,7,,10.0,30.360237,1028.4,,TRUE,TRUE,TRUE,,,,,,OVC,1500,,,,,,,MVFR,-1.4,16.7,12.1,,,,,,,,,SPECI,14.0
KHFF 271756Z AUTO 09003KT 10SM OVC027 08/02 A3043 RMK AO2 SLP322 T00790016 10079 20042 58021 $,KHFF,2018-03-27T17:56:00Z,35.02,-79.5,7.9,1.6,90,3,,10.0,30.431103,1032.2,,TRUE,TRUE,TRUE,,,,,,OVC,2700,,,,,,,MVFR,-2.1,7.9,4.2,,,,,,,,,SPECI,115.0
KNFE 271756Z AUTO VRB04KT 10SM OVC070 11/02 A3045 RMK AO2 SLP314 T01110017 10122 20050 56029,KNFE,2018-03-27T17:56:00Z,36.7,-76.13,11.1,1.7,0,4,,10.0,30.448818,1031.4,,TRUE,TRUE,,,,,,,OVC,7000,,,,,,,VFR,-2.9,12.2,5.0,,,,,,,,,METAR,5.0
KMCF 271756Z AUTO 12013G17KT 10SM CLR 28/14 A3023 RMK AO2 DZB40E49 SLP240 P0000 60000 T02760135 10276 20181 57014 FZRANO $,KMCF,2018-03-27T17:56:00Z,27.85,-82.52,27.6,13.5,120,13,17,10.0,30.230314,1024.0,,TRUE,TRUE,TRUE,,,TRUE,,,CLR,,,,,,,,VFR,-1.4,27.6,18.1,,,0.005,,0.005,,,,METAR,4.0
KCOF 271756Z AUTO 09013KT 10SM CLR 24/14 A3029 RMK AO2 SLP261 T02360137 10239 20204 58012,KCOF,2018-03-27T17:56:00Z,28.23,-80.6,23.6,13.7,90,13,,10.0,30.28937,1026.1,,TRUE,TRUE,,,,,,,CLR,,,,,,,,VFR,-1.2,23.9,20.4,,,,,,,,,METAR,3.0
KBAD 271756Z AUTO 18019G27KT 10SM SCT050 BKN200 27/16 A3001 RMK AO2 PK WND 17027/32 SLP164 T02710158 10274 20200 57021,KBAD,2018-03-27T17:56:00Z,32.5,-93.67,27.1,15.8,180,19,27,10.0,30.008858,1016.4,,TRUE,TRUE,,,,,,,SCT,5000,BKN,20000,,,,,VFR,-2.1,27.4,20.0,,,,,,,,,METAR,51.0
KTTS 271756Z AUTO 12013G20KT 10SM CLR 23/12 A3030 RMK AO2 SLP265 T02320122 10232 20196 58012 $,KTTS,2018-03-27T17:56:00Z,28.62,-80.72,23.2,12.2,120,13,20,10.0,30.301182,1026.5,,TRUE,TRUE,TRUE,,,,,,CLR,,,,,,,,VFR,-1.2,23.2,19.6,,,,,,,,,SPECI,3.0
KWRB 271756Z 11005KT 10SM SCT032 BKN200 17/09 A3034 RMK AO2A SLPNO T01740093 10174 20102 57023 $,KWRB,2018-03-27T17:56:00Z,32.62,-83.58,17.4,9.3,110,5,,10.0,30.339567,,,,TRUE,TRUE,,,,,,SCT,3200,BKN,20000,,,,,VFR,-2.3,17.4,10.2,,,,,,,,,METAR,90.0
KXMR 271756Z AUTO 10011G19KT 10SM CLR 24/12 A3029 RMK AO2 SLP260 T02360122 10237 20199 58012 FZRANO $,KXMR,2018-03-27T17:56:00Z,28.47,-80.57,23.6,12.2,100,11,19,10.0,30.28937,1026.0,,TRUE,TRUE,TRUE,,,TRUE,,,CLR,,,,,,,,VFR,-1.2,23.7,19.9,,,,,,,,,SPECI,3.0
MUGM 271756Z 11018KT 9999 SCT035 BKN050 28/21 A3001 RMK SLP160 T02810211 10294 20228 58021,MUGM,2018-03-27T17:56:00Z,19.9,-75.2,28.1,21.1,110,18,,6.21,30.008858,1016.0,,,,,,,,,,SCT,3500,BKN,5000,,,,,VFR,-2.1,29.4,22.8,,,,,,,,,SPECI,17.0
K2WX 271756Z AUTO 25016KT 08/M04 A2993 RMK AO1 SLP155 T00781039 10078 21022 58008,K2WX,2018-03-27T17:56:00Z,45.6,-103.55,7.8,-3.9,250,16,,,29.929134,1015.5,,TRUE,TRUE,,,,,,,,,,,,,,,,-0.8,7.8,-2.2,,,,,,,,,METAR,915.0
KNUW 271756Z 16006KT 9SM -RA FEW012 BKN034 BKN060 OVC130 11/10 A3029 RMK AO2 SLP256 P0002 60006 T01060100 10106 20100 53012 $,KNUW,2018-03-27T17:56:00Z,48.35,-122.65,10.6,10.0,160,6,,9.0,30.28937,1025.6,,,TRUE,TRUE,,,,,-RA,FEW,1200,BKN,3400,BKN,6000,OVC,13000,VFR,1.2,10.6,10.0,,,0.02,,0.06,,,,METAR,14.0
KNDZ 271756Z 15011KT 10SM OVC024 21/16 A3026 RMK AO2 SLP233 T02060161 10206 20128 58005 $,KNDZ,2018-03-27T17:56:00Z,30.7,-87.02,20.6,16.1,150,11,,10.0,30.259842,1023.3,,,TRUE,TRUE,,,,,,OVC,2400,,,,,,,MVFR,-0.5,20.6,12.8,,,,,,,,,METAR,54.0
KHYA 271756Z 02014G25KT 10SM CLR 07/M01 A3040 RMK AO2 PK WND 36027/1755 SLP294 T00671011 10072 20039 58032,KHYA,2018-03-27T17:56:00Z,41.67,-70.27,6.7,-1.1,20,14,25,10.0,30.398623,1029.4,,,TRUE,,,,,,,CLR,,,,,,,,VFR,-3.2,7.2,3.9,,,,,,,,,SPECI,22.0
KIGX 271756Z AUTO 10004KT 10SM OVC036 07/02 A3046 RMK AO2 SLP314 60000 T00670017 10072 20028 58020,KIGX,2018-03-27T17:56:00Z,35.93,-79.07,6.7,1.7,100,4,,10.0,30.46063,1031.4,,TRUE,TRUE,,,,,,,OVC,3600,,,,,,,VFR,-2.0,7.2,2.8,,,,,,,,,SPECI,155.0
KINW 271756Z AUTO 10SM FEW085 11/M10 A3006 RMK AO2 SLP161 T01061100 10106 20022 50006,KINW,2018-03-27T17:56:00Z,35.03,-110.72,10.6,-10.0,,,,10.0,30.059055,1016.1,,TRUE,TRUE,,,,,,,FEW,8500,,,,,,,VFR,0.6,10.6,2.2,,,,,,,,,SPECI,1490.0
KISP 271756Z 17006KT 10SM OVC230 07/M04 A3046 RMK AO2 SLP313 T00721039 10078 20011 58028,KISP,2018-03-27T17:56:00Z,40.8,-73.1,7.2,-3.9,170,6,,10.0,30.46063,1031.3,,,TRUE,,,,,,,OVC,23000,,,,,,,VFR,-2.8,7.8,1.1,,,,,,,,,SPECI,43.0
KJAX 271756Z 14012G18KT 10SM BKN040 BKN200 22/13 A3032 RMK AO2 SLP267 T02220133 10228 20144 58014,KJAX,2018-03-27T17:56:00Z,30.5,-81.68,22.2,13.3,140,12,18,10.0,30.318897,1026.7,,,TRUE,,,,,,,BKN,4000,BKN,20000,,,,,VFR,-1.4,22.8,14.4,,,,,,,,,SPECI,10.0
KJMS 271756Z AUTO 27010KT 10SM CLR 06/M01 A2996 RMK AO2 SLP159 T00611006 10061 21022 58004,KJMS,2018-03-27T17:56:00Z,46.93,-98.67,6.1,-0.6,270,10,,10.0,29.958662,1015.9,,TRUE,TRUE,,,,,,,CLR,,,,,,,,VFR,-0.4,6.1,-2.2,,,,,,,,,SPECI,455.0
KJXN 271756Z 21013KT 10SM OVC007 11/10 A2994 RMK AO2 RAB18E42 SLP142 P0000 60012 T01060100 10106 20061 56007,KJXN,2018-03-27T17:56:00Z,42.27,-84.47,10.6,10.0,210,13,,10.0,29.940945,1014.2,,,TRUE,,,,,,,OVC,700,,,,,,,IFR,-0.7,10.6,6.1,,,0.005,,,,,,SPECI,305.0
KLAS 271756Z 33015G21KT 10SM CLR 15/M09 A3018 RMK AO2 PK WND 33026/1719 SLP214 T01501094 10150 20106 51002,KLAS,2018-03-27T17:56:00Z,36.07,-115.17,15.0,-9.4,330,15,21,10.0,30.180119,1021.4,,,TRUE,,,,,,,CLR,,,,,,,,VFR,0.2,15.0,10.6,,,,,,,,,SPECI,636.0
KLNR 271756Z AUTO 30010KT 10SM OVC021 07/02 A3002 RMK AO2 SLP165 T00670022 10067 20033 56007,KLNR,2018-03-27T17:56:00Z,43.22,-90.18,6.7,2.2,300,10,,10.0,30.02067,1016.5,,TRUE,TRUE,,,,,,,OVC,2100,,,,,,,MVFR,-0.7,6.7,3.3,,,,,,,,,SPECI,217.0
KLWS 271756Z 00000KT 10SM OVC070 09/04 A3021 RMK AO2 SLP235 T00890044 10089 20044 58011,KLWS,2018-03-27T17:56:00Z,46.37,-117.02,8.9,4.4,0,0,,10.0,30.209646,1023.5,,,TRUE,,,,,,,OVC,7000,,,,,,,VFR,-1.1,8.9,4.4,,,,,,,,,SPECI,438.0
KMOB 271756Z 11009G16KT 7SM OVC014 21/16 A3024 RMK AO2 SLP238 T02060161 10211 20139 58002 $,KMOB,2018-03-27T17:56:00Z,30.68,-88.25,20.6,16.1,110,9,16,7.0,30.239174,1023.8,,,TRUE,TRUE,,,,,,OVC,1400,,,,,,,MVFR,-0.2,21.1,13.9,,,,,,,,,SPECI,63.0
KMDT 271756Z 18005KT 10SM -RA FEW065 OVC090 06/M02 A3042 RMK AO2 RAB52 SLP305 P0000 60000 T00611022 10072 20006 58035,KMDT,2018-03-27T17:56:00Z,40.2,-76.77,6.1,-2.2,180,5,,10.0,30.41929,1030.5,,,TRUE,,,,,,-RA,FEW,6500,OVC,9000,,,,,VFR,-3.5,7.2,0.6,,,0.005,,,,,,SPECI,95.0
KNUQ 271756Z AUTO VRB04KT 10SM CLR 18/04 A3026 RMK AO2 SLP249 T01780044 10178 20072 50005,KNUQ,2018-03-27T17:56:00Z,37.4,-122.05,17.8,4.4,0,4,,10.0,30.259842,1024.9,,TRUE,TRUE,,,,,,,CLR,,,,,,,,VFR,0.5,17.8,7.2,,,,,,,,,METAR,12.0
KOFK 271756Z AUTO 36010KT 10SM CLR 09/M01 A3013 RMK AO2 SLP211 T00891011 10089 20006 56005,KOFK,2018-03-27T17:56:00Z,41.98,-97.43,8.9,-1.1,360,10,,10.0,30.129921,1021.1,,TRUE,TRUE,,,,,,,CLR,,,,,,,,VFR,-0.5,8.9,0.6,,,,,,,,,SPECI,470.0
KRDM 271756Z VRB03KT 10SM CLR 09/00 A3036 RMK AO2 SLP293 T00890000 10094 21033 58001,KRDM,2018-03-27T17:56:00Z,44.25,-121.15,8.9,0.0,0,3,,10.0,30.360237,1029.3,,,TRUE,,,,,,,CLR,,,,,,,,VFR,-0.1,9.4,-3.3,,,,,,,,,SPECI,938.0
KAND 271756Z AUTO 07004KT 10SM OVC020 10/05 A3041 RMK AO2 SLP296 60000 T01000050 10100 20078 56022,KAND,2018-03-27T17:56:00Z,34.5,-82.72,10.0,5.0,70,4,,10.0,30.410433,1029.6,,TRUE,TRUE,,,,,,,OVC,2000,,,,,,,MVFR,-2.2,10.0,7.8,,,,,,,,,SPECI,239.0
KART 271756Z AUTO 17010G16KT 10SM OVC110 07/M08 A3023 RMK AO2 SLP239 T00721083 10072 20044 56037,KART,2018-03-27T17:56:00Z,43.98,-76.03,7.2,-8.3,170,10,16,10.0,30.230314,1023.9,,TRUE,TRUE,,,,,,,OVC,11000,,,,,,,VFR,-3.7,7.2,4.4,,,,,,,,,SPECI,100.0
KBED 271756Z 10006KT 10SM CLR 07/M12 A3045 RMK AO2 SLP327 T00721122 10078 21039 56034,KBED,2018-03-27T17:56:00Z,42.47,-71.3,7.2,-12.2,100,6,,10.0,30.448818,1032.7,,,TRUE,,,,,,,CLR,,,,,,,,VFR,-3.4,7.8,-3.9,,,,,,,,,SPECI,50.0
KBIH 271756Z AUTO 35010KT 10SM CLR 12/M09 A3030 RMK AO2 SLP247 T01221094 10122 20011 58007 $,KBIH,2018-03-27T17:56:00Z,37.37,-118.35,12.2,-9.4,350,10,,10.0,30.301182,1024.7,,TRUE,TRUE,TRUE,,,,,,CLR,,,,,,,,VFR,-0.7,12.2,1.1,,,,,,,,,SPECI,1253.0
KBZN 271756Z 07005KT 10SM OVC055 07/M06 A3006 RMK AO2 SLP198 6//// T00671061 10067 21028 56018 PNO $,KBZN,2018-03-27T17:56:00Z,45.78,-111.17,6.7,-6.1,70,5,,10.0,30.059055,1019.8,,,TRUE,TRUE,,,,,,OVC,5500,,,,,,,VFR,-1.8,6.7,-2.8,,,,,,,,,SPECI,1361.0
KCAE 271756Z 08004KT 10SM OVC018 11/06 A3041 RMK AO2 SLP298 T01060061 10111 20089 58025,KCAE,2018-03-27T17:56:00Z,33.93,-81.12,10.6,6.1,80,4,,10.0,30.410433,1029.8,,,TRUE,,,,,,,OVC,1800,,,,,,,MVFR,-2.5,11.1,8.9,,,,,,,,,SPECI,70.0
KCEC 271756Z AUTO 33008KT 10SM CLR 12/06 A3045 RMK AO2 SLP310 T01170061 10117 20050 58002,KCEC,2018-03-27T17:56:00Z,41.77,-124.22,11.7,6.1,330,8,,10.0,30.448818,1031.0,,TRUE,TRUE,,,,,,,CLR,,,,,,,,VFR,-0.2,11.7,5.0,,,,,,,,,SPECI,17.0
KCHS 271756Z 07004KT 10SM OVC018 13/08 A3040 RMK AO2 PRESFR SLP292 T01330083 10139 20094 58021,KCHS,2018-03-27T17:56:00Z,32.9,-80.03,13.3,8.3,70,4,,10.0,30.398623,1029.2,,,TRUE,,,,,,,OVC,1800,,,,,,,MVFR,-2.1,13.9,9.4,,,,,,,,,METAR,13.0
KCTB 271756Z AUTO 25037G49KT 10SM CLR 06/M03 A2969 RMK AO2 PK WND 25049/1755 SLP069 T00611028 10061 20028 57020,KCTB,2018-03-27T17:56:00Z,48.6,-112.37,6.1,-2.8,250,37,49,10.0,29.68996,1006.9,,TRUE,TRUE,,,,,,,CLR,,,,,,,,VFR,-2.0,6.1,2.8,,,,,,,,,SPECI,1175.0
KCXY 271756Z 18008KT 10SM -RA SCT075 OVC090 06/M02 A3043 RMK AO2 RAB21 SLP308 P0000 60000 T00561017 10067 20017 58034,KCXY,2018-03-27T17:56:00Z,40.22,-76.85,5.6,-1.7,180,8,,10.0,30.431103,1030.8,,,TRUE,,,,,,-RA,SCT,7500,OVC,9000,,,,,VFR,-3.4,6.7,1.7,,,0.005,,,,,,SPECI,106.0
KDAY 271756Z 21013KT 2SM BR OVC006 11/11 A3008 RMK AO2 SLP188 60019 T01060106 10106 20094 56006,KDAY,2018-03-27T17:56:00Z,39.9,-84.22,10.6,10.6,210,13,,2.0,30.079725,1018.8,,,TRUE,,,,,,BR,OVC,600,,,,,,,IFR,-0.6,10.6,9.4,,,,,,,,,SPECI,305.0
KDIK 271756Z AUTO 24015G21KT 10SM CLR 08/M03 A2991 RMK AO2 SLP147 T00831028 10089 21028 58015,KDIK,2018-03-27T17:56:00Z,46.8,-102.8,8.3,-2.8,240,15,21,10.0,29.911417,1014.7,,TRUE,TRUE,,,,,,,CLR,,,,,,,,VFR,-1.5,8.9,-2.8,,,,,,,,,SPECI,788.0
KEAU 271756Z 28008KT 7SM OVC013 02/M01 A3002 RMK AO2 SLP175 T00221006 10022 20011 50010,KEAU,2018-03-27T17:56:00Z,44.87,-91.47,2.2,-0.6,280,8,,7.0,30.02067,1017.5,,,TRUE,,,,,,,OVC,1300,,,,,,,MVFR,1.0,2.2,1.1,,,,,,,,,SPECI,276.0
KEKO 271756Z AUTO 21005KT 10SM CLR 06/M06 A3031 RMK AO2 SLP275 T00611056 10061 21061 58003,KEKO,2018-03-27T17:56:00Z,40.82,-115.78,6.1,-5.6,210,5,,10.0,30.31004,1027.5,,TRUE,TRUE,,,,,,,CLR,,,,,,,,VFR,-0.3,6.1,-6.1,,,,,,,,,SPECI,1547.0
KEED 271756Z AUTO 03029G34KT 10SM CLR 20/M09 A3011 RMK AO2 PK WND 03037/1737 SLP176 T02001094 10200 20139 50003,KEED,2018-03-27T17:56:00Z,34.77,-114.62,20.0,-9.4,30,29,34,10.0,30.109253,1017.6,,TRUE,TRUE,,,,,,,CLR,,,,,,,,VFR,0.3,20.0,13.9,,,,,,,,,SPECI,302.0
KGON 271756Z 21009KT 10SM CLR 06/M02 A3045 RMK AO2 SLP312 T00611017 10072 20000 56029 $,KGON,2018-03-27T17:56:00Z,41.33,-72.05,6.1,-1.7,210,9,,10.0,30.448818,1031.2,,,TRUE,TRUE,,,,,,CLR,,,,,,,,VFR,-2.9,7.2,0.0,,,,,,,,,SPECI,3.0
KFSD 271756Z 32010KT 10SM FEW030 FEW250 10/02 A3010 RMK AO2 SLP204 T01000017 10100 20006 58003,KFSD,2018-03-27T17:56:00Z,43.58,-96.75,10.0,1.7,320,10,,10.0,30.100393,1020.4,,,TRUE,,,,,,,FEW,3000,FEW,25000,,,,,VFR,-0.3,10.0,0.6,,,,,,,,,SPECI,436.0
KGRD 271756Z AUTO 10004KT 10SM OVC011 08/07 A3042 RMK AO2 SLP303 60001 T00830067 10089 20056 58021,KGRD,2018-03-27T17:56:00Z,34.25,-82.15,8.3,6.7,100,4,,10.0,30.41929,1030.3,,TRUE,TRUE,,,,,,,OVC,1100,,,,,,,MVFR,-2.1,8.9,5.6,,,,,,,,,SPECI,185.0
KHPN 271756Z 11004KT 10SM CLR 05/M12 A3044 RMK AO2 SLP317 T00501117 10056 20000 58030,KHPN,2018-03-27T17:56:00Z,41.07,-73.7,5.0,-11.7,110,4,,10.0,30.43996,1031.7,,,TRUE,,,,,,,CLR,,,,,,,,VFR,-3.0,5.6,0.0,,,,,,,,,SPECI,121.0
KSHV 271756Z 18020G25KT 10SM SCT046 BKN055 27/17 A3001 RMK AO2 PK WND 19029/1706 SLP160 60000 T02720167 10278 20200 58017,KSHV,2018-03-27T17:56:00Z,32.45,-93.83,27.2,16.7,180,20,25,10.0,30.008858,1016.0,,,TRUE,,,,,,,SCT,4600,BKN,5500,,,,,VFR,-1.7,27.8,20.0,,,,,,,,,SPECI,83.0
KSFO 271756Z 05003KT 10SM SCT200 17/08 A3026 RMK AO2 SLP245 T01670078 10183 20094 51006 $,KSFO,2018-03-27T17:56:00Z,37.62,-122.37,16.7,7.8,50,3,,10.0,30.259842,1024.5,,,TRUE,TRUE,,,,,,SCT,20000,,,,,,,VFR,0.6,18.3,9.4,,,,,,,,,SPECI,3.0
KSDF 271756Z 21015G22KT 10SM OVC021 15/10 A3011 RMK AO2 PK WND 20026/1719 SLP197 60000 T01500100 10156 20122 58011,KSDF,2018-03-27T17:56:00Z,38.18,-85.73,15.0,10.0,210,15,22,10.0,30.109253,1019.7,,,TRUE,,,,,,,OVC,2100,,,,,,,MVFR,-1.1,15.6,12.2,,,,,,,,,SPECI,146.0
KHWV 271756Z AUTO 16009KT 10SM CLR 08/M02 A3046 RMK AO2 SLP316 T00781022 10083 20000 58027,KHWV,2018-03-27T17:56:00Z,40.82,-72.87,7.8,-2.2,160,9,,10.0,30.46063,1031.6,,TRUE,TRUE,,,,,,,CLR,,,,,,,,VFR,-2.7,8.3,0.0,,,,,,,,,SPECI,21.0
KSLE 271756Z 18008KT 10SM OVC042 09/06 A3047 RMK AO2 RAE20 SLP319 P0000 60000 T00890056 10089 20078 53006,KSLE,2018-03-27T17:56:00Z,44.9,-123.0,8.9,5.6,180,8,,10.0,30.469488,1031.9,,,TRUE,,,,,,,OVC,4200,,,,,,,VFR,0.6,8.9,7.8,,,0.005,,,,,,SPECI,59.0
KTPH 271756Z AUTO 01019KT 10SM CLR 08/M09 A3029 RMK AO2 PK WND 36028/1702 SLP250 T00781094 10078 21022 58001,KTPH,2018-03-27T17:56:00Z,38.05,-117.08,7.8,-9.4,10,19,,10.0,30.28937,1025.0,,TRUE,TRUE,,,,,,,CLR,,,,,,,,VFR,-0.1,7.8,-2.2,,,,,,,,,SPECI,1652.0
KUKI 271756Z AUTO 33004KT 10SM CLR 14/03 A3030 RMK AO2 SLP259 T01390033 10139 20028 58003,KUKI,2018-03-27T17:56:00Z,39.12,-123.2,13.9,3.3,330,4,,10.0,30.301182,1025.9,,TRUE,TRUE,,,,,,,CLR,,,,,,,,VFR,-0.3,13.9,2.8,,,,,,,,,SPECI,187.0
KWMC 271756Z AUTO 20004KT 10SM CLR 08/M04 A3036 RMK AO2 SLP290 T00781044 10078 21061 58002,KWMC,2018-03-27T17:56:00Z,40.9,-117.8,7.8,-4.4,200,4,,10.0,30.360237,1029.0,,TRUE,TRUE,,,,,,,CLR,,,,,,,,VFR,-0.2,7.8,-6.1,,,,,,,,,SPECI,1310.0
TJSJ 271756Z 01012KT 10SM SCT023 SCT032 SCT090 27/23 A2997 RMK AO2 SLP147 VCSH S-W T02670228 10278 20250 58022,TJSJ,2018-03-27T17:56:00Z,18.43,-66.02,26.7,22.8,10,12,,10.0,29.970472,1014.7,,,TRUE,,,,,,,SCT,2300,SCT,3200,SCT,9000,,,VFR,-2.2,27.8,25.0,,,,,,,,,METAR,21.0
KGNA 271756Z AUTO 27008G17KT 04/M01 A2990 RMK AO1 SLP135 60001 T00391011 10044 20000 51005,KGNA,2018-03-27T17:56:00Z,47.75,-90.35,3.9,-1.1,270,8,17,,29.899607,1013.5,,TRUE,TRUE,,,,,,,,,,,,,,,,0.5,4.4,0.0,,,,,,,,,SPECI,185.0
KNQI 271756Z 12016G23KT 10SM FEW022 BKN039 BKN055 28/21 A2990 RMK AO2 SLP121 T02830211 10289 20228 58009 $,KNQI,2018-03-27T17:56:00Z,27.5,-97.82,28.3,21.1,120,16,23,10.0,29.899607,1012.1,,,TRUE,TRUE,,,,,,FEW,2200,BKN,3900,BKN,5500,,,VFR,-0.9,28.9,22.8,,,,,,,,,METAR,15.0
KNOG 271756Z AUTO 14016G23KT 10SM BKN030 BKN039 OVC050 27/20 A2991 RMK AO2 SLP109 T02670200 10283 20222 58008,KNOG,2018-03-27T17:56:00Z,27.9,-98.05,26.7,20.0,140,16,23,10.0,29.911417,1010.9,,TRUE,TRUE,,,,,,,BKN,3000,BKN,3900,OVC,5000,,,MVFR,-0.8,28.3,22.2,,,,,,,,,METAR,78.0
KHOP 271756Z AUTO 18013G23KT 10SM FEW150 SCT200 18/11 A3012 RMK AO2 SLP200 T01820108 10182 20120 57019,KHOP,2018-03-27T17:56:00Z,36.67,-87.5,18.2,10.8,180,13,23,10.0,30.121063,1020.0,,TRUE,TRUE,,,,,,,FEW,15000,SCT,20000,,,,,VFR,-1.9,18.2,12.0,,,,,,,,,SPECI,174.0
KSKF 271756Z 14016G20KT 10SM BKN029 BKN190 26/19 A2992 RMK AO2A SLP126 T02550189 10259 20212 58006 $,KSKF,2018-03-27T17:56:00Z,29.37,-98.57,25.5,18.9,140,16,20,10.0,29.920275,1012.6,,,TRUE,TRUE,,,,,,BKN,2900,BKN,19000,,,,,MVFR,-0.6,25.9,21.2,,,,,,,,,SPECI,210.0
KQBF 271756Z AUTO 00000KT 9999 CLR 37/M11 A2980 RMK AO2 SLPNO WND DATA ESTMD T03731115 10395 20368,KQBF,2018-03-27T17:56:00Z,,,37.3,-11.5,0,0,,6.21,29.799213,,,TRUE,TRUE,,,,,,,CLR,,,,,,,,VFR,,39.5,36.8,,,,,,,,,METAR,
KQD3 271756Z AUTO 15006KT 9999 FEW025 27/21 A3000 RMK AO2 SLP124 WND DATA ESTMD T02670206 10298 20264 52015,KQD3,2018-03-27T17:56:00Z,,,26.7,20.6,150,6,,6.21,30.0,1012.4,,TRUE,TRUE,,,,,,,FEW,2500,,,,,,,VFR,1.5,29.8,26.4,,,,,,,,,METAR,
KQKR 271756Z AUTO 28004KT 8000 HZ CLR 37/M03 A2970 RMK AO2 SLPNO WND DATA ESTMD T03671034 10413 20367,KQKR,2018-03-27T17:56:00Z,,,36.7,-3.4,280,4,,4.97,29.698818,,,TRUE,TRUE,,,,,,HZ,CLR,,,,,,,,MVFR,,41.3,36.7,,,,,,,,,METAR,
KQN3 271756Z AUTO 01004KT 9999 CLR 38/M11 A2977 RMK AO2 SLPNO WND DATA ESTMD T03771112 10408 20377 53003,KQN3,2018-03-27T17:56:00Z,,,37.7,-11.2,10,4,,6.21,29.769686,,,TRUE,TRUE,,,,,,,CLR,,,,,,,,VFR,0.3,40.8,37.7,,,,,,,,,METAR,
KQND 271756Z AUTO 00000KT 6000 HZ CLR 37/00 A2976 RMK AO2 SLPNO WND DATA ESTMD T03660004 10425 20366 53012,KQND,2018-03-27T17:56:00Z,,,36.6,0.4,0,0,,3.73,29.760826,,,TRUE,TRUE,,,,,,HZ,CLR,,,,,,,,MVFR,1.2,42.5,36.6,,,,,,,,,METAR,
KQRH 271756Z AUTO VRB04KT 9999 FEW027 27/22 A2997 RMK AO2 SLPNO WND DATA ESTMD T02680215 10286 20267 52014,KQRH,2018-03-27T17:56:00Z,,,26.8,21.5,0,4,,6.21,29.970472,,,TRUE,TRUE,,,,,,,FEW,2700,,,,,,,VFR,1.4,28.6,26.7,,,,,,,,,METAR,
PGUA 271756Z 11012G21KT 10SM SCT018 26/21 A2979 RMK AO2A SLP078 T02560210 10261 20255 55008 CHINO RWY24L $,PGUA,2018-03-27T17:56:00Z,13.57,144.92,25.6,21.0,110,12,21,10.0,29.790354,1007.8,,,TRUE,TRUE,,,,,,SCT,1800,,,,,,,VFR,-0.8,26.1,25.5,,,,,,,,,SPECI,187.0
RJTY 271756Z AUTO 28003KT 10SM CLR 13/06 A3006 RMK AO2 SLP181 T01290060 10146 20125 58005 FZRANO $,RJTY,2018-03-27T17:56:00Z,35.75,139.33,12.9,6.0,280,3,,10.0,30.059055,1018.1,,TRUE,TRUE,TRUE,,,TRUE,,,CLR,,,,,,,,VFR,-0.5,14.6,12.5,,,,,,,,,SPECI,139.0
KCEF 271756Z 00000KT 10SM FEW150 BKN190 OVC220 09/M14 A3043 RMK AO2A SLP313 T00921139 10093 21046 57032,KCEF,2018-03-27T17:56:00Z,42.2,-72.52,9.2,-13.9,0,0,,10.0,30.431103,1031.3,,,TRUE,,,,,,,FEW,15000,BKN,19000,OVC,22000,,,VFR,-3.2,9.3,-4.6,,,,,,,,,SPECI,75.0
KMGE 271756Z 10009KT 10SM OVC014 10/06 A3036 RMK AO2A SLP284 T01020062 10102 20080 57019 $,KMGE,2018-03-27T17:56:00Z,33.92,-84.52,10.2,6.2,100,9,,10.0,30.360237,1028.4,,,TRUE,TRUE,,,,,,OVC,1400,,,,,,,MVFR,-1.9,10.2,8.0,,,,,,,,,METAR,326.0
KPSM 271756Z 08005KT 10SM BKN250 05/M12 A3045 RMK AO2A SLP315 T00521118 10061 21024 57035,KPSM,2018-03-27T17:56:00Z,43.07,-70.82,5.2,-11.8,80,5,,10.0,30.448818,1031.5,,,TRUE,,,,,,,BKN,25000,,,,,,,VFR,-3.5,6.1,-2.4,,,,,,,,,METAR,31.0
KRCA 271756Z COR 21006KT 10SM CLR 09/M08 A3004 RMK AO2A SLPNO T00901077 10090 21041 FZRANO $ COR 1759,KRCA,2018-03-27T17:56:00Z,44.13,-103.08,9.0,-7.7,210,6,,10.0,30.041338,,TRUE,,TRUE,TRUE,,,TRUE,,,CLR,,,,,,,,VFR,,9.0,-4.1,,,,,,,,,SPECI,999.0
KVOK 271756Z 30010KT 10SM OVC017 05/02 A3000 RMK AO2A SLP170 50010,KVOK,2018-03-27T17:56:00Z,43.92,-90.27,5.0,2.0,300,10,,10.0,30.0,1017.0,,,TRUE,,,,,,,OVC,1700,,,,,,,MVFR,1.0,,,,,,,,,,,SPECI,277.0
PHHI 271756Z 00000KT 10SM CLR 20/18 A2998 RMK AO2A SLPNO ALSTG ESTMD 60001 T02040180 10204 20165 $,PHHI,2018-03-27T17:56:00Z,21.48,-158.05,20.4,18.0,0,0,,10.0,29.97933,,,,TRUE,TRUE,,,,,,CLR,,,,,,,,VFR,,20.4,16.5,,,,,,,,,SPECI,255.0
KMEH 271756Z AUTO VRB03KT 10SM BKN031 OVC060 07/01 A3025 RMK AO2 SLP260 I6000 T00670006 10067 20000 58006,KMEH,2018-03-27T17:56:00Z,45.52,-118.42,6.7,0.6,0,3,,10.0,30.250984,1026.0,,TRUE,TRUE,,,,,,,BKN,3100,OVC,6000,,,,,VFR,-0.6,6.7,0.0,,,,,,,,,METAR,1136.0
KD07 271756Z AUTO 25011KT 08/M01 A3001 RMK AO1 SLP188 T00781006 10078 21028 58008,KD07,2018-03-27T17:56:00Z,45.03,-102.02,7.8,-0.6,250,11,,,30.008858,1018.8,,TRUE,TRUE,,,,,,,,,,,,,,,,-0.8,7.8,-2.8,,,,,,,,,SPECI,784.0
KP53 271756Z AUTO 33007G18KT 03/02 A2986 RMK AO1 SLP118 60003 T00280017 10039 20022 53011,KP53,2018-03-27T17:56:00Z,46.42,-86.65,2.8,1.7,330,7,18,,29.861221,1011.8,,TRUE,TRUE,,,,,,,,,,,,,,,,1.1,3.9,2.2,,,,,,,,,SPECI,187.0
KGSB 271756Z AUTO 02003KT 10SM OVC038 06/03 A3044 RMK AO2 RAE12 SLP312 P0000 60000 T00610031 10065 20022 57020 $,KGSB,2018-03-27T17:56:00Z,35.32,-77.97,6.1,3.1,20,3,,10.0,30.43996,1031.2,,TRUE,TRUE,TRUE,,,,,,OVC,3800,,,,,,,VFR,-2.0,6.5,2.2,,,0.005,,,,,,SPECI,33.0
KNMM 271756Z 11005KT 10SM BKN017 OVC028 16/12 A3027 RMK AO2 SLP261 T01610117 10167 20122 58013 CHINO SOUTH,KNMM,2018-03-27T17:56:00Z,32.53,-88.57,16.1,11.7,110,5,,10.0,30.268702,1026.1,,,TRUE,,,,,,,BKN,1700,OVC,2800,,,,,MVFR,-1.3,16.7,12.2,,,,,,,,,SPECI,97.0
KPRN 271756Z AUTO VRB05KT 10SM OVC025 19/12 A3026 RMK AO2 SLP245 T01940117 10194 20106 58015,KPRN,2018-03-27T17:56:00Z,31.85,-86.62,19.4,11.7,0,5,,10.0,30.259842,1024.5,,TRUE,TRUE,,,,,,,OVC,2500,,,,,,,MVFR,-1.5,19.4,10.6,,,,,,,,,SPECI,138.0
ETIC 271756Z AUTO 00000KT 9999 BKN065 OVC075 05/M01 A2984 RMK AO2 SLP123 60000 T00541011 10092 20054 57009 $,ETIC,2018-03-27T17:56:00Z,49.7,11.93,5.4,-1.1,0,0,,6.21,29.840551,1012.3,,TRUE,TRUE,TRUE,,,,,,BKN,6500,OVC,7500,,,,,VFR,-0.9,9.2,5.4,,,,,0.005,,,,METAR,415.0
ETIH 271756Z AUTO 00000KT 9999 SCT055 SCT080 05/01 M RMK AO2 SLPNO T00510007 10092 20047 $,ETIH,2018-03-27T17:56:00Z,49.22,11.82,5.1,0.7,0,0,,6.21,,,,TRUE,TRUE,TRUE,,,,,,SCT,5500,SCT,8000,,,,,VFR,,9.2,4.7,,,,,,,,,METAR,442.0
ETIK 271756Z AUTO 00000KT 9999 BKN070 OVC085 08/01 A2984 RMK AO2 SLP117 60000 T00750007 10093 20074 57019 $,ETIK,2018-03-27T17:56:00Z,49.47,10.37,7.5,0.7,0,0,,6.21,29.840551,1011.7,,TRUE,TRUE,TRUE,,,,,,BKN,7000,OVC,8500,,,,,VFR,-1.9,9.3,7.4,,,,,0.005,,,,METAR,325.0
KGTB 271756Z 14018KT 10SM CLR 05/M07 A3022 RMK AO2A SLP241 4/004 T00461072 10046 20006 57037,KGTB,2018-03-27T17:56:00Z,44.07,-75.72,4.6,-7.2,140,18,,10.0,30.221457,1024.1,,,TRUE,,,,,,,CLR,,,,,,,,VFR,-3.7,4.6,0.6,,,,,,,4.0,,SPECI,207.0
KSBP 271756Z 31005KT 10SM CLR 18/03 A3022 RMK AO2 SLP232 T01780033 10178 20050 50001,KSBP,2018-03-27T17:56:00Z,35.23,-120.63,17.8,3.3,310,5,,10.0,30.221457,1023.2,,,TRUE,,,,,,,CLR,,,,,,,,VFR,0.1,17.8,5.0,,,,,,,,,SPECI,59.0
KWJF 271756Z 07011KT 10SM CLR 14/M07 A3023 RMK AO2 SLP240 T01391072 10139 20011 50003,KWJF,2018-03-27T17:56:00Z,34.72,-118.22,13.9,-7.2,70,11,,10.0,30.230314,1024.0,,,TRUE,,,,,,,CLR,,,,,,,,VFR,0.3,13.9,1.1,,,,,,,,,SPECI,715.0
KNFG 271755Z 25008KT 10SM CLR 18/06 A3013 RMK AO2 SLP201 T01780061 10183 20022 55001 $,KNFG,2018-03-27T17:55:00Z,33.28,-117.33,17.8,6.1,250,8,,10.0,30.129921,1020.1,,,TRUE,TRUE,,,,,,CLR,,,,,,,,VFR,-0.1,18.3,2.2,,,,,,,,,METAR,24.0
KNBG 271755Z 12010G17KT 7SM SCT021 BKN037 BKN060 BKN250 25/22 A3016 RMK AO2 SLP213 T02500217 10256 20200 50002 $,KNBG,2018-03-27T17:55:00Z,29.82,-90.02,25.0,21.7,120,10,17,7.0,30.159449,1021.3,,,TRUE,TRUE,,,,,,SCT,2100,BKN,3700,BKN,6000,BKN,25000,VFR,0.2,25.6,20.0,,,,,,,,,METAR,1.0
PALU 271755Z AUTO 20016KT 10SM CLR M06/M20 A2973 RMK AO2 SLP068 T10571202 11055 21074 52013,PALU,2018-03-27T17:55:00Z,68.88,-166.1,-5.7,-20.2,200,16,,10.0,29.731298,1006.8,,TRUE,TRUE,,,,,,,CLR,,,,,,,,VFR,1.3,-5.5,-7.4,,,,,,,,,METAR,3.0
PALP 271755Z 10010KT 10SM SKC M21/M24 A2992,PALP,2018-03-27T17:55:00Z,70.33,-150.93,-21.0,-24.0,100,10,,10.0,29.920275,,,,,,,,,,,SKC,,,,,,,,VFR,,,,,,,,,,,,METAR,5.0
OAHR 271755Z 20001KT 9000 NSC 19/08 Q1020 RMK A3014 BLU,OAHR,2018-03-27T17:55:00Z,34.22,62.22,19.0,8.0,200,1,,5.59,30.11811,,,,,,,,,,,CLR,,,,,,,,VFR,,,,,,,,,,,,SPECI,964.0
KVPS 271755Z 13011KT 10SM SCT018 BKN023 21/16 A3026 RMK AO2A SCT V BKN SLP253 T02100157 10211 20134 58006 $,KVPS,2018-03-27T17:55:00Z,30.47,-86.52,21.0,15.7,130,11,,10.0,30.259842,1025.3,,,TRUE,TRUE,,,,,,SCT,1800,BKN,2300,,,,,MVFR,-0.6,21.1,13.4,,,,,,,,,SPECI,26.0
LIPS 271755Z 06006KT 9999 FEW020TCU BKN040 11/10 Q1013 RMK BKN VIS MIN 9999 WIND THR26 06006KT WIND THR08 06007KT BLU,LIPS,2018-03-27T17:55:00Z,45.67,12.08,11.0,10.0,60,6,,6.21,29.911417,,,,,,,,,,,FEW,2000,BKN,4000,,,,,VFR,,,,,,,,,,,,SPECI,41.0
LIBY 271755Z 28003KT 9999 SCT015 12/10 Q1012 RMK BKN SCT080 QUK / QUL / VIS MAR 12 KM VIS MIN 9999,LIBY,2018-03-27T17:55:00Z,39.82,18.35,12.0,10.0,280,3,,6.21,29.88189,,,,,,,,,,,SCT,1500,,,,,,,VFR,,,,,,,,,,,,SPECI,112.0
LIVP 271755Z 23016KT 9999 SCT020 M03/M06 Q1008 RMK BKN MON CLD CIME VAL NIL VIS MIN 9999,LIVP,2018-03-27T17:55:00Z,46.15,11.03,-3.0,-6.0,230,16,,6.21,29.763779,,,,,,,,,,,SCT,2000,,,,,,,VFR,,,,,,,,,,,,SPECI,2129.0
LIRE 271755Z 24002KT CAVOK 12/10 Q1014 RMK FEW FEW200 VIS MIN 9999 WIND THR13 27001KT WIND THR31 26003KT BLU,LIRE,2018-03-27T17:55:00Z,41.63,12.42,12.0,10.0,240,2,,6.21,29.940945,,,,,,,,,,,CAVOK,,,,,,,,VFR,,,,,,,,,,,,SPECI,12.0
PAWG 271755Z 00000KT 10SM -RA FEW010 BKN040 OVC060 04/02 A3001 RMK (KH),PAWG,2018-03-27T17:55:00Z,56.48,-132.37,4.0,2.0,0,0,,10.0,30.008858,,,,,,,,,,-RA,FEW,1000,BKN,4000,OVC,6000,,,VFR,,,,,,,,,,,,SPECI,11.0
KNKX 271755Z 34007KT 10SM CLR 21/00 A3012 RMK AO2 SLP195 T02110000 10211 20072 50002,KNKX,2018-03-27T17:55:00Z,32.87,-117.13,21.1,0.0,340,7,,10.0,30.121063,1019.5,,,TRUE,,,,,,,CLR,,,,,,,,VFR,0.2,21.1,7.2,,,,,,,,,SPECI,146.0
KHME 271755Z AUTO 05004KT //// // ////// 19/01 Q1017,KHME,2018-03-27T17:55:00Z,,,19.0,1.0,50,4,,,30.029528,,,TRUE,,,,,,,,,,,,,,,,,,,,,,,,,,,,METAR,
KAST 271755Z AUTO 22014G22KT 2 1/2SM RA BR OVC007 09/09 A3040 RMK AO2 PK WND 23027/1711 VIS 1 3/4 RWY 08 SLP295 P0016 60055 T00940089 10094 20083 52008,KAST,2018-03-27T17:55:00Z,46.15,-123.88,9.4,8.9,220,14,22,2.5,30.398623,1029.5,,TRUE,TRUE,,,,,,RA BR,OVC,700,,,,,,,IFR,0.8,9.4,8.3,,,0.16,,,,,,SPECI,3.0
KANJ 271755Z AUTO 08004KT 1 1/4SM -RA BR OVC003 03/02 A2982 RMK AO2 UPB37E39B43E50 SLP102 P0007 60021 T00280022 10028 20017 56017,KANJ,2018-03-27T17:55:00Z,46.47,-84.37,2.8,2.2,80,4,,1.25,29.819881,1010.2,,TRUE,TRUE,,,,,,-RA BR,OVC,300,,,,,,,LIFR,-1.7,2.8,1.7,,,0.07,,0.21,,,,METAR,218.0
KAAT 271755Z AUTO VRB03KT 10SM CLR 07/M02 A3039 RMK AO2 SLP301 T00671017 10067 21056 58001,KAAT,2018-03-27T17:55:00Z,41.48,-120.57,6.7,-1.7,0,3,,10.0,30.389763,1030.1,,TRUE,TRUE,,,,,,,CLR,,,,,,,,VFR,-0.1,6.7,-5.6,,,,,,,,,SPECI,1331.0
KO22 271755Z AUTO 00000KT 10SM CLR 14/02 A3025 RMK AO1,KO22,2018-03-27T17:55:00Z,38.03,-120.42,14.0,2.0,0,0,,10.0,30.250984,,,TRUE,TRUE,,,,,,,CLR,,,,,,,,VFR,,,,,,,,,,,,SPECI,646.0
KBOW 271755Z 10016KT 10SM FEW045 25/10 A3026,KBOW,2018-03-27T17:55:00Z,27.93,-81.77,25.0,10.0,100,16,,10.0,30.259842,,,,,,,,,,,FEW,4500,,,,,,,VFR,,,,,,,,,,,,METAR,39.0
LIVT 271755Z 24002KT 9999 SCT035 10/04 Q1013 RMK BKN SCT180 QUK / QUL / VIS MAR 20 KM VIS MIN 9999,LIVT,2018-03-27T17:55:00Z,45.68,13.75,10.0,4.0,240,2,,6.21,29.911417,,,,,,,,,,,SCT,3500,,,,,,,VFR,,,,,,,,,,,,SPECI,20.0
LIVR 271755Z 13011KT 9999 OVC010 M04/M04 Q1010 RMK OVC MON INC VIS MIN 9999,LIVR,2018-03-27T17:55:00Z,46.28,11.77,-4.0,-4.0,130,11,,6.21,29.822834,,,,,,,,,,,OVC,1000,,,,,,,MVFR,,,,,,,,,,,,SPECI,2006.0
LIVO 271755Z 00000KT 9999 BKN030 06/02 Q1011 RMK BKN VIS MIN 9999,LIVO,2018-03-27T17:55:00Z,46.5,13.57,6.0,2.0,0,0,,6.21,29.852362,,,,,,,,,,,BKN,3000,,,,,,,MVFR,,,,,,,,,,,,SPECI,778.0
LIVF 271755Z 15003KT 9999 FEW030 09/M00 Q1011 RMK BKN SCT080 MON LIB VAL NIL VIS MIN 9999,LIVF,2018-03-27T17:55:00Z,43.52,12.72,9.0,0.0,150,3,,6.21,29.852362,,,,,,,,,,,FEW,3000,,,,,,,VFR,,,,,,,,,,,,SPECI,574.0
LIVD 271755Z ///02KT 9999 SCT050 05/M03 Q1010 RMK BKN SCT080 VIS MIN 9999,LIVD,2018-03-27T17:55:00Z,46.72,12.22,5.0,-3.0,,,,6.21,29.822834,,,,,,,,,,,SCT,5000,,,,,,,VFR,,,,,,,,,,,,SPECI,1226.0
LIVC 271755Z 24012G23KT 9999 SCT001TCU M01/M05 Q1011 RMK BKN SCT160 MON LIB VAL NIL VIS MIN 9999,LIVC,2018-03-27T17:55:00Z,44.2,10.68,-1.0,-5.0,240,12,23,6.21,29.852362,,,,,,,,,,,SCT,100,,,,,,,VFR,,,,,,,,,,,,SPECI,2173.0
LIRX 271755Z 09003KT 9999 FEW005 12/10 Q1012 RMK SCT SCT200 VIS MIN 9999 VIS MAR 30 KM,LIRX,2018-03-27T17:55:00Z,42.73,10.38,12.0,10.0,90,3,,6.21,29.88189,,,,,,,,,,,FEW,500,,,,,,,VFR,,,,,,,,,,,,SPECI,297.0
LIRT 271755Z 12007KT 9999 BKN008 03/M02 Q1013 RMK BKN MON INVIS VAL INVIS VIS MIN 9999,LIRT,2018-03-27T17:55:00Z,41.03,15.22,3.0,-2.0,120,7,,6.21,29.911417,,,,,,,,,,,BKN,800,,,,,,,IFR,,,,,,,,,,,,SPECI,1093.0
LIRK 271755Z AUTO /////KT //// ///// Q////,LIRK,2018-03-27T17:55:00Z,42.47,12.97,,,,,,,,,,TRUE,,,,,,,,,,,,,,,,,,,,,,,,,,,,SPECI,1875.0
LIQO 271755Z 23010KT 9999 FEW005 10/02 Q1013 RMK SCT SCT053 VAL NIL NC VIS MIN 9999,LIQO,2018-03-27T17:55:00Z,42.37,11.17,10.0,2.0,230,10,,6.21,29.911417,,,,,,,,,,,FEW,500,,,,,,,VFR,,,,,,,,,,,,SPECI,632.0
LIQC 271755Z 29003KT CAVOK 12/09 Q1014 RMK FEW FEW080 QUK 0 QUL 0 VIS MAR 18 KM VIS MIN 9999,LIQC,2018-03-27T17:55:00Z,40.55,14.2,12.0,9.0,290,3,,6.21,29.940945,,,,,,,,,,,CAVOK,,,,,,,,VFR,,,,,,,,,,,,SPECI,269.0
LIPL 271755Z 07004KT 5000 HZ NSC 15/M05 Q1010 RMK SCT FEW110 VIS MIN 5000 WIND THR31 06002KT WIND THR13 08004KT WHT,LIPL,2018-03-27T17:55:00Z,45.42,10.27,15.0,-5.0,70,4,,3.11,29.822834,,,,,,,,,,HZ,CLR,,,,,,,,MVFR,,,,,,,,,,,,SPECI,92.0
LIPA 271755Z 10005KT 9999 BKN035 10/08 Q1013 RMK BKN VIS MIN 9999 WIND THR05 /////KT WIND THR23 /////KT A2992 BLU,LIPA,2018-03-27T17:55:00Z,46.02,12.58,10.0,8.0,100,5,,6.21,29.911417,,,,,,,,,,,BKN,3500,,,,,,,VFR,,,,,,,,,,,,SPECI,126.0
LIMY 271755Z 09007KT CAVOK 14/06 Q1009 RMK SKC VAL NIL VIS MIN 9999,LIMY,2018-03-27T17:55:00Z,44.25,7.78,14.0,6.0,90,7,,6.21,29.793306,,,,,,,,,,,CAVOK,,,,,,,,VFR,,,,,,,,,,,,SPECI,1742.0
LIMV 271755Z /////KT 9999 SCT008 09/08 Q1012 RMK BKN BKN200 MON LIB CUF VAL NIL VIS MIN 9999,LIMV,2018-03-27T17:55:00Z,44.55,8.92,9.0,8.0,,,,6.21,29.88189,,,,,,,,,,,SCT,800,,,,,,,VFR,,,,,,,,,,,,SPECI,475.0
LIMU 271755Z 18006KT 9999 FEW023 12/11 Q1012 RMK SCT SCT200 QUK 2 QUL 1 SE VIS MAR 25 KM VIS MIN 9999,LIMU,2018-03-27T17:55:00Z,43.95,8.17,12.0,11.0,180,6,,6.21,29.88189,,,,,,,,,,,FEW,2300,,,,,,,VFR,,,,,,,,,,,,SPECI,221.0
LIMN 271755Z 14003KT CAVOK 15/M01 Q1010 RMK BKN FEW100 SCT180 VIS MIN 9999 BLU,LIMN,2018-03-27T17:55:00Z,45.52,8.67,15.0,-1.0,140,3,,6.21,29.822834,,,,,,,,,,,CAVOK,,,,,,,,VFR,,,,,,,,,,,,SPECI,169.0
LIMK 271755Z 00000KT CAVOK 12/M06 Q1010 RMK BKN FEW100 SCT210 VAL NIL VIS MIN 9999,LIMK,2018-03-27T17:55:00Z,45.02,7.72,12.0,-6.0,0,0,,6.21,29.822834,,,,,,,,,,,CAVOK,,,,,,,,VFR,,,,,,,,,,,,SPECI,710.0
LIMH 271755Z /////KT 0100 -SN FZFG VV/// M09/M09 Q1009 RMK MON INVIS VAL INVIS VIS MIN 0100,LIMH,2018-03-27T17:55:00Z,45.93,7.7,-9.0,-9.0,,,,0.06,29.793306,,,,,,,,,,FZFG -SN,OVX,0,,,,,,,LIFR,,,,,,,,,,,,SPECI,3488.0
LIED 271755Z 33006KT 9999 FEW020 12/11 Q1017 RMK FEW VIS MIN 9999 WIND THR35 33005KT WIND THR17 /////KT BLU,LIED,2018-03-27T17:55:00Z,39.35,8.97,12.0,11.0,330,6,,6.21,30.029528,,,,,,,,,,,FEW,2000,,,,,,,VFR,,,,,,,,,,,,SPECI,28.0
LIEB 271755Z 03009KT 9999 FEW040 13/05 Q1014 RMK FEW QUK 1 QUL 0 VIS MAR 20 KM MON LIB VIS MIN 9999,LIEB,2018-03-27T17:55:00Z,39.93,9.72,13.0,5.0,30,9,,6.21,29.940945,,,,,,,,,,,FEW,4000,,,,,,,VFR,,,,,,,,,,,,SPECI,156.0
LICZ 271755Z /////KT 9999 SCT070 12/04 Q1014 RMK SCT VIS MIN 9999 WIND THR28 26007KT WIND THR10 25005KT A2996 BLU,LICZ,2018-03-27T17:55:00Z,37.38,14.92,12.0,4.0,,,,6.21,29.940945,,,,,,,,,,,SCT,7000,,,,,,,VFR,,,,,,,,,,,,METAR,22.0
LICF 271755Z 30004KT 9999 -RA FEW015 SCT020 13/07 Q1013 RMK OVC OVC080 QUK / QUL / VIS MAR 10 KM MON INVIS VAR RAPID VIS MIN 9999,LICF,2018-03-27T17:55:00Z,38.2,15.55,13.0,7.0,300,4,,6.21,29.911417,,,,,,,,,,-RA,FEW,1500,SCT,2000,,,,,VFR,,,,,,,,,,,,SPECI,51.0
LIBV 271755Z 01005KT 8000 NSC 08/04 Q1013 RMK FEW FEW080 VIS MIN 8000 WIND THR32 02004KT WIND THR14 02004KT BLU,LIBV,2018-03-27T17:55:00Z,40.77,16.92,8.0,4.0,10,5,,4.97,29.911417,,,,,,,,,,,CLR,,,,,,,,MVFR,,,,,,,,,,,,SPECI,350.0
LIBQ 271755Z 27006KT 0000 FG VV/// 01/00 Q1011 RMK MON INVIS VAL INVIS VIS MIN 0000,LIBQ,2018-03-27T17:55:00Z,39.32,16.38,1.0,0.0,270,6,,0.0,29.852362,,,,,,,,,,FG,OVX,0,,,,,,,LIFR,,,,,,,,,,,,SPECI,1720.0
LIBN 271755Z 00000KT 8000 BKN040 11/09 Q1014 RMK BKN BKN100 VIS MIN 8000 WIND THR14 00000KT WIND THR32 00000KT BLU,LIBN,2018-03-27T17:55:00Z,40.22,18.13,11.0,9.0,0,0,,4.97,29.940945,,,,,,,,,,,BKN,4000,,,,,,,MVFR,,,,,,,,,,,,SPECI,61.0
LIBA 271755Z 28005KT CAVOK 08/08 Q1013 RMK SKC VIS MIN 9999 WIND THR11 27005KT WIND THR29 /////KT BLU,LIBA,2018-03-27T17:55:00Z,41.52,15.72,8.0,8.0,280,5,,6.21,29.911417,,,,,,,,,,,CAVOK,,,,,,,,VFR,,,,,,,,,,,,SPECI,60.0
LIVE 271755Z 02005KT 9999 SCT030 03/M05 Q1009 RMK BKN SCT080 VIS MIN 9999,LIVE,2018-03-27T17:55:00Z,46.85,10.5,3.0,-5.0,20,5,,6.21,29.793306,,,,,,,,,,,SCT,3000,,,,,,,VFR,,,,,,,,,,,,SPECI,1800.0
KLLJ 271755Z AUTO VRB05KT 10SM BKN060 08/M06 A3018 RMK AO2 SLP224 T00781056 10078 21011 58015,KLLJ,2018-03-27T17:55:00Z,44.52,-114.22,7.8,-5.6,0,5,,10.0,30.180119,1022.4,,TRUE,TRUE,,,,,,,BKN,6000,,,,,,,VFR,-1.5,7.8,-1.1,,,,,,,,,SPECI,1536.0
KLIC 271755Z AUTO 03005KT 10SM CLR 04/M05 A3017 RMK AO2 SLP219 T00391050 10044 21017 58001,KLIC,2018-03-27T17:55:00Z,39.27,-103.67,3.9,-5.0,30,5,,10.0,30.171259,1021.9,,TRUE,TRUE,,,,,,,CLR,,,,,,,,VFR,-0.1,4.4,-1.7,,,,,,,,,SPECI,1630.0
EBLB 271755Z AUTO 20007KT 2600 RA OVC004/// 03/03 Q1005 YLO,EBLB,2018-03-27T17:55:00Z,50.47,6.17,3.0,3.0,200,7,,1.62,29.675198,,,TRUE,,,,,,,RA,OVC,400,,,,,,,LIFR,,,,,,,,,,,,METAR,570.0
LIRV 271755Z 24007KT CAVOK 09/06 Q1013 RMK FEW FEW060 MON E SE LIB NC VIS MIN 9999 BLU,LIRV,2018-03-27T17:55:00Z,42.42,12.07,9.0,6.0,240,7,,6.21,29.911417,,,,,,,,,,,CAVOK,,,,,,,,VFR,,,,,,,,,,,,SPECI,300.0
LIRS 271755Z 22006KT CAVOK 11/08 Q1013 RMK SCT FEW070 SCT100 VIS MIN 9999 WIND THR03 /////KT WIND THR21 23008KT BLU,LIRS,2018-03-27T17:55:00Z,42.75,11.07,11.0,8.0,220,6,,6.21,29.911417,,,,,,,,,,,CAVOK,,,,,,,,VFR,,,,,,,,,,,,SPECI,7.0
LIRM 271755Z /////KT 9999 FEW030 SCT080 12/10 Q1014,LIRM,2018-03-27T17:55:00Z,41.03,14.07,12.0,10.0,,,,6.21,29.940945,,,,,,,,,,,FEW,3000,SCT,8000,,,,,VFR,,,,,,,,,,,,METAR,10.0
LIRL 271755Z 30003KT 9999 SCT025 10/08 Q1013 RMK SCT MON INVIS VAR RAPID VIS MIN 9999 WIND THR12 30003KT WIND THR30 /////KT BLU,LIRL,2018-03-27T17:55:00Z,41.53,12.9,10.0,8.0,300,3,,6.21,29.911417,,,,,,,,,,,SCT,2500,,,,,,,VFR,,,,,,,,,,,,SPECI,26.0
LIRH 271755Z 27002KT 9999 BKN030 11/03 Q1014 RMK BKN MON CIME INC NC VIS MIN 9999 WIND THR16 33003KT BLU,LIRH,2018-03-27T17:55:00Z,41.65,13.3,11.0,3.0,270,2,,6.21,29.940945,,,,,,,,,,,BKN,3000,,,,,,,MVFR,,,,,,,,,,,,SPECI,181.0
LIRG 271755Z 17006KT 9999 BKN035 12/08 Q1014 RMK BKN MON NE CLD CIME VIS MIN 9999 BLU,LIRG,2018-03-27T17:55:00Z,42.0,12.72,12.0,8.0,170,6,,6.21,29.940945,,,,,,,,,,,BKN,3500,,,,,,,VFR,,,,,,,,,,,,SPECI,89.0
LIPF 271755Z 11004KT 9999 FEW080 13/04 Q1011 RMK FEW VIS MIN 9999,LIPF,2018-03-27T17:55:00Z,44.82,11.62,13.0,4.0,110,4,,6.21,29.852362,,,,,,,,,,,FEW,8000,,,,,,,VFR,,,,,,,,,,,,SPECI,10.0
LIPC 271755Z 14009KT CAVOK 10/04 Q1012 RMK SCT SCT100 VIS MIN 9999 WIND THR11 12008KT WIND THR29 /////KT BLU,LIPC,2018-03-27T17:55:00Z,44.22,12.3,10.0,4.0,140,9,,6.21,29.88189,,,,,,,,,,,CAVOK,,,,,,,,VFR,,,,,,,,,,,,SPECI,10.0
LIMS 271755Z 14002KT CAVOK 11/07 Q1009 RMK SCT FEW140 SCT200 VIS MIN 9999 WIND THR30 12002KT BLU,LIMS,2018-03-27T17:55:00Z,44.92,9.72,11.0,7.0,140,2,,6.21,29.793306,,,,,,,,,,,CAVOK,,,,,,,,VFR,,,,,,,,,,,,SPECI,138.0
LICT 271755Z 33003KT 9999 SCT018 12/10 Q1016 RMK SCT VIS MIN 9999 WIND THR13 30005KT BLU,LICT,2018-03-27T17:55:00Z,37.92,12.5,12.0,10.0,330,3,,6.21,30.0,,,,,,,,,,,SCT,1800,,,,,,,VFR,,,,,,,,,,,,SPECI,7.0
LICG 271755Z 30019G29KT 9999 SCT015 SCT017 12/10 Q1016 RMK BKN VIS MIN 9999 WIND THR08 /////KT WIND THR21 32018KT BLU,LICG,2018-03-27T17:55:00Z,36.82,11.97,12.0,10.0,300,19,29,6.21,30.0,,,,,,,,,,,SCT,1500,SCT,1700,,,,,VFR,,,,,,,,,,,,SPECI,191.0
KCNW 271755Z 18013G18KT 10SM BKN035 25/18 A2999,KCNW,2018-03-27T17:55:00Z,31.63,-97.07,25.0,18.0,180,13,18,10.0,29.991142,,,,,,,,,,,BKN,3500,,,,,,,VFR,,,,,,,,,,,,METAR,156.0
KWHP 271755Z 29007KT 10SM SKC 17/M09 A3018,KWHP,2018-03-27T17:55:00Z,34.25,-118.42,17.0,-9.0,290,7,,10.0,30.180119,,,,,,,,,,,SKC,,,,,,,,VFR,,,,,,,,,,,,METAR,306.0
KCNK 271755Z AUTO 02010KT 350V050 10SM SCT023 07/02 A3016 RMK AO2 SLP219 T00720017 10078 20028 50001,KCNK,2018-03-27T17:55:00Z,39.55,-97.65,7.2,1.7,20,10,,10.0,30.159449,1021.9,,TRUE,TRUE,,,,,,,SCT,2300,,,,,,,VFR,0.1,7.8,2.8,,,,,,,,,METAR,447.0
KCMA 271755Z 06014KT 10SM CLR 22/M03 A3016 RMK AO2 SLP221 T02221033 10222 20078 50007,KCMA,2018-03-27T17:55:00Z,34.22,-119.1,22.2,-3.3,60,14,,10.0,30.159449,1022.1,,,TRUE,,,,,,,CLR,,,,,,,,VFR,0.7,22.2,7.8,,,,,,,,,SPECI,23.0
KEAT 271755Z AUTO 19003KT 10SM SCT060 12/02 A3009 RMK AO2 SLP191 T01170017 10117 20028 56011,KEAT,2018-03-27T17:55:00Z,47.4,-120.2,11.7,1.7,190,3,,10.0,30.088583,1019.1,,TRUE,TRUE,,,,,,,SCT,6000,,,,,,,VFR,-1.1,11.7,2.8,,,,,,,,,SPECI,377.0
KDLH 271755Z 28017KT 10SM OVC011 01/M02 A2995 RMK AO2 SNE1658 SLP161 P0000 60000 T00061017 10006 21011 52006,KDLH,2018-03-27T17:55:00Z,46.85,-92.2,0.6,-1.7,280,17,,10.0,29.949802,1016.1,,,TRUE,,,,,,,OVC,1100,,,,,,,MVFR,0.6,0.6,-1.1,,,0.005,,0.005,,,,METAR,435.0
KDRA 271755Z AUTO 07013G18KT 10SM CLR 12/M09 A3023 RMK AO2 SLP219 T01171089 10117 20039 58003,KDRA,2018-03-27T17:55:00Z,36.62,-116.03,11.7,-8.9,70,13,18,10.0,30.230314,1021.9,,TRUE,TRUE,,,,,,,CLR,,,,,,,,VFR,-0.3,11.7,3.9,,,,,,,,,SPECI,1006.0
EHFS 271755Z AUTO 25011KT 1200 BR OVC000 06/06 Q1004 W///H///,EHFS,2018-03-27T17:55:00Z,51.45,3.6,6.0,6.0,250,11,,0.75,29.64567,,,TRUE,,,,,,,BR,OVC,0,,,,,,,LIFR,,,,,,,,,,,,METAR,32.0
KEGI 271755Z 15009G21KT 10SM SCT029 BKN190 BKN250 23/14 A3026 RMK AO2A PK WND 15026/1735 SLP248 T02320142 10233 20121 57011 $,KEGI,2018-03-27T17:55:00Z,30.63,-86.52,23.2,14.2,150,9,21,10.0,30.259842,1024.8,,,TRUE,TRUE,,,,,,SCT,2900,BKN,19000,BKN,25000,,,VFR,-1.1,23.3,12.1,,,,,,,,,SPECI,59.0
TNCB 271755Z AUTO 10015KT 060V150 9999 // BKN022/// BKN029/// 30/22 Q1012 RE//,TNCB,2018-03-27T17:55:00Z,12.13,-68.28,30.0,22.0,100,15,,6.21,29.88189,,,TRUE,,,,,,,,BKN,2200,BKN,2900,,,,,MVFR,,,,,,,,,,,,METAR,6.0
TNCE 271755Z AUTO 06008KT 360V120 //// // ///////// 28/22 Q1014 RE//,TNCE,2018-03-27T17:55:00Z,17.47,-62.97,28.0,22.0,60,8,,,29.940945,,,TRUE,,,,,,,,,,,,,,,,,,,,,,,,,,,,METAR,39.0
KADM 271755Z 00000KT 10SM SCT007 BKN080 OVC110 15/14 A3003,KADM,2018-03-27T17:55:00Z,34.28,-97.02,15.0,14.0,0,0,,10.0,30.029528,,,,,,,,,,,SCT,700,BKN,8000,OVC,11000,,,VFR,,,,,,,,,,,,METAR,232.0
OPKC 271755Z 25005KT 6000 NSC 26/20 Q1010 NOSIG,OPKC,2018-03-27T17:55:00Z,24.88,67.17,26.0,20.0,250,5,,3.73,29.822834,,,,,,TRUE,,,,,CLR,,,,,,,,MVFR,,,,,,,,,,,,METAR,22.0
OPLA 271755Z 02004KT 4000 FU NSC 24/17 Q1010 A29.81 NOSIG,OPLA,2018-03-27T17:55:00Z,31.52,74.4,24.0,17.0,20,4,,2.49,29.822834,,,,,,TRUE,,,,FU,CLR,,,,,,,,IFR,,,,,,,,,,,,METAR,217.0
KHON 271755Z AUTO 27010KT 10SM CLR 11/02 A3007 RMK AO2 SLP192 T01060022 10106 21033 58008,KHON,2018-03-27T17:55:00Z,44.38,-98.23,10.6,2.2,270,10,,10.0,30.070866,1019.2,,TRUE,TRUE,,,,,,,CLR,,,,,,,,VFR,-0.8,10.6,-3.3,,,,,,,,,METAR,390.0
OAJL 271755Z VRB03KT 9999 CLR 24/M02 A2992 RMK AO2A SLP096 T02381014 10301 20049 51019,OAJL,2018-03-27T17:55:00Z,34.42,70.47,23.8,-1.4,0,3,,6.21,29.920275,1009.6,,,TRUE,,,,,,,CLR,,,,,,,,VFR,1.9,30.1,4.9,,,,,,,,,METAR,580.0
KVBG 271755Z 34011KT 10SM CLR 16/05 A3022 RMK AO2A SLP237 T01620049 10180 20063 53001,KVBG,2018-03-27T17:55:00Z,34.73,-120.58,16.2,4.9,340,11,,10.0,30.221457,1023.7,,,TRUE,,,,,,,CLR,,,,,,,,VFR,0.1,18.0,6.3,,,,,,,,,METAR,112.0
OAKN 271755Z 23005KT 9000 HZ CLR 20/00 A3002 RMK AO2A SLP121 Q1017 PA3212 DA4619 52012,OAKN,2018-03-27T17:55:00Z,31.5,65.83,20.0,0.0,230,5,,5.59,30.02067,1012.1,,,TRUE,,,,,,HZ,CLR,,,,,,,,VFR,1.2,,,,,,,,,,,METAR,1010.0
KINL 271755Z AUTO 25010KT 10SM OVC014 02/M01 A2990 RMK AO2 SLP141 T00171006 10017 21011 58000,KINL,2018-03-27T17:55:00Z,48.57,-93.4,1.7,-0.6,250,10,,10.0,29.899607,1014.1,,TRUE,TRUE,,,,,,,OVC,1400,,,,,,,MVFR,0.0,1.7,-1.1,,,,,,,,,METAR,360.0
KOSU 271755Z 18008KT 2SM BR OVC006 09/09 A3009 RMK AO2 T00940094,KOSU,2018-03-27T17:55:00Z,40.08,-83.08,9.4,9.4,180,8,,2.0,30.088583,,,,TRUE,,,,,,BR,OVC,600,,,,,,,IFR,,,,,,,,,,,,METAR,280.0
MUHA 271755Z 07013KT 9000 SCT030 27/17 Q1020,MUHA,2018-03-27T17:55:00Z,22.97,-82.42,27.0,17.0,70,13,,5.59,30.11811,,,,,,,,,,,SCT,3000,,,,,,,VFR,,,,,,,,,,,,METAR,64.0
TXKF 271755Z 31018KT 9999 SCT040 SCT055 BKN070 17/06 Q1018 ,TXKF,2018-03-27T17:55:00Z,32.37,-64.68,17.0,6.0,310,18,,6.21,30.059055,,,,,,,,,,,SCT,4000,SCT,5500,BKN,7000,,,VFR,,,,,,,,,,,,METAR,6.0
KRNO 271755Z VRB03KT 10SM FEW200 BKN250 09/M07 A3038 RMK AO2 SLP279 T00891067 10089 21022 50000,KRNO,2018-03-27T17:55:00Z,39.5,-119.77,8.9,-6.7,0,3,,10.0,30.380905,1027.9,,,TRUE,,,,,,,FEW,20000,BKN,25000,,,,,VFR,0.0,8.9,-2.2,,,,,,,,,SPECI,1342.0
KSCK 271755Z 29005KT 10SM CLR 16/04 A3025 RMK AO2 SLP242 T01560039 10156 20039 50007,KSCK,2018-03-27T17:55:00Z,37.88,-121.22,15.6,3.9,290,5,,10.0,30.250984,1024.2,,,TRUE,,,,,,,CLR,,,,,,,,VFR,0.7,15.6,3.9,,,,,,,,,SPECI,10.0
KUGN 271755Z 29007KT 8SM OVC012 08/06 A2995 RMK AO2 SLP149 60002 T00780056 10100 20072 50009,KUGN,2018-03-27T17:55:00Z,42.42,-87.87,7.8,5.6,290,7,,8.0,29.949802,1014.9,,,TRUE,,,,,,,OVC,1200,,,,,,,MVFR,0.9,10.0,7.2,,,,,0.02,,,,METAR,222.0
KGPI 271755Z 16013KT 10SM OVC037 05/00 A3003 RMK AO2 SLP185 T00500000 10056 20028 56014,KGPI,2018-03-27T17:55:00Z,48.32,-114.25,5.0,0.0,160,13,,10.0,30.029528,1018.5,,,TRUE,,,,,,,OVC,3700,,,,,,,VFR,-1.4,5.6,2.8,,,,,,,,,SPECI,908.0
FJDG 271755Z 24007KT 9999 FEW025 SCT090 BKN250 28/26 A2989 RMK SLP119 60016 8/172 T02760262 10294 20274 403140265 51007,FJDG,2018-03-27T17:55:00Z,-7.32,72.42,27.6,26.2,240,7,,6.21,29.890747,1011.9,,,,,,,,,,FEW,2500,SCT,9000,BKN,25000,,,VFR,0.7,29.4,27.4,31.4,26.5,,,,,,,SPECI,3.0
ORBD 271755Z 30004KT 9999 FEW140 24/02 A2994 RMK WND DATA ALSTG ESTMD,ORBD,2018-03-27T17:55:00Z,33.93,44.37,24.0,2.0,300,4,,6.21,29.940945,,,,,,,,,,,FEW,14000,,,,,,,VFR,,,,,,,,,,,,METAR,49.0
KWWD 271755Z AUTO 10007KT 10SM CLR 06/M01 A3048 RMK AO2 SLP325 T00561006 10061 21006 58025,KWWD,2018-03-27T17:55:00Z,39.02,-74.92,5.6,-0.6,100,7,,10.0,30.481298,1032.5,,TRUE,TRUE,,,,,,,CLR,,,,,,,,VFR,-2.5,6.1,-0.6,,,,,,,,,METAR,7.0
KQZF 271755Z AUTO 11002KT 6SM CLR 35/M09 A2983 RMK AO2 SLP080 WND DATA ESTMD T03531094 10395 20233 53011 $,KQZF,2018-03-27T17:55:00Z,,,35.3,-9.4,110,2,,6.0,29.828741,1008.0,,TRUE,TRUE,TRUE,,,,,,CLR,,,,,,,,VFR,1.1,39.5,23.3,,,,,,,,,METAR,
KGXA 271755Z AUTO 02012G18KT 10SM CLR 13/M11 A3021 RMK AO2 SLP210 WND DATA ESTMD T01251107 50001,KGXA,2018-03-27T17:55:00Z,34.57,-117.67,12.5,-10.7,20,12,18,10.0,30.209646,1021.0,,TRUE,TRUE,,,,,,,CLR,,,,,,,,VFR,0.1,,,,,,,,,,,METAR,923.0
KBYS 271755Z AUTO 16016G30KT 10SM CLR 14/M11 A3021 RMK AO2 SLP232 WND DATA ESTMD T01401112 10121 20094 50010,KBYS,2018-03-27T17:55:00Z,35.28,-116.62,14.0,-11.2,160,16,30,10.0,30.209646,1023.2,,TRUE,TRUE,,,,,,,CLR,,,,,,,,VFR,1.0,12.1,9.4,,,,,,,,,METAR,716.0
KEND 271755Z 01013KT 10SM BKN016 OVC023 07/05 A3011 RMK AO2A SLP201 52019,KEND,2018-03-27T17:55:00Z,36.32,-97.92,7.0,5.0,10,13,,10.0,30.109253,1020.1,,,TRUE,,,,,,,BKN,1600,OVC,2300,,,,,MVFR,1.9,,,,,,,,,,,SPECI,398.0
PAEH 271755Z 24018G28KT 070V320 3/4SM -RA BR OVC003 M01/M01 A2953,PAEH,2018-03-27T17:55:00Z,58.65,-162.07,-1.0,-1.0,240,18,28,0.75,29.530512,,,,,,,,,,-RA BR,OVC,300,,,,,,,LIFR,,,,,,,,,,,,SPECI,161.0
PATC 271755Z AUTO 03017KT 10SM OVC048 M08/M09 A2959 RMK AO2 SLP029 T10841094 11069 21080 52007 $,PATC,2018-03-27T17:55:00Z,65.57,-167.92,-8.4,-9.4,30,17,,10.0,29.589567,1002.9,,TRUE,TRUE,TRUE,,,,,,OVC,4800,,,,,,,VFR,0.7,-6.9,-8.0,,,,,,,,,METAR,83.0
RJOI 271755Z 30005KT 9999 SKC 10/06 A3008 RMK SLP185 T01000056 10133 20100 58003,RJOI,2018-03-27T17:55:00Z,34.13,132.22,10.0,5.6,300,5,,6.21,30.079725,1018.5,,,,,,,,,,SKC,,,,,,,,VFR,-0.3,13.3,10.0,,,,,,,,,SPECI,2.0
KFBL 271755Z AUTO 26005KT 10SM BKN012 02/00 A3008 RMK AO2,KFBL,2018-03-27T17:55:00Z,44.33,-93.32,2.0,0.0,260,5,,10.0,30.079725,,,TRUE,TRUE,,,,,,,BKN,1200,,,,,,,MVFR,,,,,,,,,,,,METAR,322.0
KSCR 271755Z AUTO 00000KT 10SM OVC032 08/01 A3044 RMK AO2 T00760006 10078 20035,KSCR,2018-03-27T17:55:00Z,35.7,-79.5,7.6,0.6,0,0,,10.0,30.43996,,,TRUE,TRUE,,,,,,,OVC,3200,,,,,,,VFR,,7.8,3.5,,,,,,,,,SPECI,188.0
NZCM 271755Z AUTO 06004KT 9999 OVC180 M16/M25 A2956 RMK AO2 SLP017 T11601251 11137 21160 53004 $,NZCM,2018-03-27T17:55:00Z,-77.85,166.67,-16.0,-25.1,60,4,,6.21,29.56004,1001.7,,TRUE,TRUE,TRUE,,,,,,OVC,18000,,,,,,,VFR,0.4,-13.7,-16.0,,,,,,,,,SPECI,8.0
KPHP 271755Z AUTO 23010KT 10SM CLR 12/M02 A3006 RMK AO2 SLP188 T01171017 10117 21028 58016,KPHP,2018-03-27T17:55:00Z,44.05,-101.6,11.7,-1.7,230,10,,10.0,30.059055,1018.8,,TRUE,TRUE,,,,,,,CLR,,,,,,,,VFR,-1.6,11.7,-2.8,,,,,,,,,METAR,672.0
KWDG 271755Z 35013G20KT 10SM BKN016 OVC022 08/06 A3012,KWDG,2018-03-27T17:55:00Z,36.37,-97.77,8.0,6.0,350,13,20,10.0,30.121063,,,,,,,,,,,BKN,1600,OVC,2200,,,,,MVFR,,,,,,,,,,,,METAR,356.0
EBBE 271755Z AUTO 21008KT 9999 SCT004/// BKN006/// 07/06 Q1005 YLO,EBBE,2018-03-27T17:55:00Z,50.75,4.77,7.0,6.0,210,8,,6.21,29.675198,,,TRUE,,,,,,,,SCT,400,BKN,600,,,,,IFR,,,,,,,,,,,,METAR,127.0
EBCV 271755Z AUTO 25008KT 3500 -RA OVC004/// 09/09 Q1005 YLO,EBCV,2018-03-27T17:55:00Z,50.57,3.82,9.0,9.0,250,8,,2.17,29.675198,,,TRUE,,,,,,,-RA,OVC,400,,,,,,,LIFR,,,,,,,,,,,,METAR,63.0
PAHN 271754Z AUTO 29008KT 10SM OVC037 M03/M06 A2993 RMK AO2 SLP136 T10281061 11028 21044 51024 TSNO,PAHN,2018-03-27T17:54:00Z,59.25,-135.52,-2.8,-6.1,290,8,,10.0,29.929134,1013.6,,TRUE,TRUE,,,TRUE,,,,OVC,3700,,,,,,,VFR,2.4,-2.8,-4.4,,,,,,,,,METAR,5.0
PGSN 271754Z 09012KT 10SM FEW020 SCT055 BKN080 27/23 A2979 RMK AO2 SLP109 T02720233 10272 20267 56009 $,PGSN,2018-03-27T17:54:00Z,15.12,145.72,27.2,23.3,90,12,,10.0,29.790354,1010.9,,,TRUE,TRUE,,,,,,FEW,2000,SCT,5500,BKN,8000,,,VFR,-0.9,27.2,26.7,,,,,,,,,SPECI,65.0
PHOG 271754Z 20013KT 10SM FEW030 SCT055 24/21 A2991 RMK AO2 SLP132 T02440206 10244 20206 53017,PHOG,2018-03-27T17:54:00Z,20.9,-156.43,24.4,20.6,200,13,,10.0,29.911417,1013.2,,,TRUE,,,,,,,FEW,3000,SCT,5500,,,,,VFR,1.7,24.4,20.6,,,,,,,,,SPECI,12.0
PHMK 271754Z 00000KT 10SM CLR 22/19 A2993 RMK AO2 SLP137 T02220189 10222 20167 53017,PHMK,2018-03-27T17:54:00Z,21.15,-157.1,22.2,18.9,0,0,,10.0,29.929134,1013.7,,,TRUE,,,,,,,CLR,,,,,,,,VFR,1.7,22.2,16.7,,,,,,,,,SPECI,141.0
KLAF 271754Z 22010G15KT 9SM OVC006 12/12 A3000 RMK AO2 RAE18B21E40 CIG 005V010 SLP158 P0002 60034 T01220122 10122 20089 58005,KLAF,2018-03-27T17:54:00Z,40.42,-86.93,12.2,12.2,220,10,15,9.0,30.0,1015.8,,,TRUE,,,,,,,OVC,600,,,,,,,IFR,-0.5,12.2,8.9,,,0.02,,0.34,,,,METAR,182.0
KDSM 271754Z 33010KT 10SM OVC016 05/01 A3013 RMK AO2 SLP208 T00500006 10050 20022 58002,KDSM,2018-03-27T17:54:00Z,41.53,-93.67,5.0,0.6,330,10,,10.0,30.129921,1020.8,,,TRUE,,,,,,,OVC,1600,,,,,,,MVFR,-0.2,5.0,2.2,,,,,,,,,METAR,295.0
KBOS 271754Z 08008KT 10SM BKN250 05/M02 A3047 RMK AO2 SLP317 T00501017 10056 20006 58032,KBOS,2018-03-27T17:54:00Z,42.37,-71.02,5.0,-1.7,80,8,,10.0,30.469488,1031.7,,,TRUE,,,,,,,BKN,25000,,,,,,,VFR,-3.2,5.6,0.6,,,,,,,,,SPECI,6.0
KBFL 271754Z 00000KT 10SM CLR 17/02 A3024 RMK AO2 SLP236 T01670022 10167 20061 50004,KBFL,2018-03-27T17:54:00Z,35.43,-119.05,16.7,2.2,0,0,,10.0,30.239174,1023.6,,,TRUE,,,,,,,CLR,,,,,,,,VFR,0.4,16.7,6.1,,,,,,,,,SPECI,151.0
KAVP 271754Z 20012G16KT 10SM CLR 06/M11 A3038 RMK AO2 SLP293 T00561106 10061 21011 58030,KAVP,2018-03-27T17:54:00Z,41.33,-75.72,5.6,-10.6,200,12,16,10.0,30.380905,1029.3,,,TRUE,,,,,,,CLR,,,,,,,,VFR,-3.0,6.1,-1.1,,,,,,,,,METAR,291.0
KAVL 271754Z 18011KT 10SM BKN018 OVC026 11/05 A3036 RMK AO2 SLP278 T01060050 10106 20050 58023,KAVL,2018-03-27T17:54:00Z,35.43,-82.53,10.6,5.0,180,11,,10.0,30.360237,1027.8,,,TRUE,,,,,,,BKN,1800,OVC,2600,,,,,MVFR,-2.3,10.6,5.0,,,,,,,,,METAR,670.0
KAUW 271754Z AUTO 29013KT 10SM OVC015 03/01 A2994 RMK AO2 SLP155 T00330006 10033 20011 51007,KAUW,2018-03-27T17:54:00Z,44.93,-89.62,3.3,0.6,290,13,,10.0,29.940945,1015.5,,TRUE,TRUE,,,,,,,OVC,1500,,,,,,,MVFR,0.7,3.3,1.1,,,,,,,,,METAR,362.0
KAPC 271754Z 21006KT 10SM CLR 18/07 A3025 RMK AO2 SLP235 T01780067 10183 20067 51003,KAPC,2018-03-27T17:54:00Z,38.2,-122.28,17.8,6.7,210,6,,10.0,30.250984,1023.5,,,TRUE,,,,,,,CLR,,,,,,,,VFR,0.3,18.3,6.7,,,,,,,,,SPECI,13.0
KALO 271754Z 32012KT 7SM OVC012 02/M01 A3011 RMK AO2 SLP205 T00171006 10017 20006 53009,KALO,2018-03-27T17:54:00Z,42.55,-92.4,1.7,-0.6,320,12,,7.0,30.109253,1020.5,,,TRUE,,,,,,,OVC,1200,,,,,,,MVFR,0.9,1.7,0.6,,,,,,,,,METAR,264.0
KAKR 271754Z AUTO 19012KT 9SM OVC008 08/07 A3005 RMK AO2 SLP180 60007 T00830067 10083 20044 56035,KAKR,2018-03-27T17:54:00Z,41.03,-81.47,8.3,6.7,190,12,,9.0,30.050198,1018.0,,TRUE,TRUE,,,,,,,OVC,800,,,,,,,IFR,-3.5,8.3,4.4,,,,,0.07,,,,METAR,363.0
KAKQ 271754Z AUTO 00000KT 8SM OVC050 09/02 A3046 RMK AO2 RAE53 SLP316 P0000 60000 T00890017 10094 20006 58028,KAKQ,2018-03-27T17:54:00Z,36.98,-77.0,8.9,1.7,0,0,,8.0,30.46063,1031.6,,TRUE,TRUE,,,,,,,OVC,5000,,,,,,,VFR,-2.8,9.4,0.6,,,0.005,,0.005,,,,METAR,34.0
KAKH 271754Z AUTO 00000KT 10SM OVC022 09/03 A3042 RMK AO2 SLP303 60000 T00940028 10100 20072 56022,KAKH,2018-03-27T17:54:00Z,35.2,-81.15,9.4,2.8,0,0,,10.0,30.41929,1030.3,,TRUE,TRUE,,,,,,,OVC,2200,,,,,,,MVFR,-2.2,10.0,7.2,,,,,0.005,,,,METAR,243.0
KACY 271754Z 10005KT 10SM CLR 06/M01 A3048 RMK AO2 SLP320 T00611006 10067 21006 58026,KACY,2018-03-27T17:54:00Z,39.45,-74.57,6.1,-0.6,100,5,,10.0,30.481298,1032.0,,,TRUE,,,,,,,CLR,,,,,,,,VFR,-2.6,6.7,-0.6,,,,,,,,,SPECI,23.0
KAAO 271754Z AUTO 02012G20KT 10SM -RA BKN016 BKN043 OVC075 06/04 A3013 RMK AO2 RAE14B39 SLP209 P0000 60000 T00560039 10056 20044 50002,KAAO,2018-03-27T17:54:00Z,37.75,-97.22,5.6,3.9,20,12,20,10.0,30.129921,1020.9,,TRUE,TRUE,,,,,,-RA,BKN,1600,BKN,4300,OVC,7500,,,MVFR,0.2,5.6,4.4,,,0.005,,0.005,,,,METAR,434.0
PKMR 271754Z 09005KT 15SM FEW015 SCT050 BKN120 OVC300 28/24 A2974 RMK SLP071 8/871 T02770244 10277 20273 53003,PKMR,2018-03-27T17:54:00Z,7.08,171.38,27.7,24.4,90,5,,15.0,29.740158,1007.1,,,,,,,,,,FEW,1500,SCT,5000,BKN,12000,OVC,30000,VFR,0.3,27.7,27.3,,,,,,,,,SPECI,4.0
KWLD 271754Z AUTO 01014G19KT 10SM SCT014 OVC036 06/04 A3013 RMK AO2 RAE08B35E47 SLP207 P0000 60005 T00560044 10067 20056 50006,KWLD,2018-03-27T17:54:00Z,37.17,-97.03,5.6,4.4,10,14,19,10.0,30.129921,1020.7,,TRUE,TRUE,,,,,,,SCT,1400,OVC,3600,,,,,VFR,0.6,6.7,5.6,,,0.005,,0.05,,,,METAR,350.0
KCOU 271754Z 36009KT 7SM -RA OVC009 08/06 A3009 RMK AO2 RAB08 SLP189 P0001 60001 T00780061 10111 20078 53003,KCOU,2018-03-27T17:54:00Z,38.82,-92.22,7.8,6.1,360,9,,7.0,30.088583,1018.9,,,TRUE,,,,,,-RA,OVC,900,,,,,,,IFR,0.3,11.1,7.8,,,0.01,,0.01,,,,METAR,271.0
KCOS 271754Z 27004KT 10SM SCT030 OVC055 02/M04 A3018 RMK AO2 SNB23E34 SLP243 4/001 VCSH W P0000 60000 T00171044 10022 21022 58001,KCOS,2018-03-27T17:54:00Z,38.82,-104.68,1.7,-4.4,270,4,,10.0,30.180119,1024.3,,,TRUE,,,,,,,SCT,3000,OVC,5500,,,,,VFR,-0.1,2.2,-2.2,,,0.005,,,,1.0,,SPECI,1856.0
KCEU 271754Z AUTO 08004KT 10SM OVC023 09/03 A3041 RMK AO2 SLP298 T00940033 10100 20078 57023,KCEU,2018-03-27T17:54:00Z,34.67,-82.88,9.4,3.3,80,4,,10.0,30.410433,1029.8,,TRUE,TRUE,,,,,,,OVC,2300,,,,,,,MVFR,-2.3,10.0,7.8,,,,,,,,,METAR,268.0
KMOT 271754Z 22012KT 10SM CLR 05/M02 A2988 RMK AO2 SLP137 T00501022 10050 21006 58010,KMOT,2018-03-27T17:54:00Z,48.25,-101.27,5.0,-2.2,220,12,,10.0,29.878937,1013.7,,,TRUE,,,,,,,CLR,,,,,,,,VFR,-1.0,5.0,-0.6,,,,,,,,,METAR,519.0
KMKC 271754Z 36009KT 10SM OVC019 07/02 A3013 RMK AO2 SLP205 T00670017 10072 20050 58000,KMKC,2018-03-27T17:54:00Z,39.12,-94.6,6.7,1.7,360,9,,10.0,30.129921,1020.5,,,TRUE,,,,,,,OVC,1900,,,,,,,MVFR,0.0,7.2,5.0,,,,,,,,,METAR,227.0
KMIV 271754Z AUTO 15005KT 10SM CLR A3046 RMK AO2 SLPNO 58028 $,KMIV,2018-03-27T17:54:00Z,39.37,-75.08,,,150,5,,10.0,30.46063,,,TRUE,TRUE,TRUE,,,,,,CLR,,,,,,,,VFR,-2.8,,,,,,,,,,,METAR,23.0
KMGJ 271754Z AUTO 17009KT 130V190 10SM CLR 08/M10 A3043 RMK AO2 SLP307 T00781100 10078 21033 58033 $,KMGJ,2018-03-27T17:54:00Z,41.52,-74.27,7.8,-10.0,170,9,,10.0,30.431103,1030.7,,TRUE,TRUE,TRUE,,,,,,CLR,,,,,,,,VFR,-3.3,7.8,-3.3,,,,,,,,,METAR,108.0
PADG 271754Z 10016KT 15SM FEW070 M12/M20 A2970,PADG,2018-03-27T17:54:00Z,68.03,-162.9,-12.0,-20.0,100,16,,15.0,29.698818,,,,,,,,,,,FEW,7000,,,,,,,VFR,,,,,,,,,,,,SPECI,297.0
KFZY 271754Z AUTO 16007G16KT 10SM OVC100 06/M07 A3024 RMK AO2 PK WND 18028/1707 SLP244 T00561072 10061 20017 56033,KFZY,2018-03-27T17:54:00Z,43.35,-76.38,5.6,-7.2,160,7,16,10.0,30.239174,1024.4,,TRUE,TRUE,,,,,,,OVC,10000,,,,,,,VFR,-3.3,6.1,1.7,,,,,,,,,METAR,138.0
KGCN 271754Z 10SM CLR 07/M09 A3009 RMK AO2 SLP168 T00671094 10067 21028 50006,KGCN,2018-03-27T17:54:00Z,35.95,-112.15,6.7,-9.4,,,,10.0,30.088583,1016.8,,,TRUE,,,,,,,CLR,,,,,,,,VFR,0.6,6.7,-2.8,,,,,,,,,SPECI,2016.0
KIMT 271754Z AUTO 31010KT BKN017 OVC036 05/02 A2987 RMK AO2 SLP127 T00500017 10050 20006 53010 $,KIMT,2018-03-27T17:54:00Z,45.82,-88.12,5.0,1.7,310,10,,,29.870079,1012.7,,TRUE,TRUE,TRUE,,,,,,BKN,1700,OVC,3600,,,,,,1.0,5.0,0.6,,,,,,,,,METAR,349.0
KCAR 271754Z AUTO 00000KT 10SM CLR 06/M13 A3047 RMK AO2 SLP331 T00611133 10061 21089 58039,KCAR,2018-03-27T17:54:00Z,46.87,-68.02,6.1,-13.3,0,0,,10.0,30.469488,1033.1,,TRUE,TRUE,,,,,,,CLR,,,,,,,,VFR,-3.9,6.1,-8.9,,,,,,,,,METAR,191.0
KIZG 271754Z AUTO 17005KT 10SM CLR 07/M15 A3045 RMK AO2 SLP317 T00721150 10078 21061 58040,KIZG,2018-03-27T17:54:00Z,43.98,-70.95,7.2,-15.0,170,5,,10.0,30.448818,1031.7,,TRUE,TRUE,,,,,,,CLR,,,,,,,,VFR,-4.0,7.8,-6.1,,,,,,,,,METAR,135.0
KHWD 271754Z 28007KT 10SM CLR 17/03 A3025 RMK AO2 SLP254 T01720028 10178 20067 50005,KHWD,2018-03-27T17:54:00Z,37.67,-122.12,17.2,2.8,280,7,,10.0,30.250984,1025.4,,,TRUE,,,,,,,CLR,,,,,,,,VFR,0.5,17.8,6.7,,,,,,,,,SPECI,21.0
KGSO 271754Z VRB04KT 10SM OVC043 07/02 A3041 RMK AO2 SLP300 60001 T00720017 10072 20033 56033 $,KGSO,2018-03-27T17:54:00Z,36.1,-79.95,7.2,1.7,0,4,,10.0,30.410433,1030.0,,,TRUE,TRUE,,,,,,OVC,4300,,,,,,,VFR,-3.3,7.2,3.3,,,,,0.01,,,,METAR,275.0
KGED 271754Z AUTO A3046 RMK AO2 SLPNO 58030 PWINO FZRANO $,KGED,2018-03-27T17:54:00Z,38.68,-75.37,,,,,,,30.46063,,,TRUE,TRUE,TRUE,,,TRUE,TRUE,,,,,,,,,,,-3.0,,,,,,,,,,,METAR,19.0
KIND 271754Z 21011KT 4SM -DZ BR OVC007 12/11 A3005 RMK AO2 SLP177 P0000 60011 T01170111 10117 20094 57004,KIND,2018-03-27T17:54:00Z,39.72,-86.3,11.7,11.1,210,11,,4.0,30.050198,1017.7,,,TRUE,,,,,,-DZ BR,OVC,700,,,,,,,IFR,-0.4,11.7,9.4,,,0.005,,0.11,,,,METAR,241.0
KJST 271754Z AUTO 17012KT 4SM -FZRA BR OVC005 00/M02 A3022 RMK AO2 UPB1659E27FZRAE1659B27 SLP258 P0003 60013 I1003 I6018 T00001017 10000 21017 56028,KJST,2018-03-27T17:54:00Z,40.32,-78.83,0.0,-1.7,170,12,,4.0,30.221457,1025.8,,TRUE,TRUE,,,,,,-FZRA BR,OVC,500,,,,,,,IFR,-2.8,0.0,-1.7,,,0.03,,0.13,,,,METAR,694.0
KJAN 271754Z 13011KT 10SM OVC023 19/14 A3021 RMK AO2 SLP228 T01940139 10194 20144 58001,KJAN,2018-03-27T17:54:00Z,32.32,-90.08,19.4,13.9,130,11,,10.0,30.209646,1022.8,,,TRUE,,,,,,,OVC,2300,,,,,,,MVFR,-0.1,19.4,14.4,,,,,,,,,METAR,91.0
KISW 271754Z AUTO 30012G19KT 10SM OVC016 04/M01 A2999 RMK AO2 SLP164 T00391006 10044 20028 50016 TSNO,KISW,2018-03-27T17:54:00Z,44.37,-89.83,3.9,-0.6,300,12,19,10.0,29.991142,1016.4,,TRUE,TRUE,,,TRUE,,,,OVC,1600,,,,,,,MVFR,1.6,4.4,2.8,,,,,,,,,METAR,307.0
KIPT 271754Z VRB03G19KT 8SM -RA BKN070 OVC085 04/M04 A3037 RMK AO2 RAB30 SLP287 P0001 60001 T00391039 10056 20017 58036,KIPT,2018-03-27T17:54:00Z,41.25,-76.92,3.9,-3.9,0,3,19,8.0,30.369095,1028.7,,,TRUE,,,,,,-RA,BKN,7000,OVC,8500,,,,,VFR,-3.6,5.6,1.7,,,0.01,,0.01,,,,METAR,164.0
KINT 271754Z VRB04KT 10SM OVC040 08/02 A3042 RMK AO2 SLP303 60001 T00830017 10083 20039 58030,KINT,2018-03-27T17:54:00Z,36.13,-80.22,8.3,1.7,0,4,,10.0,30.41929,1030.3,,,TRUE,,,,,,,OVC,4000,,,,,,,VFR,-3.0,8.3,3.9,,,,,0.01,,,,METAR,291.0
KVAY 271754Z AUTO 02003KT 10SM CLR 07/M03 A3047 RMK AO2 SLP318 T00721033 10072 21017 58031,KVAY,2018-03-27T17:54:00Z,39.93,-74.83,7.2,-3.3,20,3,,10.0,30.469488,1031.8,,TRUE,TRUE,,,,,,,CLR,,,,,,,,VFR,-3.1,7.2,-1.7,,,,,,,,,METAR,15.0
KUZA 271754Z AUTO 04004KT 10SM BKN022 OVC029 09/03 A3042 RMK AO2 SLP303 60000 T00890033 10094 20067 57026,KUZA,2018-03-27T17:54:00Z,34.98,-81.05,8.9,3.3,40,4,,10.0,30.41929,1030.3,,TRUE,TRUE,,,,,,,BKN,2200,OVC,2900,,,,,MVFR,-2.6,9.4,6.7,,,,,0.005,,,,METAR,202.0
KTQE 271754Z AUTO 02009KT 10SM CLR 09/02 A3015 RMK AO2 SLP210 T00890017 10089 20017 58001,KTQE,2018-03-27T17:54:00Z,41.77,-96.18,8.9,1.7,20,9,,10.0,30.15059,1021.0,,TRUE,TRUE,,,,,,,CLR,,,,,,,,VFR,-0.1,8.9,1.7,,,,,,,,,METAR,312.0
KTAD 271754Z AUTO 34003KT 10SM BKN007 OVC012 02/00 A3017 RMK AO2 CIG 006V010 SLP212 60009 T00170000 10017 20000 58002,KTAD,2018-03-27T17:54:00Z,37.27,-104.33,1.7,0.0,340,3,,10.0,30.171259,1021.2,,TRUE,TRUE,,,,,,,BKN,700,OVC,1200,,,,,IFR,-0.2,1.7,0.0,,,,,0.09,,,,METAR,1756.0
KSYR 271754Z 15015KT 10SM SCT100 OVC140 06/M08 A3027 RMK AO2 PK WND 14026/1655 SLP250 T00611083 10061 20000 56034,KSYR,2018-03-27T17:54:00Z,43.12,-76.1,6.1,-8.3,150,15,,10.0,30.268702,1025.0,,,TRUE,,,,,,,SCT,10000,OVC,14000,,,,,VFR,-3.4,6.1,0.0,,,,,,,,,SPECI,127.0
KSUS 271754Z 31008KT 9SM -RA OVC007 11/11 A3006 RMK AO2 SLP178 P0007 60014 T01060106 10156 20106 51012,KSUS,2018-03-27T17:54:00Z,38.65,-90.65,10.6,10.6,310,8,,9.0,30.059055,1017.8,,,TRUE,,,,,,-RA,OVC,700,,,,,,,IFR,1.2,15.6,10.6,,,0.07,,0.14,,,,METAR,141.0
KSLC 271754Z 31008KT 10SM FEW065 SCT210 08/M06 A3027 RMK AO2 SLP249 T00781061 10083 21006 50004,KSLC,2018-03-27T17:54:00Z,40.77,-111.97,7.8,-6.1,310,8,,10.0,30.268702,1024.9,,,TRUE,,,,,,,FEW,6500,SCT,21000,,,,,VFR,0.4,8.3,-0.6,,,,,,,,,SPECI,1286.0
KSET 271754Z AUTO 31007KT 6SM -RA BR OVC007 10/09 A3005 RMK AO2 SLP176 P0005 60010 T01000094 10139 20100 51014,KSET,2018-03-27T17:54:00Z,38.93,-90.43,10.0,9.4,310,7,,6.0,30.050198,1017.6,,TRUE,TRUE,,,,,,-RA BR,OVC,700,,,,,,,IFR,1.4,13.9,10.0,,,0.05,,0.1,,,,METAR,134.0
KSBY 271754Z 00000KT 10SM CLR 09/M02 A3045 RMK AO2 SLP313 T00941017 10094 21017 58032,KSBY,2018-03-27T17:54:00Z,38.33,-75.5,9.4,-1.7,0,0,,10.0,30.448818,1031.3,,,TRUE,,,,,,,CLR,,,,,,,,VFR,-3.2,9.4,-1.7,,,,,,,,,METAR,19.0
KSBN 271754Z 24009KT 2SM R27L/4500VP6000FT -RA BR OVC004 11/11 A2998 RMK AO2 SLP154 P0001 60007 T01110106 10111 20089 50002 $,KSBN,2018-03-27T17:54:00Z,41.7,-86.32,11.1,10.6,240,9,,2.0,29.97933,1015.4,,,TRUE,TRUE,,,,,-RA BR,OVC,400,,,,,,,LIFR,0.2,11.1,8.9,,,0.01,,0.07,,,,METAR,237.0
KRST 271754Z 31011KT 8SM OVC008 01/01 A3006 RMK AO2 SLP193 T00110006 10011 20000 51014,KRST,2018-03-27T17:54:00Z,43.9,-92.5,1.1,0.6,310,11,,8.0,30.059055,1019.3,,,TRUE,,,,,,,OVC,800,,,,,,,IFR,1.4,1.1,0.0,,,,,,,,,METAR,403.0
KROC 271754Z 17013G22KT 8SM -RA BKN049 OVC070 03/01 A3016 RMK AO2 PRESFR SLP221 P0010 60012 T00330006 10067 20033 58031,KROC,2018-03-27T17:54:00Z,43.12,-77.68,3.3,0.6,170,13,22,8.0,30.159449,1022.1,,,TRUE,,,,,,-RA,BKN,4900,OVC,7000,,,,,VFR,-3.1,6.7,3.3,,,0.1,,0.12,,,,METAR,178.0
KROA 271754Z 13007KT 10SM OVC013 04/02 A3041 RMK AO2 SLP304 60009 T00440017 10044 20006 58031,KROA,2018-03-27T17:54:00Z,37.32,-79.97,4.4,1.7,130,7,,10.0,30.410433,1030.4,,,TRUE,,,,,,,OVC,1300,,,,,,,MVFR,-3.1,4.4,0.6,,,,,0.09,,,,METAR,362.0
KRKS 271754Z AUTO 24016KT 10SM CLR 01/M08 A3015 RMK AO2 SLP235 T00111083 10011 21067 58002,KRKS,2018-03-27T17:54:00Z,41.6,-109.07,1.1,-8.3,240,16,,10.0,30.15059,1023.5,,TRUE,TRUE,,,,,,,CLR,,,,,,,,VFR,-0.2,1.1,-6.7,,,,,,,,,METAR,2060.0
KRIC 271754Z 00000KT 10SM FEW030 OVC048 07/00 A3046 RMK AO2 RAB02E27 SLP320 P0000 60000 T00720000 10078 20006 58027,KRIC,2018-03-27T17:54:00Z,37.52,-77.32,7.2,0.0,0,0,,10.0,30.46063,1032.0,,,TRUE,,,,,,,FEW,3000,OVC,4800,,,,,VFR,-2.7,7.8,0.6,,,0.005,,0.005,,,,METAR,50.0
KRDG 271754Z VRB06KT 10SM CLR 07/M06 A3044 RMK AO2 SLP314 T00671056 10072 21006 57033,KRDG,2018-03-27T17:54:00Z,40.37,-75.97,6.7,-5.6,0,6,,10.0,30.43996,1031.4,,,TRUE,,,,,,,CLR,,,,,,,,VFR,-3.3,7.2,-0.6,,,,,,,,,METAR,109.0
KRBL 271754Z AUTO 36018KT 10SM CLR 19/02 A3030 RMK AO2 SLP257 T01940022 10194 20089 58001,KRBL,2018-03-27T17:54:00Z,40.15,-122.25,19.4,2.2,360,18,,10.0,30.301182,1025.7,,TRUE,TRUE,,,,,,,CLR,,,,,,,,VFR,-0.1,19.4,8.9,,,,,,,,,SPECI,104.0
KPTW 271754Z AUTO VRB05KT 10SM CLR 06/M08 A3046 RMK AO2 SLP313 T00611083 10067 21028 58035,KPTW,2018-03-27T17:54:00Z,40.23,-75.55,6.1,-8.3,0,5,,10.0,30.46063,1031.3,,TRUE,TRUE,,,,,,,CLR,,,,,,,,VFR,-3.5,6.7,-2.8,,,,,,,,,METAR,92.0
KDSV 271754Z AUTO 14014KT 7SM -RA BKN070 OVC085 03/M01 A3017 RMK AO2 PRESFR SLP231 P0003 60006 T00331006 10061 20033 58035,KDSV,2018-03-27T17:54:00Z,42.57,-77.72,3.3,-0.6,140,14,,7.0,30.171259,1023.1,,TRUE,TRUE,,,,,,-RA,BKN,7000,OVC,8500,,,,,VFR,-3.5,6.1,3.3,,,0.03,,0.06,,,,METAR,198.0
KECG 271754Z 03003KT 10SM OVC065 11/03 A3045 RMK AO2 SLP311 T01060033 10111 20039 56028,KECG,2018-03-27T17:54:00Z,36.27,-76.18,10.6,3.3,30,3,,10.0,30.448818,1031.1,,,TRUE,,,,,,,OVC,6500,,,,,,,VFR,-2.8,11.1,3.9,,,,,,,,,METAR,11.0
KDYL 271754Z AUTO 15007KT 10SM CLR 06/M07 A3045 RMK AO2 SLP317 T00561072 10061 21022 58031,KDYL,2018-03-27T17:54:00Z,40.33,-75.12,5.6,-7.2,150,7,,10.0,30.448818,1031.7,,TRUE,TRUE,,,,,,,CLR,,,,,,,,VFR,-3.1,6.1,-2.2,,,,,,,,,METAR,117.0
KVTA 271754Z AUTO 19010KT 10SM OVC014 10/07 A3010 RMK AO2 SLP193 60013 T01000072 10100 20056 55003,KVTA,2018-03-27T17:54:00Z,40.02,-82.47,10.0,7.2,190,10,,10.0,30.100393,1019.3,,TRUE,TRUE,,,,,,,OVC,1400,,,,,,,MVFR,-0.3,10.0,5.6,,,,,0.13,,,,METAR,268.0
KVSF 271754Z AUTO 14005KT 10SM CLR 07/M12 A3043 RMK AO2 SLP312 T00671117 10067 21061 56041,KVSF,2018-03-27T17:54:00Z,43.35,-72.52,6.7,-11.7,140,5,,10.0,30.431103,1031.2,,TRUE,TRUE,,,,,,,CLR,,,,,,,,VFR,-4.1,6.7,-6.1,,,,,,,,,METAR,175.0
KWAL 271754Z 08005KT 10SM CLR 08/00 A3047 RMK AO2 SLP314 T00780000 10083 20011 58029,KWAL,2018-03-27T17:54:00Z,37.93,-75.47,7.8,0.0,80,5,,10.0,30.469488,1031.4,,,TRUE,,,,,,,CLR,,,,,,,,VFR,-2.9,8.3,1.1,,,,,,,,,METAR,14.0
KPHL 271754Z 21005KT 10SM OVC160 07/M07 A3047 RMK AO2 SLP317 T00671067 10072 20011 58032 $,KPHL,2018-03-27T17:54:00Z,39.87,-75.23,6.7,-6.7,210,5,,10.0,30.469488,1031.7,,,TRUE,TRUE,,,,,,OVC,16000,,,,,,,VFR,-3.2,7.2,1.1,,,,,,,,,SPECI,18.0
KPHF 271754Z 07007KT 10SM FEW026 OVC060 08/02 A3047 RMK AO2 SLP317 T00780022 10089 20033 58026,KPHF,2018-03-27T17:54:00Z,37.13,-76.5,7.8,2.2,70,7,,10.0,30.469488,1031.7,,,TRUE,,,,,,,FEW,2600,OVC,6000,,,,,VFR,-2.6,8.9,3.3,,,,,,,,,METAR,12.0
KORH 271754Z VRB05KT 10SM CLR 07/M10 A3043 RMK AO2 SLP317 T00721100 10072 21006 56029,KORH,2018-03-27T17:54:00Z,42.27,-71.87,7.2,-10.0,0,5,,10.0,30.431103,1031.7,,,TRUE,,,,,,,CLR,,,,,,,,VFR,-2.9,7.2,-0.6,,,,,,,,,METAR,304.0
KOLS 271754Z AUTO 03008KT 10SM FEW080 16/M08 A3002 RMK AO2 SLP130 T01561078 10156 20011 50004,KOLS,2018-03-27T17:54:00Z,31.42,-110.85,15.6,-7.8,30,8,,10.0,30.02067,1013.0,,TRUE,TRUE,,,,,,,FEW,8000,,,,,,,VFR,0.4,15.6,1.1,,,,,,,,,METAR,1184.0
KFWA 271754Z 22016KT 1 1/4SM -RA BR OVC008 12/12 A3000 RMK AO2 SLP162 P0002 60027 T01220117 10122 20094 58001,KFWA,2018-03-27T17:54:00Z,40.98,-85.18,12.2,11.7,220,16,,1.25,30.0,1016.2,,,TRUE,,,,,,-RA BR,OVC,800,,,,,,,IFR,-0.1,12.2,9.4,,,0.02,,0.27,,,,METAR,248.0
KFIG 271754Z AUTO 14006KT 10SM -RA OVC011 01/00 A3026 RMK AO2 SLP262 P0002 60010 T00110000 10022 20006 58033,KFIG,2018-03-27T17:54:00Z,41.05,-78.42,1.1,0.0,140,6,,10.0,30.259842,1026.2,,TRUE,TRUE,,,,,,-RA,OVC,1100,,,,,,,MVFR,-3.3,2.2,0.6,,,0.02,,0.1,,,,METAR,462.0
KEWN 271754Z 36008KT 10SM BKN055 OVC070 12/04 A3044 RMK AO2 SLP307 T01170039 10122 20022 58024,KEWN,2018-03-27T17:54:00Z,35.07,-77.05,11.7,3.9,360,8,,10.0,30.43996,1030.7,,,TRUE,,,,,,,BKN,5500,OVC,7000,,,,,VFR,-2.4,12.2,2.2,,,,,,,,,METAR,3.0
KPSF 271754Z AUTO 10SM CLR 07/M14 A3038 RMK AO2 PRESFR SLP296 T00671139 10067 21044 58029,KPSF,2018-03-27T17:54:00Z,42.43,-73.28,6.7,-13.9,,,,10.0,30.380905,1029.6,,TRUE,TRUE,,,,,,,CLR,,,,,,,,VFR,-2.9,6.7,-4.4,,,,,,,,,METAR,355.0
KPNE 271754Z 14004KT 10SM CLR 08/M04 A3048 RMK AO2 SLP322 T00781044 10078 20011 58030,KPNE,2018-03-27T17:54:00Z,40.08,-75.02,7.8,-4.4,140,4,,10.0,30.481298,1032.2,,,TRUE,,,,,,,CLR,,,,,,,,VFR,-3.0,7.8,1.1,,,,,,,,,METAR,28.0
K1V4 271754Z AUTO 08/M13 A3038 RMK AO1 SLP297 T00831128 10083 21061 56040,K1V4,2018-03-27T17:54:00Z,44.42,-72.02,8.3,-12.8,,,,,30.380905,1029.7,,TRUE,TRUE,,,,,,,,,,,,,,,,-4.0,8.3,-6.1,,,,,,,,,SPECI,210.0
KMRY 271754Z 30004KT 10SM CLR 16/04 A3026 RMK AO2 SLP259 T01610039 10161 20050 51010,KMRY,2018-03-27T17:54:00Z,36.58,-121.85,16.1,3.9,300,4,,10.0,30.259842,1025.9,,,TRUE,,,,,,,CLR,,,,,,,,VFR,1.0,16.1,5.0,,,,,,,,,SPECI,66.0
KEUG 271754Z 22004KT 10SM FEW030 BKN050 OVC060 09/05 A3050 RMK AO2 SLP332 T00890050 10089 20039 50003,KEUG,2018-03-27T17:54:00Z,44.13,-123.22,8.9,5.0,220,4,,10.0,30.499016,1033.2,,,TRUE,,,,,,,FEW,3000,BKN,5000,OVC,6000,,,VFR,0.3,8.9,3.9,,,,,,,,,METAR,114.0
KEVV 271754Z 18007G17KT 3SM R22/6000VP6000FT RA BR OVC018 14/13 A3008 RMK AO2 RAE06B42 SLP184 P0001 60001 T01390128 10144 20122 58013,KEVV,2018-03-27T17:54:00Z,38.05,-87.52,13.9,12.8,180,7,17,3.0,30.079725,1018.4,,,TRUE,,,,,,RA BR,OVC,1800,,,,,,,MVFR,-1.3,14.4,12.2,,,0.01,,0.01,,,,METAR,117.0
PGUM 271754Z 09012KT 10SM FEW025 27/23 A2979 RMK AO2 SLP078 T02670228 10272 20267 55007,PGUM,2018-03-27T17:54:00Z,13.48,144.8,26.7,22.8,90,12,,10.0,29.790354,1007.8,,,TRUE,,,,,,,FEW,2500,,,,,,,VFR,-0.7,27.2,26.7,,,,,,,,,SPECI,91.0
KDMH 271754Z AUTO 07/M02 A3046 RMK AO1 SLP316 T00671017 10067 20028 58033,KDMH,2018-03-27T17:54:00Z,39.28,-76.62,6.7,-1.7,,,,,30.46063,1031.6,,TRUE,TRUE,,,,,,,,,,,,,,,,-3.3,6.7,2.8,,,,,,,,,METAR,5.0
KNAK 271754Z AUTO 12009KT 10SM BKN090 06/01 A3047 RMK AO2 SLP318 T00560006 10061 20028 58033,KNAK,2018-03-27T17:54:00Z,38.98,-76.48,5.6,0.6,120,9,,10.0,30.469488,1031.8,,TRUE,TRUE,,,,,,,BKN,9000,,,,,,,VFR,-3.3,6.1,2.8,,,,,,,,,METAR,2.0
PAIM 271754Z 10008KT 040V140 10SM CLR M12/M23 A2974 RMK AO2A SLP109 RCRNR 52012,PAIM,2018-03-27T17:54:00Z,66.0,-153.7,-12.0,-23.0,100,8,,10.0,29.740158,1010.9,,,TRUE,,,,,,,CLR,,,,,,,,VFR,1.2,,,,,,,,,,,METAR,389.0
KMTP 271754Z AUTO VRB04KT 07/M04 A3048 RMK AO1 SLP320 T00671039 10072 20022 56026 $,KMTP,2018-03-27T17:54:00Z,41.07,-71.92,6.7,-3.9,0,4,,,30.481298,1032.0,,TRUE,TRUE,TRUE,,,,,,,,,,,,,,,-2.6,7.2,2.2,,,,,,,,,SPECI,2.0
KBKB 271754Z AUTO VRB04KT 10SM FEW030 SCT050 SCT065 26/18 A3006 RMK AO2 RAB04E11 SLP205 P0000 60000 T02560183 10272 20217 58009,KBKB,2018-03-27T17:54:00Z,31.0,-92.92,25.6,18.3,0,4,,10.0,30.059055,1020.5,,TRUE,TRUE,,,,,,,FEW,3000,SCT,5000,SCT,6500,,,VFR,-0.9,27.2,21.7,,,0.005,,,,,,SPECI,94.0
K12N 271754Z AUTO 00000KT 06/M07 A3044 RMK AO1 SLP317 T00561067 10056 21028 58033,K12N,2018-03-27T17:54:00Z,41.02,-74.73,5.6,-6.7,0,0,,,30.43996,1031.7,,TRUE,TRUE,,,,,,,,,,,,,,,,-3.3,5.6,-2.8,,,,,,,,,METAR,177.0
KBTV 271754Z 22011KT 10SM BKN130 07/M08 A3036 RMK AO2 SLP283 4/002 T00721078 10078 20000 58039,KBTV,2018-03-27T17:54:00Z,44.47,-73.15,7.2,-7.8,220,11,,10.0,30.360237,1028.3,,,TRUE,,,,,,,BKN,13000,,,,,,,VFR,-3.9,7.8,0.0,,,,,,,2.0,,METAR,105.0
KLYH 271754Z 18005KT 10SM OVC010 03/01 A3042 RMK AO2 RAB1655E05 SLP308 P0000 60006 T00330011 10033 20006 58030,KLYH,2018-03-27T17:54:00Z,37.32,-79.2,3.3,1.1,180,5,,10.0,30.41929,1030.8,,,TRUE,,,,,,,OVC,1000,,,,,,,MVFR,-3.0,3.3,0.6,,,0.005,,0.06,,,,METAR,295.0
KLWT 271754Z AUTO 23017KT 10SM CLR 07/M02 A2984 RMK AO2 SLP118 T00721022 10072 21006 58026,KLWT,2018-03-27T17:54:00Z,47.03,-109.47,7.2,-2.2,230,17,,10.0,29.840551,1011.8,,TRUE,TRUE,,,,,,,CLR,,,,,,,,VFR,-2.6,7.2,-0.6,,,,,,,,,METAR,1270.0
KLWM 271754Z 09007KT 10SM CLR 07/M11 A3048 RMK AO2 SLP323 T00721111 10078 21022 58032,KLWM,2018-03-27T17:54:00Z,42.72,-71.13,7.2,-11.1,90,7,,10.0,30.481298,1032.3,,,TRUE,,,,,,,CLR,,,,,,,,VFR,-3.2,7.8,-2.2,,,,,,,,,METAR,54.0
KLEX 271754Z 20015G25KT 10SM OVC024 16/10 A3015 RMK AO2 PK WND 19028/1713 SLP206 T01560100 10156 20111 56015,KLEX,2018-03-27T17:54:00Z,38.03,-84.6,15.6,10.0,200,15,25,10.0,30.15059,1020.6,,,TRUE,,,,,,,OVC,2400,,,,,,,MVFR,-1.5,15.6,11.1,,,,,,,,,METAR,300.0
KLBT 271754Z AUTO 03007KT 10SM OVC036 08/04 A3044 RMK AO2 SLP308 T00830039 10083 20044 56023,KLBT,2018-03-27T17:54:00Z,34.6,-79.07,8.3,3.9,30,7,,10.0,30.43996,1030.8,,TRUE,TRUE,,,,,,,OVC,3600,,,,,,,VFR,-2.3,8.3,4.4,,,,,,,,,METAR,37.0
KBWI 271754Z 15003KT 10SM -RA FEW031 BKN085 OVC140 07/M03 A3045 RMK AO2 RAB50 SLP311 P0000 60000 T00671028 10072 21006 58034,KBWI,2018-03-27T17:54:00Z,39.17,-76.68,6.7,-2.8,150,3,,10.0,30.448818,1031.1,,,TRUE,,,,,,-RA,FEW,3100,BKN,8500,OVC,14000,,,VFR,-3.4,7.2,-0.6,,,0.005,,0.005,,,,METAR,59.0
KBUY 271754Z AUTO 00000KT 10SM OVC035 08/01 A3044 RMK AO2 SLP308 60000 T00830011 10083 20039 58023,KBUY,2018-03-27T17:54:00Z,36.05,-79.47,8.3,1.1,0,0,,10.0,30.43996,1030.8,,TRUE,TRUE,,,,,,,OVC,3500,,,,,,,VFR,-2.3,8.3,3.9,,,,,0.005,,,,METAR,180.0
KDDH 271754Z AUTO 15005KT 10SM CLR 08/M13 A3039 RMK AO2 SLP296 T00781128 10078 21028 58029,KDDH,2018-03-27T17:54:00Z,42.9,-73.25,7.8,-12.8,150,5,,10.0,30.389763,1029.6,,TRUE,TRUE,,,,,,,CLR,,,,,,,,VFR,-2.9,7.8,-2.8,,,,,,,,,METAR,244.0
KCRW 271754Z 16006KT 10SM OVC034 14/07 A3016 RMK AO2 SLP211 60000 T01390072 10139 20061 58031,KCRW,2018-03-27T17:54:00Z,38.38,-81.58,13.9,7.2,160,6,,10.0,30.159449,1021.1,,,TRUE,,,,,,,OVC,3400,,,,,,,VFR,-3.1,13.9,6.1,,,,,0.005,,,,METAR,309.0
KMVL 271754Z AUTO 20009KT 10SM CLR 07/M12 A3037 RMK AO2 SLP295 T00671117 10072 21083 56041,KMVL,2018-03-27T17:54:00Z,44.53,-72.62,6.7,-11.7,200,9,,10.0,30.369095,1029.5,,TRUE,TRUE,,,,,,,CLR,,,,,,,,VFR,-4.1,7.2,-8.3,,,,,,,,,METAR,234.0
KMEM 271754Z 19019G24KT 10SM FEW025 SCT080 BKN220 21/14 A3011 RMK AO2 PK WND 21029/1708 SLP194 T02110139 10211 20139 58005,KMEM,2018-03-27T17:54:00Z,35.07,-89.98,21.1,13.9,190,19,24,10.0,30.109253,1019.4,,,TRUE,,,,,,,FEW,2500,SCT,8000,BKN,22000,,,VFR,-0.5,21.1,13.9,,,,,,,,,METAR,86.0
KLNK 271754Z 06005KT 10SM FEW028 09/02 A3017 RMK AO2 SLP223 T00940017 10100 20017 50002,KLNK,2018-03-27T17:54:00Z,40.85,-96.77,9.4,1.7,60,5,,10.0,30.171259,1022.3,,,TRUE,,,,,,,FEW,2800,,,,,,,VFR,0.2,10.0,1.7,,,,,,,,,METAR,364.0
KMFI 271754Z AUTO 29015KT 10SM OVC014 03/00 A2997 RMK AO2 SLP162 T00280000 10028 20017 51019 TSNO,KMFI,2018-03-27T17:54:00Z,44.63,-90.18,2.8,0.0,290,15,,10.0,29.970472,1016.2,,TRUE,TRUE,,,TRUE,,,,OVC,1400,,,,,,,MVFR,1.9,2.8,1.7,,,,,,,,,METAR,389.0
KCGI 271753Z 19009KT 9SM -RA OVC017 16/13 A3003 RMK AO2 RAB19E30B46 SLP167 P0000 60001 T01560128 10156 20144 58015,KCGI,2018-03-27T17:53:00Z,37.23,-89.58,15.6,12.8,190,9,,9.0,30.029528,1016.7,,,TRUE,,,,,,-RA,OVC,1700,,,,,,,MVFR,-1.5,15.6,14.4,,,0.005,,0.01,,,,METAR,102.0
KCLM 271753Z AUTO 30007KT 270V340 9SM -RA OVC050 10/09 A3025 RMK AO2 SLP246 P0000 60012 T01000089 10100 20067 52013,KCLM,2018-03-27T17:53:00Z,48.12,-123.5,10.0,8.9,300,7,,9.0,30.250984,1024.6,,TRUE,TRUE,,,,,,-RA,OVC,5000,,,,,,,VFR,1.3,10.0,6.7,,,0.005,,0.12,,,,METAR,85.0
KCLL 271753Z 16013G22KT 10SM BKN035 BKN044 26/18 A2999 RMK AO2 SLP151 60000 T02610183 10267 20211 58009,KCLL,2018-03-27T17:53:00Z,30.58,-96.37,26.1,18.3,160,13,22,10.0,29.991142,1015.1,,,TRUE,,,,,,,BKN,3500,BKN,4400,,,,,VFR,-0.9,26.7,21.1,,,,,0.005,,,,METAR,96.0
KCHO 271753Z 20006KT 8SM -RA BKN005 OVC012 03/02 A3044 RMK AO2 CIG 004V009 SLP311 P0005 60018 T00330017 10033 20011 58029,KCHO,2018-03-27T17:53:00Z,38.13,-78.45,3.3,1.7,200,6,,8.0,30.43996,1031.1,,,TRUE,,,,,,-RA,BKN,500,OVC,1200,,,,,IFR,-2.9,3.3,1.1,,,0.05,,0.18,,,,METAR,192.0
KCHA 271753Z 20009KT 10SM BKN025 OVC030 13/06 A3033 RMK AO2 SLP270 T01280061 10128 20083 58017 $,KCHA,2018-03-27T17:53:00Z,35.03,-85.2,12.8,6.1,200,9,,10.0,30.33071,1027.0,,,TRUE,TRUE,,,,,,BKN,2500,OVC,3000,,,,,MVFR,-1.7,12.8,8.3,,,,,,,,,METAR,210.0
KUNV 271753Z COR 17006KT 5SM -RA SCT020 BKN025 OVC038 02/M01 A3031,KUNV,2018-03-27T17:53:00Z,40.85,-77.83,2.0,-1.0,170,6,,5.0,30.31004,,TRUE,,,,,,,,-RA,SCT,2000,BKN,2500,OVC,3800,,,MVFR,,,,,,,,,,,,METAR,378.0
KFNT 271753Z 20007KT 10SM OVC008 09/08 A2992 RMK AO2 SLP135 60007 T00940083 10094 20050 56015,KFNT,2018-03-27T17:53:00Z,42.97,-83.75,9.4,8.3,200,7,,10.0,29.920275,1013.5,,,TRUE,,,,,,,OVC,800,,,,,,,IFR,-1.5,9.4,5.0,,,,,0.07,,,,METAR,233.0
KFNB 271753Z AUTO 36010KT 10SM OVC018 06/02 A3015 RMK AO2 SLP216 T00560017 10056 20033 50002,KFNB,2018-03-27T17:53:00Z,40.07,-95.58,5.6,1.7,360,10,,10.0,30.15059,1021.6,,TRUE,TRUE,,,,,,,OVC,1800,,,,,,,MVFR,0.2,5.6,3.3,,,,,,,,,METAR,300.0
KFMY 271753Z 11016G24KT 10SM FEW050 28/12 A3020 RMK AO2 PK WND 07026/1655 SLP230 T02830122 10283 20178 58015,KFMY,2018-03-27T17:53:00Z,26.58,-81.87,28.3,12.2,110,16,24,10.0,30.200787,1023.0,,,TRUE,,,,,,,FEW,5000,,,,,,,VFR,-1.5,28.3,17.8,,,,,,,,,METAR,4.0
KFMN 271753Z 00000KT 10SM FEW055 SCT075 SCT090 05/M11 A3001 RMK AO2 SLP160 T00501111 10050 21028 53010,KFMN,2018-03-27T17:53:00Z,36.75,-108.23,5.0,-11.1,0,0,,10.0,30.008858,1016.0,,,TRUE,,,,,,,FEW,5500,SCT,7500,SCT,9000,,,VFR,1.0,5.0,-2.8,,,,,,,,,METAR,1685.0
KFLO 271753Z 02005KT 10SM BKN023 BKN034 OVC060 09/04 A3044 RMK AO2 SLP306 60000 T00940039 10094 20061 58017,KFLO,2018-03-27T17:53:00Z,34.18,-79.73,9.4,3.9,20,5,,10.0,30.43996,1030.6,,,TRUE,,,,,,,BKN,2300,BKN,3400,OVC,6000,,,MVFR,-1.7,9.4,6.1,,,,,0.005,,,,METAR,44.0
KFLL 271753Z 08018G24KT 10SM FEW042 24/14 A3023 RMK AO2 PK WND 10027/1703 SLP234 T02440139 10244 20211 58014 $,KFLL,2018-03-27T17:53:00Z,26.07,-80.15,24.4,13.9,80,18,24,10.0,30.230314,1023.4,,,TRUE,TRUE,,,,,,FEW,4200,,,,,,,VFR,-1.4,24.4,21.1,,,,,,,,,METAR,3.0
KFLD 271753Z AUTO 28012KT 10SM BKN017 OVC023 06/02 A2994 RMK AO2 SLP144 60000 T00610022 10067 20050 50007,KFLD,2018-03-27T17:53:00Z,43.77,-88.48,6.1,2.2,280,12,,10.0,29.940945,1014.4,,TRUE,TRUE,,,,,,,BKN,1700,OVC,2300,,,,,MVFR,0.7,6.7,5.0,,,,,0.005,,,,METAR,240.0
KFHR 271753Z AUTO 18007KT 10SM SCT017 OVC070 09/07 A3023 RMK AO2 SLP238 60000 T00890067 10089 20072 50004,KFHR,2018-03-27T17:53:00Z,48.52,-123.03,8.9,6.7,180,7,,10.0,30.230314,1023.8,,TRUE,TRUE,,,,,,,SCT,1700,OVC,7000,,,,,VFR,0.4,8.9,7.2,,,,,0.005,,,,METAR,32.0
KFFT 271753Z AUTO 21015G29KT 10SM OVC023 15/09 A3012 RMK AO2 PK WND 21029/1746 SLP198 T01500094 10156 20117 58014,KFFT,2018-03-27T17:53:00Z,38.18,-84.9,15.0,9.4,210,15,29,10.0,30.121063,1019.8,,TRUE,TRUE,,,,,,,OVC,2300,,,,,,,MVFR,-1.4,15.6,11.7,,,,,,,,,METAR,236.0
KFFC 271753Z AUTO 11007KT 10SM OVC016 12/07 A3036 RMK AO2 SLP283 T01220072 10122 20100 58019,KFFC,2018-03-27T17:53:00Z,33.35,-84.57,12.2,7.2,110,7,,10.0,30.360237,1028.3,,TRUE,TRUE,,,,,,,OVC,1600,,,,,,,MVFR,-1.9,12.2,10.0,,,,,,,,,METAR,262.0
KNIP 271753Z 12014KT 10SM SCT040 BKN050 22/13 A3033 RMK AO2 SLP265 T02220128 10233 20161 56012 $,KNIP,2018-03-27T17:53:00Z,30.22,-81.67,22.2,12.8,120,14,,10.0,30.33071,1026.5,,,TRUE,TRUE,,,,,,SCT,4000,BKN,5000,,,,,VFR,-1.2,23.3,16.1,,,,,,,,,SPECI,7.0
KFPR 271753Z 10015G20KT 10SM SCT044 23/13 A3027 RMK AO2 SLP250 T02330128 10244 20206 58013,KFPR,2018-03-27T17:53:00Z,27.5,-80.38,23.3,12.8,100,15,20,10.0,30.268702,1025.0,,,TRUE,,,,,,,SCT,4400,,,,,,,VFR,-1.3,24.4,20.6,,,,,,,,,METAR,13.0
KFOK 271753Z VRB06KT 10SM CLR 07/M03 A3049 RMK AO2 SLP324 T00671028 10078 20006 58022,KFOK,2018-03-27T17:53:00Z,40.85,-72.62,6.7,-2.8,0,6,,10.0,30.490158,1032.4,,,TRUE,,,,,,,CLR,,,,,,,,VFR,-2.2,7.8,0.6,,,,,,,,,METAR,33.0
KFOE 271753Z 35009KT 10SM OVC019 07/02 A3015 RMK AO2 SLP214 T00670022 10067 20050 51010,KFOE,2018-03-27T17:53:00Z,38.93,-95.65,6.7,2.2,350,9,,10.0,30.15059,1021.4,,,TRUE,,,,,,,OVC,1900,,,,,,,MVFR,1.0,6.7,5.0,,,,,,,,,METAR,320.0
KFSM 271753Z 00000KT 4SM RA BR BKN007 OVC012 18/17 A3000 RMK AO2 SLP156 P0003 60112 T01780172 10200 20172 53015,KFSM,2018-03-27T17:53:00Z,35.33,-94.37,17.8,17.2,0,0,,4.0,30.0,1015.6,,,TRUE,,,,,,RA BR,BKN,700,OVC,1200,,,,,IFR,1.5,20.0,17.2,,,0.03,,1.12,,,,METAR,140.0
KFRG 271753Z 17006KT 10SM CLR 06/M04 A3046 RMK AO2 PRESFR SLP316 T00561039 10067 20000 58031,KFRG,2018-03-27T17:53:00Z,40.73,-73.42,5.6,-3.9,170,6,,10.0,30.46063,1031.6,,,TRUE,,,,,,,CLR,,,,,,,,VFR,-3.1,6.7,0.0,,,,,,,,,METAR,21.0
KFST 271753Z AUTO 14018KT 10SM CLR 17/11 A2996 RMK AO2 PK WND 13026/1732 SLP109 60001 T01720106 10172 20139 58000,KFST,2018-03-27T17:53:00Z,30.92,-102.92,17.2,10.6,140,18,,10.0,29.958662,1010.9,,TRUE,TRUE,,,,,,,CLR,,,,,,,,VFR,0.0,17.2,13.9,,,,,0.01,,,,METAR,918.0
KFWN 271753Z AUTO 14008KT 10SM CLR 07/M07 A3044 RMK AO2 SLP311 T00671067 10072 21039 57033,KFWN,2018-03-27T17:53:00Z,41.2,-74.63,6.7,-6.7,140,8,,10.0,30.43996,1031.1,,TRUE,TRUE,,,,,,,CLR,,,,,,,,VFR,-3.3,7.2,-3.9,,,,,,,,,METAR,133.0
KFUL 271753Z 00000KT 10SM CLR 21/M01 A3013 RMK AO2 SLP200 T02061006 10206 20083 50002,KFUL,2018-03-27T17:53:00Z,33.87,-117.98,20.6,-0.6,0,0,,10.0,30.129921,1020.0,,,TRUE,,,,,,,CLR,,,,,,,,VFR,0.2,20.6,8.3,,,,,,,,,METAR,35.0
KFTY 271753Z 10006KT 10SM OVC015 11/07 A3036 RMK AO2 SLP282 T01060067 10106 20089 58019,KFTY,2018-03-27T17:53:00Z,33.78,-84.52,10.6,6.7,100,6,,10.0,30.360237,1028.2,,,TRUE,,,,,,,OVC,1500,,,,,,,MVFR,-1.9,10.6,8.9,,,,,,,,,METAR,263.0
KFXE 271753Z 07019G28KT 10SM FEW042 25/11 A3023 RMK AO2 PK WND 08028/1745 SLP240 T02500111 10256 20211 58013,KFXE,2018-03-27T17:53:00Z,26.2,-80.18,25.0,11.1,70,19,28,10.0,30.230314,1024.0,,,TRUE,,,,,,,FEW,4200,,,,,,,VFR,-1.3,25.6,21.1,,,,,,,,,METAR,6.0
KPOF 271753Z AUTO 19010KT 10SM OVC015 17/14 A3002 RMK AO2 RAE23 SLP164 P0001 60003 T01670144 10167 20150 55012,KPOF,2018-03-27T17:53:00Z,36.77,-90.32,16.7,14.4,190,10,,10.0,30.02067,1016.4,,TRUE,TRUE,,,,,,,OVC,1500,,,,,,,MVFR,-1.2,16.7,15.0,,,0.01,,0.03,,,,METAR,99.0
KPNS 271753Z 12013KT 10SM OVC009 20/16 A3025 RMK AO2 SLP247 T02000161 10200 20133 55002,KPNS,2018-03-27T17:53:00Z,30.48,-87.18,20.0,16.1,120,13,,10.0,30.250984,1024.7,,,TRUE,,,,,,,OVC,900,,,,,,,IFR,-0.2,20.0,13.3,,,,,,,,,METAR,38.0
KPNC 271753Z AUTO 36015KT 10SM OVC014 07/04 A3012 RMK AO2 RAE11 SLP199 P0000 60010 T00720044 10078 20067 50014,KPNC,2018-03-27T17:53:00Z,36.73,-97.1,7.2,4.4,360,15,,10.0,30.121063,1019.9,,TRUE,TRUE,,,,,,,OVC,1400,,,,,,,MVFR,1.4,7.8,6.7,,,0.005,,0.1,,,,METAR,308.0
KPMP 271753Z 07017G25KT 10SM FEW041 24/12 A3024 RMK AO2 PK WND 07027/1741 SLP242 T02390122 10239 20217 58013,KPMP,2018-03-27T17:53:00Z,26.25,-80.12,23.9,12.2,70,17,25,10.0,30.239174,1024.2,,,TRUE,,,,,,,FEW,4100,,,,,,,VFR,-1.3,23.9,21.7,,,,,,,,,METAR,6.0
PAPB 271753Z AUTO 25019KT 10SM FEW035 OVC043 01/M04 A2979 RMK AO2 PK WND 26027/1724 SLP074 60000 T00111039 10017 20006 53031 TSNO,PAPB,2018-03-27T17:53:00Z,56.58,-169.67,1.1,-3.9,250,19,,10.0,29.790354,1007.4,,TRUE,TRUE,,,TRUE,,,,FEW,3500,OVC,4300,,,,,VFR,3.1,1.7,0.6,,,,,0.005,,,,METAR,35.0
PADQ 271753Z 00000KT 10SM CLR 02/M01 A2981 RMK AO2 SLP095 T00221006 10022 21022 53020,PADQ,2018-03-27T17:53:00Z,57.75,-152.5,2.2,-0.6,0,0,,10.0,29.811024,1009.5,,,TRUE,,,,,,,CLR,,,,,,,,VFR,2.0,2.2,-2.2,,,,,,,,,METAR,34.0
PABI 271753Z 13013KT 10SM CLR M11/M21 A2977 RMK AO2 SLP120 T11061211 11106 21189 51022,PABI,2018-03-27T17:53:00Z,64.0,-145.72,-10.6,-21.1,130,13,,10.0,29.769686,1012.0,,,TRUE,,,,,,,CLR,,,,,,,,VFR,2.2,-10.6,-18.9,,,,,,,,,METAR,386.0
PABE 271753Z 12008KT 10SM SCT037 BKN046 OVC055 01/M03 A2949 RMK AO2 SLP988 60000 T00061028 10006 21006 53011,PABE,2018-03-27T17:53:00Z,60.78,-161.83,0.6,-2.8,120,8,,10.0,29.489174,998.8,,,TRUE,,,,,,,SCT,3700,BKN,4600,OVC,5500,,,VFR,1.1,0.6,-0.6,,,,,0.005,,,,METAR,41.0
PAAQ 271753Z 00000KT 10SM BKN100 BKN200 M05/M13 A2980 RMK AO2 SLP097 T10501133 11050 21094 53028,PAAQ,2018-03-27T17:53:00Z,61.6,-149.08,-5.0,-13.3,0,0,,10.0,29.799213,1009.7,,,TRUE,,,,,,,BKN,10000,BKN,20000,,,,,VFR,2.8,-5.0,-9.4,,,,,,,,,METAR,73.0
KZZV 271753Z AUTO 19009KT 10SM OVC019 09/06 A3012 RMK AO2 SLP202 60014 T00940061 10094 20056 56024,KZZV,2018-03-27T17:53:00Z,39.95,-81.9,9.4,6.1,190,9,,10.0,30.121063,1020.2,,TRUE,TRUE,,,,,,,OVC,1900,,,,,,,MVFR,-2.4,9.4,5.6,,,,,0.14,,,,METAR,268.0
KYKM 271753Z 27009G20KT 230V300 10SM CLR 17/03 A3013 RMK AO2 SLP204 T01720028 10178 20017 58023,KYKM,2018-03-27T17:53:00Z,46.57,-120.53,17.2,2.8,270,9,20,10.0,30.129921,1020.4,,,TRUE,,,,,,,CLR,,,,,,,,VFR,-2.3,17.8,1.7,,,,,,,,,METAR,324.0
KYIP 271753Z 22012KT 6SM -RA BR OVC008 12/09 A2996 RMK AO2 CIG 006V012 SLP144 P0000 60025 T01170094 10117 20056 56013,KYIP,2018-03-27T17:53:00Z,42.23,-83.53,11.7,9.4,220,12,,6.0,29.958662,1014.4,,,TRUE,,,,,,-RA BR,OVC,800,,,,,,,IFR,-1.3,11.7,5.6,,,0.005,,0.25,,,,METAR,215.0
KXNA 271753Z 02009KT 4SM -RA BR OVC005 13/13 A3002 RMK AO2 SLP160 P0004 60188 T01330128 10150 20128 58001,KXNA,2018-03-27T17:53:00Z,36.28,-94.3,13.3,12.8,20,9,,4.0,30.02067,1016.0,,,TRUE,,,,,,-RA BR,OVC,500,,,,,,,IFR,-0.1,15.0,12.8,,,0.04,,1.88,,,,METAR,392.0
KWVI 271753Z AUTO VRB03KT 10SM CLR 15/07 A3026 RMK AO2 SLP246 T01500072 10150 20056 50007 TSNO,KWVI,2018-03-27T17:53:00Z,36.93,-121.78,15.0,7.2,0,3,,10.0,30.259842,1024.6,,TRUE,TRUE,,,TRUE,,,,CLR,,,,,,,,VFR,0.7,15.0,5.6,,,,,,,,,METAR,43.0
KWST 271753Z AUTO 25010KT 10SM CLR 08/M01 A3046 RMK AO2 SLP314 T00781011 10100 21006 56030,KWST,2018-03-27T17:53:00Z,41.35,-71.8,7.8,-1.1,250,10,,10.0,30.46063,1031.4,,TRUE,TRUE,,,,,,,CLR,,,,,,,,VFR,-3.0,10.0,-0.6,,,,,,,,,METAR,21.0
KWRL 271753Z AUTO 13008KT 10SM CLR 08/M10 A3004 RMK AO2 SLP183 T00781100 10078 21078 58015,KWRL,2018-03-27T17:53:00Z,43.97,-107.95,7.8,-10.0,130,8,,10.0,30.041338,1018.3,,TRUE,TRUE,,,,,,,CLR,,,,,,,,VFR,-1.5,7.8,-7.8,,,,,,,,,METAR,1271.0
KVRB 271753Z 08016G21KT 10SM SCT049 24/12 A3028 RMK AO2 SLP252 T02440122 10250 20206 58015,KVRB,2018-03-27T17:53:00Z,27.65,-80.42,24.4,12.2,80,16,21,10.0,30.280512,1025.2,,,TRUE,,,,,,,SCT,4900,,,,,,,VFR,-1.5,25.0,20.6,,,,,,,,,METAR,10.0
KVPC 271753Z AUTO 13008G15KT 10SM OVC022 13/08 A3035 RMK AO2 SLP275 T01280083 10128 20089 58021,KVPC,2018-03-27T17:53:00Z,34.13,-84.85,12.8,8.3,130,8,15,10.0,30.351377,1027.5,,TRUE,TRUE,,,,,,,OVC,2200,,,,,,,MVFR,-2.1,12.8,8.9,,,,,,,,,METAR,222.0
KVLD 271753Z VRB05KT 10SM BKN026 BKN031 21/14 A3032 RMK AO2 SLP275 T02110144 10211 20111 58015,KVLD,2018-03-27T17:53:00Z,30.78,-83.27,21.1,14.4,0,5,,10.0,30.318897,1027.5,,,TRUE,,,,,,,BKN,2600,BKN,3100,,,,,MVFR,-1.5,21.1,11.1,,,,,,,,,METAR,62.0
KVGT 271753Z 33016G23KT 10SM CLR 15/M11 A3018 RMK AO2 PK WND 33029/1703 SLP233 T01501106 10150 20094 50003,KVGT,2018-03-27T17:53:00Z,36.22,-115.2,15.0,-10.6,330,16,23,10.0,30.180119,1023.3,,,TRUE,,,,,,,CLR,,,,,,,,VFR,0.3,15.0,9.4,,,,,,,,,METAR,671.0
KVEL 271753Z AUTO VRB03KT 10SM CLR 06/M13 A3017 RMK AO2 SLP218 T00611128 10061 21067 58009,KVEL,2018-03-27T17:53:00Z,40.45,-109.52,6.1,-12.8,0,3,,10.0,30.171259,1021.8,,TRUE,TRUE,,,,,,,CLR,,,,,,,,VFR,-0.9,6.1,-6.7,,,,,,,,,METAR,1604.0
KVCB 271753Z AUTO 36021G25KT 10SM CLR 20/03 A3026 RMK AO2 SLP246 T02000033 10200 20128 51004,KVCB,2018-03-27T17:53:00Z,38.38,-121.95,20.0,3.3,360,21,25,10.0,30.259842,1024.6,,TRUE,TRUE,,,,,,,CLR,,,,,,,,VFR,0.4,20.0,12.8,,,,,,,,,METAR,33.0
KPRB 271753Z AUTO 35004KT 10SM CLR 12/05 A3025 RMK AO2 SLP242 T01220050 10122 20017 51002,KPRB,2018-03-27T17:53:00Z,35.67,-120.63,12.2,5.0,350,4,,10.0,30.250984,1024.2,,TRUE,TRUE,,,,,,,CLR,,,,,,,,VFR,0.2,12.2,1.7,,,,,,,,,METAR,245.0
KPQL 271753Z 09008KT 10SM OVC010 21/17 A3022 RMK AO2 SLP236 T02060167 10206 20156 50000,KPQL,2018-03-27T17:53:00Z,30.47,-88.53,20.6,16.7,90,8,,10.0,30.221457,1023.6,,,TRUE,,,,,,,OVC,1000,,,,,,,MVFR,0.0,20.6,15.6,,,,,,,,,METAR,6.0
KPOU 271753Z 23007KT 10SM CLR 07/M10 A3044 RMK AO2 SLP307 T00721100 10072 21028 56033,KPOU,2018-03-27T17:53:00Z,41.63,-73.88,7.2,-10.0,230,7,,10.0,30.43996,1030.7,,,TRUE,,,,,,,CLR,,,,,,,,VFR,-3.3,7.2,-2.8,,,,,,,,,METAR,46.0
KPSP 271753Z 04016G25KT 10SM CLR 22/M11 A3013 RMK AO2 PK WND 02030/1730 SLP204 T02221111 10222 20122 50003,KPSP,2018-03-27T17:53:00Z,33.82,-116.5,22.2,-11.1,40,16,25,10.0,30.129921,1020.4,,,TRUE,,,,,,,CLR,,,,,,,,VFR,0.3,22.2,12.2,,,,,,,,,METAR,135.0
KPSC 271753Z 22024G32KT 10SM CLR 12/04 A3021 RMK AO2 PK WND 23035/1725 SLP230 T01170039 10117 20078 58013,KPSC,2018-03-27T17:53:00Z,46.27,-119.12,11.7,3.9,220,24,32,10.0,30.209646,1023.0,,,TRUE,,,,,,,CLR,,,,,,,,VFR,-1.3,11.7,7.8,,,,,,,,,METAR,121.0
KPUB 271753Z 23003KT 10SM OVC080 06/M02 A3018 RMK AO2 SLP217 T00611017 10067 20017 58003,KPUB,2018-03-27T17:53:00Z,38.28,-104.5,6.1,-1.7,230,3,,10.0,30.180119,1021.7,,,TRUE,,,,,,,OVC,8000,,,,,,,VFR,-0.3,6.7,1.7,,,,,,,,,METAR,1420.0
KPTK 271753Z 20008KT 8SM -DZ OVC005 09/09 A2992 RMK AO2 DZB50 SLP137 P0000 60013 T00890089 10089 20039 56016,KPTK,2018-03-27T17:53:00Z,42.67,-83.42,8.9,8.9,200,8,,8.0,29.920275,1013.7,,,TRUE,,,,,,-DZ,OVC,500,,,,,,,IFR,-1.6,8.9,3.9,,,0.005,,0.13,,,,METAR,299.0
KPSX 271753Z AUTO 13015KT 7SM BKN016 OVC022 25/22 A2999 RMK AO2 SLP155 T02500217 10267 20222 58004,KPSX,2018-03-27T17:53:00Z,28.72,-96.25,25.0,21.7,130,15,,7.0,29.991142,1015.5,,TRUE,TRUE,,,,,,,BKN,1600,OVC,2200,,,,,MVFR,-0.4,26.7,22.2,,,,,,,,,METAR,5.0
KRAL 271753Z 02015G26KT 10SM CLR 19/M08 A3012 RMK AO2 PK WND 04030/1716 SLP190 T01941083 10194 20089 58007,KRAL,2018-03-27T17:53:00Z,33.95,-117.45,19.4,-8.3,20,15,26,10.0,30.121063,1019.0,,,TRUE,,,,,,,CLR,,,,,,,,VFR,-0.7,19.4,8.9,,,,,,,,,METAR,252.0
KRAC 271753Z AUTO 30009KT 10SM OVC012 07/05 A2996 RMK AO2 SLP151 60001 T00720050 10089 20067 50007,KRAC,2018-03-27T17:53:00Z,42.77,-87.82,7.2,5.0,300,9,,10.0,29.958662,1015.1,,TRUE,TRUE,,,,,,,OVC,1200,,,,,,,MVFR,0.7,8.9,6.7,,,,,0.01,,,,METAR,203.0
KPWA 271753Z 36013KT 7SM OVC006 08/07 A3010 RMK AO2 SLP190 60004 T00830072 10094 20083 53020,KPWA,2018-03-27T17:53:00Z,35.53,-97.65,8.3,7.2,360,13,,7.0,30.100393,1019.0,,,TRUE,,,,,,,OVC,600,,,,,,,IFR,2.0,9.4,8.3,,,,,0.04,,,,METAR,397.0
KPUW 271753Z AUTO 24017G24KT 10SM BKN032 OVC060 07/06 A3021 RMK AO2 SLP244 T00670056 10067 20028 58008,KPUW,2018-03-27T17:53:00Z,46.75,-117.12,6.7,5.6,240,17,24,10.0,30.209646,1024.4,,TRUE,TRUE,,,,,,,BKN,3200,OVC,6000,,,,,VFR,-0.8,6.7,2.8,,,,,,,,,METAR,773.0
KMIC 271753Z 26010KT 10SM OVC012 02/M01 A3006 RMK AO2 SLP189 T00221011 10022 20006 50010,KMIC,2018-03-27T17:53:00Z,45.07,-93.35,2.2,-1.1,260,10,,10.0,30.059055,1018.9,,,TRUE,,,,,,,OVC,1200,,,,,,,MVFR,1.0,2.2,0.6,,,,,,,,,METAR,265.0
KRHI 271753Z AUTO 29010G17KT 10SM BKN018 OVC024 03/M01 A2992 RMK AO2 SLP148 T00281006 10028 20011 51014,KRHI,2018-03-27T17:53:00Z,45.63,-89.48,2.8,-0.6,290,10,17,10.0,29.920275,1014.8,,TRUE,TRUE,,,,,,,BKN,1800,OVC,2400,,,,,MVFR,1.4,2.8,1.1,,,,,,,,,METAR,485.0
KRDD 271753Z 35012KT 10SM CLR 19/01 A3030 RMK AO2 SLP257 T01890011 10189 20100 50002,KRDD,2018-03-27T17:53:00Z,40.52,-122.3,18.9,1.1,350,12,,10.0,30.301182,1025.7,,,TRUE,,,,,,,CLR,,,,,,,,VFR,0.2,18.9,10.0,,,,,,,,,METAR,155.0
KRBG 271753Z AUTO 00000KT 10SM OVC012 07/04 A3052 RMK AO2 SLP338 T00720044 10072 20022 53003,KRBG,2018-03-27T17:53:00Z,43.23,-123.35,7.2,4.4,0,0,,10.0,30.519686,1033.8,,TRUE,TRUE,,,,,,,OVC,1200,,,,,,,MVFR,0.3,7.2,2.2,,,,,,,,,METAR,154.0
KRKP 271753Z AUTO 12013KT 4SM HZ BKN015 BKN033 25/21 A2995 RMK AO2 SLP145 T02500211 10256 20222 50001,KRKP,2018-03-27T17:53:00Z,28.08,-97.05,25.0,21.1,120,13,,4.0,29.949802,1014.5,,TRUE,TRUE,,,,,,HZ,BKN,1500,BKN,3300,,,,,MVFR,0.1,25.6,22.2,,,,,,,,,METAR,6.0
KRIW 271753Z AUTO 13005KT 10SM CLR 01/M09 A3007 RMK AO2 SLP204 T00111094 10011 21072 58010,KRIW,2018-03-27T17:53:00Z,43.07,-108.47,1.1,-9.4,130,5,,10.0,30.070866,1020.4,,TRUE,TRUE,,,,,,,CLR,,,,,,,,VFR,-1.0,1.1,-7.2,,,,,,,,,METAR,1697.0
KRIL 271753Z AUTO 00000KT 10SM CLR 07/M07 A3010 RMK AO2 SLP187 T00671072 10067 21039 58011,KRIL,2018-03-27T17:53:00Z,39.53,-107.73,6.7,-7.2,0,0,,10.0,30.100393,1018.7,,TRUE,TRUE,,,,,,,CLR,,,,,,,,VFR,-1.1,6.7,-3.9,,,,,,,,,METAR,1678.0
KHSV 271753Z COR 17012G19KT 10SM OVC021 14/11 A3027 RMK AO2 SLP256 T01440106 10144 20094 58019,KHSV,2018-03-27T17:53:00Z,34.65,-86.78,14.4,10.6,170,12,19,10.0,30.268702,1025.6,TRUE,,TRUE,,,,,,,OVC,2100,,,,,,,MVFR,-1.9,14.4,9.4,,,,,,,,,METAR,191.0
KHSI 271753Z AUTO 01009KT 10SM CLR 08/00 A3017 RMK AO2 SLP227 T00830000 10089 20011 50000,KHSI,2018-03-27T17:53:00Z,40.6,-98.43,8.3,0.0,10,9,,10.0,30.171259,1022.7,,TRUE,TRUE,,,,,,,CLR,,,,,,,,VFR,0.0,8.9,1.1,,,,,,,,,METAR,591.0
KRME 271753Z 13011G19KT 10SM FEW120 05/M06 A3034 RMK AO2 SLP276 T00501061 10050 20000 56037,KRME,2018-03-27T17:53:00Z,43.22,-75.4,5.0,-6.1,130,11,19,10.0,30.339567,1027.6,,,TRUE,,,,,,,FEW,12000,,,,,,,VFR,-3.7,5.0,0.0,,,,,,,,,METAR,154.0
KHVR 271753Z AUTO 22022KT 10SM CLR 04/M01 A2974 RMK AO2 PK WND 22029/1715 SLP090 T00391011 10039 21006 58027,KHVR,2018-03-27T17:53:00Z,48.55,-109.77,3.9,-1.1,220,22,,10.0,29.740158,1009.0,,TRUE,TRUE,,,,,,,CLR,,,,,,,,VFR,-2.7,3.9,-0.6,,,,,,,,,METAR,787.0
KHVN 271753Z 22006KT 10SM CLR 06/M04 A3047 RMK AO2 SLP316 T00611044 10067 21006 58025,KHVN,2018-03-27T17:53:00Z,41.27,-72.87,6.1,-4.4,220,6,,10.0,30.469488,1031.6,,,TRUE,,,,,,,CLR,,,,,,,,VFR,-2.5,6.7,-0.6,,,,,,,,,METAR,4.0
KHUL 271753Z AUTO 07006KT 10SM CLR 06/M12 A3047 RMK AO2 SLP328 T00611122 10067 21111 56043,KHUL,2018-03-27T17:53:00Z,46.12,-67.8,6.1,-12.2,70,6,,10.0,30.469488,1032.8,,TRUE,TRUE,,,,,,,CLR,,,,,,,,VFR,-4.3,6.7,-11.1,,,,,,,,,METAR,150.0
KIAH 271753Z 15013G23KT 10SM SCT028 BKN045 BKN060 BKN250 28/19 A3002 RMK AO2 SLP164 60000 T02780189 10278 20228 58015,KIAH,2018-03-27T17:53:00Z,30.0,-95.37,27.8,18.9,150,13,23,10.0,30.02067,1016.4,,,TRUE,,,,,,,SCT,2800,BKN,4500,BKN,6000,BKN,25000,VFR,-1.5,27.8,22.8,,,,,0.005,,,,METAR,36.0
KIAG 271753Z 17014KT 10SM OVC025 05/01 A3006 RMK AO2 RAE40 PRESFR SLP189 P0000 60008 T00500006 10067 20044 58037,KIAG,2018-03-27T17:53:00Z,43.12,-78.93,5.0,0.6,170,14,,10.0,30.059055,1018.9,,,TRUE,,,,,,,OVC,2500,,,,,,,MVFR,-3.7,6.7,4.4,,,0.005,,0.08,,,,METAR,182.0
KHYR 271753Z AUTO VRB03KT 10SM OVC011 01/M02 A3000 RMK AO2 SLP172 6//// T00111017 10011 20006,KHYR,2018-03-27T17:53:00Z,46.02,-91.45,1.1,-1.7,0,3,,10.0,30.0,1017.2,,TRUE,TRUE,,,,,,,OVC,1100,,,,,,,MVFR,,1.1,0.6,,,,,,,,,METAR,370.0
KHWO 271753Z 07020G27KT 10SM FEW044 26/12 A3025 RMK AO2 PK WND 06029/1728 SLP242 T02560117 10261 20217 58013 $,KHWO,2018-03-27T17:53:00Z,26.0,-80.23,25.6,11.7,70,20,27,10.0,30.250984,1024.2,,,TRUE,TRUE,,,,,,FEW,4400,,,,,,,VFR,-1.3,26.1,21.7,,,,,,,,,METAR,2.0
PAWD 271753Z AUTO 02012G18KT 10SM CLR 02/M08 A2977 RMK AO2 SLP080 T00171078 10017 21006 51024 TSNO,PAWD,2018-03-27T17:53:00Z,60.12,-149.42,1.7,-7.8,20,12,18,10.0,29.769686,1008.0,,TRUE,TRUE,,,TRUE,,,,CLR,,,,,,,,VFR,2.4,1.7,-0.6,,,,,,,,,METAR,23.0
PAVL 271753Z AUTO 08014KT 10SM CLR M14/M21 A2972 RMK AO2 SLP066 6//// T11441206 11122 21167 51010 TSNO PNO $,PAVL,2018-03-27T17:53:00Z,67.73,-164.55,-14.4,-20.6,80,14,,10.0,29.719488,1006.6,,TRUE,TRUE,TRUE,,TRUE,,,,CLR,,,,,,,,VFR,1.0,-12.2,-16.7,,,,,,,,,METAR,3.0
PATO 271753Z AUTO 00000KT 10SM CLR M03/M09 A2981 RMK AO2 SLP095 T10331089 11033 21061 51030 TSNO,PATO,2018-03-27T17:53:00Z,60.78,-148.85,-3.3,-8.9,0,0,,10.0,29.811024,1009.5,,TRUE,TRUE,,,TRUE,,,,CLR,,,,,,,,VFR,3.0,-3.3,-6.1,,,,,,,,,METAR,31.0
KBPI 271753Z AUTO 35010G18KT 10SM CLR 04/M11 A3013 RMK AO2 SLP215 T00391106 10039 21111 58005,KBPI,2018-03-27T17:53:00Z,42.58,-110.1,3.9,-10.6,350,10,18,10.0,30.129921,1021.5,,TRUE,TRUE,,,,,,,CLR,,,,,,,,VFR,-0.5,3.9,-11.1,,,,,,,,,METAR,2117.0
KBOI 271753Z 31008KT 10SM CLR 09/M01 A3032 RMK AO2 SLP276 T00941006 10094 21006 58002,KBOI,2018-03-27T17:53:00Z,43.57,-116.23,9.4,-0.6,310,8,,10.0,30.318897,1027.6,,,TRUE,,,,,,,CLR,,,,,,,,VFR,-0.2,9.4,-0.6,,,,,,,,,METAR,875.0
KBNO 271753Z AUTO 17007KT 10SM CLR 06/M01 A3034 RMK AO2 SLP288 T00561011 10061 21044 50001,KBNO,2018-03-27T17:53:00Z,43.6,-118.95,5.6,-1.1,170,7,,10.0,30.339567,1028.8,,TRUE,TRUE,,,,,,,CLR,,,,,,,,VFR,0.1,6.1,-4.4,,,,,,,,,METAR,1264.0
KBNA 271753Z 18014KT 10SM FEW027 SCT200 18/09 A3021 RMK AO2 SLP226 T01780094 10178 20106 56016,KBNA,2018-03-27T17:53:00Z,36.12,-86.68,17.8,9.4,180,14,,10.0,30.209646,1022.6,,,TRUE,,,,,,,FEW,2700,SCT,20000,,,,,VFR,-1.6,17.8,10.6,,,,,,,,,METAR,210.0
KBMQ 271753Z AUTO 16007KT 9SM BKN032 OVC060 24/17 A3000 RMK AO2 SLP143 T02390167 10239 20211 50002 PWINO $,KBMQ,2018-03-27T17:53:00Z,30.73,-98.23,23.9,16.7,160,7,,9.0,30.0,1014.3,,TRUE,TRUE,TRUE,,,,TRUE,,BKN,3200,OVC,6000,,,,,VFR,0.2,23.9,21.1,,,,,,,,,METAR,389.0
KBLI 271753Z 16015G22KT 10SM OVC018 09/07 A3022 RMK AO2 PK WND 15026/1705 RAE17 SLP242 P0001 60025 T00940072 10094 20083 53006,KBLI,2018-03-27T17:53:00Z,48.8,-122.53,9.4,7.2,160,15,22,10.0,30.221457,1024.2,,,TRUE,,,,,,,OVC,1800,,,,,,,MVFR,0.6,9.4,8.3,,,0.01,,0.25,,,,METAR,50.0
KBKV 271753Z 11011G18KT 070V140 10SM FEW055 27/12 A3025 RMK AO2 SLP243 T02720122 10272 20156 58017,KBKV,2018-03-27T17:53:00Z,28.47,-82.45,27.2,12.2,110,11,18,10.0,30.250984,1024.3,,,TRUE,,,,,,,FEW,5500,,,,,,,VFR,-1.7,27.2,15.6,,,,,,,,,METAR,20.0
KBRL 271753Z AUTO 32007G15KT 10SM OVC016 06/02 A3008 RMK AO2 SLP190 T00610022 10067 20033 57004,KBRL,2018-03-27T17:53:00Z,40.77,-91.13,6.1,2.2,320,7,15,10.0,30.079725,1019.0,,TRUE,TRUE,,,,,,,OVC,1600,,,,,,,MVFR,-0.4,6.7,3.3,,,,,,,,,METAR,211.0
KBRD 271753Z AUTO 24010KT 10SM CLR 03/M02 A3000 RMK AO2 SLP173 T00331022 10039 21006 50000,KBRD,2018-03-27T17:53:00Z,46.4,-94.13,3.3,-2.2,240,10,,10.0,30.0,1017.3,,TRUE,TRUE,,,,,,,CLR,,,,,,,,VFR,0.0,3.9,-0.6,,,,,,,,,METAR,372.0
KGAG 271753Z AUTO 04014KT BKN023 OVC031 08/02 A3015 RMK AO2 SLP209 T00830017 10083 20050 51008,KGAG,2018-03-27T17:53:00Z,36.3,-99.77,8.3,1.7,40,14,,,30.15059,1020.9,,TRUE,TRUE,,,,,,,BKN,2300,OVC,3100,,,,,,0.8,8.3,5.0,,,,,,,,,METAR,668.0
KIML 271753Z AUTO 06004KT 10SM CLR 10/M06 A3016 RMK AO2 SLP227 T01001061 10100 21017 58011,KIML,2018-03-27T17:53:00Z,40.52,-101.62,10.0,-6.1,60,4,,10.0,30.159449,1022.7,,TRUE,TRUE,,,,,,,CLR,,,,,,,,VFR,-1.1,10.0,-1.7,,,,,,,,,METAR,998.0
KIDA 271753Z 21014KT 10SM SCT075 04/M06 A3024 RMK AO2 SLP258 T00391056 10044 21039 58005,KIDA,2018-03-27T17:53:00Z,43.52,-112.07,3.9,-5.6,210,14,,10.0,30.239174,1025.8,,,TRUE,,,,,,,SCT,7500,,,,,,,VFR,-0.5,4.4,-3.9,,,,,,,,,METAR,1453.0
KICR 271753Z AUTO 26007KT 230V300 10SM CLR 12/M07 A3009 RMK AO2 SLP198 T01221067 10128 21011 58013,KICR,2018-03-27T17:53:00Z,43.38,-99.85,12.2,-6.7,260,7,,10.0,30.088583,1019.8,,TRUE,TRUE,,,,,,,CLR,,,,,,,,VFR,-1.3,12.8,-1.1,,,,,,,,,METAR,621.0
KIPL 271753Z AUTO 34017G21KT 10SM CLR 21/M08 A3009 RMK AO2 PK WND 35026/1742 SLP188 T02111083 10217 20078 51009,KIPL,2018-03-27T17:53:00Z,32.83,-115.58,21.1,-8.3,340,17,21,10.0,30.088583,1018.8,,TRUE,TRUE,,,,,,,CLR,,,,,,,,VFR,0.9,21.7,7.8,,,,,,,,,METAR,-17.0
KINK 271753Z AUTO 16018G26KT 10SM CLR 21/08 A2991 RMK AO2 PK WND 15026/1751 SLP094 60000 T02110083 10217 20167 50000,KINK,2018-03-27T17:53:00Z,31.78,-103.2,21.1,8.3,160,18,26,10.0,29.911417,1009.4,,TRUE,TRUE,,,,,,,CLR,,,,,,,,VFR,0.0,21.7,16.7,,,,,0.005,,,,METAR,855.0
KITR 271753Z AUTO VRB05KT 10SM CLR 08/M04 A3016 RMK AO2 SLP210 T00781039 10083 21006 58003,KITR,2018-03-27T17:53:00Z,39.23,-102.28,7.8,-3.9,0,5,,10.0,30.159449,1021.0,,TRUE,TRUE,,,,,,,CLR,,,,,,,,VFR,-0.3,8.3,-0.6,,,,,,,,,METAR,1279.0
KIWI 271753Z AUTO VRB03KT 10SM CLR 08/M13 A3046 RMK AO2 SLP316 T00831128 10089 21044 58040,KIWI,2018-03-27T17:53:00Z,43.97,-69.72,8.3,-12.8,0,3,,10.0,30.46063,1031.6,,TRUE,TRUE,,,,,,,CLR,,,,,,,,VFR,-4.0,8.9,-4.4,,,,,,,,,METAR,20.0
KJBR 271753Z AUTO 18020G26KT 10SM BKN023 OVC036 19/16 A3004 RMK AO2 PK WND 19030/1735 SLP171 T01940161 10194 20156 58011,KJBR,2018-03-27T17:53:00Z,35.83,-90.65,19.4,16.1,180,20,26,10.0,30.041338,1017.1,,TRUE,TRUE,,,,,,,BKN,2300,OVC,3600,,,,,MVFR,-1.1,19.4,15.6,,,,,,,,,METAR,79.0
KBRO 271753Z 15017G27KT 10SM FEW028 FEW060 31/22 A2990 RMK AO2 PK WND 17030/1728 SLP123 T03060217 10317 20244 58002,KBRO,2018-03-27T17:53:00Z,25.92,-97.42,30.6,21.7,150,17,27,10.0,29.899607,1012.3,,,TRUE,,,,,,,FEW,2800,FEW,6000,,,,,VFR,-0.2,31.7,24.4,,,,,,,,,METAR,7.0
KSEA 271753Z 20021G29KT 10SM FEW012 OVC020 09/06 A3028 RMK AO2 PK WND 19029/1753 SLP260 60002 T00940061 10094 20072 55006 $,KSEA,2018-03-27T17:53:00Z,47.45,-122.32,9.4,6.1,200,21,29,10.0,30.280512,1026.0,,,TRUE,TRUE,,,,,,FEW,1200,OVC,2000,,,,,MVFR,-0.6,9.4,7.2,,,,,,,,,SPECI,136.0
KELY 271753Z AUTO 35013KT 10SM CLR 03/M08 A3025 RMK AO2 SLP248 T00331078 10039 21067 50002,KELY,2018-03-27T17:53:00Z,39.3,-114.85,3.3,-7.8,350,13,,10.0,30.250984,1024.8,,TRUE,TRUE,,,,,,,CLR,,,,,,,,VFR,0.2,3.9,-6.7,,,,,,,,,METAR,1906.0
KBTR 271753Z 14010KT 10SM BKN030 BKN055 25/17 A3014 RMK AO2 SLP206 T02500167 10261 20200 58001,KBTR,2018-03-27T17:53:00Z,30.53,-91.15,25.0,16.7,140,10,,10.0,30.138779,1020.6,,,TRUE,,,,,,,BKN,3000,BKN,5500,,,,,MVFR,-0.1,26.1,20.0,,,,,,,,,METAR,21.0
KBTM 271753Z AUTO 23013KT 10SM BKN037 OVC047 04/M05 A3006 RMK AO2 SLP198 T00391050 10039 21006 57013,KBTM,2018-03-27T17:53:00Z,45.97,-112.5,3.9,-5.0,230,13,,10.0,30.059055,1019.8,,TRUE,TRUE,,,,,,,BKN,3700,OVC,4700,,,,,VFR,-1.3,3.9,-0.6,,,,,,,,,METAR,1688.0
KSLN 271753Z 03013KT 10SM OVC024 08/02 A3017 RMK AO2 SLP222 T00830022 10083 20039 58001,KSLN,2018-03-27T17:53:00Z,38.78,-97.65,8.3,2.2,30,13,,10.0,30.171259,1022.2,,,TRUE,,,,,,,OVC,2400,,,,,,,MVFR,-0.1,8.3,3.9,,,,,,,,,METAR,385.0
KSJC 271753Z 28008KT 10SM FEW065 SCT080 SCT110 18/03 A3024 RMK AO2 SLP241 T01830028 10183 20067 50001 $,KSJC,2018-03-27T17:53:00Z,37.37,-121.92,18.3,2.8,280,8,,10.0,30.239174,1024.1,,,TRUE,TRUE,,,,,,FEW,6500,SCT,8000,SCT,11000,,,VFR,0.1,18.3,6.7,,,,,,,,,METAR,24.0
KSIY 271753Z AUTO 22004KT 10SM CLR 08/00 A3044 RMK AO2 SLP325 T00780000 10078 21050 58002,KSIY,2018-03-27T17:53:00Z,41.77,-122.47,7.8,0.0,220,4,,10.0,30.43996,1032.5,,TRUE,TRUE,,,,,,,CLR,,,,,,,,VFR,-0.2,7.8,-5.0,,,,,,,,,METAR,807.0
KHSA 271753Z 11014G20KT 7SM BKN011 22/19 A3019,KHSA,2018-03-27T17:53:00Z,30.37,-89.45,22.0,19.0,110,14,20,7.0,30.188976,,,,,,,,,,,BKN,1100,,,,,,,MVFR,,,,,,,,,,,,METAR,7.0
KBVY 271753Z 04008KT 10SM CLR 06/M06 A3047 RMK AO2 SLP314 T00561061 10061 21022 58031,KBVY,2018-03-27T17:53:00Z,42.58,-70.92,5.6,-6.1,40,8,,10.0,30.469488,1031.4,,,TRUE,,,,,,,CLR,,,,,,,,VFR,-3.1,6.1,-2.2,,,,,,,,,METAR,28.0
KBUR 271753Z 05014G18KT 10SM CLR 21/M06 A3014 RMK AO2 SLP196 T02061061 10206 20100 51003,KBUR,2018-03-27T17:53:00Z,34.2,-118.37,20.6,-6.1,50,14,18,10.0,30.138779,1019.6,,,TRUE,,,,,,,CLR,,,,,,,,VFR,0.3,20.6,10.0,,,,,,,,,METAR,217.0
KBWG 271753Z AUTO 19021G29KT 10SM FEW027 19/11 A3016 RMK AO2 PK WND 20029/1752 SLP210 T01890111 10189 20117 56022,KBWG,2018-03-27T17:53:00Z,36.97,-86.42,18.9,11.1,190,21,29,10.0,30.159449,1021.0,,TRUE,TRUE,,,,,,,FEW,2700,,,,,,,VFR,-2.2,18.9,11.7,,,,,,,,,METAR,168.0
KBYI 271753Z AUTO 28012G21KT 10SM CLR 07/M04 A3026 RMK AO2 SLP254 T00671044 10067 21039 58006,KBYI,2018-03-27T17:53:00Z,42.55,-113.77,6.7,-4.4,280,12,21,10.0,30.259842,1025.4,,TRUE,TRUE,,,,,,,CLR,,,,,,,,VFR,-0.6,6.7,-3.9,,,,,,,,,METAR,1264.0
KBYG 271753Z AUTO 13009KT 10SM CLR 03/M04 A2997 RMK AO2 SLP168 T00281039 10033 21033 58019,KBYG,2018-03-27T17:53:00Z,44.38,-106.72,2.8,-3.9,130,9,,10.0,29.970472,1016.8,,TRUE,TRUE,,,,,,,CLR,,,,,,,,VFR,-1.9,3.3,-3.3,,,,,,,,,METAR,1497.0
KPDX 271753Z 19008KT 10SM -RA FEW018 OVC036 09/07 A3046 RMK AO2 SLP314 P0001 60003 T00890072 10089 20083 51008,KPDX,2018-03-27T17:53:00Z,45.6,-122.62,8.9,7.2,190,8,,10.0,30.46063,1031.4,,,TRUE,,,,,,-RA,FEW,1800,OVC,3600,,,,,VFR,0.8,8.9,8.3,,,0.01,,,,,,SPECI,7.0
KP68 271753Z AUTO 07005KT 03/M07 A3032 RMK AO1 SLP270 T00281067 10033 21067 51004,KP68,2018-03-27T17:53:00Z,39.6,-116.0,2.8,-6.7,70,5,,,30.318897,1027.0,,TRUE,TRUE,,,,,,,,,,,,,,,,0.4,3.3,-6.7,,,,,,,,,METAR,1809.0
KNUI 271753Z AUTO 23004KT 8SM CLR 07/M01 A3047 RMK AO2 SLP316 T00721011 10078 21006 58029 $,KNUI,2018-03-27T17:53:00Z,38.15,-76.43,7.2,-1.1,230,4,,8.0,30.469488,1031.6,,TRUE,TRUE,TRUE,,,,,,CLR,,,,,,,,VFR,-2.9,7.8,-0.6,,,,,,,,,SPECI,7.0
KSNA 271753Z COR 01008KT 10SM CLR 19/06 A3013 RMK AO2 SLP201 T01890061 10206 20094 50002 PNO $,KSNA,2018-03-27T17:53:00Z,33.67,-117.87,18.9,6.1,10,8,,10.0,30.129921,1020.1,TRUE,,TRUE,TRUE,,,,,,CLR,,,,,,,,VFR,0.2,20.6,9.4,,,,,,,,,SPECI,16.0
KSMQ 271753Z AUTO 13005KT 10SM CLR 06/M07 A3045 RMK AO2 SLP315 T00611072 10067 21033 58031,KSMQ,2018-03-27T17:53:00Z,40.62,-74.67,6.1,-7.2,130,5,,10.0,30.448818,1031.5,,TRUE,TRUE,,,,,,,CLR,,,,,,,,VFR,-3.1,6.7,-3.3,,,,,,,,,METAR,30.0
KSMF 271753Z 36009KT 10SM CLR 17/04 A3025 RMK AO2 SLP241 T01720044 10172 20072 50007,KSMF,2018-03-27T17:53:00Z,38.7,-121.6,17.2,4.4,360,9,,10.0,30.250984,1024.1,,,TRUE,,,,,,,CLR,,,,,,,,VFR,0.7,17.2,7.2,,,,,,,,,METAR,6.0
K6R6 271753Z AUTO 05008KT 16/14 A3000 RMK AO1 PRESFR SLP138 P0002 60072 T01610139 10167 20128 50002,K6R6,2018-03-27T17:53:00Z,30.05,-102.22,16.1,13.9,50,8,,,30.0,1013.8,,TRUE,TRUE,,,,,,,,,,,,,,,,0.2,16.7,12.8,,,0.02,,,,,,SPECI,701.0
PAEG 271753Z AUTO 00000KT 10SM CLR M18/M23 A2990 RMK AO2 SLP150 T11781233 11178 21294 50009 TSNO,PAEG,2018-03-27T17:53:00Z,64.78,-141.15,-17.8,-23.3,0,0,,10.0,29.899607,1015.0,,TRUE,TRUE,,,TRUE,,,,CLR,,,,,,,,VFR,0.9,-17.8,-29.4,,,,,,,,,METAR,268.0
MMZO 271753Z 24010KT 10SM SKC 27/22 A2993 RMK SLP185 5//// 9// HZY,MMZO,2018-03-27T17:53:00Z,19.13,-104.57,27.0,22.0,240,10,,10.0,29.929134,1018.5,,,,,,,,,,SKC,,,,,,,,VFR,,,,,,,,,,,,METAR,8.0
PAQT 271753Z AUTO 08022KT 6SM HZ CLR M21/M24 A2990 RMK AO2 PK WND 09027/1735 SLP125 T12111239 11211 21228 51001 TSNO,PAQT,2018-03-27T17:53:00Z,70.22,-151.0,-21.1,-23.9,80,22,,6.0,29.899607,1012.5,,TRUE,TRUE,,,TRUE,,,HZ,CLR,,,,,,,,VFR,0.1,-21.1,-22.8,,,,,,,,,METAR,12.0
PAOT 271753Z 10018KT 10SM CLR M14/M19 A2971 RMK AO2 SLP061 T11391194 11128 21144 51008,PAOT,2018-03-27T17:53:00Z,66.87,-162.58,-13.9,-19.4,100,18,,10.0,29.71063,1006.1,,,TRUE,,,,,,,CLR,,,,,,,,VFR,0.8,-12.8,-14.4,,,,,,,,,METAR,3.0
PAOR 271753Z 00000KT 10SM FEW220 M18/M24 A2981 RMK AO2 SLP154 4/007 T11831244 11183 21294 51017,PAOR,2018-03-27T17:53:00Z,62.97,-141.93,-18.3,-24.4,0,0,,10.0,29.811024,1015.4,,,TRUE,,,,,,,FEW,22000,,,,,,,VFR,1.7,-18.3,-29.4,,,,,,,7.0,,METAR,523.0
PAOM 271753Z 07006KT 10SM CLR M07/M15 A2961 RMK AO2 SLP027 T10671150 11056 21106 51014,PAOM,2018-03-27T17:53:00Z,64.5,-165.43,-6.7,-15.0,70,6,,10.0,29.610237,1002.7,,,TRUE,,,,,,,CLR,,,,,,,,VFR,1.4,-5.6,-10.6,,,,,,,,,METAR,11.0
PANT 271753Z AUTO 22007KT 180V250 10SM FEW045 OVC060 06/03 A3006 RMK AO2 SLP180 T00610028 10067 20039 51033 TSNO $,PANT,2018-03-27T17:53:00Z,55.03,-131.57,6.1,2.8,220,7,,10.0,30.059055,1018.0,,TRUE,TRUE,TRUE,,TRUE,,,,FEW,4500,OVC,6000,,,,,VFR,3.3,6.7,3.9,,,,,,,,,METAR,36.0
PANN 271753Z AUTO 07011KT 10SM CLR M08/M20 A2976 RMK AO2 SLP090 T10781200 11067 21100 51022 TSNO,PANN,2018-03-27T17:53:00Z,64.55,-149.08,-7.8,-20.0,70,11,,10.0,29.760826,1009.0,,TRUE,TRUE,,,TRUE,,,,CLR,,,,,,,,VFR,2.2,-6.7,-10.0,,,,,,,,,METAR,110.0
KSRQ 271753Z 11014G24KT 10SM FEW055 28/12 A3020 RMK AO2 PK WND 10027/1740 SLP227 T02780122 10278 20183 58013,KSRQ,2018-03-27T17:53:00Z,27.4,-82.57,27.8,12.2,110,14,24,10.0,30.200787,1022.7,,,TRUE,,,,,,,FEW,5500,,,,,,,VFR,-1.3,27.8,18.3,,,,,,,,,METAR,18.0
KSPW 271753Z AUTO 30010KT 10SM CLR 04/00 A3011 RMK AO2 SLP209 T00390000 10039 20011 51002,KSPW,2018-03-27T17:53:00Z,43.17,-95.22,3.9,0.0,300,10,,10.0,30.109253,1020.9,,TRUE,TRUE,,,,,,,CLR,,,,,,,,VFR,0.2,3.9,1.1,,,,,,,,,METAR,403.0
KSPG 271753Z 12012KT 10SM CLR 26/16 A3023 RMK AO2 SLP235 T02610156 10261 20194 58015 $,KSPG,2018-03-27T17:53:00Z,27.77,-82.63,26.1,15.6,120,12,,10.0,30.230314,1023.5,,,TRUE,TRUE,,,,,,CLR,,,,,,,,VFR,-1.5,26.1,19.4,,,,,,,,,METAR,2.0
KSPB 271753Z AUTO 15006KT 10SM OVC017 09/07 A3044 RMK AO2 RAE13 SLP308 P0000 60000 T00890067 10089 20072 51007,KSPB,2018-03-27T17:53:00Z,45.77,-122.87,8.9,6.7,150,6,,10.0,30.43996,1030.8,,TRUE,TRUE,,,,,,,OVC,1700,,,,,,,MVFR,0.7,8.9,7.2,,,0.005,,0.005,,,,METAR,14.0
KSNY 271753Z AUTO 10SM CLR 10/M11 A3013 RMK AO2 SLP205 T01001111 10100 21078 58011,KSNY,2018-03-27T17:53:00Z,41.1,-102.98,10.0,-11.1,,,,10.0,30.129921,1020.5,,TRUE,TRUE,,,,,,,CLR,,,,,,,,VFR,-1.1,10.0,-7.8,,,,,,,,,METAR,1307.0
KSNS 271753Z 00000KT 10SM CLR 15/06 A3025 RMK AO2 SLP254 T01500061 10150 20044 50007,KSNS,2018-03-27T17:53:00Z,36.67,-121.6,15.0,6.1,0,0,,10.0,30.250984,1025.4,,,TRUE,,,,,,,CLR,,,,,,,,VFR,0.7,15.0,4.4,,,,,,,,,METAR,30.0
KSSF 271753Z 14012KT 10SM FEW033 SCT041 OVC055 26/19 A2992 RMK AO2 SLP121 60000 T02610194 10261 20222 58007,KSSF,2018-03-27T17:53:00Z,29.33,-98.47,26.1,19.4,140,12,,10.0,29.920275,1012.1,,,TRUE,,,,,,,FEW,3300,SCT,4100,OVC,5500,,,VFR,-0.7,26.1,22.2,,,,,0.005,,,,METAR,176.0
KSTJ 271753Z 35007KT 10SM OVC017 06/03 A3016 RMK AO2 SLP216 T00560033 10056 20039 50004,KSTJ,2018-03-27T17:53:00Z,39.77,-94.92,5.6,3.3,350,7,,10.0,30.159449,1021.6,,,TRUE,,,,,,,OVC,1700,,,,,,,MVFR,0.4,5.6,3.9,,,,,,,,,METAR,247.0
KSTC 271753Z 29007KT 10SM CLR 04/M02 A3004 RMK AO2 SLP193 T00391017 10039 21006 50007,KSTC,2018-03-27T17:53:00Z,45.55,-94.05,3.9,-1.7,290,7,,10.0,30.041338,1019.3,,,TRUE,,,,,,,CLR,,,,,,,,VFR,0.7,3.9,-0.6,,,,,,,,,METAR,314.0
PAKV 271753Z AUTO 00000KT 10SM UP BKN043 OVC110 M16/M20 A2974 RMK AO2 UPB43 SLP077 P0000 60000 T11611200 11161 21228 51013 TSNO $,PAKV,2018-03-27T17:53:00Z,64.33,-158.75,-16.1,-20.0,0,0,,10.0,29.740158,1007.7,,TRUE,TRUE,TRUE,,TRUE,,,UP,BKN,4300,OVC,11000,,,,,VFR,1.3,-16.1,-22.8,,,0.005,,0.005,,,,METAR,61.0
PAKT 271753Z 00000KT 10SM SCT032 BKN075 07/02 A3006 RMK AO2 SLP179 HARBOR WIND 10006KT 60001 T00670017 10072 20022 51034,PAKT,2018-03-27T17:53:00Z,55.35,-131.7,6.7,1.7,0,0,,10.0,30.059055,1017.9,,,TRUE,,,,,,,SCT,3200,BKN,7500,,,,,VFR,3.4,0.6,2.2,,,,,0.01,,,,METAR,28.0
PAHO 271753Z 05005KT 10SM OVC110 02/M02 A2980 RMK AO2 SLP091 T00221022 10022 21011 51022,PAHO,2018-03-27T17:53:00Z,59.63,-151.47,2.2,-2.2,50,5,,10.0,29.799213,1009.1,,,TRUE,,,,,,,OVC,11000,,,,,,,VFR,2.2,2.2,-1.1,,,,,,,,,METAR,28.0
PAGK 271753Z AUTO 00000KT 10SM CLR M18/M23 A2983 RMK AO2 SLP155 T11781228 11178 21272 51030 TSNO,PAGK,2018-03-27T17:53:00Z,62.15,-145.45,-17.8,-22.8,0,0,,10.0,29.828741,1015.5,,TRUE,TRUE,,,TRUE,,,,CLR,,,,,,,,VFR,3.0,-17.8,-27.2,,,,,,,,,METAR,481.0
PAFA 271753Z 02003KT 10SM CLR M13/M21 A2981 RMK AO2 SLP105 T11331211 11122 21217 51021 $,PAFA,2018-03-27T17:53:00Z,64.8,-147.85,-13.3,-21.1,20,3,,10.0,29.811024,1010.5,,,TRUE,TRUE,,,,,,CLR,,,,,,,,VFR,2.1,-12.2,-21.7,,,,,,,,,METAR,132.0
PAEN 271753Z 04005KT 10SM OVC047 M04/M10 A2981 RMK AO2 SLP097 T10391100 11039 21089 52024,PAEN,2018-03-27T17:53:00Z,60.57,-151.25,-3.9,-10.0,40,5,,10.0,29.811024,1009.7,,,TRUE,,,,,,,OVC,4700,,,,,,,VFR,2.4,-3.9,-8.9,,,,,,,,,METAR,27.0
PHNL 271753Z 00000KT 10SM FEW025 FEW045 23/18 A2991 RMK AO2 SLP127 60000 T02280183 10228 20189 52017,PHNL,2018-03-27T17:53:00Z,21.33,-157.92,22.8,18.3,0,0,,10.0,29.911417,1012.7,,,TRUE,,,,,,,FEW,2500,FEW,4500,,,,,VFR,1.7,22.8,18.9,,,,,,,,,SPECI,4.0
PHJR 271753Z 05003KT 10SM FEW035 22/18 A2992 RMK AO2 SLP137 T02220183 10222 20172 51017,PHJR,2018-03-27T17:53:00Z,21.32,-158.07,22.2,18.3,50,3,,10.0,29.920275,1013.7,,,TRUE,,,,,,,FEW,3500,,,,,,,VFR,1.7,22.2,17.2,,,,,,,,,SPECI,15.0
PAWI 271753Z AUTO 11009KT 10SM CLR M24/M28 A2978 RMK AO2 SLP085 T12391278 11217 21244 TSNO $,PAWI,2018-03-27T17:53:00Z,70.62,-159.85,-23.9,-27.8,110,9,,10.0,29.778543,1008.5,,TRUE,TRUE,TRUE,,TRUE,,,,CLR,,,,,,,,VFR,,-21.7,-24.4,,,,,,,,,METAR,27.0
PHTO 271753Z COR 00000KT 10SM FEW050 24/19 A2992 RMK AO2 SLP130 T02390189 10239 20194 53020,PHTO,2018-03-27T17:53:00Z,19.72,-155.05,23.9,18.9,0,0,,10.0,29.920275,1013.0,TRUE,,TRUE,,,,,,,FEW,5000,,,,,,,VFR,2.0,23.9,19.4,,,,,,,,,SPECI,12.0
PHKO 271753Z 36003KT 10SM SCT090 25/20 A2991 RMK AO2 SLP127 T02500200 10250 20217 53018 $,PHKO,2018-03-27T17:53:00Z,19.73,-156.05,25.0,20.0,360,3,,10.0,29.911417,1012.7,,,TRUE,TRUE,,,,,,SCT,9000,,,,,,,VFR,1.8,25.0,21.7,,,,,,,,,SPECI,27.0
KSWO 271753Z 01011KT 10SM OVC012 08/06 A3012 RMK AO2 RAE35 SLP197 P0000 60005 T00780061 10089 20078 53014,KSWO,2018-03-27T17:53:00Z,36.17,-97.08,7.8,6.1,10,11,,10.0,30.121063,1019.7,,,TRUE,,,,,,,OVC,1200,,,,,,,MVFR,1.4,8.9,7.8,,,0.005,,0.05,,,,METAR,290.0
KSTS 271753Z 36009KT 10SM FEW250 19/05 A3024 RMK AO2 SLP236 T01890050 10189 20061 50001,KSTS,2018-03-27T17:53:00Z,38.5,-122.82,18.9,5.0,360,9,,10.0,30.239174,1023.6,,,TRUE,,,,,,,FEW,25000,,,,,,,VFR,0.1,18.9,6.1,,,,,,,,,METAR,39.0
KSTP 271753Z 26010KT 10SM OVC016 02/M01 A3008 RMK AO2 SLP192 T00221006 10028 20011 51011,KSTP,2018-03-27T17:53:00Z,44.93,-93.05,2.2,-0.6,260,10,,10.0,30.079725,1019.2,,,TRUE,,,,,,,OVC,1600,,,,,,,MVFR,1.1,2.8,1.1,,,,,,,,,METAR,219.0
PANC 271753Z 03005KT 10SM BKN065 M03/M12 A2980 RMK AO2 SLP094 4/014 T10331117 11033 21061 51024,PANC,2018-03-27T17:53:00Z,61.17,-150.0,-3.3,-11.7,30,5,,10.0,29.799213,1009.4,,,TRUE,,,,,,,BKN,6500,,,,,,,VFR,2.4,-3.3,-6.1,,,,,,,14.0,,METAR,38.0
KP92 271753Z AUTO 14011KT 25/19 A3011 RMK AO1 SLP194 T02500194 10250 20206 50002,KP92,2018-03-27T17:53:00Z,29.57,-91.53,25.0,19.4,140,11,,,30.109253,1019.4,,TRUE,TRUE,,,,,,,,,,,,,,,,0.2,25.0,20.6,,,,,,,,,METAR,1.0
KTCC 271753Z AUTO 05017KT 10SM OVC012 06/02 A3009 RMK AO2 SLP171 T00610017 10061 20050 50003,KTCC,2018-03-27T17:53:00Z,35.18,-103.6,6.1,1.7,50,17,,10.0,30.088583,1017.1,,TRUE,TRUE,,,,,,,OVC,1200,,,,,,,MVFR,0.3,6.1,5.0,,,,,,,,,METAR,1235.0
KTHV 271753Z AUTO 15005KT 10SM -RA OVC070 04/M01 A3042 RMK AO2 RAB16 SLP308 P0000 60000 T00391011 10044 21011 58034,KTHV,2018-03-27T17:53:00Z,39.92,-76.88,3.9,-1.1,150,5,,10.0,30.41929,1030.8,,TRUE,TRUE,,,,,,-RA,OVC,7000,,,,,,,VFR,-3.4,4.4,-1.1,,,0.005,,0.005,,,,METAR,144.0
KGLH 271753Z 17019G28KT 10SM FEW033 23/13 A3012 RMK AO2 PK WND 17029/1703 SLP206 T02280133 10233 20172 58002,KGLH,2018-03-27T17:53:00Z,33.5,-90.98,22.8,13.3,170,19,28,10.0,30.121063,1020.6,,,TRUE,,,,,,,FEW,3300,,,,,,,VFR,-0.2,23.3,17.2,,,,,,,,,METAR,45.0
KGLD 271753Z AUTO 03004KT 10SM CLR 08/M03 A3016 RMK AO2 SLP217 T00831028 10083 21017 58005,KGLD,2018-03-27T17:53:00Z,39.37,-101.7,8.3,-2.8,30,4,,10.0,30.159449,1021.7,,TRUE,TRUE,,,,,,,CLR,,,,,,,,VFR,-0.5,8.3,-1.7,,,,,,,,,METAR,1113.0
KGKJ 271753Z AUTO VRB04KT 10SM OVC006 03/03 A3008 RMK AO2 RAE43 SLP196 P0001 60037 I6000 T00280028 10028 20006 58037,KGKJ,2018-03-27T17:53:00Z,41.63,-80.22,2.8,2.8,0,4,,10.0,30.079725,1019.6,,TRUE,TRUE,,,,,,,OVC,600,,,,,,,IFR,-3.7,2.8,0.6,,,0.01,,0.37,,,,METAR,428.0
KGJT 271753Z VRB03KT 10SM CLR 08/M08 A3010 RMK AO2 SLP178 T00831083 10089 20011 58007,KGJT,2018-03-27T17:53:00Z,39.12,-108.52,8.3,-8.3,0,3,,10.0,30.100393,1017.8,,,TRUE,,,,,,,CLR,,,,,,,,VFR,-0.7,8.9,1.1,,,,,,,,,METAR,1475.0
KLOU 271753Z 20010KT 10SM OVC021 15/11 A3012 RMK AO2 SLP200 60000 T01500111 10150 20122 58012,KLOU,2018-03-27T17:53:00Z,38.22,-85.67,15.0,11.1,200,10,,10.0,30.121063,1020.0,,,TRUE,,,,,,,OVC,2100,,,,,,,MVFR,-1.2,15.0,12.2,,,,,0.005,,,,METAR,164.0
KLOZ 271753Z AUTO 22007KT 10SM OVC041 16/08 A3020 RMK AO2 SLP222 T01610078 10161 20106 58028,KLOZ,2018-03-27T17:53:00Z,37.08,-84.07,16.1,7.8,220,7,,10.0,30.200787,1022.2,,TRUE,TRUE,,,,,,,OVC,4100,,,,,,,VFR,-2.8,16.1,10.6,,,,,,,,,METAR,362.0
KLPR 271753Z AUTO 22009G17KT 10SM OVC011 08/05 A3005 RMK AO2 SLP179 60015 T00830050 10083 20044 55018,KLPR,2018-03-27T17:53:00Z,41.35,-82.18,8.3,5.0,220,9,17,10.0,30.050198,1017.9,,TRUE,TRUE,,,,,,,OVC,1100,,,,,,,MVFR,-1.8,8.3,4.4,,,,,0.15,,,,METAR,241.0
KLSE 271753Z 32010KT 8SM OVC019 05/00 A3004 RMK AO2 SLP182 T00500000 10050 20028 50013,KLSE,2018-03-27T17:53:00Z,43.88,-91.25,5.0,0.0,320,10,,8.0,30.041338,1018.2,,,TRUE,,,,,,,OVC,1900,,,,,,,MVFR,1.3,5.0,2.8,,,,,,,,,METAR,199.0
KLUK 271753Z 22010KT 10SM OVC019 13/11 A3011 RMK AO2 SLP195 60000 T01330106 10139 20106 58008,KLUK,2018-03-27T17:53:00Z,39.1,-84.42,13.3,10.6,220,10,,10.0,30.109253,1019.5,,,TRUE,,,,,,,OVC,1900,,,,,,,MVFR,-0.8,13.9,10.6,,,,,0.005,,,,METAR,155.0
KLVJ 271753Z AUTO 14014KT 7SM BKN024 BKN029 OVC037 25/21 A3004 RMK AO2 SLP172 T02500206 10261 20217 58008,KLVJ,2018-03-27T17:53:00Z,29.52,-95.25,25.0,20.6,140,14,,7.0,30.041338,1017.2,,TRUE,TRUE,,,,,,,BKN,2400,BKN,2900,OVC,3700,,,MVFR,-0.8,26.1,21.7,,,,,,,,,METAR,12.0
KLVK 271753Z VRB05KT 10SM CLR 18/03 A3025 RMK AO2 SLP244 T01780028 10178 20050 51007,KLVK,2018-03-27T17:53:00Z,37.7,-121.82,17.8,2.8,0,5,,10.0,30.250984,1024.4,,,TRUE,,,,,,,CLR,,,,,,,,VFR,0.7,17.8,5.0,,,,,,,,,METAR,117.0
KLVM 271753Z AUTO 25030G39KT 10SM BKN060 08/M06 A2999 RMK AO2 PK WND 21049/1659 SLP165 T00831061 10089 21006 56018,KLVM,2018-03-27T17:53:00Z,45.7,-110.43,8.3,-6.1,250,30,39,10.0,29.991142,1016.5,,TRUE,TRUE,,,,,,,BKN,6000,,,,,,,VFR,-1.8,8.9,-0.6,,,,,,,,,METAR,1418.0
KLWD 271753Z AUTO 35007KT 10SM OVC013 04/01 A3013 RMK AO2 SLP212 T00390011 10039 20011 50010,KLWD,2018-03-27T17:53:00Z,40.63,-93.9,3.9,1.1,350,7,,10.0,30.129921,1021.2,,TRUE,TRUE,,,,,,,OVC,1300,,,,,,,MVFR,1.0,3.9,1.1,,,,,,,,,METAR,346.0
KLXV 271753Z AUTO 19014KT 10SM OVC035 M04/M07 A3009 RMK AO2 SLP161 60002 T10441067 11044 21072 51002,KLXV,2018-03-27T17:53:00Z,39.23,-106.32,-4.4,-6.7,190,14,,10.0,30.088583,1016.1,,TRUE,TRUE,,,,,,,OVC,3500,,,,,,,VFR,0.2,-4.4,-7.2,,,,,0.02,,,,METAR,3028.0
KMAE 271753Z AUTO VRB04KT 10SM CLR 14/06 A3026 RMK AO2 SLP247 T01440061 10144 20056 51010,KMAE,2018-03-27T17:53:00Z,36.98,-120.12,14.4,6.1,0,4,,10.0,30.259842,1024.7,,TRUE,TRUE,,,,,,,CLR,,,,,,,,VFR,1.0,14.4,5.6,,,,,,,,,METAR,77.0
KMAF 271753Z 14017KT 10SM CLR 18/09 A2994 RMK AO2 PK WND 15028/1715 SLP105 60000 T01780094 10189 20144 55012,KMAF,2018-03-27T17:53:00Z,31.95,-102.2,17.8,9.4,140,17,,10.0,29.940945,1010.5,,,TRUE,,,,,,,CLR,,,,,,,,VFR,-1.2,18.9,14.4,,,,,0.005,,,,METAR,874.0
KMAI 271753Z AUTO 14008KT 10SM BKN038 23/14 A3027 RMK AO2 SLP249 T02330139 10239 20128 57016,KMAI,2018-03-27T17:53:00Z,30.83,-85.18,23.3,13.9,140,8,,10.0,30.268702,1024.9,,TRUE,TRUE,,,,,,,BKN,3800,,,,,,,VFR,-1.6,23.9,12.8,,,,,,,,,METAR,32.0
KMCB 271753Z AUTO VRB03KT 10SM SCT033 SCT042 OVC055 24/17 A3017 RMK AO2 SLP211 T02390167 10239 20189 58006,KMCB,2018-03-27T17:53:00Z,31.18,-90.47,23.9,16.7,0,3,,10.0,30.171259,1021.1,,TRUE,TRUE,,,,,,,SCT,3300,SCT,4200,OVC,5500,,,VFR,-0.6,23.9,18.9,,,,,,,,,METAR,124.0
KMCE 271753Z AUTO 13004KT 10SM CLR 13/06 A3025 RMK AO2 SLP245 T01330061 10133 20033 50012,KMCE,2018-03-27T17:53:00Z,37.28,-120.5,13.3,6.1,130,4,,10.0,30.250984,1024.5,,TRUE,TRUE,,,,,,,CLR,,,,,,,,VFR,1.2,13.3,3.3,,,,,,,,,METAR,47.0
KMCI 271753Z 01010KT 9SM OVC017 06/02 A3014 RMK AO2 SLP208 T00560022 10061 20039 56006,KMCI,2018-03-27T17:53:00Z,39.3,-94.73,5.6,2.2,10,10,,9.0,30.138779,1020.8,,,TRUE,,,,,,,OVC,1700,,,,,,,MVFR,-0.6,6.1,3.9,,,,,,,,,METAR,320.0
KMCK 271753Z AUTO VRB04KT 10SM CLR 11/M02 A3017 RMK AO2 SLP225 T01061017 10106 21011 58007,KMCK,2018-03-27T17:53:00Z,40.2,-100.58,10.6,-1.7,0,4,,10.0,30.171259,1022.5,,TRUE,TRUE,,,,,,,CLR,,,,,,,,VFR,-0.7,10.6,-1.1,,,,,,,,,METAR,782.0
KMCN 271753Z 10008KT 10SM FEW031 OVC065 17/09 A3036 RMK AO2 SLP278 T01670089 10172 20100 58020,KMCN,2018-03-27T17:53:00Z,32.68,-83.65,16.7,8.9,100,8,,10.0,30.360237,1027.8,,,TRUE,,,,,,,FEW,3100,OVC,6500,,,,,VFR,-2.0,17.2,10.0,,,,,,,,,METAR,109.0
KMCO 271753Z 11016G22KT 10SM SCT048 25/12 A3028 RMK AO2 SLP253 T02500122 10256 20167 58013,KMCO,2018-03-27T17:53:00Z,28.42,-81.33,25.0,12.2,110,16,22,10.0,30.280512,1025.3,,,TRUE,,,,,,,SCT,4800,,,,,,,VFR,-1.3,25.6,16.7,,,,,,,,,METAR,29.0
KRMG 271753Z AUTO 15009KT 10SM OVC024 14/09 A3033 RMK AO2 SLP267 T01390089 10139 20100 58022,KRMG,2018-03-27T17:53:00Z,34.35,-85.17,13.9,8.9,150,9,,10.0,30.33071,1026.7,,TRUE,TRUE,,,,,,,OVC,2400,,,,,,,MVFR,-2.2,13.9,10.0,,,,,,,,,METAR,193.0
KRNM 271753Z 30005KT 10SM CLR 17/M02 A3012 RMK AO2 SLP194 T01721022 10172 21011 50003,KRNM,2018-03-27T17:53:00Z,33.03,-116.92,17.2,-2.2,300,5,,10.0,30.121063,1019.4,,,TRUE,,,,,,,CLR,,,,,,,,VFR,0.3,17.2,-1.1,,,,,,,,,METAR,427.0
KRNT 271753Z 17010G20KT 10SM OVC024 11/M01 A3030 RMK AO2 SLP264 60000 T01061006 10106 20078 53000,KRNT,2018-03-27T17:53:00Z,47.5,-122.22,10.6,-0.6,170,10,20,10.0,30.301182,1026.4,,,TRUE,,,,,,,OVC,2400,,,,,,,MVFR,0.0,10.6,7.8,,,,,0.005,,,,METAR,21.0
KRQE 271753Z AUTO 35003KT 10SM OVC075 05/M09 A3002 RMK AO2 SLP131 T00501089 10050 21022 50006 TSNO,KRQE,2018-03-27T17:53:00Z,35.65,-109.07,5.0,-8.9,350,3,,10.0,30.02067,1013.1,,TRUE,TRUE,,,TRUE,,,,OVC,7500,,,,,,,VFR,0.6,5.0,-2.2,,,,,,,,,METAR,2055.0
KRSW 271753Z 10019G24KT 10SM FEW055 27/12 A3021 RMK AO2 PK WND 09028/1734 SLP227 T02720122 10272 20172 58016,KRSW,2018-03-27T17:53:00Z,26.53,-81.75,27.2,12.2,100,19,24,10.0,30.209646,1022.7,,,TRUE,,,,,,,FEW,5500,,,,,,,VFR,-1.6,27.2,17.2,,,,,,,,,METAR,10.0
KRTN 271753Z AUTO 08012KT 10SM OVC027 03/M04 A3013 RMK AO2 SLP186 60000 T00281039 10033 20011 50002,KRTN,2018-03-27T17:53:00Z,36.73,-104.5,2.8,-3.9,80,12,,10.0,30.129921,1018.6,,TRUE,TRUE,,,,,,,OVC,2700,,,,,,,MVFR,0.2,3.3,1.1,,,,,0.005,,,,METAR,1936.0
KRVS 271753Z 01009KT 8SM -RA OVC009 10/08 A3006 RMK AO2 SLP183 P0001 60017 T01000078 10122 20100 53010,KRVS,2018-03-27T17:53:00Z,36.05,-95.98,10.0,7.8,10,9,,8.0,30.059055,1018.3,,,TRUE,,,,,,-RA,OVC,900,,,,,,,IFR,1.0,12.2,10.0,,,0.01,,0.17,,,,METAR,200.0
KRWF 271753Z AUTO 30008KT 10SM CLR 03/M01 A3008 RMK AO2 SLP197 T00331011 10033 20000 50002,KRWF,2018-03-27T17:53:00Z,44.55,-95.08,3.3,-1.1,300,8,,10.0,30.079725,1019.7,,TRUE,TRUE,,,,,,,CLR,,,,,,,,VFR,0.2,3.3,0.0,,,,,,,,,METAR,311.0
KRWL 271753Z AUTO 24015G22KT 10SM CLR 02/M10 A3011 RMK AO2 SLP211 T00221100 10022 21067 58010,KRWL,2018-03-27T17:53:00Z,41.78,-107.2,2.2,-10.0,240,15,22,10.0,30.109253,1021.1,,TRUE,TRUE,,,,,,,CLR,,,,,,,,VFR,-1.0,2.2,-6.7,,,,,,,,,METAR,2077.0
KRXE 271753Z AUTO 20011G18KT 10SM CLR 03/M07 A3022 RMK AO2 SLP251 T00331067 10033 21028 58004,KRXE,2018-03-27T17:53:00Z,43.83,-111.8,3.3,-6.7,200,11,18,10.0,30.221457,1025.1,,TRUE,TRUE,,,,,,,CLR,,,,,,,,VFR,-0.4,3.3,-2.8,,,,,,,,,METAR,1480.0
KSAC 271753Z 35010KT 10SM CLR 16/04 A3026 RMK AO2 SLP245 T01560044 10156 20067 51007,KSAC,2018-03-27T17:53:00Z,38.5,-121.5,15.6,4.4,350,10,,10.0,30.259842,1024.5,,,TRUE,,,,,,,CLR,,,,,,,,VFR,0.7,15.6,6.7,,,,,,,,,METAR,11.0
KSAF 271753Z 12022G34KT 10SM CLR 11/M04 A2997 RMK AO2 PK WND 10036/1716 SLP100 60000 T01111039 10111 20017 50000,KSAF,2018-03-27T17:53:00Z,35.62,-106.1,11.1,-3.9,120,22,34,10.0,29.970472,1010.0,,,TRUE,,,,,,,CLR,,,,,,,,VFR,0.0,11.1,1.7,,,,,0.005,,,,METAR,1930.0
KSAV 271753Z VRB05KT 10SM OVC018 17/11 A3039 RMK AO2 SLP289 BINOVC T01670106 10172 20117 58016,KSAV,2018-03-27T17:53:00Z,32.12,-81.2,16.7,10.6,0,5,,10.0,30.389763,1028.9,,,TRUE,,,,,,,OVC,1800,,,,,,,MVFR,-1.6,17.2,11.7,,,,,,,,,METAR,14.0
KSBA 271753Z 15008KT 10SM CLR 16/05 A3018 RMK AO2 SLP220 T01560050 10172 20056 51011,KSBA,2018-03-27T17:53:00Z,34.43,-119.85,15.6,5.0,150,8,,10.0,30.180119,1022.0,,,TRUE,,,,,,,CLR,,,,,,,,VFR,1.1,17.2,5.6,,,,,,,,,METAR,3.0
KSBM 271753Z AUTO 30012KT 10SM OVC016 07/04 A2992 RMK AO2 SLP137 T00670044 10067 20039 50004 TSNO,KSBM,2018-03-27T17:53:00Z,43.78,-87.85,6.7,4.4,300,12,,10.0,29.920275,1013.7,,TRUE,TRUE,,,TRUE,,,,OVC,1600,,,,,,,MVFR,0.4,6.7,3.9,,,,,,,,,METAR,232.0
KSDL 271753Z 17005KT 10SM CLR 18/M02 A3000 RMK AO2 SLP147 T01831017 10183 20106 50007,KSDL,2018-03-27T17:53:00Z,33.62,-111.92,18.3,-1.7,170,5,,10.0,30.0,1014.7,,,TRUE,,,,,,,CLR,,,,,,,,VFR,0.7,18.3,10.6,,,,,,,,,METAR,447.0
KSDM 271753Z 32006KT 10SM CLR 18/04 A3013 RMK AO2 SLP199 T01780039 10183 20050 50004,KSDM,2018-03-27T17:53:00Z,32.58,-117.0,17.8,3.9,320,6,,10.0,30.129921,1019.9,,,TRUE,,,,,,,CLR,,,,,,,,VFR,0.4,18.3,5.0,,,,,,,,,METAR,159.0
KSEG 271753Z AUTO 16008KT 7SM -RA OVC085 04/M03 A3041 RMK AO2 RAB45 SLP301 P0000 60000 T00391028 10050 20011 58033,KSEG,2018-03-27T17:53:00Z,40.82,-76.87,3.9,-2.8,160,8,,7.0,30.410433,1030.1,,TRUE,TRUE,,,,,,-RA,OVC,8500,,,,,,,VFR,-3.3,5.0,1.1,,,0.005,,0.005,,,,METAR,134.0
KSFB 271753Z 09013G21KT 10SM FEW044 24/11 A3030 RMK AO2 PK WND 10026/1732 SLP258 T02440106 10250 20161 58012,KSFB,2018-03-27T17:53:00Z,28.77,-81.22,24.4,10.6,90,13,21,10.0,30.301182,1025.8,,,TRUE,,,,,,,FEW,4400,,,,,,,VFR,-1.2,25.0,16.1,,,,,,,,,METAR,17.0
KSFF 271753Z 19012G19KT 10SM SCT021 BKN050 07/02 A3016 RMK AO2 SLP223 T00670022 10067 20044 56007,KSFF,2018-03-27T17:53:00Z,47.68,-117.32,6.7,2.2,190,12,19,10.0,30.159449,1022.3,,,TRUE,,,,,,,SCT,2100,BKN,5000,,,,,VFR,-0.7,6.7,4.4,,,,,,,,,METAR,609.0
KSHN 271753Z AUTO 21013KT 5SM BR OVC013 11/09 A3030 RMK AO2 RAE51 SLP261 P0001 60021 T01060089 10106 20083 53003,KSHN,2018-03-27T17:53:00Z,47.23,-123.13,10.6,8.9,210,13,,5.0,30.301182,1026.1,,TRUE,TRUE,,,,,,BR,OVC,1300,,,,,,,MVFR,0.3,10.6,8.3,,,0.01,,0.21,,,,METAR,82.0
KSHR 271753Z AUTO 13011G17KT 10SM CLR 09/M09 A2995 RMK AO2 SLP159 T00941089 10094 21067 58018,KSHR,2018-03-27T17:53:00Z,44.77,-106.97,9.4,-8.9,130,11,17,10.0,29.949802,1015.9,,TRUE,TRUE,,,,,,,CLR,,,,,,,,VFR,-1.8,9.4,-6.7,,,,,,,,,METAR,1202.0
KMSL 271753Z AUTO 17011KT 10SM CLR 19/11 A3023 RMK AO2 SLP234 T01890111 10189 20100 56026,KMSL,2018-03-27T17:53:00Z,34.75,-87.6,18.9,11.1,170,11,,10.0,30.230314,1023.4,,TRUE,TRUE,,,,,,,CLR,,,,,,,,VFR,-2.6,18.9,10.0,,,,,,,,,METAR,164.0
KMSN 271753Z 30011G19KT 10SM OVC020 06/03 A2998 RMK AO2 SLP159 T00610028 10067 20039 50010,KMSN,2018-03-27T17:53:00Z,43.13,-89.35,6.1,2.8,300,11,19,10.0,29.97933,1015.9,,,TRUE,,,,,,,OVC,2000,,,,,,,MVFR,1.0,6.7,3.9,,,,,,,,,METAR,261.0
KMSS 271753Z AUTO 16010G17KT 10SM CLR 10/M10 A3026 RMK AO2 SLP251 T01001100 10100 21039 58046,KMSS,2018-03-27T17:53:00Z,44.93,-74.85,10.0,-10.0,160,10,17,10.0,30.259842,1025.1,,TRUE,TRUE,,,,,,,CLR,,,,,,,,VFR,-4.6,10.0,-3.9,,,,,,,,,METAR,66.0
KMSY 271753Z 14014G19KT 7SM SCT030 BKN055 26/20 A3016 RMK AO2 SLP216 T02610200 10261 20211 50002,KMSY,2018-03-27T17:53:00Z,30.0,-90.25,26.1,20.0,140,14,19,7.0,30.159449,1021.6,,,TRUE,,,,,,,SCT,3000,BKN,5500,,,,,VFR,0.2,26.1,21.1,,,,,,,,,METAR,5.0
KMTH 271753Z AUTO 08017G25KT 10SM SCT044 26/14 A3020 RMK AO2 PK WND 08028/1655 SLP224 T02610139 10267 20228 58008,KMTH,2018-03-27T17:53:00Z,24.73,-81.05,26.1,13.9,80,17,25,10.0,30.200787,1022.4,,TRUE,TRUE,,,,,,,SCT,4400,,,,,,,VFR,-0.8,26.7,22.8,,,,,,,,,METAR,2.0
KMTO 271753Z AUTO 21007KT 4SM -RA BR OVC003 13/13 A3000 RMK AO2 SLP159 P0000 60004 T01330128 10133 20106 58004,KMTO,2018-03-27T17:53:00Z,39.47,-88.27,13.3,12.8,210,7,,4.0,30.0,1015.9,,TRUE,TRUE,,,,,,-RA BR,OVC,300,,,,,,,LIFR,-0.4,13.3,10.6,,,0.005,,0.04,,,,METAR,214.0
KMTJ 271753Z AUTO 26005KT 10SM CLR 05/M09 A3010 RMK AO2 SLP184 T00501089 10050 21061 58013,KMTJ,2018-03-27T17:53:00Z,38.5,-107.9,5.0,-8.9,260,5,,10.0,30.100393,1018.4,,TRUE,TRUE,,,,,,,CLR,,,,,,,,VFR,-1.3,5.0,-6.1,,,,,,,,,METAR,1750.0
KMVY 271753Z 01013KT 10SM CLR 07/M03 A3041 RMK AO2 SLP299 T00721028 10083 20022 58029,KMVY,2018-03-27T17:53:00Z,41.4,-70.62,7.2,-2.8,10,13,,10.0,30.410433,1029.9,,,TRUE,,,,,,,CLR,,,,,,,,VFR,-2.9,8.3,2.2,,,,,,,,,METAR,16.0
KMWL 271753Z AUTO 14005KT 3SM -RA BR SCT009 BKN080 OVC110 17/17 A3003 RMK AO2 LTG DSNT E TSE04 SLP161 P0008 60029 T01720167 10172 20167 51018,KMWL,2018-03-27T17:53:00Z,32.78,-98.07,17.2,16.7,140,5,,3.0,30.029528,1016.1,,TRUE,TRUE,,,,,,-RA BR,SCT,900,BKN,8000,OVC,11000,,,MVFR,1.8,17.2,16.7,,,0.08,,0.29,,,,METAR,284.0
KMYF 271753Z 32007KT 10SM CLR 19/M01 A3013 RMK AO2 SLP199 T01941011 10194 20067 50001,KMYF,2018-03-27T17:53:00Z,32.82,-117.13,19.4,-1.1,320,7,,10.0,30.129921,1019.9,,,TRUE,,,,,,,CLR,,,,,,,,VFR,0.1,19.4,6.7,,,,,,,,,METAR,136.0
KMYV 271753Z AUTO 32011KT 10SM CLR 17/05 A3025 RMK AO2 SLP247 T01720050 10172 20083 51005,KMYV,2018-03-27T17:53:00Z,39.1,-121.57,17.2,5.0,320,11,,10.0,30.250984,1024.7,,TRUE,TRUE,,,,,,,CLR,,,,,,,,VFR,0.5,17.2,8.3,,,,,,,,,METAR,21.0
KNEW 271753Z 13014G21KT 6SM HZ FEW025 BKN038 OVC055 26/19 A3017 RMK AO2 SLP208 T02560189 10261 20211 50001,KNEW,2018-03-27T17:53:00Z,30.05,-90.03,25.6,18.9,130,14,21,6.0,30.171259,1020.8,,,TRUE,,,,,,HZ,FEW,2500,BKN,3800,OVC,5500,,,VFR,0.1,26.1,21.1,,,,,,,,,METAR,3.0
KOAK 271753Z 24004KT 10SM FEW200 16/05 A3026 RMK AO2 SLP248 T01610050 10161 20061 51007,KOAK,2018-03-27T17:53:00Z,37.72,-122.23,16.1,5.0,240,4,,10.0,30.259842,1024.8,,,TRUE,,,,,,,FEW,20000,,,,,,,VFR,0.7,16.1,6.1,,,,,,,,,METAR,26.0
KODO 271753Z AUTO 15012KT 10SM CLR 17/11 A2995 RMK AO2 SLP108 60008 T01670111 10189 20133 56010,KODO,2018-03-27T17:53:00Z,31.92,-102.4,16.7,11.1,150,12,,10.0,29.949802,1010.8,,TRUE,TRUE,,,,,,,CLR,,,,,,,,VFR,-1.0,18.9,13.3,,,,,0.08,,,,METAR,902.0
KODX 271753Z AUTO 29003KT 10SM CLR 10/M02 A3014 RMK AO2 SLPNO T01001017 58009,KODX,2018-03-27T17:53:00Z,41.62,-98.95,10.0,-1.7,290,3,,10.0,30.138779,,,TRUE,TRUE,,,,,,,CLR,,,,,,,,VFR,-0.9,,,,,,,,,,,METAR,631.0
KOGB 271753Z AUTO 05004KT 10SM OVC019 12/05 A3042 RMK AO2 SLP299 T01170050 10117 20083 58020,KOGB,2018-03-27T17:53:00Z,33.47,-80.85,11.7,5.0,50,4,,10.0,30.41929,1029.9,,TRUE,TRUE,,,,,,,OVC,1900,,,,,,,MVFR,-2.0,11.7,8.3,,,,,,,,,METAR,59.0
KOGD 271753Z VRB03KT 10SM CLR 06/M07 A3027 RMK AO2 SLP255 T00561072 10056 21028 51006,KOGD,2018-03-27T17:53:00Z,41.2,-112.02,5.6,-7.2,0,3,,10.0,30.268702,1025.5,,,TRUE,,,,,,,CLR,,,,,,,,VFR,0.6,5.6,-2.8,,,,,,,,,METAR,1353.0
KOJC 271753Z 01009KT 10SM SCT015 OVC100 06/02 A3012 RMK AO2 SLP202 T00560022 10056 20039 58002 $,KOJC,2018-03-27T17:53:00Z,38.85,-94.73,5.6,2.2,10,9,,10.0,30.121063,1020.2,,,TRUE,TRUE,,,,,,SCT,1500,OVC,10000,,,,,VFR,-0.2,5.6,3.9,,,,,,,,,METAR,326.0
KOLF 271753Z AUTO 24011KT 10SM CLR 08/M02 A2985 RMK AO2 SLP127 T00831022 10083 21050 58026,KOLF,2018-03-27T17:53:00Z,48.1,-105.58,8.3,-2.2,240,11,,10.0,29.84941,1012.7,,TRUE,TRUE,,,,,,,CLR,,,,,,,,VFR,-2.6,8.3,-5.0,,,,,,,,,METAR,604.0
KOMK 271753Z AUTO 17016KT 10SM SCT090 12/03 A3006 RMK AO2 SLP183 T01170028 10117 20050 50001,KOMK,2018-03-27T17:53:00Z,48.47,-119.52,11.7,2.8,170,16,,10.0,30.059055,1018.3,,TRUE,TRUE,,,,,,,SCT,9000,,,,,,,VFR,0.1,11.7,5.0,,,,,,,,,METAR,395.0
KONO 271753Z AUTO 00000KT 10SM CLR 09/00 A3035 RMK AO2 SLP289 T00940000 10100 20006 58003 TSNO,KONO,2018-03-27T17:53:00Z,44.02,-117.02,9.4,0.0,0,0,,10.0,30.351377,1028.9,,TRUE,TRUE,,,TRUE,,,,CLR,,,,,,,,VFR,-0.3,10.0,0.6,,,,,,,,,METAR,667.0
KONT 271753Z COR 05010KT 10SM CLR 19/M03 A3013 RMK AO2 SLP199 T01891028 10189 20078 53010,KONT,2018-03-27T17:53:00Z,34.05,-117.58,18.9,-2.8,50,10,,10.0,30.129921,1019.9,TRUE,,TRUE,,,,,,,CLR,,,,,,,,VFR,1.0,18.9,7.8,,,,,,,,,SPECI,274.0
KOPF 271753Z 08022G29KT 10SM SCT045 25/12 A3023 RMK AO2 PK WND 10029/1749 SLP239 T02500122 10261 20217 58013,KOPF,2018-03-27T17:53:00Z,25.92,-80.28,25.0,12.2,80,22,29,10.0,30.230314,1023.9,,,TRUE,,,,,,,SCT,4500,,,,,,,VFR,-1.3,26.1,21.7,,,,,,,,,METAR,16.0
KGNV 271753Z 12012KT 10SM BKN047 25/13 A3031 RMK AO2 SLP263 T02500128 10256 20150 58015,KGNV,2018-03-27T17:53:00Z,29.7,-82.28,25.0,12.8,120,12,,10.0,30.31004,1026.3,,,TRUE,,,,,,,BKN,4700,,,,,,,VFR,-1.5,25.6,15.0,,,,,,,,,METAR,45.0
KGMU 271753Z 19003KT 10SM OVC022 10/05 A3042 RMK AO2 SLP301 T01000050 10106 20083 56018,KGMU,2018-03-27T17:53:00Z,34.85,-82.35,10.0,5.0,190,3,,10.0,30.41929,1030.1,,,TRUE,,,,,,,OVC,2200,,,,,,,MVFR,-1.8,10.6,8.3,,,,,,,,,METAR,315.0
KGOK 271753Z AUTO 36006G14KT 7SM BKN008 OVC013 08/07 A3011 RMK AO2 RAE1658 SLP199 P0000 60004 T00780067 10089 20078 53018,KGOK,2018-03-27T17:53:00Z,35.85,-97.4,7.8,6.7,360,6,14,7.0,30.109253,1019.9,,TRUE,TRUE,,,,,,,BKN,800,OVC,1300,,,,,IFR,1.8,8.9,7.8,,,0.005,,0.04,,,,METAR,324.0
KGRB 271753Z 29015KT 10SM OVC021 07/04 A2993 RMK AO2 SLP139 T00720039 10072 20044 51007,KGRB,2018-03-27T17:53:00Z,44.48,-88.13,7.2,3.9,290,15,,10.0,29.929134,1013.9,,,TRUE,,,,,,,OVC,2100,,,,,,,MVFR,0.7,7.2,4.4,,,,,,,,,METAR,208.0
KGPT 271753Z 06007KT 5SM -RA OVC011 19/17 A3021 RMK AO2 RAB51 SLP229 P0000 60000 T01940167 10211 20183 50006,KGPT,2018-03-27T17:53:00Z,30.42,-89.08,19.4,16.7,60,7,,5.0,30.209646,1022.9,,,TRUE,,,,,,-RA,OVC,1100,,,,,,,MVFR,0.6,21.1,18.3,,,0.005,,0.005,,,,METAR,14.0
KORL 271753Z 09019G25KT 10SM SCT046 25/12 A3029 RMK AO2 RAB32E46 SLP259 P0000 60000 T02500117 10256 20172 58013,KORL,2018-03-27T17:53:00Z,28.55,-81.33,25.0,11.7,90,19,25,10.0,30.28937,1025.9,,,TRUE,,,,,,,SCT,4600,,,,,,,VFR,-1.3,25.6,17.2,,,0.005,,0.005,,,,METAR,37.0
KTLH 271753Z 11011KT 10SM BKN040 24/14 A3028 RMK AO2 SLP252 T02440139 10244 20133 58018,KTLH,2018-03-27T17:53:00Z,30.4,-84.35,24.4,13.9,110,11,,10.0,30.280512,1025.2,,,TRUE,,,,,,,BKN,4000,,,,,,,VFR,-1.8,24.4,13.3,,,,,,,,,METAR,19.0
KTMB 271753Z 09018G30KT 10SM FEW046 26/12 A3022 RMK AO2 PK WND 08032/1718 SLP231 T02560122 10256 20211 58011,KTMB,2018-03-27T17:53:00Z,25.65,-80.43,25.6,12.2,90,18,30,10.0,30.221457,1023.1,,,TRUE,,,,,,,FEW,4600,,,,,,,VFR,-1.1,25.6,21.1,,,,,,,,,METAR,2.0
KTOI 271753Z AUTO 13009KT 10SM BKN028 20/13 A3030 RMK AO2 SLP257 T02000128 10200 20100 58017,KTOI,2018-03-27T17:53:00Z,31.85,-86.02,20.0,12.8,130,9,,10.0,30.301182,1025.7,,TRUE,TRUE,,,,,,,BKN,2800,,,,,,,MVFR,-1.7,20.0,10.0,,,,,,,,,METAR,118.0
KTOP 271753Z 36010KT 10SM OVC021 07/03 A3016 RMK AO2 SLP216 T00670028 10067 20050 51009,KTOP,2018-03-27T17:53:00Z,39.07,-95.63,6.7,2.8,360,10,,10.0,30.159449,1021.6,,,TRUE,,,,,,,OVC,2100,,,,,,,MVFR,0.9,6.7,5.0,,,,,,,,,METAR,268.0
KTOR 271753Z AUTO 26009KT 10SM CLR 09/M04 A3008 RMK AO2 SLP194 I6000 T00941044 10094 21061 58018,KTOR,2018-03-27T17:53:00Z,42.07,-104.15,9.4,-4.4,260,9,,10.0,30.079725,1019.4,,TRUE,TRUE,,,,,,,CLR,,,,,,,,VFR,-1.8,9.4,-6.1,,,,,,,,,METAR,1277.0
KTPA 271753Z 11011G20KT 070V150 10SM FEW055 27/12 A3024 RMK AO2 SLP240 T02720122 10278 20178 58016,KTPA,2018-03-27T17:53:00Z,27.97,-82.53,27.2,12.2,110,11,20,10.0,30.239174,1024.0,,,TRUE,,,,,,,FEW,5500,,,,,,,VFR,-1.6,27.8,17.8,,,,,,,,,METAR,11.0
KTRI 271753Z 27004KT 10SM BKN040 BKN200 18/08 A3027 RMK AO2 SLP237 T01780083 10178 20083 58027,KTRI,2018-03-27T17:53:00Z,36.48,-82.4,17.8,8.3,270,4,,10.0,30.268702,1023.7,,,TRUE,,,,,,,BKN,4000,BKN,20000,,,,,VFR,-2.7,17.8,8.3,,,,,,,,,METAR,474.0
KTTD 271753Z 23005KT 10SM -RA BKN016 OVC040 09/07 A3046 RMK AO2 SLP315 P0002 60003 T00940072 10094 20089 51008,KTTD,2018-03-27T17:53:00Z,45.55,-122.42,9.4,7.2,230,5,,10.0,30.46063,1031.5,,,TRUE,,,,,,-RA,BKN,1600,OVC,4000,,,,,MVFR,0.8,9.4,8.9,,,0.02,,0.03,,,,METAR,14.0
KTTN 271753Z 18005KT 10SM CLR 06/M06 A3047 RMK AO2 SLP312 T00611056 10061 21011 58028,KTTN,2018-03-27T17:53:00Z,40.28,-74.82,6.1,-5.6,180,5,,10.0,30.469488,1031.2,,,TRUE,,,,,,,CLR,,,,,,,,VFR,-2.8,6.1,-1.1,,,,,,,,,METAR,59.0
KTUL 271753Z 36009KT 8SM -RA OVC009 09/09 A3006 RMK AO2 SLP178 P0001 60024 T00940089 10111 20094 53007,KTUL,2018-03-27T17:53:00Z,36.2,-95.88,9.4,8.9,360,9,,8.0,30.059055,1017.8,,,TRUE,,,,,,-RA,OVC,900,,,,,,,IFR,0.7,11.1,9.4,,,0.01,,0.24,,,,METAR,207.0
KTUS 271753Z VRB06KT 10SM CLR 17/M04 A3003 RMK AO2 SLP143 6//// T01671044 10167 20072,KTUS,2018-03-27T17:53:00Z,32.13,-110.95,16.7,-4.4,0,6,,10.0,30.029528,1014.3,,,TRUE,,,,,,,CLR,,,,,,,,VFR,,16.7,7.2,,,,,,,,,METAR,776.0
KTVC 271753Z 25008KT 3SM -DZ BR OVC007 06/05 A2986 RMK AO2 RAE50DZB50 CIG 005V012 SLP116 P0000 60001 T00610050 10078 20056 53006,KTVC,2018-03-27T17:53:00Z,44.73,-85.57,6.1,5.0,250,8,,3.0,29.861221,1011.6,,,TRUE,,,,,,-DZ BR,OVC,700,,,,,,,IFR,0.6,7.8,5.6,,,0.005,,0.01,,,,METAR,190.0
KTVL 271753Z AUTO 00000KT 10SM CLR 05/M08 A3032 RMK AO2 SLP265 T00501083 10056 21039 50004,KTVL,2018-03-27T17:53:00Z,38.9,-120.0,5.0,-8.3,0,0,,10.0,30.318897,1026.5,,TRUE,TRUE,,,,,,,CLR,,,,,,,,VFR,0.4,5.6,-3.9,,,,,,,,,METAR,1924.0
KTVR 271753Z AUTO 13017G23KT 10SM FEW070 22/17 A3016 RMK AO2 SLP217 T02220167 10222 20189 58011,KTVR,2018-03-27T17:53:00Z,32.35,-91.03,22.2,16.7,130,17,23,10.0,30.159449,1021.7,,TRUE,TRUE,,,,,,,FEW,7000,,,,,,,VFR,-1.1,22.2,18.9,,,,,,,,,METAR,26.0
KTXK 271753Z 19018G24KT 10SM SCT040 SCT055 BKN070 27/17 A3000 RMK AO2 SLP155 T02670167 10272 20200 58008,KTXK,2018-03-27T17:53:00Z,33.45,-93.98,26.7,16.7,190,18,24,10.0,30.0,1015.5,,,TRUE,,,,,,,SCT,4000,SCT,5500,BKN,7000,,,VFR,-0.8,27.2,20.0,,,,,,,,,METAR,111.0
KTYR 271753Z 19015G23KT 10SM BKN040 BKN050 BKN100 27/16 A3000 RMK AO2 SLP149 T02720161 10272 20211 58003,KTYR,2018-03-27T17:53:00Z,32.37,-95.4,27.2,16.1,190,15,23,10.0,30.0,1014.9,,,TRUE,,,,,,,BKN,4000,BKN,5000,BKN,10000,,,VFR,-0.3,27.2,21.1,,,,,,,,,METAR,165.0
KTYS 271753Z 23012KT 10SM OVC030 16/09 A3028 RMK AO2 SLP252 T01560089 10156 20089 58017,KTYS,2018-03-27T17:53:00Z,35.82,-83.98,15.6,8.9,230,12,,10.0,30.280512,1025.2,,,TRUE,,,,,,,OVC,3000,,,,,,,MVFR,-1.7,15.6,8.9,,,,,,,,,METAR,302.0
KUAO 271753Z 20009KT 10SM FEW010 OVC040 09/07 A3047 RMK AO2 RAE33 SLP318 P0001 60003 T00890067 10089 20083 51007,KUAO,2018-03-27T17:53:00Z,45.25,-122.77,8.9,6.7,200,9,,10.0,30.469488,1031.8,,,TRUE,,,,,,,FEW,1000,OVC,4000,,,,,VFR,0.7,8.9,8.3,,,0.01,,0.03,,,,METAR,59.0
KUTS 271753Z AUTO 14009G16KT 10SM BKN035 BKN047 OVC075 26/18 A3002 RMK AO2 SLP160 60000 T02610178 10261 20222 58013,KUTS,2018-03-27T17:53:00Z,30.75,-95.58,26.1,17.8,140,9,16,10.0,30.02067,1016.0,,TRUE,TRUE,,,,,,,BKN,3500,BKN,4700,OVC,7500,,,VFR,-1.3,26.1,22.2,,,,,0.005,,,,METAR,104.0
KUUU 271753Z AUTO 35011G14KT 10SM CLR 09/M06 A3043 RMK AO2 SLP304 T00891056 10094 21006 58030,KUUU,2018-03-27T17:53:00Z,41.53,-71.28,8.9,-5.6,350,11,14,10.0,30.431103,1030.4,,TRUE,TRUE,,,,,,,CLR,,,,,,,,VFR,-3.0,9.4,-0.6,,,,,,,,,METAR,51.0
KOSH 271753Z 30011KT 10SM BKN018 OVC026 07/03 A2993 RMK AO2 SLP142 T00720033 10072 20044 50009,KOSH,2018-03-27T17:53:00Z,43.97,-88.55,7.2,3.3,300,11,,10.0,29.929134,1014.2,,,TRUE,,,,,,,BKN,1800,OVC,2600,,,,,MVFR,0.9,7.2,4.4,,,,,,,,,METAR,248.0
KOWD 271753Z VRB05KT 10SM CLR 08/M07 A3046 RMK AO2 SLP316 T00781067 10089 21006 58033,KOWD,2018-03-27T17:53:00Z,42.18,-71.17,7.8,-6.7,0,5,,10.0,30.46063,1031.6,,,TRUE,,,,,,,CLR,,,,,,,,VFR,-3.3,8.9,-0.6,,,,,,,,,METAR,19.0
KOVE 271753Z AUTO 30007KT 10SM CLR 17/05 A3027 RMK AO2 SLP254 T01720050 10172 20067 50003,KOVE,2018-03-27T17:53:00Z,39.5,-121.62,17.2,5.0,300,7,,10.0,30.268702,1025.4,,TRUE,TRUE,,,,,,,CLR,,,,,,,,VFR,0.3,17.2,6.7,,,,,,,,,METAR,58.0
KOXB 271753Z AUTO 08007KT 10SM CLR 06/00 A3047 RMK AO2 SLP318 T00560000 10056 20033 58027,KOXB,2018-03-27T17:53:00Z,38.32,-75.12,5.6,0.0,80,7,,10.0,30.469488,1031.8,,TRUE,TRUE,,,,,,,CLR,,,,,,,,VFR,-2.7,5.6,3.3,,,,,,,,,METAR,3.0
KPAE 271753Z 16018KT 6SM -RA BR OVC008 08/07 A3028 RMK AO2 PK WND 15028/1713 SLP255 P0005 60005 T00780067 10083 20078 53008 $,KPAE,2018-03-27T17:53:00Z,47.92,-122.28,7.8,6.7,160,18,,6.0,30.280512,1025.5,,,TRUE,TRUE,,,,,-RA BR,OVC,800,,,,,,,IFR,0.8,8.3,7.8,,,0.05,,0.05,,,,METAR,180.0
KPAH 271753Z 17016G25KT 10SM FEW028 BKN065 OVC100 18/12 A3004 RMK AO2 SLP171 60000 T01780122 10178 20139 58016,KPAH,2018-03-27T17:53:00Z,37.07,-88.77,17.8,12.2,170,16,25,10.0,30.041338,1017.1,,,TRUE,,,,,,,FEW,2800,BKN,6500,OVC,10000,,,VFR,-1.6,17.8,13.9,,,,,0.005,,,,METAR,119.0
KPBF 271753Z AUTO 19013G23KT 10SM FEW035 BKN047 OVC055 24/16 A3005 RMK AO2 PK WND 17026/1714 SLP174 T02440161 10250 20194 58008,KPBF,2018-03-27T17:53:00Z,34.18,-91.93,24.4,16.1,190,13,23,10.0,30.050198,1017.4,,TRUE,TRUE,,,,,,,FEW,3500,BKN,4700,OVC,5500,,,VFR,-0.8,25.0,19.4,,,,,,,,,METAR,62.0
KPBG 271753Z AUTO 16013G24KT 10SM CLR 08/M09 A3035 RMK AO2 PRESFR SLP279 T00781089 10078 21039 58038,KPBG,2018-03-27T17:53:00Z,44.65,-73.47,7.8,-8.9,160,13,24,10.0,30.351377,1027.9,,TRUE,TRUE,,,,,,,CLR,,,,,,,,VFR,-3.8,7.8,-3.9,,,,,,,,,METAR,72.0
KPBI 271753Z COR 07019G24KT 10SM SCT049 24/12 A3026 RMK AO2 PK WND 08026/1654 SLP248 T02390122 10244 20206 58013,KPBI,2018-03-27T17:53:00Z,26.68,-80.1,23.9,12.2,70,19,24,10.0,30.259842,1024.8,TRUE,,TRUE,,,,,,,SCT,4900,,,,,,,VFR,-1.3,24.4,20.6,,,,,,,,,METAR,6.0
KPDK 271753Z VRB03KT 10SM OVC011 09/06 A3037 RMK AO2 SLP290 60000 T00890056 10089 20078 58017,KPDK,2018-03-27T17:53:00Z,33.88,-84.3,8.9,5.6,0,3,,10.0,30.369095,1029.0,,,TRUE,,,,,,,OVC,1100,,,,,,,MVFR,-1.7,8.9,7.8,,,,,0.005,,,,METAR,302.0
KPDT 271753Z 25017KT 10SM OVC100 12/01 A3027 RMK AO2 SLP248 T01170011 10117 20050 56009,KPDT,2018-03-27T17:53:00Z,45.7,-118.83,11.7,1.1,250,17,,10.0,30.268702,1024.8,,,TRUE,,,,,,,OVC,10000,,,,,,,VFR,-0.9,11.7,5.0,,,,,,,,,METAR,462.0
KPEO 271753Z AUTO 18014G27KT 7SM -RA OVC075 03/M03 A3022 RMK AO2 PK WND 17027/1749 RAB09 SLP242 P0000 60000 T00331033 10056 20022 56030,KPEO,2018-03-27T17:53:00Z,42.65,-77.05,3.3,-3.3,180,14,27,7.0,30.221457,1024.2,,TRUE,TRUE,,,,,,-RA,OVC,7500,,,,,,,VFR,-3.0,5.6,2.2,,,0.005,,0.005,,,,METAR,256.0
KPGA 271753Z AUTO 30004KT 10SM CLR 11/M11 A3009 RMK AO2 SLP165 T01061111 10111 20050 58000 TSNO,KPGA,2018-03-27T17:53:00Z,36.92,-111.45,10.6,-11.1,300,4,,10.0,30.088583,1016.5,,TRUE,TRUE,,,TRUE,,,,CLR,,,,,,,,VFR,0.0,11.1,5.0,,,,,,,,,METAR,1307.0
KPGD 271753Z 11016G26KT 10SM CLR 28/11 A3023 RMK AO2 PK WND 08029/1737 SLP238 T02780106 10283 20167 58016 $,KPGD,2018-03-27T17:53:00Z,26.92,-82.0,27.8,10.6,110,16,26,10.0,30.230314,1023.8,,,TRUE,TRUE,,,,,,CLR,,,,,,,,VFR,-1.6,28.3,16.7,,,,,,,,,METAR,7.0
KPIE 271753Z 10014G18KT 10SM CLR 27/13 A3023 RMK AO2 SLP238 T02720133 10272 20189 58014,KPIE,2018-03-27T17:53:00Z,27.92,-82.68,27.2,13.3,100,14,18,10.0,30.230314,1023.8,,,TRUE,,,,,,,CLR,,,,,,,,VFR,-1.4,27.2,18.9,,,,,,,,,METAR,4.0
KCAG 271753Z AUTO 33005KT 10SM CLR 04/M09 A3015 RMK AO2 SLP233 T00391094 10039 21083 58014,KCAG,2018-03-27T17:53:00Z,40.5,-107.52,3.9,-9.4,330,5,,10.0,30.15059,1023.3,,TRUE,TRUE,,,,,,,CLR,,,,,,,,VFR,-1.4,3.9,-8.3,,,,,,,,,METAR,1887.0
KCCR 271753Z 10SM CLR 20/03 A3026 RMK AO2 SLP232 T02000033 10200 20056 50006,KCCR,2018-03-27T17:53:00Z,38.0,-122.05,20.0,3.3,,,,10.0,30.259842,1023.2,,,TRUE,,,,,,,CLR,,,,,,,,VFR,0.6,20.0,5.6,,,,,,,,,METAR,11.0
KCDC 271753Z AUTO 03010G17KT 10SM FEW042 04/M07 A3019 RMK AO2 SLP221 T00441067 10050 21067 50000,KCDC,2018-03-27T17:53:00Z,37.7,-113.1,4.4,-6.7,30,10,17,10.0,30.188976,1022.1,,TRUE,TRUE,,,,,,,FEW,4200,,,,,,,VFR,0.0,5.0,-6.7,,,,,,,,,METAR,1714.0
KCDR 271753Z AUTO 27013G17KT 10SM CLR 11/M06 A3008 RMK AO2 SLP204 T01061056 10111 21050 58019,KCDR,2018-03-27T17:53:00Z,42.83,-103.1,10.6,-5.6,270,13,17,10.0,30.079725,1020.4,,TRUE,TRUE,,,,,,,CLR,,,,,,,,VFR,-1.9,11.1,-5.0,,,,,,,,,METAR,1010.0
KTCS 271753Z AUTO 18007KT 10SM BKN075 14/M06 A2996 RMK AO2 SLP098 T01441061 10150 20050 58002,KTCS,2018-03-27T17:53:00Z,33.23,-107.27,14.4,-6.1,180,7,,10.0,29.958662,1009.8,,TRUE,TRUE,,,,,,,BKN,7500,,,,,,,VFR,-0.2,15.0,5.0,,,,,,,,,METAR,1469.0
KDTS 271753Z 14009KT 10SM OVC023 22/16 A3026 RMK AO2 SLP247 T02220161 10228 20156 58008 $,KDTS,2018-03-27T17:53:00Z,30.4,-86.47,22.2,16.1,140,9,,10.0,30.259842,1024.7,,,TRUE,TRUE,,,,,,OVC,2300,,,,,,,MVFR,-0.8,22.8,15.6,,,,,,,,,METAR,5.0
KNQX 271753Z 09021G27KT 10SM SCT035 26/16 A3019 RMK AO2 PK WND 09030/1715 SLP220 T02560156 10267 20222 58009,KNQX,2018-03-27T17:53:00Z,24.57,-81.67,25.6,15.6,90,21,27,10.0,30.188976,1022.0,,,TRUE,,,,,,,SCT,3500,,,,,,,VFR,-0.9,26.7,22.2,,,,,,,,,SPECI,2.0
KOQT 271753Z AUTO 26007KT 10SM OVC026 14/07 A3031 RMK AO2 SLP263 T01390072 10144 20089 58021,KOQT,2018-03-27T17:53:00Z,36.02,-84.23,13.9,7.2,260,7,,10.0,30.31004,1026.3,,TRUE,TRUE,,,,,,,OVC,2600,,,,,,,MVFR,-2.1,14.4,8.9,,,,,,,,,METAR,277.0
KMWT 271753Z AUTO 22007KT 160V310 10SM FEW047 SCT055 SCT070 24/18 A2997 RMK AO2 SLP137 60004 T02390178 10244 20194 58008,KMWT,2018-03-27T17:53:00Z,34.55,-93.58,23.9,17.8,220,7,,10.0,29.970472,1013.7,,TRUE,TRUE,,,,,,,FEW,4700,SCT,5500,SCT,7000,,,VFR,-0.8,24.4,19.4,,,,,0.04,,,,METAR,214.0
KTUP 271753Z 15019G26KT 10SM CLR 19/11 A3020 RMK AO2 PK WND 16030/1712 SLP225 T01940111 10194 20117 58013,KTUP,2018-03-27T17:53:00Z,34.27,-88.77,19.4,11.1,150,19,26,10.0,30.200787,1022.5,,,TRUE,,,,,,,CLR,,,,,,,,VFR,-1.3,19.4,11.7,,,,,,,,,METAR,105.0
KSDB 271753Z AUTO 07013G22KT 10SM CLR 09/M06 A3023 RMK AO2 PK WND 07029/1706 SLP224 T00891056 10089 20022 53009 $,KSDB,2018-03-27T17:53:00Z,34.75,-118.72,8.9,-5.6,70,13,22,10.0,30.230314,1022.4,,TRUE,TRUE,TRUE,,,,,,CLR,,,,,,,,VFR,0.9,8.9,2.2,,,,,,,,,METAR,1377.0
KDVT 271753Z COR VRB04KT 10SM CLR 18/M03 A2999 RMK AO2 SLP142 T01781033 10178 20089 50006,KDVT,2018-03-27T17:53:00Z,33.68,-112.07,17.8,-3.3,0,4,,10.0,29.991142,1014.2,TRUE,,TRUE,,,,,,,CLR,,,,,,,,VFR,0.6,17.8,8.9,,,,,,,,,SPECI,443.0
KDWH 271753Z 14011G19KT 10SM SCT038 BKN047 BKN070 27/18 A3001 RMK AO2 SLP159 T02720183 10278 20228 58017,KDWH,2018-03-27T17:53:00Z,30.07,-95.55,27.2,18.3,140,11,19,10.0,30.008858,1015.9,,,TRUE,,,,,,,SCT,3800,BKN,4700,BKN,7000,,,VFR,-1.7,27.8,22.8,,,,,,,,,METAR,46.0
KDXR 271753Z 15004KT 10SM CLR 07/M10 A3045 RMK AO2 SLP315 T00671100 10072 21022 56031,KDXR,2018-03-27T17:53:00Z,41.37,-73.48,6.7,-10.0,150,4,,10.0,30.448818,1031.5,,,TRUE,,,,,,,CLR,,,,,,,,VFR,-3.1,7.2,-2.2,,,,,,,,,METAR,139.0
KECP 271753Z 16013G23KT 10SM FEW040 25/14 A3026 RMK AO2 SLP257 T02500144 10250 20139 58012,KECP,2018-03-27T17:53:00Z,30.35,-85.8,25.0,14.4,160,13,23,10.0,30.259842,1025.7,,,TRUE,,,,,,,FEW,4000,,,,,,,VFR,-1.2,25.0,13.9,,,,,,,,,METAR,21.0
KEEO 271753Z AUTO 06005KT 10SM CLR 04/M09 A3012 RMK AO2 SLP202 T00441094 10044 21067 58012,KEEO,2018-03-27T17:53:00Z,40.05,-107.88,4.4,-9.4,60,5,,10.0,30.121063,1020.2,,TRUE,TRUE,,,,,,,CLR,,,,,,,,VFR,-1.2,4.4,-6.7,,,,,,,,,METAR,1930.0
KEET 271753Z AUTO VRB06KT 10SM SCT027 SCT042 18/12 A3029 RMK AO2 SLP254 T01780117 10183 20094 56020,KEET,2018-03-27T17:53:00Z,33.18,-86.78,17.8,11.7,0,6,,10.0,30.28937,1025.4,,TRUE,TRUE,,,,,,,SCT,2700,SCT,4200,,,,,VFR,-2.0,18.3,9.4,,,,,,,,,METAR,173.0
KELD 271753Z AUTO 17013G21KT 10SM FEW041 BKN048 BKN060 26/17 A3004 RMK AO2 PK WND 17026/1728 SLP169 T02560172 10261 20206 58014 TSNO,KELD,2018-03-27T17:53:00Z,33.22,-92.82,25.6,17.2,170,13,21,10.0,30.041338,1016.9,,TRUE,TRUE,,,TRUE,,,,FEW,4100,BKN,4800,BKN,6000,,,VFR,-1.4,26.1,20.6,,,,,,,,,METAR,81.0
KELM 271753Z 19010G17KT 10SM -RA OVC075 05/M04 A3028 RMK AO2 RAB37 SLP260 P0000 60000 T00501039 10056 20022 58032,KELM,2018-03-27T17:53:00Z,42.15,-76.9,5.0,-3.9,190,10,17,10.0,30.280512,1026.0,,,TRUE,,,,,,-RA,OVC,7500,,,,,,,VFR,-3.2,5.6,2.2,,,0.005,,0.005,,,,METAR,302.0
KELN 271753Z AUTO 31026G35KT 10SM BKN055 13/03 A3012 RMK AO2 PK WND 31037/1739 SLP204 T01280033 10128 20067 56017,KELN,2018-03-27T17:53:00Z,47.03,-120.53,12.8,3.3,310,26,35,10.0,30.121063,1020.4,,TRUE,TRUE,,,,,,,BKN,5500,,,,,,,VFR,-1.7,12.8,6.7,,,,,,,,,METAR,519.0
KEMP 271753Z AUTO 01010KT 5SM -RA SCT018 BKN060 OVC075 05/02 A3014 RMK AO2 SLP215 P0001 60003 T00500022 10050 20044 50008,KEMP,2018-03-27T17:53:00Z,38.33,-96.2,5.0,2.2,10,10,,5.0,30.138779,1021.5,,TRUE,TRUE,,,,,,-RA,SCT,1800,BKN,6000,OVC,7500,,,MVFR,0.8,5.0,4.4,,,0.01,,0.03,,,,METAR,367.0
KEPH 271753Z AUTO 24017G26KT 10SM SCT060 OVC080 14/03 A3010 RMK AO2 PK WND 22028/1719 SLP195 T01440028 10144 20028 58012,KEPH,2018-03-27T17:53:00Z,47.3,-119.52,14.4,2.8,240,17,26,10.0,30.100393,1019.5,,TRUE,TRUE,,,,,,,SCT,6000,OVC,8000,,,,,VFR,-1.2,14.4,2.8,,,,,,,,,METAR,383.0
KEQY 271753Z AUTO 03003KT 9SM BKN020 OVC027 08/03 A3042 RMK AO2 SLP318 60000 T00780033 10083 20044 56025,KEQY,2018-03-27T17:53:00Z,35.02,-80.62,7.8,3.3,30,3,,9.0,30.41929,1031.8,,TRUE,TRUE,,,,,,,BKN,2000,OVC,2700,,,,,MVFR,-2.5,8.3,4.4,,,,,0.005,,,,METAR,212.0
KESF 271753Z AUTO 14012G18KT 10SM SCT033 SCT039 BKN080 26/18 A3011 RMK AO2 SLP193 T02560178 10267 20211 58007,KESF,2018-03-27T17:53:00Z,31.4,-92.28,25.6,17.8,140,12,18,10.0,30.109253,1019.3,,TRUE,TRUE,,,,,,,SCT,3300,SCT,3900,BKN,8000,,,VFR,-0.7,26.7,21.1,,,,,,,,,METAR,28.0
KEVW 271753Z AUTO 32008KT 10SM CLR 01/M11 A3020 RMK AO2 SLP238 T00111106 10011 21078 50002,KEVW,2018-03-27T17:53:00Z,41.27,-111.03,1.1,-10.6,320,8,,10.0,30.200787,1023.8,,TRUE,TRUE,,,,,,,CLR,,,,,,,,VFR,0.2,1.1,-7.8,,,,,,,,,METAR,2177.0
KEWB 271753Z 01007G15KT 10SM CLR 09/M06 A3043 RMK AO2 SLP304 T00891061 10089 21011 58030,KEWB,2018-03-27T17:53:00Z,41.68,-70.95,8.9,-6.1,10,7,15,10.0,30.431103,1030.4,,,TRUE,,,,,,,CLR,,,,,,,,VFR,-3.0,8.9,-1.1,,,,,,,,,METAR,23.0
KEYE 271753Z AUTO 21008G19KT 3SM BR OVC007 12/11 A3004 RMK AO2 SLP172 60006 T01220106 10122 20094 58002,KEYE,2018-03-27T17:53:00Z,39.83,-86.3,12.2,10.6,210,8,19,3.0,30.041338,1017.2,,TRUE,TRUE,,,,,,BR,OVC,700,,,,,,,IFR,-0.2,12.2,9.4,,,,,0.06,,,,METAR,248.0
KEYW 271753Z 09016G25KT 10SM CLR 26/16 A3019 RMK AO2 PK WND 09029/1703 SLP223 T02560161 10256 20222 58009,KEYW,2018-03-27T17:53:00Z,24.55,-81.75,25.6,16.1,90,16,25,10.0,30.188976,1022.3,,,TRUE,,,,,,,CLR,,,,,,,,VFR,-0.9,25.6,22.2,,,,,,,,,METAR,5.0
KFAR 271753Z 22010KT 10SM CLR 04/M01 A2998 RMK AO2 SLP165 T00391011 10039 21033 58005,KFAR,2018-03-27T17:53:00Z,46.93,-96.82,3.9,-1.1,220,10,,10.0,29.97933,1016.5,,,TRUE,,,,,,,CLR,,,,,,,,VFR,-0.5,3.9,-3.3,,,,,,,,,METAR,277.0
KFAT 271753Z 11007KT 10SM FEW180 15/04 A3026 RMK AO2 SLP246 T01500044 10150 20067 51009,KFAT,2018-03-27T17:53:00Z,36.78,-119.72,15.0,4.4,110,7,,10.0,30.259842,1024.6,,,TRUE,,,,,,,FEW,18000,,,,,,,VFR,0.9,15.0,6.7,,,,,,,,,METAR,104.0
KARA 271753Z 16017G25KT 10SM SCT033 BKN040 OVC048 27/18 A3013 RMK AO2 PK WND 16030/1713 RAB1656E39 SLP202 P0000 60000 T02670178 10267 20206 50003,KARA,2018-03-27T17:53:00Z,30.03,-91.88,26.7,17.8,160,17,25,10.0,30.129921,1020.2,,,TRUE,,,,,,,SCT,3300,BKN,4000,OVC,4800,,,VFR,0.3,26.7,20.6,,,0.005,,0.005,,,,METAR,18.0
KARB 271753Z 20012KT 9SM -RA OVC007 10/09 A2995 RMK AO2 RAB03E17B34 SLP146 P0001 60024 T01000094 10100 20050 55007,KARB,2018-03-27T17:53:00Z,42.22,-83.73,10.0,9.4,200,12,,9.0,29.949802,1014.6,,,TRUE,,,,,,-RA,OVC,700,,,,,,,IFR,-0.7,10.0,5.0,,,0.01,,0.24,,,,METAR,251.0
KASD 271753Z AUTO 15009G17KT 10SM BKN021 OVC030 24/18 A3017 RMK AO2 SLP216 T02440183 10250 20200 50000,KASD,2018-03-27T17:53:00Z,30.35,-89.82,24.4,18.3,150,9,17,10.0,30.171259,1021.6,,TRUE,TRUE,,,,,,,BKN,2100,OVC,3000,,,,,MVFR,0.0,25.0,20.0,,,,,,,,,METAR,9.0
KASE 271753Z COR 30003KT 10SM CLR 04/M08 A3004 RMK AO2 RAB1658E05 SLP134 P0000 60000 T00441078 10050 21072 58010,KASE,2018-03-27T17:53:00Z,39.23,-106.87,4.4,-7.8,300,3,,10.0,30.041338,1013.4,TRUE,,TRUE,,,,,,,CLR,,,,,,,,VFR,-1.0,5.0,-7.2,,,0.005,,,,,,SPECI,2354.0
KASX 271753Z AUTO 26011KT 10SM OVC017 02/M02 A2998 RMK AO2 SLP164 I6001 T00171017 10017 20000 51010,KASX,2018-03-27T17:53:00Z,46.55,-90.92,1.7,-1.7,260,11,,10.0,29.97933,1016.4,,TRUE,TRUE,,,,,,,OVC,1700,,,,,,,MVFR,1.0,1.7,0.0,,,,,,,,,METAR,251.0
KATY 271753Z AUTO 22006KT 10SM CLR 03/00 A3005 RMK AO2 SLP194 I6001 T00280000 10028 21044 50001,KATY,2018-03-27T17:53:00Z,44.9,-97.15,2.8,0.0,220,6,,10.0,30.050198,1019.4,,TRUE,TRUE,,,,,,,CLR,,,,,,,,VFR,0.1,2.8,-4.4,,,,,,,,,METAR,532.0
KAUG 271753Z AUTO 00000KT 10SM CLR 07/M11 A3045 RMK AO2 PRESFR SLP317 T00671111 10072 21050 58041,KAUG,2018-03-27T17:53:00Z,44.32,-69.8,6.7,-11.1,0,0,,10.0,30.448818,1031.7,,TRUE,TRUE,,,,,,,CLR,,,,,,,,VFR,-4.1,7.2,-5.0,,,,,,,,,METAR,109.0
KAUS 271753Z 17011G19KT 10SM BKN034 BKN070 26/19 A2996 RMK AO2 SLP136 60000 T02610189 10272 20194 58004,KAUS,2018-03-27T17:53:00Z,30.18,-97.68,26.1,18.9,170,11,19,10.0,29.958662,1013.6,,,TRUE,,,,,,,BKN,3400,BKN,7000,,,,,VFR,-0.4,27.2,19.4,,,,,0.005,,,,METAR,166.0
KAXN 271753Z AUTO 25008KT 10SM CLR 05/M01 A3003 RMK AO2 SLP185 6//// I6000 T00501011 10050 21011 50002 PNO $,KAXN,2018-03-27T17:53:00Z,45.87,-95.4,5.0,-1.1,250,8,,10.0,30.029528,1018.5,,TRUE,TRUE,TRUE,,,,,,CLR,,,,,,,,VFR,0.2,5.0,-1.1,,,,,,,,,METAR,433.0
KAWM 271753Z AUTO 18019G28KT 10SM CLR 21/15 A3009 RMK AO2 PK WND 18033/1726 SLP187 T02060150 10211 20144 58004,KAWM,2018-03-27T17:53:00Z,35.13,-90.23,20.6,15.0,180,19,28,10.0,30.088583,1018.7,,TRUE,TRUE,,,,,,,CLR,,,,,,,,VFR,-0.4,21.1,14.4,,,,,,,,,METAR,65.0
KAZO 271753Z 22009KT 1 3/4SM BR OVC005 12/10 A2994 RMK AO2 SLP143 60007 T01170100 10117 20083 58002,KAZO,2018-03-27T17:53:00Z,42.23,-85.55,11.7,10.0,220,9,,1.75,29.940945,1014.3,,,TRUE,,,,,,BR,OVC,500,,,,,,,IFR,-0.2,11.7,8.3,,,,,0.07,,,,METAR,272.0
KBBW 271753Z AUTO 00000KT 10SM CLR 10/M02 A3014 RMK AO2 SLP214 T01001022 10100 20000 58009,KBBW,2018-03-27T17:53:00Z,41.43,-99.63,10.0,-2.2,0,0,,10.0,30.138779,1021.4,,TRUE,TRUE,,,,,,,CLR,,,,,,,,VFR,-0.9,10.0,0.0,,,,,,,,,METAR,776.0
KBCE 271753Z AUTO 36014G19KT 10SM CLR 03/M13 A3013 RMK AO2 SLP174 T00281133 10028 21094 58002,KBCE,2018-03-27T17:53:00Z,37.7,-112.15,2.8,-13.3,360,14,19,10.0,30.129921,1017.4,,TRUE,TRUE,,,,,,,CLR,,,,,,,,VFR,-0.2,2.8,-9.4,,,,,,,,,METAR,2312.0
KBDE 271753Z AUTO 25009KT 10SM CLR 04/M01 A2988 RMK AO2 SLP131 T00391011 10039 21006 58004,KBDE,2018-03-27T17:53:00Z,48.73,-94.62,3.9,-1.1,250,9,,10.0,29.878937,1013.1,,TRUE,TRUE,,,,,,,CLR,,,,,,,,VFR,-0.4,3.9,-0.6,,,,,,,,,METAR,329.0
KBFD 271753Z AUTO 16011G18KT 5SM -RA BR OVC009 00/M02 A3016 RMK AO2 UPB13E22RAB44FZRAE13 SLP231 P0000 60005 I1002 I6010 T00001017 10006 20000 56018,KBFD,2018-03-27T17:53:00Z,41.8,-78.63,0.0,-1.7,160,11,18,5.0,30.159449,1023.1,,TRUE,TRUE,,,,,,-RA BR,OVC,900,,,,,,,IFR,-1.8,0.6,0.0,,,0.005,,0.05,,,,METAR,647.0
KBFF 271753Z AUTO VRB04KT 10SM CLR 09/M03 A3012 RMK AO2 SLP206 T00891033 10089 21067 58016,KBFF,2018-03-27T17:53:00Z,41.87,-103.58,8.9,-3.3,0,4,,10.0,30.121063,1020.6,,TRUE,TRUE,,,,,,,CLR,,,,,,,,VFR,-1.6,8.9,-6.7,,,,,,,,,METAR,1203.0
KBFI 271753Z 19013G26KT 10SM OVC023 10/06 A3029 RMK AO2 PK WND 20026/1749 SLP257 T01000061 10100 20083 53000,KBFI,2018-03-27T17:53:00Z,47.55,-122.32,10.0,6.1,190,13,26,10.0,30.28937,1025.7,,,TRUE,,,,,,,OVC,2300,,,,,,,MVFR,0.0,10.0,8.3,,,,,,,,,METAR,4.0
KBFM 271753Z 09010KT 10SM BKN026 BKN055 22/18 A3025 RMK AO2 SLP242 T02170178 10222 20150 58004 $,KBFM,2018-03-27T17:53:00Z,30.62,-88.07,21.7,17.8,90,10,,10.0,30.250984,1024.2,,,TRUE,TRUE,,,,,,BKN,2600,BKN,5500,,,,,MVFR,-0.4,22.2,15.0,,,,,,,,,METAR,20.0
KBGM 271753Z 19016G23KT 10SM BKN110 03/M10 A3029 RMK AO2 SLP274 T00281100 10028 21017 58027,KBGM,2018-03-27T17:53:00Z,42.22,-75.98,2.8,-10.0,190,16,23,10.0,30.28937,1027.4,,,TRUE,,,,,,,BKN,11000,,,,,,,VFR,-2.7,2.8,-1.7,,,,,,,,,METAR,490.0
KBGR 271753Z 00000KT 10SM FEW250 07/M13 A3048 RMK AO2 SLP323 4/012 T00721128 10078 21067 56039,KBGR,2018-03-27T17:53:00Z,44.8,-68.82,7.2,-12.8,0,0,,10.0,30.481298,1032.3,,,TRUE,,,,,,,FEW,25000,,,,,,,VFR,-3.9,7.8,-6.7,,,,,,,12.0,,METAR,57.0
KBIL 271753Z 24017G23KT 10SM FEW100 SCT240 10/M08 A2992 RMK AO2 PK WND 24027/1703 SLP143 ACSL DSNT W T01001078 10100 21011 58032,KBIL,2018-03-27T17:53:00Z,45.8,-108.55,10.0,-7.8,240,17,23,10.0,29.920275,1014.3,,,TRUE,,,,,,,FEW,10000,SCT,24000,,,,,VFR,-3.2,10.0,-1.1,,,,,,,,,METAR,1091.0
KBKE 271753Z AUTO VRB06KT 10SM FEW060 BKN095 10/M01 A3028 RMK AO2 SLP265 T01001011 10100 21017 58010,KBKE,2018-03-27T17:53:00Z,44.85,-117.82,10.0,-1.1,0,6,,10.0,30.280512,1026.5,,TRUE,TRUE,,,,,,,FEW,6000,BKN,9500,,,,,VFR,-1.0,10.0,-1.7,,,,,,,,,METAR,1024.0
KAAF 271753Z AUTO 10012G19KT 10SM CLR 22/17 A3027 RMK AO2 SLP251 T02170172 10222 20167 58009,KAAF,2018-03-27T17:53:00Z,29.73,-85.03,21.7,17.2,100,12,19,10.0,30.268702,1025.1,,TRUE,TRUE,,,,,,,CLR,,,,,,,,VFR,-0.9,22.2,16.7,,,,,,,,,METAR,5.0
KABR 271753Z AUTO 25008KT 10SM CLR 09/03 A3004 RMK AO2 SLP182 T00890033 10094 21022 58003,KABR,2018-03-27T17:53:00Z,45.45,-98.42,8.9,3.3,250,8,,10.0,30.041338,1018.2,,TRUE,TRUE,,,,,,,CLR,,,,,,,,VFR,-0.3,9.4,-2.2,,,,,,,,,METAR,397.0
KABY 271753Z 14010G15KT 10SM OVC033 22/13 A3033 RMK AO2 SLP271 T02170133 10222 20117 58022,KABY,2018-03-27T17:53:00Z,31.53,-84.2,21.7,13.3,140,10,15,10.0,30.33071,1027.1,,,TRUE,,,,,,,OVC,3300,,,,,,,VFR,-2.2,22.2,11.7,,,,,,,,,METAR,58.0
KACK 271753Z 02025G30KT 10SM CLR 07/M01 A3039 RMK AO2 PK WND 02034/1702 SLP291 T00671011 10067 20039 58030,KACK,2018-03-27T17:53:00Z,41.25,-70.07,6.7,-1.1,20,25,30,10.0,30.389763,1029.1,,,TRUE,,,,,,,CLR,,,,,,,,VFR,-3.0,6.7,3.9,,,,,,,,,METAR,16.0
KACV 271753Z AUTO 32006KT 10SM CLR 12/07 A3042 RMK AO2 SLP308 T01220072 10122 20044 58003,KACV,2018-03-27T17:53:00Z,40.98,-124.1,12.2,7.2,320,6,,10.0,30.41929,1030.8,,TRUE,TRUE,,,,,,,CLR,,,,,,,,VFR,-0.3,12.2,4.4,,,,,,,,,METAR,67.0
KAEX 271753Z 14014KT 9SM FEW033 SCT040 26/19 A3008 RMK AO2 SLP188 60000 T02560189 10256 20211 58007,KAEX,2018-03-27T17:53:00Z,31.33,-92.57,25.6,18.9,140,14,,9.0,30.079725,1018.8,,,TRUE,,,,,,,FEW,3300,SCT,4000,,,,,VFR,-0.7,25.6,21.1,,,,,0.005,,,,METAR,27.0
KAGS 271753Z VRB05KT 10SM SCT023 OVC065 14/07 A3039 RMK AO2 SLP288 T01440072 10150 20106 56023,KAGS,2018-03-27T17:53:00Z,33.37,-81.97,14.4,7.2,0,5,,10.0,30.389763,1028.8,,,TRUE,,,,,,,SCT,2300,OVC,6500,,,,,VFR,-2.3,15.0,10.6,,,,,,,,,METAR,44.0
KAIA 271753Z AUTO 23013G17KT 10SM CLR 10/M07 A3010 RMK AO2 SLP198 T01001072 10100 21094 58013,KAIA,2018-03-27T17:53:00Z,42.05,-102.8,10.0,-7.2,230,13,17,10.0,30.100393,1019.8,,TRUE,TRUE,,,,,,,CLR,,,,,,,,VFR,-1.3,10.0,-9.4,,,,,,,,,METAR,1196.0
KAKO 271753Z AUTO 00000KT 10SM CLR 07/M05 A3015 RMK AO2 SLP212 T00671050 10067 21039 58007,KAKO,2018-03-27T17:53:00Z,40.17,-103.22,6.7,-5.0,0,0,,10.0,30.15059,1021.2,,TRUE,TRUE,,,,,,,CLR,,,,,,,,VFR,-0.7,6.7,-3.9,,,,,,,,,METAR,1421.0
KALI 271753Z AUTO 13013G21KT 10SM SCT030 BKN038 OVC060 27/20 A2990 RMK AO2 SLP122 T02720200 10283 20222 58007,KALI,2018-03-27T17:53:00Z,27.73,-98.02,27.2,20.0,130,13,21,10.0,29.899607,1012.2,,TRUE,TRUE,,,,,,,SCT,3000,BKN,3800,OVC,6000,,,VFR,-0.7,28.3,22.2,,,,,,,,,METAR,53.0
KALW 271753Z 22019G28KT 10SM FEW055 BKN085 OVC100 12/02 A3025 RMK AO2 PK WND 21028/1743 SLP245 T01170022 10122 20072 56012,KALW,2018-03-27T17:53:00Z,46.1,-118.28,11.7,2.2,220,19,28,10.0,30.250984,1024.5,,,TRUE,,,,,,,FEW,5500,BKN,8500,OVC,10000,,,VFR,-1.2,12.2,7.2,,,,,,,,,METAR,363.0
KAMG 271753Z AUTO VRB06KT 10SM OVC033 22/13 A3033 RMK AO2 SLP269 T02170133 10222 20117 58018,KAMG,2018-03-27T17:53:00Z,31.53,-82.5,21.7,13.3,0,6,,10.0,30.33071,1026.9,,TRUE,TRUE,,,,,,,OVC,3300,,,,,,,VFR,-1.8,22.2,11.7,,,,,,,,,METAR,59.0
KAMW 271753Z AUTO 35010KT 10SM OVC017 04/01 A3013 RMK AO2 SLP210 T00390006 10039 20017 53004,KAMW,2018-03-27T17:53:00Z,41.98,-93.62,3.9,0.6,350,10,,10.0,30.129921,1021.0,,TRUE,TRUE,,,,,,,OVC,1700,,,,,,,MVFR,0.4,3.9,1.7,,,,,,,,,METAR,279.0
KFVE 271753Z AUTO 15011KT 10SM CLR 06/M14 A3044 RMK AO2 SLP316 T00611144 10061 21061 58041,KFVE,2018-03-27T17:53:00Z,47.28,-68.3,6.1,-14.4,150,11,,10.0,30.43996,1031.6,,TRUE,TRUE,,,,,,,CLR,,,,,,,,VFR,-4.1,6.1,-6.1,,,,,,,,,METAR,301.0
KLBF 271753Z AUTO 10004KT 10SM CLR 11/M03 A3016 RMK AO2 SLP219 T01061033 10111 21033 58011,KLBF,2018-03-27T17:53:00Z,41.12,-100.67,10.6,-3.3,100,4,,10.0,30.159449,1021.9,,TRUE,TRUE,,,,,,,CLR,,,,,,,,VFR,-1.1,11.1,-3.3,,,,,,,,,METAR,847.0
KLKV 271753Z AUTO 00000KT 10SM CLR 06/M02 A3039 RMK AO2 SLP747 T00561022 10056 21072 51002,KLKV,2018-03-27T17:53:00Z,42.17,-120.4,5.6,-2.2,0,0,,10.0,30.389763,974.7,,TRUE,TRUE,,,,,,,CLR,,,,,,,,VFR,0.2,5.6,-7.2,,,,,,,,,METAR,1441.0
KMHE 271753Z AUTO 26009KT 10SM CLR 11/01 A3010 RMK AO2 SLP203 T01110011 10111 21011 58007,KMHE,2018-03-27T17:53:00Z,43.77,-98.02,11.1,1.1,260,9,,10.0,30.100393,1020.3,,TRUE,TRUE,,,,,,,CLR,,,,,,,,VFR,-0.7,11.1,-1.1,,,,,,,,,METAR,397.0
KBAF 271753Z VRB03KT 10SM CLR 08/M12 A3045 RMK AO2 SLP316 T00831122 10083 21033 58032,KBAF,2018-03-27T17:53:00Z,42.17,-72.72,8.3,-12.2,0,3,,10.0,30.448818,1031.6,,,TRUE,,,,,,,CLR,,,,,,,,VFR,-3.2,8.3,-3.3,,,,,,,,,METAR,83.0
KBVO 271753Z AUTO 36007KT 7SM OVC012 08/06 A3011 RMK AO2 RAB42E52 SLP190 P0000 60018 T00780061 10089 20072 50011,KBVO,2018-03-27T17:53:00Z,36.77,-96.02,7.8,6.1,360,7,,7.0,30.109253,1019.0,,TRUE,TRUE,,,,,,,OVC,1200,,,,,,,MVFR,1.1,8.9,7.2,,,0.005,,0.18,,,,METAR,210.0
KTWF 271753Z 27013KT 10SM FEW039 08/M02 A3028 RMK AO2 SLP248 T00831017 10083 21022 58002,KTWF,2018-03-27T17:53:00Z,42.48,-114.48,8.3,-1.7,270,13,,10.0,30.280512,1024.8,,,TRUE,,,,,,,FEW,3900,,,,,,,VFR,-0.2,8.3,-2.2,,,,,,,,,METAR,1266.0
KPUC 271753Z AUTO 09008KT 10SM CLR 07/M13 A3012 RMK AO2 SLP216 T00671133 10072 21044 58009,KPUC,2018-03-27T17:53:00Z,39.62,-110.75,6.7,-13.3,90,8,,10.0,30.121063,1021.6,,TRUE,TRUE,,,,,,,CLR,,,,,,,,VFR,-0.9,7.2,-4.4,,,,,,,,,METAR,2091.0
KOVS 271753Z AUTO 27006KT 9SM OVC018 06/02 A3005 RMK AO2 SLP180 T00610017 10061 20033 51011,KOVS,2018-03-27T17:53:00Z,43.15,-90.68,6.1,1.7,270,6,,9.0,30.050198,1018.0,,TRUE,TRUE,,,,,,,OVC,1800,,,,,,,MVFR,1.1,6.1,3.3,,,,,,,,,METAR,202.0
KPIR 271753Z AUTO 23008KT 10SM CLR 13/M02 A3004 RMK AO2 SLP182 T01281017 10128 21022 58015,KPIR,2018-03-27T17:53:00Z,44.38,-100.28,12.8,-1.7,230,8,,10.0,30.041338,1018.2,,TRUE,TRUE,,,,,,,CLR,,,,,,,,VFR,-1.5,12.8,-2.2,,,,,,,,,METAR,526.0
KPIL 271753Z AUTO 14019G26KT 7SM BKN026 OVC031 31/21 A2988 RMK AO2 PK WND 15027/1735 SLP118 T03060211 10306 20233 58004,KPIL,2018-03-27T17:53:00Z,26.17,-97.33,30.6,21.1,140,19,26,7.0,29.878937,1011.8,,TRUE,TRUE,,,,,,,BKN,2600,OVC,3100,,,,,MVFR,-0.4,30.6,23.3,,,,,,,,,METAR,5.0
KPIH 271753Z 24013KT 10SM CLR 07/M06 A3026 RMK AO2 SLP255 T00721061 10072 21022 58004,KPIH,2018-03-27T17:53:00Z,42.92,-112.57,7.2,-6.1,240,13,,10.0,30.259842,1025.5,,,TRUE,,,,,,,CLR,,,,,,,,VFR,-0.4,7.2,-2.2,,,,,,,,,METAR,1359.0
PADE 271753Z AUTO 00000KT 10SM CLR M16/M21 A2964 RMK AO2 SLP039 T11611206 11128 21189 51009 TSNO,PADE,2018-03-27T17:53:00Z,66.07,-162.77,-16.1,-20.6,0,0,,10.0,29.639763,1003.9,,TRUE,TRUE,,,TRUE,,,,CLR,,,,,,,,VFR,0.9,-12.8,-18.9,,,,,,,,,METAR,5.0
PACV 271753Z 00000KT 10SM BKN090 OVC110 00/M07 A2977 RMK AO2 SLP082 T00001067 10000 21033 53034,PACV,2018-03-27T17:53:00Z,60.5,-145.47,0.0,-6.7,0,0,,10.0,29.769686,1008.2,,,TRUE,,,,,,,BKN,9000,OVC,11000,,,,,VFR,3.4,0.0,-3.3,,,,,,,,,METAR,12.0
PACD 271753Z 24018KT 10SM OVC050 01/M02 A2986 RMK AO2 SNE1654B14E24 SLP111 P0000 60004 T00111017 10011 20000 53031 $,PACD,2018-03-27T17:53:00Z,55.2,-162.72,1.1,-1.7,240,18,,10.0,29.861221,1011.1,,,TRUE,TRUE,,,,,,OVC,5000,,,,,,,VFR,3.1,1.1,0.0,,,0.005,,0.04,,,,METAR,30.0
PABT 271753Z 32004KT 10SM CLR M18/M26 A2989 RMK AO2 SLP143 4/036 T11781256 11178 21283 51019,PABT,2018-03-27T17:53:00Z,66.92,-151.52,-17.8,-25.6,320,4,,10.0,29.890747,1014.3,,,TRUE,,,,,,,CLR,,,,,,,,VFR,1.9,-17.8,-28.3,,,,,,,36.0,,METAR,195.0
PABR 271753Z 11017KT 9SM CLR M19/M22 A2987 RMK AO2 SLP116 T11891222 11178 21194 51005 $,PABR,2018-03-27T17:53:00Z,71.28,-156.77,-18.9,-22.2,110,17,,9.0,29.870079,1011.6,,,TRUE,TRUE,,,,,,CLR,,,,,,,,VFR,0.5,-17.8,-19.4,,,,,,,,,METAR,7.0
PHLI 271753Z 26006KT 10SM CLR 19/16 A2991 RMK AO2 SLP126 T01940161 10194 20161 53017,PHLI,2018-03-27T17:53:00Z,21.97,-159.33,19.4,16.1,260,6,,10.0,29.911417,1012.6,,,TRUE,,,,,,,CLR,,,,,,,,VFR,1.7,19.4,16.1,,,,,,,,,METAR,45.0
PAMC 271753Z AUTO 10SM BKN019 OVC024 M12/M16 A2974 RMK AO2 SNE28 SLP081 P0000 60000 T11221156 11122 21200 52009 TSNO,PAMC,2018-03-27T17:53:00Z,62.97,-155.62,-12.2,-15.6,,,,10.0,29.740158,1008.1,,TRUE,TRUE,,,TRUE,,,,BKN,1900,OVC,2400,,,,,MVFR,0.9,-12.2,-20.0,,,0.005,,0.005,,,,METAR,103.0
PALH 271753Z 03006KT 10SM OVC065 M04/M11 A2982 RMK AO2 SLP097 T10391106 11039 21061 51023,PALH,2018-03-27T17:53:00Z,61.18,-149.97,-3.9,-10.6,30,6,,10.0,29.819881,1009.7,,,TRUE,,,,,,,OVC,6500,,,,,,,VFR,2.3,-3.9,-6.1,,,,,,,,,METAR,22.0
PAMR 271753Z 02004KT 10SM OVC070 M03/M12 A2980 RMK AO2 SLP094 T10331117 11033 21056 51024,PAMR,2018-03-27T17:53:00Z,61.22,-149.85,-3.3,-11.7,20,4,,10.0,29.799213,1009.4,,,TRUE,,,,,,,OVC,7000,,,,,,,VFR,2.4,-3.3,-5.6,,,,,,,,,METAR,41.0
TISX 271753Z 09008KT 10SM SCT026 BKN070 28/22 A2996 RMK AO2 SLP143 60000 T02780217 10289 20250 58023 $,TISX,2018-03-27T17:53:00Z,17.7,-64.8,27.8,21.7,90,8,,10.0,29.958662,1014.3,,,TRUE,TRUE,,,,,,SCT,2600,BKN,7000,,,,,VFR,-2.3,28.9,25.0,,,,,0.005,,,,METAR,19.0
KPMD 271753Z AUTO 04015G29KT 10SM CLR 14/M07 A3022 RMK AO2 PK WND 06029/1745 SLP227 T01441072 10150 20028 50001,KPMD,2018-03-27T17:53:00Z,34.63,-118.08,14.4,-7.2,40,15,29,10.0,30.221457,1022.7,,TRUE,TRUE,,,,,,,CLR,,,,,,,,VFR,0.1,15.0,2.8,,,,,,,,,METAR,780.0
KPKD 271753Z AUTO 22009KT 10SM CLR 03/M01 A2997 RMK AO2 SLP165 T00281006 10028 21017 58003,KPKD,2018-03-27T17:53:00Z,46.9,-95.07,2.8,-0.6,220,9,,10.0,29.970472,1016.5,,TRUE,TRUE,,,,,,,CLR,,,,,,,,VFR,-0.3,2.8,-1.7,,,,,,,,,METAR,442.0
KPKB 271753Z 14003KT 10SM OVC026 10/06 A3017 RMK AO2 SLP219 60004 T01000061 10100 20050 58026,KPKB,2018-03-27T17:53:00Z,39.35,-81.42,10.0,6.1,140,3,,10.0,30.171259,1021.9,,,TRUE,,,,,,,OVC,2600,,,,,,,MVFR,-2.6,10.0,5.0,,,,,0.04,,,,METAR,262.0
PASC 271753Z 08016KT 10SM CLR M20/M24 A2991 RMK AO2 SLP130 T12001239 11200 21222 51004,PASC,2018-03-27T17:53:00Z,70.2,-148.47,-20.0,-23.9,80,16,,10.0,29.911417,1013.0,,,TRUE,,,,,,,CLR,,,,,,,,VFR,0.4,-20.0,-22.2,,,,,,,,,METAR,15.0
KJER 271753Z AUTO 26014KT 10SM CLR 07/M04 A3028 RMK AO2 SLP263 T00721039 10078 21017 57005 TSNO,KJER,2018-03-27T17:53:00Z,42.72,-114.45,7.2,-3.9,260,14,,10.0,30.280512,1026.3,,TRUE,TRUE,,,TRUE,,,,CLR,,,,,,,,VFR,-0.5,7.8,-1.7,,,,,,,,,METAR,1222.0
KJKL 271753Z AUTO VRB03KT 10SM OVC037 16/08 A3019 RMK AO2 SLP220 T01610083 10161 20106 58024,KJKL,2018-03-27T17:53:00Z,37.6,-83.32,16.1,8.3,0,3,,10.0,30.188976,1022.0,,TRUE,TRUE,,,,,,,OVC,3700,,,,,,,VFR,-2.4,16.1,10.6,,,,,,,,,METAR,416.0
KJLN 271753Z 02009KT 7SM -RA OVC006 09/09 A3006 RMK AO2 SLP177 P0002 60048 T00890089 10122 20089 50005,KJLN,2018-03-27T17:53:00Z,37.15,-94.5,8.9,8.9,20,9,,7.0,30.059055,1017.7,,,TRUE,,,,,,-RA,OVC,600,,,,,,,IFR,0.5,12.2,8.9,,,0.02,,0.48,,,,METAR,299.0
KLAA 271753Z AUTO 06008KT 10SM BKN039 OVC070 09/M02 A3016 RMK AO2 SLP204 T00941022 10100 20044 58004,KLAA,2018-03-27T17:53:00Z,38.07,-102.68,9.4,-2.2,60,8,,10.0,30.159449,1020.4,,TRUE,TRUE,,,,,,,BKN,3900,OVC,7000,,,,,VFR,-0.4,10.0,4.4,,,,,,,,,METAR,1119.0
KLAN 271753Z 23012KT 3SM BR OVC006 11/10 A2991 RMK AO2 SLP132 60009 T01060100 10106 20056 58009,KLAN,2018-03-27T17:53:00Z,42.78,-84.58,10.6,10.0,230,12,,3.0,29.911417,1013.2,,,TRUE,,,,,,BR,OVC,600,,,,,,,IFR,-0.9,10.6,5.6,,,,,0.09,,,,METAR,264.0
KLAR 271753Z AUTO VRB05G17KT 10SM CLR 03/M13 A3006 RMK AO2 SLP188 T00331133 10033 21106 58014,KLAR,2018-03-27T17:53:00Z,41.32,-105.67,3.3,-13.3,0,5,17,10.0,30.059055,1018.8,,TRUE,TRUE,,,,,,,CLR,,,,,,,,VFR,-1.4,3.3,-10.6,,,,,,,,,METAR,2216.0
KLAW 271753Z 01012KT 10SM OVC009 11/09 A3009 RMK AO2 SLP188 60017 T01110094 10133 20106 51029,KLAW,2018-03-27T17:53:00Z,34.55,-98.42,11.1,9.4,10,12,,10.0,30.088583,1018.8,,,TRUE,,,,,,,OVC,900,,,,,,,IFR,2.9,13.3,10.6,,,,,0.17,,,,METAR,337.0
KLAX 271753Z VRB06G16KT 10SM CLR 22/M04 A3013 RMK AO2 SLP200 T02221044 10222 20100 51002 $,KLAX,2018-03-27T17:53:00Z,33.93,-118.38,22.2,-4.4,0,6,16,10.0,30.129921,1020.0,,,TRUE,TRUE,,,,,,CLR,,,,,,,,VFR,0.2,22.2,10.0,,,,,,,,,METAR,46.0
KLBB 271753Z 10012KT 10SM FEW010 SCT035 BKN150 BKN250 17/09 A3000 RMK AO2 SLP126 FEW010 LYR DSNT NW-NE MDT CU DSNT W-NW T01720094 10172 20144 51003,KLBB,2018-03-27T17:53:00Z,33.67,-101.82,17.2,9.4,100,12,,10.0,30.0,1012.6,,,TRUE,,,,,,,FEW,1000,SCT,3500,BKN,15000,BKN,25000,VFR,0.3,17.2,14.4,,,,,,,,,METAR,993.0
KLBX 271753Z AUTO 14012G17KT 8SM OVC019 24/20 A3002 RMK AO2 SLP165 T02440200 10261 20222 58009,KLBX,2018-03-27T17:53:00Z,29.12,-95.47,24.4,20.0,140,12,17,8.0,30.02067,1016.5,,TRUE,TRUE,,,,,,,OVC,1900,,,,,,,MVFR,-0.9,26.1,22.2,,,,,,,,,METAR,6.0
KLEE 271753Z 10012G20KT 10SM FEW049 26/13 A3029 RMK AO2 SLP255 T02560128 10256 20167 58012,KLEE,2018-03-27T17:53:00Z,28.82,-81.82,25.6,12.8,100,12,20,10.0,30.28937,1025.5,,,TRUE,,,,,,,FEW,4900,,,,,,,VFR,-1.2,25.6,16.7,,,,,,,,,METAR,23.0
KLFK 271753Z AUTO 18014G20KT 10SM SCT042 BKN080 28/17 A3003 RMK AO2 SLP165 60000 T02780172 10278 20206 56019,KLFK,2018-03-27T17:53:00Z,31.23,-94.75,27.8,17.2,180,14,20,10.0,30.029528,1016.5,,TRUE,TRUE,,,,,,,SCT,4200,BKN,8000,,,,,VFR,-1.9,27.8,20.6,,,,,0.005,,,,METAR,88.0
KLFT 271753Z 17010G20KT 6SM HZ FEW036 SCT049 BKN060 26/19 A3012 RMK AO2 SLP198 T02610189 10267 20211 58000,KLFT,2018-03-27T17:53:00Z,30.2,-92.0,26.1,18.9,170,10,20,6.0,30.121063,1019.8,,,TRUE,,,,,,HZ,FEW,3600,SCT,4900,BKN,6000,,,VFR,0.0,26.7,21.1,,,,,,,,,METAR,11.0
KLGB 271753Z 20006KT 10SM CLR 21/M02 A3014 RMK AO2 SLP204 T02111017 10211 20083 50002,KLGB,2018-03-27T17:53:00Z,33.82,-118.15,21.1,-1.7,200,6,,10.0,30.138779,1020.4,,,TRUE,,,,,,,CLR,,,,,,,,VFR,0.2,21.1,8.3,,,,,,,,,METAR,10.0
KLHX 271753Z AUTO 03004KT 10SM OVC033 07/M01 A3018 RMK AO2 SLP208 60000 T00721011 10072 20044 58000,KLHX,2018-03-27T17:53:00Z,38.05,-103.52,7.2,-1.1,30,4,,10.0,30.180119,1020.8,,TRUE,TRUE,,,,,,,OVC,3300,,,,,,,VFR,0.0,7.2,4.4,,,,,0.005,,,,METAR,1277.0
KLIT 271753Z 18011KT 10SM SCT025 BKN050 OVC250 24/18 A3002 RMK AO2 SLP166 BINOVC T02390183 10239 20200 58006,KLIT,2018-03-27T17:53:00Z,34.73,-92.23,23.9,18.3,180,11,,10.0,30.02067,1016.6,,,TRUE,,,,,,,SCT,2500,BKN,5000,OVC,25000,,,VFR,-0.6,23.9,20.0,,,,,,,,,METAR,79.0
KLLQ 271753Z AUTO 19014G20KT 10SM FEW036 SCT045 BKN055 26/16 A3006 RMK AO2 PK WND 16026/1743 SLP176 T02610156 10261 20194 58013,KLLQ,2018-03-27T17:53:00Z,33.63,-91.75,26.1,15.6,190,14,20,10.0,30.059055,1017.6,,TRUE,TRUE,,,,,,,FEW,3600,SCT,4500,BKN,5500,,,VFR,-1.3,26.1,19.4,,,,,,,,,METAR,83.0
KLMT 271753Z 00000KT 10SM CLR 06/01 A3040 RMK AO2 SLP302 I6001 T00610011 10067 21056 50004,KLMT,2018-03-27T17:53:00Z,42.15,-121.72,6.1,1.1,0,0,,10.0,30.398623,1030.2,,,TRUE,,,,,,,CLR,,,,,,,,VFR,0.4,6.7,-5.6,,,,,,,,,METAR,1246.0
KLND 271753Z AUTO 36007KT 10SM CLR 00/M08 A3005 RMK AO2 SLP202 T00001083 10011 21083 58013,KLND,2018-03-27T17:53:00Z,42.82,-108.73,0.0,-8.3,360,7,,10.0,30.050198,1020.2,,TRUE,TRUE,,,,,,,CLR,,,,,,,,VFR,-1.3,1.1,-8.3,,,,,,,,,METAR,1694.0
KLNS 271753Z VRB05KT 10SM CLR 06/M03 A3044 RMK AO2 SLP311 T00611033 10061 21011 56033,KLNS,2018-03-27T17:53:00Z,40.12,-76.3,6.1,-3.3,0,5,,10.0,30.43996,1031.1,,,TRUE,,,,,,,CLR,,,,,,,,VFR,-3.3,6.1,-1.1,,,,,,,,,METAR,125.0
KLOL 271753Z AUTO 00000KT 10SM CLR 08/M06 A3038 RMK AO2 SLP302 T00781061 10078 21072 51002,KLOL,2018-03-27T17:53:00Z,40.07,-118.57,7.8,-6.1,0,0,,10.0,30.380905,1030.2,,TRUE,TRUE,,,,,,,CLR,,,,,,,,VFR,0.2,7.8,-7.2,,,,,,,,,METAR,1189.0
KMDW 271753Z 27010KT 10SM OVC013 10/08 A2997 RMK AO2 SLP150 60004 T01000078 10111 20094 50008,KMDW,2018-03-27T17:53:00Z,41.78,-87.75,10.0,7.8,270,10,,10.0,29.970472,1015.0,,,TRUE,,,,,,,OVC,1300,,,,,,,MVFR,0.8,11.1,9.4,,,,,0.04,,,,METAR,188.0
KMFE 271753Z 15015G23KT 10SM BKN035 BKN045 31/22 A2987 RMK AO2 SLP113 T03110222 10311 20244 58009,KMFE,2018-03-27T17:53:00Z,26.18,-98.25,31.1,22.2,150,15,23,10.0,29.870079,1011.3,,,TRUE,,,,,,,BKN,3500,BKN,4500,,,,,VFR,-0.9,31.1,24.4,,,,,,,,,METAR,38.0
KMFR 271753Z 34003KT 10SM CLR 08/02 A3046 RMK AO2 SLP321 T00780022 10078 20000 58006,KMFR,2018-03-27T17:53:00Z,42.38,-122.87,7.8,2.2,340,3,,10.0,30.46063,1032.1,,,TRUE,,,,,,,CLR,,,,,,,,VFR,-0.6,7.8,0.0,,,,,,,,,METAR,396.0
KMGW 271753Z 16008KT 6SM -RA BR BKN024 OVC029 08/07 A3018 RMK AO2 RAB1659 SLP226 P0008 60047 T00830072 10089 20028 56034,KMGW,2018-03-27T17:53:00Z,39.65,-79.92,8.3,7.2,160,8,,6.0,30.180119,1022.6,,,TRUE,,,,,,-RA BR,BKN,2400,OVC,2900,,,,,MVFR,-3.4,8.9,2.8,,,0.08,,0.47,,,,METAR,378.0
KMHT 271753Z 16005KT 10SM BKN250 09/M14 A3044 RMK AO2 SLP326 T00891144 10094 21011 56036,KMHT,2018-03-27T17:53:00Z,42.93,-71.43,8.9,-14.4,160,5,,10.0,30.43996,1032.6,,,TRUE,,,,,,,BKN,25000,,,,,,,VFR,-3.6,9.4,-1.1,,,,,,,,,METAR,81.0
KMIA 271753Z 08021G33KT 10SM SCT043 24/13 A3023 RMK AO2 PK WND 09033/1744 SLP235 T02440128 10256 20217 58014,KMIA,2018-03-27T17:53:00Z,25.8,-80.28,24.4,12.8,80,21,33,10.0,30.230314,1023.5,,,TRUE,,,,,,,SCT,4300,,,,,,,VFR,-1.4,25.6,21.7,,,,,,,,,METAR,3.0
KMIW 271753Z AUTO 32010KT 9SM OVC012 02/00 A3012 RMK AO2 SLP208 T00170000 10017 20006 53003,KMIW,2018-03-27T17:53:00Z,42.12,-92.92,1.7,0.0,320,10,,9.0,30.121063,1020.8,,TRUE,TRUE,,,,,,,OVC,1200,,,,,,,MVFR,0.3,1.7,0.6,,,,,,,,,METAR,296.0
KMKL 271753Z 18016G24KT 10SM CLR 21/13 A3013 RMK AO2 PK WND 20028/1722 SLP199 T02060128 10206 20133 58013,KMKL,2018-03-27T17:53:00Z,35.6,-88.92,20.6,12.8,180,16,24,10.0,30.129921,1019.9,,,TRUE,,,,,,,CLR,,,,,,,,VFR,-1.3,20.6,13.3,,,,,,,,,METAR,128.0
KMKO 271753Z AUTO 32010KT 10SM -RA OVC006 12/12 A3004 RMK AO2 SLP169 P0001 60086 T01220122 10167 20117 53004,KMKO,2018-03-27T17:53:00Z,35.65,-95.37,12.2,12.2,320,10,,10.0,30.041338,1016.9,,TRUE,TRUE,,,,,,-RA,OVC,600,,,,,,,IFR,0.4,16.7,11.7,,,0.01,,0.86,,,,METAR,185.0
KMLB 271753Z 09018G22KT 10SM CLR 24/12 A3029 RMK AO2 SLP256 T02440122 10250 20211 58013,KMLB,2018-03-27T17:53:00Z,28.1,-80.65,24.4,12.2,90,18,22,10.0,30.28937,1025.6,,,TRUE,,,,,,,CLR,,,,,,,,VFR,-1.3,25.0,21.1,,,,,,,,,METAR,11.0
KMLP 271753Z AUTO VRB05G17KT 1/2SM -SN FZFG OVC004 M03/M03 A3006 RMK AO2 SLP217 P0001 60005 T10281033 11028 21033 58001 TSNO,KMLP,2018-03-27T17:53:00Z,47.45,-115.67,-2.8,-3.3,0,5,17,0.5,30.059055,1021.7,,TRUE,TRUE,,,TRUE,,,-SN FZFG,OVC,400,,,,,,,LIFR,-0.1,-2.8,-3.3,,,0.01,,0.05,,,,METAR,1837.0
KMLT 271753Z AUTO 00000KT 10SM CLR 08/M13 A3048 RMK AO2 SLP332 T00831128 10083 21083 56042,KMLT,2018-03-27T17:53:00Z,45.65,-68.7,8.3,-12.8,0,0,,10.0,30.481298,1033.2,,TRUE,TRUE,,,,,,,CLR,,,,,,,,VFR,-4.2,8.3,-8.3,,,,,,,,,METAR,123.0
KMLS 271753Z AUTO 24012KT 10SM CLR 05/M03 A2993 RMK AO2 SLP155 T00501033 10050 21033 58026,KMLS,2018-03-27T17:53:00Z,46.43,-105.88,5.0,-3.3,240,12,,10.0,29.929134,1015.5,,TRUE,TRUE,,,,,,,CLR,,,,,,,,VFR,-2.6,5.0,-3.3,,,,,,,,,METAR,801.0
KMLU 271753Z 16012G21KT 10SM FEW035 BKN048 25/17 A3010 RMK AO2 SLP189 60000 T02500172 10261 20211 58010,KMLU,2018-03-27T17:53:00Z,32.52,-92.03,25.0,17.2,160,12,21,10.0,30.100393,1018.9,,,TRUE,,,,,,,FEW,3500,BKN,4800,,,,,VFR,-1.0,26.1,21.1,,,,,0.005,,,,METAR,29.0
KMMK 271753Z AUTO 00000KT 10SM CLR 09/M09 A3045 RMK AO2 SLP314 T00891089 10089 21028 58030,KMMK,2018-03-27T17:53:00Z,41.52,-72.83,8.9,-8.9,0,0,,10.0,30.448818,1031.4,,TRUE,TRUE,,,,,,,CLR,,,,,,,,VFR,-3.0,8.9,-2.8,,,,,,,,,METAR,31.0
KMMV 271753Z AUTO 20009KT 10SM OVC032 09/07 A3046 RMK AO2 SLP313 60000 T00940072 10094 20061 51004,KMMV,2018-03-27T17:53:00Z,45.2,-123.13,9.4,7.2,200,9,,10.0,30.46063,1031.3,,TRUE,TRUE,,,,,,,OVC,3200,,,,,,,VFR,0.4,9.4,6.1,,,,,0.005,,,,METAR,48.0
KMOD 271753Z 28003KT 10SM CLR 14/03 A3025 RMK AO2 SLP244 T01390028 10144 20067 50007,KMOD,2018-03-27T17:53:00Z,37.62,-120.95,13.9,2.8,280,3,,10.0,30.250984,1024.4,,,TRUE,,,,,,,CLR,,,,,,,,VFR,0.7,14.4,6.7,,,,,,,,,METAR,29.0
KGRR 271753Z 27016KT 3SM BR OVC006 09/09 A2992 RMK AO2 RAB1656E28 SLP133 P0001 60010 T00940089 10106 20072 56001,KGRR,2018-03-27T17:53:00Z,42.88,-85.52,9.4,8.9,270,16,,3.0,29.920275,1013.3,,,TRUE,,,,,,BR,OVC,600,,,,,,,IFR,-0.1,10.6,7.2,,,0.01,,0.1,,,,METAR,237.0
KGRI 271753Z 36010KT 10SM CLR 09/M01 A3016 RMK AO2 SLP227 T00941006 10094 20017 58003,KGRI,2018-03-27T17:53:00Z,40.97,-98.32,9.4,-0.6,360,10,,10.0,30.159449,1022.7,,,TRUE,,,,,,,CLR,,,,,,,,VFR,-0.3,9.4,1.7,,,,,,,,,METAR,561.0
KFDR 271753Z AUTO 35011KT 10SM OVC009 12/09 A3007 RMK AO2 SLP175 60005 T01170094 10144 20117 51040,KFDR,2018-03-27T17:53:00Z,34.35,-98.98,11.7,9.4,350,11,,10.0,30.070866,1017.5,,TRUE,TRUE,,,,,,,OVC,900,,,,,,,IFR,4.0,14.4,11.7,,,,,0.05,,,,METAR,386.0
KFCM 271753Z 28010KT 9SM OVC012 02/M02 A3007 RMK AO2 SLP193 T00221017 10022 20006 51010,KFCM,2018-03-27T17:53:00Z,44.83,-93.47,2.2,-1.7,280,10,,9.0,30.070866,1019.3,,,TRUE,,,,,,,OVC,1200,,,,,,,MVFR,1.0,2.2,0.6,,,,,,,,,METAR,280.0
KFAY 271753Z 34005KT 10SM FEW034 BKN044 OVC055 08/02 A3044 RMK AO2 SLP304 60001 T00780022 10083 20044 58023,KFAY,2018-03-27T17:53:00Z,34.98,-78.88,7.8,2.2,340,5,,10.0,30.43996,1030.4,,,TRUE,,,,,,,FEW,3400,BKN,4400,OVC,5500,,,VFR,-2.3,8.3,4.4,,,,,0.01,,,,METAR,55.0
KGTF 271753Z 22030G44KT 10SM CLR 06/M03 A2982 RMK AO2 PK WND 22044/1746 SLP124 T00611033 10078 20022 58020,KGTF,2018-03-27T17:53:00Z,47.47,-111.38,6.1,-3.3,220,30,44,10.0,29.819881,1012.4,,,TRUE,,,,,,,CLR,,,,,,,,VFR,-2.0,7.8,2.2,,,,,,,,,METAR,1119.0
KGSP 271753Z VRB04KT 10SM OVC023 11/04 A3042 RMK AO2 SLP299 T01060039 10106 20078 56018,KGSP,2018-03-27T17:53:00Z,34.9,-82.22,10.6,3.9,0,4,,10.0,30.41929,1029.9,,,TRUE,,,,,,,OVC,2300,,,,,,,MVFR,-1.8,10.6,7.8,,,,,,,,,METAR,287.0
KGSH 271753Z AUTO 23013KT 10SM -RA OVC006 12/11 A2997 RMK AO2 SLP151 P0004 60016 T01170106 10117 20094 50002,KGSH,2018-03-27T17:53:00Z,41.53,-85.78,11.7,10.6,230,13,,10.0,29.970472,1015.1,,TRUE,TRUE,,,,,,-RA,OVC,600,,,,,,,IFR,0.2,11.7,9.4,,,0.04,,0.16,,,,METAR,252.0
KCEZ 271753Z AUTO VRB06KT 10SM CLR 11/M09 A2999 RMK AO2 SLP140 T01061089 10106 21083 56004,KCEZ,2018-03-27T17:53:00Z,37.3,-108.63,10.6,-8.9,0,6,,10.0,29.991142,1014.0,,TRUE,TRUE,,,,,,,CLR,,,,,,,,VFR,-0.4,10.6,-8.3,,,,,,,,,METAR,1797.0
KCEW 271753Z AUTO 17009G21KT 090V200 10SM FEW037 BKN060 24/13 A3027 RMK AO2 PK WND 14026/1736 SLP248 T02390133 10244 20117 56013,KCEW,2018-03-27T17:53:00Z,30.78,-86.52,23.9,13.3,170,9,21,10.0,30.268702,1024.8,,TRUE,TRUE,,,,,,,FEW,3700,BKN,6000,,,,,VFR,-1.3,24.4,11.7,,,,,,,,,METAR,55.0
KCDW 271753Z 18007KT 10SM CLR 07/M11 A3047 RMK AO2 SLP325 T00671106 10067 21017 58031,KCDW,2018-03-27T17:53:00Z,40.88,-74.28,6.7,-10.6,180,7,,10.0,30.469488,1032.5,,,TRUE,,,,,,,CLR,,,,,,,,VFR,-3.1,6.7,-1.7,,,,,,,,,METAR,64.0
KCRE 271753Z 06003KT 10SM OVC028 12/05 A3041 RMK AO1 SLP298 T01170050 10117 20050 56026,KCRE,2018-03-27T17:53:00Z,33.82,-78.72,11.7,5.0,60,3,,10.0,30.410433,1029.8,,,TRUE,,,,,,,OVC,2800,,,,,,,MVFR,-2.6,11.7,5.0,,,,,,,,,METAR,10.0
KCPR 271753Z 22020G24KT 10SM CLR 06/M08 A3006 RMK AO2 SLP198 T00561078 10056 21067 57014,KCPR,2018-03-27T17:53:00Z,42.9,-106.47,5.6,-7.8,220,20,24,10.0,30.059055,1019.8,,,TRUE,,,,,,,CLR,,,,,,,,VFR,-1.4,5.6,-6.7,,,,,,,,,METAR,1621.0
KCNY 271753Z AUTO 04010KT 10SM CLR 10/M12 A3009 RMK AO2 SLP183 T01001117 10100 21033 $,KCNY,2018-03-27T17:53:00Z,38.77,-109.75,10.0,-11.7,40,10,,10.0,30.088583,1018.3,,TRUE,TRUE,TRUE,,,,,,CLR,,,,,,,,VFR,,10.0,-3.3,,,,,,,,,METAR,1390.0
KCNO 271753Z 31007KT 10SM CLR 21/M02 A3014 RMK AO2 SLP204 T02061017 10206 20044 51007,KCNO,2018-03-27T17:53:00Z,33.98,-117.62,20.6,-1.7,310,7,,10.0,30.138779,1020.4,,,TRUE,,,,,,,CLR,,,,,,,,VFR,0.7,20.6,4.4,,,,,,,,,METAR,207.0
KCNM 271753Z AUTO 36006KT 10SM CLR 19/04 A2992 RMK AO2 SLP092 T01940044 10206 20111 58006 $,KCNM,2018-03-27T17:53:00Z,32.33,-104.25,19.4,4.4,360,6,,10.0,29.920275,1009.2,,TRUE,TRUE,TRUE,,,,,,CLR,,,,,,,,VFR,-0.6,20.6,11.1,,,,,,,,,METAR,985.0
PASO 271753Z AUTO 00000KT 10SM FEW080 OVC110 01/M03 A2979 RMK AO2 SLP088 T00061028 10006 21011 51020 TSNO,PASO,2018-03-27T17:53:00Z,59.45,-151.7,0.6,-2.8,0,0,,10.0,29.790354,1008.8,,TRUE,TRUE,,,TRUE,,,,FEW,8000,OVC,11000,,,,,VFR,2.0,0.6,-1.1,,,,,,,,,METAR,9.0
PATK 271753Z VRB04KT 10SM CLR M08/M19 A2981 RMK AO2 SLP103 T10781189 11078 21150 53026,PATK,2018-03-27T17:53:00Z,62.3,-150.1,-7.8,-18.9,0,4,,10.0,29.811024,1010.3,,,TRUE,,,,,,,CLR,,,,,,,,VFR,2.6,-7.8,-15.0,,,,,,,,,METAR,109.0
KMPO 271753Z AUTO 15008KT 10SM BKN120 01/M09 A3037 RMK AO2 SLP306 T00061089 10006 21033 58025,KMPO,2018-03-27T17:53:00Z,41.13,-75.38,0.6,-8.9,150,8,,10.0,30.369095,1030.6,,TRUE,TRUE,,,,,,,BKN,12000,,,,,,,VFR,-2.5,0.6,-3.3,,,,,,,,,METAR,577.0
KCRG 271753Z 15016G22KT 10SM SCT040 BKN050 23/14 A3033 RMK AO2 SLP270 T02330139 10239 20156 58011,KCRG,2018-03-27T17:53:00Z,30.33,-81.52,23.3,13.9,150,16,22,10.0,30.33071,1027.0,,,TRUE,,,,,,,SCT,4000,BKN,5000,,,,,VFR,-1.1,23.9,15.6,,,,,,,,,METAR,13.0
KCRQ 271753Z VRB05KT 10SM CLR 19/M01 A3011 RMK AO2 SLP196 T01941011 10194 20094 50002,KCRQ,2018-03-27T17:53:00Z,33.13,-117.28,19.4,-1.1,0,5,,10.0,30.109253,1019.6,,,TRUE,,,,,,,CLR,,,,,,,,VFR,0.2,19.4,9.4,,,,,,,,,METAR,99.0
KCRS 271753Z AUTO 19012G20KT 10SM SCT041 BKN050 OVC070 25/17 A3001 RMK AO2 SLP156 T02500172 10272 20206 51006,KCRS,2018-03-27T17:53:00Z,32.03,-96.4,25.0,17.2,190,12,20,10.0,30.008858,1015.6,,TRUE,TRUE,,,,,,,SCT,4100,BKN,5000,OVC,7000,,,VFR,0.6,27.2,20.6,,,,,,,,,METAR,133.0
KCSM 271753Z 02017KT 10SM OVC011 07/04 A3012 RMK AO2 SLP195 60001 T00720044 10078 20067 53020,KCSM,2018-03-27T17:53:00Z,35.35,-99.2,7.2,4.4,20,17,,10.0,30.121063,1019.5,,,TRUE,,,,,,,OVC,1100,,,,,,,MVFR,2.0,7.8,6.7,,,,,0.01,,,,METAR,588.0
KCSV 271753Z AUTO 18010G18KT 10SM SCT018 BKN047 OVC060 12/07 A3028 RMK AO2 SLP252 T01220067 10128 20072 58014,KCSV,2018-03-27T17:53:00Z,35.95,-85.08,12.2,6.7,180,10,18,10.0,30.280512,1025.2,,TRUE,TRUE,,,,,,,SCT,1800,BKN,4700,OVC,6000,,,VFR,-1.4,12.8,7.2,,,,,,,,,METAR,570.0
KCUB 271753Z AUTO VRB04KT 10SM OVC019 10/04 A3043 RMK AO2 SLP305 T01000044 10106 20083 58023,KCUB,2018-03-27T17:53:00Z,33.97,-81.0,10.0,4.4,0,4,,10.0,30.431103,1030.5,,TRUE,TRUE,,,,,,,OVC,1900,,,,,,,MVFR,-2.3,10.6,8.3,,,,,,,,,METAR,56.0
KCUT 271753Z AUTO 24006KT 10SM CLR 03/M06 A3003 RMK AO2 SLP200 T00281061 10028 21089 58010,KCUT,2018-03-27T17:53:00Z,43.73,-103.62,2.8,-6.1,240,6,,10.0,30.029528,1020.0,,TRUE,TRUE,,,,,,,CLR,,,,,,,,VFR,-1.0,2.8,-8.9,,,,,,,,,METAR,1725.0
KCXO 271753Z 14015KT 10SM SCT026 BKN036 OVC047 28/19 A3002 RMK AO2 SLP162 60000 T02780194 10278 20217 58015,KCXO,2018-03-27T17:53:00Z,30.35,-95.42,27.8,19.4,140,15,,10.0,30.02067,1016.2,,,TRUE,,,,,,,SCT,2600,BKN,3600,OVC,4700,,,VFR,-1.5,27.8,21.7,,,,,0.005,,,,METAR,75.0
KCYS 271753Z VRB05KT 10SM CLR 06/M08 A3010 RMK AO2 SLP198 T00561083 10061 21061 58008,KCYS,2018-03-27T17:53:00Z,41.15,-104.8,5.6,-8.3,0,5,,10.0,30.100393,1019.8,,,TRUE,,,,,,,CLR,,,,,,,,VFR,-0.8,6.1,-6.1,,,,,,,,,METAR,1868.0
KFYV 271753Z 00000KT 10SM -RA OVC010 16/14 A3002 RMK AO2 SLP159 P0002 60147 T01560144 10167 20144 55006,KFYV,2018-03-27T17:53:00Z,36.02,-94.17,15.6,14.4,0,0,,10.0,30.02067,1015.9,,,TRUE,,,,,,-RA,OVC,1000,,,,,,,MVFR,-0.6,16.7,14.4,,,0.02,,1.47,,,,METAR,379.0
KDTN 271753Z 18016G24KT 10SM FEW046 SCT060 28/16 A3002 RMK AO2 SLP162 T02780156 10278 20211 58019,KDTN,2018-03-27T17:53:00Z,32.55,-93.75,27.8,15.6,180,16,24,10.0,30.02067,1016.2,,,TRUE,,,,,,,FEW,4600,SCT,6000,,,,,VFR,-1.9,27.8,21.1,,,,,,,,,METAR,53.0
KDRO 271753Z AUTO 14010KT 10SM OVC085 04/M02 A3001 RMK AO2 SLP168 T00391017 10050 20006 53009,KDRO,2018-03-27T17:53:00Z,37.15,-107.77,3.9,-1.7,140,10,,10.0,30.008858,1016.8,,TRUE,TRUE,,,,,,,OVC,8500,,,,,,,VFR,0.9,5.0,0.6,,,,,,,,,METAR,2035.0
KCDS 271753Z AUTO 03011KT 2 1/2SM BR OVC003 08/08 A3009 RMK AO2 SLP182 6//// T00830083 10161 20083 50013,KCDS,2018-03-27T17:53:00Z,34.43,-100.28,8.3,8.3,30,11,,2.5,30.088583,1018.2,,TRUE,TRUE,,,,,,BR,OVC,300,,,,,,,LIFR,1.3,16.1,8.3,,,,,,,,,METAR,594.0
KDNL 271753Z AUTO 07007KT 10SM FEW020 BKN030 OVC065 14/07 A3039 RMK AO2 SLP290 T01390067 10139 20106 56022,KDNL,2018-03-27T17:53:00Z,33.47,-82.03,13.9,6.7,70,7,,10.0,30.389763,1029.0,,TRUE,TRUE,,,,,,,FEW,2000,BKN,3000,OVC,6500,,,MVFR,-2.2,13.9,10.6,,,,,,,,,METAR,130.0
KDMO 271753Z AUTO 36010KT 10SM OVC012 07/05 A3012 RMK AO2 RAE1654 SLP201 P0000 60001 T00670050 10089 20067 51005,KDMO,2018-03-27T17:53:00Z,38.72,-93.17,6.7,5.0,360,10,,10.0,30.121063,1020.1,,TRUE,TRUE,,,,,,,OVC,1200,,,,,,,MVFR,0.5,8.9,6.7,,,0.005,,0.01,,,,METAR,274.0
KDMN 271753Z AUTO 25009KT 210V280 10SM FEW075 15/M04 A2998 RMK AO2 SLP113 T01501044 10150 20017 58002,KDMN,2018-03-27T17:53:00Z,32.27,-107.72,15.0,-4.4,250,9,,10.0,29.97933,1011.3,,TRUE,TRUE,,,,,,,FEW,7500,,,,,,,VFR,-0.2,15.0,1.7,,,,,,,,,METAR,1311.0
KDLS 271753Z AUTO 33018G25KT 10SM BKN050 BKN060 13/06 A3033 RMK AO2 SLP271 T01330056 10133 20078 56006,KDLS,2018-03-27T17:53:00Z,45.62,-121.17,13.3,5.6,330,18,25,10.0,30.33071,1027.1,,TRUE,TRUE,,,,,,,BKN,5000,BKN,6000,,,,,VFR,-0.6,13.3,7.8,,,,,,,,,METAR,71.0
KDLN 271753Z AUTO 23018G25KT 10SM BKN065 06/M04 A3011 RMK AO2 PK WND 22030/1729 SLP206 T00611039 10061 21022 56006,KDLN,2018-03-27T17:53:00Z,45.25,-112.55,6.1,-3.9,230,18,25,10.0,30.109253,1020.6,,TRUE,TRUE,,,,,,,BKN,6500,,,,,,,VFR,-0.6,6.1,-2.2,,,,,,,,,METAR,1591.0
KDKK 271753Z AUTO 17023G32KT 10SM BKN036 OVC045 06/02 A3004 RMK AO2 PK WND 19033/1716 SLP178 60002 T00560017 10056 20033 58036,KDKK,2018-03-27T17:53:00Z,42.5,-79.28,5.6,1.7,170,23,32,10.0,30.041338,1017.8,,TRUE,TRUE,,,,,,,BKN,3600,OVC,4500,,,,,VFR,-3.6,5.6,3.3,,,,,0.02,,,,METAR,202.0
KGCC 271753Z AUTO 18013KT 10SM CLR 01/M04 A3000 RMK AO2 SLP184 T00111044 10011 21039 58017,KGCC,2018-03-27T17:53:00Z,44.33,-105.55,1.1,-4.4,180,13,,10.0,30.0,1018.4,,TRUE,TRUE,,,,,,,CLR,,,,,,,,VFR,-1.7,1.1,-3.9,,,,,,,,,METAR,1320.0
KGEG 271753Z 19012KT 10SM SCT014 BKN045 OVC150 05/02 A3014 RMK AO2 SLP219 T00500022 10050 20033 56006,KGEG,2018-03-27T17:53:00Z,47.62,-117.53,5.0,2.2,190,12,,10.0,30.138779,1021.9,,,TRUE,,,,,,,SCT,1400,BKN,4500,OVC,15000,,,VFR,-0.6,5.0,3.3,,,,,,,,,METAR,735.0
KGEY 271753Z AUTO A3003 RMK AO2 SLPNO 58020 PWINO $,KGEY,2018-03-27T17:53:00Z,44.52,-108.08,,,,,,,30.029528,,,TRUE,TRUE,TRUE,,,,TRUE,,,,,,,,,,,-2.0,,,,,,,,,,,METAR,1191.0
KGEZ 271753Z AUTO 20009KT 4SM BR OVC006 12/11 A3006 RMK AO2 RAE28 CIG 004V009 SLP181 P0000 60025 T01170106 10117 20100 57004,KGEZ,2018-03-27T17:53:00Z,39.58,-85.8,11.7,10.6,200,9,,4.0,30.059055,1018.1,,TRUE,TRUE,,,,,,BR,OVC,600,,,,,,,IFR,-0.4,11.7,10.0,,,0.005,,0.25,,,,METAR,245.0
KGFL 271753Z AUTO 22005KT 10SM CLR 07/M08 A3040 RMK AO2 PRESFR SLP303 T00671083 10067 21044 58034,KGFL,2018-03-27T17:53:00Z,43.33,-73.62,6.7,-8.3,220,5,,10.0,30.398623,1030.3,,TRUE,TRUE,,,,,,,CLR,,,,,,,,VFR,-3.4,6.7,-4.4,,,,,,,,,METAR,103.0
KGGG 271753Z 18016G27KT 10SM SCT047 28/17 A3000 RMK AO2 PK WND 20029/1654 SLP152 60000 T02780167 10278 20211 56014,KGGG,2018-03-27T17:53:00Z,32.38,-94.72,27.8,16.7,180,16,27,10.0,30.0,1015.2,,,TRUE,,,,,,,SCT,4700,,,,,,,VFR,-1.4,27.8,21.1,,,,,0.005,,,,METAR,107.0
KGGW 271753Z AUTO 23013KT 10SM CLR 06/M02 A2982 RMK AO2 SLP117 T00561022 10056 21028 58027,KGGW,2018-03-27T17:53:00Z,48.22,-106.62,5.6,-2.2,230,13,,10.0,29.819881,1011.7,,TRUE,TRUE,,,,,,,CLR,,,,,,,,VFR,-2.7,5.6,-2.8,,,,,,,,,METAR,694.0
KANB 271753Z AUTO 13007KT 10SM BKN031 17/10 A3031 RMK AO2 SLP265 T01670100 10172 20100 58021,KANB,2018-03-27T17:53:00Z,33.58,-85.85,16.7,10.0,130,7,,10.0,30.31004,1026.5,,TRUE,TRUE,,,,,,,BKN,3100,,,,,,,VFR,-2.1,17.2,10.0,,,,,,,,,METAR,183.0
KAOH 271753Z AUTO 21011G19KT 9SM -RA OVC010 12/11 A3002 RMK AO2 RAB13 SLP170 P0001 60025 T01170106 10117 20072 56006,KAOH,2018-03-27T17:53:00Z,40.7,-84.02,11.7,10.6,210,11,19,9.0,30.02067,1017.0,,TRUE,TRUE,,,,,,-RA,OVC,1000,,,,,,,MVFR,-0.6,11.7,7.2,,,0.01,,0.25,,,,METAR,296.0
KAPA 271753Z 15007KT 10SM FEW035 SCT075 BKN220 02/M06 A3015 RMK AO2 SLP229 60000 T00221056 10022 21044 58003,KAPA,2018-03-27T17:53:00Z,39.57,-104.85,2.2,-5.6,150,7,,10.0,30.15059,1022.9,,,TRUE,,,,,,,FEW,3500,SCT,7500,BKN,22000,,,VFR,-0.3,2.2,-4.4,,,,,0.005,,,,METAR,1775.0
KAPF 271753Z 08015G23KT 10SM FU CLR 28/13 A3019 RMK AO2 PK WND 08026/1733 SLP222 T02780133 10283 20194 58015,KAPF,2018-03-27T17:53:00Z,26.15,-81.77,27.8,13.3,80,15,23,10.0,30.188976,1022.2,,,TRUE,,,,,,FU,CLR,,,,,,,,VFR,-1.5,28.3,19.4,,,,,,,,,METAR,3.0
KGUP 271753Z AUTO 00000KT 10SM OVC055 04/M08 A3003 RMK AO2 SLP147 60000 T00391083 10044 21011 51007,KGUP,2018-03-27T17:53:00Z,35.52,-108.8,3.9,-8.3,0,0,,10.0,30.029528,1014.7,,TRUE,TRUE,,,,,,,OVC,5500,,,,,,,VFR,0.7,4.4,-1.1,,,,,0.005,,,,METAR,1971.0
KGUY 271753Z AUTO 04010KT 10SM BKN023 OVC043 07/02 A3016 RMK AO2 SLP205 60001 T00720022 10078 20044 50001,KGUY,2018-03-27T17:53:00Z,36.68,-101.5,7.2,2.2,40,10,,10.0,30.159449,1020.5,,TRUE,TRUE,,,,,,,BKN,2300,OVC,4300,,,,,MVFR,0.1,7.8,4.4,,,,,0.01,,,,METAR,948.0
KGVL 271753Z AUTO VRB06KT 10SM OVC012 08/06 A3039 RMK AO2 SLP291 T00830056 10083 20067 58019,KGVL,2018-03-27T17:53:00Z,34.27,-83.83,8.3,5.6,0,6,,10.0,30.389763,1029.1,,TRUE,TRUE,,,,,,,OVC,1200,,,,,,,MVFR,-1.9,8.3,6.7,,,,,,,,,METAR,386.0
KGWO 271753Z AUTO 17021G27KT 10SM FEW065 23/13 A3017 RMK AO2 PK WND 16027/1751 SLP214 T02330128 10244 20156 58010,KGWO,2018-03-27T17:53:00Z,33.5,-90.08,23.3,12.8,170,21,27,10.0,30.171259,1021.4,,TRUE,TRUE,,,,,,,FEW,6500,,,,,,,VFR,-1.0,24.4,15.6,,,,,,,,,METAR,44.0
KGZH 271753Z AUTO 15012KT 10SM SCT025 OVC031 21/13 A3027 RMK AO2 SLP249 T02060133 10206 20117 58014,KGZH,2018-03-27T17:53:00Z,31.42,-87.05,20.6,13.3,150,12,,10.0,30.268702,1024.9,,TRUE,TRUE,,,,,,,SCT,2500,OVC,3100,,,,,VFR,-1.4,20.6,11.7,,,,,,,,,METAR,78.0
KHBG 271753Z AUTO 10007KT 10SM OVC012 17/14 A3024 RMK AO2 SLP239 T01670144 10172 20150 58003,KHBG,2018-03-27T17:53:00Z,31.27,-89.25,16.7,14.4,100,7,,10.0,30.239174,1023.9,,TRUE,TRUE,,,,,,,OVC,1200,,,,,,,MVFR,-0.3,17.2,15.0,,,,,,,,,METAR,44.0
KHBR 271753Z AUTO 04014KT 7SM OVC008 09/07 A3011 RMK AO2 SLP194 60001 T00890072 10100 20089 51022,KHBR,2018-03-27T17:53:00Z,34.98,-99.05,8.9,7.2,40,14,,7.0,30.109253,1019.4,,TRUE,TRUE,,,,,,,OVC,800,,,,,,,IFR,2.2,10.0,8.9,,,,,0.01,,,,METAR,473.0
KHEI 271753Z AUTO 25012KT 10SM CLR 09/M06 A2998 RMK AO2 SLP170 T00891056 10094 21033 58012,KHEI,2018-03-27T17:53:00Z,46.02,-102.65,8.9,-5.6,250,12,,10.0,29.97933,1017.0,,TRUE,TRUE,,,,,,,CLR,,,,,,,,VFR,-1.2,9.4,-3.3,,,,,,,,,METAR,828.0
KHGR 271753Z 16011KT 7SM -RA SCT014 BKN021 OVC080 04/02 A3038 RMK AO2 SLP304 P0003 60006 T00390017 10039 20011 58035,KHGR,2018-03-27T17:53:00Z,39.7,-77.73,3.9,1.7,160,11,,7.0,30.380905,1030.4,,,TRUE,,,,,,-RA,SCT,1400,BKN,2100,OVC,8000,,,MVFR,-3.5,3.9,1.1,,,0.03,,0.06,,,,METAR,224.0
KHHR 271753Z 13006KT 10SM CLR 21/M04 A3013 RMK AO2 SLP201 T02111039 10222 20106 57001 $,KHHR,2018-03-27T17:53:00Z,33.92,-118.33,21.1,-3.9,130,6,,10.0,30.129921,1020.1,,,TRUE,TRUE,,,,,,CLR,,,,,,,,VFR,-0.1,22.2,10.6,,,,,,,,,METAR,18.0
KHIB 271753Z AUTO 28006KT 10SM BKN019 02/M03 A2994 RMK AO2 SLP157 60000 T00171033 10017 21022 50000,KHIB,2018-03-27T17:53:00Z,47.38,-92.83,1.7,-3.3,280,6,,10.0,29.940945,1015.7,,TRUE,TRUE,,,,,,,BKN,1900,,,,,,,MVFR,0.0,1.7,-2.2,,,,,0.005,,,,METAR,412.0
KHJO 271753Z AUTO VRB04KT 10SM CLR 14/04 A3028 RMK AO2 SLP254 T01390044 10139 20039 51010,KHJO,2018-03-27T17:53:00Z,36.32,-119.62,13.9,4.4,0,4,,10.0,30.280512,1025.4,,TRUE,TRUE,,,,,,,CLR,,,,,,,,VFR,1.0,13.9,3.9,,,,,,,,,METAR,74.0
KHKA 271753Z AUTO 20014G29KT 10SM OVC033 21/13 A3007 RMK AO2 PK WND 21029/1750 SLP182 T02110133 10217 20144 58014,KHKA,2018-03-27T17:53:00Z,35.93,-89.83,21.1,13.3,200,14,29,10.0,30.070866,1018.2,,TRUE,TRUE,,,,,,,OVC,3300,,,,,,,VFR,-1.4,21.7,14.4,,,,,,,,,METAR,78.0
KHKY 271753Z 00000KT 10SM OVC028 08/02 A3040 RMK AO2 SLP288 T00830017 10083 20061 58014,KHKY,2018-03-27T17:53:00Z,35.75,-81.38,8.3,1.7,0,0,,10.0,30.398623,1028.8,,,TRUE,,,,,,,OVC,2800,,,,,,,MVFR,-1.4,8.3,6.1,,,,,,,,,METAR,354.0
KHLC 271753Z AUTO 01011KT 10SM CLR 07/01 A3020 RMK AO2 SLP232 T00720006 10072 20022 50000,KHLC,2018-03-27T17:53:00Z,39.37,-99.83,7.2,0.6,10,11,,10.0,30.200787,1023.2,,TRUE,TRUE,,,,,,,CLR,,,,,,,,VFR,0.0,7.2,2.2,,,,,,,,,METAR,669.0
KHLG 271753Z 20009KT 10SM OVC011 08/06 A3013 RMK AO2 RAE18 SLP213 P0001 60023 T00780061 10078 20028 58030,KHLG,2018-03-27T17:53:00Z,40.17,-80.65,7.8,6.1,200,9,,10.0,30.129921,1021.3,,,TRUE,,,,,,,OVC,1100,,,,,,,MVFR,-3.0,7.8,2.8,,,0.01,,0.23,,,,METAR,372.0
KHLN 271753Z 27008G16KT 10SM OVC050 08/M03 A3001 RMK AO2 SLP189 T00781033 10078 20039 58010,KHLN,2018-03-27T17:53:00Z,46.6,-111.98,7.8,-3.3,270,8,16,10.0,30.008858,1018.9,,,TRUE,,,,,,,OVC,5000,,,,,,,VFR,-1.0,7.8,3.9,,,,,,,,,METAR,1182.0
KHOT 271753Z AUTO 18006KT 10SM FEW028 SCT035 SCT110 24/19 A3001 RMK AO2 SLP157 T02440194 10244 20206 58006,KHOT,2018-03-27T17:53:00Z,34.48,-93.1,24.4,19.4,180,6,,10.0,30.008858,1015.7,,TRUE,TRUE,,,,,,,FEW,2800,SCT,3500,SCT,11000,,,VFR,-0.6,24.4,20.6,,,,,,,,,METAR,162.0
KHOU 271753Z 16010G20KT 10SM SCT025 OVC040 26/21 A3002 RMK AO2 SLP171 T02560206 10261 20211 58009,KHOU,2018-03-27T17:53:00Z,29.63,-95.28,25.6,20.6,160,10,20,10.0,30.02067,1017.1,,,TRUE,,,,,,,SCT,2500,OVC,4000,,,,,VFR,-0.9,26.1,21.1,,,,,,,,,METAR,36.0
KHQM 271753Z AUTO 23014KT 2SM -RA BR OVC007 10/09 A3035 RMK AO2 SLP281 P0008 60067 T01000094 10100 20094 52008,KHQM,2018-03-27T17:53:00Z,46.97,-123.93,10.0,9.4,230,14,,2.0,30.351377,1028.1,,TRUE,TRUE,,,,,,-RA BR,OVC,700,,,,,,,IFR,0.8,10.0,9.4,,,0.08,,0.67,,,,METAR,7.0
KHRI 271753Z AUTO 23019G27KT 10SM CLR 13/03 A3027 RMK AO2 PK WND 24029/1743 SLP249 T01330028 10139 20056 58007,KHRI,2018-03-27T17:53:00Z,45.83,-119.27,13.3,2.8,230,19,27,10.0,30.268702,1024.9,,TRUE,TRUE,,,,,,,CLR,,,,,,,,VFR,-0.7,13.9,5.6,,,,,,,,,METAR,195.0
KHRO 271753Z AUTO 10007KT 9SM -RA OVC006 14/14 A3001 RMK AO2 TSE1658 SLP157 P0006 60164 T01440144 10161 20139 50014,KHRO,2018-03-27T17:53:00Z,36.27,-93.15,14.4,14.4,100,7,,9.0,30.008858,1015.7,,TRUE,TRUE,,,,,,-RA,OVC,600,,,,,,,IFR,1.4,16.1,13.9,,,0.06,,1.64,,,,METAR,417.0
KDAB 271753Z 12007G17KT 090V150 10SM SCT037 23/13 A3031 RMK AO2 SLP263 T02280133 10233 20194 58013,KDAB,2018-03-27T17:53:00Z,29.18,-81.07,22.8,13.3,120,7,17,10.0,30.31004,1026.3,,,TRUE,,,,,,,SCT,3700,,,,,,,VFR,-1.3,23.3,19.4,,,,,,,,,METAR,9.0
KDAN 271753Z AUTO 00000KT 10SM OVC016 05/02 A3045 RMK AO2 SLP308 60004 T00500022 10050 20017 58029,KDAN,2018-03-27T17:53:00Z,36.57,-79.33,5.0,2.2,0,0,,10.0,30.448818,1030.8,,TRUE,TRUE,,,,,,,OVC,1600,,,,,,,MVFR,-2.9,5.0,1.7,,,,,0.04,,,,METAR,175.0
KDBQ 271753Z 31011KT 9SM OVC011 03/01 A3005 RMK AO2 SLP184 T00330006 10039 20011 51013,KDBQ,2018-03-27T17:53:00Z,42.4,-90.7,3.3,0.6,310,11,,9.0,30.050198,1018.4,,,TRUE,,,,,,,OVC,1100,,,,,,,MVFR,1.3,3.9,1.1,,,,,,,,,METAR,326.0
KDCU 271753Z AUTO 16013KT 10SM OVC021 16/09 A3027 RMK AO2 SLP249 T01560094 10156 20089 58022,KDCU,2018-03-27T17:53:00Z,34.65,-86.95,15.6,9.4,160,13,,10.0,30.268702,1024.9,,TRUE,TRUE,,,,,,,OVC,2100,,,,,,,MVFR,-2.2,15.6,8.9,,,,,,,,,METAR,176.0
KDEN 271753Z 16007KT 10SM FEW050 BKN220 02/M02 A3015 RMK AO2 SLP216 I6000 T00221022 10022 21044 58005,KDEN,2018-03-27T17:53:00Z,39.85,-104.65,2.2,-2.2,160,7,,10.0,30.15059,1021.6,,,TRUE,,,,,,,FEW,5000,BKN,22000,,,,,VFR,-0.5,2.2,-4.4,,,,,,,,,METAR,1640.0
KDEQ 271753Z AUTO 21014G18KT 10SM SCT047 BKN060 BKN085 26/18 A2995 RMK AO2 SLP139 T02560178 10261 20211 58011,KDEQ,2018-03-27T17:53:00Z,34.05,-94.4,25.6,17.8,210,14,18,10.0,29.949802,1013.9,,TRUE,TRUE,,,,,,,SCT,4700,BKN,6000,BKN,8500,,,VFR,-1.1,26.1,21.1,,,,,,,,,METAR,106.0
KDET 271753Z 21010KT 3SM -RA BR OVC006 09/07 A2996 RMK AO2 RAE15B40 SLP148 P0000 60015 T00890072 10089 20044 56020,KDET,2018-03-27T17:53:00Z,42.4,-83.02,8.9,7.2,210,10,,3.0,29.958662,1014.8,,,TRUE,,,,,,-RA BR,OVC,600,,,,,,,IFR,-2.0,8.9,4.4,,,0.005,,0.15,,,,METAR,190.0
KDEW 271753Z AUTO 19010KT 10SM OVC018 06/02 A3014 RMK AO2 SLP220 T00560022 10056 20028 58004,KDEW,2018-03-27T17:53:00Z,47.97,-117.43,5.6,2.2,190,10,,10.0,30.138779,1022.0,,TRUE,TRUE,,,,,,,OVC,1800,,,,,,,MVFR,-0.4,5.6,2.8,,,,,,,,,METAR,674.0
KDFI 271753Z AUTO 22012G21KT 6SM -RA BR OVC008 12/10 A2998 RMK AO2 CIG 006V011 SLP155 P0001 60030 T01170100 10117 20078 58007,KDFI,2018-03-27T17:53:00Z,41.33,-84.43,11.7,10.0,220,12,21,6.0,29.97933,1015.5,,TRUE,TRUE,,,,,,-RA BR,OVC,800,,,,,,,IFR,-0.7,11.7,7.8,,,0.01,,0.3,,,,METAR,219.0
KDFW 271753Z 35004KT 1 1/2SM R17C/4500VP6000FT +RA BR SCT008 BKN040 OVC060 17/17 A3002 RMK AO2 SLP159 P0016 60079 T01720172 10222 20172 51013,KDFW,2018-03-27T17:53:00Z,32.9,-97.02,17.2,17.2,350,4,,1.5,30.02067,1015.9,,,TRUE,,,,,,+RA BR,SCT,800,BKN,4000,OVC,6000,,,IFR,1.3,22.2,17.2,,,0.16,,0.79,,,,METAR,174.0
KDGW 271753Z AUTO VRB05KT 10SM CLR 07/M06 A3006 RMK AO2 SLP199 I6001 T00671061 10072 21089 58020,KDGW,2018-03-27T17:53:00Z,42.8,-105.38,6.7,-6.1,0,5,,10.0,30.059055,1019.9,,TRUE,TRUE,,,,,,,CLR,,,,,,,,VFR,-2.0,7.2,-8.9,,,,,,,,,METAR,1499.0
KDHN 271753Z VRB05KT 10SM BKN024 21/12 A3032 RMK AO2 SLP265 T02060122 10206 20106 58016,KDHN,2018-03-27T17:53:00Z,31.32,-85.45,20.6,12.2,0,5,,10.0,30.318897,1026.5,,,TRUE,,,,,,,BKN,2400,,,,,,,MVFR,-1.6,20.6,10.6,,,,,,,,,METAR,113.0
KPRC 271753Z 35009KT 10SM CLR 11/M09 A3006 RMK AO2 SLP150 T01061094 10106 21006 50003,KPRC,2018-03-27T17:53:00Z,34.65,-112.42,10.6,-9.4,350,9,,10.0,30.059055,1015.0,,,TRUE,,,,,,,CLR,,,,,,,,VFR,0.3,10.6,-0.6,,,,,,,,,METAR,1524.0
KHFD 271753Z 00000KT 10SM CLR 08/M08 A3046 RMK AO2 SLP314 T00831083 10083 21017 58031,KHFD,2018-03-27T17:53:00Z,41.73,-72.65,8.3,-8.3,0,0,,10.0,30.46063,1031.4,,,TRUE,,,,,,,CLR,,,,,,,,VFR,-3.1,8.3,-1.7,,,,,,,,,METAR,4.0
KHKS 271753Z 14010G16KT 10SM OVC022 19/14 A3023 RMK AO2 SLP229 60000 T01890139 10194 20150 58002,KHKS,2018-03-27T17:53:00Z,32.33,-90.22,18.9,13.9,140,10,16,10.0,30.230314,1022.9,,,TRUE,,,,,,,OVC,2200,,,,,,,MVFR,-0.2,19.4,15.0,,,,,0.005,,,,METAR,108.0
KGFK 271753Z 25009KT 10SM CLR 03/M01 A2993 RMK AO2 SLP145 4/007 933017 I6000 T00281011 10028 21061 58002,KGFK,2018-03-27T17:53:00Z,47.95,-97.18,2.8,-1.1,250,9,,10.0,29.929134,1014.5,,,TRUE,,,,,,,CLR,,,,,,,,VFR,-0.2,2.8,-6.1,,,,,,,7.0,,METAR,258.0
KGIF 271753Z AUTO 09016KT 10SM CLR 27/12 A3028 RMK AO2 SLP250 T02670117 10267 20172 58012,KGIF,2018-03-27T17:53:00Z,28.07,-81.75,26.7,11.7,90,16,,10.0,30.280512,1025.0,,TRUE,TRUE,,,,,,,CLR,,,,,,,,VFR,-1.2,26.7,17.2,,,,,,,,,METAR,43.0
KILM 271753Z 33004KT 10SM OVC050 11/05 A3043 RMK AO2 SLP302 T01110050 10111 20028 58025,KILM,2018-03-27T17:53:00Z,34.27,-77.9,11.1,5.0,330,4,,10.0,30.431103,1030.2,,,TRUE,,,,,,,OVC,5000,,,,,,,VFR,-2.5,11.1,2.8,,,,,,,,,METAR,9.0
KNHK 271752Z 10006KT 10SM BKN120 BKN200 05/M01 A3047 RMK AO2 SLP318 T00501006 10056 20011 58030 VISNO RY24 $,KNHK,2018-03-27T17:52:00Z,38.27,-76.4,5.0,-0.6,100,6,,10.0,30.469488,1031.8,,,TRUE,TRUE,,,,,,BKN,12000,BKN,20000,,,,,VFR,-3.0,5.6,1.1,,,,,,,,,SPECI,12.0
KBML 271752Z AUTO 19011KT 10SM CLR 07/M12 A3039 RMK AO2 SLP306 T00721117 10072 21106 56042,KBML,2018-03-27T17:52:00Z,44.58,-71.18,7.2,-11.7,190,11,,10.0,30.389763,1030.6,,TRUE,TRUE,,,,,,,CLR,,,,,,,,VFR,-4.2,7.2,-10.6,,,,,,,,,METAR,345.0
KMHK 271752Z 03007G15KT 10SM BKN025 08/02 A3017 RMK AO2 SLP219 T00830017 10083 20044 50007,KMHK,2018-03-27T17:52:00Z,39.13,-96.68,8.3,1.7,30,7,15,10.0,30.171259,1021.9,,,TRUE,,,,,,,BKN,2500,,,,,,,MVFR,0.7,8.3,4.4,,,,,,,,,METAR,317.0
MUSC 271752Z 08016KT 9000 BKN012 24/17 Q1020,MUSC,2018-03-27T17:52:00Z,22.5,-79.95,24.0,17.0,80,16,,5.59,30.11811,,,,,,,,,,,BKN,1200,,,,,,,MVFR,,,,,,,,,,,,METAR,103.0
KEKM 271752Z 23009KT 2SM -RABR OVC007 11/10 A2997 RMK AO2,KEKM,2018-03-27T17:52:00Z,41.72,-86.0,11.0,10.0,230,9,,2.0,29.970472,,,,TRUE,,,,,,-RA BR,OVC,700,,,,,,,IFR,,,,,,,,,,,,METAR,237.0
MMPA 271752Z 00000KT 5SM SCT02032/24 A2990 RMK SLP106 57010 955 8/100 HZY,MMPA,2018-03-27T17:52:00Z,20.5,-97.47,32.0,24.0,0,0,,5.0,29.899607,1010.6,,,,,,,,,,,,,,,,,,,-1.0,,,,,,,,,,,SPECI,142.0
MMLT 271752Z 03022KT 8SM FEW200 20/12 A3003 RMK SLP169 8/005,MMLT,2018-03-27T17:52:00Z,26.02,-111.33,20.0,12.0,30,22,,8.0,30.029528,1016.9,,,,,,,,,,FEW,20000,,,,,,,VFR,,,,,,,,,,,,SPECI,15.0
KTAN 271752Z AUTO 01007KT 10SM CLR 08/M05 A3044 RMK AO2 SLP308 T00831050 10089 20000 58029,KTAN,2018-03-27T17:52:00Z,41.88,-71.02,8.3,-5.0,10,7,,10.0,30.43996,1030.8,,TRUE,TRUE,,,,,,,CLR,,,,,,,,VFR,-2.9,8.9,0.0,,,,,,,,,METAR,7.0
KREO 271752Z AUTO 23006KT 09/M03 A3033 RMK AO1 SLP283 T00941033 10100 21050 50000,KREO,2018-03-27T17:52:00Z,42.58,-117.87,9.4,-3.3,230,6,,,30.33071,1028.3,,TRUE,TRUE,,,,,,,,,,,,,,,,0.0,10.0,-5.0,,,,,,,,,METAR,1235.0
KORE 271752Z AUTO 10006KT 10SM CLR 09/M16 A3045 RMK AO2 SLP317 T00891156 10089 21050 56036,KORE,2018-03-27T17:52:00Z,42.57,-72.28,8.9,-15.6,100,6,,10.0,30.448818,1031.7,,TRUE,TRUE,,,,,,,CLR,,,,,,,,VFR,-3.6,8.9,-5.0,,,,,,,,,METAR,164.0
KNZY 271752Z 20004KT 10SM CLR 16/06 A3013 RMK AO2 SLP201 T01610061 10161 20078 51004 $,KNZY,2018-03-27T17:52:00Z,32.7,-117.22,16.1,6.1,200,4,,10.0,30.129921,1020.1,,,TRUE,TRUE,,,,,,CLR,,,,,,,,VFR,0.4,16.1,7.8,,,,,,,,,METAR,8.0
KNRB 271752Z 12012KT 10SM BKN050 BKN250 22/14 A3033 RMK AO2 SLP271 6//// T02220144 10228 20167 58012 $,KNRB,2018-03-27T17:52:00Z,30.38,-81.42,22.2,14.4,120,12,,10.0,30.33071,1027.1,,,TRUE,TRUE,,,,,,BKN,5000,BKN,25000,,,,,VFR,-1.2,22.8,16.7,,,,,,,,,METAR,5.0
MMUN 271752Z 08009KT 7SM SCT015 28/21 A3007 RMK SLP184 57008 904 8/100 MDT CU,MMUN,2018-03-27T17:52:00Z,21.02,-86.85,28.0,21.0,80,9,,7.0,30.070866,1018.4,,,,,,,,,,SCT,1500,,,,,,,VFR,-0.8,,,,,,,,,,,METAR,10.0
KCDJ 271752Z AUTO 36006KT 06/02 A3014 RMK AO1 SLP214 T00610022 10067 20044 58002,KCDJ,2018-03-27T17:52:00Z,39.82,-93.58,6.1,2.2,360,6,,,30.138779,1021.4,,TRUE,TRUE,,,,,,,,,,,,,,,,-0.2,6.7,4.4,,,,,,,,,METAR,234.0
KCZZ 271752Z AUTO 00000KT 17/M08 A3007 RMK AO1 SLP168 T01721083 10172 21022 50001,KCZZ,2018-03-27T17:52:00Z,32.63,-116.47,17.2,-8.3,0,0,,,30.070866,1016.8,,TRUE,TRUE,,,,,,,,,,,,,,,,0.1,17.2,-2.2,,,,,,,,,METAR,807.0
KP69 271752Z AUTO VRB03KT 08/03 A3026 RMK AO1 SLP257 60001 T00830033 10083 20033 58018,KP69,2018-03-27T17:52:00Z,46.15,-115.6,8.3,3.3,0,3,,,30.259842,1025.7,,TRUE,TRUE,,,,,,,,,,,,,,,,-1.8,8.3,3.3,,,,,0.01,,,,METAR,480.0
KBAN 271752Z AUTO 00000KT 10SM CLR 01/M11 A3032 RMK AO2 SLP281 T00111106 10011 21106 56004 $,KBAN,2018-03-27T17:52:00Z,38.35,-119.52,1.1,-10.6,0,0,,10.0,30.318897,1028.1,,TRUE,TRUE,TRUE,,,,,,CLR,,,,,,,,VFR,-0.4,1.1,-10.6,,,,,,,,,METAR,2057.0
KDPA 271752Z 28011KT 5SM BR BKN010 OVC015 08/07 A2998 RMK AO2 SLP154 60001 T00830067 10094 20078 51009,KDPA,2018-03-27T17:52:00Z,41.92,-88.25,8.3,6.7,280,11,,5.0,29.97933,1015.4,,,TRUE,,,,,,BR,BKN,1000,OVC,1500,,,,,MVFR,0.9,9.4,7.8,,,,,0.01,,,,METAR,231.0
KDVN 271752Z AUTO 31012KT 6SM HZ OVC011 03/00 A3009 RMK AO2 SLP191 T00330000 10033 20017 53004,KDVN,2018-03-27T17:52:00Z,41.62,-90.58,3.3,0.0,310,12,,6.0,30.088583,1019.1,,TRUE,TRUE,,,,,,HZ,OVC,1100,,,,,,,MVFR,0.4,3.3,1.7,,,,,,,,,METAR,230.0
KFIT 271752Z AUTO 00000KT 10SM CLR 09/M13 A3047 RMK AO2 SLP321 T00891128 10089 21011 56034,KFIT,2018-03-27T17:52:00Z,42.55,-71.75,8.9,-12.8,0,0,,10.0,30.469488,1032.1,,TRUE,TRUE,,,,,,,CLR,,,,,,,,VFR,-3.4,8.9,-1.1,,,,,,,,,METAR,103.0
KEST 271752Z AUTO 31009KT 10SM CLR 02/M01 A3009 RMK AO2 SLP205 T00221011 10022 20000 58004,KEST,2018-03-27T17:52:00Z,43.4,-94.75,2.2,-1.1,310,9,,10.0,30.088583,1020.5,,TRUE,TRUE,,,,,,,CLR,,,,,,,,VFR,-0.4,2.2,0.0,,,,,,,,,METAR,401.0
KGLS 271752Z 10011KT 5SM HZ BKN027 OVC033 24/21 A3004 RMK AO2 SLP173 T02440211 10250 20211 58001,KGLS,2018-03-27T17:52:00Z,29.27,-94.87,24.4,21.1,100,11,,5.0,30.041338,1017.3,,,TRUE,,,,,,HZ,BKN,2700,OVC,3300,,,,,MVFR,-0.1,25.0,21.1,,,,,,,,,METAR,6.0
KHIE 271752Z AUTO 15013G19KT 10SM CLR 09/M15 A3037 RMK AO2 SLP297 T00891150 10089 21083 56040 $,KHIE,2018-03-27T17:52:00Z,44.37,-71.55,8.9,-15.0,150,13,19,10.0,30.369095,1029.7,,TRUE,TRUE,TRUE,,,,,,CLR,,,,,,,,VFR,-4.0,8.9,-8.3,,,,,,,,,METAR,318.0
KHRL 271752Z 17016G24KT 10SM SCT031 OVC044 29/22 A2989 RMK AO2 PK WND 15030/1716 SLP120 T02940217 10311 20239 58001,KHRL,2018-03-27T17:52:00Z,26.23,-97.65,29.4,21.7,170,16,24,10.0,29.890747,1012.0,,,TRUE,,,,,,,SCT,3100,OVC,4400,,,,,VFR,-0.1,31.1,23.9,,,,,,,,,METAR,10.0
KHUT 271752Z 01012KT 10SM OVC019 06/02 A3016 RMK AO2 SLP211 60000 T00610017 10072 20050 50002,KHUT,2018-03-27T17:52:00Z,38.07,-97.87,6.1,1.7,10,12,,10.0,30.159449,1021.1,,,TRUE,,,,,,,OVC,1900,,,,,,,MVFR,0.2,7.2,5.0,,,,,0.005,,,,METAR,467.0
KIEN 271752Z AUTO 27009KT CLR 11/M04 A3009 RMK AO2 SLP202 T01061044 10106 21044 58017,KIEN,2018-03-27T17:52:00Z,43.03,-102.52,10.6,-4.4,270,9,,,30.088583,1020.2,,TRUE,TRUE,,,,,,,CLR,,,,,,,,,-1.7,10.6,-4.4,,,,,,,,,METAR,998.0
KIJD 271752Z AUTO 36006KT 10SM CLR 10/M10 A3045 RMK AO2 SLP312 T01001100 10100 21028 56037 $,KIJD,2018-03-27T17:52:00Z,41.75,-72.18,10.0,-10.0,360,6,,10.0,30.448818,1031.2,,TRUE,TRUE,TRUE,,,,,,CLR,,,,,,,,VFR,-3.7,10.0,-2.8,,,,,,,,,METAR,75.0
KIOW 271752Z AUTO 31011KT 10SM OVC014 03/M01 A3012 RMK AO2 SLP204 T00281006 10033 20017 53004,KIOW,2018-03-27T17:52:00Z,41.63,-91.55,2.8,-0.6,310,11,,10.0,30.121063,1020.4,,TRUE,TRUE,,,,,,,OVC,1400,,,,,,,MVFR,0.4,3.3,1.7,,,,,,,,,METAR,198.0
KISN 271752Z AUTO 20010KT 10SM SCT110 05/M02 A2987 RMK AO2 SLP136 6//// T00501022 10050 21056 58022,KISN,2018-03-27T17:52:00Z,48.17,-103.63,5.0,-2.2,200,10,,10.0,29.870079,1013.6,,TRUE,TRUE,,,,,,,SCT,11000,,,,,,,VFR,-2.2,5.0,-5.6,,,,,,,,,METAR,579.0
KLWC 271752Z AUTO 35007KT 10SM OVC019 07/03 A3015 RMK AO2 SLP213 T00670028 10067 20050 51002,KLWC,2018-03-27T17:52:00Z,39.02,-95.22,6.7,2.8,350,7,,10.0,30.15059,1021.3,,TRUE,TRUE,,,,,,,OVC,1900,,,,,,,MVFR,0.2,6.7,5.0,,,,,,,,,METAR,253.0
KMBG 271752Z AUTO 26008KT 10SM CLR 10/01 A2999 RMK AO2 SLP167 6//// T01000006 10100 21033 58012,KMBG,2018-03-27T17:52:00Z,45.55,-100.42,10.0,0.6,260,8,,10.0,29.991142,1016.7,,TRUE,TRUE,,,,,,,CLR,,,,,,,,VFR,-1.2,10.0,-3.3,,,,,,,,,METAR,510.0
KMFD 271752Z 19015KT 9SM OVC005 09/08 A3006 RMK AO2 SLP184 60017 T00890083 10089 20044 55014,KMFD,2018-03-27T17:52:00Z,40.82,-82.52,8.9,8.3,190,15,,9.0,30.059055,1018.4,,,TRUE,,,,,,,OVC,500,,,,,,,IFR,-1.4,8.9,4.4,,,,,0.17,,,,METAR,395.0
KMKE 271752Z 30010KT 10SM OVC010 07/04 A2996 RMK AO2 SLP149 60000 T00670044 10089 20067 51010,KMKE,2018-03-27T17:52:00Z,42.95,-87.9,6.7,4.4,300,10,,10.0,29.958662,1014.9,,,TRUE,,,,,,,OVC,1000,,,,,,,MVFR,1.0,8.9,6.7,,,,,0.005,,,,METAR,206.0
KAFN 271752Z AUTO 19006KT 10SM CLR 06/M12 A3043 RMK AO2 SLP323 T00611122 10072 21072 56033 TSNO,KAFN,2018-03-27T17:52:00Z,42.8,-72.0,6.1,-12.2,190,6,,10.0,30.431103,1032.3,,TRUE,TRUE,,,TRUE,,,,CLR,,,,,,,,VFR,-3.3,7.2,-7.2,,,,,,,,,METAR,313.0
KALS 271752Z AUTO 34010KT 10SM FEW008 OVC070 00/M02 A3006 RMK AO2 UPB34E36RAB36E40SNE26 SLP181 P0001 60015 T00001022 10006 21017 58000,KALS,2018-03-27T17:52:00Z,37.43,-105.87,0.0,-2.2,340,10,,10.0,30.059055,1018.1,,TRUE,TRUE,,,,,,,FEW,800,OVC,7000,,,,,VFR,0.0,0.6,-1.7,,,0.01,,0.15,,,,METAR,2299.0
KARR 271752Z 29014KT 6SM BR OVC011 07/06 A2999 RMK AO2 SLP158 60001 T00720056 10094 20072 51010,KARR,2018-03-27T17:52:00Z,41.77,-88.48,7.2,5.6,290,14,,6.0,29.991142,1015.8,,,TRUE,,,,,,BR,OVC,1100,,,,,,,MVFR,1.0,9.4,7.2,,,,,0.01,,,,METAR,215.0
KATL 271752Z 09010KT 10SM OVC013 10/07 A3036 RMK AO2 SLP284 60000 T01000072 10100 20089 58018,KATL,2018-03-27T17:52:00Z,33.63,-84.45,10.0,7.2,90,10,,10.0,30.360237,1028.4,,,TRUE,,,,,,,OVC,1300,,,,,,,MVFR,-1.8,10.0,8.9,,,,,0.005,,,,METAR,296.0
KBDR 271752Z 16005KT 10SM CLR 05/M05 A3048 RMK AO2 SLP320 T00501050 10056 20000 58027,KBDR,2018-03-27T17:52:00Z,41.17,-73.13,5.0,-5.0,160,5,,10.0,30.481298,1032.0,,,TRUE,,,,,,,CLR,,,,,,,,VFR,-2.7,5.6,0.0,,,,,,,,,METAR,7.0
KBIS 271752Z 25010KT 10SM CLR 08/00 A2997 RMK AO2 SLP164 T00780000 10078 21039 58010 $,KBIS,2018-03-27T17:52:00Z,46.77,-100.75,7.8,0.0,250,10,,10.0,29.970472,1016.4,,,TRUE,TRUE,,,,,,CLR,,,,,,,,VFR,-1.0,7.8,-3.9,,,,,,,,,METAR,505.0
KBLF 271752Z AUTO 22011G15KT 10SM FEW080 11/04 A3027 RMK AO2 SLP249 T01110039 10111 20011 57026,KBLF,2018-03-27T17:52:00Z,37.3,-81.2,11.1,3.9,220,11,15,10.0,30.268702,1024.9,,TRUE,TRUE,,,,,,,FEW,8000,,,,,,,VFR,-2.6,11.1,1.1,,,,,,,,,METAR,873.0
KBLH 271752Z AUTO 35012G23KT 10SM CLR 21/M10 A3007 RMK AO2 SLP179 T02111100 10211 20139 50010,KBLH,2018-03-27T17:52:00Z,33.62,-114.72,21.1,-10.0,350,12,23,10.0,30.070866,1017.9,,TRUE,TRUE,,,,,,,CLR,,,,,,,,VFR,1.0,21.1,13.9,,,,,,,,,METAR,119.0
KBLU 271752Z AUTO 07007KT 010V110 10SM CLR 10/M06 A3029 RMK AO2 SLP234 T01001056 10100 20033 51016,KBLU,2018-03-27T17:52:00Z,39.28,-120.7,10.0,-5.6,70,7,,10.0,30.28937,1023.4,,TRUE,TRUE,,,,,,,CLR,,,,,,,,VFR,1.6,10.0,3.3,,,,,,,,,METAR,1609.0
KCFV 271752Z AUTO 01009KT 7SM OVC011 08/07 A3009 RMK AO2 RAE1654 SLP188 P0000 60018 T00830067 10083 20072 51006,KCFV,2018-03-27T17:52:00Z,37.08,-95.57,8.3,6.7,10,9,,7.0,30.088583,1018.8,,TRUE,TRUE,,,,,,,OVC,1100,,,,,,,MVFR,0.6,8.3,7.2,,,0.005,,0.18,,,,METAR,225.0
KCID 271752Z 30013KT 6SM BR OVC011 02/02 A3010 RMK AO2 SLP199 T00220017 10022 20011 53006,KCID,2018-03-27T17:52:00Z,41.88,-91.72,2.2,1.7,300,13,,6.0,30.100393,1019.9,,,TRUE,,,,,,BR,OVC,1100,,,,,,,MVFR,0.6,2.2,1.1,,,,,,,,,METAR,264.0
KCKV 271752Z AUTO 18015G21KT 10SM CLR 18/11 A3013 RMK AO2 PK WND 20026/1729 SLP201 T01830106 10183 20117 58018,KCKV,2018-03-27T17:52:00Z,36.62,-87.42,18.3,10.6,180,15,21,10.0,30.129921,1020.1,,TRUE,TRUE,,,,,,,CLR,,,,,,,,VFR,-1.8,18.3,11.7,,,,,,,,,METAR,165.0
KCLT 271752Z 00000KT 10SM BKN023 OVC035 08/03 A3043 RMK AO2 SLP305 60000 T00830028 10089 20061 56023,KCLT,2018-03-27T17:52:00Z,35.22,-80.95,8.3,2.8,0,0,,10.0,30.431103,1030.5,,,TRUE,,,,,,,BKN,2300,OVC,3500,,,,,MVFR,-2.3,8.9,6.1,,,,,0.005,,,,METAR,220.0
KCQX 271752Z AUTO 04010G19KT 10SM CLR 06/M02 A3042 RMK AO2 SLP302 T00611022 10067 20039 58032,KCQX,2018-03-27T17:52:00Z,41.68,-70.0,6.1,-2.2,40,10,19,10.0,30.41929,1030.2,,TRUE,TRUE,,,,,,,CLR,,,,,,,,VFR,-3.2,6.7,3.9,,,,,,,,,METAR,19.0
KCVG 271752Z 21011G17KT 10SM OVC014 13/11 A3009 RMK AO2 SLP188 60001 T01280106 10128 20111 58007,KCVG,2018-03-27T17:52:00Z,39.05,-84.67,12.8,10.6,210,11,17,10.0,30.088583,1018.8,,,TRUE,,,,,,,OVC,1400,,,,,,,MVFR,-0.7,12.8,11.1,,,,,0.01,,,,METAR,269.0
KMWH 271752Z 19010KT 10SM CLR 13/02 A3013 RMK AO2 SLP206 T01330017 10139 20072 58012,KMWH,2018-03-27T17:52:00Z,47.2,-119.32,13.3,1.7,190,10,,10.0,30.129921,1020.6,,,TRUE,,,,,,,CLR,,,,,,,,VFR,-1.2,13.9,7.2,,,,,,,,,METAR,362.0
KMLI 271752Z 31014KT 7SM OVC013 04/02 A3006 RMK AO2 SLP185 T00440017 10044 20022 53001,KMLI,2018-03-27T17:52:00Z,41.45,-90.52,4.4,1.7,310,14,,7.0,30.059055,1018.5,,,TRUE,,,,,,,OVC,1300,,,,,,,MVFR,0.1,4.4,2.2,,,,,,,,,METAR,184.0
KDDC 271752Z AUTO 01014KT 10SM BKN027 OVC060 08/01 A3016 RMK AO2 SLP216 T00780006 10083 20044 50001,KDDC,2018-03-27T17:52:00Z,37.77,-99.97,7.8,0.6,10,14,,10.0,30.159449,1021.6,,TRUE,TRUE,,,,,,,BKN,2700,OVC,6000,,,,,MVFR,0.1,8.3,4.4,,,,,,,,,METAR,789.0
KDCA 271752Z 17007KT 10SM -RA FEW065 OVC095 07/M02 A3046 RMK AO2 RAB39 SLP315 P0000 60000 T00721022 10089 20028 58036,KDCA,2018-03-27T17:52:00Z,38.85,-77.03,7.2,-2.2,170,7,,10.0,30.46063,1031.5,,,TRUE,,,,,,-RA,FEW,6500,OVC,9500,,,,,VFR,-3.6,8.9,2.8,,,0.005,,0.005,,,,METAR,18.0
KOKB 271752Z AUTO 26010KT 10SM CLR 17/08 A3012 RMK AO2 SLP200 T01720078 10183 20039 53002,KOKB,2018-03-27T17:52:00Z,33.22,-117.35,17.2,7.8,260,10,,10.0,30.121063,1020.0,,TRUE,TRUE,,,,,,,CLR,,,,,,,,VFR,0.2,18.3,3.9,,,,,,,,,METAR,8.0
KOKC 271752Z 02014KT 9SM OVC007 08/07 A3008 RMK AO2 RAE1658 SLP184 P0000 60005 T00830072 10089 20083 51020,KOKC,2018-03-27T17:52:00Z,35.38,-97.6,8.3,7.2,20,14,,9.0,30.079725,1018.4,,,TRUE,,,,,,,OVC,700,,,,,,,IFR,2.0,8.9,8.3,,,0.005,,0.05,,,,METAR,390.0
KTRM 271752Z AUTO 34018G27KT 10SM CLR 24/M11 A3010 RMK AO2 PK WND 35029/1735 SLP195 T02391111 10239 20144 50006,KTRM,2018-03-27T17:52:00Z,33.63,-116.17,23.9,-11.1,340,18,27,10.0,30.100393,1019.5,,TRUE,TRUE,,,,,,,CLR,,,,,,,,VFR,0.6,23.9,14.4,,,,,,,,,METAR,-35.0
KTOL 271752Z 21011KT 5SM -RA BR OVC008 11/11 A2998 RMK AO2 SLP154 P0004 60029 T01110111 10111 20061 56008,KTOL,2018-03-27T17:52:00Z,41.58,-83.8,11.1,11.1,210,11,,5.0,29.97933,1015.4,,,TRUE,,,,,,-RA BR,OVC,800,,,,,,,IFR,-0.8,11.1,6.1,,,0.04,,0.29,,,,METAR,210.0
KSPS 271752Z 01009KT 9SM OVC007 12/11 A3007 RMK AO2 RAE1656 SLP176 P0000 60009 T01220111 10167 20122 53027,KSPS,2018-03-27T17:52:00Z,33.98,-98.5,12.2,11.1,10,9,,9.0,30.070866,1017.6,,,TRUE,,,,,,,OVC,700,,,,,,,IFR,2.7,16.7,12.2,,,0.005,,0.09,,,,METAR,308.0
KSPI 271752Z 32007KT 7SM OVC007 08/07 A3005 RMK AO2 SLP175 60003 T00780067 10139 20072 50015,KSPI,2018-03-27T17:52:00Z,39.85,-89.68,7.8,6.7,320,7,,7.0,30.050198,1017.5,,,TRUE,,,,,,,OVC,700,,,,,,,IFR,1.5,13.9,7.2,,,,,0.03,,,,METAR,181.0
KSGF 271752Z 36011KT 10SM -RA OVC005 10/09 A3003 RMK AO2 CIG 004V008 SLP168 P0014 60083 T01000094 10144 20094 58000,KSGF,2018-03-27T17:52:00Z,37.23,-93.38,10.0,9.4,360,11,,10.0,30.029528,1016.8,,,TRUE,,,,,,-RA,OVC,500,,,,,,,IFR,0.0,14.4,9.4,,,0.14,,0.83,,,,METAR,390.0
KRAP 271752Z 19008KT 10SM CLR 09/M07 A3004 RMK AO2 SLP194 T00941067 10094 21039 58012,KRAP,2018-03-27T17:52:00Z,44.05,-103.05,9.4,-6.7,190,8,,10.0,30.041338,1019.4,,,TRUE,,,,,,,CLR,,,,,,,,VFR,-1.2,9.4,-3.9,,,,,,,,,METAR,965.0
KPYM 271752Z AUTO 02012G16KT 10SM CLR 06/M03 A3045 RMK AO2 SLP312 T00611033 10061 20011 58029,KPYM,2018-03-27T17:52:00Z,41.92,-70.73,6.1,-3.3,20,12,16,10.0,30.448818,1031.2,,TRUE,TRUE,,,,,,,CLR,,,,,,,,VFR,-2.9,6.1,1.1,,,,,,,,,METAR,43.0
KOMA 271752Z 01009KT 10SM SCT018 BKN250 07/02 A3016 RMK AO2 SLP219 T00720017 10072 20011 50004,KOMA,2018-03-27T17:52:00Z,41.32,-95.9,7.2,1.7,10,9,,10.0,30.159449,1021.9,,,TRUE,,,,,,,SCT,1800,BKN,25000,,,,,VFR,0.4,7.2,1.1,,,,,,,,,METAR,312.0
KSUX 271752Z 32011KT 10SM CLR 10/02 A3013 RMK AO2 SLP208 T01000022 10100 20017 58005,KSUX,2018-03-27T17:52:00Z,42.38,-96.38,10.0,2.2,320,11,,10.0,30.129921,1020.8,,,TRUE,,,,,,,CLR,,,,,,,,VFR,-0.5,10.0,1.7,,,,,,,,,METAR,338.0
KVTN 271752Z AUTO VRB05KT 10SM CLR 12/M07 A3010 RMK AO2 SLP204 I6000 T01221072 10122 21039 58013,KVTN,2018-03-27T17:52:00Z,42.87,-100.55,12.2,-7.2,0,5,,10.0,30.100393,1020.4,,TRUE,TRUE,,,,,,,CLR,,,,,,,,VFR,-1.3,12.2,-3.9,,,,,,,,,METAR,788.0
PABA 271752Z 10009KT 10SM CLR M25/M27 A3000 RMK AO2 SLP146 T12501272 11250 21267 53008 FZRANO,PABA,2018-03-27T17:52:00Z,70.13,-143.58,-25.0,-27.2,100,9,,10.0,30.0,1014.6,,,TRUE,,,,TRUE,,,CLR,,,,,,,,VFR,0.8,-25.0,-26.7,,,,,,,,,METAR,2.0
KN60 271752Z AUTO 23007KT 03/M01 A2991 RMK AO1 SLP151 T00331011 10033 21044 58009,KN60,2018-03-27T17:52:00Z,47.65,-101.43,3.3,-1.1,230,7,,,29.911417,1015.1,,TRUE,TRUE,,,,,,,,,,,,,,,,-0.9,3.3,-4.4,,,,,,,,,METAR,582.0
KAQW 271752Z AUTO 09007KT 10SM CLR 08/M11 A3040 RMK AO2 PRESFR SLP302 T00781106 10078 21039 58033,KAQW,2018-03-27T17:52:00Z,42.7,-73.17,7.8,-10.6,90,7,,10.0,30.398623,1030.2,,TRUE,TRUE,,,,,,,CLR,,,,,,,,VFR,-3.3,7.8,-3.9,,,,,,,,,METAR,199.0
PATA 271752Z 09003KT 10SM CLR M13/M21 A2982 RMK AO2 SLP105 4/024 933052 T11281211 11122 21144 51019 PNO,PATA,2018-03-27T17:52:00Z,65.17,-152.1,-12.8,-21.1,90,3,,10.0,29.819881,1010.5,,,TRUE,,,,,,,CLR,,,,,,,,VFR,1.9,-12.2,-14.4,,,,,,,24.0,,METAR,67.0
KMWN 271751Z 14019KT 90SM BKN160 BKN180 OVC200 M04/M16 RMK 4/016 11036 21055,KMWN,2018-03-27T17:51:00Z,44.27,-71.3,-4.0,-16.0,140,19,,90.0,,,,,,,,,,,,BKN,16000,BKN,18000,OVC,20000,,,VFR,,-3.6,-5.5,,,,,,,16.0,,METAR,1910.0
KSAN 271751Z 23005KT 10SM CLR 17/05 A3015 RMK AO2 SLP207 T01720050 10172 20111 50003,KSAN,2018-03-27T17:51:00Z,32.73,-117.18,17.2,5.0,230,5,,10.0,30.15059,1020.7,,,TRUE,,,,,,,CLR,,,,,,,,VFR,0.3,17.2,11.1,,,,,,,,,METAR,12.0
KSAD 271751Z AUTO 29009KT 10SM CLR 16/M02 A2996 RMK AO2 SLP117 T01611017 10161 20044 58003,KSAD,2018-03-27T17:51:00Z,32.85,-109.63,16.1,-1.7,290,9,,10.0,29.958662,1011.7,,TRUE,TRUE,,,,,,,CLR,,,,,,,,VFR,-0.3,16.1,4.4,,,,,,,,,METAR,962.0
KHTS 271751Z 20008KT 10SM OVC030 16/07 A3015 RMK AO2 SLP208 T01560072 10156 20072 57023,KHTS,2018-03-27T17:51:00Z,38.37,-82.55,15.6,7.2,200,8,,10.0,30.15059,1020.8,,,TRUE,,,,,,,OVC,3000,,,,,,,MVFR,-2.3,15.6,7.2,,,,,,,,,METAR,254.0
KHSE 271751Z AUTO 03007G17KT 340V050 10SM CLR 11/04 A3042 RMK AO2 SLP302 T01110039 10117 20072 58021,KHSE,2018-03-27T17:51:00Z,35.23,-75.62,11.1,3.9,30,7,17,10.0,30.41929,1030.2,,TRUE,TRUE,,,,,,,CLR,,,,,,,,VFR,-2.1,11.7,7.2,,,,,,,,,METAR,3.0
KHDO 271751Z AUTO 13008KT 10SM BKN040 OVC048 24/20 A2994 RMK AO2 SLP124 T02440200 10244 20222 58002,KHDO,2018-03-27T17:51:00Z,29.37,-99.17,24.4,20.0,130,8,,10.0,29.940945,1012.4,,TRUE,TRUE,,,,,,,BKN,4000,OVC,4800,,,,,VFR,-0.2,24.4,22.2,,,,,,,,,METAR,282.0
KEWR 271751Z 16006KT 10SM BKN170 OVC240 06/M05 A3048 RMK AO2 SLP322 T00561050 10061 20011 57027 $,KEWR,2018-03-27T17:51:00Z,40.68,-74.17,5.6,-5.0,160,6,,10.0,30.481298,1032.2,,,TRUE,TRUE,,,,,,BKN,17000,OVC,24000,,,,,VFR,-2.7,6.1,1.1,,,,,,,,,METAR,7.0
KELP 271751Z VRB06G17KT 10SM FEW070 SCT090 SCT240 18/M01 A2995 RMK AO2 SLP095 T01781011 10178 20122 58004,KELP,2018-03-27T17:51:00Z,31.82,-106.38,17.8,-1.1,0,6,17,10.0,29.949802,1009.5,,,TRUE,,,,,,,FEW,7000,SCT,9000,SCT,24000,,,VFR,-0.4,17.8,12.2,,,,,,,,,METAR,1197.0
KEKN 271751Z AUTO 15003KT 10SM OVC023 06/04 A3023 RMK AO2 RAB11E47 SLP252 P0000 60055 T00610039 10061 20022 58031 TSNO $,KEKN,2018-03-27T17:51:00Z,38.88,-79.85,6.1,3.9,150,3,,10.0,30.230314,1025.2,,TRUE,TRUE,TRUE,,TRUE,,,,OVC,2300,,,,,,,MVFR,-3.1,6.1,2.2,,,0.005,,0.55,,,,METAR,603.0
KDAW 271751Z AUTO VRB03KT 10SM CLR 08/M12 A3045 RMK AO2 SLP311 T00831122 10083 21033 58038,KDAW,2018-03-27T17:51:00Z,43.28,-70.92,8.3,-12.2,0,3,,10.0,30.448818,1031.1,,TRUE,TRUE,,,,,,,CLR,,,,,,,,VFR,-3.8,8.3,-3.3,,,,,,,,,METAR,100.0
KCSG 271751Z 10003KT 10SM BKN060 18/09 A3032 RMK AO2 SLP264 T01780089 10183 20106 58024,KCSG,2018-03-27T17:51:00Z,32.52,-84.95,17.8,8.9,100,3,,10.0,30.318897,1026.4,,,TRUE,,,,,,,BKN,6000,,,,,,,VFR,-2.4,18.3,10.6,,,,,,,,,METAR,135.0
KCRP 271751Z 14019KT 10SM SCT020 BKN025 OVC045 26/21 A2993 RMK AO2 RAB04E11 SLP135 P0000 60000 T02610211 10272 20222 58002,KCRP,2018-03-27T17:51:00Z,27.77,-97.5,26.1,21.1,140,19,,10.0,29.929134,1013.5,,,TRUE,,,,,,,SCT,2000,BKN,2500,OVC,4500,,,MVFR,-0.2,27.2,22.2,,,0.005,,0.005,,,,METAR,14.0
KCON 271751Z AUTO VRB03KT 10SM CLR 09/M12 A3044 RMK AO2 SLP313 T00891122 10089 21050 56039,KCON,2018-03-27T17:51:00Z,43.2,-71.5,8.9,-12.2,0,3,,10.0,30.43996,1031.3,,TRUE,TRUE,,,,,,,CLR,,,,,,,,VFR,-3.9,8.9,-5.0,,,,,,,,,METAR,103.0
KCLE 271751Z 20014KT 10SM OVC011 09/07 A3007 RMK AO2 SLP185 60013 T00890067 10089 20044 $,KCLE,2018-03-27T17:51:00Z,41.42,-81.85,8.9,6.7,200,14,,10.0,30.070866,1018.5,,,TRUE,TRUE,,,,,,OVC,1100,,,,,,,MVFR,,8.9,4.4,,,,,0.13,,,,METAR,233.0
KCAK 271751Z 19016G21KT 7SM BKN007 OVC014 08/06 A3007 RMK AO2 RAE26 SLP188 P0000 60019 T00780056 10078 20039 56033,KCAK,2018-03-27T17:51:00Z,40.92,-81.45,7.8,5.6,190,16,21,7.0,30.070866,1018.8,,,TRUE,,,,,,,BKN,700,OVC,1400,,,,,IFR,-3.3,7.8,3.9,,,0.005,,0.19,,,,METAR,377.0
KBKW 271751Z AUTO 14008KT 10SM SCT033 BKN060 09/05 A3024 RMK AO2 SLP250 60000 T00890050 10089 20011 58026 TSNO,KBKW,2018-03-27T17:51:00Z,37.8,-81.12,8.9,5.0,140,8,,10.0,30.239174,1025.0,,TRUE,TRUE,,,TRUE,,,,SCT,3300,BKN,6000,,,,,VFR,-2.6,8.9,1.1,,,,,0.005,,,,METAR,764.0
KBHK 271751Z AUTO 26014G21KT 10SM CLR 06/M04 A2995 RMK AO2 SLP160 T00611039 10067 21017 58017,KBHK,2018-03-27T17:51:00Z,46.35,-104.25,6.1,-3.9,260,14,21,10.0,29.949802,1016.0,,TRUE,TRUE,,,,,,,CLR,,,,,,,,VFR,-1.7,6.7,-1.7,,,,,,,,,METAR,902.0
KBDL 271751Z VRB03KT 10SM FEW180 BKN220 OVC250 08/M09 A3045 RMK AO2 SLP314 T00831094 10083 21028 56032,KBDL,2018-03-27T17:51:00Z,41.93,-72.68,8.3,-9.4,0,3,,10.0,30.448818,1031.4,,,TRUE,,,,,,,FEW,18000,BKN,22000,OVC,25000,,,VFR,-3.2,8.3,-2.8,,,,,,,,,METAR,60.0
KBAZ 271751Z 16017KT 10SM SCT035 BKN050 OVC075 26/18 A2994 RMK AO2 SLP131 T02610178 10261 20200 55006,KBAZ,2018-03-27T17:51:00Z,29.72,-98.05,26.1,17.8,160,17,,10.0,29.940945,1013.1,,,TRUE,,,,,,,SCT,3500,BKN,5000,OVC,7500,,,VFR,-0.6,26.1,20.0,,,,,,,,,METAR,195.0
KAVX 271751Z AUTO 06005KT 10SM CLR 17/M04 A3017 RMK AO2 SLP208 T01671044 10172 20111 51013,KAVX,2018-03-27T17:51:00Z,33.4,-118.42,16.7,-4.4,60,5,,10.0,30.171259,1020.8,,TRUE,TRUE,,,,,,,CLR,,,,,,,,VFR,1.3,17.2,11.1,,,,,,,,,METAR,482.0
KALB 271751Z 17011G19KT 10SM BKN190 OVC230 08/M12 A3042 RMK AO2 SLP303 T00781117 10078 21017 58037,KALB,2018-03-27T17:51:00Z,42.75,-73.8,7.8,-11.7,170,11,19,10.0,30.41929,1030.3,,,TRUE,,,,,,,BKN,19000,OVC,23000,,,,,VFR,-3.7,7.8,-1.7,,,,,,,,,METAR,92.0
KAHN 271751Z 07006KT 10SM OVC011 09/07 A3040 RMK AO2 SLP296 T00940067 10094 20072 57023,KAHN,2018-03-27T17:51:00Z,33.95,-83.33,9.4,6.7,70,6,,10.0,30.398623,1029.6,,,TRUE,,,,,,,OVC,1100,,,,,,,MVFR,-2.3,9.4,7.2,,,,,,,,,METAR,244.0
KACT 271751Z 18011KT 10SM FEW037 OVC070 25/17 A2999 RMK AO2 RAE1654 SLP148 P0000 60000 T02500172 10250 20211 51008,KACT,2018-03-27T17:51:00Z,31.62,-97.23,25.0,17.2,180,11,,10.0,29.991142,1014.8,,,TRUE,,,,,,,FEW,3700,OVC,7000,,,,,VFR,0.8,25.0,21.1,,,0.005,,0.005,,,,METAR,151.0
KABE 271751Z 15005KT 10SM CLR 07/M08 A3045 RMK AO2 SLP312 T00721083 10072 21006 58029,KABE,2018-03-27T17:51:00Z,40.65,-75.45,7.2,-8.3,150,5,,10.0,30.448818,1031.2,,,TRUE,,,,,,,CLR,,,,,,,,VFR,-2.9,7.2,-0.6,,,,,,,,,METAR,114.0
KATT 271751Z AUTO 16009G16KT 10SM SCT033 BKN044 OVC070 26/18 A2998 RMK AO2 SLP141 T02560178 10272 20217 58002,KATT,2018-03-27T17:51:00Z,30.32,-97.77,25.6,17.8,160,9,16,10.0,29.97933,1014.1,,TRUE,TRUE,,,,,,,SCT,3300,BKN,4400,OVC,7000,,,VFR,-0.2,27.2,21.7,,,,,,,,,METAR,201.0
KGDP 271751Z AUTO 24015G21KT 10SM CLR 19/02 A3000 RMK AO2 SLP104 T01890022 10189 20117 58003,KGDP,2018-03-27T17:51:00Z,31.83,-104.82,18.9,2.2,240,15,21,10.0,30.0,1010.4,,TRUE,TRUE,,,,,,,CLR,,,,,,,,VFR,-0.3,18.9,11.7,,,,,,,,,METAR,1692.0
KSNT 271751Z AUTO 32003KT 02/M06 A3023 RMK AO1 SLP231 T00171061 10017 21056 56010,KSNT,2018-03-27T17:51:00Z,44.17,-114.93,1.7,-6.1,320,3,,,30.230314,1023.1,,TRUE,TRUE,,,,,,,,,,,,,,,,-1.0,1.7,-5.6,,,,,,,,,METAR,1980.0
KOXR 271751Z 30008KT 10SM CLR 19/02 A3017 RMK AO2 SLP215 6//// T01890017 10189 20078 51008,KOXR,2018-03-27T17:51:00Z,34.2,-119.2,18.9,1.7,300,8,,10.0,30.171259,1021.5,,,TRUE,,,,,,,CLR,,,,,,,,VFR,0.8,18.9,7.8,,,,,,,,,METAR,20.0
KORF 271751Z 04009KT 10SM OVC065 08/02 A3046 RMK AO2 SLP314 T00830022 10089 20050 58018,KORF,2018-03-27T17:51:00Z,36.9,-76.2,8.3,2.2,40,9,,10.0,30.46063,1031.4,,,TRUE,,,,,,,OVC,6500,,,,,,,VFR,-1.8,8.9,5.0,,,,,,,,,METAR,14.0
KORD 271751Z 30011KT 10SM OVC015 09/06 A2996 RMK AO2 SLP149 60001 T00940056 10106 20089 55003,KORD,2018-03-27T17:51:00Z,41.98,-87.93,9.4,5.6,300,11,,10.0,29.958662,1014.9,,,TRUE,,,,,,,OVC,1500,,,,,,,MVFR,-0.3,10.6,8.9,,,,,0.01,,,,METAR,200.0
KMYL 271751Z AUTO 17004KT 10SM SCT035 OVC060 02/M04 A3025 RMK AO2 SLP263 T00221039 10022 21011 55000,KMYL,2018-03-27T17:51:00Z,44.9,-116.1,2.2,-3.9,170,4,,10.0,30.250984,1026.3,,TRUE,TRUE,,,,,,,SCT,3500,OVC,6000,,,,,VFR,0.0,2.2,-1.1,,,,,,,,,METAR,1533.0
KMPV 271751Z AUTO 17015KT 10SM CLR 06/M11 A3041 RMK AO2 SLP314 T00561111 10056 21067 56038,KMPV,2018-03-27T17:51:00Z,44.2,-72.57,5.6,-11.1,170,15,,10.0,30.410433,1031.4,,TRUE,TRUE,,,,,,,CLR,,,,,,,,VFR,-3.8,5.6,-6.7,,,,,,,,,METAR,343.0
KLGU 271751Z AUTO 00000KT 10SM CLR 04/M04 A3028 RMK AO2 SLP258 T00441044 10044 21033 50000,KLGU,2018-03-27T17:51:00Z,41.78,-111.85,4.4,-4.4,0,0,,10.0,30.280512,1025.8,,TRUE,TRUE,,,,,,,CLR,,,,,,,,VFR,0.0,4.4,-3.3,,,,,,,,,METAR,1355.0
KLGA 271751Z VRB06KT 10SM OVC180 07/M05 A3047 RMK AO2 SLP318 T00671050 10072 20022 58030,KLGA,2018-03-27T17:51:00Z,40.78,-73.88,6.7,-5.0,0,6,,10.0,30.469488,1031.8,,,TRUE,,,,,,,OVC,18000,,,,,,,VFR,-3.0,7.2,2.2,,,,,,,,,METAR,11.0
KJFK 271751Z 17007KT 10SM BKN190 OVC250 05/M04 A3050 RMK AO2 SLP326 T00501039 10056 20006 58025 VISNO W $,KJFK,2018-03-27T17:51:00Z,40.63,-73.77,5.0,-3.9,170,7,,10.0,30.499016,1032.6,,,TRUE,TRUE,,,,,,BKN,19000,OVC,25000,,,,,VFR,-2.5,5.6,0.6,,,,,,,,,METAR,9.0
KJCT 271751Z AUTO 09010KT 10SM -RA OVC041 17/16 A3001 RMK AO2 SLP132 P0003 60013 T01670156 10172 20167 50006,KJCT,2018-03-27T17:51:00Z,30.5,-99.77,16.7,15.6,90,10,,10.0,30.008858,1013.2,,TRUE,TRUE,,,,,,-RA,OVC,4100,,,,,,,VFR,0.6,17.2,16.7,,,0.03,,0.13,,,,METAR,522.0
KILG 271751Z 16005KT 10SM CLR 06/M04 A3047 RMK AO2 SLP320 T00611039 10061 20006 58032,KILG,2018-03-27T17:51:00Z,39.67,-75.6,6.1,-3.9,160,5,,10.0,30.469488,1032.0,,,TRUE,,,,,,,CLR,,,,,,,,VFR,-3.2,6.1,0.6,,,,,,,,,METAR,28.0
KIGM 271751Z AUTO 35013G21KT 10SM CLR 13/M10 A3012 RMK AO2 SLP165 T01281100 10128 20033 50005,KIGM,2018-03-27T17:51:00Z,35.25,-113.93,12.8,-10.0,350,13,21,10.0,30.121063,1016.5,,TRUE,TRUE,,,,,,,CLR,,,,,,,,VFR,0.5,12.8,3.3,,,,,,,,,METAR,1032.0
KPHX 271751Z 12007KT 10SM FEW090 FEW120 SCT220 19/M04 A2998 RMK AO2 SLP143 TCU DSNT NE AND E T01891039 10194 20117 50007,KPHX,2018-03-27T17:51:00Z,33.43,-112.02,18.9,-3.9,120,7,,10.0,29.97933,1014.3,,,TRUE,,,,,,,FEW,9000,FEW,12000,SCT,22000,,,VFR,0.7,19.4,11.7,,,,,,,,,METAR,336.0
KROW 271751Z 03019G26KT 10SM FEW040 SCT120 12/05 A2998 RMK AO2 PK WND 06026/1746 RAE45 SLP116 P0000 60001 T01220050 10139 20094 50004,KROW,2018-03-27T17:51:00Z,33.3,-104.5,12.2,5.0,30,19,26,10.0,29.97933,1011.6,,,TRUE,,,,,,,FEW,4000,SCT,12000,,,,,VFR,0.4,13.9,9.4,,,0.005,,0.01,,,,METAR,1112.0
KRDU 271751Z 00000KT 10SM FEW014 BKN040 OVC060 06/02 A3046 RMK AO2 SLP315 60001 T00610022 10061 20022 58022,KRDU,2018-03-27T17:51:00Z,35.9,-78.78,6.1,2.2,0,0,,10.0,30.46063,1031.5,,,TRUE,,,,,,,FEW,1400,BKN,4000,OVC,6000,,,VFR,-2.2,6.1,2.2,,,,,0.01,,,,METAR,130.0
KP58 271751Z AUTO VRB06KT 07/06 A2987 RMK AO1 SLP121 60014 T00670056 10067 20022 56022,KP58,2018-03-27T17:51:00Z,44.02,-82.8,6.7,5.6,0,6,,,29.870079,1012.1,,TRUE,TRUE,,,,,,,,,,,,,,,,-2.2,6.7,2.2,,,,,0.14,,,,METAR,179.0
KNYC 271751Z AUTO 00000KT 10SM CLR 07/M06 A3049 RMK AO2 SLP317 T00721061 10072 20028 58029 $,KNYC,2018-03-27T17:51:00Z,40.78,-73.97,7.2,-6.1,0,0,,10.0,30.490158,1031.7,,TRUE,TRUE,TRUE,,,,,,CLR,,,,,,,,VFR,-2.9,7.2,2.8,,,,,,,,,METAR,11.0
PAMD 271751Z AUTO 28011KT 10SM OVC060 04/M02 A2978 RMK AO2 SLP074 T00391022 10039 20017 51037,PAMD,2018-03-27T17:51:00Z,59.43,-146.3,3.9,-2.2,280,11,,10.0,29.778543,1007.4,,TRUE,TRUE,,,,,,,OVC,6000,,,,,,,VFR,3.7,3.9,1.7,,,,,,,,,METAR,14.0
KTPL 271751Z AUTO 15017KT 10SM BKN031 BKN055 OVC075 25/18 A2999 RMK AO2 SLP160 T02500183 10261 20206 51010,KTPL,2018-03-27T17:51:00Z,31.13,-97.4,25.0,18.3,150,17,,10.0,29.991142,1016.0,,TRUE,TRUE,,,,,,,BKN,3100,BKN,5500,OVC,7500,,,VFR,1.0,26.1,20.6,,,,,,,,,METAR,208.0
KOXC 271751Z VRB03KT 10SM CLR 07/M12 A3044 RMK AO2 SLP326 T00721122 10072 21017 58028,KOXC,2018-03-27T17:51:00Z,41.47,-73.13,7.2,-12.2,0,3,,10.0,30.43996,1032.6,,,TRUE,,,,,,,CLR,,,,,,,,VFR,-2.8,7.2,-1.7,,,,,,,,,METAR,222.0
KOCF 271751Z VRB05KT 10SM BKN049 25/13 A3028 RMK AO2 SLP256 T02500128 10250 20144 58014,KOCF,2018-03-27T17:51:00Z,29.17,-82.22,25.0,12.8,0,5,,10.0,30.280512,1025.6,,,TRUE,,,,,,,BKN,4900,,,,,,,VFR,-1.4,25.0,14.4,,,,,,,,,METAR,27.0
KBVE 271751Z AUTO 12010G17KT 5SM HZ SCT026 BKN040 26/20 A3018 RMK AO2 SLP219 T02610200 10267 20189 51005,KBVE,2018-03-27T17:51:00Z,29.32,-89.4,26.1,20.0,120,10,17,5.0,30.180119,1021.9,,TRUE,TRUE,,,,,,HZ,SCT,2600,BKN,4000,,,,,MVFR,0.5,26.7,18.9,,,,,,,,,SPECI,1.0
MUCC 271751Z 06020KT 9000 SCT020 27/19 Q1020,MUCC,2018-03-27T17:51:00Z,22.47,-78.33,27.0,19.0,60,20,,5.59,30.11811,,,,,,,,,,,SCT,2000,,,,,,,VFR,,,,,,,,,,,,METAR,4.0
KPWM 271751Z 09008KT 10SM BKN250 07/M11 A3046 RMK AO2 SLP315 T00671106 10067 21033 58043,KPWM,2018-03-27T17:51:00Z,43.65,-70.3,6.7,-10.6,90,8,,10.0,30.46063,1031.5,,,TRUE,,,,,,,BKN,25000,,,,,,,VFR,-4.3,6.7,-3.3,,,,,,,,,METAR,15.0
KPVD 271751Z 02008KT 10SM BKN300 09/M06 A3045 RMK AO2 SLP312 T00941056 10100 20000 56031 $,KPVD,2018-03-27T17:51:00Z,41.72,-71.43,9.4,-5.6,20,8,,10.0,30.448818,1031.2,,,TRUE,TRUE,,,,,,BKN,30000,,,,,,,VFR,-3.1,10.0,0.0,,,,,,,,,METAR,16.0
MMMT 271751Z 00000KT 10SM SKC 32/26 A2982 RMK SLP173 55006 950,MMMT,2018-03-27T17:51:00Z,18.1,-94.57,32.0,26.0,0,0,,10.0,29.819881,1017.3,,,,,,,,,,SKC,,,,,,,,VFR,-0.6,,,,,,,,,,,METAR,40.0
KP59 271751Z AUTO 33016G23KT 02/00 A2985 RMK AO1 SLP119 60001 T00220000 10022 20006 53004,KP59,2018-03-27T17:51:00Z,47.47,-87.88,2.2,0.0,330,16,23,,29.84941,1011.9,,TRUE,TRUE,,,,,,,,,,,,,,,,0.4,2.2,0.6,,,,,0.01,,,,METAR,190.0
KSLK 271751Z AUTO 16011KT 10SM CLR 06/M15 A3024 RMK AO2 SLP262 T00611150 10061 21089 58030,KSLK,2018-03-27T17:51:00Z,44.4,-74.2,6.1,-15.0,160,11,,10.0,30.239174,1026.2,,TRUE,TRUE,,,,,,,CLR,,,,,,,,VFR,-3.0,6.1,-8.9,,,,,,,,,METAR,498.0
KSJT 271751Z 07009KT 10SM SCT015 BKN090 19/14 A3002 RMK AO2 LTG DSNT NE AND E SLP151 60018 T01890139 10189 20150 50001,KSJT,2018-03-27T17:51:00Z,31.37,-100.5,18.9,13.9,70,9,,10.0,30.02067,1015.1,,,TRUE,,,,,,,SCT,1500,BKN,9000,,,,,VFR,0.1,18.9,15.0,,,,,0.18,,,,METAR,576.0
KSMO 271751Z 01014G23KT 10SM CLR 22/M09 A3012 RMK AO2 SLP199 T02171089 10222 20106 58000,KSMO,2018-03-27T17:51:00Z,34.02,-118.45,21.7,-8.9,10,14,23,10.0,30.121063,1019.9,,,TRUE,,,,,,,CLR,,,,,,,,VFR,0.0,22.2,10.6,,,,,,,,,METAR,57.0
KSMX 271751Z 31008KT 10SM CLR 18/06 A3022 RMK AO2 SLP234 T01780061 10183 20039 58002,KSMX,2018-03-27T17:51:00Z,34.9,-120.45,17.8,6.1,310,8,,10.0,30.221457,1023.4,,,TRUE,,,,,,,CLR,,,,,,,,VFR,-0.2,18.3,3.9,,,,,,,,,METAR,74.0
KSTL 271751Z 31011KT 5SM RA BR BKN005 OVC010 10/10 A3006 RMK AO2 SLP178 P0006 60011 T01000100 10150 20100 53003,KSTL,2018-03-27T17:51:00Z,38.75,-90.37,10.0,10.0,310,11,,5.0,30.059055,1017.8,,,TRUE,,,,,,RA BR,BKN,500,OVC,1000,,,,,IFR,0.3,15.0,10.0,,,0.06,,0.11,,,,METAR,171.0
KTEB 271751Z 21008KT 170V230 10SM CLR 07/M05 A3047 RMK AO2 SLP316 T00721050 10072 20006 58030,KTEB,2018-03-27T17:51:00Z,40.87,-74.05,7.2,-5.0,210,8,,10.0,30.469488,1031.6,,,TRUE,,,,,,,CLR,,,,,,,,VFR,-3.0,7.2,0.6,,,,,,,,,METAR,7.0
KVCT 271751Z 15021KT 9SM BKN028 BKN034 OVC044 27/19 A2996 RMK AO2 PK WND 15026/1703 SLP145 T02670194 10272 20222 58009,KVCT,2018-03-27T17:51:00Z,28.87,-96.93,26.7,19.4,150,21,,9.0,29.958662,1014.5,,,TRUE,,,,,,,BKN,2800,BKN,3400,OVC,4400,,,MVFR,-0.9,27.2,22.2,,,,,,,,,METAR,31.0
KVNY 271751Z 01011KT 10SM CLR 19/M03 A3015 RMK AO2 SLP206 T01891033 10189 20117 50003,KVNY,2018-03-27T17:51:00Z,34.22,-118.48,18.9,-3.3,10,11,,10.0,30.15059,1020.6,,,TRUE,,,,,,,CLR,,,,,,,,VFR,0.3,18.9,11.7,,,,,,,,,METAR,245.0
PTKR 271751Z 28009KT 15SM SCT016CB BKN110 OVC290 28/25 A2963 RMK CB S-W MOV E SLP035 8/378 T02820249 10283 20278 57014,PTKR,2018-03-27T17:51:00Z,7.33,134.48,28.2,24.9,280,9,,15.0,29.630905,1003.5,,,,,,,,,,SCT,1600,BKN,11000,OVC,29000,,,VFR,-1.4,28.3,27.8,,,,,,,,,SPECI,30.0
ENSB 271750Z 12007KT 9999 FEW020 BKN035 M12/M15 Q1009 RMK WIND 1400FT 26004KT,ENSB,2018-03-27T17:50:00Z,78.25,15.47,-12.0,-15.0,120,7,,6.21,29.793306,,,,,,,,,,,FEW,2000,BKN,3500,,,,,VFR,,,,,,,,,,,,SPECI,29.0
EGPU 271750Z AUTO 26015KT 9999 SCT027/// BKN046/// 06/04 Q0999 RERA,EGPU,2018-03-27T17:50:00Z,56.5,-6.87,6.0,4.0,260,15,,6.21,29.498032,,,TRUE,,,,,,,,SCT,2700,BKN,4600,,,,,VFR,,,,,,,,,,,,METAR,12.0
OIHH 271750Z 21006KT CAVOK 18/M02 Q1022,OIHH,2018-03-27T17:50:00Z,34.87,48.55,18.0,-2.0,210,6,,6.21,30.177166,,,,,,,,,,,CAVOK,,,,,,,,VFR,,,,,,,,,,,,METAR,1757.0
OICK 271750Z 00000KT CAVOK 20/01 Q1021,OICK,2018-03-27T17:50:00Z,33.43,48.28,20.0,1.0,0,0,,6.21,30.147638,,,,,,,,,,,CAVOK,,,,,,,,VFR,,,,,,,,,,,,METAR,1155.0
OITL 271750Z 12008KT CAVOK 11/M04 Q1016,OITL,2018-03-27T17:50:00Z,38.33,48.42,11.0,-4.0,120,8,,6.21,30.0,,,,,,,,,,,CAVOK,,,,,,,,VFR,,,,,,,,,,,,METAR,1316.0
EGVN 271750Z 31009KT 9999 FEW030 BKN050 10/02 Q1006 NOSIG,EGVN,2018-03-27T17:50:00Z,51.77,-1.58,10.0,2.0,310,9,,6.21,29.704725,,,,,,TRUE,,,,,FEW,3000,BKN,5000,,,,,VFR,,,,,,,,,,,,METAR,88.0
EGWU 271750Z 29014KT 9999 BKN048 11/03 Q1005 NOSIG,EGWU,2018-03-27T17:50:00Z,51.55,-0.42,11.0,3.0,290,14,,6.21,29.675198,,,,,,TRUE,,,,,BKN,4800,,,,,,,VFR,,,,,,,,,,,,METAR,40.0
KNQA 271750Z 17013G24KT 10SM FEW025 SCT080 BKN250 22/14 A3008,KNQA,2018-03-27T17:50:00Z,35.35,-89.87,22.0,14.0,170,13,24,10.0,30.079725,,,,,,,,,,,FEW,2500,SCT,8000,BKN,25000,,,VFR,,,,,,,,,,,,METAR,86.0
PTRO 271750Z 27013G21KT 15SM SCT016 BKN290 27/24 A2962 ,PTRO,2018-03-27T17:50:00Z,7.37,134.55,27.0,24.0,270,13,21,15.0,29.619095,,,,,,,,,,,SCT,1600,BKN,29000,,,,,VFR,,,,,,,,,,,,METAR,54.0
KHOB 271750Z 03012G18KT 10SM SCT060 BKN085 18/08 A2995,KHOB,2018-03-27T17:50:00Z,32.67,-103.22,18.0,8.0,30,12,18,10.0,29.949802,,,,,,,,,,,SCT,6000,BKN,8500,,,,,VFR,,,,,,,,,,,,METAR,1115.0
LSMS 271750Z 23003KT 5000 RA BKN015 OVC040 06/04 Q1015 RMK WHT,LSMS,2018-03-27T17:50:00Z,46.22,7.32,6.0,4.0,230,3,,3.11,29.970472,,,,,,,,,,RA,BKN,1500,OVC,4000,,,,,MVFR,,,,,,,,,,,,METAR,481.0
LSMP 271750Z AUTO 24012KT 7000NDV -SHRA SCT016 OVC035 05/03 Q1013 RMK,LSMP,2018-03-27T17:50:00Z,46.82,6.92,5.0,3.0,240,12,,,29.911417,,,TRUE,,,,,,,-SHRA,SCT,1600,OVC,3500,,,,,,,,,,,,,,,,,METAR,491.0
LSMM 271750Z AUTO 00000KT 5000NDV RA SCT025 BKN031 BKN038 05/04 Q1013 RMK,LSMM,2018-03-27T17:50:00Z,46.75,8.12,5.0,4.0,0,0,,,29.911417,,,TRUE,,,,,,,RA,SCT,2500,BKN,3100,BKN,3800,,,,,,,,,,,,,,,METAR,577.0
LSME 271750Z AUTO 29005KT 250V310 9000NDV -RA BKN027 BKN031 07/03 Q1013 RMK,LSME,2018-03-27T17:50:00Z,47.1,8.3,7.0,3.0,290,5,,,29.911417,,,TRUE,,,,,,,-RA,BKN,2700,BKN,3100,,,,,,,,,,,,,,,,,METAR,427.0
LSMD 271750Z AUTO 27004KT 220V300 9999NDV -SHRA FEW027 BKN033 OVC041 07/02 Q1012 RMK,LSMD,2018-03-27T17:50:00Z,47.4,8.65,7.0,2.0,270,4,,,29.88189,,,TRUE,,,,,,,-SHRA,FEW,2700,BKN,3300,OVC,4100,,,,,,,,,,,,,,,METAR,448.0
LSMA 271750Z AUTO VRB02KT 8000NDV -RA SCT027 BKN036 BKN043 07/05 Q1012 RMK,LSMA,2018-03-27T17:50:00Z,46.95,8.28,7.0,5.0,0,2,,,29.88189,,,TRUE,,,,,,,-RA,SCT,2700,BKN,3600,BKN,4300,,,,,,,,,,,,,,,METAR,444.0
BGKK 271750Z 06027KT 3000 -SHSN VV020 M00/M02 Q1001,BGKK,2018-03-27T17:50:00Z,65.57,-37.13,0.0,-2.0,60,27,,1.86,29.557087,,,,,,,,,,-SHSN,OVX,0,,,,,,,LIFR,,,,,,,,,,,2000,METAR,34.0
BGJN 271750Z 02001KT 9999 FEW100 M18/M26 Q1013,BGJN,2018-03-27T17:50:00Z,69.25,-51.07,-18.0,-26.0,20,1,,6.21,29.911417,,,,,,,,,,,FEW,10000,,,,,,,VFR,,,,,,,,,,,,METAR,25.0
BGGH 271750Z 00000KT 4000 -SHSN SCT020 OVC050 M07/M12 Q1011,BGGH,2018-03-27T17:50:00Z,64.2,-51.68,-7.0,-12.0,0,0,,2.49,29.852362,,,,,,,,,,-SHSN,SCT,2000,OVC,5000,,,,,IFR,,,,,,,,,,,,METAR,70.0
BGSF 271750Z AUTO 24002KT 9999NDV NCD M22/M28 Q1013,BGSF,2018-03-27T17:50:00Z,67.0,-50.72,-22.0,-28.0,240,2,,,29.911417,,,TRUE,,,,,,,,CLR,,,,,,,,,,,,,,,,,,,,SPECI,53.0
KOLV 271750Z 18019G25KT 10SM FEW020 BKN250 20/14 A3012,KOLV,2018-03-27T17:50:00Z,34.98,-89.78,20.0,14.0,180,19,25,10.0,30.121063,,,,,,,,,,,FEW,2000,BKN,25000,,,,,VFR,,,,,,,,,,,,METAR,122.0
EGDM 271750Z AUTO 27013KT 9999 SCT046/// 09/04 Q1007,EGDM,2018-03-27T17:50:00Z,51.17,-1.75,9.0,4.0,270,13,,6.21,29.734253,,,TRUE,,,,,,,,SCT,4600,,,,,,,VFR,,,,,,,,,,,,METAR,124.0
EGDX 271750Z AUTO 27012KT 9999 OVC045/// 08/05 Q1008,EGDX,2018-03-27T17:50:00Z,51.4,-3.43,8.0,5.0,270,12,,6.21,29.763779,,,TRUE,,,,,,,,OVC,4500,,,,,,,VFR,,,,,,,,,,,,METAR,50.0
EGOP 271750Z AUTO 26013KT 9999 // BKN049/// 09/06 Q1008,EGOP,2018-03-27T17:50:00Z,51.72,-4.32,9.0,6.0,260,13,,6.21,29.763779,,,TRUE,,,,,,,,BKN,4900,,,,,,,VFR,,,,,,,,,,,,METAR,6.0
EGDY 271750Z AUTO 28016KT 9999 BKN047/// 09/01 Q1008,EGDY,2018-03-27T17:50:00Z,51.0,-2.62,9.0,1.0,280,16,,6.21,29.763779,,,TRUE,,,,,,,,BKN,4700,,,,,,,VFR,,,,,,,,,,,,METAR,23.0
EGOS 271750Z AUTO 29006KT 9999 FEW031/// BKN050/// 08/04 Q1005 RERA,EGOS,2018-03-27T17:50:00Z,52.8,-2.67,8.0,4.0,290,6,,6.21,29.675198,,,TRUE,,,,,,,,FEW,3100,BKN,5000,,,,,VFR,,,,,,,,,,,,METAR,76.0
EGOV 271750Z AUTO 25009KT 9999 OVC050/// 08/04 Q1006,EGOV,2018-03-27T17:50:00Z,53.25,-4.53,8.0,4.0,250,9,,6.21,29.704725,,,TRUE,,,,,,,,OVC,5000,,,,,,,VFR,,,,,,,,,,,,METAR,11.0
EGQK 271750Z AUTO 21008KT 9999 -RA BKN050/// 08/04 Q0997,EGQK,2018-03-27T17:50:00Z,57.65,-3.57,8.0,4.0,210,8,,6.21,29.438976,,,TRUE,,,,,,,-RA,BKN,5000,,,,,,,VFR,,,,,,,,,,,,METAR,7.0
EGXE 271750Z AUTO 27010KT 9999 -RA BKN032/// BKN050/// 08/05 Q1002,EGXE,2018-03-27T17:50:00Z,54.28,-1.52,8.0,5.0,270,10,,6.21,29.586615,,,TRUE,,,,,,,-RA,BKN,3200,BKN,5000,,,,,VFR,,,,,,,,,,,,METAR,40.0
EGXP 271750Z AUTO 30010KT 9999 // SCT023/// BKN043/// 08/06 Q1003,EGXP,2018-03-27T17:50:00Z,53.3,-0.55,8.0,6.0,300,10,,6.21,29.616142,,,TRUE,,,,,,,,SCT,2300,BKN,4300,,,,,VFR,,,,,,,,,,,,METAR,61.0
EGXS 271750Z AUTO 26009KT 9999 // OVC050/// 09/06 Q1003,EGXS,2018-03-27T17:50:00Z,53.48,0.15,9.0,6.0,260,9,,6.21,29.616142,,,TRUE,,,,,,,,OVC,5000,,,,,,,VFR,,,,,,,,,,,,METAR,3.0
EGXT 271750Z AUTO 29010KT 9999 OVC050/// 09/05 Q1004,EGXT,2018-03-27T17:50:00Z,52.62,-0.47,9.0,5.0,290,10,,6.21,29.64567,,,TRUE,,,,,,,,OVC,5000,,,,,,,VFR,,,,,,,,,,,,METAR,84.0
EGXU 271750Z AUTO 27010KT 9999 // OVC050/// 09/05 Q1002,EGXU,2018-03-27T17:50:00Z,54.05,-1.25,9.0,5.0,270,10,,6.21,29.586615,,,TRUE,,,,,,,,OVC,5000,,,,,,,VFR,,,,,,,,,,,,METAR,16.0
EGYD 271750Z AUTO 28011KT 9999 // BKN050/// 09/04 Q1004,EGYD,2018-03-27T17:50:00Z,53.03,-0.5,9.0,4.0,280,11,,6.21,29.64567,,,TRUE,,,,,,,,BKN,5000,,,,,,,VFR,,,,,,,,,,,,METAR,67.0
EGXZ 271750Z AUTO 30011KT 9999 FEW022/// BKN041/// 09/05 Q1002,EGXZ,2018-03-27T17:50:00Z,54.2,-1.38,9.0,5.0,300,11,,6.21,29.586615,,,TRUE,,,,,,,,FEW,2200,BKN,4100,,,,,VFR,,,,,,,,,,,,METAR,28.0
LIRU 271750Z VRB03KT CAVOK 12/09 Q1014,LIRU,2018-03-27T17:50:00Z,41.95,12.5,12.0,9.0,0,3,,6.21,29.940945,,,,,,,,,,,CAVOK,,,,,,,,VFR,,,,,,,,,,,,METAR,24.0
LIPY 271750Z 15004KT 120V180 CAVOK 10/03 Q1013,LIPY,2018-03-27T17:50:00Z,43.62,13.37,10.0,3.0,150,4,,6.21,29.911417,,,,,,,,,,,CAVOK,,,,,,,,VFR,,,,,,,,,,,,METAR,10.0
LIPO 271750Z 07003KT CAVOK 14/02 Q1010,LIPO,2018-03-27T17:50:00Z,45.42,10.33,14.0,2.0,70,3,,6.21,29.822834,,,,,,,,,,,CAVOK,,,,,,,,VFR,,,,,,,,,,,,METAR,109.0
LIMZ 271750Z 35004KT CAVOK 14/00 Q1010,LIMZ,2018-03-27T17:50:00Z,44.53,7.62,14.0,0.0,350,4,,6.21,29.822834,,,,,,,,,,,CAVOK,,,,,,,,VFR,,,,,,,,,,,,METAR,380.0
LIMP 271750Z 09005KT CAVOK 15/02 Q1011,LIMP,2018-03-27T17:50:00Z,44.82,10.3,15.0,2.0,90,5,,6.21,29.852362,,,,,,,,,,,CAVOK,,,,,,,,VFR,,,,,,,,,,,,METAR,50.0
LIMG 271750Z 09010KT CAVOK 13/10 Q1011,LIMG,2018-03-27T17:50:00Z,44.03,8.12,13.0,10.0,90,10,,6.21,29.852362,,,,,,,,,,,CAVOK,,,,,,,,VFR,,,,,,,,,,,,METAR,49.0
MSLU 271750Z 06004KT CAVOK 35/17 Q1010 A2983,MSLU,2018-03-27T17:50:00Z,13.33,-87.88,35.0,17.0,60,4,,6.21,29.822834,,,,,,,,,,,CAVOK,,,,,,,,VFR,,,,,,,,,,,,METAR,5.0
MSSM 271750Z 15004KT 9999 FEW035 36/17 Q1009 A2983,MSSM,2018-03-27T17:50:00Z,13.43,-88.12,36.0,17.0,150,4,,6.21,29.793306,,,,,,,,,,,FEW,3500,,,,,,,VFR,,,,,,,,,,,,METAR,80.0
MSSA 271750Z 28002KT 9999 FEW037 33/16 Q1018 A3006,MSSA,2018-03-27T17:50:00Z,13.97,-89.57,33.0,16.0,280,2,,6.21,30.059055,,,,,,,,,,,FEW,3700,,,,,,,VFR,,,,,,,,,,,,METAR,725.0
MSAC 271750Z 18007KT 9999 FEW037 33/25 Q1008 A2979,MSAC,2018-03-27T17:50:00Z,13.57,-89.83,33.0,25.0,180,7,,6.21,29.763779,,,,,,,,,,,FEW,3700,,,,,,,VFR,,,,,,,,,,,,METAR,15.0
LIRZ 271750Z 30004KT 9999 SCT060 14/M01 Q1012,LIRZ,2018-03-27T17:50:00Z,43.1,12.5,14.0,-1.0,300,4,,6.21,29.88189,,,,,,,,,,,SCT,6000,,,,,,,VFR,,,,,,,,,,,,METAR,205.0
LIBP 271750Z 08002KT CAVOK 11/07 Q1014,LIBP,2018-03-27T17:50:00Z,42.42,14.18,11.0,7.0,80,2,,6.21,29.940945,,,,,,,,,,,CAVOK,,,,,,,,VFR,,,,,,,,,,,,METAR,11.0
LIBG 271750Z 13003KT 9999 VCSH SCT020 09/08 Q1013,LIBG,2018-03-27T17:50:00Z,40.52,17.38,9.0,8.0,130,3,,6.21,29.911417,,,,,,,,,,VCSH,SCT,2000,,,,,,,VFR,,,,,,,,,,,,METAR,69.0
LICR 271750Z 01005KT 340V050 9999 FEW050 12/06 Q1014,LICR,2018-03-27T17:50:00Z,38.07,15.65,12.0,6.0,10,5,,6.21,29.940945,,,,,,,,,,,FEW,5000,,,,,,,VFR,,,,,,,,,,,,METAR,21.0
LICD 271750Z 33019G29KT 9999 FEW025 14/08 Q1017,LICD,2018-03-27T17:50:00Z,35.5,12.62,14.0,8.0,330,19,29,6.21,30.029528,,,,,,,,,,,FEW,2500,,,,,,,VFR,,,,,,,,,,,,METAR,20.0
LICB 271750Z VRB02KT 9999 SCT045 12/08 Q1014,LICB,2018-03-27T17:50:00Z,37.0,14.62,12.0,8.0,0,2,,6.21,29.940945,,,,,,,,,,,SCT,4500,,,,,,,VFR,,,,,,,,,,,,METAR,220.0
LICA 271750Z 28007KT 9999 SCT020 11/07 Q1014,LICA,2018-03-27T17:50:00Z,38.88,16.25,11.0,7.0,280,7,,6.21,29.940945,,,,,,,,,,,SCT,2000,,,,,,,VFR,,,,,,,,,,,,METAR,15.0
PTTP 271750Z 11002KT 15SM SCT018 OVC300 24/24 A2973 RMK SLP068 8/101 T02440237 10260 20240 55000,PTTP,2018-03-27T17:50:00Z,6.97,158.22,24.4,23.7,110,2,,15.0,29.731298,1006.8,,,,,,,,,,SCT,1800,OVC,30000,,,,,VFR,0.0,26.0,24.0,,,,,,,,,SPECI,2.0
LLSD 271750Z 02006KT CAVOK 19/15 Q1012,LLSD,2018-03-27T17:50:00Z,32.12,34.78,19.0,15.0,20,6,,6.21,29.88189,,,,,,,,,,,CAVOK,,,,,,,,VFR,,,,,,,,,,,,METAR,14.0
LLHA 271750Z 30005KT CAVOK 20/15 Q1012,LLHA,2018-03-27T17:50:00Z,32.78,35.02,20.0,15.0,300,5,,6.21,29.88189,,,,,,,,,,,CAVOK,,,,,,,,VFR,,,,,,,,,,,,METAR,8.0
LLET 271750Z 31005KT 9000 -RA NSC 29/07 Q1011 RMK BKN120,LLET,2018-03-27T17:50:00Z,29.55,34.95,29.0,7.0,310,5,,5.59,29.852362,,,,,,,,,,-RA,CLR,,,,,,,,VFR,,,,,,,,,,,,SPECI,13.0
KOQU 271750Z 04008KT 15SM SKC 09/M05 A3045,KOQU,2018-03-27T17:50:00Z,41.6,-71.42,9.0,-5.0,40,8,,15.0,30.448818,,,,,,,,,,,SKC,,,,,,,,VFR,,,,,,,,,,,,METAR,6.0
MSSS 271750Z 26005KT 9999 SCT047 31/16 Q1014 A2996,MSSS,2018-03-27T17:50:00Z,13.7,-89.12,31.0,16.0,260,5,,6.21,29.940945,,,,,,,,,,,SCT,4700,,,,,,,VFR,,,,,,,,,,,,METAR,616.0
MSLP 271750Z 17007KT 110V230 9999 FEW060 34/21 Q1010 A2983 NOSIG,MSLP,2018-03-27T17:50:00Z,13.43,-89.05,34.0,21.0,170,7,,6.21,29.822834,,,,,,TRUE,,,,,FEW,6000,,,,,,,VFR,,,,,,,,,,,,METAR,25.0
TJIG 271750Z 03012KT 10SM SCT033 BKN080 27/21 A3000,TJIG,2018-03-27T17:50:00Z,18.45,-66.1,27.0,21.0,30,12,,10.0,30.0,,,,,,,,,,,SCT,3300,BKN,8000,,,,,VFR,,,,,,,,,,,,METAR,3.0
TJBQ 271750Z 06014KT 10SM SCT017 BKN025 OVC055 27/21 A2999,TJBQ,2018-03-27T17:50:00Z,18.5,-67.13,27.0,21.0,60,14,,10.0,29.991142,,,,,,,,,,,SCT,1700,BKN,2500,OVC,5500,,,MVFR,,,,,,,,,,,,METAR,72.0
KLAL 271750Z 09016G24KT 10SM FEW040 26/13 A3027,KLAL,2018-03-27T17:50:00Z,27.97,-82.02,26.0,13.0,90,16,24,10.0,30.268702,,,,,,,,,,,FEW,4000,,,,,,,VFR,,,,,,,,,,,,METAR,43.0
KGPM 271750Z 00000KT 1 SM RA OVC007 18/18 A3005,KGPM,2018-03-27T17:50:00Z,32.7,-97.05,18.0,18.0,0,0,,,30.050198,,,,,,,,,,RA,OVC,700,,,,,,,,,,,,,,,,,,,METAR,180.0
KVQQ 271750Z 11015KT 10SM OVC044 22/14 A3032,KVQQ,2018-03-27T17:50:00Z,30.22,-81.88,22.0,14.0,110,15,,10.0,30.318897,,,,,,,,,,,OVC,4400,,,,,,,VFR,,,,,,,,,,,,METAR,25.0
KTIX 271750Z 09019G24KT 7SM BKN041 24/12 A3031,KTIX,2018-03-27T17:50:00Z,28.5,-80.8,24.0,12.0,90,19,24,7.0,30.31004,,,,,,,,,,,BKN,4100,,,,,,,VFR,,,,,,,,,,,,METAR,11.0
KTZR 271750Z 20008KT 3SM BR OVC006 09/09 A3010,KTZR,2018-03-27T17:50:00Z,39.9,-83.13,9.0,9.0,200,8,,3.0,30.100393,,,,,,,,,,BR,OVC,600,,,,,,,IFR,,,,,,,,,,,,METAR,276.0
KGEU 271750Z 08003KT 10SM SKC 19/M02 A3001,KGEU,2018-03-27T17:50:00Z,33.53,-112.3,19.0,-2.0,80,3,,10.0,30.008858,,,,,,,,,,,SKC,,,,,,,,VFR,,,,,,,,,,,,METAR,325.0
KFWS 271750Z 00000KT 1 1/2SM +RA BKN004 BKN015 OVC023 17/16 A3007,KFWS,2018-03-27T17:50:00Z,32.57,-97.3,17.0,16.0,0,0,,1.5,30.070866,,,,,,,,,,+RA,BKN,400,BKN,1500,OVC,2300,,,LIFR,,,,,,,,,,,,METAR,208.0
KBYH 271750Z 19018G25KT 10SM OVC030 21/15 A3007,KBYH,2018-03-27T17:50:00Z,35.97,-89.95,21.0,15.0,190,18,25,10.0,30.070866,,,,,,,,,,,OVC,3000,,,,,,,MVFR,,,,,,,,,,,,METAR,78.0
ETNG 271750Z 18005KT 9000 -RADZ BKN015 BKN021 07/05 Q1006 BECMG 4000 RADZ BKN010,ETNG,2018-03-27T17:50:00Z,50.97,6.03,7.0,5.0,180,5,,5.59,29.704725,,,,,,,,,,-RA -DZ,BKN,1500,BKN,2100,,,,,MVFR,,,,,,,,,,,,METAR,98.0
KHQZ 271750Z 34004KT 2SM RABR BKN008 OVC023 17/17 A3003,KHQZ,2018-03-27T17:50:00Z,32.75,-96.53,17.0,17.0,340,4,,2.0,30.029528,,,,,,,,,,RA BR,BKN,800,OVC,2300,,,,,IFR,,,,,,,,,,,,METAR,136.0
KDAG 271750Z AUTO 01013G21KT 10SM CLR 16/M09 A3022 RMK AO2 PK WND 35027/1723 SLP225 T01611089 10161 20072 50006,KDAG,2018-03-27T17:50:00Z,34.85,-116.78,16.1,-8.9,10,13,21,10.0,30.221457,1022.5,,TRUE,TRUE,,,,,,,CLR,,,,,,,,VFR,0.6,16.1,7.2,,,,,,,,,METAR,587.0
LSZL 271750Z AUTO VRB02KT 9999NDV BKN072 14/01 Q1010 RMK,LSZL,2018-03-27T17:50:00Z,46.17,8.88,14.0,1.0,0,2,,,29.822834,,,TRUE,,,,,,,,BKN,7200,,,,,,,,,,,,,,,,,,,METAR,600.0
PTYA 271750Z 17010G19KT 12SM SCT016TCU BKN130 OVC300 28/25 A2963 RMK TCU SE-SW SLP034 60000 8/271 T02840251 10284 20260 57017,PTYA,2018-03-27T17:50:00Z,9.48,138.08,28.4,25.1,170,10,19,12.0,29.630905,1003.4,,,,,,,,,,SCT,1600,BKN,13000,OVC,30000,,,VFR,-1.7,28.4,26.0,,,,,,,,,SPECI,17.0
KFIN 271750Z 11014G22KT 7SM SKC 22/13 A3032,KFIN,2018-03-27T17:50:00Z,29.47,-81.2,22.0,13.0,110,14,22,7.0,30.318897,,,,,,,,,,,SKC,,,,,,,,VFR,,,,,,,,,,,,METAR,10.0
LTAC 271750Z 15009KT 9999 SCT040 BKN100 12/M01 Q1011 NOSIG RMK RWY21L 15008KT RWY03L 14008KT RWY21R 15010KT,LTAC,2018-03-27T17:50:00Z,40.12,32.97,12.0,-1.0,150,9,,6.21,29.852362,,,,,,TRUE,,,,,SCT,4000,BKN,10000,,,,,VFR,,,,,,,,,,,,SPECI,949.0
LTAF 271750Z 21002KT CAVOK 18/09 Q1013 NOSIG RMK RWY23 21001KT,LTAF,2018-03-27T17:50:00Z,36.97,35.28,18.0,9.0,210,2,,6.21,29.911417,,,,,,TRUE,,,,,CAVOK,,,,,,,,VFR,,,-0.1,,,,,,,,,METAR,20.0
LTAI 271750Z 03004KT 350V050 CAVOK 15/09 Q1014 NOSIG RMK RWY18C 35003KT RWY36R 02004KT RWY18L 01004KT,LTAI,2018-03-27T17:50:00Z,36.9,30.8,15.0,9.0,30,4,,6.21,29.940945,,,,,,TRUE,,,,,CAVOK,,,,,,,,VFR,,,,,,,,,,,,METAR,54.0
LTAJ 271750Z 00000KT CAVOK 14/05 Q1016 NOSIG RMK RWY10 VRB01KT,LTAJ,2018-03-27T17:50:00Z,36.95,37.48,14.0,5.0,0,0,,6.21,30.0,,,,,,TRUE,,,,,CAVOK,,,,,,,,VFR,,,,,,,,,,,,METAR,855.0
LTBJ 271750Z VRB01KT 9999 FEW030 SCT100 BKN200 14/11 Q1013 NOSIG RMK RWY16 21003KT 160V250,LTBJ,2018-03-27T17:50:00Z,38.28,27.15,14.0,11.0,0,1,,6.21,29.911417,,,,,,TRUE,,,,,FEW,3000,SCT,10000,BKN,20000,,,VFR,,,-0.3,,,,,,,,,METAR,120.0
LTBA 271750Z 13007KT 090V170 CAVOK 13/09 Q1013 NOSIG RMK RWY17L 00000KT RWY05 08003KT RWY23 12004KT 090V160,LTBA,2018-03-27T17:50:00Z,40.97,28.82,13.0,9.0,130,7,,6.21,29.911417,,,,,,TRUE,,,,,CAVOK,,,,,,,,VFR,,,,,,,,,,,,METAR,37.0
LTAZ 271750Z 20008KT CAVOK 14/M03 Q1013 RMK RWY29 VRB02KT,LTAZ,2018-03-27T17:50:00Z,38.77,34.55,14.0,-3.0,200,8,,6.21,29.911417,,,,,,,,,,,CAVOK,,,,,,,,VFR,,,,,,,,,,,,SPECI,945.0
LTBR 271750Z 08007KT 9999 SCT035 BKN100 11/10 Q1012 NOSIG RMK RWY07 06005KT 010V080,LTBR,2018-03-27T17:50:00Z,40.25,29.57,11.0,10.0,80,7,,6.21,29.88189,,,,,,TRUE,,,,,SCT,3500,BKN,10000,,,,,VFR,,,,,,,,,,,,SPECI,232.0
LTBS 271750Z VRB01KT 6000 FEW025 BKN180 14/11 Q1014 NOSIG RMK RWY19 07003KT,LTBS,2018-03-27T17:50:00Z,36.7,28.77,14.0,11.0,0,1,,3.73,29.940945,,,,,,TRUE,,,,,FEW,2500,BKN,18000,,,,,MVFR,,,,,,,,,,,,METAR,2.0
LTCG 271750Z 27012KT CAVOK 14/08 Q1015 NOSIG RMK RWY29 27015KT,LTCG,2018-03-27T17:50:00Z,41.0,39.8,14.0,8.0,270,12,,6.21,29.970472,,,,,,TRUE,,,,,CAVOK,,,,,,,,VFR,,,,,,,,,,,,METAR,30.0
LTFJ 271750Z VRB02KT 9999 SCT035 BKN080 11/09 Q1012 NOSIG RMK RWY24 23003KT,LTFJ,2018-03-27T17:50:00Z,40.9,29.3,11.0,9.0,0,2,,6.21,29.88189,,,,,,TRUE,,,,,SCT,3500,BKN,8000,,,,,VFR,,,,,,,,,,,,SPECI,98.0
LTFE 271750Z VRB02KT 7000 SCT030 BKN200 15/12 Q1014 NOSIG RMK RWY10 24004KT,LTFE,2018-03-27T17:50:00Z,37.25,27.67,15.0,12.0,0,2,,4.35,29.940945,,,,,,TRUE,,,,,SCT,3000,BKN,20000,,,,,MVFR,,,,,,,,,,,,SPECI,6.0
LTAN 271750Z 22010KT CAVOK 16/M04 Q1014 NOSIG,LTAN,2018-03-27T17:50:00Z,37.97,32.53,16.0,-4.0,220,10,,6.21,29.940945,,,,,,TRUE,,,,,CAVOK,,,,,,,,VFR,,,,,,,,,,,,METAR,1006.0
LTAG 271750Z 06007KT CAVOK 14/08 Q1013 NOSIG,LTAG,2018-03-27T17:50:00Z,37.0,35.42,14.0,8.0,60,7,,6.21,29.911417,,,,,,TRUE,,,,,CAVOK,,,,,,,,VFR,,,,,,,,,,,,METAR,66.0
LTCJ 271750Z 04007KT CAVOK 12/08 Q1016 RMK RWY20 03005KT,LTCJ,2018-03-27T17:50:00Z,37.93,41.12,12.0,8.0,40,7,,6.21,30.0,,,,,,,,,,,CAVOK,,,,,,,,VFR,,,,,,,,,,,,METAR,540.0
LTCE 271750Z 24007KT 190V280 CAVOK 09/01 Q1018 NOSIG RMK RWY08R 19006KT 160V230 RWY26R 24010KT 220V280 RWY08L 23008KT,LTCE,2018-03-27T17:50:00Z,39.95,41.17,9.0,1.0,240,7,,6.21,30.059055,,,,,,TRUE,,,,,CAVOK,,,,,,,,VFR,,,,,,,,,,,,METAR,1758.0
LTCC 271750Z 04003KT CAVOK 14/05 Q1016 NOSIG RMK RWY16 00000KT,LTCC,2018-03-27T17:50:00Z,37.87,40.2,14.0,5.0,40,3,,6.21,30.0,,,,,,TRUE,,,,,CAVOK,,,,,,,,VFR,,,,,,,,,,,,METAR,677.0
LTBU 271750Z 01010KT 340V080 4500 BR SCT005 FEW017CB BKN035 09/09 Q1012 RMK RWY23 36014KT,LTBU,2018-03-27T17:50:00Z,41.12,27.92,9.0,9.0,10,10,,2.8,29.88189,,,,,,,,,,BR,SCT,500,FEW,1700,BKN,3500,,,IFR,,,,,,,,,,,,SPECI,173.0
LTBQ 271750Z 00000KT 7000 BKN023 10/10 Q1014 RESHRA NOSIG,LTBQ,2018-03-27T17:50:00Z,40.72,30.07,10.0,10.0,0,0,,4.35,29.940945,,,,,,TRUE,,,,,BKN,2300,,,,,,,MVFR,,,,,,,,,,,,METAR,50.0
LTBF 271750Z 00000KT 9999 FEW035 SCT100 BKN200 14/09 Q1013 NOSIG,LTBF,2018-03-27T17:50:00Z,39.62,27.92,14.0,9.0,0,0,,6.21,29.911417,,,,,,TRUE,,,,,FEW,3500,SCT,10000,BKN,20000,,,VFR,,,,,,,,,,,,METAR,102.0
LTAU 271750Z 30003KT 260V350 CAVOK 15/M07 Q1014 NOSIG RMK RWY07 27006KT,LTAU,2018-03-27T17:50:00Z,38.77,35.47,15.0,-7.0,300,3,,6.21,29.940945,,,,,,TRUE,,,,,CAVOK,,,,,,,,VFR,,,,,,,,,,,,METAR,1054.0
LTAT 271750Z 21010KT 9999 FEW040 16/03 Q1015 NOSIG RMK RWY03 22009KT,LTAT,2018-03-27T17:50:00Z,38.42,38.07,16.0,3.0,210,10,,6.21,29.970472,,,,,,TRUE,,,,,FEW,4000,,,,,,,VFR,,,,,,,,,,,,METAR,849.0
LTBH 271750Z 20005KT 9999 FEW035 SCT200 14/11 Q1012,LTBH,2018-03-27T17:50:00Z,40.13,26.42,14.0,11.0,200,5,,6.21,29.88189,,,,,,,,,,,FEW,3500,SCT,20000,,,,,VFR,,,,,,,,,,,,METAR,3.0
LTCN 271750Z 08006KT CAVOK 14/08 Q1015 NOSIG,LTCN,2018-03-27T17:50:00Z,37.53,36.95,14.0,8.0,80,6,,6.21,29.970472,,,,,,TRUE,,,,,CAVOK,,,,,,,,VFR,,,,,,,,,,,,METAR,526.0
LTCB 271750Z 15004KT CAVOK 12/07 Q1015,LTCB,2018-03-27T17:50:00Z,39.72,43.03,12.0,7.0,150,4,,6.21,29.970472,,,,,,,,,,,CAVOK,,,,,,,,VFR,,,,,,,,,,,,METAR,1632.0
LTFD 271750Z 00000KT 9999 SCT035 BKN100 12/09 Q1012,LTFD,2018-03-27T17:50:00Z,39.55,27.02,12.0,9.0,0,0,,6.21,29.88189,,,,,,,,,,,SCT,3500,BKN,10000,,,,,VFR,,,,,,,,,,,,METAR,16.0
LTFG 271750Z 13003KT CAVOK 13/12 Q1014,LTFG,2018-03-27T17:50:00Z,36.3,32.3,13.0,12.0,130,3,,6.21,29.940945,,,,,,,,,,,CAVOK,,,,,,,,VFR,,,,,,,,,,,,METAR,95.0
LTAR 271750Z 17002KT CAVOK 08/M07 Q1015,LTAR,2018-03-27T17:50:00Z,39.8,36.9,8.0,-7.0,170,2,,6.21,29.970472,,,,,,,,,,,CAVOK,,,,,,,,VFR,,,,,,,,,,,,METAR,1271.0
LTAY 271750Z 28008KT 9999 FEW035 BKN100 12/05 Q1014,LTAY,2018-03-27T17:50:00Z,37.77,29.68,12.0,5.0,280,8,,6.21,29.940945,,,,,,,,,,,FEW,3500,BKN,10000,,,,,VFR,,,,,,,,,,,,METAR,849.0
LTBZ 271750Z 29007KT 9999 SCT040 09/06 Q1013,LTBZ,2018-03-27T17:50:00Z,38.63,27.35,9.0,6.0,290,7,,6.21,29.911417,,,,,,,,,,,SCT,4000,,,,,,,VFR,,,,,,,,,,,,METAR,73.0
LTBY 271750Z 22005KT 180V250 9999 BKN035 10/07 Q1013 RESHRA,LTBY,2018-03-27T17:50:00Z,39.82,30.52,10.0,7.0,220,5,,6.21,29.911417,,,,,,,,,,,BKN,3500,,,,,,,VFR,,,,,,,,,,,,METAR,789.0
LTCA 271750Z 33005KT 310V020 CAVOK 13/02 Q1016 NOSIG,LTCA,2018-03-27T17:50:00Z,38.6,39.27,13.0,2.0,330,5,,6.21,30.0,,,,,,TRUE,,,,,CAVOK,,,,,,,,VFR,,,,,,,,,,,,METAR,882.0
LTCF 271750Z 20005KT 9999 SCT035 05/M02 Q1017,LTCF,2018-03-27T17:50:00Z,40.57,43.12,5.0,-2.0,200,5,,6.21,30.029528,,,,,,,,,,,SCT,3500,,,,,,,VFR,,,,,,,,,,,,METAR,1795.0
LTCD 271750Z 13009KT 080V180 9999 SCT040 BKN100 17/M01 Q1014 NOSIG,LTCD,2018-03-27T17:50:00Z,39.72,39.5,17.0,-1.0,130,9,,6.21,29.940945,,,,,,TRUE,,,,,SCT,4000,BKN,10000,,,,,VFR,,,,,,,,,,,,METAR,1215.0
LTCI 271750Z 15003KT 060V190 8000 BLDU FEW040 10/M01 Q1020 NOSIG,LTCI,2018-03-27T17:50:00Z,38.45,43.32,10.0,-1.0,150,3,,4.97,30.11811,,,,,,TRUE,,,,BLDU,FEW,4000,,,,,,,MVFR,,,,,,,,,,,,METAR,1661.0
LTDA 271750Z 24011KT CAVOK 20/11 Q1014 NOSIG,LTDA,2018-03-27T17:50:00Z,36.37,36.28,20.0,11.0,240,11,,6.21,29.940945,,,,,,TRUE,,,,,CAVOK,,,,,,,,VFR,,,,,,,,,,,,METAR,82.0
LTFH 271750Z 07001KT 9999 FEW036 BKN100 11/07 Q1014 NOSIG,LTFH,2018-03-27T17:50:00Z,41.27,36.55,11.0,7.0,70,1,,6.21,29.940945,,,,,,TRUE,,,,,FEW,3600,BKN,10000,,,,,VFR,,,,,,,,,,,,METAR,5.0
LCEN 271750Z 29008KT CAVOK 17/06 Q1013 NOSIG RMK RWY11 30008KT,LCEN,2018-03-27T17:50:00Z,35.13,33.5,17.0,6.0,290,8,,6.21,29.911417,,,,,,TRUE,,,,,CAVOK,,,,,,,,VFR,,,,,,,,,,,,METAR,91.0
OAKB 271750Z 25003KT CAVOK 14/M01 Q1023 NOSIG RMK A3022 BLU BLU,OAKB,2018-03-27T17:50:00Z,34.55,69.22,14.0,-1.0,250,3,,6.21,30.206694,,,,,,TRUE,,,,,CAVOK,,,,,,,,VFR,,,,,,,,,,,,METAR,1791.0
EGOM 271750Z 27014KT 9999 BKN009 SCT025 05/04 Q1001 GRN,EGOM,2018-03-27T17:50:00Z,55.05,-2.55,5.0,4.0,270,14,,6.21,29.557087,,,,,,,,,,,BKN,900,SCT,2500,,,,,IFR,,,,,,,,,,,,METAR,325.0
EGVP 271750Z 27012KT 9999 BKN048 SCT230 BKN250 09/04 Q1007 BLU NOSIG,EGVP,2018-03-27T17:50:00Z,51.13,-1.57,9.0,4.0,270,12,,6.21,29.734253,,,,,,TRUE,,,,,BKN,4800,SCT,23000,BKN,25000,,,VFR,,,,,,,,,,,,METAR,91.0
EGYH 271750Z 29012KT 9999 BKN035 10/06 Q1004 BLU,EGYH,2018-03-27T17:50:00Z,52.87,0.15,10.0,6.0,290,12,,6.21,29.64567,,,,,,,,,,,BKN,3500,,,,,,,VFR,,,,,,,,,,,,METAR,3.0
LOXZ 271750Z VRB03KT 20KM FEW060SC 03/M01 Q1012,LOXZ,2018-03-27T17:50:00Z,47.2,14.75,3.0,-1.0,0,3,,12.43,29.88189,,,,,,,,,,,,,,,,,,,,,,,,,,,,,,,SPECI,682.0
EETU 271750Z AUTO VRB03KT 9999 BKN049/// M03/M12 Q1015,EETU,2018-03-27T17:50:00Z,58.32,26.68,-3.0,-12.0,0,3,,6.21,29.970472,,,TRUE,,,,,,,,BKN,4900,,,,,,,VFR,,,,,,,,,,,,METAR,67.0
EEKE 271750Z AUTO 33003KT 9999NDV NCD M03/M08 Q1017,EEKE,2018-03-27T17:50:00Z,58.23,22.52,-3.0,-8.0,330,3,,,30.029528,,,TRUE,,,,,,,,CLR,,,,,,,,,,,,,,,,,,,,SPECI,4.0
LIPB 271750Z 17008KT 9999 FEW100 13/M01 Q1009,LIPB,2018-03-27T17:50:00Z,46.47,11.32,13.0,-1.0,170,8,,6.21,29.793306,,,,,,,,,,,FEW,10000,,,,,,,VFR,,,,,,,,,,,,METAR,241.0
OOSA 271750Z 18003KT CAVOK 28/18 Q1014 NOSIG,OOSA,2018-03-27T17:50:00Z,17.02,54.07,28.0,18.0,180,3,,6.21,29.940945,,,,,,TRUE,,,,,CAVOK,,,,,,,,VFR,,,,,,,,,,,,METAR,20.0
OOMS 271750Z 20003KT CAVOK 26/08 Q1012 NOSIG,OOMS,2018-03-27T17:50:00Z,23.57,58.27,26.0,8.0,200,3,,6.21,29.88189,,,,,,TRUE,,,,,CAVOK,,,,,,,,VFR,,,,,,,,,,,,METAR,8.0
MUCF 271750Z 08013KT 050V110 9000 VCSH BKN020 26/19 Q1020,MUCF,2018-03-27T17:50:00Z,22.13,-80.4,26.0,19.0,80,13,,5.59,30.11811,,,,,,,,,,VCSH,BKN,2000,,,,,,,MVFR,,,,,,,,,,,,METAR,39.0
MUCL 271750Z 07011KT 9999 FEW020 27/19 Q1019,MUCL,2018-03-27T17:50:00Z,21.63,-81.55,27.0,19.0,70,11,,6.21,30.088583,,,,,,,,,,,FEW,2000,,,,,,,VFR,,,,,,,,,,,,METAR,5.0
MUCU 271750Z 16012KT 9000 SCT020 28/16 Q1016,MUCU,2018-03-27T17:50:00Z,19.97,-75.83,28.0,16.0,160,12,,5.59,30.0,,,,,,,,,,,SCT,2000,,,,,,,VFR,,,,,,,,,,,,METAR,76.0
MUHG 271750Z 05014KT 9000 BKN025 27/16 Q1017,MUHG,2018-03-27T17:50:00Z,20.77,-76.32,27.0,16.0,50,14,,5.59,30.029528,,,,,,,,,,,BKN,2500,,,,,,,MVFR,,,,,,,,,,,,METAR,106.0
MUCM 271750Z 05021KT 9000 BKN018 26/17 Q1019,MUCM,2018-03-27T17:50:00Z,21.42,-77.85,26.0,17.0,50,21,,5.59,30.088583,,,,,,,,,,,BKN,1800,,,,,,,MVFR,,,,,,,,,,,,METAR,122.0
MUVR 271750Z 07019KT 9000 SCT020 26/17 Q1021,MUVR,2018-03-27T17:50:00Z,23.03,-81.43,26.0,17.0,70,19,,5.59,30.147638,,,,,,,,,,,SCT,2000,,,,,,,VFR,,,,,,,,,,,,METAR,65.0
KSUA 271750Z 11016G22KT 7SM SCT040 24/12 A3028,KSUA,2018-03-27T17:50:00Z,27.18,-80.22,24.0,12.0,110,16,22,7.0,30.280512,,,,,,,,,,,SCT,4000,,,,,,,VFR,,,,,,,,,,,,METAR,6.0
KSBD 271750Z 35923G31KT 10SM SKC 19/M09 A3014,KSBD,2018-03-27T17:50:00Z,34.08,-117.25,19.0,-9.0,359,23,31,10.0,30.138779,,,,,,,,,,,SKC,,,,,,,,VFR,,,,,,,,,,,,METAR,353.0
LCRA 271750Z 27005KT CAVOK 18/14 Q1013 NOSIG,LCRA,2018-03-27T17:50:00Z,34.57,32.97,18.0,14.0,270,5,,6.21,29.911417,,,,,,TRUE,,,,,CAVOK,,,,,,,,VFR,,,,,,,,,,,,METAR,23.0
EGDR 271750Z 28010KT 9999 FEW010 SCT020 09/06 Q1011 RERA WHT NOSIG,EGDR,2018-03-27T17:50:00Z,50.08,-5.25,9.0,6.0,280,10,,6.21,29.852362,,,,,,TRUE,,,,,FEW,1000,SCT,2000,,,,,VFR,,,,,,,,,,,,METAR,82.0
EGQL 271750Z 25012KT 9999 FEW042 BKN060 08/05 Q0999 BLU,EGQL,2018-03-27T17:50:00Z,56.38,-2.87,8.0,5.0,250,12,,6.21,29.498032,,,,,,,,,,,FEW,4200,BKN,6000,,,,,VFR,,,,,,,,,,,,METAR,12.0
EGQM 271750Z AUTO 27010KT 9999 BKN070/// 09/05 Q1000,EGQM,2018-03-27T17:50:00Z,55.42,-1.6,9.0,5.0,270,10,,6.21,29.52756,,,TRUE,,,,,,,,BKN,7000,,,,,,,VFR,,,,,,,,,,,,METAR,23.0
EGQS 271750Z 14011KT 9999 -RA FEW024 SCT032 BKN042 07/05 Q0997 BLU,EGQS,2018-03-27T17:50:00Z,57.72,-3.32,7.0,5.0,140,11,,6.21,29.438976,,,,,,,,,,-RA,FEW,2400,SCT,3200,BKN,4200,,,VFR,,,,,,,,,,,,METAR,13.0
EGUB 271750Z 29012KT CAVOK 10/03 Q1006 BLU NOSIG,EGUB,2018-03-27T17:50:00Z,51.62,-1.07,10.0,3.0,290,12,,6.21,29.704725,,,,,,TRUE,,,,,CAVOK,,,,,,,,VFR,,,,,,,,,,,,METAR,63.0
EGUW 271750Z 29008KT 9999 FEW018 BKN035 10/09 Q1004 BLU NOSIG,EGUW,2018-03-27T17:50:00Z,52.12,0.97,10.0,9.0,290,8,,6.21,29.64567,,,,,,TRUE,,,,,FEW,1800,BKN,3500,,,,,VFR,,,,,,,,,,,,METAR,87.0
EGVO 271750Z 28014KT 9999 BKN025 10/05 Q1006 BLU NOSIG,EGVO,2018-03-27T17:50:00Z,51.23,-0.95,10.0,5.0,280,14,,6.21,29.704725,,,,,,TRUE,,,,,BKN,2500,,,,,,,MVFR,,,,,,,,,,,,METAR,123.0
EGXC 271750Z 28011KT 9999 FEW020 BKN050 10/05 Q1003 BLU,EGXC,2018-03-27T17:50:00Z,53.1,-0.17,10.0,5.0,280,11,,6.21,29.616142,,,,,,,,,,,FEW,2000,BKN,5000,,,,,VFR,,,,,,,,,,,,METAR,7.0
EGXV 271750Z AUTO 27011KT 9999 BKN060/// 09/06 Q1002,EGXV,2018-03-27T17:50:00Z,53.87,-0.45,9.0,6.0,270,11,,6.21,29.586615,,,TRUE,,,,,,,,BKN,6000,,,,,,,VFR,,,,,,,,,,,,METAR,6.0
EGXW 271750Z 28013KT 9999 FEW025 BKN055 09/04 Q1003 BLU,EGXW,2018-03-27T17:50:00Z,53.18,-0.52,9.0,4.0,280,13,,6.21,29.616142,,,,,,,,,,,FEW,2500,BKN,5500,,,,,VFR,,,,,,,,,,,,METAR,70.0
EGYM 271750Z 29008KT 9999 FEW015 BKN050 10/07 Q1004 BLU,EGYM,2018-03-27T17:50:00Z,52.63,0.57,10.0,7.0,290,8,,6.21,29.64567,,,,,,,,,,,FEW,1500,BKN,5000,,,,,VFR,,,,,,,,,,,,METAR,23.0
OAMS 271750Z 27005KT 9999 FEW140 20/07 Q1018 BLU+BLU+,OAMS,2018-03-27T17:50:00Z,36.7,67.2,20.0,7.0,270,5,,6.21,30.059055,,,,,,,,,,,FEW,14000,,,,,,,VFR,,,,,,,,,,,,METAR,378.0
KAPG 271750Z 15006KT 7SM FEW030 SCT090 OVC120 06/M02 3047 RMK SLPNO $,KAPG,2018-03-27T17:50:00Z,39.47,-76.17,6.0,-2.0,150,6,,7.0,,,,,,TRUE,,,,,,FEW,3000,SCT,9000,OVC,12000,,,VFR,,,,,,,,,,,,METAR,18.0
EEEI 271750Z 26004KT 9999 FEW033 M04/M09 Q1016 R24/090095 NOSIG,EEEI,2018-03-27T17:50:00Z,59.27,24.2,-4.0,-9.0,260,4,,6.21,30.0,,,,,,TRUE,,,,,FEW,3300,,,,,,,VFR,,,,,,,,,,,,METAR,20.0
KEFD 271750Z 16013G20KT 10SM SCT025 OVC040 26/20 A3005,KEFD,2018-03-27T17:50:00Z,29.6,-95.17,26.0,20.0,160,13,20,10.0,30.050198,,,,,,,,,,,SCT,2500,OVC,4000,,,,,VFR,,,,,,,,,,,,METAR,10.0
BGBW 271750Z 22007KT 9999 SCT200 M04/M17 Q1006,BGBW,2018-03-27T17:50:00Z,61.17,-45.42,-4.0,-17.0,220,7,,6.21,29.704725,,,,,,,,,,,SCT,20000,,,,,,,VFR,,,,,,,,,,,,METAR,26.0
KRUQ 271750Z AUTO 15003KT 10SM SCT031 08/01 A3042 RMK AO2 T00840007 10085 20045,KRUQ,2018-03-27T17:50:00Z,35.65,-80.52,8.4,0.7,150,3,,10.0,30.41929,,,TRUE,TRUE,,,,,,,SCT,3100,,,,,,,VFR,,8.5,4.5,,,,,,,,,SPECI,236.0
MMPR 271750Z 20011KT 15SM SKC 25/20 A2994 RMK SLP139 52001 904,MMPR,2018-03-27T17:50:00Z,20.67,-105.25,25.0,20.0,200,11,,15.0,29.940945,1013.9,,,,,,,,,,SKC,,,,,,,,VFR,0.1,,,,,,,,,,,METAR,6.0
MMMY 271750Z 16006KT 4SM BKN035 27/19 A2988 RMK SLP/// 5//// 9// 8/500 HZ,MMMY,2018-03-27T17:50:00Z,25.77,-100.08,27.0,19.0,160,6,,4.0,29.878937,,,,,,,,,,,BKN,3500,,,,,,,MVFR,,,,,,,,,,,,METAR,387.0
EDTY 271750Z VRB03KT CAVOK 09/M02 Q1010,EDTY,2018-03-27T17:50:00Z,49.12,9.78,9.0,-2.0,0,3,,6.21,29.822834,,,,,,,,,,,CAVOK,,,,,,,,VFR,,,,,,,,,,,,METAR,400.0
EDTL 271750Z 20010KT 6000 -RA BKN040 OVC055 08/04 Q1011,EDTL,2018-03-27T17:50:00Z,48.37,7.83,8.0,4.0,200,10,,3.73,29.852362,,,,,,,,,,-RA,BKN,4000,OVC,5500,,,,,MVFR,,,,,,,,,,,,METAR,156.0
EDMO 271750Z 11004KT CAVOK 05/M03 Q1011,EDMO,2018-03-27T17:50:00Z,48.07,11.27,5.0,-3.0,110,4,,6.21,29.852362,,,,,,,,,,,CAVOK,,,,,,,,VFR,,,,,,,,,,,,METAR,600.0
LGBL 271750Z 27008KT 9999 FEW035 14/04 Q1010,LGBL,2018-03-27T17:50:00Z,39.22,22.8,14.0,4.0,270,8,,6.21,29.822834,,,,,,,,,,,FEW,3500,,,,,,,VFR,,,,,,,,,,,,METAR,26.0
LGKF 271750Z 00000KT 9999 FEW018 SCT020 BKN070 13/11 Q1013,LGKF,2018-03-27T17:50:00Z,38.12,20.5,13.0,11.0,0,0,,6.21,29.911417,,,,,,,,,,,FEW,1800,SCT,2000,BKN,7000,,,VFR,,,,,,,,,,,,METAR,18.0
LGHI 271750Z 19005KT 9999 FEW020 15/12 Q1011,LGHI,2018-03-27T17:50:00Z,38.32,26.12,15.0,12.0,190,5,,6.21,29.852362,,,,,,,,,,,FEW,2000,,,,,,,VFR,,,,,,,,,,,,METAR,4.0
NZSP 271750Z 06007KT 1600 BR FEW000 BKN010 M51/ A2905 RMK BR FEW000 CLN AIR 05009KT ALL WNDS GRID,NZSP,2018-03-27T17:50:00Z,-89.98,179.98,-51.0,,60,7,,0.99,29.049213,,,,,,,,,,BR,FEW,0,BKN,1000,,,,,LIFR,,,,,,,,,,,,SPECI,2830.0
ENOV 271750Z VRB02KT CAVOK 01/M06 Q1014 RMK WIND 2175FT 17005KT,ENOV,2018-03-27T17:50:00Z,62.17,6.07,1.0,-6.0,0,2,,6.21,29.940945,,,,,,,,,,,CAVOK,,,,,,,,VFR,,,,,,,,,,,,METAR,74.0
ENSG 271750Z 02008KT CAVOK M03/M15 Q1014 RMK WIND 3806FT 09018KT,ENSG,2018-03-27T17:50:00Z,61.13,7.12,-3.0,-15.0,20,8,,6.21,29.940945,,,,,,,,,,,CAVOK,,,,,,,,VFR,,,,,,,,,,,,METAR,497.0
ENSS 271750Z 35019KT 9999 SCT038 BKN055 M03/M09 Q1005 RMK WIND 500FT 35023KT,ENSS,2018-03-27T17:50:00Z,70.33,31.05,-3.0,-9.0,350,19,,6.21,29.675198,,,,,,,,,,,SCT,3800,BKN,5500,,,,,VFR,,,,,,,,,,,,SPECI,12.0
ENGC 271750Z 16026KT 9999 VCSH OVC018 03/M01 Q1012 W05/S5,ENGC,2018-03-27T17:50:00Z,61.02,2.02,3.0,-1.0,160,26,,6.21,29.88189,,,,,,,,,,VCSH,OVC,1800,,,,,,,MVFR,,,,,,,,,,,,METAR,10.0
ENOA 271750Z 13022KT 9999 BKN025 03/M02 Q1012 W///S5,ENOA,2018-03-27T17:50:00Z,60.5,2.83,3.0,-2.0,130,22,,6.21,29.88189,,,,,,,,,,,BKN,2500,,,,,,,MVFR,,,,,,,,,,,,METAR,5.0
ENRM 271750Z 26003KT 9999 FEW035 M00/M04 Q1019,ENRM,2018-03-27T17:50:00Z,64.83,11.13,0.0,-4.0,260,3,,6.21,30.088583,,,,,,,,,,,FEW,3500,,,,,,,VFR,,,,,,,,,,,,METAR,14.0
ENVD 271750Z 30011KT 9999 VCSH FEW040CB M07/M10 Q1006,ENVD,2018-03-27T17:50:00Z,70.07,29.85,-7.0,-10.0,300,11,,6.21,29.704725,,,,,,,,,,VCSH,FEW,4000,,,,,,,VFR,,,,,,,,,,,,METAR,39.0
ENSK 271750Z 34003KT 9999 FEW025 SCT035 02/M05 Q1015,ENSK,2018-03-27T17:50:00Z,68.57,15.02,2.0,-5.0,340,3,,6.21,29.970472,,,,,,,,,,,FEW,2500,SCT,3500,,,,,VFR,,,,,,,,,,,,METAR,3.0
ENDU 271750Z 29007KT 9999 8000S -SHSN FEW010 BKN030 M02/M03 Q1013 RMK WIND 1100FT 33011KT WIND 2200FT 32023KT,ENDU,2018-03-27T17:50:00Z,69.03,18.55,-2.0,-3.0,290,7,,6.21,29.911417,,,,,,,,,,-SHSN,FEW,1000,BKN,3000,,,,,MVFR,,,,,,,,,,,,METAR,79.0
ENEV 271750Z VRB02KT 9999 5000N VCSH BKN035 M01/M05 Q1014 RMK WIND 1400FT 28011KT,ENEV,2018-03-27T17:50:00Z,68.52,16.67,-1.0,-5.0,0,2,,6.21,29.940945,,,,,,,,,,VCSH,BKN,3500,,,,,,,VFR,,,,,,,,,,,,METAR,26.0
ENAT 271750Z 35010KT 9999 VCSH FEW021 SCT045 BKN064 M02/M07 Q1011 RMK WIND 700FT 34020KT,ENAT,2018-03-27T17:50:00Z,69.97,23.37,-2.0,-7.0,350,10,,6.21,29.852362,,,,,,,,,,VCSH,FEW,2100,SCT,4500,BKN,6400,,,VFR,,,,,,,,,,,,METAR,3.0
LGPZ 271750Z 26006KT 9999 FEW025 SCT070 12/09 Q1013,LGPZ,2018-03-27T17:50:00Z,38.92,20.77,12.0,9.0,260,6,,6.21,29.911417,,,,,,,,,,,FEW,2500,SCT,7000,,,,,VFR,,,,,,,,,,,,METAR,4.0
LGRX 271750Z 00000KT 9999 FEW030 SCT080 12/10 Q1012 RMK OVC170 BLU,LGRX,2018-03-27T17:50:00Z,38.17,21.42,12.0,10.0,0,0,,6.21,29.88189,,,,,,,,,,,FEW,3000,SCT,8000,,,,,VFR,,,,,,,,,,,,METAR,15.0
LGSK 271750Z 00000KT 9999 SCT018 15/11 Q1010,LGSK,2018-03-27T17:50:00Z,39.18,23.5,15.0,11.0,0,0,,6.21,29.822834,,,,,,,,,,,SCT,1800,,,,,,,VFR,,,,,,,,,,,,METAR,15.0
LGZA 271750Z 00000KT 9999 FEW020 BKN070 13/12 Q1012,LGZA,2018-03-27T17:50:00Z,37.75,20.87,13.0,12.0,0,0,,6.21,29.88189,,,,,,,,,,,FEW,2000,BKN,7000,,,,,VFR,,,,,,,,,,,,METAR,3.0
ENBS 271750Z 34007KT 9999 VCSH FEW010 SCT020 BKN041 M06/M08 Q1005,ENBS,2018-03-27T17:50:00Z,70.62,29.72,-6.0,-8.0,340,7,,6.21,29.675198,,,,,,,,,,VCSH,FEW,1000,SCT,2000,BKN,4100,,,VFR,,,,,,,,,,,,METAR,10.0
LTFC 271750Z 18014KT 9999 SCT035 BKN100 14/M03 Q1014 RMK RWY23 19011KT,LTFC,2018-03-27T17:50:00Z,37.87,30.38,14.0,-3.0,180,14,,6.21,29.940945,,,,,,,,,,,SCT,3500,BKN,10000,,,,,VFR,,,,,,,,,,,,SPECI,864.0
LTCS 271750Z 28003KT 200V310 CAVOK 17/05 Q1017 RMK RWY22 VRB01KT,LTCS,2018-03-27T17:50:00Z,37.45,38.9,17.0,5.0,280,3,,6.21,30.029528,,,,,,,,,,,CAVOK,,,,,,,,VFR,,,,,,,,,,,,METAR,825.0
LTAP 271750Z 05009KT 020V080 CAVOK 12/04 Q1010 NOSIG RMK RWY23 05012KT,LTAP,2018-03-27T17:50:00Z,40.83,35.52,12.0,4.0,50,9,,6.21,29.822834,,,,,,TRUE,,,,,CAVOK,,,,,,,,VFR,,,,,,,,,,,,METAR,535.0
EGBJ 271750Z 29009KT 9999 FEW028 SCT040 10/04 Q1007,EGBJ,2018-03-27T17:50:00Z,51.9,-2.17,10.0,4.0,290,9,,6.21,29.734253,,,,,,,,,,,FEW,2800,SCT,4000,,,,,VFR,,,,,,,,,,,,METAR,29.0
NSTU 271750Z VRB03KT 12SM FEW022 SCT040 BKN100 OVC220 26/25 A2979 RMK SLP090 60021 8/878 T02570251 10266 20254 52015,NSTU,2018-03-27T17:50:00Z,-14.33,-170.72,25.7,25.1,0,3,,12.0,29.790354,1009.0,,,,,,,,,,FEW,2200,SCT,4000,BKN,10000,OVC,22000,VFR,1.5,26.6,25.4,,,,,,,,,SPECI,3.0
PTKK 271750Z 04012KT 15SM SCT014CB BKN120 OVC280 28/27 A2970 RMK CB ALQDS MOV SW SLP057 8/371 T02830268 10294 20267 55010,PTKK,2018-03-27T17:50:00Z,7.47,151.85,28.3,26.8,40,12,,15.0,29.698818,1005.7,,,,,,,,,,SCT,1400,BKN,12000,OVC,28000,,,VFR,-1.0,29.4,26.7,,,,,,,,,SPECI,2.0
EGYP 271750Z 27005KT 9999 FEW045 13/00 Q1008 BLU NOSIG,EGYP,2018-03-27T17:50:00Z,-51.82,-58.45,13.0,0.0,270,5,,6.21,29.763779,,,,,,TRUE,,,,,FEW,4500,,,,,,,VFR,,,,,,,,,,,,METAR,74.0
LXGB 271750Z 19011KT CAVOK 19/11 Q1023,LXGB,2018-03-27T17:50:00Z,36.13,-5.33,19.0,11.0,190,11,,6.21,30.206694,,,,,,,,,,,CAVOK,,,,,,,,VFR,,,,,,,,,,,,METAR,5.0
KHXD 271750Z 05007KT 10SM OVC013 15/10 A3040,KHXD,2018-03-27T17:50:00Z,32.22,-80.7,15.0,10.0,50,7,,10.0,30.398623,,,,,,,,,,,OVC,1300,,,,,,,MVFR,,,,,,,,,,,,METAR,6.0
EDLN 271750Z /////KT 7000 -RA FEW016 BKN025 ///// Q1007,EDLN,2018-03-27T17:50:00Z,51.23,6.5,,,,,,4.35,29.734253,,,,,,,,,,-RA,FEW,1600,BKN,2500,,,,,MVFR,,,,,,,,,,,,METAR,38.0
EDAC 271750Z 10003KT CAVOK 06/M02 Q1011,EDAC,2018-03-27T17:50:00Z,50.98,12.5,6.0,-2.0,100,3,,6.21,29.852362,,,,,,,,,,,CAVOK,,,,,,,,VFR,,,,,,,,,,,,METAR,195.0
EDQM 271750Z 18003KT CAVOK 03/M02 Q1010,EDQM,2018-03-27T17:50:00Z,50.3,11.85,3.0,-2.0,180,3,,6.21,29.822834,,,,,,,,,,,CAVOK,,,,,,,,VFR,,,,,,,,,,,,METAR,568.0
EGPI 271750Z 29016KT 9999 FEW022 SCT042 BKN048 06/04 Q1002,EGPI,2018-03-27T17:50:00Z,55.68,-6.25,6.0,4.0,290,16,,6.21,29.586615,,,,,,,,,,,FEW,2200,SCT,4200,BKN,4800,,,VFR,,,,,,,,,,,,METAR,18.0
KOMN 271750Z 11010G20KT 10SM SCT030 22/12 A3034,KOMN,2018-03-27T17:50:00Z,29.3,-81.12,22.0,12.0,110,10,20,10.0,30.339567,,,,,,,,,,,SCT,3000,,,,,,,VFR,,,,,,,,,,,,METAR,9.0
ENSH 271750Z 30007KT 9999 SCT030 00/M06 Q1015 RMK WIND 150FT 31007KT,ENSH,2018-03-27T17:50:00Z,68.25,14.67,0.0,-6.0,300,7,,6.21,29.970472,,,,,,,,,,,SCT,3000,,,,,,,VFR,,,,,,,,,,,,METAR,9.0
ENBV 271750Z 33014KT 9999 VCSH SCT020TCU M03/M07 Q1007,ENBV,2018-03-27T17:50:00Z,70.87,29.02,-3.0,-7.0,330,14,,6.21,29.734253,,,,,,,,,,VCSH,SCT,2000,,,,,,,VFR,,,,,,,,,,,,METAR,13.0
KSQL 271749Z 32007KT 10SM FEW200 18/01 A3026,KSQL,2018-03-27T17:49:00Z,37.52,-122.25,18.0,1.0,320,7,,10.0,30.259842,,,,,,,,,,,FEW,20000,,,,,,,VFR,,,,,,,,,,,,METAR,1.0
MMML 271749Z 32018KT 10SM SKC 21/M12 A3008 RMK SLP186 52010 940,MMML,2018-03-27T17:49:00Z,32.62,-115.23,21.0,-12.0,320,18,,10.0,30.079725,1018.6,,,,,,,,,,SKC,,,,,,,,VFR,1.0,,,,,,,,,,,METAR,22.0
MMCE 271749Z 12016KT 7SM SKC 31/21 A2990 RMK SLP122 57020 953 SC,MMCE,2018-03-27T17:49:00Z,18.65,-91.8,31.0,21.0,120,16,,7.0,29.899607,1012.2,,,,,,,,,,SKC,,,,,,,,VFR,-2.0,,,,,,,,,,,METAR,2.0
KJDN 271748Z AUTO 21016KT 07/M02 A2986 RMK AO1 SLP132 T00721022 10072 21044 58025,KJDN,2018-03-27T17:48:00Z,47.33,-106.95,7.2,-2.2,210,16,,,29.861221,1013.2,,TRUE,TRUE,,,,,,,,,,,,,,,,-2.5,7.2,-4.4,,,,,,,,,METAR,801.0
KRYY 271748Z VRB06KT 10SM OVC016 11/07 A3037 RMK AO2 SLP004 T01110067 10111 20083 58016,KRYY,2018-03-27T17:48:00Z,34.02,-84.6,11.1,6.7,0,6,,10.0,30.369095,1000.4,,,TRUE,,,,,,,OVC,1600,,,,,,,MVFR,-1.6,11.1,8.3,,,,,,,,,SPECI,317.0
KOUN 271748Z 35013KT 10SM OVC007 09/08 A3006,KOUN,2018-03-27T17:48:00Z,35.25,-97.47,9.0,8.0,350,13,,10.0,30.059055,,,,,,,,,,,OVC,700,,,,,,,IFR,,,,,,,,,,,,METAR,357.0
KASG 271748Z 06005KT 7SM SCT008 BKN014 BKN028 15/15 A3003,KASG,2018-03-27T17:48:00Z,36.17,-94.12,15.0,15.0,60,5,,7.0,30.029528,,,,,,,,,,,SCT,800,BKN,1400,BKN,2800,,,MVFR,,,,,,,,,,,,METAR,412.0
KSUN 271748Z 12009KT 10SM SKC 03/M06 A3024,KSUN,2018-03-27T17:48:00Z,43.5,-114.28,3.0,-6.0,120,9,,10.0,30.239174,,,,,,,,,,,SKC,,,,,,,,VFR,,,,,,,,,,,,METAR,1620.0
KTOA 271748Z 25003KT 10SM SKC 21/M03 A3013,KTOA,2018-03-27T17:48:00Z,33.78,-118.32,21.0,-3.0,250,3,,10.0,30.129921,,,,,,,,,,,SKC,,,,,,,,VFR,,,,,,,,,,,,METAR,31.0
MMGL 271748Z 29010KT 8SM SKC 26/M04 A3016 RMK SLP074 57014 909,MMGL,2018-03-27T17:48:00Z,20.52,-103.32,26.0,-4.0,290,10,,8.0,30.159449,1007.4,,,,,,,,,,SKC,,,,,,,,VFR,-1.4,,,,,,,,,,,METAR,1528.0
MMCT 271748Z 15011KT 8SM BKN025 30/20 A3002 RMK 8/400 HZY MSGTX MMMD,MMCT,2018-03-27T17:48:00Z,20.63,-88.45,30.0,20.0,150,11,,8.0,30.02067,,,,,,,,,,,BKN,2500,,,,,,,MVFR,,,,,,,,,,,,METAR,28.0
KBCT 271747Z 10012G25KT 10SM SCT041 25/12 A3025,KBCT,2018-03-27T17:47:00Z,26.38,-80.1,25.0,12.0,100,12,25,10.0,30.250984,,,,,,,,,,,SCT,4100,,,,,,,VFR,,,,,,,,,,,,METAR,4.0
KCIC 271747Z 31010KT 80SM SCT200 16/03 A3029,KCIC,2018-03-27T17:47:00Z,39.78,-121.83,16.0,3.0,310,10,,80.0,30.28937,,,,,,,,,,,SCT,20000,,,,,,,VFR,,,,,,,,,,,,METAR,73.0
KCHD 271747Z 19005KT 10SM FEW120 18/M05 A3000,KCHD,2018-03-27T17:47:00Z,33.27,-111.82,18.0,-5.0,190,5,,10.0,30.0,,,,,,,,,,,FEW,12000,,,,,,,VFR,,,,,,,,,,,,METAR,379.0
KSEE 271747Z VRB06KT 10SM SKC 17/04 A3012,KSEE,2018-03-27T17:47:00Z,32.82,-116.97,17.0,4.0,0,6,,10.0,30.121063,,,,,,,,,,,SKC,,,,,,,,VFR,,,,,,,,,,,,METAR,117.0
KHUM 271747Z 14013G17KT 7SM BKN026 BKN034 26/19 A3015,KHUM,2018-03-27T17:47:00Z,29.57,-90.67,26.0,19.0,140,13,17,7.0,30.15059,,,,,,,,,,,BKN,2600,BKN,3400,,,,,MVFR,,,,,,,,,,,,METAR,3.0
KSAW 271747Z 29011KT 10SM OVC016 03/00 A2984,KSAW,2018-03-27T17:47:00Z,46.35,-87.4,3.0,0.0,290,11,,10.0,29.840551,,,,,,,,,,,OVC,1600,,,,,,,MVFR,,,,,,,,,,,,METAR,372.0
KPOC 271747Z 26005KT 10SM CLR 16/01 A3016,KPOC,2018-03-27T17:47:00Z,34.1,-117.77,16.0,1.0,260,5,,10.0,30.159449,,,,,,,,,,,CLR,,,,,,,,VFR,,,,,,,,,,,,METAR,308.0
KLBE 271747Z 17010KT 6SM -RA OVC024 05/04 A3020,KLBE,2018-03-27T17:47:00Z,40.27,-79.4,5.0,4.0,170,10,,6.0,30.200787,,,,,,,,,,-RA,OVC,2400,,,,,,,MVFR,,,,,,,,,,,,METAR,361.0
KFFZ 271747Z 14008KT 40SM FEW110 18/M04 A3000,KFFZ,2018-03-27T17:47:00Z,33.47,-111.72,18.0,-4.0,140,8,,40.0,30.0,,,,,,,,,,,FEW,11000,,,,,,,VFR,,,,,,,,,,,,METAR,424.0
KAID 271747Z 21010KT 1 1/2-DZSM OVC004 11/10 A3005,KAID,2018-03-27T17:47:00Z,40.12,-85.62,11.0,10.0,210,10,,,30.050198,,,,,,,,,,-DZ,OVC,400,,,,,,,,,,,,,,,,,,,METAR,280.0
KGYR 271747Z 17004KT 10SM FEW070 SCT120 18/M04 A3000,KGYR,2018-03-27T17:47:00Z,33.42,-112.37,18.0,-4.0,170,4,,10.0,30.0,,,,,,,,,,,FEW,7000,SCT,12000,,,,,VFR,,,,,,,,,,,,METAR,295.0
KGYH 271747Z 00000KT 10SM OVC021 10/04 A3041,KGYH,2018-03-27T17:47:00Z,34.75,-82.38,10.0,4.0,0,0,,10.0,30.410433,,,,,,,,,,,OVC,2100,,,,,,,MVFR,,,,,,,,,,,,METAR,292.0
KFTG 271747Z 15005KT 10SM FEW030 FEW100 BKN200 02/M01 A3017,KFTG,2018-03-27T17:47:00Z,39.78,-104.55,2.0,-1.0,150,5,,10.0,30.171259,,,,,,,,,,,FEW,3000,FEW,10000,BKN,20000,,,VFR,,,,,,,,,,,,METAR,1675.0
KFDK 271747Z 21007KT 5SM -RA BKN075 OVC085 06/M01 A3047,KFDK,2018-03-27T17:47:00Z,39.42,-77.37,6.0,-1.0,210,7,,5.0,30.469488,,,,,,,,,,-RA,BKN,7500,OVC,8500,,,,,MVFR,,,,,,,,,,,,METAR,92.0
KAEG 271747Z 26010KT 10SM -TSRA SCT008 BKN035 OVC050 01/01 A3002,KAEG,2018-03-27T17:47:00Z,35.13,-106.8,1.0,1.0,260,10,,10.0,30.02067,,,,,,,,,,-TSRA,SCT,800,BKN,3500,OVC,5000,,,VFR,,,,,,,,,,,,METAR,1779.0
KPAO 271747Z VRB04KT 10SM SCT200 A3026,KPAO,2018-03-27T17:47:00Z,37.47,-122.12,,,0,4,,10.0,30.259842,,,,,,,,,,,SCT,20000,,,,,,,VFR,,,,,,,,,,,,METAR,2.0
KIWA 271747Z 24003KT 30SM SCT120 17/M04 A3001,KIWA,2018-03-27T17:47:00Z,33.3,-111.65,17.0,-4.0,240,3,,30.0,30.008858,,,,,,,,,,,SCT,12000,,,,,,,VFR,,,,,,,,,,,,METAR,412.0
KRHV 271747Z 34007KT 10SM SCT080 18/05 A3022,KRHV,2018-03-27T17:47:00Z,37.32,-121.82,18.0,5.0,340,7,,10.0,30.221457,,,,,,,,,,,SCT,8000,,,,,,,VFR,,,,,,,,,,,,METAR,41.0
KBVI 271747Z 15008G14KT 5SM BR OVC002 04/04 A3014,KBVI,2018-03-27T17:47:00Z,40.77,-80.4,4.0,4.0,150,8,14,5.0,30.138779,,,,,,,,,,BR,OVC,200,,,,,,,LIFR,,,,,,,,,,,,METAR,382.0
MMEP 271747Z 00000KT 12SM SKC 28/11 A3006 RMK SLP152 54000 909,MMEP,2018-03-27T17:47:00Z,21.42,-104.85,28.0,11.0,0,0,,12.0,30.059055,1015.2,,,,,,,,,,SKC,,,,,,,,VFR,,,,,,,,,,,,METAR,922.0
MMMX 271747Z 26005KT 6SM SKC 25/05 A3028 NOSIG RMK SLP044 57010 904 HZY CU,MMMX,2018-03-27T17:47:00Z,19.42,-99.08,25.0,5.0,260,5,,6.0,30.280512,1004.4,,,,,TRUE,,,,,SKC,,,,,,,,VFR,-1.0,,,,,,,,,,,METAR,2238.0
MMSD 271747Z 34004KT 12SM FEW150 25/12 A3001 RMK SLP150 51006 922 8/030 CI,MMSD,2018-03-27T17:47:00Z,23.13,-109.7,25.0,12.0,340,4,,12.0,30.008858,1015.0,,,,,,,,,,FEW,15000,,,,,,,VFR,0.6,,,,,,,,,,,METAR,109.0
MMCM 271747Z 12018KT 7SM SCT020 30/21 A3001 RMK SLP164 5//// 904 8/500,MMCM,2018-03-27T17:47:00Z,18.5,-88.33,30.0,21.0,120,18,,7.0,30.008858,1016.4,,,,,,,,,,SCT,2000,,,,,,,VFR,,,,,,,,,,,,METAR,12.0
KEVB 271747Z 11014G20KT 10SM FEW038 24/13 A3032,KEVB,2018-03-27T17:47:00Z,29.05,-80.95,24.0,13.0,110,14,20,10.0,30.318897,,,,,,,,,,,FEW,3800,,,,,,,VFR,,,,,,,,,,,,METAR,3.0
KBBG 271746Z 08010KT 3SM BKN004 BKN095 14/14 A3000,KBBG,2018-03-27T17:46:00Z,36.53,-93.2,14.0,14.0,80,10,,3.0,30.0,,,,,,,,,,,BKN,400,BKN,9500,,,,,LIFR,,,,,,,,,,,,METAR,397.0
KCWF 271746Z 16017G23KT 10SM SCT032 BKN047 27/18 A3010,KCWF,2018-03-27T17:46:00Z,30.22,-93.15,27.0,18.0,160,17,23,10.0,30.100393,,,,,,,,,,,SCT,3200,BKN,4700,,,,,VFR,,,,,,,,,,,,METAR,4.0
MMTO 271746Z 26006KT 5SM SCT015 20/03 A3036 RMK SLP079 57010 901 8/100 HZY,MMTO,2018-03-27T17:46:00Z,19.35,-99.57,20.0,3.0,260,6,,5.0,30.360237,1007.9,,,,,,,,,,SCT,1500,,,,,,,MVFR,-1.0,,,,,,,,,,,METAR,2576.0
LHUD 271745Z 15004KT 9999 FEW040 BKN200 07/03 Q1013 RESHRA,LHUD,2018-03-27T17:45:00Z,46.25,20.1,7.0,3.0,150,4,,6.21,29.911417,,,,,,,,,,,FEW,4000,BKN,20000,,,,,VFR,,,,,,,,,,,,METAR,84.0
LHPR 271745Z AUTO 32005KT CAVOK 07/02 Q1013 RMK BLU,LHPR,2018-03-27T17:45:00Z,47.63,17.82,7.0,2.0,320,5,,6.21,29.911417,,,TRUE,,,,,,,,CAVOK,,,,,,,,VFR,,,,,,,,,,,,METAR,129.0
LHPA 271745Z 33006KT 290V350 9999 SCT037 BKN200 07/01 Q1013 NOSIG RMK BLU,LHPA,2018-03-27T17:45:00Z,47.35,17.5,7.0,1.0,330,6,,6.21,29.911417,,,,,,TRUE,,,,,SCT,3700,BKN,20000,,,,,VFR,,,,,,,,,,,,METAR,148.0
LHDC 271745Z 19007KT 8000 -SHRA SCT033TCU OVC083 06/03 Q1013 NOSIG,LHDC,2018-03-27T17:45:00Z,47.47,21.62,6.0,3.0,190,7,,4.97,29.911417,,,,,,TRUE,,,,-SHRA,SCT,3300,OVC,8300,,,,,MVFR,,,,,,,,,,,,METAR,112.0
LHBC 271745Z 21001KT CAVOK 06/04 Q1013,LHBC,2018-03-27T17:45:00Z,46.68,21.17,6.0,4.0,210,1,,6.21,29.911417,,,,,,,,,,,CAVOK,,,,,,,,VFR,,,,,,,,,,,,METAR,86.0
KEMT 271745Z 17003KT 10SM CLR 19/00 A3013,KEMT,2018-03-27T17:45:00Z,34.07,-118.02,19.0,0.0,170,3,,10.0,30.129921,,,,,,,,,,,CLR,,,,,,,,VFR,,,,,,,,,,,,METAR,90.0
KMWC 271745Z 29010G14KT 10SM OVC013 06/03 A2995,KMWC,2018-03-27T17:45:00Z,43.12,-88.03,6.0,3.0,290,10,14,10.0,29.949802,,,,,,,,,,,OVC,1300,,,,,,,MVFR,,,,,,,,,,,,METAR,227.0
KMHR 271745Z 16004KT 10SM SKC 13/05 A3025,KMHR,2018-03-27T17:45:00Z,38.53,-121.28,13.0,5.0,160,4,,10.0,30.250984,,,,,,,,,,,SKC,,,,,,,,VFR,,,,,,,,,,,,METAR,29.0
KALN 271745Z 33010KT 3SM RABR OVC004 11/11 A3005,KALN,2018-03-27T17:45:00Z,38.88,-90.03,11.0,11.0,330,10,,3.0,30.050198,,,,,,,,,,RA BR,OVC,400,,,,,,,LIFR,,,,,,,,,,,,METAR,166.0
KJVL 271745Z 30008KT 10SM OVC012 06/06 A2999,KJVL,2018-03-27T17:45:00Z,42.62,-89.05,6.0,6.0,300,8,,10.0,29.991142,,,,,,,,,,,OVC,1200,,,,,,,MVFR,,,,,,,,,,,,METAR,246.0
KMWA 271745Z 19008KT 2 1/2SM RA OVC010 13/13 A3005,KMWA,2018-03-27T17:45:00Z,37.77,-89.02,13.0,13.0,190,8,,2.5,30.050198,,,,,,,,,,RA,OVC,1000,,,,,,,IFR,,,,,,,,,,,,METAR,144.0
KANE 271745Z 27007KT 7SM OVC013 03/01 A3006,KANE,2018-03-27T17:45:00Z,45.15,-93.22,3.0,1.0,270,7,,7.0,30.059055,,,,,,,,,,,OVC,1300,,,,,,,MVFR,,,,,,,,,,,,METAR,278.0
KTRK 271745Z 01004KT 10SM SKC 03/M07 A3035,KTRK,2018-03-27T17:45:00Z,39.32,-120.12,3.0,-7.0,10,4,,10.0,30.351377,,,,,,,,,,,SKC,,,,,,,,VFR,,,,,,,,,,,,METAR,1798.0
KRYN 271745Z 00000KT 10SM CLR 16/M04 A3003,KRYN,2018-03-27T17:45:00Z,32.15,-111.17,16.0,-4.0,0,0,,10.0,30.029528,,,,,,,,,,,CLR,,,,,,,,VFR,,,,,,,,,,,,METAR,737.0
KMMU 271745Z 14007KT 10SM OVC250 07/M07 A3048,KMMU,2018-03-27T17:45:00Z,40.78,-74.42,7.0,-7.0,140,7,,10.0,30.481298,,,,,,,,,,,OVC,25000,,,,,,,VFR,,,,,,,,,,,,METAR,57.0
KCWA 271745Z 29011G17KT 10SM OVC010 03/01 A2996,KCWA,2018-03-27T17:45:00Z,44.78,-89.67,3.0,1.0,290,11,17,10.0,29.958662,,,,,,,,,,,OVC,1000,,,,,,,MVFR,,,,,,,,,,,,METAR,389.0
KATW 271745Z 29014KT 10SM BKN017 07/02 A2992,KATW,2018-03-27T17:45:00Z,44.27,-88.52,7.0,2.0,290,14,,10.0,29.920275,,,,,,,,,,,BKN,1700,,,,,,,MVFR,,,,,,,,,,,,METAR,280.0
KVCV 271745Z 36012G26KT 10SM SKC 13/M12 A3022,KVCV,2018-03-27T17:45:00Z,34.58,-117.38,13.0,-12.0,360,12,26,10.0,30.221457,,,,,,,,,,,SKC,,,,,,,,VFR,,,,,,,,,,,,METAR,876.0
KUES 271745Z 28010KT 10SM BKN011 OVC032 04/03 A2996,KUES,2018-03-27T17:45:00Z,43.05,-88.25,4.0,3.0,280,10,,10.0,29.958662,,,,,,,,,,,BKN,1100,OVC,3200,,,,,MVFR,,,,,,,,,,,,METAR,278.0
KESN 271745Z 00000KT 10SM BKN100 08/M04 A3051,KESN,2018-03-27T17:45:00Z,38.8,-76.07,8.0,-4.0,0,0,,10.0,30.510826,,,,,,,,,,,BKN,10000,,,,,,,VFR,,,,,,,,,,,,METAR,22.0
KBAK 271745Z 20012KT 2 1/2SM -RABR OVC009 12/ A3008,KBAK,2018-03-27T17:45:00Z,39.27,-85.9,12.0,,200,12,,2.5,30.079725,,,,,,,,,,-RA BR,OVC,900,,,,,,,IFR,,,,,,,,,,,,METAR,200.0
PAKU 271745Z 09015KT 10SM R06/P6000FT SKC M21/M25 A2991,PAKU,2018-03-27T17:45:00Z,70.32,-149.58,-21.0,-25.0,90,15,,10.0,29.911417,,,,,,,,,,,SKC,,,,,,,,VFR,,,,,,,,,,,,METAR,2.0
KMER 271745Z VRB004KT 10SM SKC 15/07 A3026,KMER,2018-03-27T17:45:00Z,37.38,-120.57,15.0,7.0,0,4,,10.0,30.259842,,,,,,,,,,,SKC,,,,,,,,VFR,,,,,,,,,,,,METAR,57.0
KGYY 271745Z 25009KT 2SM BR OVC007 11/10 A2998,KGYY,2018-03-27T17:45:00Z,41.62,-87.42,11.0,10.0,250,9,,2.0,29.97933,,,,,,,,,,BR,OVC,700,,,,,,,IFR,,,,,,,,,,,,METAR,180.0
KCGF 271745Z 1912G20KT 7SM BKN012 OVC028 09/07 A3004,KCGF,2018-03-27T17:45:00Z,41.57,-81.47,9.0,7.0,,,,7.0,30.041338,,,,,,,,,,,BKN,1200,OVC,2800,,,,,MVFR,,,,,,,,,,,,METAR,268.0
KMTN 271745Z 13006KT 10SM SCT095 OVC140 07/00 A3049,KMTN,2018-03-27T17:45:00Z,39.32,-76.42,7.0,0.0,130,6,,10.0,30.490158,,,,,,,,,,,SCT,9500,OVC,14000,,,,,VFR,,,,,,,,,,,,METAR,7.0
MMBT 271745Z 25013KT 7SM SKC 32/// A2989 RMK HZY,MMBT,2018-03-27T17:45:00Z,15.77,-96.27,,,250,13,,7.0,29.890747,,,,,,,,,,,SKC,,,,,,,,VFR,,,,,,,,,,,,METAR,143.0
MMVR 271745Z 08007KT 5SM FEW012 30/23 A2986 RMK SLP092 57016 96 8/100 HZY,MMVR,2018-03-27T17:45:00Z,19.15,-96.18,30.0,23.0,80,7,,5.0,29.861221,1009.2,,,,,,,,,,FEW,1200,,,,,,,MVFR,-1.6,,,,,,,,,,,METAR,16.0
MMCU 271745Z 20018KT 10SM BKN045 OVC090 22/00 A2999 RMK SLP101 54000 907 8/17/,MMCU,2018-03-27T17:45:00Z,28.7,-105.97,22.0,0.0,200,18,,10.0,29.991142,1010.1,,,,,,,,,,BKN,4500,OVC,9000,,,,,VFR,,,,,,,,,,,,METAR,1372.0
PHJH 271745Z VRB04KT 15SM FEW035 SCT055 23/17 A2993,PHJH,2018-03-27T17:45:00Z,20.97,-156.67,23.0,17.0,0,4,,15.0,29.929134,,,,,,,,,,,FEW,3500,SCT,5500,,,,,VFR,,,,,,,,,,,,METAR,78.0
MMSL 271745Z 20008KT 8SM SCT15 22/12 A3005 RMK 8/030 HZY,MMSL,2018-03-27T17:45:00Z,22.95,-109.93,22.0,12.0,200,8,,8.0,30.050198,,,,,,,,,,,,,,,,,,,,,,,,,,,,,,,METAR,140.0
MMVA 271745Z 07016KT 7SM SKC 32/20 A2989 RMK SLP119 57017 953,MMVA,2018-03-27T17:45:00Z,18.0,-92.82,32.0,20.0,70,16,,7.0,29.890747,1011.9,,,,,,,,,,SKC,,,,,,,,VFR,-1.7,,,,,,,,,,,METAR,13.0
MMTP 271745Z 28010KT 10SM SCT025 34/24 A2985 RMK SLP133 57018 958 8/100 HZY,MMTP,2018-03-27T17:45:00Z,14.77,-92.37,34.0,24.0,280,10,,10.0,29.84941,1013.3,,,,,,,,,,SCT,2500,,,,,,,VFR,-1.8,,,,,,,,,,,METAR,29.0
MMMD 271745Z 11017G27KT 7SM SKC 33/15 A2999 RMK SLP157 57023 904 HZY C,MMMD,2018-03-27T17:45:00Z,20.95,-89.65,33.0,15.0,110,17,27,7.0,29.991142,1015.7,,,,,,,,,,SKC,,,,,,,,VFR,-2.3,,,,,,,,,,,METAR,10.0
KSWF 271745Z VRB06KT 20SM BKN150 07/M09 A3046,KSWF,2018-03-27T17:45:00Z,41.5,-74.08,7.0,-9.0,0,6,,20.0,30.46063,,,,,,,,,,,BKN,15000,,,,,,,VFR,,,,,,,,,,,,METAR,150.0
KSCH 271745Z 15007KT 15SM CLR 07/M08 A3041,KSCH,2018-03-27T17:45:00Z,42.85,-73.92,7.0,-8.0,150,7,,15.0,30.410433,,,,,,,,,,,CLR,,,,,,,,VFR,,,,,,,,,,,,METAR,115.0
MMMM 271744Z 14003KT 7SM SKC 26/05 A3021 RMK SLP076 57012 905 HZY,MMMM,2018-03-27T17:44:00Z,19.85,-101.02,26.0,5.0,140,3,,7.0,30.209646,1007.6,,,,,,,,,,SKC,,,,,,,,VFR,-1.2,,,,,,,,,,,SPECI,1833.0
MMZH 271744Z 21007KT 7SM SKC 29/21 A2991 RMK SLP120 57003 900 HZY,MMZH,2018-03-27T17:44:00Z,17.6,-101.47,29.0,21.0,210,7,,7.0,29.911417,1012.0,,,,,,,,,,SKC,,,,,,,,VFR,-0.3,,,,,,,,,,,METAR,6.0
MMMA 271744Z 1613G23KT 7SM BKN025 30/21 A2990 RMK SLP124 52004 905 8/500 HZY ISOL CI,MMMA,2018-03-27T17:44:00Z,25.77,-97.52,30.0,21.0,,,,7.0,29.899607,1012.4,,,,,,,,,,BKN,2500,,,,,,,MVFR,0.4,,,,,,,,,,,METAR,8.0
MMTJ 271744Z 00000KT 10SM SKC 17/03 A3015 RMK SLP209 57003 926 HZY FU S,MMTJ,2018-03-27T17:44:00Z,32.53,-116.97,17.0,3.0,0,0,,10.0,30.15059,1020.9,,,,,,,,,,SKC,,,,,,,,VFR,-0.3,,,,,,,,,,,METAR,152.0
MMPQ 271744Z 10015KT 7SM FEW040 32/22 A2977 RMK 8/100 HZY MSGTX MMMD,MMPQ,2018-03-27T17:44:00Z,17.53,-91.98,32.0,22.0,100,15,,7.0,29.769686,,,,,,,,,,,FEW,4000,,,,,,,VFR,,,,,,,,,,,,METAR,61.0
MMTG 271744Z 17004KT 7SM SKC 33/16 A2990 RMK SLP088 57026 954 ISOLD CU FU HZ,MMTG,2018-03-27T17:44:00Z,16.57,-93.03,33.0,16.0,170,4,,7.0,29.899607,1008.8,,,,,,,,,,SKC,,,,,,,,VFR,-2.6,,,,,,,,,,,METAR,528.0
MMAA 271743Z 25006KT 6SM SCT300 29/21 A2989 RMK SLP114 57017 900 8/002 HZY,MMAA,2018-03-27T17:43:00Z,16.75,-99.75,29.0,21.0,250,6,,6.0,29.890747,1011.4,,,,,,,,,,SCT,30000,,,,,,,VFR,-1.7,,,,,,,,,,,METAR,5.0
MMQT 271743Z 28011KT 5SM SKC 25/04 A3025 RMK HZY,MMQT,2018-03-27T17:43:00Z,20.62,-100.18,25.0,4.0,280,11,,5.0,30.250984,,,,,,,,,,,SKC,,,,,,,,MVFR,,,,,,,,,,,,METAR,1919.0
MMCS 271743Z 23007KT 10SM SCT050 17/M01 A2998 RMK SLP087 58003 907 8/400,MMCS,2018-03-27T17:43:00Z,31.62,-106.42,17.0,-1.0,230,7,,10.0,29.97933,1008.7,,,,,,,,,,SCT,5000,,,,,,,VFR,-0.3,,,,,,,,,,,METAR,1171.0
MMRX 271743Z 15008G20KT 8SM BKN020 30/20 A2987 RMK SLP105 57020 904 8/500 HZY,MMRX,2018-03-27T17:43:00Z,26.02,-98.22,30.0,20.0,150,8,20,8.0,29.870079,1010.5,,,,,,,,,,BKN,2000,,,,,,,MVFR,-2.0,,,,,,,,,,,SPECI,39.0
MMDO 271743Z 23018KT 12SM SKC 24/M06 A3016 RMK SLP077 57013 953,MMDO,2018-03-27T17:43:00Z,24.12,-104.52,24.0,-6.0,230,18,,12.0,30.159449,1007.7,,,,,,,,,,SKC,,,,,,,,VFR,-1.3,,,,,,,,,,,METAR,1857.0
MMHO 271743Z 34004KT 10SM SKC 21/M01 A3005 RMK SLP178 52006 929 ISOL SC HZY,MMHO,2018-03-27T17:43:00Z,29.08,-111.05,21.0,-1.0,340,4,,10.0,30.050198,1017.8,,,,,,,,,,SKC,,,,,,,,VFR,0.6,,,,,,,,,,,METAR,184.0
MMOX 271742Z 19004KT 8SM SCT025 27/05 A3017 RMK SLP090 57020 901 8/100 HZY,MMOX,2018-03-27T17:42:00Z,17.0,-96.72,27.0,5.0,190,4,,8.0,30.171259,1009.0,,,,,,,,,,SCT,2500,,,,,,,VFR,-2.0,,,,,,,,,,,METAR,1528.0
MMPB 271742Z 16010KT 7SM SKC 23/06 A3029 RMK HZY CU,MMPB,2018-03-27T17:42:00Z,19.17,-98.37,23.0,6.0,160,10,,7.0,30.28937,,,,,,,,,,,SKC,,,,,,,,VFR,,,,,,,,,,,,METAR,2244.0
MMCN 271742Z 00000KT 10SM SKC 22/M03 A2998 RMK SLP152 HZY,MMCN,2018-03-27T17:42:00Z,27.4,-109.83,22.0,-3.0,0,0,,10.0,29.97933,1015.2,,,,,,,,,,SKC,,,,,,,,VFR,,,,,,,,,,,,METAR,43.0
MMLP 271742Z 34010KT 10SM BKN140 21/09 A3004 RMK SLP172 52009 924 8/030 ISOL AS CI HZY,MMLP,2018-03-27T17:42:00Z,24.07,-110.37,21.0,9.0,340,10,,10.0,30.041338,1017.2,,,,,,,,,,BKN,14000,,,,,,,VFR,0.9,,,,,,,,,,,METAR,21.0
MMCZ 271742Z 14018KT 8SM BKN015TCU 28/20 A3005 RMK SLP181 57007 907 8/200 SC,MMCZ,2018-03-27T17:42:00Z,20.52,-86.92,28.0,20.0,140,18,,8.0,30.050198,1018.1,,,,,,,,,,BKN,1500,,,,,,,MVFR,-0.7,,,,,,,,,,,METAR,5.0
MMAS 271741Z 01003KT 9SM SKC 24/M03 A3023 RMK SLP096 5//// 9// HZY,MMAS,2018-03-27T17:41:00Z,21.7,-102.32,24.0,-3.0,10,3,,9.0,30.230314,1009.6,,,,,,,,,,SKC,,,,,,,,VFR,,,,,,,,,,,,METAR,1863.0
MMIA 271741Z 20007KT 8SM SKC 29/05 A3006 RMK SLP/// 5//// 9// 6////,MMIA,2018-03-27T17:41:00Z,19.27,-103.57,29.0,5.0,200,7,,8.0,30.059055,,,,,,,,,,,SKC,,,,,,,,VFR,,,,,,,,,,,,METAR,723.0
MMPN 271741Z 12010KT 13SM SKC 24/07 A3018 RMK SLP/// 5//// 9// HZY SC,MMPN,2018-03-27T17:41:00Z,19.38,-102.02,24.0,7.0,120,10,,13.0,30.180119,,,,,,,,,,,SKC,,,,,,,,VFR,,,,,,,,,,,,METAR,1593.0
MMLO 271741Z 00000KT 10SM SKC 26/05 A3026 RMK SLP097 57008 907,MMLO,2018-03-27T17:41:00Z,21.0,-101.47,26.0,5.0,0,0,,10.0,30.259842,1009.7,,,,,,,,,,SKC,,,,,,,,VFR,-0.8,,,,,,,,,,,METAR,1819.0
MMCB 271741Z 10007KT 10SM SKC 29/09 A3010 RMK CU,MMCB,2018-03-27T17:41:00Z,18.83,-99.27,29.0,9.0,100,7,,10.0,30.100393,,,,,,,,,,,SKC,,,,,,,,VFR,,,,,,,,,,,,METAR,1560.0
MMPS 271741Z 26014KT 10SM SKC 28/21 A2998 RMK HZY,MMPS,2018-03-27T17:41:00Z,15.87,-97.07,28.0,21.0,260,14,,10.0,29.97933,,,,,,,,,,,SKC,,,,,,,,VFR,,,,,,,,,,,,METAR,88.0
MMNL 271741Z 17007KT 10SM OVC020 27/19 A2988 RMK SLP106 52002 919 8/5// BINOVC,MMNL,2018-03-27T17:41:00Z,27.42,-99.57,27.0,19.0,170,7,,10.0,29.878937,1010.6,,,,,,,,,,OVC,2000,,,,,,,MVFR,0.2,,,,,,,,,,,SPECI,148.0
MMCP 271741Z 10015G25KT 7SM SKC 33/19 A2990 RMK SLP126 57021 901,MMCP,2018-03-27T17:41:00Z,19.82,-90.5,33.0,19.0,100,15,25,7.0,29.899607,1012.6,,,,,,,,,,SKC,,,,,,,,VFR,-2.1,,,,,,,,,,,METAR,5.0
MMIO 271740Z 00000KT 10SM SKC 29/12 A3011,MMIO,2018-03-27T17:40:00Z,25.55,-100.93,29.0,12.0,0,0,,10.0,30.109253,,,,,,,,,,,SKC,,,,,,,,VFR,,,,,,,,,,,,METAR,1790.0
MMSP 271740Z 35003KT 8SM SKC 27/M06 A3017 RMK SLP078 52009 912,MMSP,2018-03-27T17:40:00Z,22.25,-100.93,27.0,-6.0,350,3,,8.0,30.171259,1007.8,,,,,,,,,,SKC,,,,,,,,VFR,0.9,,,,,,,,,,,METAR,1903.0
MMTM 271740Z E09015KT 4SM SCT012 27/24 A2986 RMK SLP104 57006 960 8/400 HZY,MMTM,2018-03-27T17:40:00Z,22.27,-97.87,27.0,24.0,90,15,,4.0,29.861221,1010.4,,,,,,,,,,SCT,1200,,,,,,,MVFR,-0.6,,,,,,,,,,,METAR,24.0
MMAN 271740Z 07007KT 5SM SCT023 26/18 A2992 RMK SLP/// 5//// 9// 8/500 HZY,MMAN,2018-03-27T17:40:00Z,25.87,-100.23,26.0,18.0,70,7,,5.0,29.920275,,,,,,,,,,,SCT,2300,,,,,,,MVFR,,,,,,,,,,,,METAR,448.0
MMCV 271740Z 17008KT 5SM SKC 31/17 A2985 RMK SLP102 57010 903 HZ,MMCV,2018-03-27T17:40:00Z,23.72,-98.97,31.0,17.0,170,8,,5.0,29.84941,1010.2,,,,,,,,,,SKC,,,,,,,,MVFR,-1.0,,,,,,,,,,,SPECI,238.0
MMMV 271740Z 04008KT 7SM HZ BKN040 BKN200 25/15 A2990 RMK8/502,MMMV,2018-03-27T17:40:00Z,26.95,-101.47,25.0,15.0,40,8,,7.0,29.899607,,,,,,,,,,HZ,BKN,4000,BKN,20000,,,,,VFR,,,,,,,,,,,,METAR,615.0
MMPG 271740Z 30006KT 2SM BR OVC004 18/16 A2994 RMK 8/6//,MMPG,2018-03-27T17:40:00Z,28.65,-100.52,18.0,16.0,300,6,,2.0,29.940945,,,,,,,,,,BR,OVC,400,,,,,,,LIFR,,,,,,,,,,,,METAR,250.0
MMCL 271740Z 00000KT 10SM SCT100 OVC250 24/09 A2998 RMK SLP150 51009 930 8/027,MMCL,2018-03-27T17:40:00Z,24.77,-107.47,24.0,9.0,0,0,,10.0,29.97933,1015.0,,,,,,,,,,SCT,10000,OVC,25000,,,,,VFR,0.9,,,,,,,,,,,METAR,39.0
MMGM 271740Z 32015KT 10SM SKC 21/04 A2999,MMGM,2018-03-27T17:40:00Z,27.95,-110.92,21.0,4.0,320,15,,10.0,29.991142,,,,,,,,,,,SKC,,,,,,,,VFR,,,,,,,,,,,,METAR,20.0
MMLM 271740Z 31015KT 10SM BKN100 BKN220 20/10 3002 RMK SLP166 8/027 HZY,MMLM,2018-03-27T17:40:00Z,25.67,-109.07,20.0,10.0,310,15,,10.0,,1016.6,,,,,,,,,,BKN,10000,BKN,22000,,,,,VFR,,,,,,,,,,,,METAR,4.0
MMMZ 271740Z E23007KT 14SM SKC 26/19 A2998 RMK SLP146 52010 915 ISOL CU,MMMZ,2018-03-27T17:40:00Z,23.17,-106.27,26.0,19.0,230,7,,14.0,29.97933,1014.6,,,,,,,,,,SKC,,,,,,,,VFR,1.0,,,,,,,,,,,METAR,10.0
K6S2 271735Z AUTO 00000KT 10SM OVC044 09/06 A3051 RMK AO2,K6S2,2018-03-27T17:35:00Z,43.98,-124.12,9.0,6.0,0,0,,10.0,30.510826,,,TRUE,TRUE,,,,,,,OVC,4400,,,,,,,VFR,,,,,,,,,,,,METAR,16.0
K2I0 271735Z AUTO 21016G20KT 10SM SCT021 SCT050 OVC095 17/12 A3010 RMK AO2 T01700124,K2I0,2018-03-27T17:35:00Z,37.35,-87.4,17.0,12.4,210,16,20,10.0,30.100393,,,TRUE,TRUE,,,,,,,SCT,2100,SCT,5000,OVC,9500,,,VFR,,,,,,,,,,,,SPECI,134.0
VEBN 271730Z 32002KT 3000 HZ NSC 26/15 Q1008 NOSIG,VEBN,2018-03-27T17:30:00Z,25.45,82.85,26.0,15.0,320,2,,1.86,29.763779,,,,,,TRUE,,,,HZ,CLR,,,,,,,,IFR,,,,,,,,,,,,METAR,83.0
UTFF 271730Z 19008KT 9999 -SHRA BKN060CB 12/08 Q1020 R18/29//50,UTFF,2018-03-27T17:30:00Z,40.37,71.77,12.0,8.0,190,8,,6.21,30.11811,,,,,,,,,,-SHRA,BKN,6000,,,,,,,VFR,,,,,,,,,,,,METAR,577.0
EGHC 271720Z 28013KT 9999 FEW012 BKN022 08/06 Q1011,EGHC,2018-03-27T17:20:00Z,50.1,-5.67,8.0,6.0,280,13,,6.21,29.852362,,,,,,,,,,,FEW,1200,BKN,2200,,,,,MVFR,,,,,,,,,,,,METAR,122.0
EGHE 271720Z 26012KT 9999 FEW011 10/08 Q1012,EGHE,2018-03-27T17:20:00Z,49.92,-6.28,10.0,8.0,260,12,,6.21,29.88189,,,,,,,,,,,FEW,1100,,,,,,,VFR,,,,,,,,,,,,METAR,31.0
ENHV 271720Z 34014KT 9999 BKN033 M02/M07 Q1009,ENHV,2018-03-27T17:20:00Z,71.02,25.97,-2.0,-7.0,340,14,,6.21,29.793306,,,,,,,,,,,BKN,3300,,,,,,,VFR,,,,,,,,,,,,METAR,14.0
ENSO 271720Z 12015KT 9999 SCT050 01/M08 Q1013,ENSO,2018-03-27T17:20:00Z,59.78,5.33,1.0,-8.0,120,15,,6.21,29.911417,,,,,,,,,,,SCT,5000,,,,,,,VFR,,,,,,,,,,,,METAR,49.0
ENSR 271720Z 30004KT 9999 VCSH FEW030 BKN040 M01/M06 Q1012 WIND 1119FT 30007KT,ENSR,2018-03-27T17:20:00Z,69.77,20.97,-1.0,-6.0,300,4,,6.21,29.88189,,,,,,,,,,VCSH,FEW,3000,BKN,4000,,,,,VFR,,,,,,,,,,,,SPECI,6.0
