No errors
No warnings
347 ms
data source=metars
4689 results
raw_text,station_id,observation_time,latitude,longitude,temp_c,dewpoint_c,wind_dir_degrees,wind_speed_kt,wind_gust_kt,visibility_statute_mi,altim_in_hg,sea_level_pressure_mb,corrected,auto,auto_station,maintenance_indicator_on,no_signal,lightning_sensor_off,freezing_rain_sensor_off,present_weather_sensor_off,wx_string,sky_cover,cloud_base_ft_agl,sky_cover,cloud_base_ft_agl,sky_cover,cloud_base_ft_agl,sky_cover,cloud_base_ft_agl,flight_category,three_hr_pressure_tendency_mb,maxT_c,minT_c,maxT24hr_c,minT24hr_c,precip_in,pcp3hr_in,pcp6hr_in,pcp24hr_in,snow_in,vert_vis_ft,metar_type,elevation_m
EKSB 240755Z 16004KT 4500 BR OVC005 05/05 Q1003,EKSB,2018-03-24T07:55:00Z,54.97,9.8,5.0,5.0,160,4,,2.8,29.616142,,,,,,,,,,BR,OVC,500,,,,,,,IFR,,,,,,,,,,,,METAR,23.0
KVTI 240755Z AUTO 08018G28KT 1 1/4SM -SN OVC005 M01/M02 A3007 RMK AO2 T10071021,KVTI,2018-03-24T07:55:00Z,42.22,-92.02,-0.7,-2.1,80,18,28,1.25,30.070866,,,TRUE,TRUE,,,,,,-SN,OVC,500,,,,,,,IFR,,,,,,,,,,,,METAR,255.0
KPEA 240755Z AUTO 10020G27KT 10SM OVC008 00/00 A2993 RMK AO2 T00021005,KPEA,2018-03-24T07:55:00Z,41.4,-92.95,0.2,-0.5,100,20,27,10.0,29.929134,,,TRUE,TRUE,,,,,,,OVC,800,,,,,,,IFR,,,,,,,,,,,,METAR,270.0
KIFA 240755Z AUTO 08028G35KT 3SM -SN OVC007 M01/M02 A2997 RMK AO2 T10071018,KIFA,2018-03-24T07:55:00Z,42.47,-93.27,-0.7,-1.8,80,28,35,3.0,29.970472,,,TRUE,TRUE,,,,,,-SN,OVC,700,,,,,,,IFR,,,,,,,,,,,,METAR,347.0
KEKX 240755Z AUTO 10006KT 10SM -RA SCT031 BKN043 OVC048 05/04 A3014 RMK AO2 P0009 T00450037,KEKX,2018-03-24T07:55:00Z,,,4.5,3.7,100,6,,10.0,30.138779,,,TRUE,TRUE,,,,,,-RA,SCT,3100,BKN,4300,OVC,4800,,,VFR,,,,,,0.09,,,,,,METAR,
KDYB 240755Z AUTO 00000KT 10SM OVC085 09/05 A3017 RMK AO1,KDYB,2018-03-24T07:55:00Z,33.07,-80.28,9.0,5.0,0,0,,10.0,30.171259,,,TRUE,TRUE,,,,,,,OVC,8500,,,,,,,VFR,,,,,,,,,,,,METAR,18.0
KC62 240755Z AUTO 12004KT 10SM CLR M02/M06 A3028 RMK AO2 T10261062,KC62,2018-03-24T07:55:00Z,41.47,-85.25,-2.6,-6.2,120,4,,10.0,30.280512,,,TRUE,TRUE,,,,,,,CLR,,,,,,,,VFR,,,,,,,,,,,,METAR,306.0
KBRY 240755Z AUTO 06006KT 10SM BKN009 BKN037 04/01 A3016 RMK AO1,KBRY,2018-03-24T07:55:00Z,37.82,-85.5,4.0,1.0,60,6,,10.0,30.159449,,,TRUE,TRUE,,,,,,,BKN,900,BKN,3700,,,,,IFR,,,,,,,,,,,,METAR,204.0
K2V5 240755Z AUTO 33011KT 10SM CLR 06/04 A2996 RMK AO2,K2V5,2018-03-24T07:55:00Z,40.1,-102.25,6.0,4.0,330,11,,10.0,29.958662,,,TRUE,TRUE,,,,,,,CLR,,,,,,,,VFR,,,,,,,,,,,,METAR,1118.0
K1P1 240755Z AUTO 29003KT 10SM CLR 00/M07 A3000 RMK AO2 T10041070,K1P1,2018-03-24T07:55:00Z,43.78,-71.75,-0.4,-7.0,290,3,,10.0,30.0,,,TRUE,TRUE,,,,,,,CLR,,,,,,,,VFR,,,,,,,,,,,,METAR,154.0
ORBD 240755Z 14017G22KT 6000 HZ BKN200 28/09 A2986 RMK WND DATA ALSTG ESTMD,ORBD,2018-03-24T07:55:00Z,33.93,44.37,28.0,9.0,140,17,22,3.73,29.861221,,,,,,,,,,HZ,BKN,20000,,,,,,,MVFR,,,,,,,,,,,,METAR,49.0
KGXA 240755Z AUTO 06/M22 A3000 RMK AO2 SLP146 WND DATA ESTMD T00601218 PWINO PNO TSNO $,KGXA,2018-03-24T07:55:00Z,34.57,-117.67,6.0,-21.8,,,,,30.0,1014.6,,TRUE,TRUE,TRUE,,TRUE,,TRUE,,,,,,,,,,,,,,,,,,,,,,METAR,923.0
FJDG 240755Z 26018KT 9999 FEW020 BKN080 BKN220 29/26 A2981 RMK SLP091 T02890262,FJDG,2018-03-24T07:55:00Z,-7.32,72.42,28.9,26.2,260,18,,6.21,29.811024,1009.1,,,,,,,,,,FEW,2000,BKN,8000,BKN,22000,,,VFR,,,,,,,,,,,,METAR,3.0
KVDF 240755Z AUTO 00000KT 10SM CLR 06/06 A3022 RMK AO2,KVDF,2018-03-24T07:55:00Z,28.02,-82.33,6.0,6.0,0,0,,10.0,30.221457,,,TRUE,TRUE,,,,,,,CLR,,,,,,,,VFR,,,,,,,,,,,,METAR,7.0
KRID 240755Z AUTO 09008KT 10SM CLR M01/M03 A3023 RMK AO2,KRID,2018-03-24T07:55:00Z,39.75,-84.85,-1.0,-3.0,90,8,,10.0,30.230314,,,TRUE,TRUE,,,,,,,CLR,,,,,,,,VFR,,,,,,,,,,,,METAR,348.0
KGAF 240755Z AUTO 13019G24KT 3SM BR SCT002 BKN009 BKN016 M02/M02 A3021 RMK AO2 PWINO,KGAF,2018-03-24T07:55:00Z,48.4,-97.37,-2.0,-2.0,130,19,24,3.0,30.209646,,,TRUE,TRUE,,,,,TRUE,BR,SCT,200,BKN,900,BKN,1600,,,IFR,,,,,,,,,,,,METAR,252.0
KSTF 240755Z AUTO 19006KT 10SM BKN070 15/10 A3006 RMK AO2,KSTF,2018-03-24T07:55:00Z,33.43,-88.85,15.0,10.0,190,6,,10.0,30.059055,,,TRUE,TRUE,,,,,,,BKN,7000,,,,,,,VFR,,,,,,,,,,,,METAR,102.0
KSPA 240755Z AUTO 00000KT 10SM OVC065 10/M02 A3017 RMK AO2,KSPA,2018-03-24T07:55:00Z,34.92,-81.93,10.0,-2.0,0,0,,10.0,30.171259,,,TRUE,TRUE,,,,,,,OVC,6500,,,,,,,VFR,,,,,,,,,,,,METAR,303.0
KLUX 240755Z AUTO 00000KT 10SM OVC065 10/00 A3018 RMK AO2,KLUX,2018-03-24T07:55:00Z,34.5,-81.95,10.0,0.0,0,0,,10.0,30.180119,,,TRUE,TRUE,,,,,,,OVC,6500,,,,,,,VFR,,,,,,,,,,,,METAR,213.0
KLRY 240755Z AUTO 11005KT 10SM BKN027 BKN035 OVC046 12/08 A2970 RMK AO2 LTG DSNT N,KLRY,2018-03-24T07:55:00Z,38.62,-94.35,12.0,8.0,110,5,,10.0,29.698818,,,TRUE,TRUE,,,,,,,BKN,2700,BKN,3500,OVC,4600,,,MVFR,,,,,,,,,,,,METAR,279.0
KLQK 240755Z AUTO 00000KT 10SM OVC065 10/01 A3015 RMK AO2 T01030008,KLQK,2018-03-24T07:55:00Z,34.82,-82.7,10.3,0.8,0,0,,10.0,30.15059,,,TRUE,TRUE,,,,,,,OVC,6500,,,,,,,VFR,,,,,,,,,,,,METAR,309.0
KHZE 240755Z AUTO 14011KT 10SM OVC007 M01/M00 A3002 RMK AO2,KHZE,2018-03-24T07:55:00Z,47.28,-101.58,-1.0,0.0,140,11,,10.0,30.02067,,,TRUE,TRUE,,,,,,,OVC,700,,,,,,,IFR,,,,,,,,,,,,METAR,553.0
KGPH 240755Z AUTO 11010KT 10SM SCT010 BKN014 OVC027 08/06 A2970 RMK AO2 LTG DSNT N AND NE,KGPH,2018-03-24T07:55:00Z,39.33,-94.32,8.0,6.0,110,10,,10.0,29.698818,,,TRUE,TRUE,,,,,,,SCT,1000,BKN,1400,OVC,2700,,,MVFR,,,,,,,,,,,,METAR,235.0
KDEH 240755Z AUTO 11014KT 10SM OVC039 00/M12 A3012 RMK AO2,KDEH,2018-03-24T07:55:00Z,43.27,-91.72,0.0,-12.0,110,14,,10.0,30.121063,,,TRUE,TRUE,,,,,,,OVC,3900,,,,,,,VFR,,,,,,,,,,,,METAR,353.0
KDCM 240755Z AUTO 03005KT 10SM OVC080 07/00 A3020 RMK AO2,KDCM,2018-03-24T07:55:00Z,34.78,-81.2,7.0,0.0,30,5,,10.0,30.200787,,,TRUE,TRUE,,,,,,,OVC,8000,,,,,,,VFR,,,,,,,,,,,,METAR,200.0
KCKI 240755Z AUTO 00000KT 10SM OVC090 07/00 A3018 RMK AO2,KCKI,2018-03-24T07:55:00Z,33.72,-79.85,7.0,0.0,0,0,,10.0,30.180119,,,TRUE,TRUE,,,,,,,OVC,9000,,,,,,,VFR,,,,,,,,,,,,METAR,21.0
K96D 240755Z AUTO 13012G17KT 6SM BR CLR M02/M02 A3018 RMK AO2,K96D,2018-03-24T07:55:00Z,48.93,-97.9,-2.0,-2.0,130,12,17,6.0,30.180119,,,TRUE,TRUE,,,,,,BR,CLR,,,,,,,,VFR,,,,,,,,,,,,METAR,290.0
K2C8 240755Z AUTO 14013KT M02/M02 A3019 RMK AO2 TSNO,K2C8,2018-03-24T07:55:00Z,48.78,-97.63,-2.0,-2.0,140,13,,,30.188976,,,TRUE,TRUE,,,TRUE,,,,,,,,,,,,,,,,,,,,,,,,METAR,272.0
KZPH 240755Z AUTO 00000KT 10SM CLR 07/06 A3022 RMK AO2 T00680060,KZPH,2018-03-24T07:55:00Z,28.23,-82.15,6.8,6.0,0,0,,10.0,30.221457,,,TRUE,TRUE,,,,,,,CLR,,,,,,,,VFR,,,,,,,,,,,,METAR,26.0
KS32 240755Z AUTO 12016G23KT 8SM OVC007 M02/M02 A3012 RMK AO2,KS32,2018-03-24T07:55:00Z,47.42,-98.1,-2.0,-2.0,120,16,23,8.0,30.121063,,,TRUE,TRUE,,,,,,,OVC,700,,,,,,,IFR,,,,,,,,,,,,METAR,684.0
KRUG 240755Z AUTO 15016KT 4SM BR BKN010 OVC013 M02/M02 A3007 RMK AO2,KRUG,2018-03-24T07:55:00Z,48.38,-100.02,-2.0,-2.0,150,16,,4.0,30.070866,,,TRUE,TRUE,,,,,,BR,BKN,1000,OVC,1300,,,,,MVFR,,,,,,,,,,,,METAR,472.0
KRAW 240755Z AUTO 11009KT 10SM BKN029 A2972 RMK AO2 LTG DSNT N AND SE,KRAW,2018-03-24T07:55:00Z,38.35,-93.35,,,110,9,,10.0,29.719488,,,TRUE,TRUE,,,,,,,BKN,2900,,,,,,,MVFR,,,,,,,,,,,,METAR,285.0
K20U 240755Z AUTO 30004KT 10SM OVC004 M01/M01 A3000 RMK AO2,K20U,2018-03-24T07:55:00Z,46.93,-103.98,-1.0,-1.0,300,4,,10.0,30.0,,,TRUE,TRUE,,,,,,,OVC,400,,,,,,,LIFR,,,,,,,,,,,,METAR,840.0
KHXD 240755Z AUTO VRB04KT 10SM FEW085 SCT120 13/05 A3018 RMK AO2,KHXD,2018-03-24T07:55:00Z,32.22,-80.7,13.0,5.0,0,4,,10.0,30.180119,,,TRUE,TRUE,,,,,,,FEW,8500,SCT,12000,,,,,VFR,,,,,,,,,,,,METAR,6.0
K1S5 240755Z AUTO 00000KT 10SM BKN060 OVC070 03/01 A2971 RMK AO2 T00250005,K1S5,2018-03-24T07:55:00Z,46.33,-119.97,2.5,0.5,0,0,,10.0,29.71063,,,TRUE,TRUE,,,,,,,BKN,6000,OVC,7000,,,,,VFR,,,,,,,,,,,,METAR,234.0
KSPF 240755Z AUTO 26006KT 10SM CLR 01/M07 A2996 RMK AO2,KSPF,2018-03-24T07:55:00Z,44.47,-103.77,1.0,-7.0,260,6,,10.0,29.958662,,,TRUE,TRUE,,,,,,,CLR,,,,,,,,VFR,,,,,,,,,,,,METAR,1188.0
KRCM 240755Z AUTO 10008KT 10SM OVC029 10/08 A2970 RMK AO2 LTG DSNT N,KRCM,2018-03-24T07:55:00Z,38.78,-93.8,10.0,8.0,100,8,,10.0,29.698818,,,TRUE,TRUE,,,,,,,OVC,2900,,,,,,,MVFR,,,,,,,,,,,,METAR,244.0
KMHL 240755Z AUTO 11017G24KT 5SM -RA BKN011 OVC028 10/08 A2973 RMK AO2 LTG DSNT W THRU N,KMHL,2018-03-24T07:55:00Z,39.1,-93.2,10.0,8.0,110,17,24,5.0,29.731298,,,TRUE,TRUE,,,,,,-RA,BKN,1100,OVC,2800,,,,,MVFR,,,,,,,,,,,,METAR,237.0
KCCA 240755Z AUTO 17005KT 10SM BKN038 OVC048 19/12 A2985 RMK AO2,KCCA,2018-03-24T07:55:00Z,35.6,-92.45,19.0,12.0,170,5,,10.0,29.84941,,,TRUE,TRUE,,,,,,,BKN,3800,OVC,4800,,,,,VFR,,,,,,,,,,,,METAR,157.0
KBWW 240755Z AUTO 33009KT 10SM OVC007 00/00 A2986 RMK AO2,KBWW,2018-03-24T07:55:00Z,46.17,-103.3,0.0,0.0,330,9,,10.0,29.861221,,,TRUE,TRUE,,,,,,,OVC,700,,,,,,,IFR,,,,,,,,,,,,METAR,910.0
KCQW 240755Z AUTO 00000KT 10SM SCT090 04/02 A3020 RMK AO2,KCQW,2018-03-24T07:55:00Z,34.72,-79.95,4.0,2.0,0,0,,10.0,30.200787,,,TRUE,TRUE,,,,,,,SCT,9000,,,,,,,VFR,,,,,,,,,,,,SPECI,73.0
KJQF 240755Z AUTO 00000KT 10SM BKN090 05/00 A3021 RMK AO2,KJQF,2018-03-24T07:55:00Z,35.38,-80.72,5.0,0.0,0,0,,10.0,30.209646,,,TRUE,TRUE,,,,,,,BKN,9000,,,,,,,VFR,,,,,,,,,,,,METAR,210.0
KGGI 240755Z AUTO 09013KT 3SM UP OVC009 00/M01 A2996 RMK AO2 P0004 T10021010,KGGI,2018-03-24T07:55:00Z,41.72,-92.73,-0.2,-1.0,90,13,,3.0,29.958662,,,TRUE,TRUE,,,,,,UP,OVC,900,,,,,,,IFR,,,,,,0.04,,,,,,METAR,307.0
KLUL 240755Z AUTO 00000KT 10SM CLR 13/11 A3009 RMK AO2 T01320105,KLUL,2018-03-24T07:55:00Z,31.67,-89.17,13.2,10.5,0,0,,10.0,30.088583,,,TRUE,TRUE,,,,,,,CLR,,,,,,,,VFR,,,,,,,,,,,,METAR,73.0
KFDW 240755Z AUTO 04003KT 10SM OVC080 10/M02 A3018 RMK AO1,KFDW,2018-03-24T07:55:00Z,34.32,-81.12,10.0,-2.0,40,3,,10.0,30.180119,,,TRUE,TRUE,,,,,,,OVC,8000,,,,,,,VFR,,,,,,,,,,,,METAR,176.0
KCKM 240755Z AUTO 18014G21KT 10SM BKN055 OVC065 19/12 A2996 RMK A01,KCKM,2018-03-24T07:55:00Z,34.3,-90.52,19.0,12.0,180,14,21,10.0,29.958662,,,TRUE,TRUE,,,,,,,BKN,5500,OVC,6500,,,,,VFR,,,,,,,,,,,,METAR,53.0
KSIK 240755Z AUTO 11009KT 10SM OVC060 11/07 A2993 RMK AO2,KSIK,2018-03-24T07:55:00Z,36.9,-89.57,11.0,7.0,110,9,,10.0,29.929134,,,TRUE,TRUE,,,,,,,OVC,6000,,,,,,,VFR,,,,,,,,,,,,METAR,96.0
KMCX 240755Z AUTO 09009G14KT 10SM SCT120 02/M08 A3021 RMK AO2 T00181083,KMCX,2018-03-24T07:55:00Z,40.72,-86.77,1.8,-8.3,90,9,14,10.0,30.209646,,,TRUE,TRUE,,,,,,,SCT,12000,,,,,,,VFR,,,,,,,,,,,,SPECI,206.0
KMBY 240755Z AUTO 10021G26KT 4SM -RA OVC005 06/03 A2982 RMK AO2 P0001 LTG DSNT NW,KMBY,2018-03-24T07:55:00Z,39.47,-92.43,6.0,3.0,100,21,26,4.0,29.819881,,,TRUE,TRUE,,,,,,-RA,OVC,500,,,,,,,IFR,,,,,,0.01,,,,,,METAR,264.0
KQFR 240754Z AUTO 00000KT 10SM CLR M07/M12 A2978 RMK AO1,KQFR,2018-03-24T07:54:00Z,,,-7.0,-12.0,0,0,,10.0,29.778543,,,TRUE,TRUE,,,,,,,CLR,,,,,,,,VFR,,,,,,,,,,,,METAR,
K12N 240754Z AUTO 00000KT M02/M06 A3009 RMK AO1 SLP199 T10221061 ,K12N,2018-03-24T07:54:00Z,41.02,-74.73,-2.2,-6.1,0,0,,,30.088583,1019.9,,TRUE,TRUE,,,,,,,,,,,,,,,,,,,,,,,,,,,METAR,177.0
KPLN 240754Z AUTO 00000KT 10SM CLR M08/M11 A3044 RMK AO2 SLP319 T10831111,KPLN,2018-03-24T07:54:00Z,45.57,-84.8,-8.3,-11.1,0,0,,10.0,30.43996,1031.9,,TRUE,TRUE,,,,,,,CLR,,,,,,,,VFR,,,,,,,,,,,,METAR,217.0
KLWT 240754Z AUTO 18006KT 10SM CLR M03/M03 A2987 RMK AO2 SLP134 T10281028,KLWT,2018-03-24T07:54:00Z,47.03,-109.47,-2.8,-2.8,180,6,,10.0,29.870079,1013.4,,TRUE,TRUE,,,,,,,CLR,,,,,,,,VFR,,,,,,,,,,,,METAR,1270.0
KRKS 240754Z AUTO 15009KT 10SM CLR M01/M07 A3002 RMK AO2 SLP153 T10061067,KRKS,2018-03-24T07:54:00Z,41.6,-109.07,-0.6,-6.7,150,9,,10.0,30.02067,1015.3,,TRUE,TRUE,,,,,,,CLR,,,,,,,,VFR,,,,,,,,,,,,METAR,2060.0
KDMH 240754Z AUTO 03/M07 A3017 RMK AO1 SLP217 T00281072 ,KDMH,2018-03-24T07:54:00Z,39.28,-76.62,2.8,-7.2,,,,,30.171259,1021.7,,TRUE,TRUE,,,,,,,,,,,,,,,,,,,,,,,,,,,METAR,5.0
KNAK 240754Z AUTO 33009KT 10SM CLR 04/M04 A3017 RMK AO2 SLP220 T00391039 ,KNAK,2018-03-24T07:54:00Z,38.98,-76.48,3.9,-3.9,330,9,,10.0,30.171259,1022.0,,TRUE,TRUE,,,,,,,CLR,,,,,,,,VFR,,,,,,,,,,,,METAR,2.0
PADK 240754Z AUTO 16027G36KT 3SM -RA BR OVC013 02/01 A2952 RMK AO2 PK WND 17036/0748 SNB27E37 P0011 FZRANO,PADK,2018-03-24T07:54:00Z,51.88,-176.65,2.0,1.0,160,27,36,3.0,29.518702,,,TRUE,TRUE,,,,TRUE,,-RA BR,OVC,1300,,,,,,,MVFR,,,,,,0.11,,,,,,SPECI,4.0
YCCY 240754Z AUTO 07020KT //// // ////// 29/19 Q1008,YCCY,2018-03-24T07:54:00Z,-20.67,140.5,29.0,19.0,70,20,,,29.763779,,,TRUE,,,,,,,,,,,,,,,,,,,,,,,,,,,,SPECI,570.0
CYLL 240754Z AUTO 11007KT 1/4SM +SN VV001 M08/M08 A2972 RMK ICG SLP105,CYLL,2018-03-24T07:54:00Z,53.32,-110.07,-8.0,-8.0,110,7,,0.25,29.719488,1010.5,,TRUE,,,,,,,+SN,OVX,0,,,,,,,LIFR,,,,,,,,,,,100,SPECI,669.0
CYPD 240754Z AUTO 31005KT 3SM BR OVC002 M02/M02 A2974 RMK SLP077,CYPD,2018-03-24T07:54:00Z,45.67,-61.37,-2.0,-2.0,310,5,,3.0,29.740158,1007.7,,TRUE,,,,,,,BR,OVC,200,,,,,,,LIFR,,,,,,,,,,,,SPECI,114.0
CYOJ 240754Z AUTO 32003KT 270V360 2 1/4SM -SN OVC026 M13/M15 A2971 RMK SLP092,CYOJ,2018-03-24T07:54:00Z,58.62,-117.17,-13.0,-15.0,320,3,,2.25,29.71063,1009.2,,TRUE,,,,,,,-SN,OVC,2600,,,,,,,IFR,,,,,,,,,,,,SPECI,338.0
YGFN 240754Z AUTO 33002KT 9999 // BKN014 OVC072 22/19 Q1018,YGFN,2018-03-24T07:54:00Z,-29.77,153.03,22.0,19.0,330,2,,6.21,30.059055,,,TRUE,,,,,,,,BKN,1400,OVC,7200,,,,,MVFR,,,,,,,,,,,,SPECI,34.0
PKMR 240753Z 09005KT 15SM FEW015 SCT050 BKN120 BKN300 28/24 A2981 RMK SLP097 T02800244,PKMR,2018-03-24T07:53:00Z,7.08,171.38,28.0,24.4,90,5,,15.0,29.811024,1009.7,,,,,,,,,,FEW,1500,SCT,5000,BKN,12000,BKN,30000,VFR,,,,,,,,,,,,METAR,4.0
KUIL 240753Z AUTO 00000KT 10SM OVC070 02/01 A2978 RMK AO2 RAE02 SLP084 P0000 T00170011 400610000,KUIL,2018-03-24T07:53:00Z,47.93,-124.55,1.7,1.1,0,0,,10.0,29.778543,1008.4,,TRUE,TRUE,,,,,,,OVC,7000,,,,,,,VFR,,,,6.1,,0.005,,,,,,METAR,54.0
KUAO 240753Z AUTO 19012KT 8SM -RA OVC006 02/01 A2983 RMK AO2 UPB23E30RAB30 SLP102 P0002 T00220011 400670022,KUAO,2018-03-24T07:53:00Z,45.25,-122.77,2.2,1.1,190,12,,8.0,29.828741,1010.2,,TRUE,TRUE,,,,,,-RA,OVC,600,,,,,,,IFR,,,,6.7,2.2,0.02,,,,,,METAR,59.0
KTYS 240753Z 00000KT 10SM FEW060 SCT075 BKN110 06/02 A3014 RMK AO2 RAE09 SLP206 P0000 T00610022,KTYS,2018-03-24T07:53:00Z,35.82,-83.98,6.1,2.2,0,0,,10.0,30.138779,1020.6,,,TRUE,,,,,,,FEW,6000,SCT,7500,BKN,11000,,,VFR,,,,,,0.005,,,,,,METAR,302.0
KTYR 240753Z AUTO 20016G22KT 10SM BKN023 19/16 A2988 RMK AO2 SLP113 T01890156,KTYR,2018-03-24T07:53:00Z,32.37,-95.4,18.9,15.6,200,16,22,10.0,29.878937,1011.3,,TRUE,TRUE,,,,,,,BKN,2300,,,,,,,MVFR,,,,,,,,,,,,METAR,165.0
KTXK 240753Z AUTO 21013KT 10SM OVC027 19/14 A2988 RMK AO2 SLP116 T01890144,KTXK,2018-03-24T07:53:00Z,33.45,-93.98,18.9,14.4,210,13,,10.0,29.878937,1011.6,,TRUE,TRUE,,,,,,,OVC,2700,,,,,,,MVFR,,,,,,,,,,,,METAR,111.0
KTWF 240753Z AUTO 11007KT 10SM SCT050 BKN070 OVC085 06/02 A2983 RMK AO2 SLP081 T00610017,KTWF,2018-03-24T07:53:00Z,42.48,-114.48,6.1,1.7,110,7,,10.0,29.828741,1008.1,,TRUE,TRUE,,,,,,,SCT,5000,BKN,7000,OVC,8500,,,VFR,,,,,,,,,,,,METAR,1266.0
KTVR 240753Z AUTO 17011KT 10SM FEW029 16/13 A3000 RMK AO2 SLP166 T01610133,KTVR,2018-03-24T07:53:00Z,32.35,-91.03,16.1,13.3,170,11,,10.0,30.0,1016.6,,TRUE,TRUE,,,,,,,FEW,2900,,,,,,,VFR,,,,,,,,,,,,METAR,26.0
KTVL 240753Z AUTO 18018G27KT 10SM FEW034 M02/M09 A2993 RMK AO2 PK WND 19032/0739 SLP133 T10221094 400501022,KTVL,2018-03-24T07:53:00Z,38.9,-120.0,-2.2,-9.4,180,18,27,10.0,29.929134,1013.3,,TRUE,TRUE,,,,,,,FEW,3400,,,,,,,VFR,,,,5.0,-2.2,,,,,,,METAR,1924.0
KTVC 240753Z AUTO 00000KT 10SM CLR M06/M08 A3038 RMK AO2 SLP297 T10611083,KTVC,2018-03-24T07:53:00Z,44.73,-85.57,-6.1,-8.3,0,0,,10.0,30.380905,1029.7,,TRUE,TRUE,,,,,,,CLR,,,,,,,,VFR,,,,,,,,,,,,METAR,190.0
KTUS 240753Z 28005KT 10SM CLR 20/02 A3004 RMK AO2 SLP133 T02000022,KTUS,2018-03-24T07:53:00Z,32.13,-110.95,20.0,2.2,280,5,,10.0,30.041338,1013.3,,,TRUE,,,,,,,CLR,,,,,,,,VFR,,,,,,,,,,,,METAR,776.0
KTUL 240753Z 19009G15KT 10SM FEW160 SCT250 20/16 A2969 RMK AO2 SLP047 T02000161,KTUL,2018-03-24T07:53:00Z,36.2,-95.88,20.0,16.1,190,9,15,10.0,29.68996,1004.7,,,TRUE,,,,,,,FEW,16000,SCT,25000,,,,,VFR,,,,,,,,,,,,METAR,207.0
KTTN 240753Z AUTO 32005KT 10SM CLR 02/M08 A3010 RMK AO2 SLP188 T00171078,KTTN,2018-03-24T07:53:00Z,40.28,-74.82,1.7,-7.8,320,5,,10.0,30.100393,1018.8,,TRUE,TRUE,,,,,,,CLR,,,,,,,,VFR,,,,,,,,,,,,METAR,59.0
KTTD 240753Z AUTO 20004KT 10SM -RA OVC007 03/02 A2982 RMK AO2 SLP096 P0001 T00330022 400830033,KTTD,2018-03-24T07:53:00Z,45.55,-122.42,3.3,2.2,200,4,,10.0,29.819881,1009.6,,TRUE,TRUE,,,,,,-RA,OVC,700,,,,,,,IFR,,,,8.3,3.3,0.01,,,,,,METAR,14.0
KTRL 240753Z AUTO 20013G19KT 10SM OVC022 19/15 A2987 RMK AO2 SLP111 T01940150,KTRL,2018-03-24T07:53:00Z,32.72,-96.27,19.4,15.0,200,13,19,10.0,29.870079,1011.1,,TRUE,TRUE,,,,,,,OVC,2200,,,,,,,MVFR,,,,,,,,,,,,METAR,145.0
KTRI 240753Z 00000KT 10SM BKN060 OVC075 03/01 A3016 RMK AO2 SLP208 T00330011,KTRI,2018-03-24T07:53:00Z,36.48,-82.4,3.3,1.1,0,0,,10.0,30.159449,1020.8,,,TRUE,,,,,,,BKN,6000,OVC,7500,,,,,VFR,,,,,,,,,,,,METAR,474.0
KTPA 240753Z 12003KT 10SM CLR 13/08 A3022 RMK AO2 SLP232 T01330078,KTPA,2018-03-24T07:53:00Z,27.97,-82.53,13.3,7.8,120,3,,10.0,30.221457,1023.2,,,TRUE,,,,,,,CLR,,,,,,,,VFR,,,,,,,,,,,,METAR,11.0
KTOR 240753Z AUTO 30007KT 10SM CLR 02/02 A2999 RMK AO2 SLP147 T00170017,KTOR,2018-03-24T07:53:00Z,42.07,-104.15,1.7,1.7,300,7,,10.0,29.991142,1014.7,,TRUE,TRUE,,,,,,,CLR,,,,,,,,VFR,,,,,,,,,,,,METAR,1277.0
KTOP 240753Z AUTO 07008KT 10SM BKN040 OVC049 12/08 A2963 RMK AO2 SLP030 T01170083,KTOP,2018-03-24T07:53:00Z,39.07,-95.63,11.7,8.3,70,8,,10.0,29.630905,1003.0,,TRUE,TRUE,,,,,,,BKN,4000,OVC,4900,,,,,VFR,,,,,,,,,,,,METAR,268.0
KTOI 240753Z AUTO 00000KT 10SM CLR 09/06 A3016 RMK AO2 SLP211 T00940061,KTOI,2018-03-24T07:53:00Z,31.85,-86.02,9.4,6.1,0,0,,10.0,30.159449,1021.1,,TRUE,TRUE,,,,,,,CLR,,,,,,,,VFR,,,,,,,,,,,,METAR,118.0
KTMB 240753Z AUTO 00000KT 10SM CLR 12/09 A3019 RMK AO2 SLP221 T01220089,KTMB,2018-03-24T07:53:00Z,25.65,-80.43,12.2,8.9,0,0,,10.0,30.188976,1022.1,,TRUE,TRUE,,,,,,,CLR,,,,,,,,VFR,,,,,,,,,,,,METAR,2.0
KTLH 240753Z AUTO 00000KT 10SM CLR 07/06 A3019 RMK AO2 SLP223 T00720056,KTLH,2018-03-24T07:53:00Z,30.4,-84.35,7.2,5.6,0,0,,10.0,30.188976,1022.3,,TRUE,TRUE,,,,,,,CLR,,,,,,,,VFR,,,,,,,,,,,,METAR,19.0
KTKI 240753Z AUTO 19016G24KT 10SM SCT023 19/16 A2983 RMK AO2 SLP102 T01890161 $,KTKI,2018-03-24T07:53:00Z,33.18,-96.58,18.9,16.1,190,16,24,10.0,29.828741,1010.2,,TRUE,TRUE,TRUE,,,,,,SCT,2300,,,,,,,VFR,,,,,,,,,,,,METAR,179.0
KTIW 240753Z AUTO 23005KT 10SM -RA SCT010 OVC037 03/02 A2977 RMK AO2 SLP083 P0003 T00330022 400780028,KTIW,2018-03-24T07:53:00Z,47.27,-122.58,3.3,2.2,230,5,,10.0,29.769686,1008.3,,TRUE,TRUE,,,,,,-RA,SCT,1000,OVC,3700,,,,,VFR,,,,7.8,2.8,0.03,,,,,,METAR,89.0
KTHV 240753Z AUTO 28003KT 10SM CLR M08/M10 A3016 RMK AO2 SLP221 T10781100,KTHV,2018-03-24T07:53:00Z,39.92,-76.88,-7.8,-10.0,280,3,,10.0,30.159449,1022.1,,TRUE,TRUE,,,,,,,CLR,,,,,,,,VFR,,,,,,,,,,,,METAR,144.0
KTDZ 240753Z AUTO 05005KT 10SM CLR M03/M06 A3031 RMK AO2 SLP270 T10281061,KTDZ,2018-03-24T07:53:00Z,41.57,-83.48,-2.8,-6.1,50,5,,10.0,30.31004,1027.0,,TRUE,TRUE,,,,,,,CLR,,,,,,,,VFR,,,,,,,,,,,,METAR,189.0
KTCL 240753Z AUTO 19005KT 10SM BKN075 14/08 A3009 RMK AO2 SLP186 T01390083,KTCL,2018-03-24T07:53:00Z,33.22,-87.62,13.9,8.3,190,5,,10.0,30.088583,1018.6,,TRUE,TRUE,,,,,,,BKN,7500,,,,,,,VFR,,,,,,,,,,,,METAR,49.0
KTCC 240753Z AUTO 25007KT 10SM CLR 10/M04 A2996 RMK AO2 SLP096 T01001039,KTCC,2018-03-24T07:53:00Z,35.18,-103.6,10.0,-3.9,250,7,,10.0,29.958662,1009.6,,TRUE,TRUE,,,,,,,CLR,,,,,,,,VFR,,,,,,,,,,,,METAR,1235.0
KSWO 240753Z AUTO 22008KT 10SM CLR 19/14 A2968 RMK AO2 SLP040 T01940144,KSWO,2018-03-24T07:53:00Z,36.17,-97.08,19.4,14.4,220,8,,10.0,29.681103,1004.0,,TRUE,TRUE,,,,,,,CLR,,,,,,,,VFR,,,,,,,,,,,,METAR,290.0
KSTS 240753Z AUTO 00000KT 10SM BKN060 08/07 A3009 RMK AO2 RAE21 SLP182 P0000 T00830072 401440006,KSTS,2018-03-24T07:53:00Z,38.5,-122.82,8.3,7.2,0,0,,10.0,30.088583,1018.2,,TRUE,TRUE,,,,,,,BKN,6000,,,,,,,VFR,,,,14.4,0.6,0.005,,,,,,METAR,39.0
KPRC 240753Z AUTO 19005KT 10SM CLR 07/M03 A3005 RMK AO2 SLP129 T00671033,KPRC,2018-03-24T07:53:00Z,34.65,-112.42,6.7,-3.3,190,5,,10.0,30.050198,1012.9,,TRUE,TRUE,,,,,,,CLR,,,,,,,,VFR,,,,,,,,,,,,METAR,1524.0
KPRB 240753Z AUTO 32009KT 10SM OVC040 08/06 A3012 RMK AO2 SLP199 T00780056 401610028,KPRB,2018-03-24T07:53:00Z,35.67,-120.63,7.8,5.6,320,9,,10.0,30.121063,1019.9,,TRUE,TRUE,,,,,,,OVC,4000,,,,,,,VFR,,,,16.1,2.8,,,,,,,METAR,245.0
KPQL 240753Z AUTO 17003KT 10SM CLR 17/14 A3013 RMK AO2 SLP203 T01720139,KPQL,2018-03-24T07:53:00Z,30.47,-88.53,17.2,13.9,170,3,,10.0,30.129921,1020.3,,TRUE,TRUE,,,,,,,CLR,,,,,,,,VFR,,,,,,,,,,,,METAR,6.0
KPOU 240753Z AUTO 30005KT 10SM OVC085 01/M07 A3006 RMK AO2 SLP178 T00111067,KPOU,2018-03-24T07:53:00Z,41.63,-73.88,1.1,-6.7,300,5,,10.0,30.059055,1017.8,,TRUE,TRUE,,,,,,,OVC,8500,,,,,,,VFR,,,,,,,,,,,,METAR,46.0
KPOF 240753Z AUTO 05008KT 10SM OVC055 11/08 A2991 RMK AO2 SLP127 T01110078,KPOF,2018-03-24T07:53:00Z,36.77,-90.32,11.1,7.8,50,8,,10.0,29.911417,1012.7,,TRUE,TRUE,,,,,,,OVC,5500,,,,,,,VFR,,,,,,,,,,,,METAR,99.0
KPNS 240753Z AUTO 17003KT 10SM CLR 16/12 A3015 RMK AO2 SLP212 T01610122,KPNS,2018-03-24T07:53:00Z,30.48,-87.18,16.1,12.2,170,3,,10.0,30.15059,1021.2,,TRUE,TRUE,,,,,,,CLR,,,,,,,,VFR,,,,,,,,,,,,METAR,38.0
KPMP 240753Z AUTO 35005KT 10SM CLR 16/08 A3017 RMK AO2 SLP219 T01560078,KPMP,2018-03-24T07:53:00Z,26.25,-80.12,15.6,7.8,350,5,,10.0,30.171259,1021.9,,TRUE,TRUE,,,,,,,CLR,,,,,,,,VFR,,,,,,,,,,,,METAR,6.0
KPMD 240753Z AUTO 29006KT 10SM CLR 08/04 A3001 RMK AO2 SLP155 T00830039 401890078,KPMD,2018-03-24T07:53:00Z,34.63,-118.08,8.3,3.9,290,6,,10.0,30.008858,1015.5,,TRUE,TRUE,,,,,,,CLR,,,,,,,,VFR,,,,18.9,7.8,,,,,,,METAR,780.0
KPKD 240753Z AUTO 09013G21KT 10SM OVC080 M03/M10 A3019 RMK AO2 SLP244 T10281100,KPKD,2018-03-24T07:53:00Z,46.9,-95.07,-2.8,-10.0,90,13,21,10.0,30.188976,1024.4,,TRUE,TRUE,,,,,,,OVC,8000,,,,,,,VFR,,,,,,,,,,,,METAR,442.0
KPKB 240753Z AUTO 34003KT 10SM CLR M03/M07 A3028 RMK AO2 SLP259 T10331067 $,KPKB,2018-03-24T07:53:00Z,39.35,-81.42,-3.3,-6.7,340,3,,10.0,30.280512,1025.9,,TRUE,TRUE,TRUE,,,,,,CLR,,,,,,,,VFR,,,,,,,,,,,,METAR,262.0
KPIR 240753Z AUTO 11008KT 3SM BR OVC003 02/02 A2995 RMK AO2 SLP153 T00170017,KPIR,2018-03-24T07:53:00Z,44.38,-100.28,1.7,1.7,110,8,,3.0,29.949802,1015.3,,TRUE,TRUE,,,,,,BR,OVC,300,,,,,,,LIFR,,,,,,,,,,,,METAR,526.0
KPIL 240753Z AUTO 16016G24KT 7SM SCT014 OVC021 23/19 A2992 RMK AO2 PK WND 16026/0741 SLP131 T02280194,KPIL,2018-03-24T07:53:00Z,26.17,-97.33,22.8,19.4,160,16,24,7.0,29.920275,1013.1,,TRUE,TRUE,,,,,,,SCT,1400,OVC,2100,,,,,MVFR,,,,,,,,,,,,METAR,5.0
KPIH 240753Z AUTO 34010KT 10SM CLR 04/01 A2984 RMK AO2 SLP094 T00440011,KPIH,2018-03-24T07:53:00Z,42.92,-112.57,4.4,1.1,340,10,,10.0,29.840551,1009.4,,TRUE,TRUE,,,,,,,CLR,,,,,,,,VFR,,,,,,,,,,,,METAR,1359.0
KPIE 240753Z AUTO 10003KT 10SM CLR 12/10 A3021 RMK AO2 SLP230 T01220100,KPIE,2018-03-24T07:53:00Z,27.92,-82.68,12.2,10.0,100,3,,10.0,30.209646,1023.0,,TRUE,TRUE,,,,,,,CLR,,,,,,,,VFR,,,,,,,,,,,,METAR,4.0
KPHD 240753Z AUTO 00000KT 10SM CLR M06/M08 A3027 RMK AO2 SLP262 T10561078,KPHD,2018-03-24T07:53:00Z,40.47,-81.42,-5.6,-7.8,0,0,,10.0,30.268702,1026.2,,TRUE,TRUE,,,,,,,CLR,,,,,,,,VFR,,,,,,,,,,,,METAR,272.0
KPGD 240753Z AUTO 00000KT 10SM CLR 09/05 A3021 RMK AO2 SLP230 T00940050,KPGD,2018-03-24T07:53:00Z,26.92,-82.0,9.4,5.0,0,0,,10.0,30.209646,1023.0,,TRUE,TRUE,,,,,,,CLR,,,,,,,,VFR,,,,,,,,,,,,METAR,7.0
KPGA 240753Z AUTO 00000KT 10SM CLR 09/02 A3000 RMK AO2 SLP124 T00940017 TSNO,KPGA,2018-03-24T07:53:00Z,36.92,-111.45,9.4,1.7,0,0,,10.0,30.0,1012.4,,TRUE,TRUE,,,TRUE,,,,CLR,,,,,,,,VFR,,,,,,,,,,,,METAR,1307.0
KPEO 240753Z AUTO 31007KT 10SM CLR M02/M07 A3016 RMK AO2 SLP225 T10171072,KPEO,2018-03-24T07:53:00Z,42.65,-77.05,-1.7,-7.2,310,7,,10.0,30.159449,1022.5,,TRUE,TRUE,,,,,,,CLR,,,,,,,,VFR,,,,,,,,,,,,METAR,256.0
KPDX 240753Z 18006KT 10SM -RA BKN010 OVC015 03/02 A2982 RMK AO2 SLP096 P0004 T00280022 400780028,KPDX,2018-03-24T07:53:00Z,45.6,-122.62,2.8,2.2,180,6,,10.0,29.819881,1009.6,,,TRUE,,,,,,-RA,BKN,1000,OVC,1500,,,,,MVFR,,,,7.8,2.8,0.04,,,,,,METAR,7.0
KPDT 240753Z AUTO 05005KT 10SM FEW050 BKN070 02/01 A2970 RMK AO2 SLP057 T00220011 401221017,KPDT,2018-03-24T07:53:00Z,45.7,-118.83,2.2,1.1,50,5,,10.0,29.698818,1005.7,,TRUE,TRUE,,,,,,,FEW,5000,BKN,7000,,,,,VFR,,,,12.2,-1.7,,,,,,,METAR,462.0
KPDK 240753Z 14004KT 10SM BKN110 10/04 A3014 RMK AO2 SLP203 T01000044,KPDK,2018-03-24T07:53:00Z,33.88,-84.3,10.0,4.4,140,4,,10.0,30.138779,1020.3,,,TRUE,,,,,,,BKN,11000,,,,,,,VFR,,,,,,,,,,,,METAR,302.0
KPBI 240753Z 00000KT 10SM CLR 13/08 A3018 RMK AO2 SLP219 T01280083,KPBI,2018-03-24T07:53:00Z,26.68,-80.1,12.8,8.3,0,0,,10.0,30.180119,1021.9,,,TRUE,,,,,,,CLR,,,,,,,,VFR,,,,,,,,,,,,METAR,6.0
KPBG 240753Z AUTO 33011KT 10SM OVC075 01/M09 A3010 RMK AO2 SLP196 T00111089,KPBG,2018-03-24T07:53:00Z,44.65,-73.47,1.1,-8.9,330,11,,10.0,30.100393,1019.6,,TRUE,TRUE,,,,,,,OVC,7500,,,,,,,VFR,,,,,,,,,,,,METAR,72.0
KPBF 240753Z AUTO 19017G23KT 10SM BKN033 18/13 A2991 RMK AO2 SLP126 T01830128,KPBF,2018-03-24T07:53:00Z,34.18,-91.93,18.3,12.8,190,17,23,10.0,29.911417,1012.6,,TRUE,TRUE,,,,,,,BKN,3300,,,,,,,VFR,,,,,,,,,,,,METAR,62.0
KPAH 240753Z AUTO 10011KT 10SM OVC060 08/06 A2997 RMK AO2 SLP148 T00830056,KPAH,2018-03-24T07:53:00Z,37.07,-88.77,8.3,5.6,100,11,,10.0,29.970472,1014.8,,TRUE,TRUE,,,,,,,OVC,6000,,,,,,,VFR,,,,,,,,,,,,METAR,119.0
KPAE 240753Z AUTO 00000KT 10SM -RA OVC036 04/01 A2976 RMK AO2 RAB21 SLP081 P0000 T00440011 400670006,KPAE,2018-03-24T07:53:00Z,47.92,-122.28,4.4,1.1,0,0,,10.0,29.760826,1008.1,,TRUE,TRUE,,,,,,-RA,OVC,3600,,,,,,,VFR,,,,6.7,0.6,0.005,,,,,,METAR,180.0
KOXB 240753Z AUTO 32006KT 10SM CLR 01/M05 A3014 RMK AO2 SLP206 T00111050,KOXB,2018-03-24T07:53:00Z,38.32,-75.12,1.1,-5.0,320,6,,10.0,30.138779,1020.6,,TRUE,TRUE,,,,,,,CLR,,,,,,,,VFR,,,,,,,,,,,,METAR,3.0
KOWD 240753Z AUTO 32004KT 10SM OVC090 04/M06 A2998 RMK AO2 SLP153 T00391056,KOWD,2018-03-24T07:53:00Z,42.18,-71.17,3.9,-5.6,320,4,,10.0,29.97933,1015.3,,TRUE,TRUE,,,,,,,OVC,9000,,,,,,,VFR,,,,,,,,,,,,METAR,19.0
KOVE 240753Z AUTO 17015KT 10SM OVC038 09/07 A3008 RMK AO2 SLP189 T00940072 401560061,KOVE,2018-03-24T07:53:00Z,39.5,-121.62,9.4,7.2,170,15,,10.0,30.079725,1018.9,,TRUE,TRUE,,,,,,,OVC,3800,,,,,,,VFR,,,,15.6,6.1,,,,,,,METAR,58.0
KOTM 240753Z AUTO 09022G32KT 8SM -FZRA OVC007 01/M01 A2994 RMK AO2 PK WND 09034/0722 RAE24FZRAB24 SLP143 P0000 I1002 T00061011,KOTM,2018-03-24T07:53:00Z,41.1,-92.45,0.6,-1.1,90,22,32,8.0,29.940945,1014.3,,TRUE,TRUE,,,,,,-FZRA,OVC,700,,,,,,,IFR,,,,,,0.005,,,,,,METAR,256.0
KFNB 240753Z AUTO 11007KT 9SM SCT014 OVC021 08/06 A2969 RMK AO2 SLP054 T00830056 PWINO,KFNB,2018-03-24T07:53:00Z,40.07,-95.58,8.3,5.6,110,7,,9.0,29.68996,1005.4,,TRUE,TRUE,,,,,TRUE,,SCT,1400,OVC,2100,,,,,MVFR,,,,,,,,,,,,METAR,300.0
KFMY 240753Z AUTO 00000KT 10SM CLR 13/07 A3019 RMK AO2 SLP224 T01280072,KFMY,2018-03-24T07:53:00Z,26.58,-81.87,12.8,7.2,0,0,,10.0,30.188976,1022.4,,TRUE,TRUE,,,,,,,CLR,,,,,,,,VFR,,,,,,,,,,,,METAR,4.0
KFMN 240753Z AUTO 04004KT 10SM CLR 01/M07 A3009 RMK AO2 SLP174 T00111067,KFMN,2018-03-24T07:53:00Z,36.75,-108.23,1.1,-6.7,40,4,,10.0,30.088583,1017.4,,TRUE,TRUE,,,,,,,CLR,,,,,,,,VFR,,,,,,,,,,,,METAR,1685.0
KFLO 240753Z AUTO 06005KT 10SM OVC095 08/M02 A3019 RMK AO2 SLP222 T00781017,KFLO,2018-03-24T07:53:00Z,34.18,-79.73,7.8,-1.7,60,5,,10.0,30.188976,1022.2,,TRUE,TRUE,,,,,,,OVC,9500,,,,,,,VFR,,,,,,,,,,,,METAR,44.0
KFLL 240753Z 34003KT 10SM CLR 16/08 A3017 RMK AO2 SLP216 T01560083,KFLL,2018-03-24T07:53:00Z,26.07,-80.15,15.6,8.3,340,3,,10.0,30.171259,1021.6,,,TRUE,,,,,,,CLR,,,,,,,,VFR,,,,,,,,,,,,METAR,3.0
KFLD 240753Z AUTO 05010KT 10SM CLR M01/M07 A3030 RMK AO2 SLP270 T10111067 TSNO,KFLD,2018-03-24T07:53:00Z,43.77,-88.48,-1.1,-6.7,50,10,,10.0,30.301182,1027.0,,TRUE,TRUE,,,TRUE,,,,CLR,,,,,,,,VFR,,,,,,,,,,,,METAR,240.0
KFHR 240753Z AUTO 04003KT 10SM OVC020 05/02 A2977 RMK AO2 SLP082 T00500017 400890044,KFHR,2018-03-24T07:53:00Z,48.52,-123.03,5.0,1.7,40,3,,10.0,29.769686,1008.2,,TRUE,TRUE,,,,,,,OVC,2000,,,,,,,MVFR,,,,8.9,4.4,,,,,,,METAR,32.0
KFFT 240753Z AUTO 07007KT 10SM OVC060 05/M06 A3019 RMK AO2 SLP223 T00501061,KFFT,2018-03-24T07:53:00Z,38.18,-84.9,5.0,-6.1,70,7,,10.0,30.188976,1022.3,,TRUE,TRUE,,,,,,,OVC,6000,,,,,,,VFR,,,,,,,,,,,,METAR,236.0
KFFC 240753Z AUTO 00000KT 10SM OVC100 09/07 A3015 RMK AO2 SLP209 T00890067,KFFC,2018-03-24T07:53:00Z,33.35,-84.57,8.9,6.7,0,0,,10.0,30.15059,1020.9,,TRUE,TRUE,,,,,,,OVC,10000,,,,,,,VFR,,,,,,,,,,,,METAR,262.0
KFDY 240753Z AUTO 09004KT 10SM CLR M03/M07 A3028 RMK AO2 SLP258 T10331072,KFDY,2018-03-24T07:53:00Z,41.02,-83.67,-3.3,-7.2,90,4,,10.0,30.280512,1025.8,,TRUE,TRUE,,,,,,,CLR,,,,,,,,VFR,,,,,,,,,,,,METAR,247.0
KFDR 240753Z AUTO 22010KT 10SM CLR 20/13 A2973 RMK AO2 SLP051 T02000133,KFDR,2018-03-24T07:53:00Z,34.35,-98.98,20.0,13.3,220,10,,10.0,29.731298,1005.1,,TRUE,TRUE,,,,,,,CLR,,,,,,,,VFR,,,,,,,,,,,,METAR,386.0
KFCM 240753Z 11016G25KT 10SM CLR 02/M10 A3015 RMK AO2 SLP217 T00171100,KFCM,2018-03-24T07:53:00Z,44.83,-93.47,1.7,-10.0,110,16,25,10.0,30.15059,1021.7,,,TRUE,,,,,,,CLR,,,,,,,,VFR,,,,,,,,,,,,METAR,280.0
KFAY 240753Z 00000KT 10SM FEW120 04/M03 A3018 RMK AO2 SLP217 T00441033,KFAY,2018-03-24T07:53:00Z,34.98,-78.88,4.4,-3.3,0,0,,10.0,30.180119,1021.7,,,TRUE,,,,,,,FEW,12000,,,,,,,VFR,,,,,,,,,,,,METAR,55.0
KFAT 240753Z 31008KT 10SM SCT120 BKN200 10/05 A3011 RMK AO2 SLP195 T01000050 401720061,KFAT,2018-03-24T07:53:00Z,36.78,-119.72,10.0,5.0,310,8,,10.0,30.109253,1019.5,,,TRUE,,,,,,,SCT,12000,BKN,20000,,,,,VFR,,,,17.2,6.1,,,,,,,METAR,104.0
KFAR 240753Z 10014G24KT 8SM -SN FEW036 OVC050 M01/M03 A3015 RMK AO2 PK WND 10026/0657 UPB13E16B34E40SNB16E34B40 SLP221 P0000 T10111033,KFAR,2018-03-24T07:53:00Z,46.93,-96.82,-1.1,-3.3,100,14,24,8.0,30.15059,1022.1,,,TRUE,,,,,,-SN,FEW,3600,OVC,5000,,,,,VFR,,,,,,0.005,,,,,,METAR,277.0
KEYW 240753Z AUTO 03005KT 10SM CLR 18/12 A3018 RMK AO2 SLP220 T01830117 TSNO,KEYW,2018-03-24T07:53:00Z,24.55,-81.75,18.3,11.7,30,5,,10.0,30.180119,1022.0,,TRUE,TRUE,,,TRUE,,,,CLR,,,,,,,,VFR,,,,,,,,,,,,METAR,5.0
KEYE 240753Z AUTO 11009KT 10SM OVC100 04/M06 A3019 RMK AO2 SLP226 T00441061,KEYE,2018-03-24T07:53:00Z,39.83,-86.3,4.4,-6.1,110,9,,10.0,30.188976,1022.6,,TRUE,TRUE,,,,,,,OVC,10000,,,,,,,VFR,,,,,,,,,,,,METAR,248.0
KEWB 240753Z AUTO 33003KT 10SM OVC095 03/M06 A2996 RMK AO2 SLP146 T00281061 $,KEWB,2018-03-24T07:53:00Z,41.68,-70.95,2.8,-6.1,330,3,,10.0,29.958662,1014.6,,TRUE,TRUE,TRUE,,,,,,OVC,9500,,,,,,,VFR,,,,,,,,,,,,METAR,23.0
KEVW 240753Z AUTO 16009KT 10SM CLR 01/M06 A2996 RMK AO2 SLP132 T00061061,KEVW,2018-03-24T07:53:00Z,41.27,-111.03,0.6,-6.1,160,9,,10.0,29.958662,1013.2,,TRUE,TRUE,,,,,,,CLR,,,,,,,,VFR,,,,,,,,,,,,METAR,2177.0
KESF 240753Z AUTO 19006KT 10SM OVC028 17/16 A3000 RMK AO2 SLP158 T01670161,KESF,2018-03-24T07:53:00Z,31.4,-92.28,16.7,16.1,190,6,,10.0,30.0,1015.8,,TRUE,TRUE,,,,,,,OVC,2800,,,,,,,MVFR,,,,,,,,,,,,METAR,28.0
KEQY 240753Z AUTO 00000KT 10SM OVC085 07/01 A3018 RMK AO2 SLP233 T00720006,KEQY,2018-03-24T07:53:00Z,35.02,-80.62,7.2,0.6,0,0,,10.0,30.180119,1023.3,,TRUE,TRUE,,,,,,,OVC,8500,,,,,,,VFR,,,,,,,,,,,,METAR,212.0
KEPH 240753Z AUTO 36006KT 10SM OVC018 03/01 A2972 RMK AO2 SLP073 T00280011 400891056,KEPH,2018-03-24T07:53:00Z,47.3,-119.52,2.8,1.1,360,6,,10.0,29.719488,1007.3,,TRUE,TRUE,,,,,,,OVC,1800,,,,,,,MVFR,,,,8.9,-5.6,,,,,,,METAR,383.0
KENW 240753Z AUTO 09008KT 10SM CLR 01/M03 A3024 RMK AO2 SLP248 T00111028,KENW,2018-03-24T07:53:00Z,42.6,-87.93,1.1,-2.8,90,8,,10.0,30.239174,1024.8,,TRUE,TRUE,,,,,,,CLR,,,,,,,,VFR,,,,,,,,,,,,METAR,219.0
KEMP 240753Z AUTO 22005KT 8SM CLR 14/13 A2961 RMK AO2 SLP020 T01440128,KEMP,2018-03-24T07:53:00Z,38.33,-96.2,14.4,12.8,220,5,,8.0,29.610237,1002.0,,TRUE,TRUE,,,,,,,CLR,,,,,,,,VFR,,,,,,,,,,,,METAR,367.0
KELY 240753Z AUTO 16012KT 10SM CLR 02/M02 A2990 RMK AO2 SLP095 T00221022 400941033,KELY,2018-03-24T07:53:00Z,39.3,-114.85,2.2,-2.2,160,12,,10.0,29.899607,1009.5,,TRUE,TRUE,,,,,,,CLR,,,,,,,,VFR,,,,9.4,-3.3,,,,,,,METAR,1906.0
KELN 240753Z AUTO 10007KT 10SM OVC040 03/M01 A2969 RMK AO2 SLP061 T00331006 400891022,KELN,2018-03-24T07:53:00Z,47.03,-120.53,3.3,-0.6,100,7,,10.0,29.68996,1006.1,,TRUE,TRUE,,,,,,,OVC,4000,,,,,,,VFR,,,,8.9,-2.2,,,,,,,METAR,519.0
KELM 240753Z AUTO VRB04KT 10SM CLR M02/M07 A3015 RMK AO2 SLP217 T10171072,KELM,2018-03-24T07:53:00Z,42.15,-76.9,-1.7,-7.2,0,4,,10.0,30.15059,1021.7,,TRUE,TRUE,,,,,,,CLR,,,,,,,,VFR,,,,,,,,,,,,METAR,302.0
KELD 240753Z AUTO 19012G18KT 10SM OVC031 19/16 A2993 RMK AO2 SLP134 T01890156,KELD,2018-03-24T07:53:00Z,33.22,-92.82,18.9,15.6,190,12,18,10.0,29.929134,1013.4,,TRUE,TRUE,,,,,,,OVC,3100,,,,,,,VFR,,,,,,,,,,,,METAR,81.0
KEET 240753Z AUTO 18003KT 10SM SCT070 13/07 A3010 RMK AO2 SLP190 T01280072,KEET,2018-03-24T07:53:00Z,33.18,-86.78,12.8,7.2,180,3,,10.0,30.100393,1019.0,,TRUE,TRUE,,,,,,,SCT,7000,,,,,,,VFR,,,,,,,,,,,,METAR,173.0
KEEO 240753Z AUTO 00000KT 10SM CLR M01/M02 A3007 RMK AO2 SLP174 T10061022 $,KEEO,2018-03-24T07:53:00Z,40.05,-107.88,-0.6,-2.2,0,0,,10.0,30.070866,1017.4,,TRUE,TRUE,TRUE,,,,,,CLR,,,,,,,,VFR,,,,,,,,,,,,METAR,1930.0
KECP 240753Z AUTO 00000KT 10SM CLR 08/07 A3017 RMK AO2 SLP229 T00830072,KECP,2018-03-24T07:53:00Z,30.35,-85.8,8.3,7.2,0,0,,10.0,30.171259,1022.9,,TRUE,TRUE,,,,,,,CLR,,,,,,,,VFR,,,,,,,,,,,,METAR,21.0
KDXR 240753Z AUTO VRB04KT 10SM OVC085 02/M07 A3005 RMK AO2 SLP178 T00171067,KDXR,2018-03-24T07:53:00Z,41.37,-73.48,1.7,-6.7,0,4,,10.0,30.050198,1017.8,,TRUE,TRUE,,,,,,,OVC,8500,,,,,,,VFR,,,,,,,,,,,,METAR,139.0
KMAF 240753Z AUTO 24010KT 10SM CLR 19/14 A2993 RMK AO2 SLP090 T01890139,KMAF,2018-03-24T07:53:00Z,31.95,-102.2,18.9,13.9,240,10,,10.0,29.929134,1009.0,,TRUE,TRUE,,,,,,,CLR,,,,,,,,VFR,,,,,,,,,,,,METAR,874.0
KMAE 240753Z AUTO 32005KT 10SM SCT065 07/06 A3012 RMK AO2 SLP199 T00720056 401610044,KMAE,2018-03-24T07:53:00Z,36.98,-120.12,7.2,5.6,320,5,,10.0,30.121063,1019.9,,TRUE,TRUE,,,,,,,SCT,6500,,,,,,,VFR,,,,16.1,4.4,,,,,,,METAR,77.0
KLXV 240753Z AUTO 05006KT 10SM CLR M06/M09 A3014 RMK AO2 SLP161 T10611089,KLXV,2018-03-24T07:53:00Z,39.23,-106.32,-6.1,-8.9,50,6,,10.0,30.138779,1016.1,,TRUE,TRUE,,,,,,,CLR,,,,,,,,VFR,,,,,,,,,,,,METAR,3028.0
KLWV 240753Z AUTO 09012KT 4SM RA BR BKN031 OVC041 06/03 A3012 RMK AO2 SLP200 P0004 T00560033,KLWV,2018-03-24T07:53:00Z,38.77,-87.6,5.6,3.3,90,12,,4.0,30.121063,1020.0,,TRUE,TRUE,,,,,,RA BR,BKN,3100,OVC,4100,,,,,MVFR,,,,,,0.04,,,,,,METAR,131.0
KLWD 240753Z AUTO 09013G21KT 3SM TSRA BR OVC006 04/03 A2979 RMK AO2 PK WND 10028/0711 LTG DSNT ALQDS TSE20B26 CIG 005V011 SLP093 P0051 T00440033,KLWD,2018-03-24T07:53:00Z,40.63,-93.9,4.4,3.3,90,13,21,3.0,29.790354,1009.3,,TRUE,TRUE,,,,,,TSRA BR,OVC,600,,,,,,,IFR,,,,,,0.51,,,,,,METAR,346.0
KLVS 240753Z AUTO 04004KT 10SM CLR 06/M12 A3007 RMK AO2 SLP104 T00611122,KLVS,2018-03-24T07:53:00Z,35.65,-105.13,6.1,-12.2,40,4,,10.0,30.070866,1010.4,,TRUE,TRUE,,,,,,,CLR,,,,,,,,VFR,,,,,,,,,,,,METAR,2091.0
KLVM 240753Z AUTO 10007KT 10SM CLR 01/M03 A2983 RMK AO2 SLP102 T00061033,KLVM,2018-03-24T07:53:00Z,45.7,-110.43,0.6,-3.3,100,7,,10.0,29.828741,1010.2,,TRUE,TRUE,,,,,,,CLR,,,,,,,,VFR,,,,,,,,,,,,METAR,1418.0
KLVK 240753Z AUTO 13006KT 10SM SCT046 BKN070 09/04 A3011 RMK AO2 SLP196 T00890044 401500028,KLVK,2018-03-24T07:53:00Z,37.7,-121.82,8.9,4.4,130,6,,10.0,30.109253,1019.6,,TRUE,TRUE,,,,,,,SCT,4600,BKN,7000,,,,,VFR,,,,15.0,2.8,,,,,,,METAR,117.0
KLVJ 240753Z AUTO 18010G16KT 9SM FEW016 SCT021 OVC026 21/19 A2999 RMK AO2 SLP156 T02060194,KLVJ,2018-03-24T07:53:00Z,29.52,-95.25,20.6,19.4,180,10,16,9.0,29.991142,1015.6,,TRUE,TRUE,,,,,,,FEW,1600,SCT,2100,OVC,2600,,,MVFR,,,,,,,,,,,,METAR,12.0
KLUK 240753Z AUTO 03005KT 10SM CLR 00/M03 A3027 RMK AO2 SLP251 T00001033,KLUK,2018-03-24T07:53:00Z,39.1,-84.42,0.0,-3.3,30,5,,10.0,30.268702,1025.1,,TRUE,TRUE,,,,,,,CLR,,,,,,,,VFR,,,,,,,,,,,,METAR,155.0
KLPR 240753Z AUTO 04009KT 10SM OVC019 M02/M07 A3029 RMK AO2 SLP266 T10221072,KLPR,2018-03-24T07:53:00Z,41.35,-82.18,-2.2,-7.2,40,9,,10.0,30.28937,1026.6,,TRUE,TRUE,,,,,,,OVC,1900,,,,,,,MVFR,,,,,,,,,,,,METAR,241.0
KLOZ 240753Z AUTO 00000KT 10SM SCT037 BKN047 OVC055 06/02 A3015 RMK AO2 SLP211 T00610017 $,KLOZ,2018-03-24T07:53:00Z,37.08,-84.07,6.1,1.7,0,0,,10.0,30.15059,1021.1,,TRUE,TRUE,TRUE,,,,,,SCT,3700,BKN,4700,OVC,5500,,,VFR,,,,,,,,,,,,METAR,362.0
KLOU 240753Z AUTO 07006KT 10SM -RA BKN045 OVC050 05/M01 A3019 RMK AO2 RAB0654 SLP224 P0001 T00501011,KLOU,2018-03-24T07:53:00Z,38.22,-85.67,5.0,-1.1,70,6,,10.0,30.188976,1022.4,,TRUE,TRUE,,,,,,-RA,BKN,4500,OVC,5000,,,,,VFR,,,,,,0.01,,,,,,METAR,164.0
KLOL 240753Z AUTO 25018G25KT 10SM CLR 04/M07 A2990 RMK AO2 PK WND 25031/0722 SLP123 T00391072 401391033,KLOL,2018-03-24T07:53:00Z,40.07,-118.57,3.9,-7.2,250,18,25,10.0,29.899607,1012.3,,TRUE,TRUE,,,,,,,CLR,,,,,,,,VFR,,,,13.9,-3.3,,,,,,,METAR,1189.0
KLNS 240753Z AUTO 29007KT 10SM CLR M01/M09 A3015 RMK AO2 SLP214 T10111089,KLNS,2018-03-24T07:53:00Z,40.12,-76.3,-1.1,-8.9,290,7,,10.0,30.15059,1021.4,,TRUE,TRUE,,,,,,,CLR,,,,,,,,VFR,,,,,,,,,,,,METAR,125.0
KLMT 240753Z AUTO 27021G31KT 5SM -SN BR SCT012 BKN023 OVC034 M01/M03 A2982 RMK AO2 PK WND 26034/0654 SLP105 P0000 T10111033 400671033,KLMT,2018-03-24T07:53:00Z,42.15,-121.72,-1.1,-3.3,270,21,31,5.0,29.819881,1010.5,,TRUE,TRUE,,,,,,-SN BR,SCT,1200,BKN,2300,OVC,3400,,,MVFR,,,,6.7,-3.3,0.005,,,,,,METAR,1246.0
KLLQ 240753Z AUTO 21011KT 10SM OVC031 18/13 A2994 RMK AO2 SLP135 T01830128,KLLQ,2018-03-24T07:53:00Z,33.63,-91.75,18.3,12.8,210,11,,10.0,29.940945,1013.5,,TRUE,TRUE,,,,,,,OVC,3100,,,,,,,VFR,,,,,,,,,,,,METAR,83.0
KLIT 240753Z 19012KT 10SM SCT030 18/13 A2988 RMK AO2 SLP120 T01830128,KLIT,2018-03-24T07:53:00Z,34.73,-92.23,18.3,12.8,190,12,,10.0,29.878937,1012.0,,,TRUE,,,,,,,SCT,3000,,,,,,,VFR,,,,,,,,,,,,METAR,79.0
KLHX 240753Z AUTO 27006KT 10SM CLR 08/03 A2999 RMK AO2 SLP110 T00830028,KLHX,2018-03-24T07:53:00Z,38.05,-103.52,8.3,2.8,270,6,,10.0,29.991142,1011.0,,TRUE,TRUE,,,,,,,CLR,,,,,,,,VFR,,,,,,,,,,,,METAR,1277.0
KLHQ 240753Z AUTO 36003KT 10SM CLR M05/M07 A3027 RMK AO2 SLP260 T10501067,KLHQ,2018-03-24T07:53:00Z,39.75,-82.67,-5.0,-6.7,360,3,,10.0,30.268702,1026.0,,TRUE,TRUE,,,,,,,CLR,,,,,,,,VFR,,,,,,,,,,,,METAR,260.0
KLGB 240753Z AUTO 32005KT 10SM CLR 13/11 A3004 RMK AO2 SLP173 T01330106 402000133 $,KLGB,2018-03-24T07:53:00Z,33.82,-118.15,13.3,10.6,320,5,,10.0,30.041338,1017.3,,TRUE,TRUE,TRUE,,,,,,CLR,,,,,,,,VFR,,,,20.0,13.3,,,,,,,METAR,10.0
KLFT 240753Z AUTO 17006KT 10SM CLR 18/17 A3003 RMK AO2 SLP170 T01780172,KLFT,2018-03-24T07:53:00Z,30.2,-92.0,17.8,17.2,170,6,,10.0,30.029528,1017.0,,TRUE,TRUE,,,,,,,CLR,,,,,,,,VFR,,,,,,,,,,,,METAR,11.0
KLFK 240753Z AUTO 19009KT 10SM SCT015 SCT020 OVC029 19/17 A2996 RMK AO2 SLP141 T01890167,KLFK,2018-03-24T07:53:00Z,31.23,-94.75,18.9,16.7,190,9,,10.0,29.958662,1014.1,,TRUE,TRUE,,,,,,,SCT,1500,SCT,2000,OVC,2900,,,MVFR,,,,,,,,,,,,METAR,88.0
KLEE 240753Z AUTO 00000KT 10SM CLR 11/09 A3022 RMK AO2 SLP232 T01110094 TSNO,KLEE,2018-03-24T07:53:00Z,28.82,-81.82,11.1,9.4,0,0,,10.0,30.221457,1023.2,,TRUE,TRUE,,,TRUE,,,,CLR,,,,,,,,VFR,,,,,,,,,,,,METAR,23.0
KLEB 240753Z AUTO 00000KT 10SM OVC060 M03/M07 A3001 RMK AO2 SLP170 T10281072,KLEB,2018-03-24T07:53:00Z,43.63,-72.3,-2.8,-7.2,0,0,,10.0,30.008858,1017.0,,TRUE,TRUE,,,,,,,OVC,6000,,,,,,,VFR,,,,,,,,,,,,METAR,171.0
KLCH 240753Z AUTO 17007KT 10SM CLR 19/18 A3000 RMK AO2 SLP167 T01940178,KLCH,2018-03-24T07:53:00Z,30.13,-93.22,19.4,17.8,170,7,,10.0,30.0,1016.7,,TRUE,TRUE,,,,,,,CLR,,,,,,,,VFR,,,,,,,,,,,,METAR,4.0
KLBX 240753Z AUTO 18012G18KT 10SM FEW014 OVC026 22/19 A2998 RMK AO2 SLP152 T02170189,KLBX,2018-03-24T07:53:00Z,29.12,-95.47,21.7,18.9,180,12,18,10.0,29.97933,1015.2,,TRUE,TRUE,,,,,,,FEW,1400,OVC,2600,,,,,MVFR,,,,,,,,,,,,METAR,6.0
KLBF 240753Z AUTO 33012KT 7SM OVC015 08/06 A2990 RMK AO2 SLP119 T00830061,KLBF,2018-03-24T07:53:00Z,41.12,-100.67,8.3,6.1,330,12,,7.0,29.899607,1011.9,,TRUE,TRUE,,,,,,,OVC,1500,,,,,,,MVFR,,,,,,,,,,,,METAR,847.0
KLBB 240753Z 01010KT 10SM CLR 14/M02 A2992 RMK AO2 SLP089 T01391022,KLBB,2018-03-24T07:53:00Z,33.67,-101.82,13.9,-2.2,10,10,,10.0,29.920275,1008.9,,,TRUE,,,,,,,CLR,,,,,,,,VFR,,,,,,,,,,,,METAR,993.0
KAWM 240753Z AUTO 20012G19KT 10SM OVC065 19/12 A2992 RMK AO2 SLP128 T01890117,KAWM,2018-03-24T07:53:00Z,35.13,-90.23,18.9,11.7,200,12,19,10.0,29.920275,1012.8,,TRUE,TRUE,,,,,,,OVC,6500,,,,,,,VFR,,,,,,,,,,,,METAR,65.0
KAUS 240753Z 19011KT 7SM OVC021 20/17 A2993 RMK AO2 SLP126 T02000172,KAUS,2018-03-24T07:53:00Z,30.18,-97.68,20.0,17.2,190,11,,7.0,29.929134,1012.6,,,TRUE,,,,,,,OVC,2100,,,,,,,MVFR,,,,,,,,,,,,METAR,166.0
KAUG 240753Z AUTO 34005KT 10SM BKN090 00/M07 A2996 RMK AO2 SLP149 T00001072,KAUG,2018-03-24T07:53:00Z,44.32,-69.8,0.0,-7.2,340,5,,10.0,29.958662,1014.9,,TRUE,TRUE,,,,,,,BKN,9000,,,,,,,VFR,,,,,,,,,,,,METAR,109.0
KATY 240753Z AUTO 10012G18KT 1SM -SN BR SCT006 OVC012 M01/M02 A3001 RMK AO2 SLP184 P0004 T10111017,KATY,2018-03-24T07:53:00Z,44.9,-97.15,-1.1,-1.7,100,12,18,1.0,30.008858,1018.4,,TRUE,TRUE,,,,,,-SN BR,SCT,600,OVC,1200,,,,,IFR,,,,,,0.04,,,,,,METAR,532.0
KASX 240753Z AUTO 05007KT 10SM CLR M08/M13 A3039 RMK AO2 SLP306 T10781128,KASX,2018-03-24T07:53:00Z,46.55,-90.92,-7.8,-12.8,50,7,,10.0,30.389763,1030.6,,TRUE,TRUE,,,,,,,CLR,,,,,,,,VFR,,,,,,,,,,,,METAR,251.0
KASE 240753Z AUTO 18006KT 10SM CLR M01/M04 A3012 RMK AO2 SLP163 T10111039,KASE,2018-03-24T07:53:00Z,39.23,-106.87,-1.1,-3.9,180,6,,10.0,30.121063,1016.3,,TRUE,TRUE,,,,,,,CLR,,,,,,,,VFR,,,,,,,,,,,,METAR,2354.0
KASD 240753Z AUTO 17003KT 10SM CLR 17/14 A3009 RMK AO2 SLP190 T01670144,KASD,2018-03-24T07:53:00Z,30.35,-89.82,16.7,14.4,170,3,,10.0,30.088583,1019.0,,TRUE,TRUE,,,,,,,CLR,,,,,,,,VFR,,,,,,,,,,,,METAR,9.0
KARB 240753Z AUTO 00000KT 10SM CLR M06/M08 A3032 RMK AO2 SLP275 T10611083,KARB,2018-03-24T07:53:00Z,42.22,-83.73,-6.1,-8.3,0,0,,10.0,30.318897,1027.5,,TRUE,TRUE,,,,,,,CLR,,,,,,,,VFR,,,,,,,,,,,,METAR,251.0
KARA 240753Z AUTO 15006KT 8SM CLR 16/14 A3005 RMK AO2 SLP176 T01560139,KARA,2018-03-24T07:53:00Z,30.03,-91.88,15.6,13.9,150,6,,8.0,30.050198,1017.6,,TRUE,TRUE,,,,,,,CLR,,,,,,,,VFR,,,,,,,,,,,,METAR,18.0
KAQP 240753Z AUTO 10018G22KT 4SM -SN OVC014 00/M02 A3010 RMK AO2,KAQP,2018-03-24T07:53:00Z,45.22,-96.0,0.0,-2.0,100,18,22,4.0,30.100393,,,TRUE,TRUE,,,,,,-SN,OVC,1400,,,,,,,MVFR,,,,,,,,,,,,METAR,311.0
KAPF 240753Z AUTO 00000KT 7SM CLR 13/06 A3019 RMK AO2 SLP223 T01330061 $,KAPF,2018-03-24T07:53:00Z,26.15,-81.77,13.3,6.1,0,0,,7.0,30.188976,1022.3,,TRUE,TRUE,TRUE,,,,,,CLR,,,,,,,,VFR,,,,,,,,,,,,METAR,3.0
KAPA 240753Z 09006KT 10SM FEW030 FEW080 04/01 A3005 RMK AO2 SLP147 T00440011,KAPA,2018-03-24T07:53:00Z,39.57,-104.85,4.4,1.1,90,6,,10.0,30.050198,1014.7,,,TRUE,,,,,,,FEW,3000,FEW,8000,,,,,VFR,,,,,,,,,,,,METAR,1775.0
KAOO 240753Z AUTO 14003KT 10SM CLR M05/M09 A3017 RMK AO2 SLP233 T10501094,KAOO,2018-03-24T07:53:00Z,40.3,-78.32,-5.0,-9.4,140,3,,10.0,30.171259,1023.3,,TRUE,TRUE,,,,,,,CLR,,,,,,,,VFR,,,,,,,,,,,,METAR,455.0
KAOH 240753Z AUTO 11003KT 10SM CLR M04/M06 A3028 RMK AO2 SLP262 T10391061,KAOH,2018-03-24T07:53:00Z,40.7,-84.02,-3.9,-6.1,110,3,,10.0,30.280512,1026.2,,TRUE,TRUE,,,,,,,CLR,,,,,,,,VFR,,,,,,,,,,,,METAR,296.0
KANB 240753Z AUTO 00000KT 10SM CLR 08/06 A3012 RMK AO2 SLP201 T00830056,KANB,2018-03-24T07:53:00Z,33.58,-85.85,8.3,5.6,0,0,,10.0,30.121063,1020.1,,TRUE,TRUE,,,,,,,CLR,,,,,,,,VFR,,,,,,,,,,,,METAR,183.0
KAMW 240753Z AUTO 09018G34KT 6SM HZ OVC009 01/ A2991 RMK AO2 PK WND 11034/0744 RAE38UPB21E23 CIG 007V013 SLP133 P0002 T0006 $,KAMW,2018-03-24T07:53:00Z,41.98,-93.62,0.6,,90,18,34,6.0,29.911417,1013.3,,TRUE,TRUE,TRUE,,,,,HZ,OVC,900,,,,,,,IFR,,,,,,0.02,,,,,,METAR,279.0
KAMG 240753Z AUTO 00000KT 7SM BKN100 09/06 A3018 RMK AO2 SLP219 T00940061,KAMG,2018-03-24T07:53:00Z,31.53,-82.5,9.4,6.1,0,0,,7.0,30.180119,1021.9,,TRUE,TRUE,,,,,,,BKN,10000,,,,,,,VFR,,,,,,,,,,,,METAR,59.0
KAMA 240753Z AUTO 28008KT 10SM CLR 11/M02 A2992 RMK AO2 SLP085 T01111022,KAMA,2018-03-24T07:53:00Z,35.22,-101.72,11.1,-2.2,280,8,,10.0,29.920275,1008.5,,TRUE,TRUE,,,,,,,CLR,,,,,,,,VFR,,,,,,,,,,,,METAR,1093.0
KALW 240753Z AUTO 00000KT 10SM BKN080 OVC100 05/03 A2973 RMK AO2 SLP070 T00500033 401280022,KALW,2018-03-24T07:53:00Z,46.1,-118.28,5.0,3.3,0,0,,10.0,29.731298,1007.0,,TRUE,TRUE,,,,,,,BKN,8000,OVC,10000,,,,,VFR,,,,12.8,2.2,,,,,,,METAR,363.0
KALI 240753Z AUTO 17010KT 10SM OVC020 22/18 A2991 RMK AO2 SLP125 T02170178,KALI,2018-03-24T07:53:00Z,27.73,-98.02,21.7,17.8,170,10,,10.0,29.911417,1012.5,,TRUE,TRUE,,,,,,,OVC,2000,,,,,,,MVFR,,,,,,,,,,,,METAR,53.0
KAKO 240753Z AUTO 35014KT 10SM CLR 02/02 A2999 RMK AO2 SLP136 T00220017,KAKO,2018-03-24T07:53:00Z,40.17,-103.22,2.2,1.7,350,14,,10.0,29.991142,1013.6,,TRUE,TRUE,,,,,,,CLR,,,,,,,,VFR,,,,,,,,,,,,METAR,1421.0
KAIA 240753Z AUTO 32008KT 10SM CLR 02/02 A2997 RMK AO2 SLP147 T00220017,KAIA,2018-03-24T07:53:00Z,42.05,-102.8,2.2,1.7,320,8,,10.0,29.970472,1014.7,,TRUE,TRUE,,,,,,,CLR,,,,,,,,VFR,,,,,,,,,,,,METAR,1196.0
KAGS 240753Z AUTO 00000KT 10SM OVC080 11/08 A3018 RMK AO2 SLP218 T01110083,KAGS,2018-03-24T07:53:00Z,33.37,-81.97,11.1,8.3,0,0,,10.0,30.180119,1021.8,,TRUE,TRUE,,,,,,,OVC,8000,,,,,,,VFR,,,,,,,,,,,,METAR,44.0
KAGC 240753Z AUTO 32004KT 10SM CLR M04/M07 A3021 RMK AO2 SLP249 T10391072,KAGC,2018-03-24T07:53:00Z,40.35,-79.92,-3.9,-7.2,320,4,,10.0,30.209646,1024.9,,TRUE,TRUE,,,,,,,CLR,,,,,,,,VFR,,,,,,,,,,,,METAR,389.0
KAFW 240753Z 19013G23KT 10SM BKN300 19/16 A2981 RMK AO2 SLP085 T01940161,KAFW,2018-03-24T07:53:00Z,32.97,-97.32,19.4,16.1,190,13,23,10.0,29.811024,1008.5,,,TRUE,,,,,,,BKN,30000,,,,,,,VFR,,,,,,,,,,,,METAR,233.0
KAEX 240753Z 15008KT 10SM BKN030 17/16 A2998 RMK AO2 SLP153 T01670156,KAEX,2018-03-24T07:53:00Z,31.33,-92.57,16.7,15.6,150,8,,10.0,29.97933,1015.3,,,TRUE,,,,,,,BKN,3000,,,,,,,MVFR,,,,,,,,,,,,METAR,27.0
KADG 240753Z AUTO 07004KT 10SM CLR M05/M07 A3031 RMK AO2 SLP275 T10501067 TSNO,KADG,2018-03-24T07:53:00Z,41.87,-84.08,-5.0,-6.7,70,4,,10.0,30.31004,1027.5,,TRUE,TRUE,,,TRUE,,,,CLR,,,,,,,,VFR,,,,,,,,,,,,METAR,241.0
KACV 240753Z AUTO 14008KT 10SM FEW022 BKN031 OVC040 07/03 A3007 RMK AO2 RAB38E47 SLP188 P0000 T00670033 401220067,KACV,2018-03-24T07:53:00Z,40.98,-124.1,6.7,3.3,140,8,,10.0,30.070866,1018.8,,TRUE,TRUE,,,,,,,FEW,2200,BKN,3100,OVC,4000,,,VFR,,,,12.2,6.7,0.005,,,,,,METAR,67.0
KACK 240753Z AUTO 00000KT 10SM OVC075 M01/M01 A2996 RMK AO2 SLP143 T10061011,KACK,2018-03-24T07:53:00Z,41.25,-70.07,-0.6,-1.1,0,0,,10.0,29.958662,1014.3,,TRUE,TRUE,,,,,,,OVC,7500,,,,,,,VFR,,,,,,,,,,,,METAR,16.0
KABY 240753Z AUTO 00000KT 10SM SCT095 09/05 A3020 RMK AO2 SLP226 T00890050,KABY,2018-03-24T07:53:00Z,31.53,-84.2,8.9,5.0,0,0,,10.0,30.200787,1022.6,,TRUE,TRUE,,,,,,,SCT,9500,,,,,,,VFR,,,,,,,,,,,,METAR,58.0
KABR 240753Z AUTO 09008KT 2 1/2SM -SN BR BKN009 OVC012 00/M01 A3005 RMK AO2 SLP190 P0003 T00001006,KABR,2018-03-24T07:53:00Z,45.45,-98.42,0.0,-0.6,90,8,,2.5,30.050198,1019.0,,TRUE,TRUE,,,,,,-SN BR,BKN,900,OVC,1200,,,,,IFR,,,,,,0.03,,,,,,METAR,397.0
KAAF 240753Z AUTO 00000KT 10SM CLR 08/07 A3019 RMK AO2 SLP221 T00830072,KAAF,2018-03-24T07:53:00Z,29.73,-85.03,8.3,7.2,0,0,,10.0,30.188976,1022.1,,TRUE,TRUE,,,,,,,CLR,,,,,,,,VFR,,,,,,,,,,,,METAR,5.0
KDWH 240753Z AUTO 19010G17KT 10SM BKN023 OVC029 21/18 A2997 RMK AO2 SLP147 T02110178,KDWH,2018-03-24T07:53:00Z,30.07,-95.55,21.1,17.8,190,10,17,10.0,29.970472,1014.7,,TRUE,TRUE,,,,,,,BKN,2300,OVC,2900,,,,,MVFR,,,,,,,,,,,,METAR,46.0
KDVT 240753Z 00000KT 10SM CLR 16/M04 A2993 RMK AO2 SLP119 T01611039,KDVT,2018-03-24T07:53:00Z,33.68,-112.07,16.1,-3.9,0,0,,10.0,29.929134,1011.9,,,TRUE,,,,,,,CLR,,,,,,,,VFR,,,,,,,,,,,,METAR,443.0
KDUJ 240753Z AUTO 29005KT 10SM CLR M06/M07 A3016 RMK AO2 SLP232 T10561072 TSNO,KDUJ,2018-03-24T07:53:00Z,41.17,-78.9,-5.6,-7.2,290,5,,10.0,30.159449,1023.2,,TRUE,TRUE,,,TRUE,,,,CLR,,,,,,,,VFR,,,,,,,,,,,,METAR,554.0
KDTW 240753Z 34004KT 10SM FEW250 M04/M08 A3033 RMK AO2 SLP275 T10391083,KDTW,2018-03-24T07:53:00Z,42.23,-83.33,-3.9,-8.3,340,4,,10.0,30.33071,1027.5,,,TRUE,,,,,,,FEW,25000,,,,,,,VFR,,,,,,,,,,,,METAR,195.0
KDTS 240753Z AUTO 19003KT 10SM CLR 19/12 A3016 RMK AO2 SLP213 T01940117 $,KDTS,2018-03-24T07:53:00Z,30.4,-86.47,19.4,11.7,190,3,,10.0,30.159449,1021.3,,TRUE,TRUE,TRUE,,,,,,CLR,,,,,,,,VFR,,,,,,,,,,,,METAR,5.0
KDTO 240753Z AUTO 19016G22KT 10SM CLR 19/16 A2982 RMK AO2 SLP089 T01940161,KDTO,2018-03-24T07:53:00Z,33.2,-97.2,19.4,16.1,190,16,22,10.0,29.819881,1008.9,,TRUE,TRUE,,,,,,,CLR,,,,,,,,VFR,,,,,,,,,,,,METAR,196.0
KDTN 240753Z AUTO 19012KT 10SM BKN028 19/16 A2992 RMK AO2 SLP129 T01940156,KDTN,2018-03-24T07:53:00Z,32.55,-93.75,19.4,15.6,190,12,,10.0,29.920275,1012.9,,TRUE,TRUE,,,,,,,BKN,2800,,,,,,,MVFR,,,,,,,,,,,,METAR,53.0
KDRT 240753Z AUTO 12009KT 10SM CLR 22/17 A2988 RMK AO2 SLP102 T02170167,KDRT,2018-03-24T07:53:00Z,29.37,-100.92,21.7,16.7,120,9,,10.0,29.878937,1010.2,,TRUE,TRUE,,,,,,,CLR,,,,,,,,VFR,,,,,,,,,,,,METAR,313.0
KDRO 240753Z AUTO 03005KT 10SM CLR M01/M05 A3013 RMK AO2 SLP186 T10111050,KDRO,2018-03-24T07:53:00Z,37.15,-107.77,-1.1,-5.0,30,5,,10.0,30.129921,1018.6,,TRUE,TRUE,,,,,,,CLR,,,,,,,,VFR,,,,,,,,,,,,METAR,2035.0
KDNL 240753Z AUTO 36003KT 10SM OVC080 14/03 A3018 RMK AO2 SLP217 T01390033,KDNL,2018-03-24T07:53:00Z,33.47,-82.03,13.9,3.3,360,3,,10.0,30.180119,1021.7,,TRUE,TRUE,,,,,,,OVC,8000,,,,,,,VFR,,,,,,,,,,,,METAR,130.0
KDMO 240753Z AUTO 12015G21KT 10SM -RA OVC031 10/09 A2972 RMK AO2 LTG DSNT N RAE0655B11 SLP065 P0001 T01000094,KDMO,2018-03-24T07:53:00Z,38.72,-93.17,10.0,9.4,120,15,21,10.0,29.719488,1006.5,,TRUE,TRUE,,,,,,-RA,OVC,3100,,,,,,,VFR,,,,,,0.01,,,,,,METAR,274.0
KDMN 240753Z AUTO 25008KT 10SM CLR 12/M01 A3008 RMK AO2 SLP125 T01221006,KDMN,2018-03-24T07:53:00Z,32.27,-107.72,12.2,-0.6,250,8,,10.0,30.079725,1012.5,,TRUE,TRUE,,,,,,,CLR,,,,,,,,VFR,,,,,,,,,,,,METAR,1311.0
KDLS 240753Z AUTO 00000KT 10SM -RA BKN046 BKN055 OVC075 06/03 A2974 RMK AO2 RAE04B21 SLP073 P0001 T00560033 400891011,KDLS,2018-03-24T07:53:00Z,45.62,-121.17,5.6,3.3,0,0,,10.0,29.740158,1007.3,,TRUE,TRUE,,,,,,-RA,BKN,4600,BKN,5500,OVC,7500,,,VFR,,,,8.9,-1.1,0.01,,,,,,METAR,71.0
KDLN 240753Z AUTO 22006KT 10SM BKN090 00/M05 A2980 RMK AO2 SLP084 T00001050,KDLN,2018-03-24T07:53:00Z,45.25,-112.55,0.0,-5.0,220,6,,10.0,29.799213,1008.4,,TRUE,TRUE,,,,,,,BKN,9000,,,,,,,VFR,,,,,,,,,,,,METAR,1591.0
KDKK 240753Z AUTO 21003KT 10SM CLR M07/M08 A3025 RMK AO2 SLP254 T10671078,KDKK,2018-03-24T07:53:00Z,42.5,-79.28,-6.7,-7.8,210,3,,10.0,30.250984,1025.4,,TRUE,TRUE,,,,,,,CLR,,,,,,,,VFR,,,,,,,,,,,,METAR,202.0
KDHT 240753Z AUTO 34012KT 10SM CLR 09/M03 A2998 RMK AO2 PRESRR SLP103 T00891033,KDHT,2018-03-24T07:53:00Z,36.02,-102.55,8.9,-3.3,340,12,,10.0,29.97933,1010.3,,TRUE,TRUE,,,,,,,CLR,,,,,,,,VFR,,,,,,,,,,,,METAR,1217.0
KDHN 240753Z AUTO 19004KT 10SM BKN090 11/06 A3020 RMK AO2 SLP223 T01110061,KDHN,2018-03-24T07:53:00Z,31.32,-85.45,11.1,6.1,190,4,,10.0,30.200787,1022.3,,TRUE,TRUE,,,,,,,BKN,9000,,,,,,,VFR,,,,,,,,,,,,METAR,113.0
KDGW 240753Z AUTO 00000KT 10SM CLR M02/M02 A3000 RMK AO2 SLP162 I1000 T10221022 $,KDGW,2018-03-24T07:53:00Z,42.8,-105.38,-2.2,-2.2,0,0,,10.0,30.0,1016.2,,TRUE,TRUE,TRUE,,,,,,CLR,,,,,,,,VFR,,,,,,,,,,,,METAR,1499.0
KDFW 240753Z 18017G24KT 10SM FEW022 BKN250 20/16 A2981 RMK AO2 SLP089 T02000161,KDFW,2018-03-24T07:53:00Z,32.9,-97.02,20.0,16.1,180,17,24,10.0,29.811024,1008.9,,,TRUE,,,,,,,FEW,2200,BKN,25000,,,,,VFR,,,,,,,,,,,,METAR,174.0
KDFI 240753Z AUTO 00000KT 10SM CLR M04/M07 A3031 RMK AO2 SLP271 T10391072,KDFI,2018-03-24T07:53:00Z,41.33,-84.43,-3.9,-7.2,0,0,,10.0,30.31004,1027.1,,TRUE,TRUE,,,,,,,CLR,,,,,,,,VFR,,,,,,,,,,,,METAR,219.0
KDEW 240753Z AUTO 02005KT 8SM -SN OVC033 01/00 A2976 RMK AO2 SNB39 SLP091 P0001 T00060000 400941044,KDEW,2018-03-24T07:53:00Z,47.97,-117.43,0.6,0.0,20,5,,8.0,29.760826,1009.1,,TRUE,TRUE,,,,,,-SN,OVC,3300,,,,,,,VFR,,,,9.4,-4.4,0.01,,,,,,METAR,674.0
KDET 240753Z 36005KT 10SM CLR M04/M08 A3032 RMK AO2 SLP275 T10441083,KDET,2018-03-24T07:53:00Z,42.4,-83.02,-4.4,-8.3,360,5,,10.0,30.318897,1027.5,,,TRUE,,,,,,,CLR,,,,,,,,VFR,,,,,,,,,,,,METAR,190.0
KDEQ 240753Z AUTO 19005KT 10SM OVC038 18/14 A2985 RMK AO2 SLP104 T01830144,KDEQ,2018-03-24T07:53:00Z,34.05,-94.4,18.3,14.4,190,5,,10.0,29.84941,1010.4,,TRUE,TRUE,,,,,,,OVC,3800,,,,,,,VFR,,,,,,,,,,,,METAR,106.0
KDEN 240753Z VRB03KT 10SM FEW030 FEW090 03/01 A3004 RMK AO2 SLP140 T00280011,KDEN,2018-03-24T07:53:00Z,39.85,-104.65,2.8,1.1,0,3,,10.0,30.041338,1014.0,,,TRUE,,,,,,,FEW,3000,FEW,9000,,,,,VFR,,,,,,,,,,,,METAR,1640.0
KDCU 240753Z AUTO 13006KT 10SM OVC075 11/06 A3007 RMK AO2 SLP180 T01110056,KDCU,2018-03-24T07:53:00Z,34.65,-86.95,11.1,5.6,130,6,,10.0,30.070866,1018.0,,TRUE,TRUE,,,,,,,OVC,7500,,,,,,,VFR,,,,,,,,,,,,METAR,176.0
KDBQ 240753Z AUTO 11009KT 5SM -SN BKN025 OVC070 M02/M07 A3017 RMK AO2 SLP226 P0006 T10221067,KDBQ,2018-03-24T07:53:00Z,42.4,-90.7,-2.2,-6.7,110,9,,5.0,30.171259,1022.6,,TRUE,TRUE,,,,,,-SN,BKN,2500,OVC,7000,,,,,MVFR,,,,,,0.06,,,,,,METAR,326.0
KDAN 240753Z AUTO 24005KT 10SM CLR M03/M06 A3020 RMK AO2 SLP224 T10281056,KDAN,2018-03-24T07:53:00Z,36.57,-79.33,-2.8,-5.6,240,5,,10.0,30.200787,1022.4,,TRUE,TRUE,,,,,,,CLR,,,,,,,,VFR,,,,,,,,,,,,METAR,175.0
KDAL 240753Z 20011G22KT 10SM FEW024 SCT250 20/16 A2984 RMK AO2 SLP099 T02000156,KDAL,2018-03-24T07:53:00Z,32.85,-96.85,20.0,15.6,200,11,22,10.0,29.840551,1009.9,,,TRUE,,,,,,,FEW,2400,SCT,25000,,,,,VFR,,,,,,,,,,,,METAR,158.0
KDAB 240753Z 00000KT 10SM FEW250 09/08 A3021 RMK AO2 SLP229 T00940078,KDAB,2018-03-24T07:53:00Z,29.18,-81.07,9.4,7.8,0,0,,10.0,30.209646,1022.9,,,TRUE,,,,,,,FEW,25000,,,,,,,VFR,,,,,,,,,,,,METAR,9.0
KCYS 240753Z AUTO 00000KT 10SM CLR 00/M01 A3003 RMK AO2 SLP149 T00001011,KCYS,2018-03-24T07:53:00Z,41.15,-104.8,0.0,-1.1,0,0,,10.0,30.029528,1014.9,,TRUE,TRUE,,,,,,,CLR,,,,,,,,VFR,,,,,,,,,,,,METAR,1868.0
KCXO 240753Z AUTO 19011KT 10SM OVC028 21/18 A2998 RMK AO2 SLP148 T02060178,KCXO,2018-03-24T07:53:00Z,30.35,-95.42,20.6,17.8,190,11,,10.0,29.97933,1014.8,,TRUE,TRUE,,,,,,,OVC,2800,,,,,,,MVFR,,,,,,,,,,,,METAR,75.0
KCUT 240753Z AUTO 36006KT 10SM CLR 02/M16 A2994 RMK AO2 SLP124 T00221161,KCUT,2018-03-24T07:53:00Z,43.73,-103.62,2.2,-16.1,360,6,,10.0,29.940945,1012.4,,TRUE,TRUE,,,,,,,CLR,,,,,,,,VFR,,,,,,,,,,,,METAR,1725.0
KSTP 240753Z AUTO 10012KT 10SM OVC095 02/M09 A3021 RMK AO2 SLP234 T00171089 $,KSTP,2018-03-24T07:53:00Z,44.93,-93.05,1.7,-8.9,100,12,,10.0,30.209646,1023.4,,TRUE,TRUE,TRUE,,,,,,OVC,9500,,,,,,,VFR,,,,,,,,,,,,METAR,219.0
KSTJ 240753Z AUTO 11008G21KT 7SM BKN017 OVC024 08/07 A2970 RMK AO2 SLP056 T00830067,KSTJ,2018-03-24T07:53:00Z,39.77,-94.92,8.3,6.7,110,8,21,7.0,29.698818,1005.6,,TRUE,TRUE,,,,,,,BKN,1700,OVC,2400,,,,,MVFR,,,,,,,,,,,,METAR,247.0
KSTC 240753Z AUTO 07012G18KT 10SM FEW090 SCT120 M02/M08 A3018 RMK AO2 SLP242 T10171078,KSTC,2018-03-24T07:53:00Z,45.55,-94.05,-1.7,-7.8,70,12,18,10.0,30.180119,1024.2,,TRUE,TRUE,,,,,,,FEW,9000,SCT,12000,,,,,VFR,,,,,,,,,,,,METAR,314.0
KSSI 240753Z AUTO 27004KT 10SM OVC110 12/07 A3018 RMK AO2 SLP221 T01220067,KSSI,2018-03-24T07:53:00Z,31.15,-81.38,12.2,6.7,270,4,,10.0,30.180119,1022.1,,TRUE,TRUE,,,,,,,OVC,11000,,,,,,,VFR,,,,,,,,,,,,METAR,6.0
KSSF 240753Z AUTO 17007KT 10SM OVC017 21/18 A2992 RMK AO2 SLP123 T02110183,KSSF,2018-03-24T07:53:00Z,29.33,-98.47,21.1,18.3,170,7,,10.0,29.920275,1012.3,,TRUE,TRUE,,,,,,,OVC,1700,,,,,,,MVFR,,,,,,,,,,,,METAR,176.0
KSRQ 240753Z AUTO 07005KT 10SM CLR 11/07 A3019 RMK AO2 SLP223 T01110072,KSRQ,2018-03-24T07:53:00Z,27.4,-82.57,11.1,7.2,70,5,,10.0,30.188976,1022.3,,TRUE,TRUE,,,,,,,CLR,,,,,,,,VFR,,,,,,,,,,,,METAR,18.0
KSPW 240753Z AUTO 10020G28KT 3SM -FZRA BR OVC009 01/M01 A2995 RMK AO2 PK WND 11033/0723 RAE34FZRAB34 CIG 006V012 SLP153 P0002 I1002 T00061006,KSPW,2018-03-24T07:53:00Z,43.17,-95.22,0.6,-0.6,100,20,28,3.0,29.949802,1015.3,,TRUE,TRUE,,,,,,-FZRA BR,OVC,900,,,,,,,IFR,,,,,,0.02,,,,,,METAR,403.0
KSPG 240753Z AUTO 09007KT 10SM CLR 16/11 A3019 RMK AO2 SLP224 T01560106,KSPG,2018-03-24T07:53:00Z,27.77,-82.63,15.6,10.6,90,7,,10.0,30.188976,1022.4,,TRUE,TRUE,,,,,,,CLR,,,,,,,,VFR,,,,,,,,,,,,METAR,2.0
KSPB 240753Z AUTO 15003KT 10SM -RA OVC036 03/02 A2980 RMK AO2 RAE15B37 SLP090 P0000 T00280022 400720022,KSPB,2018-03-24T07:53:00Z,45.77,-122.87,2.8,2.2,150,3,,10.0,29.799213,1009.0,,TRUE,TRUE,,,,,,-RA,OVC,3600,,,,,,,VFR,,,,7.2,2.2,0.005,,,,,,METAR,14.0
KSNY 240753Z AUTO 28009KT 10SM CLR 03/01 A2998 RMK AO2 SLP144 T00280011,KSNY,2018-03-24T07:53:00Z,41.1,-102.98,2.8,1.1,280,9,,10.0,29.97933,1014.4,,TRUE,TRUE,,,,,,,CLR,,,,,,,,VFR,,,,,,,,,,,,METAR,1307.0
KSNS 240753Z 36003KT 10SM CLR 08/06 A3014 RMK AO2 SLP216 T00830056 401560028,KSNS,2018-03-24T07:53:00Z,36.67,-121.6,8.3,5.6,360,3,,10.0,30.138779,1021.6,,,TRUE,,,,,,,CLR,,,,,,,,VFR,,,,15.6,2.8,,,,,,,METAR,30.0
KSNA 240753Z AUTO 19004KT 10SM FEW012 13/11 A3005 RMK AO2 SLP175 T01280111 401940128,KSNA,2018-03-24T07:53:00Z,33.67,-117.87,12.8,11.1,190,4,,10.0,30.050198,1017.5,,TRUE,TRUE,,,,,,,FEW,1200,,,,,,,VFR,,,,19.4,12.8,,,,,,,METAR,16.0
KSMQ 240753Z AUTO 33008KT 10SM CLR 01/M07 A3008 RMK AO2 SLP189 T00111067,KSMQ,2018-03-24T07:53:00Z,40.62,-74.67,1.1,-6.7,330,8,,10.0,30.079725,1018.9,,TRUE,TRUE,,,,,,,CLR,,,,,,,,VFR,,,,,,,,,,,,METAR,30.0
KSMF 240753Z 15008KT 10SM FEW060 BKN110 10/06 A3010 RMK AO2 SLP192 T01000061 401560033,KSMF,2018-03-24T07:53:00Z,38.7,-121.6,10.0,6.1,150,8,,10.0,30.100393,1019.2,,,TRUE,,,,,,,FEW,6000,BKN,11000,,,,,VFR,,,,15.6,3.3,,,,,,,METAR,6.0
KSLN 240753Z AUTO 30013KT 8SM BKN012 14/13 A2968 RMK AO2 SLP042 T01390128,KSLN,2018-03-24T07:53:00Z,38.78,-97.65,13.9,12.8,300,13,,8.0,29.681103,1004.2,,TRUE,TRUE,,,,,,,BKN,1200,,,,,,,MVFR,,,,,,,,,,,,METAR,385.0
KSJC 240753Z AUTO 13009KT 10SM OVC055 10/06 A3013 RMK AO2 SLP203 T01000056 401610039,KSJC,2018-03-24T07:53:00Z,37.37,-121.92,10.0,5.6,130,9,,10.0,30.129921,1020.3,,TRUE,TRUE,,,,,,,OVC,5500,,,,,,,VFR,,,,16.1,3.9,,,,,,,METAR,24.0
KSIY 240753Z AUTO 18006KT 10SM BKN032 02/M02 A2991 RMK AO2 SLP146 T00171017 400891022,KSIY,2018-03-24T07:53:00Z,41.77,-122.47,1.7,-1.7,180,6,,10.0,29.911417,1014.6,,TRUE,TRUE,,,,,,,BKN,3200,,,,,,,VFR,,,,8.9,-2.2,,,,,,,METAR,807.0
KSHR 240753Z AUTO 00000KT 10SM CLR 01/M02 A2993 RMK AO2 SLP147 T00061017,KSHR,2018-03-24T07:53:00Z,44.77,-106.97,0.6,-1.7,0,0,,10.0,29.929134,1014.7,,TRUE,TRUE,,,,,,,CLR,,,,,,,,VFR,,,,,,,,,,,,METAR,1202.0
KSHN 240753Z AUTO 24003KT 9SM UP BKN013 OVC036 03/01 A2975 RMK AO2 UPB0655E02B34RAB02E34 SLP080 P0001 T00280011 400780028,KSHN,2018-03-24T07:53:00Z,47.23,-123.13,2.8,1.1,240,3,,9.0,29.749016,1008.0,,TRUE,TRUE,,,,,,UP,BKN,1300,OVC,3600,,,,,MVFR,,,,7.8,2.8,0.01,,,,,,METAR,82.0
KSGR 240753Z AUTO 19010KT 10SM SCT020 OVC027 22/18 A2997 RMK AO2 SLP151 T02170183,KSGR,2018-03-24T07:53:00Z,29.62,-95.65,21.7,18.3,190,10,,10.0,29.970472,1015.1,,TRUE,TRUE,,,,,,,SCT,2000,OVC,2700,,,,,MVFR,,,,,,,,,,,,METAR,2.0
KSFF 240753Z AUTO 11006KT 10SM OVC025 03/01 A2977 RMK AO2 SLP085 T00280011 401061017,KSFF,2018-03-24T07:53:00Z,47.68,-117.32,2.8,1.1,110,6,,10.0,29.769686,1008.5,,TRUE,TRUE,,,,,,,OVC,2500,,,,,,,MVFR,,,,10.6,-1.7,,,,,,,METAR,609.0
KSFB 240753Z AUTO 28003KT 10SM CLR 10/08 A3021 RMK AO2 SLP229 T01000078,KSFB,2018-03-24T07:53:00Z,28.77,-81.22,10.0,7.8,280,3,,10.0,30.209646,1022.9,,TRUE,TRUE,,,,,,,CLR,,,,,,,,VFR,,,,,,,,,,,,METAR,17.0
KSEG 240753Z AUTO 00000KT 10SM CLR M06/M07 A3017 RMK AO2 SLP223 T10561072,KSEG,2018-03-24T07:53:00Z,40.82,-76.87,-5.6,-7.2,0,0,,10.0,30.171259,1022.3,,TRUE,TRUE,,,,,,,CLR,,,,,,,,VFR,,,,,,,,,,,,METAR,134.0
KSDM 240753Z AUTO 00000KT 10SM FEW010 OVC016 13/12 A3006 RMK AO2 SLP175 T01330117 401830133 $,KSDM,2018-03-24T07:53:00Z,32.58,-117.0,13.3,11.7,0,0,,10.0,30.059055,1017.5,,TRUE,TRUE,TRUE,,,,,,FEW,1000,OVC,1600,,,,,MVFR,,,,18.3,13.3,,,,,,,METAR,159.0
KSDL 240753Z AUTO 05003KT 10SM CLR 18/M01 A2995 RMK AO2 SLP121 T01831011,KSDL,2018-03-24T07:53:00Z,33.62,-111.92,18.3,-1.1,50,3,,10.0,29.949802,1012.1,,TRUE,TRUE,,,,,,,CLR,,,,,,,,VFR,,,,,,,,,,,,METAR,447.0
KSBM 240753Z AUTO 07009KT 10SM CLR M01/M06 A3032 RMK AO2 SLP276 T10061061 TSNO,KSBM,2018-03-24T07:53:00Z,43.78,-87.85,-0.6,-6.1,70,9,,10.0,30.318897,1027.6,,TRUE,TRUE,,,TRUE,,,,CLR,,,,,,,,VFR,,,,,,,,,,,,METAR,232.0
KSBA 240753Z AUTO VRB03KT 10SM CLR 08/05 A3004 RMK AO2 SLP171 T00780050 401720072 $,KSBA,2018-03-24T07:53:00Z,34.43,-119.85,7.8,5.0,0,3,,10.0,30.041338,1017.1,,TRUE,TRUE,TRUE,,,,,,CLR,,,,,,,,VFR,,,,17.2,7.2,,,,,,,METAR,3.0
KSAV 240753Z AUTO 27004KT 10SM OVC090 12/04 A3018 RMK AO2 SLP220 T01170044,KSAV,2018-03-24T07:53:00Z,32.12,-81.2,11.7,4.4,270,4,,10.0,30.180119,1022.0,,TRUE,TRUE,,,,,,,OVC,9000,,,,,,,VFR,,,,,,,,,,,,METAR,14.0
KSAF 240753Z AUTO 01009KT 10SM CLR 03/M07 A3011 RMK AO2 SLP134 T00331072,KSAF,2018-03-24T07:53:00Z,35.62,-106.1,3.3,-7.2,10,9,,10.0,30.109253,1013.4,,TRUE,TRUE,,,,,,,CLR,,,,,,,,VFR,,,,,,,,,,,,METAR,1930.0
KSAC 240753Z AUTO 14006KT 10SM FEW080 BKN095 BKN110 09/06 A3011 RMK AO2 SLP196 T00890056 401560028,KSAC,2018-03-24T07:53:00Z,38.5,-121.5,8.9,5.6,140,6,,10.0,30.109253,1019.6,,TRUE,TRUE,,,,,,,FEW,8000,BKN,9500,BKN,11000,,,VFR,,,,15.6,2.8,,,,,,,METAR,11.0
TIST 240753Z 00000KT 10SM FEW023 21/21 A2995 RMK AO2 SLP142 T02110211 $,TIST,2018-03-24T07:53:00Z,18.33,-64.98,21.1,21.1,0,0,,10.0,29.949802,1014.2,,,TRUE,TRUE,,,,,,FEW,2300,,,,,,,VFR,,,,,,,,,,,,METAR,7.0
TISX 240753Z AUTO 36004KT 10SM CLR 22/22 A2996 RMK AO2 RAE01 SLP144 P0000 T02220222,TISX,2018-03-24T07:53:00Z,17.7,-64.8,22.2,22.2,360,4,,10.0,29.958662,1014.4,,TRUE,TRUE,,,,,,,CLR,,,,,,,,VFR,,,,,,0.005,,,,,,METAR,19.0
KLAX 240753Z 24007KT 10SM FEW008 FEW200 13/12 A3004 RMK AO2 SLP172 T01280117 401720128 $,KLAX,2018-03-24T07:53:00Z,33.93,-118.38,12.8,11.7,240,7,,10.0,30.041338,1017.2,,,TRUE,TRUE,,,,,,FEW,800,FEW,20000,,,,,VFR,,,,17.2,12.8,,,,,,,METAR,46.0
KLAW 240753Z AUTO 22006KT 10SM 18/14 A2974 RMK AO2 SLP061 T01830144 $,KLAW,2018-03-24T07:53:00Z,34.55,-98.42,18.3,14.4,220,6,,10.0,29.740158,1006.1,,TRUE,TRUE,TRUE,,,,,,,,,,,,,,,,,,,,,,,,,,METAR,337.0
KLAR 240753Z AUTO 26011KT 10SM CLR M01/M04 A3003 RMK AO2 SLP133 T10111039,KLAR,2018-03-24T07:53:00Z,41.32,-105.67,-1.1,-3.9,260,11,,10.0,30.029528,1013.3,,TRUE,TRUE,,,,,,,CLR,,,,,,,,VFR,,,,,,,,,,,,METAR,2216.0
KLAN 240753Z 02004KT 10SM CLR M05/M09 A3033 RMK AO2 SLP282 T10501089,KLAN,2018-03-24T07:53:00Z,42.78,-84.58,-5.0,-8.9,20,4,,10.0,30.33071,1028.2,,,TRUE,,,,,,,CLR,,,,,,,,VFR,,,,,,,,,,,,METAR,264.0
KLAA 240753Z AUTO 24006KT 10SM CLR 04/01 A2995 RMK AO2 SLP108 T00440011,KLAA,2018-03-24T07:53:00Z,38.07,-102.68,4.4,1.1,240,6,,10.0,29.949802,1010.8,,TRUE,TRUE,,,,,,,CLR,,,,,,,,VFR,,,,,,,,,,,,METAR,1119.0
KJKL 240753Z AUTO VRB03KT 10SM OVC080 04/M07 A3018 RMK AO2 SLP220 T00391072,KJKL,2018-03-24T07:53:00Z,37.6,-83.32,3.9,-7.2,0,3,,10.0,30.180119,1022.0,,TRUE,TRUE,,,,,,,OVC,8000,,,,,,,VFR,,,,,,,,,,,,METAR,416.0
KJER 240753Z AUTO 05011KT 10SM BKN065 BKN080 OVC100 06/00 A2981 RMK AO2 SLP091 T00560000 TSNO,KJER,2018-03-24T07:53:00Z,42.72,-114.45,5.6,0.0,50,11,,10.0,29.811024,1009.1,,TRUE,TRUE,,,TRUE,,,,BKN,6500,BKN,8000,OVC,10000,,,VFR,,,,,,,,,,,,METAR,1222.0
KJEF 240753Z AUTO 11013KT 10SM VCTS -RA OVC037 09/07 A2980 RMK AO2 LTG DSNT SE RAB10 SLP081 P0001 T00890067,KJEF,2018-03-24T07:53:00Z,38.6,-92.15,8.9,6.7,110,13,,10.0,29.799213,1008.1,,TRUE,TRUE,,,,,,VCTS -RA,OVC,3700,,,,,,,VFR,,,,,,0.01,,,,,,METAR,168.0
KJBR 240753Z AUTO 20014G24KT 10SM OVC065 19/13 A2988 RMK AO2 SLP117 T01940128,KJBR,2018-03-24T07:53:00Z,35.83,-90.65,19.4,12.8,200,14,24,10.0,29.878937,1011.7,,TRUE,TRUE,,,,,,,OVC,6500,,,,,,,VFR,,,,,,,,,,,,METAR,79.0
KIXD 240753Z AUTO 09007KT 10SM BKN026 OVC034 12/08 A2968 RMK AO2 SLP045 T01220083,KIXD,2018-03-24T07:53:00Z,38.82,-94.88,12.2,8.3,90,7,,10.0,29.681103,1004.5,,TRUE,TRUE,,,,,,,BKN,2600,OVC,3400,,,,,MVFR,,,,,,,,,,,,METAR,342.0
KITR 240753Z AUTO 33012KT 10SM CLR 07/04 A2997 RMK AO2 SLP110 T00670044,KITR,2018-03-24T07:53:00Z,39.23,-102.28,6.7,4.4,330,12,,10.0,29.970472,1011.0,,TRUE,TRUE,,,,,,,CLR,,,,,,,,VFR,,,,,,,,,,,,METAR,1279.0
KIPL 240753Z AUTO 30010KT 10SM CLR 18/06 A2991 RMK AO2 SLP127 T01830061 402830161,KIPL,2018-03-24T07:53:00Z,32.83,-115.58,18.3,6.1,300,10,,10.0,29.911417,1012.7,,TRUE,TRUE,,,,,,,CLR,,,,,,,,VFR,,,,28.3,16.1,,,,,,,METAR,-17.0
KINK 240753Z AUTO 10SM 14/07 A2992 RMK AO2 SLP089 T01390072 $,KINK,2018-03-24T07:53:00Z,31.78,-103.2,13.9,7.2,,,,10.0,29.920275,1008.9,,TRUE,TRUE,TRUE,,,,,,,,,,,,,,,,,,,,,,,,,,METAR,855.0
KIML 240753Z AUTO 32009KT 10SM CLR 06/04 A2993 RMK AO2 SLP126 T00560044,KIML,2018-03-24T07:53:00Z,40.52,-101.62,5.6,4.4,320,9,,10.0,29.929134,1012.6,,TRUE,TRUE,,,,,,,CLR,,,,,,,,VFR,,,,,,,,,,,,METAR,998.0
KILM 240753Z AUTO 00000KT 10SM CLR 02/M01 A3019 RMK AO2 SLP223 T00171006,KILM,2018-03-24T07:53:00Z,34.27,-77.9,1.7,-0.6,0,0,,10.0,30.188976,1022.3,,TRUE,TRUE,,,,,,,CLR,,,,,,,,VFR,,,,,,,,,,,,METAR,9.0
KIDA 240753Z AUTO 00000KT 10SM FEW095 01/M01 A2986 RMK AO2 SLP114 T00061006,KIDA,2018-03-24T07:53:00Z,43.52,-112.07,0.6,-0.6,0,0,,10.0,29.861221,1011.4,,TRUE,TRUE,,,,,,,FEW,9500,,,,,,,VFR,,,,,,,,,,,,METAR,1453.0
KICT 240753Z 31017G25KT 10SM FEW250 16/13 A2965 RMK AO2 SLP031 T01610133 $,KICT,2018-03-24T07:53:00Z,37.65,-97.43,16.1,13.3,310,17,25,10.0,29.648623,1003.1,,,TRUE,TRUE,,,,,,FEW,25000,,,,,,,VFR,,,,,,,,,,,,METAR,407.0
KICR 240753Z AUTO 07004KT 2SM BR BKN003 OVC007 03/02 A2992 RMK AO2 SLP140 T00330017,KICR,2018-03-24T07:53:00Z,43.38,-99.85,3.3,1.7,70,4,,2.0,29.920275,1014.0,,TRUE,TRUE,,,,,,BR,BKN,300,OVC,700,,,,,LIFR,,,,,,,,,,,,METAR,621.0
KIAH 240753Z 18010KT 10SM BKN022 BKN250 21/18 A2998 RMK AO2 SLP151 T02110178,KIAH,2018-03-24T07:53:00Z,30.0,-95.37,21.1,17.8,180,10,,10.0,29.97933,1015.1,,,TRUE,,,,,,,BKN,2200,BKN,25000,,,,,MVFR,,,,,,,,,,,,METAR,36.0
KIAG 240753Z AUTO 34007KT 10SM CLR M02/M07 A3024 RMK AO2 SLP253 T10171072,KIAG,2018-03-24T07:53:00Z,43.12,-78.93,-1.7,-7.2,340,7,,10.0,30.239174,1025.3,,TRUE,TRUE,,,,,,,CLR,,,,,,,,VFR,,,,,,,,,,,,METAR,182.0
KHZY 240753Z AUTO 00000KT 10SM CLR M05/M06 A3027 RMK AO2 SLP259 I1000 T10501061,KHZY,2018-03-24T07:53:00Z,41.78,-80.7,-5.0,-6.1,0,0,,10.0,30.268702,1025.9,,TRUE,TRUE,,,,,,,CLR,,,,,,,,VFR,,,,,,,,,,,,METAR,276.0
KHYR 240753Z AUTO 08007KT 10SM CLR M04/M13 A3030 RMK AO2 SLP276 T10441128,KHYR,2018-03-24T07:53:00Z,46.02,-91.45,-4.4,-12.8,80,7,,10.0,30.301182,1027.6,,TRUE,TRUE,,,,,,,CLR,,,,,,,,VFR,,,,,,,,,,,,METAR,370.0
KHWO 240753Z AUTO 35004KT 10SM CLR 16/07 A3019 RMK AO2 SLP224 T01610067,KHWO,2018-03-24T07:53:00Z,26.0,-80.23,16.1,6.7,350,4,,10.0,30.188976,1022.4,,TRUE,TRUE,,,,,,,CLR,,,,,,,,VFR,,,,,,,,,,,,METAR,2.0
KHVR 240753Z AUTO 08009KT 10SM BKN090 OVC110 M03/M03 A2988 RMK AO2 SLP145 T10281033,KHVR,2018-03-24T07:53:00Z,48.55,-109.77,-2.8,-3.3,80,9,,10.0,29.878937,1014.5,,TRUE,TRUE,,,,,,,BKN,9000,OVC,11000,,,,,VFR,,,,,,,,,,,,METAR,787.0
KHVN 240753Z AUTO 34006KT 10SM SCT085 03/M06 A3004 RMK AO2 SLP171 T00331056,KHVN,2018-03-24T07:53:00Z,41.27,-72.87,3.3,-5.6,340,6,,10.0,30.041338,1017.1,,TRUE,TRUE,,,,,,,SCT,8500,,,,,,,VFR,,,,,,,,,,,,METAR,4.0
KHUL 240753Z AUTO 00000KT 10SM CLR M04/M08 A2993 RMK AO2 SLP143 T10441078,KHUL,2018-03-24T07:53:00Z,46.12,-67.8,-4.4,-7.8,0,0,,10.0,29.929134,1014.3,,TRUE,TRUE,,,,,,,CLR,,,,,,,,VFR,,,,,,,,,,,,METAR,150.0
KHUF 240753Z 11015KT 8SM -SN OVC020 03/00 A3016 RMK AO2 RAE52SNB52 SLP215 P0004 T00330000,KHUF,2018-03-24T07:53:00Z,39.45,-87.3,3.3,0.0,110,15,,8.0,30.159449,1021.5,,,TRUE,,,,,,-SN,OVC,2000,,,,,,,MVFR,,,,,,0.04,,,,,,METAR,179.0
KHTL 240753Z AUTO 04004KT 10SM CLR M06/M12 A3035 RMK AO2 SLP293 T10611117,KHTL,2018-03-24T07:53:00Z,44.35,-84.67,-6.1,-11.7,40,4,,10.0,30.351377,1029.3,,TRUE,TRUE,,,,,,,CLR,,,,,,,,VFR,,,,,,,,,,,,METAR,351.0
KHSV 240753Z 14006KT 10SM BKN080 10/06 A3007 RMK AO2 SLP179 T01000061,KHSV,2018-03-24T07:53:00Z,34.65,-86.78,10.0,6.1,140,6,,10.0,30.070866,1017.9,,,TRUE,,,,,,,BKN,8000,,,,,,,VFR,,,,,,,,,,,,METAR,191.0
KHSI 240753Z AUTO 36012KT 4SM BR OVC005 06/05 A2982 RMK AO2 CIG 003V007 SLP098 T00560050,KHSI,2018-03-24T07:53:00Z,40.6,-98.43,5.6,5.0,360,12,,4.0,29.819881,1009.8,,TRUE,TRUE,,,,,,BR,OVC,500,,,,,,,IFR,,,,,,,,,,,,METAR,591.0
KHRO 240753Z AUTO 17007KT 10SM OVC039 17/12 A2980 RMK AO2 SLP081 T01720117,KHRO,2018-03-24T07:53:00Z,36.27,-93.15,17.2,11.7,170,7,,10.0,29.799213,1008.1,,TRUE,TRUE,,,,,,,OVC,3900,,,,,,,VFR,,,,,,,,,,,,METAR,417.0
KOSU 240753Z AUTO 05003KT 10SM CLR M03/M07 A3027 RMK AO2 SLP257 T10281067,KOSU,2018-03-24T07:53:00Z,40.08,-83.08,-2.8,-6.7,50,3,,10.0,30.268702,1025.7,,TRUE,TRUE,,,,,,,CLR,,,,,,,,VFR,,,,,,,,,,,,METAR,280.0
KOSH 240753Z AUTO 04012KT 10SM CLR M04/M07 A3031 RMK AO2 SLP279 T10391067,KOSH,2018-03-24T07:53:00Z,43.97,-88.55,-3.9,-6.7,40,12,,10.0,30.31004,1027.9,,TRUE,TRUE,,,,,,,CLR,,,,,,,,VFR,,,,,,,,,,,,METAR,248.0
KORL 240753Z AUTO 00000KT 10SM CLR 13/08 A3021 RMK AO2 SLP233 T01280083,KORL,2018-03-24T07:53:00Z,28.55,-81.33,12.8,8.3,0,0,,10.0,30.209646,1023.3,,TRUE,TRUE,,,,,,,CLR,,,,,,,,VFR,,,,,,,,,,,,METAR,37.0
KOPF 240753Z AUTO 35004KT 10SM CLR 16/07 A3019 RMK AO2 SLP223 T01610072,KOPF,2018-03-24T07:53:00Z,25.92,-80.28,16.1,7.2,350,4,,10.0,30.188976,1022.3,,TRUE,TRUE,,,,,,,CLR,,,,,,,,VFR,,,,,,,,,,,,METAR,16.0
KONT 240753Z 27005KT 10SM SCT250 11/09 A3004 RMK AO2 SLP168 T01110089 402110111,KONT,2018-03-24T07:53:00Z,34.05,-117.58,11.1,8.9,270,5,,10.0,30.041338,1016.8,,,TRUE,,,,,,,SCT,25000,,,,,,,VFR,,,,21.1,11.1,,,,,,,METAR,274.0
KONO 240753Z AUTO 16004KT 10SM CLR 04/M01 A2979 RMK AO2 SLP092 T00391006 TSNO,KONO,2018-03-24T07:53:00Z,44.02,-117.02,3.9,-0.6,160,4,,10.0,29.790354,1009.2,,TRUE,TRUE,,,TRUE,,,,CLR,,,,,,,,VFR,,,,,,,,,,,,METAR,667.0
KOMK 240753Z AUTO 19003KT 10SM BKN038 OVC049 04/M01 A2975 RMK AO2 SLP086 T00391011 400941011,KOMK,2018-03-24T07:53:00Z,48.47,-119.52,3.9,-1.1,190,3,,10.0,29.749016,1008.6,,TRUE,TRUE,,,,,,,BKN,3800,OVC,4900,,,,,VFR,,,,9.4,-1.1,,,,,,,METAR,395.0
KOLF 240753Z AUTO 23006KT 10SM OVC015 01/M01 A2999 RMK AO2 SLP176 T00061011,KOLF,2018-03-24T07:53:00Z,48.1,-105.58,0.6,-1.1,230,6,,10.0,29.991142,1017.6,,TRUE,TRUE,,,,,,,OVC,1500,,,,,,,MVFR,,,,,,,,,,,,METAR,604.0
KOJC 240753Z AUTO 11006KT 10SM BKN024 OVC029 11/08 A2967 RMK AO2 SLP046 T01110078,KOJC,2018-03-24T07:53:00Z,38.85,-94.73,11.1,7.8,110,6,,10.0,29.66929,1004.6,,TRUE,TRUE,,,,,,,BKN,2400,OVC,2900,,,,,MVFR,,,,,,,,,,,,METAR,326.0
KOGD 240753Z AUTO 16010KT 10SM CLR 06/M02 A2987 RMK AO2 SLP099 T00611017,KOGD,2018-03-24T07:53:00Z,41.2,-112.02,6.1,-1.7,160,10,,10.0,29.870079,1009.9,,TRUE,TRUE,,,,,,,CLR,,,,,,,,VFR,,,,,,,,,,,,METAR,1353.0
KOGB 240753Z AUTO 33004KT 10SM OVC075 12/02 A3017 RMK AO2 SLP217 T01170017,KOGB,2018-03-24T07:53:00Z,33.47,-80.85,11.7,1.7,330,4,,10.0,30.171259,1021.7,,TRUE,TRUE,,,,,,,OVC,7500,,,,,,,VFR,,,,,,,,,,,,METAR,59.0
KODO 240753Z AUTO 23007KT 10SM CLR 18/14 A2994 RMK AO2 SLP097 T01780139 $,KODO,2018-03-24T07:53:00Z,31.92,-102.4,17.8,13.9,230,7,,10.0,29.940945,1009.7,,TRUE,TRUE,TRUE,,,,,,CLR,,,,,,,,VFR,,,,,,,,,,,,METAR,902.0
KOAK 240753Z 17015KT 10SM SCT030 BKN040 BKN060 11/07 A3012 RMK AO2 SLP197 T01110067 401500044,KOAK,2018-03-24T07:53:00Z,37.72,-122.23,11.1,6.7,170,15,,10.0,30.121063,1019.7,,,TRUE,,,,,,,SCT,3000,BKN,4000,BKN,6000,,,VFR,,,,15.0,4.4,,,,,,,METAR,26.0
KNEW 240753Z AUTO 16005KT 10SM CLR 18/16 A3009 RMK AO2 SLP184 T01780156 $,KNEW,2018-03-24T07:53:00Z,30.05,-90.03,17.8,15.6,160,5,,10.0,30.088583,1018.4,,TRUE,TRUE,TRUE,,,,,,CLR,,,,,,,,VFR,,,,,,,,,,,,METAR,3.0
KMYV 240753Z AUTO 16010G27KT 10SM BKN044 OVC060 09/07 A3009 RMK AO2 PK WND 23027/0747 SLP193 T00940067 401560050,KMYV,2018-03-24T07:53:00Z,39.1,-121.57,9.4,6.7,160,10,27,10.0,30.088583,1019.3,,TRUE,TRUE,,,,,,,BKN,4400,OVC,6000,,,,,VFR,,,,15.6,5.0,,,,,,,METAR,21.0
KMYF 240753Z AUTO 04003KT 10SM BKN013 OVC018 14/11 A3006 RMK AO2 SLP176 T01440111 402000133,KMYF,2018-03-24T07:53:00Z,32.82,-117.13,14.4,11.1,40,3,,10.0,30.059055,1017.6,,TRUE,TRUE,,,,,,,BKN,1300,OVC,1800,,,,,MVFR,,,,20.0,13.3,,,,,,,METAR,136.0
KMWL 240753Z AUTO 17010KT 10SM CLR 19/15 A2982 RMK AO2 SLP085 T01890150,KMWL,2018-03-24T07:53:00Z,32.78,-98.07,18.9,15.0,170,10,,10.0,29.819881,1008.5,,TRUE,TRUE,,,,,,,CLR,,,,,,,,VFR,,,,,,,,,,,,METAR,284.0
KMVY 240753Z AUTO 29004KT 10SM CLR M05/M06 A2995 RMK AO2 SLP143 T10501061 $,KMVY,2018-03-24T07:53:00Z,41.4,-70.62,-5.0,-6.1,290,4,,10.0,29.949802,1014.3,,TRUE,TRUE,TRUE,,,,,,CLR,,,,,,,,VFR,,,,,,,,,,,,METAR,16.0
KMTO 240753Z AUTO 10014KT 5SM -RA BR OVC031 03/02 A3008 RMK AO2 SLP188 P0002 T00280017,KMTO,2018-03-24T07:53:00Z,39.47,-88.27,2.8,1.7,100,14,,5.0,30.079725,1018.8,,TRUE,TRUE,,,,,,-RA BR,OVC,3100,,,,,,,MVFR,,,,,,0.02,,,,,,METAR,214.0
KMTJ 240753Z AUTO 13009KT 10SM CLR 03/M02 A3010 RMK AO2 SLP159 T00331022,KMTJ,2018-03-24T07:53:00Z,38.5,-107.9,3.3,-2.2,130,9,,10.0,30.100393,1015.9,,TRUE,TRUE,,,,,,,CLR,,,,,,,,VFR,,,,,,,,,,,,METAR,1750.0
KMTH 240753Z AUTO 02007KT 10SM CLR 19/11 A3017 RMK AO2 SLP217 T01940111 $,KMTH,2018-03-24T07:53:00Z,24.73,-81.05,19.4,11.1,20,7,,10.0,30.171259,1021.7,,TRUE,TRUE,TRUE,,,,,,CLR,,,,,,,,VFR,,,,,,,,,,,,METAR,2.0
KMSY 240753Z 16006KT 10SM FEW120 BKN250 18/17 A3008 RMK AO2 SLP188 T01830167,KMSY,2018-03-24T07:53:00Z,30.0,-90.25,18.3,16.7,160,6,,10.0,30.079725,1018.8,,,TRUE,,,,,,,FEW,12000,BKN,25000,,,,,VFR,,,,,,,,,,,,METAR,5.0
KMSS 240753Z AUTO 32006KT 10SM CLR M02/M09 A3018 RMK AO2 SLP223 T10171089,KMSS,2018-03-24T07:53:00Z,44.93,-74.85,-1.7,-8.9,320,6,,10.0,30.180119,1022.3,,TRUE,TRUE,,,,,,,CLR,,,,,,,,VFR,,,,,,,,,,,,METAR,66.0
KMSP 240753Z 09015KT 10SM OVC090 02/M09 A3018 RMK AO2 SLP226 T00171094,KMSP,2018-03-24T07:53:00Z,44.88,-93.23,1.7,-9.4,90,15,,10.0,30.180119,1022.6,,,TRUE,,,,,,,OVC,9000,,,,,,,VFR,,,,,,,,,,,,METAR,265.0
KMSO 240753Z AUTO 13014KT 10SM BKN090 BKN120 03/M02 A2979 RMK AO2 SLP101 T00331022,KMSO,2018-03-24T07:53:00Z,46.92,-114.1,3.3,-2.2,130,14,,10.0,29.790354,1010.1,,TRUE,TRUE,,,,,,,BKN,9000,BKN,12000,,,,,VFR,,,,,,,,,,,,METAR,975.0
KMSN 240753Z AUTO 08011KT 10SM CLR M02/M06 A3024 RMK AO2 SLP250 T10171061,KMSN,2018-03-24T07:53:00Z,43.13,-89.35,-1.7,-6.1,80,11,,10.0,30.239174,1025.0,,TRUE,TRUE,,,,,,,CLR,,,,,,,,VFR,,,,,,,,,,,,METAR,261.0
KMSL 240753Z AUTO 16006KT 10SM OVC080 13/06 A3003 RMK AO2 SLP168 T01280061,KMSL,2018-03-24T07:53:00Z,34.75,-87.6,12.8,6.1,160,6,,10.0,30.029528,1016.8,,TRUE,TRUE,,,,,,,OVC,8000,,,,,,,VFR,,,,,,,,,,,,METAR,164.0
KMRB 240753Z AUTO 31005KT 10SM CLR 00/M08 A3019 RMK AO2 SLP226 T00001078,KMRB,2018-03-24T07:53:00Z,39.4,-77.98,0.0,-7.8,310,5,,10.0,30.188976,1022.6,,TRUE,TRUE,,,,,,,CLR,,,,,,,,VFR,,,,,,,,,,,,METAR,164.0
KMPO 240753Z AUTO 31007KT 10SM CLR M04/M09 A3004 RMK AO2 SLP194 T10441089,KMPO,2018-03-24T07:53:00Z,41.13,-75.38,-4.4,-8.9,310,7,,10.0,30.041338,1019.4,,TRUE,TRUE,,,,,,,CLR,,,,,,,,VFR,,,,,,,,,,,,METAR,577.0
KMOD 240753Z AUTO 00000KT 10SM CLR 07/04 A3011 RMK AO2 SLP198 T00720044 401670039,KMOD,2018-03-24T07:53:00Z,37.62,-120.95,7.2,4.4,0,0,,10.0,30.109253,1019.8,,TRUE,TRUE,,,,,,,CLR,,,,,,,,VFR,,,,16.7,3.9,,,,,,,METAR,29.0
KMNN 240753Z AUTO 02003KT 10SM CLR M06/M08 A3028 RMK AO2 SLP264 T10611083 $,KMNN,2018-03-24T07:53:00Z,40.62,-83.07,-6.1,-8.3,20,3,,10.0,30.280512,1026.4,,TRUE,TRUE,TRUE,,,,,,CLR,,,,,,,,VFR,,,,,,,,,,,,METAR,301.0
KMMV 240753Z AUTO 21007KT 10SM -RA BKN012 OVC036 02/02 A2983 RMK AO2 RAB00 SLP100 P0001 T00220022 400560011,KMMV,2018-03-24T07:53:00Z,45.2,-123.13,2.2,2.2,210,7,,10.0,29.828741,1010.0,,TRUE,TRUE,,,,,,-RA,BKN,1200,OVC,3600,,,,,MVFR,,,,5.6,1.1,0.01,,,,,,METAR,48.0
KRXE 240753Z AUTO 34003KT 10SM CLR 01/M01 A2986 RMK AO2 SLP112 T00061011,KRXE,2018-03-24T07:53:00Z,43.83,-111.8,0.6,-1.1,340,3,,10.0,29.861221,1011.2,,TRUE,TRUE,,,,,,,CLR,,,,,,,,VFR,,,,,,,,,,,,METAR,1480.0
KRWL 240753Z AUTO 24007KT 10SM CLR M01/M07 A3004 RMK AO2 SLP155 T10111067,KRWL,2018-03-24T07:53:00Z,41.78,-107.2,-1.1,-6.7,240,7,,10.0,30.041338,1015.5,,TRUE,TRUE,,,,,,,CLR,,,,,,,,VFR,,,,,,,,,,,,METAR,2077.0
KRWI 240753Z AUTO 03003KT 10SM CLR 01/M04 A3021 RMK AO2 SLP232 T00111044,KRWI,2018-03-24T07:53:00Z,35.85,-77.9,1.1,-4.4,30,3,,10.0,30.209646,1023.2,,TRUE,TRUE,,,,,,,CLR,,,,,,,,VFR,,,,,,,,,,,,METAR,47.0
KRWF 240753Z AUTO 09013G19KT 3/4SM -SN BR OVC003 M01/M01 A3007 RMK AO2 SLP195 P0004 T10061011,KRWF,2018-03-24T07:53:00Z,44.55,-95.08,-0.6,-1.1,90,13,19,0.75,30.070866,1019.5,,TRUE,TRUE,,,,,,-SN BR,OVC,300,,,,,,,LIFR,,,,,,0.04,,,,,,METAR,311.0
KRVS 240753Z AUTO 19008KT 10SM CLR 20/15 A2970 RMK AO2 SLP062 T02000150,KRVS,2018-03-24T07:53:00Z,36.05,-95.98,20.0,15.0,190,8,,10.0,29.698818,1006.2,,TRUE,TRUE,,,,,,,CLR,,,,,,,,VFR,,,,,,,,,,,,METAR,200.0
KRUE 240753Z AUTO 18006KT 10SM OVC045 19/13 A2983 RMK AO2 SLP093 T01890128,KRUE,2018-03-24T07:53:00Z,35.25,-93.1,18.9,12.8,180,6,,10.0,29.828741,1009.3,,TRUE,TRUE,,,,,,,OVC,4500,,,,,,,VFR,,,,,,,,,,,,METAR,115.0
KRTN 240753Z AUTO 04008KT 10SM CLR 02/M10 A3005 RMK AO2 SLP123 T00171100,KRTN,2018-03-24T07:53:00Z,36.73,-104.5,1.7,-10.0,40,8,,10.0,30.050198,1012.3,,TRUE,TRUE,,,,,,,CLR,,,,,,,,VFR,,,,,,,,,,,,METAR,1936.0
KRSW 240753Z AUTO 00000KT 10SM CLR 11/07 A3019 RMK AO2 SLP221 T01110067,KRSW,2018-03-24T07:53:00Z,26.53,-81.75,11.1,6.7,0,0,,10.0,30.188976,1022.1,,TRUE,TRUE,,,,,,,CLR,,,,,,,,VFR,,,,,,,,,,,,METAR,10.0
KRSL 240753Z AUTO 33026G30KT 7SM BKN009 08/07 A2977 RMK AO2 PK WND 33030/0751 SLP073 T00780072,KRSL,2018-03-24T07:53:00Z,38.87,-98.82,7.8,7.2,330,26,30,7.0,29.769686,1007.3,,TRUE,TRUE,,,,,,,BKN,900,,,,,,,IFR,,,,,,,,,,,,METAR,567.0
KRQE 240753Z AUTO 00000KT 10SM CLR 02/M08 A3013 RMK AO2 SLP143 T00171078 TSNO,KRQE,2018-03-24T07:53:00Z,35.65,-109.07,1.7,-7.8,0,0,,10.0,30.129921,1014.3,,TRUE,TRUE,,,TRUE,,,,CLR,,,,,,,,VFR,,,,,,,,,,,,METAR,2055.0
KRNT 240753Z AUTO 00000KT 10SM -RA FEW013 BKN019 OVC027 06/04 A2977 RMK AO2 RAB0656 SLP085 P0000 T00560039 400940028,KRNT,2018-03-24T07:53:00Z,47.5,-122.22,5.6,3.9,0,0,,10.0,29.769686,1008.5,,TRUE,TRUE,,,,,,-RA,FEW,1300,BKN,1900,OVC,2700,,,MVFR,,,,9.4,2.8,0.005,,,,,,METAR,21.0
KRNM 240753Z AUTO 28004KT 10SM OVC010 12/11 A3005 RMK AO2 SLP169 T01170111 402000111,KRNM,2018-03-24T07:53:00Z,33.03,-116.92,11.7,11.1,280,4,,10.0,30.050198,1016.9,,TRUE,TRUE,,,,,,,OVC,1000,,,,,,,MVFR,,,,20.0,11.1,,,,,,,METAR,427.0
KRMG 240753Z AUTO 36003KT 10SM OVC095 11/03 A3013 RMK AO2 SLP199 T01060033,KRMG,2018-03-24T07:53:00Z,34.35,-85.17,10.6,3.3,360,3,,10.0,30.129921,1019.9,,TRUE,TRUE,,,,,,,OVC,9500,,,,,,,VFR,,,,,,,,,,,,METAR,193.0
KRME 240753Z AUTO 32004KT 10SM CLR M05/M07 A3014 RMK AO2 SLP211 T10501067,KRME,2018-03-24T07:53:00Z,43.22,-75.4,-5.0,-6.7,320,4,,10.0,30.138779,1021.1,,TRUE,TRUE,,,,,,,CLR,,,,,,,,VFR,,,,,,,,,,,,METAR,154.0
KRKP 240753Z AUTO 16011G19KT 6SM BR BKN024 22/19 A2993 RMK AO2 SLP135 T02170194,KRKP,2018-03-24T07:53:00Z,28.08,-97.05,21.7,19.4,160,11,19,6.0,29.929134,1013.5,,TRUE,TRUE,,,,,,BR,BKN,2400,,,,,,,MVFR,,,,,,,,,,,,METAR,6.0
KRIW 240753Z AUTO 23008KT 10SM CLR 01/M12 A2996 RMK AO2 SLP132 T00061122,KRIW,2018-03-24T07:53:00Z,43.07,-108.47,0.6,-12.2,230,8,,10.0,29.958662,1013.2,,TRUE,TRUE,,,,,,,CLR,,,,,,,,VFR,,,,,,,,,,,,METAR,1697.0
KRIL 240753Z AUTO 15003KT 10SM CLR 02/02 A3008 RMK AO2 SLP174 T00220017,KRIL,2018-03-24T07:53:00Z,39.53,-107.73,2.2,1.7,150,3,,10.0,30.079725,1017.4,,TRUE,TRUE,,,,,,,CLR,,,,,,,,VFR,,,,,,,,,,,,METAR,1678.0
KRHI 240753Z AUTO 08009KT 10SM CLR M08/M12 A3031 RMK AO2 SLP289 T10781122,KRHI,2018-03-24T07:53:00Z,45.63,-89.48,-7.8,-12.2,80,9,,10.0,30.31004,1028.9,,TRUE,TRUE,,,,,,,CLR,,,,,,,,VFR,,,,,,,,,,,,METAR,485.0
KRDD 240753Z AUTO 20010KT 10SM OVC090 08/06 A3000 RMK AO2 RAE18 SLP157 P0002 T00830056 401440017,KRDD,2018-03-24T07:53:00Z,40.52,-122.3,8.3,5.6,200,10,,10.0,30.0,1015.7,,TRUE,TRUE,,,,,,,OVC,9000,,,,,,,VFR,,,,14.4,1.7,0.02,,,,,,METAR,155.0
KRBG 240753Z AUTO 17005KT 10SM FEW048 OVC075 03/01 A2993 RMK AO2 SLP139 T00330011 400720022,KRBG,2018-03-24T07:53:00Z,43.23,-123.35,3.3,1.1,170,5,,10.0,29.929134,1013.9,,TRUE,TRUE,,,,,,,FEW,4800,OVC,7500,,,,,VFR,,,,7.2,2.2,,,,,,,METAR,154.0
KRBD 240753Z AUTO 19011G22KT 10SM CLR 19/15 A2984 RMK AO2 SLP100 T01940150,KRBD,2018-03-24T07:53:00Z,32.68,-96.87,19.4,15.0,190,11,22,10.0,29.840551,1010.0,,TRUE,TRUE,,,,,,,CLR,,,,,,,,VFR,,,,,,,,,,,,METAR,203.0
KRAL 240753Z AUTO 00000KT 10SM CLR 12/10 A3004 RMK AO2 SLP161 T01170100 402110111,KRAL,2018-03-24T07:53:00Z,33.95,-117.45,11.7,10.0,0,0,,10.0,30.041338,1016.1,,TRUE,TRUE,,,,,,,CLR,,,,,,,,VFR,,,,21.1,11.1,,,,,,,METAR,252.0
KRAC 240753Z AUTO 10009KT 10SM CLR 02/M02 A3027 RMK AO2 SLP257 T00171017,KRAC,2018-03-24T07:53:00Z,42.77,-87.82,1.7,-1.7,100,9,,10.0,30.268702,1025.7,,TRUE,TRUE,,,,,,,CLR,,,,,,,,VFR,,,,,,,,,,,,METAR,203.0
KPWA 240753Z AUTO 21014KT 10SM CLR 20/15 A2971 RMK AO2 SLP049 T02000150,KPWA,2018-03-24T07:53:00Z,35.53,-97.65,20.0,15.0,210,14,,10.0,29.71063,1004.9,,TRUE,TRUE,,,,,,,CLR,,,,,,,,VFR,,,,,,,,,,,,METAR,397.0
KPUW 240753Z AUTO 00000KT 10SM FEW110 02/00 A2973 RMK AO2 SLP080 T00170000 400940000,KPUW,2018-03-24T07:53:00Z,46.75,-117.12,1.7,0.0,0,0,,10.0,29.731298,1008.0,,TRUE,TRUE,,,,,,,FEW,11000,,,,,,,VFR,,,,9.4,,,,,,,,METAR,773.0
KPUB 240753Z AUTO 03005KT 10SM CLR 04/M02 A3000 RMK AO2 SLP124 T00391022,KPUB,2018-03-24T07:53:00Z,38.28,-104.5,3.9,-2.2,30,5,,10.0,30.0,1012.4,,TRUE,TRUE,,,,,,,CLR,,,,,,,,VFR,,,,,,,,,,,,METAR,1420.0
KPTK 240753Z AUTO 00000KT 10SM CLR M05/M08 A3030 RMK AO2 SLP271 T10501078,KPTK,2018-03-24T07:53:00Z,42.67,-83.42,-5.0,-7.8,0,0,,10.0,30.301182,1027.1,,TRUE,TRUE,,,,,,,CLR,,,,,,,,VFR,,,,,,,,,,,,METAR,299.0
KPSX 240753Z AUTO 17012KT 9SM OVC020 22/21 A2996 RMK AO2 SLP143 T02170206,KPSX,2018-03-24T07:53:00Z,28.72,-96.25,21.7,20.6,170,12,,9.0,29.958662,1014.3,,TRUE,TRUE,,,,,,,OVC,2000,,,,,,,MVFR,,,,,,,,,,,,METAR,5.0
KPSP 240753Z AUTO 17003KT 10SM CLR 18/08 A2993 RMK AO2 SLP133 T01780083 402780133,KPSP,2018-03-24T07:53:00Z,33.82,-116.5,17.8,8.3,170,3,,10.0,29.929134,1013.3,,TRUE,TRUE,,,,,,,CLR,,,,,,,,VFR,,,,27.8,13.3,,,,,,,METAR,135.0
KPSC 240753Z AUTO 13008KT 10SM -RA FEW037 OVC044 06/04 A2975 RMK AO2 SLP075 P0006 T00560039 401391028,KPSC,2018-03-24T07:53:00Z,46.27,-119.12,5.6,3.9,130,8,,10.0,29.749016,1007.5,,TRUE,TRUE,,,,,,-RA,FEW,3700,OVC,4400,,,,,VFR,,,,13.9,-2.8,0.06,,,,,,METAR,121.0
KCUB 240753Z AUTO 00000KT 10SM OVC075 12/M02 A3020 RMK AO2 SLP224 T01221022 $,KCUB,2018-03-24T07:53:00Z,33.97,-81.0,12.2,-2.2,0,0,,10.0,30.200787,1022.4,,TRUE,TRUE,TRUE,,,,,,OVC,7500,,,,,,,VFR,,,,,,,,,,,,METAR,56.0
KCSV 240753Z AUTO 12005KT 9SM RA OVC060 05/02 A3012 RMK AO2 RAB0658E08B28 SLP200 P0003 T00500017,KCSV,2018-03-24T07:53:00Z,35.95,-85.08,5.0,1.7,120,5,,9.0,30.121063,1020.0,,TRUE,TRUE,,,,,,RA,OVC,6000,,,,,,,VFR,,,,,,0.03,,,,,,METAR,570.0
KCSM 240753Z AUTO 28010KT 10SM CLR 15/10 A2977 RMK AO2 SLP064 T01500100,KCSM,2018-03-24T07:53:00Z,35.35,-99.2,15.0,10.0,280,10,,10.0,29.769686,1006.4,,TRUE,TRUE,,,,,,,CLR,,,,,,,,VFR,,,,,,,,,,,,METAR,588.0
KCRS 240753Z AUTO 19013G18KT 10SM BKN022 OVC038 19/16 A2991 RMK AO2 SLP123 T01890156,KCRS,2018-03-24T07:53:00Z,32.03,-96.4,18.9,15.6,190,13,18,10.0,29.911417,1012.3,,TRUE,TRUE,,,,,,,BKN,2200,OVC,3800,,,,,MVFR,,,,,,,,,,,,METAR,133.0
KCRQ 240753Z AUTO 00000KT 10SM OVC014 14/12 A3005 RMK AO2 SLP174 T01390117 401780139,KCRQ,2018-03-24T07:53:00Z,33.13,-117.28,13.9,11.7,0,0,,10.0,30.050198,1017.4,,TRUE,TRUE,,,,,,,OVC,1400,,,,,,,MVFR,,,,17.8,13.9,,,,,,,METAR,99.0
KCRG 240753Z AUTO 00000KT 8SM CLR 09/08 A3020 RMK AO2 SLP225 T00890083,KCRG,2018-03-24T07:53:00Z,30.33,-81.52,8.9,8.3,0,0,,8.0,30.200787,1022.5,,TRUE,TRUE,,,,,,,CLR,,,,,,,,VFR,,,,,,,,,,,,METAR,13.0
KCRE 240753Z AUTO 00000KT 10SM OVC110 05/01 A3019 RMK AO1 SLP224 T00500011,KCRE,2018-03-24T07:53:00Z,33.82,-78.72,5.0,1.1,0,0,,10.0,30.188976,1022.4,,TRUE,TRUE,,,,,,,OVC,11000,,,,,,,VFR,,,,,,,,,,,,METAR,10.0
KCPS 240753Z AUTO 12009KT 6SM -RA BR OVC007 07/05 A2994 RMK AO2 RAB04 SLP141 P0001 T00670050 TSNO,KCPS,2018-03-24T07:53:00Z,38.57,-90.15,6.7,5.0,120,9,,6.0,29.940945,1014.1,,TRUE,TRUE,,,TRUE,,,-RA BR,OVC,700,,,,,,,IFR,,,,,,0.01,,,,,,METAR,126.0
KCPR 240753Z AUTO 00000KT 10SM SCT002 00/00 A2999 RMK AO2 SLP144 T00000000,KCPR,2018-03-24T07:53:00Z,42.9,-106.47,0.0,0.0,0,0,,10.0,29.991142,1014.4,,TRUE,TRUE,,,,,,,SCT,200,,,,,,,VFR,,,,,,,,,,,,METAR,1621.0
KCOT 240753Z AUTO 13005KT 10SM -RA OVC019 21/17 A2991 RMK AO2 SLP122 P0000 T02060172,KCOT,2018-03-24T07:53:00Z,28.45,-99.22,20.6,17.2,130,5,,10.0,29.911417,1012.2,,TRUE,TRUE,,,,,,-RA,OVC,1900,,,,,,,MVFR,,,,,,0.005,,,,,,METAR,140.0
KCNO 240753Z AUTO 00000KT 9SM CLR 12/09 A3005 RMK AO2 SLP173 T01170094 402220117,KCNO,2018-03-24T07:53:00Z,33.98,-117.62,11.7,9.4,0,0,,9.0,30.050198,1017.3,,TRUE,TRUE,,,,,,,CLR,,,,,,,,VFR,,,,22.2,11.7,,,,,,,METAR,207.0
KCNM 240753Z AUTO 26003KT 10SM CLR 17/M01 A2994 RMK AO2 SLP087 T01671011 $,KCNM,2018-03-24T07:53:00Z,32.33,-104.25,16.7,-1.1,260,3,,10.0,29.940945,1008.7,,TRUE,TRUE,TRUE,,,,,,CLR,,,,,,,,VFR,,,,,,,,,,,,METAR,985.0
KCMX 240753Z AUTO 10010KT 10SM CLR M05/M11 A3042 RMK AO2 SLP319 T10501111,KCMX,2018-03-24T07:53:00Z,47.17,-88.48,-5.0,-11.1,100,10,,10.0,30.41929,1031.9,,TRUE,TRUE,,,,,,,CLR,,,,,,,,VFR,,,,,,,,,,,,METAR,326.0
KCMI 240753Z AUTO 09015KT 2 1/2SM -SN BR OVC041 01/01 A3013 RMK AO2 PK WND 10026/0702 SLP206 P0005 T00060006,KCMI,2018-03-24T07:53:00Z,40.03,-88.27,0.6,0.6,90,15,,2.5,30.129921,1020.6,,TRUE,TRUE,,,,,,-SN BR,OVC,4100,,,,,,,IFR,,,,,,0.05,,,,,,METAR,228.0
KCLM 240753Z AUTO 24007KT 10SM BKN025 03/01 A2977 RMK AO2 SLP083 T00280011 400720006,KCLM,2018-03-24T07:53:00Z,48.12,-123.5,2.8,1.1,240,7,,10.0,29.769686,1008.3,,TRUE,TRUE,,,,,,,BKN,2500,,,,,,,MVFR,,,,7.2,0.6,,,,,,,METAR,85.0
KCLL 240753Z AUTO 17011KT 10SM BKN022 BKN028 20/17 A2994 RMK AO2 SLP135 T02000172,KCLL,2018-03-24T07:53:00Z,30.58,-96.37,20.0,17.2,170,11,,10.0,29.940945,1013.5,,TRUE,TRUE,,,,,,,BKN,2200,BKN,2800,,,,,MVFR,,,,,,,,,,,,METAR,96.0
KCKB 240753Z AUTO 00000KT 10SM CLR M03/M08 A3022 RMK AO2 SLP240 T10331078,KCKB,2018-03-24T07:53:00Z,39.3,-80.22,-3.3,-7.8,0,0,,10.0,30.221457,1024.0,,TRUE,TRUE,,,,,,,CLR,,,,,,,,VFR,,,,,,,,,,,,METAR,360.0
KCHO 240753Z AUTO 00000KT 10SM CLR 01/M07 A3020 RMK AO2 SLP230 T00061072,KCHO,2018-03-24T07:53:00Z,38.13,-78.45,0.6,-7.2,0,0,,10.0,30.200787,1023.0,,TRUE,TRUE,,,,,,,CLR,,,,,,,,VFR,,,,,,,,,,,,METAR,192.0
KCHA 240753Z AUTO 01004KT 10SM OVC090 09/01 A3015 RMK AO2 SLP207 T00890011,KCHA,2018-03-24T07:53:00Z,35.03,-85.2,8.9,1.1,10,4,,10.0,30.15059,1020.7,,TRUE,TRUE,,,,,,,OVC,9000,,,,,,,VFR,,,,,,,,,,,,METAR,210.0
KCGI 240753Z AUTO 10012KT 10SM OVC055 09/06 A2994 RMK AO2 SLP138 T00940056,KCGI,2018-03-24T07:53:00Z,37.23,-89.58,9.4,5.6,100,12,,10.0,29.940945,1013.8,,TRUE,TRUE,,,,,,,OVC,5500,,,,,,,VFR,,,,,,,,,,,,METAR,102.0
KCEZ 240753Z AUTO 00000KT 10SM CLR M03/M06 A3011 RMK AO2 SLP176 T10281056,KCEZ,2018-03-24T07:53:00Z,37.3,-108.63,-2.8,-5.6,0,0,,10.0,30.109253,1017.6,,TRUE,TRUE,,,,,,,CLR,,,,,,,,VFR,,,,,,,,,,,,METAR,1797.0
KCEW 240753Z AUTO 00000KT 10SM CLR 07/05 A3018 RMK AO2 SLP218 T00720050,KCEW,2018-03-24T07:53:00Z,30.78,-86.52,7.2,5.0,0,0,,10.0,30.180119,1021.8,,TRUE,TRUE,,,,,,,CLR,,,,,,,,VFR,,,,,,,,,,,,METAR,55.0
KCDW 240753Z AUTO 32006KT 10SM CLR 01/M07 A3009 RMK AO2 SLP196 T00111072,KCDW,2018-03-24T07:53:00Z,40.88,-74.28,1.1,-7.2,320,6,,10.0,30.088583,1019.6,,TRUE,TRUE,,,,,,,CLR,,,,,,,,VFR,,,,,,,,,,,,METAR,64.0
KCDS 240753Z AUTO 26008KT 10SM CLR 16/03 A2983 RMK AO2 SLP078 T01610033,KCDS,2018-03-24T07:53:00Z,34.43,-100.28,16.1,3.3,260,8,,10.0,29.828741,1007.8,,TRUE,TRUE,,,,,,,CLR,,,,,,,,VFR,,,,,,,,,,,,METAR,594.0
KCDR 240753Z AUTO 24004KT 9SM CLR 00/M01 A2998 RMK AO2 SLP161 T00001006,KCDR,2018-03-24T07:53:00Z,42.83,-103.1,0.0,-0.6,240,4,,9.0,29.97933,1016.1,,TRUE,TRUE,,,,,,,CLR,,,,,,,,VFR,,,,,,,,,,,,METAR,1010.0
KCDC 240753Z AUTO 18011G18KT 10SM CLR 08/M01 A2997 RMK AO2 SLP110 T00781011,KCDC,2018-03-24T07:53:00Z,37.7,-113.1,7.8,-1.1,180,11,18,10.0,29.970472,1011.0,,TRUE,TRUE,,,,,,,CLR,,,,,,,,VFR,,,,,,,,,,,,METAR,1714.0
KCCR 240753Z AUTO 20008KT 10SM BKN075 OVC095 12/06 A3011 RMK AO2 SLP181 T01170056 401670050,KCCR,2018-03-24T07:53:00Z,38.0,-122.05,11.7,5.6,200,8,,10.0,30.109253,1018.1,,TRUE,TRUE,,,,,,,BKN,7500,OVC,9500,,,,,VFR,,,,16.7,5.0,,,,,,,METAR,11.0
KCAG 240753Z AUTO 00000KT 10SM CLR M02/M03 A3008 RMK AO2 SLP196 T10171028,KCAG,2018-03-24T07:53:00Z,40.5,-107.52,-1.7,-2.8,0,0,,10.0,30.079725,1019.6,,TRUE,TRUE,,,,,,,CLR,,,,,,,,VFR,,,,,,,,,,,,METAR,1887.0
KBYI 240753Z AUTO 33004KT 10SM BKN100 03/01 A2979 RMK AO2 SLP078 T00330011,KBYI,2018-03-24T07:53:00Z,42.55,-113.77,3.3,1.1,330,4,,10.0,29.790354,1007.8,,TRUE,TRUE,,,,,,,BKN,10000,,,,,,,VFR,,,,,,,,,,,,METAR,1264.0
KBYG 240753Z AUTO 11005KT 10SM FEW012 02/01 A2995 RMK AO2 SLP140 T00170006,KBYG,2018-03-24T07:53:00Z,44.38,-106.72,1.7,0.6,110,5,,10.0,29.949802,1014.0,,TRUE,TRUE,,,,,,,FEW,1200,,,,,,,VFR,,,,,,,,,,,,METAR,1497.0
KBWG 240753Z AUTO 07010KT 6SM -RA BR OVC070 06/06 A3010 RMK AO2 PRESFR SLP193 P0015 T00610056,KBWG,2018-03-24T07:53:00Z,36.97,-86.42,6.1,5.6,70,10,,6.0,30.100393,1019.3,,TRUE,TRUE,,,,,,-RA BR,OVC,7000,,,,,,,VFR,,,,,,0.15,,,,,,METAR,168.0
KBVY 240753Z AUTO 33005KT 10SM BKN095 00/M06 A2997 RMK AO2 SLP147 T00001061,KBVY,2018-03-24T07:53:00Z,42.58,-70.92,0.0,-6.1,330,5,,10.0,29.970472,1014.7,,TRUE,TRUE,,,,,,,BKN,9500,,,,,,,VFR,,,,,,,,,,,,METAR,28.0
KZZV 240753Z AUTO 00000KT 10SM CLR M04/M07 A3027 RMK AO2 SLP256 T10391072,KZZV,2018-03-24T07:53:00Z,39.95,-81.9,-3.9,-7.2,0,0,,10.0,30.268702,1025.6,,TRUE,TRUE,,,,,,,CLR,,,,,,,,VFR,,,,,,,,,,,,METAR,268.0
KYKM 240753Z AUTO 18004KT 10SM -RA OVC022 04/01 A2972 RMK AO2 RAB24 SLP068 P0000 T00440011 400890000,KYKM,2018-03-24T07:53:00Z,46.57,-120.53,4.4,1.1,180,4,,10.0,29.719488,1006.8,,TRUE,TRUE,,,,,,-RA,OVC,2200,,,,,,,MVFR,,,,8.9,,0.005,,,,,,METAR,324.0
KYIP 240753Z 35004KT 10SM CLR M04/M09 A3032 RMK AO2 SLP274 T10441089,KYIP,2018-03-24T07:53:00Z,42.23,-83.53,-4.4,-8.9,350,4,,10.0,30.318897,1027.4,,,TRUE,,,,,,,CLR,,,,,,,,VFR,,,,,,,,,,,,METAR,215.0
KXNA 240753Z AUTO 19012KT 10SM OVC034 19/14 A2975 RMK AO2 SLP064 T01890139,KXNA,2018-03-24T07:53:00Z,36.28,-94.3,18.9,13.9,190,12,,10.0,29.749016,1006.4,,TRUE,TRUE,,,,,,,OVC,3400,,,,,,,VFR,,,,,,,,,,,,METAR,392.0
KWVI 240753Z AUTO 00000KT 10SM CLR 07/05 A3015 RMK AO2 SLP209 T00670050 401440028 TSNO,KWVI,2018-03-24T07:53:00Z,36.93,-121.78,6.7,5.0,0,0,,10.0,30.15059,1020.9,,TRUE,TRUE,,,TRUE,,,,CLR,,,,,,,,VFR,,,,14.4,2.8,,,,,,,METAR,43.0
KWST 240753Z AUTO 33007KT 10SM OVC085 03/M06 A3000 RMK AO2 SLP158 T00331056,KWST,2018-03-24T07:53:00Z,41.35,-71.8,3.3,-5.6,330,7,,10.0,30.0,1015.8,,TRUE,TRUE,,,,,,,OVC,8500,,,,,,,VFR,,,,,,,,,,,,METAR,21.0
KWRL 240753Z AUTO 15013KT 10SM CLR 04/01 A2990 RMK AO2 SLP120 T00390011,KWRL,2018-03-24T07:53:00Z,43.97,-107.95,3.9,1.1,150,13,,10.0,29.899607,1012.0,,TRUE,TRUE,,,,,,,CLR,,,,,,,,VFR,,,,,,,,,,,,METAR,1271.0
KVUO 240753Z AUTO 18003KT 10SM -RA FEW009 BKN015 OVC020 03/03 A2981 RMK AO2 SLP095 P0002 T00330028 400780033,KVUO,2018-03-24T07:53:00Z,45.62,-122.65,3.3,2.8,180,3,,10.0,29.811024,1009.5,,TRUE,TRUE,,,,,,-RA,FEW,900,BKN,1500,OVC,2000,,,MVFR,,,,7.8,3.3,0.02,,,,,,METAR,8.0
KVRB 240753Z AUTO 26003KT 10SM CLR 08/06 A3019 RMK AO2 SLP221 T00830061,KVRB,2018-03-24T07:53:00Z,27.65,-80.42,8.3,6.1,260,3,,10.0,30.188976,1022.1,,TRUE,TRUE,,,,,,,CLR,,,,,,,,VFR,,,,,,,,,,,,METAR,10.0
KVPC 240753Z AUTO 00000KT 10SM BKN100 09/06 A3014 RMK AO2 SLP199 T00890061,KVPC,2018-03-24T07:53:00Z,34.13,-84.85,8.9,6.1,0,0,,10.0,30.138779,1019.9,,TRUE,TRUE,,,,,,,BKN,10000,,,,,,,VFR,,,,,,,,,,,,METAR,222.0
KVLD 240753Z 00000KT 10SM CLR 06/04 A3020 RMK AO2 SLP233 T00560044,KVLD,2018-03-24T07:53:00Z,30.78,-83.27,5.6,4.4,0,0,,10.0,30.200787,1023.3,,,TRUE,,,,,,,CLR,,,,,,,,VFR,,,,,,,,,,,,METAR,62.0
KVIH 240753Z AUTO 11015G24KT 10SM FEW037 SCT065 SCT110 08/06 A2981 RMK AO2 PK WND 11026/0708 LTG DSNT N AND NW RAB0656E08 SLP096 P0000 T00780061,KVIH,2018-03-24T07:53:00Z,38.13,-91.77,7.8,6.1,110,15,24,10.0,29.811024,1009.6,,TRUE,TRUE,,,,,,,FEW,3700,SCT,6500,SCT,11000,,,VFR,,,,,,0.005,,,,,,METAR,333.0
KVGT 240753Z AUTO 23006KT 10SM CLR 14/M07 A2990 RMK AO2 SLP131 T01441067 402220128,KVGT,2018-03-24T07:53:00Z,36.22,-115.2,14.4,-6.7,230,6,,10.0,29.899607,1013.1,,TRUE,TRUE,,,,,,,CLR,,,,,,,,VFR,,,,22.2,12.8,,,,,,,METAR,671.0
KVEL 240753Z AUTO 27004KT 10SM CLR 01/M02 A3002 RMK AO2 SLP151 T00111017,KVEL,2018-03-24T07:53:00Z,40.45,-109.52,1.1,-1.7,270,4,,10.0,30.02067,1015.1,,TRUE,TRUE,,,,,,,CLR,,,,,,,,VFR,,,,,,,,,,,,METAR,1604.0
KVCB 240753Z AUTO 21008KT 6SM RA BR FEW021 FEW034 OVC047 09/08 A3012 RMK AO2 RAB0654 SLP198 P0009 T00940083 401610028,KVCB,2018-03-24T07:53:00Z,38.38,-121.95,9.4,8.3,210,8,,6.0,30.121063,1019.8,,TRUE,TRUE,,,,,,RA BR,FEW,2100,FEW,3400,OVC,4700,,,VFR,,,,16.1,2.8,0.09,,,,,,METAR,33.0
KUUU 240753Z AUTO 33008KT 10SM OVC090 03/M05 A2997 RMK AO2 SLP149 T00331050,KUUU,2018-03-24T07:53:00Z,41.53,-71.28,3.3,-5.0,330,8,,10.0,29.970472,1014.9,,TRUE,TRUE,,,,,,,OVC,9000,,,,,,,VFR,,,,,,,,,,,,METAR,51.0
KUTS 240753Z AUTO 19015G20KT 10SM BKN028 21/16 A2996 RMK AO2 SLP139 T02060161,KUTS,2018-03-24T07:53:00Z,30.75,-95.58,20.6,16.1,190,15,20,10.0,29.958662,1013.9,,TRUE,TRUE,,,,,,,BKN,2800,,,,,,,MVFR,,,,,,,,,,,,METAR,104.0
KUNO 240753Z AUTO 10005KT 10SM OVC041 12/08 A2985 RMK AO2 SLP102 T01220083,KUNO,2018-03-24T07:53:00Z,36.88,-91.9,12.2,8.3,100,5,,10.0,29.84941,1010.2,,TRUE,TRUE,,,,,,,OVC,4100,,,,,,,VFR,,,,,,,,,,,,METAR,372.0
PHLI 240753Z 02010KT 8SM -RA FEW008 BKN014 OVC090 20/19 A3008 RMK AO2 SLP185 LAST P0009 T02000189,PHLI,2018-03-24T07:53:00Z,21.97,-159.33,20.0,18.9,20,10,,8.0,30.079725,1018.5,,,TRUE,,,,,,-RA,FEW,800,BKN,1400,OVC,9000,,,MVFR,,,,,,0.09,,,,,,METAR,45.0
PHKO 240753Z 00000KT 10SM FEW043 SCT120 25/18 A3000 RMK AO2 SLP159 T02500183,PHKO,2018-03-24T07:53:00Z,19.73,-156.05,25.0,18.3,0,0,,10.0,30.0,1015.9,,,TRUE,,,,,,,FEW,4300,SCT,12000,,,,,VFR,,,,,,,,,,,,METAR,27.0
PHTO 240753Z 22006KT 10SM -RA FEW023 FEW029 OVC045 22/18 A3007 RMK AO2 SLP182 P0000 T02220183,PHTO,2018-03-24T07:53:00Z,19.72,-155.05,22.2,18.3,220,6,,10.0,30.070866,1018.2,,,TRUE,,,,,,-RA,FEW,2300,FEW,2900,OVC,4500,,,VFR,,,,,,0.005,,,,,,METAR,12.0
PHNL 240753Z 03003KT 9SM RA FEW021 BKN049 OVC080 21/20 A3004 RMK AO2 SLP171 P0012 T02110200 $,PHNL,2018-03-24T07:53:00Z,21.33,-157.92,21.1,20.0,30,3,,9.0,30.041338,1017.1,,,TRUE,TRUE,,,,,RA,FEW,2100,BKN,4900,OVC,8000,,,VFR,,,,,,0.12,,,,,,METAR,4.0
KHRI 240753Z AUTO 21007KT 8SM -RA OVC035 06/04 A2971 RMK AO2 SLP062 P0007 T00610044 401391017,KHRI,2018-03-24T07:53:00Z,45.83,-119.27,6.1,4.4,210,7,,8.0,29.71063,1006.2,,TRUE,TRUE,,,,,,-RA,OVC,3500,,,,,,,VFR,,,,13.9,-1.7,0.07,,,,,,METAR,195.0
KHQM 240753Z AUTO 15005KT 10SM BKN065 OVC080 04/02 A2978 RMK AO2 SLP087 T00440022 400830028,KHQM,2018-03-24T07:53:00Z,46.97,-123.93,4.4,2.2,150,5,,10.0,29.778543,1008.7,,TRUE,TRUE,,,,,,,BKN,6500,OVC,8000,,,,,VFR,,,,8.3,2.8,,,,,,,METAR,7.0
KHOU 240753Z 19009KT 10SM SCT021 OVC027 21/19 A2998 RMK AO2 SLP156 T02060189,KHOU,2018-03-24T07:53:00Z,29.63,-95.28,20.6,18.9,190,9,,10.0,29.97933,1015.6,,,TRUE,,,,,,,SCT,2100,OVC,2700,,,,,MVFR,,,,,,,,,,,,METAR,36.0
KHOT 240753Z AUTO 23008KT 10SM OVC030 19/14 A2989 RMK AO2 SLP116 T01890139,KHOT,2018-03-24T07:53:00Z,34.48,-93.1,18.9,13.9,230,8,,10.0,29.890747,1011.6,,TRUE,TRUE,,,,,,,OVC,3000,,,,,,,MVFR,,,,,,,,,,,,METAR,162.0
KHLN 240753Z AUTO 27007KT 10SM CLR 02/M02 A2982 RMK AO2 SLP120 T00171022,KHLN,2018-03-24T07:53:00Z,46.6,-111.98,1.7,-2.2,270,7,,10.0,29.819881,1012.0,,TRUE,TRUE,,,,,,,CLR,,,,,,,,VFR,,,,,,,,,,,,METAR,1182.0
KHLG 240753Z AUTO 35004KT 10SM CLR M03/M08 A3023 RMK AO2 SLP252 T10331083,KHLG,2018-03-24T07:53:00Z,40.17,-80.65,-3.3,-8.3,350,4,,10.0,30.230314,1025.2,,TRUE,TRUE,,,,,,,CLR,,,,,,,,VFR,,,,,,,,,,,,METAR,372.0
KHLC 240753Z AUTO 31012G18KT 4SM BR CLR 06/05 A2987 RMK AO2 SLP104 T00560050,KHLC,2018-03-24T07:53:00Z,39.37,-99.83,5.6,5.0,310,12,18,4.0,29.870079,1010.4,,TRUE,TRUE,,,,,,BR,CLR,,,,,,,,MVFR,,,,,,,,,,,,METAR,669.0
KHKY 240753Z 14003KT 10SM OVC075 06/M02 A3016 RMK AO2 SLP204 T00561022,KHKY,2018-03-24T07:53:00Z,35.75,-81.38,5.6,-2.2,140,3,,10.0,30.159449,1020.4,,,TRUE,,,,,,,OVC,7500,,,,,,,VFR,,,,,,,,,,,,METAR,354.0
KHKS 240753Z AUTO 17011G19KT 10SM CLR 16/12 A3003 RMK AO2 SLP161 T01560122,KHKS,2018-03-24T07:53:00Z,32.33,-90.22,15.6,12.2,170,11,19,10.0,30.029528,1016.1,,TRUE,TRUE,,,,,,,CLR,,,,,,,,VFR,,,,,,,,,,,,METAR,108.0
KHKA 240753Z AUTO 18009KT 10SM OVC075 17/08 A2990 RMK AO2 SLP124 T01670083,KHKA,2018-03-24T07:53:00Z,35.93,-89.83,16.7,8.3,180,9,,10.0,29.899607,1012.4,,TRUE,TRUE,,,,,,,OVC,7500,,,,,,,VFR,,,,,,,,,,,,METAR,78.0
KHJO 240753Z AUTO 00000KT 10SM BKN046 OVC060 09/08 A3012 RMK AO2 SLP201 T00940078 401720061,KHJO,2018-03-24T07:53:00Z,36.32,-119.62,9.4,7.8,0,0,,10.0,30.121063,1020.1,,TRUE,TRUE,,,,,,,BKN,4600,OVC,6000,,,,,VFR,,,,17.2,6.1,,,,,,,METAR,74.0
KHIO 240753Z AUTO 19003KT 4SM -RA BR FEW007 OVC013 02/01 A2981 RMK AO2 SLP095 P0002 T00170006 400670011,KHIO,2018-03-24T07:53:00Z,45.55,-122.95,1.7,0.6,190,3,,4.0,29.811024,1009.5,,TRUE,TRUE,,,,,,-RA BR,FEW,700,OVC,1300,,,,,MVFR,,,,6.7,1.1,0.02,,,,,,METAR,68.0
KHIB 240753Z AUTO 10009KT 10SM CLR M07/M12 A3032 RMK AO2 SLP292 T10671117,KHIB,2018-03-24T07:53:00Z,47.38,-92.83,-6.7,-11.7,100,9,,10.0,30.318897,1029.2,,TRUE,TRUE,,,,,,,CLR,,,,,,,,VFR,,,,,,,,,,,,METAR,412.0
KHHR 240753Z AUTO 25004KT 10SM CLR 13/11 A3005 RMK AO2 SLP174 T01330111 401890133,KHHR,2018-03-24T07:53:00Z,33.92,-118.33,13.3,11.1,250,4,,10.0,30.050198,1017.4,,TRUE,TRUE,,,,,,,CLR,,,,,,,,VFR,,,,18.9,13.3,,,,,,,METAR,18.0
KHGR 240753Z AUTO 31007KT 10SM CLR M01/M08 A3018 RMK AO2 SLP235 T10061083,KHGR,2018-03-24T07:53:00Z,39.7,-77.73,-0.6,-8.3,310,7,,10.0,30.180119,1023.5,,TRUE,TRUE,,,,,,,CLR,,,,,,,,VFR,,,,,,,,,,,,METAR,224.0
KHFD 240753Z AUTO 33007KT 10SM CLR 02/M06 A3003 RMK AO2 SLP169 T00221056,KHFD,2018-03-24T07:53:00Z,41.73,-72.65,2.2,-5.6,330,7,,10.0,30.029528,1016.9,,TRUE,TRUE,,,,,,,CLR,,,,,,,,VFR,,,,,,,,,,,,METAR,4.0
KHEI 240753Z AUTO 30006KT 10SM OVC015 01/00 A2996 RMK AO2 SLP171 T00110000,KHEI,2018-03-24T07:53:00Z,46.02,-102.65,1.1,0.0,300,6,,10.0,29.958662,1017.1,,TRUE,TRUE,,,,,,,OVC,1500,,,,,,,MVFR,,,,,,,,,,,,METAR,828.0
KHBR 240753Z AUTO 20010KT 10SM CLR 16/12 A2976 RMK AO2 SLP061 T01610117,KHBR,2018-03-24T07:53:00Z,34.98,-99.05,16.1,11.7,200,10,,10.0,29.760826,1006.1,,TRUE,TRUE,,,,,,,CLR,,,,,,,,VFR,,,,,,,,,,,,METAR,473.0
KHBG 240753Z AUTO 18004KT 10SM CLR 14/13 A3010 RMK AO2 SLP190 T01390128,KHBG,2018-03-24T07:53:00Z,31.27,-89.25,13.9,12.8,180,4,,10.0,30.100393,1019.0,,TRUE,TRUE,,,,,,,CLR,,,,,,,,VFR,,,,,,,,,,,,METAR,44.0
KHAO 240753Z AUTO 08007KT 10SM CLR 01/M04 A3026 RMK AO2 SLP250 T00061039,KHAO,2018-03-24T07:53:00Z,39.37,-84.52,0.6,-3.9,80,7,,10.0,30.259842,1025.0,,TRUE,TRUE,,,,,,,CLR,,,,,,,,VFR,,,,,,,,,,,,METAR,188.0
KGZH 240753Z AUTO 15003KT 10SM OVC090 11/08 A3015 RMK AO2 SLP207 T01110083,KGZH,2018-03-24T07:53:00Z,31.42,-87.05,11.1,8.3,150,3,,10.0,30.15059,1020.7,,TRUE,TRUE,,,,,,,OVC,9000,,,,,,,VFR,,,,,,,,,,,,METAR,78.0
KGWO 240753Z AUTO 20012KT 10SM BKN033 17/12 A3000 RMK AO2 SLP158 T01670117,KGWO,2018-03-24T07:53:00Z,33.5,-90.08,16.7,11.7,200,12,,10.0,30.0,1015.8,,TRUE,TRUE,,,,,,,BKN,3300,,,,,,,VFR,,,,,,,,,,,,METAR,44.0
KGVL 240753Z AUTO 13004KT 10SM OVC080 11/01 A3015 RMK AO2 SLP206 T01110011,KGVL,2018-03-24T07:53:00Z,34.27,-83.83,11.1,1.1,130,4,,10.0,30.15059,1020.6,,TRUE,TRUE,,,,,,,OVC,8000,,,,,,,VFR,,,,,,,,,,,,METAR,386.0
KGUY 240753Z AUTO 33012KT 10SM CLR 11/06 A2992 RMK AO2 SLP089 T01060056,KGUY,2018-03-24T07:53:00Z,36.68,-101.5,10.6,5.6,330,12,,10.0,29.920275,1008.9,,TRUE,TRUE,,,,,,,CLR,,,,,,,,VFR,,,,,,,,,,,,METAR,948.0
KGUP 240753Z AUTO 00000KT 10SM CLR M01/M07 A3014 RMK AO2 SLP167 T10111072 $,KGUP,2018-03-24T07:53:00Z,35.52,-108.8,-1.1,-7.2,0,0,,10.0,30.138779,1016.7,,TRUE,TRUE,TRUE,,,,,,CLR,,,,,,,,VFR,,,,,,,,,,,,METAR,1971.0
KGTF 240753Z 07004KT 10SM BKN050 OVC065 02/00 A2983 RMK AO2 SLP117 T00170000,KGTF,2018-03-24T07:53:00Z,47.47,-111.38,1.7,0.0,70,4,,10.0,29.828741,1011.7,,,TRUE,,,,,,,BKN,5000,OVC,6500,,,,,VFR,,,,,,,,,,,,METAR,1119.0
KGSP 240753Z AUTO 09004KT 10SM OVC065 08/00 A3017 RMK AO2 SLP212 T00830000,KGSP,2018-03-24T07:53:00Z,34.9,-82.22,8.3,0.0,90,4,,10.0,30.171259,1021.2,,TRUE,TRUE,,,,,,,OVC,6500,,,,,,,VFR,,,,,,,,,,,,METAR,287.0
KGSH 240753Z AUTO 12006KT 10SM CLR M01/M08 A3028 RMK AO2 SLP261 T10111078,KGSH,2018-03-24T07:53:00Z,41.53,-85.78,-1.1,-7.8,120,6,,10.0,30.280512,1026.1,,TRUE,TRUE,,,,,,,CLR,,,,,,,,VFR,,,,,,,,,,,,METAR,252.0
KGRR 240753Z AUTO 07008KT 10SM CLR M03/M09 A3032 RMK AO2 SLP274 T10281094,KGRR,2018-03-24T07:53:00Z,42.88,-85.52,-2.8,-9.4,70,8,,10.0,30.318897,1027.4,,TRUE,TRUE,,,,,,,CLR,,,,,,,,VFR,,,,,,,,,,,,METAR,237.0
KGRI 240753Z AUTO 02007KT 5SM BR OVC004 05/04 A2984 RMK AO2 CIG 004V008 SLP110 T00500039,KGRI,2018-03-24T07:53:00Z,40.97,-98.32,5.0,3.9,20,7,,5.0,29.840551,1011.0,,TRUE,TRUE,,,,,,BR,OVC,400,,,,,,,LIFR,,,,,,,,,,,,METAR,561.0
KGRB 240753Z AUTO 04014KT 10SM CLR M04/M09 A3035 RMK AO2 SLP287 T10441089,KGRB,2018-03-24T07:53:00Z,44.48,-88.13,-4.4,-8.9,40,14,,10.0,30.351377,1028.7,,TRUE,TRUE,,,,,,,CLR,,,,,,,,VFR,,,,,,,,,,,,METAR,208.0
KGPT 240753Z AUTO 16006KT 10SM CLR 19/16 A3011 RMK AO2 SLP194 T01890156,KGPT,2018-03-24T07:53:00Z,30.42,-89.08,18.9,15.6,160,6,,10.0,30.109253,1019.4,,TRUE,TRUE,,,,,,,CLR,,,,,,,,VFR,,,,,,,,,,,,METAR,14.0
KBUR 240753Z 10006KT 10SM CLR 13/11 A3002 RMK AO2 SLP158 T01280106 401940122,KBUR,2018-03-24T07:53:00Z,34.2,-118.37,12.8,10.6,100,6,,10.0,30.02067,1015.8,,,TRUE,,,,,,,CLR,,,,,,,,VFR,,,,19.4,12.2,,,,,,,METAR,217.0
KBTR 240753Z AUTO 16004KT 10SM SCT033 17/14 A3005 RMK AO2 SLP176 T01670144,KBTR,2018-03-24T07:53:00Z,30.53,-91.15,16.7,14.4,160,4,,10.0,30.050198,1017.6,,TRUE,TRUE,,,,,,,SCT,3300,,,,,,,VFR,,,,,,,,,,,,METAR,21.0
KBTL 240753Z AUTO 08004KT 10SM CLR M02/M09 A3030 RMK AO2 SLP268 T10221094 $,KBTL,2018-03-24T07:53:00Z,42.32,-85.23,-2.2,-9.4,80,4,,10.0,30.301182,1026.8,,TRUE,TRUE,TRUE,,,,,,CLR,,,,,,,,VFR,,,,,,,,,,,,METAR,290.0
KBRO 240753Z AUTO 16017G24KT 10SM SCT013 OVC022 23/21 A2994 RMK AO2 SLP137 T02330211,KBRO,2018-03-24T07:53:00Z,25.92,-97.42,23.3,21.1,160,17,24,10.0,29.940945,1013.7,,TRUE,TRUE,,,,,,,SCT,1300,OVC,2200,,,,,MVFR,,,,,,,,,,,,METAR,7.0
KBRD 240753Z AUTO 08008KT 10SM CLR M03/M11 A3023 RMK AO2 SLP253 T10331111,KBRD,2018-03-24T07:53:00Z,46.4,-94.13,-3.3,-11.1,80,8,,10.0,30.230314,1025.3,,TRUE,TRUE,,,,,,,CLR,,,,,,,,VFR,,,,,,,,,,,,METAR,372.0
KBPT 240753Z AUTO 19008KT 10SM BKN021 19/17 A3000 RMK AO2 SLP157 T01890172,KBPT,2018-03-24T07:53:00Z,29.95,-94.03,18.9,17.2,190,8,,10.0,30.0,1015.7,,TRUE,TRUE,,,,,,,BKN,2100,,,,,,,MVFR,,,,,,,,,,,,METAR,5.0
KBPK 240753Z AUTO 16004KT 10SM OVC043 17/12 A2980 RMK AO2 SLP083 T01670117,KBPK,2018-03-24T07:53:00Z,36.37,-92.47,16.7,11.7,160,4,,10.0,29.799213,1008.3,,TRUE,TRUE,,,,,,,OVC,4300,,,,,,,VFR,,,,,,,,,,,,METAR,280.0
KBPI 240753Z AUTO 36005KT 10SM CLR M07/M08 A3000 RMK AO2 SLP158 T10671083,KBPI,2018-03-24T07:53:00Z,42.58,-110.1,-6.7,-8.3,360,5,,10.0,30.0,1015.8,,TRUE,TRUE,,,,,,,CLR,,,,,,,,VFR,,,,,,,,,,,,METAR,2117.0
KBOI 240753Z 10SM SCT100 06/M01 A2980 RMK AO2 SLP089 T00561011,KBOI,2018-03-24T07:53:00Z,43.57,-116.23,5.6,-1.1,,,,10.0,29.799213,1008.9,,,TRUE,,,,,,,SCT,10000,,,,,,,VFR,,,,,,,,,,,,METAR,875.0
KBNO 240753Z AUTO 15009KT 10SM BKN060 BKN120 02/M06 A2975 RMK AO2 SLP082 T00171061 400831061 $,KBNO,2018-03-24T07:53:00Z,43.6,-118.95,1.7,-6.1,150,9,,10.0,29.749016,1008.2,,TRUE,TRUE,TRUE,,,,,,BKN,6000,BKN,12000,,,,,VFR,,,,8.3,-6.1,,,,,,,METAR,1264.0
KBNA 240753Z 11005KT 10SM OVC080 08/06 A3008 RMK AO2 RAE0658 SLP185 P0000 T00830061,KBNA,2018-03-24T07:53:00Z,36.12,-86.68,8.3,6.1,110,5,,10.0,30.079725,1018.5,,,TRUE,,,,,,,OVC,8000,,,,,,,VFR,,,,,,0.005,,,,,,METAR,210.0
KBMQ 240753Z AUTO 20013G20KT 10SM -RA OVC014 19/16 A2993 RMK AO2 SLP120 P0000 T01890161,KBMQ,2018-03-24T07:53:00Z,30.73,-98.23,18.9,16.1,200,13,20,10.0,29.929134,1012.0,,TRUE,TRUE,,,,,,-RA,OVC,1400,,,,,,,MVFR,,,,,,0.005,,,,,,METAR,389.0
KBMG 240753Z AUTO 13013KT 10SM BKN032 OVC055 05/M06 A3016 RMK AO2 SLP215 T00501056,KBMG,2018-03-24T07:53:00Z,39.15,-86.62,5.0,-5.6,130,13,,10.0,30.159449,1021.5,,TRUE,TRUE,,,,,,,BKN,3200,OVC,5500,,,,,VFR,,,,,,,,,,,,METAR,257.0
KBLI 240753Z AUTO 03005KT 10SM OVC050 03/02 A2978 RMK AO2 SLP092 T00330017 400830022,KBLI,2018-03-24T07:53:00Z,48.8,-122.53,3.3,1.7,30,5,,10.0,29.778543,1009.2,,TRUE,TRUE,,,,,,,OVC,5000,,,,,,,VFR,,,,8.3,2.2,,,,,,,METAR,50.0
KBKV 240753Z AUTO 00000KT 10SM CLR 06/05 A3022 RMK AO2 SLP232 T00610050,KBKV,2018-03-24T07:53:00Z,28.47,-82.45,6.1,5.0,0,0,,10.0,30.221457,1023.2,,TRUE,TRUE,,,,,,,CLR,,,,,,,,VFR,,,,,,,,,,,,METAR,20.0
KBKL 240753Z AUTO 10004KT 10SM BKN021 M01/M06 A3029 RMK AO2 SLP262 T10111056,KBKL,2018-03-24T07:53:00Z,41.53,-81.67,-1.1,-5.6,100,4,,10.0,30.28937,1026.2,,TRUE,TRUE,,,,,,,BKN,2100,,,,,,,MVFR,,,,,,,,,,,,METAR,184.0
KBKE 240753Z AUTO 16010KT 10SM CLR 06/M05 A2970 RMK AO2 SLP059 T00561050 401111022 $,KBKE,2018-03-24T07:53:00Z,44.85,-117.82,5.6,-5.0,160,10,,10.0,29.698818,1005.9,,TRUE,TRUE,TRUE,,,,,,CLR,,,,,,,,VFR,,,,11.1,-2.2,,,,,,,METAR,1024.0
KBIV 240753Z AUTO 09006KT 10SM CLR M02/M09 A3032 RMK AO2 SLP276 T10221089,KBIV,2018-03-24T07:53:00Z,42.75,-86.1,-2.2,-8.9,90,6,,10.0,30.318897,1027.6,,TRUE,TRUE,,,,,,,CLR,,,,,,,,VFR,,,,,,,,,,,,METAR,208.0
KBIL 240753Z 00000KT 10SM FEW180 02/M04 A2988 RMK AO2 SLP129 T00171044,KBIL,2018-03-24T07:53:00Z,45.8,-108.55,1.7,-4.4,0,0,,10.0,29.878937,1012.9,,,TRUE,,,,,,,FEW,18000,,,,,,,VFR,,,,,,,,,,,,METAR,1091.0
KBGR 240753Z 00000KT 10SM FEW080 OVC250 M03/M05 A2996 RMK AO2 SLP147 T10281050,KBGR,2018-03-24T07:53:00Z,44.8,-68.82,-2.8,-5.0,0,0,,10.0,29.958662,1014.7,,,TRUE,,,,,,,FEW,8000,OVC,25000,,,,,VFR,,,,,,,,,,,,METAR,57.0
KBGM 240753Z AUTO 33007KT 10SM CLR M03/M08 A3008 RMK AO2 SLP203 T10331078,KBGM,2018-03-24T07:53:00Z,42.22,-75.98,-3.3,-7.8,330,7,,10.0,30.079725,1020.3,,TRUE,TRUE,,,,,,,CLR,,,,,,,,VFR,,,,,,,,,,,,METAR,490.0
KBFM 240753Z AUTO 16006KT 10SM CLR 18/16 A3015 RMK AO2 SLP208 T01780156,KBFM,2018-03-24T07:53:00Z,30.62,-88.07,17.8,15.6,160,6,,10.0,30.15059,1020.8,,TRUE,TRUE,,,,,,,CLR,,,,,,,,VFR,,,,,,,,,,,,METAR,20.0
KBFI 240753Z 30005KT 10SM -RA SCT019 BKN024 OVC032 06/02 A2977 RMK AO2 RAB20 SLP079 P0001 T00560022 400940011,KBFI,2018-03-24T07:53:00Z,47.55,-122.32,5.6,2.2,300,5,,10.0,29.769686,1007.9,,,TRUE,,,,,,-RA,SCT,1900,BKN,2400,OVC,3200,,,MVFR,,,,9.4,1.1,0.01,,,,,,METAR,4.0
KBFF 240753Z AUTO 31011KT 10SM CLR 04/02 A2999 RMK AO2 SLP150 T00390022,KBFF,2018-03-24T07:53:00Z,41.87,-103.58,3.9,2.2,310,11,,10.0,29.991142,1015.0,,TRUE,TRUE,,,,,,,CLR,,,,,,,,VFR,,,,,,,,,,,,METAR,1203.0
KBFD 240753Z AUTO 00000KT 10SM CLR M07/M09 A3014 RMK AO2 SLP230 T10671094,KBFD,2018-03-24T07:53:00Z,41.8,-78.63,-6.7,-9.4,0,0,,10.0,30.138779,1023.0,,TRUE,TRUE,,,,,,,CLR,,,,,,,,VFR,,,,,,,,,,,,METAR,647.0
KBEH 240753Z AUTO 07005KT 10SM CLR M02/M09 A3029 RMK AO2 SLP265 T10221089,KBEH,2018-03-24T07:53:00Z,42.13,-86.42,-2.2,-8.9,70,5,,10.0,30.28937,1026.5,,TRUE,TRUE,,,,,,,CLR,,,,,,,,VFR,,,,,,,,,,,,METAR,191.0
KBDE 240753Z AUTO 12013G21KT 10SM CLR M04/M12 A3030 RMK AO2 PK WND 12026/0702 SLP276 T10391117,KBDE,2018-03-24T07:53:00Z,48.73,-94.62,-3.9,-11.7,120,13,21,10.0,30.301182,1027.6,,TRUE,TRUE,,,,,,,CLR,,,,,,,,VFR,,,,,,,,,,,,METAR,329.0
KBCE 240753Z AUTO 00000KT 10SM CLR M03/M04 A3007 RMK AO2 SLP142 T10331044,KBCE,2018-03-24T07:53:00Z,37.7,-112.15,-3.3,-4.4,0,0,,10.0,30.070866,1014.2,,TRUE,TRUE,,,,,,,CLR,,,,,,,,VFR,,,,,,,,,,,,METAR,2312.0
KBBW 240753Z AUTO 32006KT 10SM OVC007 06/04 A2986 RMK AO2 SLP111 T00610044,KBBW,2018-03-24T07:53:00Z,41.43,-99.63,6.1,4.4,320,6,,10.0,29.861221,1011.1,,TRUE,TRUE,,,,,,,OVC,700,,,,,,,IFR,,,,,,,,,,,,METAR,776.0
KBAF 240753Z AUTO 03003KT 10SM CLR M04/M06 A3002 RMK AO2 SLP172 T10391061,KBAF,2018-03-24T07:53:00Z,42.17,-72.72,-3.9,-6.1,30,3,,10.0,30.02067,1017.2,,TRUE,TRUE,,,,,,,CLR,,,,,,,,VFR,,,,,,,,,,,,METAR,83.0
KAZO 240753Z AUTO 11005KT 10SM CLR M02/M09 A3031 RMK AO2 SLP272 T10171094 $,KAZO,2018-03-24T07:53:00Z,42.23,-85.55,-1.7,-9.4,110,5,,10.0,30.31004,1027.2,,TRUE,TRUE,TRUE,,,,,,CLR,,,,,,,,VFR,,,,,,,,,,,,METAR,272.0
KAXN 240753Z AUTO 08013KT 10SM OVC044 M01/M08 A3014 RMK AO2 SLP225 T10111083,KAXN,2018-03-24T07:53:00Z,45.87,-95.4,-1.1,-8.3,80,13,,10.0,30.138779,1022.5,,TRUE,TRUE,,,,,,,OVC,4400,,,,,,,VFR,,,,,,,,,,,,METAR,433.0
KMMK 240753Z AUTO 32010G15KT 10SM CLR 02/M06 A3003 RMK AO2 SLP170 T00221056,KMMK,2018-03-24T07:53:00Z,41.52,-72.83,2.2,-5.6,320,10,15,10.0,30.029528,1017.0,,TRUE,TRUE,,,,,,,CLR,,,,,,,,VFR,,,,,,,,,,,,METAR,31.0
KMLU 240753Z AUTO 19011G19KT 10SM -RA FEW024 BKN030 18/14 A2997 RMK AO2 SLP149 P0000 T01830144,KMLU,2018-03-24T07:53:00Z,32.52,-92.03,18.3,14.4,190,11,19,10.0,29.970472,1014.9,,TRUE,TRUE,,,,,,-RA,FEW,2400,BKN,3000,,,,,MVFR,,,,,,0.005,,,,,,METAR,29.0
KMLT 240753Z AUTO 00000KT 10SM CLR M03/M08 A2996 RMK AO2 SLP155 T10331078,KMLT,2018-03-24T07:53:00Z,45.65,-68.7,-3.3,-7.8,0,0,,10.0,29.958662,1015.5,,TRUE,TRUE,,,,,,,CLR,,,,,,,,VFR,,,,,,,,,,,,METAR,123.0
KMLS 240753Z AUTO 13005KT 10SM FEW100 M02/M02 A2995 RMK AO2 SLP165 T10171017,KMLS,2018-03-24T07:53:00Z,46.43,-105.88,-1.7,-1.7,130,5,,10.0,29.949802,1016.5,,TRUE,TRUE,,,,,,,FEW,10000,,,,,,,VFR,,,,,,,,,,,,METAR,801.0
KMLP 240753Z AUTO VRB04KT 10SM SCT019 BKN028 OVC045 M03/M06 A2970 RMK AO2 SLP089 T10331056 410171072 TSNO,KMLP,2018-03-24T07:53:00Z,47.45,-115.67,-3.3,-5.6,0,4,,10.0,29.698818,1008.9,,TRUE,TRUE,,,TRUE,,,,SCT,1900,BKN,2800,OVC,4500,,,MVFR,,,,-1.7,-7.2,,,,,,,METAR,1837.0
KMLC 240753Z AUTO 19014G21KT 10SM SCT055 SCT070 BKN085 19/15 A2976 RMK AO2 SLP070 T01940150,KMLC,2018-03-24T07:53:00Z,34.88,-95.78,19.4,15.0,190,14,21,10.0,29.760826,1007.0,,TRUE,TRUE,,,,,,,SCT,5500,SCT,7000,BKN,8500,,,VFR,,,,,,,,,,,,METAR,232.0
KMLB 240753Z AUTO 00000KT 10SM CLR 11/09 A3020 RMK AO2 SLP224 T01110089,KMLB,2018-03-24T07:53:00Z,28.1,-80.65,11.1,8.9,0,0,,10.0,30.200787,1022.4,,TRUE,TRUE,,,,,,,CLR,,,,,,,,VFR,,,,,,,,,,,,METAR,11.0
KMKO 240753Z AUTO 19013G22KT 10SM FEW033 20/16 A2974 RMK AO2 PK WND 19026/0658 SLP066 T02000161,KMKO,2018-03-24T07:53:00Z,35.65,-95.37,20.0,16.1,190,13,22,10.0,29.740158,1006.6,,TRUE,TRUE,,,,,,,FEW,3300,,,,,,,VFR,,,,,,,,,,,,METAR,185.0
KMKL 240753Z AUTO 19009KT 10SM SCT065 OVC080 17/07 A2995 RMK AO2 SLP139 T01670067,KMKL,2018-03-24T07:53:00Z,35.6,-88.92,16.7,6.7,190,9,,10.0,29.949802,1013.9,,TRUE,TRUE,,,,,,,SCT,6500,OVC,8000,,,,,VFR,,,,,,,,,,,,METAR,128.0
KMIW 240753Z AUTO 09028G41KT 4SM -FZRA BR OVC007 M01/M02 A2997 RMK AO2 PK WND 09041/0749 CIG 006V011 SLP156 P0003 I1012 T10111017,KMIW,2018-03-24T07:53:00Z,42.12,-92.92,-1.1,-1.7,90,28,41,4.0,29.970472,1015.6,,TRUE,TRUE,,,,,,-FZRA BR,OVC,700,,,,,,,IFR,,,,,,0.03,,,,,,METAR,296.0
KMIE 240753Z AUTO 10009KT 10SM CLR 01/M04 A3024 RMK AO2 SLP243 T00061044,KMIE,2018-03-24T07:53:00Z,40.23,-85.4,0.6,-4.4,100,9,,10.0,30.239174,1024.3,,TRUE,TRUE,,,,,,,CLR,,,,,,,,VFR,,,,,,,,,,,,METAR,285.0
KMIC 240753Z AUTO 09013G19KT 10SM OVC095 02/M09 A3017 RMK AO2 SLP226 T00171094,KMIC,2018-03-24T07:53:00Z,45.07,-93.35,1.7,-9.4,90,13,19,10.0,30.171259,1022.6,,TRUE,TRUE,,,,,,,OVC,9500,,,,,,,VFR,,,,,,,,,,,,METAR,265.0
KMIA 240753Z 00000KT 10SM CLR 18/07 A3018 RMK AO2 SLP220 T01780072,KMIA,2018-03-24T07:53:00Z,25.8,-80.28,17.8,7.2,0,0,,10.0,30.180119,1022.0,,,TRUE,,,,,,,CLR,,,,,,,,VFR,,,,,,,,,,,,METAR,3.0
KMHT 240753Z 33005KT 10SM BKN070 OVC095 03/M07 A2998 RMK AO2 SLP167 T00331072,KMHT,2018-03-24T07:53:00Z,42.93,-71.43,3.3,-7.2,330,5,,10.0,29.97933,1016.7,,,TRUE,,,,,,,BKN,7000,OVC,9500,,,,,VFR,,,,,,,,,,,,METAR,81.0
KMHE 240753Z AUTO 08009KT 1 1/4SM -SN BR OVC004 01/00 A2997 RMK AO2 SLP158 P0000 T00060000,KMHE,2018-03-24T07:53:00Z,43.77,-98.02,0.6,0.0,80,9,,1.25,29.970472,1015.8,,TRUE,TRUE,,,,,,-SN BR,OVC,400,,,,,,,LIFR,,,,,,0.005,,,,,,METAR,397.0
KMGY 240753Z AUTO 08007KT 10SM CLR 01/M06 A3024 RMK AO2 SLP245 T00061061,KMGY,2018-03-24T07:53:00Z,39.6,-84.23,0.6,-6.1,80,7,,10.0,30.239174,1024.5,,TRUE,TRUE,,,,,,,CLR,,,,,,,,VFR,,,,,,,,,,,,METAR,289.0
KMGW 240753Z AUTO 00000KT 10SM CLR M03/M07 A3023 RMK AO2 SLP248 T10331072,KMGW,2018-03-24T07:53:00Z,39.65,-79.92,-3.3,-7.2,0,0,,10.0,30.230314,1024.8,,TRUE,TRUE,,,,,,,CLR,,,,,,,,VFR,,,,,,,,,,,,METAR,378.0
KMGM 240753Z AUTO 16003KT 10SM FEW090 11/07 A3013 RMK AO2 SLP200 T01110072,KMGM,2018-03-24T07:53:00Z,32.3,-86.4,11.1,7.2,160,3,,10.0,30.129921,1020.0,,TRUE,TRUE,,,,,,,FEW,9000,,,,,,,VFR,,,,,,,,,,,,METAR,63.0
KMFR 240753Z AUTO VRB03KT 10SM BKN033 BKN045 OVC070 03/01 A2993 RMK AO2 SLP140 T00330006 401060028,KMFR,2018-03-24T07:53:00Z,42.38,-122.87,3.3,0.6,0,3,,10.0,29.929134,1014.0,,TRUE,TRUE,,,,,,,BKN,3300,BKN,4500,OVC,7000,,,VFR,,,,10.6,2.8,,,,,,,METAR,396.0
KMFE 240753Z AUTO 15018G24KT 10SM OVC020 24/21 A2992 RMK AO2 PK WND 15032/0717 SLP128 T02440206,KMFE,2018-03-24T07:53:00Z,26.18,-98.25,24.4,20.6,150,18,24,10.0,29.920275,1012.8,,TRUE,TRUE,,,,,,,OVC,2000,,,,,,,MVFR,,,,,,,,,,,,METAR,38.0
KMDW 240753Z 10013KT 10SM BKN120 OVC250 03/M06 A3022 RMK AO2 SLP243 T00281056,KMDW,2018-03-24T07:53:00Z,41.78,-87.75,2.8,-5.6,100,13,,10.0,30.221457,1024.3,,,TRUE,,,,,,,BKN,12000,OVC,25000,,,,,VFR,,,,,,,,,,,,METAR,188.0
KMCW 240753Z AUTO 10027G33KT 1/2SM -SN FZFG SCT005 OVC009 M02/M03 A3002 RMK AO2 PK WND 10038/0707 PRESFR SLP172 P0002 T10221028,KMCW,2018-03-24T07:53:00Z,43.15,-93.33,-2.2,-2.8,100,27,33,0.5,30.02067,1017.2,,TRUE,TRUE,,,,,,-SN FZFG,SCT,500,OVC,900,,,,,LIFR,,,,,,0.02,,,,,,METAR,369.0
KMCO 240753Z 00000KT 10SM FEW300 10/08 A3021 RMK AO2 SLP229 T01000078,KMCO,2018-03-24T07:53:00Z,28.42,-81.33,10.0,7.8,0,0,,10.0,30.209646,1022.9,,,TRUE,,,,,,,FEW,30000,,,,,,,VFR,,,,,,,,,,,,METAR,29.0
KMCN 240753Z AUTO 00000KT 10SM CLR 09/07 A3017 RMK AO2 SLP213 T00940067,KMCN,2018-03-24T07:53:00Z,32.68,-83.65,9.4,6.7,0,0,,10.0,30.171259,1021.3,,TRUE,TRUE,,,,,,,CLR,,,,,,,,VFR,,,,,,,,,,,,METAR,109.0
KMCK 240753Z AUTO 31006KT 4SM BR OVC021 07/06 A2988 RMK AO2 SLP110 T00670061,KMCK,2018-03-24T07:53:00Z,40.2,-100.58,6.7,6.1,310,6,,4.0,29.878937,1011.0,,TRUE,TRUE,,,,,,BR,OVC,2100,,,,,,,MVFR,,,,,,,,,,,,METAR,782.0
KMCI 240753Z 11012KT 9SM BKN027 OVC034 09/07 A2967 RMK AO2 RAE01 PRESFR SLP044 P0000 T00890067,KMCI,2018-03-24T07:53:00Z,39.3,-94.73,8.9,6.7,110,12,,9.0,29.66929,1004.4,,,TRUE,,,,,,,BKN,2700,OVC,3400,,,,,MVFR,,,,,,0.005,,,,,,METAR,320.0
KMCE 240753Z AUTO 27005KT 10SM CLR 08/05 A3012 RMK AO2 SLP200 T00780050 401560028,KMCE,2018-03-24T07:53:00Z,37.28,-120.5,7.8,5.0,270,5,,10.0,30.121063,1020.0,,TRUE,TRUE,,,,,,,CLR,,,,,,,,VFR,,,,15.6,2.8,,,,,,,METAR,47.0
KMCB 240753Z AUTO 16005KT 10SM BKN033 15/13 A3007 RMK AO2 SLP179 T01500128,KMCB,2018-03-24T07:53:00Z,31.18,-90.47,15.0,12.8,160,5,,10.0,30.070866,1017.9,,TRUE,TRUE,,,,,,,BKN,3300,,,,,,,VFR,,,,,,,,,,,,METAR,124.0
KMBS 240753Z 01008KT 10SM CLR M04/M08 A3036 RMK AO2 SLP288 T10441083,KMBS,2018-03-24T07:53:00Z,43.53,-84.08,-4.4,-8.3,10,8,,10.0,30.360237,1028.8,,,TRUE,,,,,,,CLR,,,,,,,,VFR,,,,,,,,,,,,METAR,202.0
KMAI 240753Z AUTO 00000KT 10SM CLR 11/07 A3018 RMK AO2 SLP217 T01060067,KMAI,2018-03-24T07:53:00Z,30.83,-85.18,10.6,6.7,0,0,,10.0,30.180119,1021.7,,TRUE,TRUE,,,,,,,CLR,,,,,,,,VFR,,,,,,,,,,,,METAR,32.0
KGOK 240753Z AUTO 23013G21KT 10SM CLR 21/15 A2970 RMK AO2 SLP048 T02110150 $,KGOK,2018-03-24T07:53:00Z,35.85,-97.4,21.1,15.0,230,13,21,10.0,29.698818,1004.8,,TRUE,TRUE,TRUE,,,,,,CLR,,,,,,,,VFR,,,,,,,,,,,,METAR,324.0
KGNV 240753Z AUTO 00000KT 10SM CLR 09/06 A3023 RMK AO2 SLP236 T00890061,KGNV,2018-03-24T07:53:00Z,29.7,-82.28,8.9,6.1,0,0,,10.0,30.230314,1023.6,,TRUE,TRUE,,,,,,,CLR,,,,,,,,VFR,,,,,,,,,,,,METAR,45.0
KGMU 240753Z AUTO 09005KT 10SM OVC060 11/M02 A3016 RMK AO2 SLP212 T01111022,KGMU,2018-03-24T07:53:00Z,34.85,-82.35,11.1,-2.2,90,5,,10.0,30.159449,1021.2,,TRUE,TRUE,,,,,,,OVC,6000,,,,,,,VFR,,,,,,,,,,,,METAR,315.0
KGLH 240753Z AUTO 19012KT 10SM FEW036 17/11 A2996 RMK AO2 SLP151 T01720111,KGLH,2018-03-24T07:53:00Z,33.5,-90.98,17.2,11.1,190,12,,10.0,29.958662,1015.1,,TRUE,TRUE,,,,,,,FEW,3600,,,,,,,VFR,,,,,,,,,,,,METAR,45.0
KGLD 240753Z AUTO 33016G25KT 10SM CLR 07/04 A2994 RMK AO2 PK WND 33027/0734 SLP105 T00670044,KGLD,2018-03-24T07:53:00Z,39.37,-101.7,6.7,4.4,330,16,25,10.0,29.940945,1010.5,,TRUE,TRUE,,,,,,,CLR,,,,,,,,VFR,,,,,,,,,,,,METAR,1113.0
KGKY 240753Z AUTO 17014G19KT 10SM CLR 19/16 A2984 RMK AO2 SLP099 T01890161,KGKY,2018-03-24T07:53:00Z,32.67,-97.1,18.9,16.1,170,14,19,10.0,29.840551,1009.9,,TRUE,TRUE,,,,,,,CLR,,,,,,,,VFR,,,,,,,,,,,,METAR,192.0
KGKJ 240753Z AUTO 29003KT 10SM CLR M06/M07 A3022 RMK AO2 SLP251 I1000 T10611067,KGKJ,2018-03-24T07:53:00Z,41.63,-80.22,-6.1,-6.7,290,3,,10.0,30.221457,1025.1,,TRUE,TRUE,,,,,,,CLR,,,,,,,,VFR,,,,,,,,,,,,METAR,428.0
KGJT 240753Z AUTO 11006KT 10SM FEW080 05/03 A3003 RMK AO2 SLP145 T00500033,KGJT,2018-03-24T07:53:00Z,39.12,-108.52,5.0,3.3,110,6,,10.0,30.029528,1014.5,,TRUE,TRUE,,,,,,,FEW,8000,,,,,,,VFR,,,,,,,,,,,,METAR,1475.0
KGIF 240753Z AUTO 00000KT 10SM CLR 12/09 A3022 RMK AO2 SLP233 T01170094,KGIF,2018-03-24T07:53:00Z,28.07,-81.75,11.7,9.4,0,0,,10.0,30.221457,1023.3,,TRUE,TRUE,,,,,,,CLR,,,,,,,,VFR,,,,,,,,,,,,METAR,43.0
KGGW 240753Z AUTO 15006KT 1/4SM FG VV002 00/M01 A2996 RMK AO2 SLP169 T00001011,KGGW,2018-03-24T07:53:00Z,48.22,-106.62,0.0,-1.1,150,6,,0.25,29.958662,1016.9,,TRUE,TRUE,,,,,,FG,OVX,0,,,,,,,LIFR,,,,,,,,,,,200,METAR,694.0
KGGG 240753Z AUTO 20012G25KT 10SM OVC020 19/17 A2990 RMK AO2 SLP121 T01940167,KGGG,2018-03-24T07:53:00Z,32.38,-94.72,19.4,16.7,200,12,25,10.0,29.899607,1012.1,,TRUE,TRUE,,,,,,,OVC,2000,,,,,,,MVFR,,,,,,,,,,,,METAR,107.0
KGFL 240753Z AUTO 32005KT 10SM OVC090 02/M08 A3006 RMK AO2 SLP187 T00221078,KGFL,2018-03-24T07:53:00Z,43.33,-73.62,2.2,-7.8,320,5,,10.0,30.059055,1018.7,,TRUE,TRUE,,,,,,,OVC,9000,,,,,,,VFR,,,,,,,,,,,,METAR,103.0
KGFK 240753Z AUTO 13019G27KT 2 1/2SM -SN BR BKN011 BKN016 OVC022 M02/M03 A3019 RMK AO2 PK WND 13027/0749 SLP234 P0001 T10221028,KGFK,2018-03-24T07:53:00Z,47.95,-97.18,-2.2,-2.8,130,19,27,2.5,30.188976,1023.4,,TRUE,TRUE,,,,,,-SN BR,BKN,1100,BKN,1600,OVC,2200,,,IFR,,,,,,0.01,,,,,,METAR,258.0
KGEZ 240753Z AUTO 06008KT 10SM BKN100 OVC120 03/M04 A3020 RMK AO2 SLP230 T00331044 $,KGEZ,2018-03-24T07:53:00Z,39.58,-85.8,3.3,-4.4,60,8,,10.0,30.200787,1023.0,,TRUE,TRUE,TRUE,,,,,,BKN,10000,OVC,12000,,,,,VFR,,,,,,,,,,,,METAR,245.0
KGEY 240753Z AUTO 00000KT 10SM CLR 03/01 A2990 RMK AO2 SLP124 T00280011 $,KGEY,2018-03-24T07:53:00Z,44.52,-108.08,2.8,1.1,0,0,,10.0,29.899607,1012.4,,TRUE,TRUE,TRUE,,,,,,CLR,,,,,,,,VFR,,,,,,,,,,,,METAR,1191.0
KGEG 240753Z 10005KT 8SM -SN SCT004 BKN020 OVC035 02/01 A2974 RMK AO2 SLP083 RAB40E43SNB40 P0000 T00170011 400831017,KGEG,2018-03-24T07:53:00Z,47.62,-117.53,1.7,1.1,100,5,,8.0,29.740158,1008.3,,,TRUE,,,,,,-SN,SCT,400,BKN,2000,OVC,3500,,,MVFR,,,,8.3,-1.7,0.005,,,,,,METAR,735.0
KGCC 240753Z AUTO 20004KT 10SM CLR M04/M07 A2998 RMK AO2 SLP164 T10391067,KGCC,2018-03-24T07:53:00Z,44.33,-105.55,-3.9,-6.7,200,4,,10.0,29.97933,1016.4,,TRUE,TRUE,,,,,,,CLR,,,,,,,,VFR,,,,,,,,,,,,METAR,1320.0
KGAG 240753Z AUTO 34011KT CLR 14/07 A2982 RMK AO2 SLP075 T01440072,KGAG,2018-03-24T07:53:00Z,36.3,-99.77,14.4,7.2,340,11,,,29.819881,1007.5,,TRUE,TRUE,,,,,,,CLR,,,,,,,,,,,,,,,,,,,,METAR,668.0
KFYV 240753Z AUTO 19012G18KT 10SM OVC037 18/13 A2977 RMK AO2 SLP069 T01830128,KFYV,2018-03-24T07:53:00Z,36.02,-94.17,18.3,12.8,190,12,18,10.0,29.769686,1006.9,,TRUE,TRUE,,,,,,,OVC,3700,,,,,,,VFR,,,,,,,,,,,,METAR,379.0
KFXE 240753Z 00000KT 10SM CLR 16/08 A3018 RMK AO2 SLP220 T01560078,KFXE,2018-03-24T07:53:00Z,26.2,-80.18,15.6,7.8,0,0,,10.0,30.180119,1022.0,,,TRUE,,,,,,,CLR,,,,,,,,VFR,,,,,,,,,,,,METAR,6.0
KFWN 240753Z AUTO 33003KT 10SM CLR 00/M07 A3008 RMK AO2 SLP191 T00001072,KFWN,2018-03-24T07:53:00Z,41.2,-74.63,0.0,-7.2,330,3,,10.0,30.079725,1019.1,,TRUE,TRUE,,,,,,,CLR,,,,,,,,VFR,,,,,,,,,,,,METAR,133.0
KFVE 240753Z AUTO 34006KT 10SM CLR M03/M09 A2994 RMK AO2 SLP146 T10331094,KFVE,2018-03-24T07:53:00Z,47.28,-68.3,-3.3,-9.4,340,6,,10.0,29.940945,1014.6,,TRUE,TRUE,,,,,,,CLR,,,,,,,,VFR,,,,,,,,,,,,METAR,301.0
KFUL 240753Z AUTO 00000KT 10SM CLR 13/11 A3004 RMK AO2 SLP170 T01280106 402110128,KFUL,2018-03-24T07:53:00Z,33.87,-117.98,12.8,10.6,0,0,,10.0,30.041338,1017.0,,TRUE,TRUE,,,,,,,CLR,,,,,,,,VFR,,,,21.1,12.8,,,,,,,METAR,35.0
KFTY 240753Z 00000KT 10SM OVC100 09/07 A3013 RMK AO2 SLP202 T00890067,KFTY,2018-03-24T07:53:00Z,33.78,-84.52,8.9,6.7,0,0,,10.0,30.129921,1020.2,,,TRUE,,,,,,,OVC,10000,,,,,,,VFR,,,,,,,,,,,,METAR,263.0
KFTW 240753Z 19015G25KT 10SM CLR 20/17 A2982 RMK AO2 PK WND 18031/0740 SLP091 T02000167,KFTW,2018-03-24T07:53:00Z,32.83,-97.37,20.0,16.7,190,15,25,10.0,29.819881,1009.1,,,TRUE,,,,,,,CLR,,,,,,,,VFR,,,,,,,,,,,,METAR,214.0
KFST 240753Z AUTO 23010KT 10SM CLR 18/06 A2995 RMK AO2 SLP095 T01780061,KFST,2018-03-24T07:53:00Z,30.92,-102.92,17.8,6.1,230,10,,10.0,29.949802,1009.5,,TRUE,TRUE,,,,,,,CLR,,,,,,,,VFR,,,,,,,,,,,,METAR,918.0
KFSM 240753Z AUTO 20011KT 10SM BKN042 21/14 A2979 RMK AO2 SLP082 T02110139,KFSM,2018-03-24T07:53:00Z,35.33,-94.37,21.1,13.9,200,11,,10.0,29.790354,1008.2,,TRUE,TRUE,,,,,,,BKN,4200,,,,,,,VFR,,,,,,,,,,,,METAR,140.0
KFRG 240753Z AUTO 33008KT 10SM BKN095 03/M06 A3005 RMK AO2 SLP178 T00281056,KFRG,2018-03-24T07:53:00Z,40.73,-73.42,2.8,-5.6,330,8,,10.0,30.050198,1017.8,,TRUE,TRUE,,,,,,,BKN,9500,,,,,,,VFR,,,,,,,,,,,,METAR,21.0
KFPR 240753Z AUTO 00000KT 10SM CLR 08/07 A3018 RMK AO2 SLP221 T00780072,KFPR,2018-03-24T07:53:00Z,27.5,-80.38,7.8,7.2,0,0,,10.0,30.180119,1022.1,,TRUE,TRUE,,,,,,,CLR,,,,,,,,VFR,,,,,,,,,,,,METAR,13.0
KFOK 240753Z AUTO 32007KT 10SM SCT100 02/M04 A3004 RMK AO2 SLP174 T00171044,KFOK,2018-03-24T07:53:00Z,40.85,-72.62,1.7,-4.4,320,7,,10.0,30.041338,1017.4,,TRUE,TRUE,,,,,,,SCT,10000,,,,,,,VFR,,,,,,,,,,,,METAR,33.0
KFOE 240753Z AUTO 12008KT 10SM BKN034 OVC044 13/09 A2962 RMK AO2 SLP026 T01280089,KFOE,2018-03-24T07:53:00Z,38.93,-95.65,12.8,8.9,120,8,,10.0,29.619095,1002.6,,TRUE,TRUE,,,,,,,BKN,3400,OVC,4400,,,,,VFR,,,,,,,,,,,,METAR,320.0
KFNT 240753Z 00000KT 10SM CLR M08/M09 A3033 RMK AO2 SLP281 T10781094,KFNT,2018-03-24T07:53:00Z,42.97,-83.75,-7.8,-9.4,0,0,,10.0,30.33071,1028.1,,,TRUE,,,,,,,CLR,,,,,,,,VFR,,,,,,,,,,,,METAR,233.0
KOQT 240753Z AUTO 00000KT 10SM BKN070 06/03 A3017 RMK AO2 RAB23E42 SLP221 P0000 T00610028 ,KOQT,2018-03-24T07:53:00Z,36.02,-84.23,6.1,2.8,0,0,,10.0,30.171259,1022.1,,TRUE,TRUE,,,,,,,BKN,7000,,,,,,,VFR,,,,,,0.005,,,,,,METAR,277.0
PHJR 240753Z AUTO 05003KT 6SM RA BR FEW018 BKN035 OVC047 21/20 A3005 RMK AO2 SLP181 P0012 T02110200 TSNO,PHJR,2018-03-24T07:53:00Z,21.32,-158.07,21.1,20.0,50,3,,6.0,30.050198,1018.1,,TRUE,TRUE,,,TRUE,,,RA BR,FEW,1800,BKN,3500,OVC,4700,,,VFR,,,,,,0.12,,,,,,METAR,15.0
PAYA 240753Z AUTO 00000KT 10SM CLR M03/M04 A2975 RMK AO2 SLP075 I1001 T10281039 TSNO,PAYA,2018-03-24T07:53:00Z,59.52,-139.67,-2.8,-3.9,0,0,,10.0,29.749016,1007.5,,TRUE,TRUE,,,TRUE,,,,CLR,,,,,,,,VFR,,,,,,,,,,,,METAR,11.0
PAWI 240753Z AUTO 08009KT 10SM FEW060 M19/M22 A3005 RMK AO2 SLP176 T11891217 TSNO $,PAWI,2018-03-24T07:53:00Z,70.62,-159.85,-18.9,-21.7,80,9,,10.0,30.050198,1017.6,,TRUE,TRUE,TRUE,,TRUE,,,,FEW,6000,,,,,,,VFR,,,,,,,,,,,,METAR,27.0
PAWD 240753Z AUTO 03013G21KT 10SM CLR 01/M12 A2975 RMK AO2 SLP073 T00111117 TSNO,PAWD,2018-03-24T07:53:00Z,60.12,-149.42,1.1,-11.7,30,13,21,10.0,29.749016,1007.3,,TRUE,TRUE,,,TRUE,,,,CLR,,,,,,,,VFR,,,,,,,,,,,,METAR,23.0
PAVL 240753Z AUTO 12012KT 10SM FEW120 M06/M11 A3001 RMK AO2 SLP161 T10561111 TSNO PNO $,PAVL,2018-03-24T07:53:00Z,67.73,-164.55,-5.6,-11.1,120,12,,10.0,30.008858,1016.1,,TRUE,TRUE,TRUE,,TRUE,,,,FEW,12000,,,,,,,VFR,,,,,,,,,,,,METAR,3.0
PATO 240753Z AUTO 00000KT 10SM CLR M08/M12 A2979 RMK AO2 SLP090 T10831117 TSNO,PATO,2018-03-24T07:53:00Z,60.78,-148.85,-8.3,-11.7,0,0,,10.0,29.790354,1009.0,,TRUE,TRUE,,,TRUE,,,,CLR,,,,,,,,VFR,,,,,,,,,,,,METAR,31.0
PATK 240753Z AUTO 00000KT 10SM CLR M08/M13 A2979 RMK AO2 SLP095 T10781133 TSNO,PATK,2018-03-24T07:53:00Z,62.3,-150.1,-7.8,-13.3,0,0,,10.0,29.790354,1009.5,,TRUE,TRUE,,,TRUE,,,,CLR,,,,,,,,VFR,,,,,,,,,,,,METAR,109.0
PASO 240753Z AUTO 18006KT 10SM BKN100 BKN120 01/M04 A2980 RMK AO2 SLP092 T00111044 TSNO,PASO,2018-03-24T07:53:00Z,59.45,-151.7,1.1,-4.4,180,6,,10.0,29.799213,1009.2,,TRUE,TRUE,,,TRUE,,,,BKN,10000,BKN,12000,,,,,VFR,,,,,,,,,,,,METAR,9.0
PASN 240753Z AUTO 18011KT 9SM BKN015 BKN080 02/01 A2986 RMK AO2 SLP112 T00220011 TSNO,PASN,2018-03-24T07:53:00Z,57.15,-170.22,2.2,1.1,180,11,,9.0,29.861221,1011.2,,TRUE,TRUE,,,TRUE,,,,BKN,1500,BKN,8000,,,,,MVFR,,,,,,,,,,,,METAR,29.0
PASI 240753Z 08003KT 10SM CLR 00/M02 A2976 RMK AO2 SLP077 T00001017,PASI,2018-03-24T07:53:00Z,57.07,-135.35,0.0,-1.7,80,3,,10.0,29.760826,1007.7,,,TRUE,,,,,,,CLR,,,,,,,,VFR,,,,,,,,,,,,METAR,5.0
PASC 240753Z 08025KT 2 1/2SM BLSN BR CLR M20/M23 A3019 RMK AO2 PK WND 08031/0724 SLP224 T12001228,PASC,2018-03-24T07:53:00Z,70.2,-148.47,-20.0,-22.8,80,25,,2.5,30.188976,1022.4,,,TRUE,,,,,,BLSN BR,CLR,,,,,,,,IFR,,,,,,,,,,,,METAR,15.0
PAQT 240753Z AUTO 08021KT 4SM BR CLR M22/M23 A3019 RMK AO2 PK WND 08029/0703 SLP225 T12171233 TSNO,PAQT,2018-03-24T07:53:00Z,70.22,-151.0,-21.7,-23.3,80,21,,4.0,30.188976,1022.5,,TRUE,TRUE,,,TRUE,,,BR,CLR,,,,,,,,MVFR,,,,,,,,,,,,METAR,12.0
PAPB 240753Z AUTO 17014KT 10SM OVC090 03/01 A2990 RMK AO2 SLP112 T00280011 TSNO,PAPB,2018-03-24T07:53:00Z,56.58,-169.67,2.8,1.1,170,14,,10.0,29.899607,1011.2,,TRUE,TRUE,,,TRUE,,,,OVC,9000,,,,,,,VFR,,,,,,,,,,,,METAR,35.0
PAOT 240753Z 12014KT 10SM OVC120 M08/M12 A3003 RMK AO2 SLP168 T10831122,PAOT,2018-03-24T07:53:00Z,66.87,-162.58,-8.3,-12.2,120,14,,10.0,30.029528,1016.8,,,TRUE,,,,,,,OVC,12000,,,,,,,VFR,,,,,,,,,,,,METAR,3.0
PAOR 240753Z 00000KT 10SM CLR M21/M23 A2988 RMK AO2 SLP180 T12111228,PAOR,2018-03-24T07:53:00Z,62.97,-141.93,-21.1,-22.8,0,0,,10.0,29.878937,1018.0,,,TRUE,,,,,,,CLR,,,,,,,,VFR,,,,,,,,,,,,METAR,523.0
PAOM 240753Z AUTO 08015KT 10SM FEW006 BKN013 M07/M08 A2995 RMK AO2 SLP143 T10721078 TSNO,PAOM,2018-03-24T07:53:00Z,64.5,-165.43,-7.2,-7.8,80,15,,10.0,29.949802,1014.3,,TRUE,TRUE,,,TRUE,,,,FEW,600,BKN,1300,,,,,MVFR,,,,,,,,,,,,METAR,11.0
PANT 240753Z AUTO 00000KT 10SM -RA FEW015 SCT029 OVC035 03/03 A2973 RMK AO2 SLP070 P0001 T00280028 TSNO $,PANT,2018-03-24T07:53:00Z,55.03,-131.57,2.8,2.8,0,0,,10.0,29.731298,1007.0,,TRUE,TRUE,TRUE,,TRUE,,,-RA,FEW,1500,SCT,2900,OVC,3500,,,VFR,,,,,,0.01,,,,,,METAR,36.0
PANN 240753Z AUTO 32005KT 10SM CLR M07/M16 A2995 RMK AO2 SLP152 T10721156 TSNO,PANN,2018-03-24T07:53:00Z,64.55,-149.08,-7.2,-15.6,320,5,,10.0,29.949802,1015.2,,TRUE,TRUE,,,TRUE,,,,CLR,,,,,,,,VFR,,,,,,,,,,,,METAR,110.0
PANC 240753Z 16003KT 10SM CLR M06/M13 A2979 RMK AO2 SLP090 T10561128,PANC,2018-03-24T07:53:00Z,61.17,-150.0,-5.6,-12.8,160,3,,10.0,29.790354,1009.0,,,TRUE,,,,,,,CLR,,,,,,,,VFR,,,,,,,,,,,,METAR,38.0
PAMR 240753Z 00000KT 10SM CLR M04/M11 A2979 RMK AO2 SLP088 T10441106,PAMR,2018-03-24T07:53:00Z,61.22,-149.85,-4.4,-10.6,0,0,,10.0,29.790354,1008.8,,,TRUE,,,,,,,CLR,,,,,,,,VFR,,,,,,,,,,,,METAR,41.0
PAMC 240753Z AUTO 00000KT 10SM CLR M09/M13 A3002 RMK AO2 SLP176 T10941128 TSNO,PAMC,2018-03-24T07:53:00Z,62.97,-155.62,-9.4,-12.8,0,0,,10.0,30.02067,1017.6,,TRUE,TRUE,,,TRUE,,,,CLR,,,,,,,,VFR,,,,,,,,,,,,METAR,103.0
PALH 240753Z 00000KT 10SM CLR M06/M09 A2980 RMK AO2 SLP092 T10611094,PALH,2018-03-24T07:53:00Z,61.18,-149.97,-6.1,-9.4,0,0,,10.0,29.799213,1009.2,,,TRUE,,,,,,,CLR,,,,,,,,VFR,,,,,,,,,,,,METAR,22.0
PAKW 240753Z AUTO 04004KT 7SM -SN FEW017 OVC049 01/01 A2972 RMK AO2 SLP066 P0001 T00110006 TSNO,PAKW,2018-03-24T07:53:00Z,55.58,-133.07,1.1,0.6,40,4,,7.0,29.719488,1006.6,,TRUE,TRUE,,,TRUE,,,-SN,FEW,1700,OVC,4900,,,,,VFR,,,,,,0.01,,,,,,METAR,15.0
PAKV 240753Z AUTO 22003KT 10SM UP CLR M09/M09 A3009 RMK AO2 SLP195 P0000 T10891094 TSNO,PAKV,2018-03-24T07:53:00Z,64.33,-158.75,-8.9,-9.4,220,3,,10.0,30.088583,1019.5,,TRUE,TRUE,,,TRUE,,,UP,CLR,,,,,,,,VFR,,,,,,0.005,,,,,,METAR,61.0
PAKT 240753Z AUTO 00000KT 8SM -SN FEW006 OVC021 02/01 A2974 RMK AO2 RAE49SNB49 SLP070 P0001 T00170011 TSNO,PAKT,2018-03-24T07:53:00Z,55.35,-131.7,1.7,1.1,0,0,,8.0,29.740158,1007.0,,TRUE,TRUE,,,TRUE,,,-SN,FEW,600,OVC,2100,,,,,MVFR,,,,,,0.01,,,,,,METAR,28.0
PAJN 240753Z 00000KT 10SM CLR M03/M05 A2976 RMK AO2 SLP076 T10331050,PAJN,2018-03-24T07:53:00Z,58.35,-134.58,-3.3,-5.0,0,0,,10.0,29.760826,1007.6,,,TRUE,,,,,,,CLR,,,,,,,,VFR,,,,,,,,,,,,METAR,5.0
PAIL 240753Z AUTO 30018G24KT 10SM CLR M02/M06 A2998 RMK AO2 SLP156 T10221061 TSNO $,PAIL,2018-03-24T07:53:00Z,59.75,-154.92,-2.2,-6.1,300,18,24,10.0,29.97933,1015.6,,TRUE,TRUE,TRUE,,TRUE,,,,CLR,,,,,,,,VFR,,,,,,,,,,,,METAR,49.0
PAHO 240753Z AUTO 05005KT 10SM BKN120 00/M06 A2980 RMK AO2 SLP093 T00001056 TSNO,PAHO,2018-03-24T07:53:00Z,59.63,-151.47,0.0,-5.6,50,5,,10.0,29.799213,1009.3,,TRUE,TRUE,,,TRUE,,,,BKN,12000,,,,,,,VFR,,,,,,,,,,,,METAR,28.0
PAGY 240753Z AUTO 36006KT 10SM CLR 01/M12 A2982 RMK AO2 SLP098 T00061117 TSNO,PAGY,2018-03-24T07:53:00Z,59.47,-135.3,0.6,-11.7,360,6,,10.0,29.819881,1009.8,,TRUE,TRUE,,,TRUE,,,,CLR,,,,,,,,VFR,,,,,,,,,,,,METAR,5.0
PAGK 240753Z AUTO 00000KT 10SM CLR M14/M18 A2979 RMK AO2 SLP138 T11391178 TSNO,PAGK,2018-03-24T07:53:00Z,62.15,-145.45,-13.9,-17.8,0,0,,10.0,29.790354,1013.8,,TRUE,TRUE,,,TRUE,,,,CLR,,,,,,,,VFR,,,,,,,,,,,,METAR,481.0
PAFA 240753Z 36007KT 10SM CLR M06/M18 A2997 RMK AO2 SLP160 T10611178 $,PAFA,2018-03-24T07:53:00Z,64.8,-147.85,-6.1,-17.8,360,7,,10.0,29.970472,1016.0,,,TRUE,TRUE,,,,,,CLR,,,,,,,,VFR,,,,,,,,,,,,METAR,132.0
PAEN 240753Z 00000KT 10SM CLR M07/M09 A2981 RMK AO2 SLP097 T10671089,PAEN,2018-03-24T07:53:00Z,60.57,-151.25,-6.7,-8.9,0,0,,10.0,29.811024,1009.7,,,TRUE,,,,,,,CLR,,,,,,,,VFR,,,,,,,,,,,,METAR,27.0
PAEG 240753Z AUTO 00000KT 10SM CLR M19/M23 A3008 RMK AO2 SLP209 T11891228 TSNO,PAEG,2018-03-24T07:53:00Z,64.78,-141.15,-18.9,-22.8,0,0,,10.0,30.079725,1020.9,,TRUE,TRUE,,,TRUE,,,,CLR,,,,,,,,VFR,,,,,,,,,,,,METAR,268.0
PADQ 240753Z AUTO 29009G25KT 260V320 10SM CLR 03/M07 A2987 RMK AO2 SLP116 T00281067 TSNO,PADQ,2018-03-24T07:53:00Z,57.75,-152.5,2.8,-6.7,290,9,25,10.0,29.870079,1011.6,,TRUE,TRUE,,,TRUE,,,,CLR,,,,,,,,VFR,,,,,,,,,,,,METAR,34.0
PADE 240753Z AUTO 07003KT 10SM CLR M04/M07 A2999 RMK AO2 SLP156 T10441072 TSNO $,PADE,2018-03-24T07:53:00Z,66.07,-162.77,-4.4,-7.2,70,3,,10.0,29.991142,1015.6,,TRUE,TRUE,TRUE,,TRUE,,,,CLR,,,,,,,,VFR,,,,,,,,,,,,METAR,5.0
PACV 240753Z 00000KT 10SM CLR M04/M04 A2975 RMK AO2 SLP075 T10391044,PACV,2018-03-24T07:53:00Z,60.5,-145.47,-3.9,-4.4,0,0,,10.0,29.749016,1007.5,,,TRUE,,,,,,,CLR,,,,,,,,VFR,,,,,,,,,,,,METAR,12.0
PACD 240753Z 00000KT 10SM CLR M02/M03 A3012 RMK AO2 SLP202 T10171028,PACD,2018-03-24T07:53:00Z,55.2,-162.72,-1.7,-2.8,0,0,,10.0,30.121063,1020.2,,,TRUE,,,,,,,CLR,,,,,,,,VFR,,,,,,,,,,,,METAR,30.0
PABT 240753Z 00000KT 10SM FEW100 SCT150 M19/M22 A3011 RMK AO2 SLP219 T11891217,PABT,2018-03-24T07:53:00Z,66.92,-151.52,-18.9,-21.7,0,0,,10.0,30.109253,1021.9,,,TRUE,,,,,,,FEW,10000,SCT,15000,,,,,VFR,,,,,,,,,,,,METAR,195.0
PABR 240753Z AUTO 10020KT 5SM HZ CLR M18/M22 A3015 RMK AO2 PK WND 09032/0655 SLP211 T11831217 TSNO $,PABR,2018-03-24T07:53:00Z,71.28,-156.77,-18.3,-21.7,100,20,,5.0,30.15059,1021.1,,TRUE,TRUE,TRUE,,TRUE,,,HZ,CLR,,,,,,,,MVFR,,,,,,,,,,,,METAR,7.0
PABI 240753Z AUTO 09010KT 10SM CLR M07/M18 A2990 RMK AO2 SLP159 T10721178 TSNO,PABI,2018-03-24T07:53:00Z,64.0,-145.72,-7.2,-17.8,90,10,,10.0,29.899607,1015.9,,TRUE,TRUE,,,TRUE,,,,CLR,,,,,,,,VFR,,,,,,,,,,,,METAR,386.0
PABE 240753Z 17008KT 1/4SM R19R/1600FT FZFG VV002 M05/M06 A3007 RMK AO2 SLP186 I1007 T10501056,PABE,2018-03-24T07:53:00Z,60.78,-161.83,-5.0,-5.6,170,8,,0.25,30.070866,1018.6,,,TRUE,,,,,,FZFG,OVX,0,,,,,,,LIFR,,,,,,,,,,,200,METAR,41.0
PAAQ 240753Z AUTO VRB03KT 10SM CLR M06/M12 A2979 RMK AO2 SLP091 T10611117 TSNO,PAAQ,2018-03-24T07:53:00Z,61.6,-149.08,-6.1,-11.7,0,3,,10.0,29.790354,1009.1,,TRUE,TRUE,,,TRUE,,,,CLR,,,,,,,,VFR,,,,,,,,,,,,METAR,73.0
KTCS 240753Z AUTO 33009KT 10SM CLR 15/M05 A3007 RMK AO2 SLP109 T01501050,KTCS,2018-03-24T07:53:00Z,33.23,-107.27,15.0,-5.0,330,9,,10.0,30.070866,1010.9,,TRUE,TRUE,,,,,,,CLR,,,,,,,,VFR,,,,,,,,,,,,METAR,1469.0
KNIP 240753Z 00000KT 10SM SCT180 BKN250 12/07 A3020 RMK AO2 SLP223 T01220072 ,KNIP,2018-03-24T07:53:00Z,30.22,-81.67,12.2,7.2,0,0,,10.0,30.200787,1022.3,,,TRUE,,,,,,,SCT,18000,BKN,25000,,,,,VFR,,,,,,,,,,,,METAR,7.0
KP68 240753Z AUTO 17011KT 04/M03 A2985 RMK AO1 SLP076 T00441028 401330000 ,KP68,2018-03-24T07:53:00Z,39.6,-116.0,4.4,-2.8,170,11,,,29.84941,1007.6,,TRUE,TRUE,,,,,,,,,,,,,,,,,,,13.3,,,,,,,,METAR,1809.0
CYEN 240753Z 13009KT 15SM -SN OVC012 M02/M03 A2997 RMK SC8 SLP182,CYEN,2018-03-24T07:53:00Z,49.22,-102.97,-2.0,-3.0,130,9,,15.0,29.970472,1018.2,,,,,,,,,-SN,OVC,1200,,,,,,,MVFR,,,,,,,,,,,,SPECI,581.0
KSDB 240753Z AUTO 27003KT 10SM CLR 03/01 A3004 RMK AO2 SLP154 T00330006 401220011 $ ,KSDB,2018-03-24T07:53:00Z,34.75,-118.72,3.3,0.6,270,3,,10.0,30.041338,1015.4,,TRUE,TRUE,TRUE,,,,,,CLR,,,,,,,,VFR,,,,12.2,1.1,,,,,,,METAR,1377.0
KP92 240753Z AUTO 17004KT 19/17 A3005 RMK AO1 SLP176 T01890172 $ ,KP92,2018-03-24T07:53:00Z,29.57,-91.53,18.9,17.2,170,4,,,30.050198,1017.6,,TRUE,TRUE,TRUE,,,,,,,,,,,,,,,,,,,,,,,,,,METAR,1.0
KNQX 240753Z AUTO 03007KT 10SM CLR 18/12 A3018 RMK AO2 SLP218 T01830117 ,KNQX,2018-03-24T07:53:00Z,24.57,-81.67,18.3,11.7,30,7,,10.0,30.180119,1021.8,,TRUE,TRUE,,,,,,,CLR,,,,,,,,VFR,,,,,,,,,,,,METAR,2.0
KMWT 240753Z AUTO VRB06KT 10SM OVC031 19/13 A2985 RMK AO2 SLP101 T01890133 ,KMWT,2018-03-24T07:53:00Z,34.55,-93.58,18.9,13.3,0,6,,10.0,29.84941,1010.1,,TRUE,TRUE,,,,,,,OVC,3100,,,,,,,VFR,,,,,,,,,,,,METAR,214.0
KTUP 240753Z AUTO 16007KT 10SM FEW070 15/08 A3002 RMK AO2 SLP163 T01500078,KTUP,2018-03-24T07:53:00Z,34.27,-88.77,15.0,7.8,160,7,,10.0,30.02067,1016.3,,TRUE,TRUE,,,,,,,FEW,7000,,,,,,,VFR,,,,,,,,,,,,METAR,105.0
KPUC 240753Z AUTO 01005KT 10SM CLR 00/M06 A2999 RMK AO2 SLP155 T00001061,KPUC,2018-03-24T07:53:00Z,39.62,-110.75,0.0,-6.1,10,5,,10.0,29.991142,1015.5,,TRUE,TRUE,,,,,,,CLR,,,,,,,,VFR,,,,,,,,,,,,METAR,2091.0
KPNC 240753Z AUTO 23007KT 10SM CLR 19/14 A2968 RMK AO2 SLP040 T01890144,KPNC,2018-03-24T07:53:00Z,36.73,-97.1,18.9,14.4,230,7,,10.0,29.681103,1004.0,,TRUE,TRUE,,,,,,,CLR,,,,,,,,VFR,,,,,,,,,,,,METAR,308.0
KOVS 240753Z AUTO 07011G20KT 10SM SCT120 00/M08 A3022 RMK AO2 SLP239 T00001083,KOVS,2018-03-24T07:53:00Z,43.15,-90.68,0.0,-8.3,70,11,20,10.0,30.221457,1023.9,,TRUE,TRUE,,,,,,,SCT,12000,,,,,,,VFR,,,,,,,,,,,,METAR,202.0
KODX 240753Z AUTO 33006KT 4SM BR OVC006 05/04 A2985 RMK AO2 SLP116 T00500044,KODX,2018-03-24T07:53:00Z,41.62,-98.95,5.0,4.4,330,6,,4.0,29.84941,1011.6,,TRUE,TRUE,,,,,,BR,OVC,600,,,,,,,IFR,,,,,,,,,,,,METAR,631.0
KLXT 240753Z AUTO 08007KT 10SM BKN030 OVC038 11/08 A2970 RMK AO2 SLP055 T01060083,KLXT,2018-03-24T07:53:00Z,38.97,-94.37,10.6,8.3,80,7,,10.0,29.698818,1005.5,,TRUE,TRUE,,,,,,,BKN,3000,OVC,3800,,,,,MVFR,,,,,,,,,,,,METAR,306.0
KLSE 240753Z AUTO 09008KT 10SM CLR 01/M11 A3021 RMK AO2 SLP240 T00061111,KLSE,2018-03-24T07:53:00Z,43.88,-91.25,0.6,-11.1,90,8,,10.0,30.209646,1024.0,,TRUE,TRUE,,,,,,,CLR,,,,,,,,VFR,,,,,,,,,,,,METAR,199.0
KLND 240753Z AUTO 31003KT 10SM CLR M01/M08 A2994 RMK AO2 SLP129 T10111083,KLND,2018-03-24T07:53:00Z,42.82,-108.73,-1.1,-8.3,310,3,,10.0,29.940945,1012.9,,TRUE,TRUE,,,,,,,CLR,,,,,,,,VFR,,,,,,,,,,,,METAR,1694.0
KLKV 240753Z AUTO 18023G31KT 7SM -SN FEW016 SCT023 OVC029 01/M03 A2977 RMK AO2 PK WND 19031/0745 RAE24SNB24 SLP563 P0000 T00061033 400671039 FZRANO,KLKV,2018-03-24T07:53:00Z,42.17,-120.4,0.6,-3.3,180,23,31,7.0,29.769686,956.3,,TRUE,TRUE,,,,TRUE,,-SN,FEW,1600,SCT,2300,OVC,2900,,,MVFR,,,,6.7,-3.9,0.005,,,,,,METAR,1441.0
KJLN 240753Z AUTO 19018G27KT 10SM BKN033 OVC043 21/16 A2969 RMK AO2 PK WND 19027/0742 SLP045 T02060156,KJLN,2018-03-24T07:53:00Z,37.15,-94.5,20.6,15.6,190,18,27,10.0,29.68996,1004.5,,TRUE,TRUE,,,,,,,BKN,3300,OVC,4300,,,,,VFR,,,,,,,,,,,,METAR,299.0
KCNY 240753Z AUTO 00000KT 10SM CLR 06/03 A2998 RMK AO2 SLP131 T00610028,KCNY,2018-03-24T07:53:00Z,38.77,-109.75,6.1,2.8,0,0,,10.0,29.97933,1013.1,,TRUE,TRUE,,,,,,,CLR,,,,,,,,VFR,,,,,,,,,,,,METAR,1390.0
KBVO 240753Z AUTO 18006KT 10SM CLR 18/14 A2967 RMK AO2 SLP039 T01780144,KBVO,2018-03-24T07:53:00Z,36.77,-96.02,17.8,14.4,180,6,,10.0,29.66929,1003.9,,TRUE,TRUE,,,,,,,CLR,,,,,,,,VFR,,,,,,,,,,,,METAR,210.0
KBRL 240753Z AUTO 09016G25KT 3SM -RA BR OVC006 01/M01 A3002 RMK AO2 UPB02E04 CIG 004V010 SLP171 P0004 T00061006,KBRL,2018-03-24T07:53:00Z,40.77,-91.13,0.6,-0.6,90,16,25,3.0,30.02067,1017.1,,TRUE,TRUE,,,,,,-RA BR,OVC,600,,,,,,,IFR,,,,,,0.04,,,,,,METAR,211.0
EFIV 240753Z 20003KT 9999 FEW043 BKN064 M09/M12 Q0995,EFIV,2018-03-24T07:53:00Z,68.62,27.42,-9.0,-12.0,200,3,,6.21,29.379921,,,,,,,,,,,FEW,4300,BKN,6400,,,,,VFR,,,,,,,,,,,,METAR,148.0
PTKR 240753Z 35008KT 13SM -SHRA SCT017CB BKN120 OVC290 27/25 A2975 RMK SHRAB29 CB N-S AND OHD MOV W SLP074 T02690247,PTKR,2018-03-24T07:53:00Z,7.33,134.48,26.9,24.7,350,8,,13.0,29.749016,1007.4,,,,,,,,,-SHRA,SCT,1700,BKN,12000,OVC,29000,,,VFR,,,,,,,,,,,,METAR,30.0
KHUT 240752Z AUTO 30013KT 10SM CLR 12/10 A2969 RMK AO2 SLP038 T01170100,KHUT,2018-03-24T07:52:00Z,38.07,-97.87,11.7,10.0,300,13,,10.0,29.68996,1003.8,,TRUE,TRUE,,,,,,,CLR,,,,,,,,VFR,,,,,,,,,,,,METAR,467.0
KPYM 240752Z AUTO 33004KT 10SM SCT070 00/M04 A2997 RMK AO2 SLP149 T00001039,KPYM,2018-03-24T07:52:00Z,41.92,-70.73,0.0,-3.9,330,4,,10.0,29.970472,1014.9,,TRUE,TRUE,,,,,,,SCT,7000,,,,,,,VFR,,,,,,,,,,,,METAR,43.0
PATA 240752Z AUTO 01005KT 10SM CLR M15/M19 A3005 RMK AO2 SLP183 T11501189 TSNO PNO,PATA,2018-03-24T07:52:00Z,65.17,-152.1,-15.0,-18.9,10,5,,10.0,30.050198,1018.3,,TRUE,TRUE,,,TRUE,,,,CLR,,,,,,,,VFR,,,,,,,,,,,,METAR,67.0
KN60 240752Z AUTO 15012KT M02/M02 A3000 RMK AO1 SLP184 T10171022 ,KN60,2018-03-24T07:52:00Z,47.65,-101.43,-1.7,-2.2,150,12,,,30.0,1018.4,,TRUE,TRUE,,,,,,,,,,,,,,,,,,,,,,,,,,,METAR,582.0
KP69 240752Z AUTO 36004KT 02/01 A2982 RMK AO1 SLP105 T00220011 401330022 ,KP69,2018-03-24T07:52:00Z,46.15,-115.6,2.2,1.1,360,4,,,29.819881,1010.5,,TRUE,TRUE,,,,,,,,,,,,,,,,,,,13.3,2.2,,,,,,,METAR,480.0
KVTN 240752Z AUTO 5SM BR OVC006 05/04 A2991 RMK AO2 SLP135 T00500039 $,KVTN,2018-03-24T07:52:00Z,42.87,-100.55,5.0,3.9,,,,5.0,29.911417,1013.5,,TRUE,TRUE,TRUE,,,,,BR,OVC,600,,,,,,,IFR,,,,,,,,,,,,METAR,788.0
KTRM 240752Z AUTO 34009KT 10SM CLR 20/08 A2989 RMK AO2 SLP124 T02000083 403060139,KTRM,2018-03-24T07:52:00Z,33.63,-116.17,20.0,8.3,340,9,,10.0,29.890747,1012.4,,TRUE,TRUE,,,,,,,CLR,,,,,,,,VFR,,,,30.6,13.9,,,,,,,METAR,-35.0
KTOL 240752Z 00000KT 10SM CLR M04/M06 A3030 RMK AO2 SLP268 T10441056,KTOL,2018-03-24T07:52:00Z,41.58,-83.8,-4.4,-5.6,0,0,,10.0,30.301182,1026.8,,,TRUE,,,,,,,CLR,,,,,,,,VFR,,,,,,,,,,,,METAR,210.0
KTAN 240752Z AUTO 33003KT 10SM OVC095 03/M06 A2997 RMK AO2 SLP149 T00331061 $,KTAN,2018-03-24T07:52:00Z,41.88,-71.02,3.3,-6.1,330,3,,10.0,29.970472,1014.9,,TRUE,TRUE,TRUE,,,,,,OVC,9500,,,,,,,VFR,,,,,,,,,,,,METAR,7.0
KSUX 240752Z 10010KT 7SM RA OVC015 02/02 A2990 RMK AO2 SLP130 P0009 T00220017,KSUX,2018-03-24T07:52:00Z,42.38,-96.38,2.2,1.7,100,10,,7.0,29.899607,1013.0,,,TRUE,,,,,,RA,OVC,1500,,,,,,,MVFR,,,,,,0.09,,,,,,METAR,338.0
KSPS 240752Z AUTO 22014G21KT 10SM CLR 21/14 A2976 RMK AO2 SLP064 T02110144,KSPS,2018-03-24T07:52:00Z,33.98,-98.5,21.1,14.4,220,14,21,10.0,29.760826,1006.4,,TRUE,TRUE,,,,,,,CLR,,,,,,,,VFR,,,,,,,,,,,,METAR,308.0
KSPI 240752Z AUTO 07019G25KT 4SM -RA BR OVC006 03/02 A3005 RMK AO2 SLP176 P0020 T00280017,KSPI,2018-03-24T07:52:00Z,39.85,-89.68,2.8,1.7,70,19,25,4.0,30.050198,1017.6,,TRUE,TRUE,,,,,,-RA BR,OVC,600,,,,,,,IFR,,,,,,0.2,,,,,,METAR,181.0
KSGF 240752Z 16015KT 10SM OVC034 17/12 A2973 RMK AO2 SLP058 T01720122,KSGF,2018-03-24T07:52:00Z,37.23,-93.38,17.2,12.2,160,15,,10.0,29.731298,1005.8,,,TRUE,,,,,,,OVC,3400,,,,,,,VFR,,,,,,,,,,,,METAR,390.0
KRAP 240752Z AUTO 34007KT 10SM CLR M01/M02 A2997 RMK AO2 SLP163 T10061017 $,KRAP,2018-03-24T07:52:00Z,44.05,-103.05,-0.6,-1.7,340,7,,10.0,29.970472,1016.3,,TRUE,TRUE,TRUE,,,,,,CLR,,,,,,,,VFR,,,,,,,,,,,,METAR,965.0
KPWK 240752Z AUTO 10008KT 10SM CLR 02/M02 A3025 RMK AO2 SLP249 T00221022,KPWK,2018-03-24T07:52:00Z,42.12,-87.9,2.2,-2.2,100,8,,10.0,30.250984,1024.9,,TRUE,TRUE,,,,,,,CLR,,,,,,,,VFR,,,,,,,,,,,,METAR,203.0
KPPF 240752Z AUTO 18011KT 10SM CLR 18/16 A2966 RMK AO2 SLP037 T01780156,KPPF,2018-03-24T07:52:00Z,37.33,-95.5,17.8,15.6,180,11,,10.0,29.660433,1003.7,,TRUE,TRUE,,,,,,,CLR,,,,,,,,VFR,,,,,,,,,,,,METAR,274.0
KORE 240752Z AUTO 30003KT 10SM OVC095 M01/M07 A3002 RMK AO2 SLP170 T10061072,KORE,2018-03-24T07:52:00Z,42.57,-72.28,-0.6,-7.2,300,3,,10.0,30.02067,1017.0,,TRUE,TRUE,,,,,,,OVC,9500,,,,,,,VFR,,,,,,,,,,,,METAR,164.0
KOMA 240752Z 05006KT 8SM -RA OVC026 05/04 A2982 RMK AO2 SLP101 P0016 T00500039,KOMA,2018-03-24T07:52:00Z,41.32,-95.9,5.0,3.9,50,6,,8.0,29.819881,1010.1,,,TRUE,,,,,,-RA,OVC,2600,,,,,,,MVFR,,,,,,0.16,,,,,,METAR,312.0
KOKC 240752Z 21013KT 10SM CLR 19/14 A2972 RMK AO2 PK WND 21026/0701 SLP052 T01940144,KOKC,2018-03-24T07:52:00Z,35.38,-97.6,19.4,14.4,210,13,,10.0,29.719488,1005.2,,,TRUE,,,,,,,CLR,,,,,,,,VFR,,,,,,,,,,,,METAR,390.0
KOKB 240752Z AUTO 00000KT 10SM OVC013 13/12 A3005 RMK AO2 SLP176 T01280117 401830117,KOKB,2018-03-24T07:52:00Z,33.22,-117.35,12.8,11.7,0,0,,10.0,30.050198,1017.6,,TRUE,TRUE,,,,,,,OVC,1300,,,,,,,MVFR,,,,18.3,11.7,,,,,,,METAR,8.0
KMWH 240752Z AUTO 01005KT 10SM OVC060 03/02 A2973 RMK AO2 SLP072 T00330017 400941033,KMWH,2018-03-24T07:52:00Z,47.2,-119.32,3.3,1.7,10,5,,10.0,29.731298,1007.2,,TRUE,TRUE,,,,,,,OVC,6000,,,,,,,VFR,,,,9.4,-3.3,,,,,,,METAR,362.0
KMLI 240752Z AUTO 08016G23KT 3/4SM R09/P6000FT -SN BR BKN007 OVC014 M01/M02 A3013 RMK AO2 LTG DSNT SE SLP206 P0005 T10061017,KMLI,2018-03-24T07:52:00Z,41.45,-90.52,-0.6,-1.7,80,16,23,0.75,30.129921,1020.6,,TRUE,TRUE,,,,,,-SN BR,BKN,700,OVC,1400,,,,,LIFR,,,,,,0.05,,,,,,METAR,184.0
KMLF 240752Z AUTO 23012KT 10SM CLR 04/M02 A2995 RMK AO2 WSHFT 0738 SLP117 T00441017,KMLF,2018-03-24T07:52:00Z,38.42,-113.02,4.4,-1.7,230,12,,10.0,29.949802,1011.7,,TRUE,TRUE,,,,,,,CLR,,,,,,,,VFR,,,,,,,,,,,,METAR,1534.0
KMKE 240752Z 09010KT 10SM FEW250 02/M03 A3027 RMK AO2 SLP257 T00171028,KMKE,2018-03-24T07:52:00Z,42.95,-87.9,1.7,-2.8,90,10,,10.0,30.268702,1025.7,,,TRUE,,,,,,,FEW,25000,,,,,,,VFR,,,,,,,,,,,,METAR,206.0
KMHK 240752Z AUTO 07004KT 10SM FEW020 SCT026 BKN034 12/08 A2964 RMK AO2 SLP031 T01170078,KMHK,2018-03-24T07:52:00Z,39.13,-96.68,11.7,7.8,70,4,,10.0,29.639763,1003.1,,TRUE,TRUE,,,,,,,FEW,2000,SCT,2600,BKN,3400,,,VFR,,,,,,,,,,,,METAR,317.0
KMFD 240752Z 02005KT 10SM CLR M05/M07 A3025 RMK AO2 SLP256 T10501072,KMFD,2018-03-24T07:52:00Z,40.82,-82.52,-5.0,-7.2,20,5,,10.0,30.250984,1025.6,,,TRUE,,,,,,,CLR,,,,,,,,VFR,,,,,,,,,,,,METAR,395.0
KMEB 240752Z AUTO 00000KT 10SM OVC110 03/01 A3020 RMK AO2 SLP227 T00280011,KMEB,2018-03-24T07:52:00Z,34.78,-79.37,2.8,1.1,0,0,,10.0,30.200787,1022.7,,TRUE,TRUE,,,,,,,OVC,11000,,,,,,,VFR,,,,,,,,,,,,METAR,67.0
KMDH 240752Z AUTO 10008KT 8SM -RA OVC008 07/06 A2997 RMK AO2 RAB19 CIG 007V013 SLP149 P0000 T00720061,KMDH,2018-03-24T07:52:00Z,37.78,-89.25,7.2,6.1,100,8,,8.0,29.970472,1014.9,,TRUE,TRUE,,,,,,-RA,OVC,800,,,,,,,IFR,,,,,,0.005,,,,,,METAR,130.0
KMBG 240752Z AUTO 12011KT 3SM BR OVC006 01/00 A2997 RMK AO2 SLP165 T00110000,KMBG,2018-03-24T07:52:00Z,45.55,-100.42,1.1,0.0,120,11,,3.0,29.970472,1016.5,,TRUE,TRUE,,,,,,BR,OVC,600,,,,,,,IFR,,,,,,,,,,,,METAR,510.0
KLWC 240752Z AUTO 10010KT 10SM FEW035 SCT050 OVC060 12/08 A2965 RMK AO2 SLP037 T01170078,KLWC,2018-03-24T07:52:00Z,39.02,-95.22,11.7,7.8,100,10,,10.0,29.648623,1003.7,,TRUE,TRUE,,,,,,,FEW,3500,SCT,5000,OVC,6000,,,VFR,,,,,,,,,,,,METAR,253.0
KISN 240752Z AUTO 22003KT 6SM BR OVC006 00/M01 A2999 RMK AO2 SLP177 T00001011,KISN,2018-03-24T07:52:00Z,48.17,-103.63,0.0,-1.1,220,3,,6.0,29.991142,1017.7,,TRUE,TRUE,,,,,,BR,OVC,600,,,,,,,IFR,,,,,,,,,,,,METAR,579.0
KIOW 240752Z AUTO 08015G22KT 3SM -SN BR SCT008 SCT017 OVC031 M01/M03 A3008 RMK AO2 UPB0654E0659SNE0654B0659 SLP189 P0004 I1000 T10111033,KIOW,2018-03-24T07:52:00Z,41.63,-91.55,-1.1,-3.3,80,15,22,3.0,30.079725,1018.9,,TRUE,TRUE,,,,,,-SN BR,SCT,800,SCT,1700,OVC,3100,,,MVFR,,,,,,0.04,,,,,,METAR,198.0
KIJD 240752Z AUTO 30006KT 10SM SCT060 OVC080 03/M07 A3002 RMK AO2 SLP165 T00281067,KIJD,2018-03-24T07:52:00Z,41.75,-72.18,2.8,-6.7,300,6,,10.0,30.02067,1016.5,,TRUE,TRUE,,,,,,,SCT,6000,OVC,8000,,,,,VFR,,,,,,,,,,,,METAR,75.0
KIEN 240752Z AUTO 31004KT CLR 01/00 A2998 RMK AO2 SLP154 T00060000 $,KIEN,2018-03-24T07:52:00Z,43.03,-102.52,0.6,0.0,310,4,,,29.97933,1015.4,,TRUE,TRUE,TRUE,,,,,,CLR,,,,,,,,,,,,,,,,,,,,METAR,998.0
KIAD 240752Z 31003KT 10SM CLR M02/M07 A3020 RMK AO2 SLP228 T10171067,KIAD,2018-03-24T07:52:00Z,38.93,-77.45,-1.7,-6.7,310,3,,10.0,30.200787,1022.8,,,TRUE,,,,,,,CLR,,,,,,,,VFR,,,,,,,,,,,,METAR,93.0
KHRL 240752Z AUTO 16022G31KT 10SM SCT018 OVC024 23/21 A2991 RMK AO2 PK WND 16031/0752 SLP129 T02330206,KHRL,2018-03-24T07:52:00Z,26.23,-97.65,23.3,20.6,160,22,31,10.0,29.911417,1012.9,,TRUE,TRUE,,,,,,,SCT,1800,OVC,2400,,,,,MVFR,,,,,,,,,,,,METAR,10.0
KGLS 240752Z AUTO 18015KT 10SM SCT021 OVC027 21/19 A3000 RMK AO2 SLP157 T02110194,KGLS,2018-03-24T07:52:00Z,29.27,-94.87,21.1,19.4,180,15,,10.0,30.0,1015.7,,TRUE,TRUE,,,,,,,SCT,2100,OVC,2700,,,,,MVFR,,,,,,,,,,,,METAR,6.0
KFIT 240752Z AUTO 32005KT 10SM SCT060 OVC095 04/M06 A3000 RMK AO2 SLP160 T00391061,KFIT,2018-03-24T07:52:00Z,42.55,-71.75,3.9,-6.1,320,5,,10.0,30.0,1016.0,,TRUE,TRUE,,,,,,,SCT,6000,OVC,9500,,,,,VFR,,,,,,,,,,,,METAR,103.0
KEST 240752Z AUTO 10027G38KT 5SM -SN BR OVC007 M01/M01 A2996 RMK AO2 PK WND 10039/0659 FZRAE50SNB50 SLP158 P0000 I1006 T10061011 $,KEST,2018-03-24T07:52:00Z,43.4,-94.75,-0.6,-1.1,100,27,38,5.0,29.958662,1015.8,,TRUE,TRUE,TRUE,,,,,-SN BR,OVC,700,,,,,,,IFR,,,,,,0.005,,,,,,METAR,401.0
KDVN 240752Z AUTO 07015KT 1/2SM SN FZFG VV005 M01/M03 A3015 RMK AO2 LTG DSNT SE SLP212 P0010 T10111028,KDVN,2018-03-24T07:52:00Z,41.62,-90.58,-1.1,-2.8,70,15,,0.5,30.15059,1021.2,,TRUE,TRUE,,,,,,SN FZFG,OVX,0,,,,,,,LIFR,,,,,,0.1,,,,,500,METAR,230.0
KDPA 240752Z 08011KT 10SM CLR 01/M03 A3020 RMK AO2 SLP233 T00111028,KDPA,2018-03-24T07:52:00Z,41.92,-88.25,1.1,-2.8,80,11,,10.0,30.200787,1023.3,,,TRUE,,,,,,,CLR,,,,,,,,VFR,,,,,,,,,,,,METAR,231.0
KDDC 240752Z AUTO 31014KT 8SM CLR 09/06 A2984 RMK AO2 SLP084 T00890056,KDDC,2018-03-24T07:52:00Z,37.77,-99.97,8.9,5.6,310,14,,8.0,29.840551,1008.4,,TRUE,TRUE,,,,,,,CLR,,,,,,,,VFR,,,,,,,,,,,,METAR,789.0
KDCA 240752Z 33007KT 10SM CLR 02/M07 A3021 RMK AO2 SLP228 T00171067,KDCA,2018-03-24T07:52:00Z,38.85,-77.03,1.7,-6.7,330,7,,10.0,30.209646,1022.8,,,TRUE,,,,,,,CLR,,,,,,,,VFR,,,,,,,,,,,,METAR,18.0
KCVG 240752Z 08009KT 10SM OVC110 03/M04 A3022 RMK AO2 SLP233 T00281044,KCVG,2018-03-24T07:52:00Z,39.05,-84.67,2.8,-4.4,80,9,,10.0,30.221457,1023.3,,,TRUE,,,,,,,OVC,11000,,,,,,,VFR,,,,,,,,,,,,METAR,269.0
KCQX 240752Z AUTO 00000KT 10SM BKN080 M01/M03 A2996 RMK AO2 SLP148 T10111028,KCQX,2018-03-24T07:52:00Z,41.68,-70.0,-1.1,-2.8,0,0,,10.0,29.958662,1014.8,,TRUE,TRUE,,,,,,,BKN,8000,,,,,,,VFR,,,,,,,,,,,,METAR,19.0
KCNU 240752Z AUTO 18014KT 10SM CLR 17/16 A2964 RMK AO2 SLP029 T01720156,KCNU,2018-03-24T07:52:00Z,37.67,-95.48,17.2,15.6,180,14,,10.0,29.639763,1002.9,,TRUE,TRUE,,,,,,,CLR,,,,,,,,VFR,,,,,,,,,,,,METAR,297.0
KCLT 240752Z 06004KT 10SM OVC080 09/M05 A3020 RMK AO2 SLP223 T00891050,KCLT,2018-03-24T07:52:00Z,35.22,-80.95,8.9,-5.0,60,4,,10.0,30.200787,1022.3,,,TRUE,,,,,,,OVC,8000,,,,,,,VFR,,,,,,,,,,,,METAR,220.0
KCKV 240752Z AUTO 10009KT 10SM OVC060 08/05 A3003 RMK AO2 SLP169 P0001 T00780050,KCKV,2018-03-24T07:52:00Z,36.62,-87.42,7.8,5.0,100,9,,10.0,30.029528,1016.9,,TRUE,TRUE,,,,,,,OVC,6000,,,,,,,VFR,,,,,,0.01,,,,,,METAR,165.0
KCID 240752Z AUTO 09023G30KT 1 1/2SM -SN BR FEW008 BKN013 OVC031 M02/M03 A3005 RMK AO2 PK WND 08034/0704 SLP181 P0002 T10221033,KCID,2018-03-24T07:52:00Z,41.88,-91.72,-2.2,-3.3,90,23,30,1.5,30.050198,1018.1,,TRUE,TRUE,,,,,,-SN BR,FEW,800,BKN,1300,OVC,3100,,,IFR,,,,,,0.02,,,,,,METAR,264.0
KBML 240752Z AUTO 00000KT 10SM CLR M06/M08 A2998 RMK AO2 SLP166 T10561078,KBML,2018-03-24T07:52:00Z,44.58,-71.18,-5.6,-7.8,0,0,,10.0,29.97933,1016.6,,TRUE,TRUE,,,,,,,CLR,,,,,,,,VFR,,,,,,,,,,,,METAR,345.0
KBLU 240752Z AUTO 17011KT 10SM BKN003 OVC008 M02/M02 A3001 RMK AO2 SLP176 T10171022 400331039,KBLU,2018-03-24T07:52:00Z,39.28,-120.7,-1.7,-2.2,170,11,,10.0,30.008858,1017.6,,TRUE,TRUE,,,,,,,BKN,300,OVC,800,,,,,LIFR,,,,3.3,-3.9,,,,,,,METAR,1609.0
KBLH 240752Z AUTO 13007KT 10SM CLR 17/03 A2990 RMK AO2 SLP119 T01720028 402780150,KBLH,2018-03-24T07:52:00Z,33.62,-114.72,17.2,2.8,130,7,,10.0,29.899607,1011.9,,TRUE,TRUE,,,,,,,CLR,,,,,,,,VFR,,,,27.8,15.0,,,,,,,METAR,119.0
KBLF 240752Z AUTO 00000KT 10SM CLR M01/M11 A3015 RMK AO2 SLP220 T10111106,KBLF,2018-03-24T07:52:00Z,37.3,-81.2,-1.1,-10.6,0,0,,10.0,30.15059,1022.0,,TRUE,TRUE,,,,,,,CLR,,,,,,,,VFR,,,,,,,,,,,,METAR,873.0
KBIS 240752Z AUTO 13010KT 6SM BR OVC007 M01/M02 A3004 RMK AO2 SLP192 T10061017,KBIS,2018-03-24T07:52:00Z,46.77,-100.75,-0.6,-1.7,130,10,,6.0,30.041338,1019.2,,TRUE,TRUE,,,,,,BR,OVC,700,,,,,,,IFR,,,,,,,,,,,,METAR,505.0
KBDR 240752Z AUTO 32007KT 10SM CLR 03/M06 A3004 RMK AO2 SLP173 T00281056,KBDR,2018-03-24T07:52:00Z,41.17,-73.13,2.8,-5.6,320,7,,10.0,30.041338,1017.3,,TRUE,TRUE,,,,,,,CLR,,,,,,,,VFR,,,,,,,,,,,,METAR,7.0
KATL 240752Z 12003KT 10SM SCT080 BKN110 12/05 A3013 RMK AO2 SLP202 T01170050,KATL,2018-03-24T07:52:00Z,33.63,-84.45,11.7,5.0,120,3,,10.0,30.129921,1020.2,,,TRUE,,,,,,,SCT,8000,BKN,11000,,,,,VFR,,,,,,,,,,,,METAR,296.0
KARR 240752Z AUTO 07013KT 10SM FEW120 02/M04 A3020 RMK AO2 SLP231 T00221044,KARR,2018-03-24T07:52:00Z,41.77,-88.48,2.2,-4.4,70,13,,10.0,30.200787,1023.1,,TRUE,TRUE,,,,,,,FEW,12000,,,,,,,VFR,,,,,,,,,,,,METAR,215.0
KAQW 240752Z AUTO 00000KT 10SM BKN080 M02/M06 A3004 RMK AO2 SLP179 T10221061,KAQW,2018-03-24T07:52:00Z,42.7,-73.17,-2.2,-6.1,0,0,,10.0,30.041338,1017.9,,TRUE,TRUE,,,,,,,BKN,8000,,,,,,,VFR,,,,,,,,,,,,METAR,199.0
KALS 240752Z AUTO 20007KT 10SM CLR M04/M09 A3013 RMK AO2 SLP185 T10391094,KALS,2018-03-24T07:52:00Z,37.43,-105.87,-3.9,-9.4,200,7,,10.0,30.129921,1018.5,,TRUE,TRUE,,,,,,,CLR,,,,,,,,VFR,,,,,,,,,,,,METAR,2299.0
KAFN 240752Z AUTO 36003KT 10SM SCT065 OVC090 01/M07 A2998 RMK AO2 SLP165 T00061072 TSNO,KAFN,2018-03-24T07:52:00Z,42.8,-72.0,0.6,-7.2,360,3,,10.0,29.97933,1016.5,,TRUE,TRUE,,,TRUE,,,,SCT,6500,OVC,9000,,,,,VFR,,,,,,,,,,,,METAR,313.0
KABQ 240752Z 27006KT 10SM FEW130 SCT250 11/M10 A3011 RMK AO2 SLP135 T01061100,KABQ,2018-03-24T07:52:00Z,35.05,-106.62,10.6,-10.0,270,6,,10.0,30.109253,1013.5,,,TRUE,,,,,,,FEW,13000,SCT,25000,,,,,VFR,,,,,,,,,,,,METAR,1618.0
KABI 240752Z 20018G27KT 10SM CLR 20/16 A2984 RMK AO2 PK WND 20029/0702 SLP081 T02000156,KABI,2018-03-24T07:52:00Z,32.42,-99.68,20.0,15.6,200,18,27,10.0,29.840551,1008.1,,,TRUE,,,,,,,CLR,,,,,,,,VFR,,,,,,,,,,,,METAR,548.0
KBAN 240752Z AUTO 22012G21KT 10SM CLR M01/M16 A2988 RMK AO2 PK WND 19028/0701 SLP109 T10111156 400561056 $ ,KBAN,2018-03-24T07:52:00Z,38.35,-119.52,-1.1,-15.6,220,12,21,10.0,29.878937,1010.9,,TRUE,TRUE,TRUE,,,,,,CLR,,,,,,,,VFR,,,,5.6,-5.6,,,,,,,METAR,2057.0
KCDJ 240752Z AUTO 09011G18KT 07/06 A2978 RMK AO1 SLP087 P0028 T00670056 ,KCDJ,2018-03-24T07:52:00Z,39.82,-93.58,6.7,5.6,90,11,18,,29.778543,1008.7,,TRUE,TRUE,,,,,,,,,,,,,,,,,,,,,0.28,,,,,,METAR,234.0
KCZZ 240752Z AUTO 22004KT 09/09 A3001 RMK AO1 SLP144 T00940089 401940094 ,KCZZ,2018-03-24T07:52:00Z,32.63,-116.47,9.4,8.9,220,4,,,30.008858,1014.4,,TRUE,TRUE,,,,,,,,,,,,,,,,,,,19.4,9.4,,,,,,,METAR,807.0
KREO 240752Z AUTO 22014KT 05/M11 A2979 RMK AO1 SLP088 T00501106,KREO,2018-03-24T07:52:00Z,42.58,-117.87,5.0,-10.6,220,14,,,29.790354,1008.8,,TRUE,TRUE,,,,,,,,,,,,,,,,,,,,,,,,,,,METAR,1235.0
KNRB 240752Z AUTO 21004KT 10SM CLR 11/08 A3019 RMK AO2 SLP223 T01060083 PWINO $,KNRB,2018-03-24T07:52:00Z,30.38,-81.42,10.6,8.3,210,4,,10.0,30.188976,1022.3,,TRUE,TRUE,TRUE,,,,TRUE,,CLR,,,,,,,,VFR,,,,,,,,,,,,METAR,5.0
KNZY 240752Z AUTO 16004KT 10SM OVC023 14/12 A3005 RMK AO2 SLP176 T01440122 401830139 $,KNZY,2018-03-24T07:52:00Z,32.7,-117.22,14.4,12.2,160,4,,10.0,30.050198,1017.6,,TRUE,TRUE,TRUE,,,,,,OVC,2300,,,,,,,MVFR,,,,18.3,13.9,,,,,,,METAR,8.0
PABA 240752Z 08013KT 10SM CLR M23/M26 A3034 RMK AO2 SLP260 T12331256 FZRANO,PABA,2018-03-24T07:52:00Z,70.13,-143.58,-23.3,-25.6,80,13,,10.0,30.339567,1026.0,,,TRUE,,,,TRUE,,,CLR,,,,,,,,VFR,,,,,,,,,,,,METAR,2.0
KHNB 240752Z AUTO 09011KT 6SM RA BR OVC028 05/04 A3011 RMK AO2 P0007,KHNB,2018-03-24T07:52:00Z,38.25,-86.95,5.0,4.0,90,11,,6.0,30.109253,,,TRUE,TRUE,,,,,,RA BR,OVC,2800,,,,,,,MVFR,,,,,,0.07,,,,,,METAR,161.0
KHIE 240752Z AUTO 00000KT 10SM SCT055 BKN070 M06/M07 A3000 RMK AO2 SLP171 T10561072,KHIE,2018-03-24T07:52:00Z,44.37,-71.55,-5.6,-7.2,0,0,,10.0,30.0,1017.1,,TRUE,TRUE,,,,,,,SCT,5500,BKN,7000,,,,,VFR,,,,,,,,,,,,METAR,318.0
KDVL 240752Z AUTO 13017G22KT 10SM OVC011 M02/M03 A3010 RMK AO2 UPE10 CIG 008V013 P0000 FZRANO,KDVL,2018-03-24T07:52:00Z,48.12,-98.92,-2.0,-3.0,130,17,22,10.0,30.100393,,,TRUE,TRUE,,,,TRUE,,,OVC,1100,,,,,,,MVFR,,,,,,0.005,,,,,,METAR,443.0
KCFV 240752Z AUTO 19013KT 10SM CLR 18/15 A2966 RMK AO2 SLP038 T01780150,KCFV,2018-03-24T07:52:00Z,37.08,-95.57,17.8,15.0,190,13,,10.0,29.660433,1003.8,,TRUE,TRUE,,,,,,,CLR,,,,,,,,VFR,,,,,,,,,,,,METAR,225.0
KBMI 240752Z AUTO 09018KT 2SM R20/5000VP6000FT -SN BR OVC003 M01/M01 A3012 RMK AO2 LTG DSNT N TSB0659E29 P0009 FZRANO $,KBMI,2018-03-24T07:52:00Z,40.47,-88.92,-1.0,-1.0,90,18,,2.0,30.121063,,,TRUE,TRUE,TRUE,,,TRUE,,-SN BR,OVC,300,,,,,,,LIFR,,,,,,0.09,,,,,,METAR,267.0
CYPY 240752Z AUTO 27019G25KT 6SM -SN OVC033 M05/M08 A2963 RMK SLP051,CYPY,2018-03-24T07:52:00Z,58.77,-111.12,-5.0,-8.0,270,19,25,6.0,29.630905,1005.1,,TRUE,,,,,,,-SN,OVC,3300,,,,,,,VFR,,,,,,,,,,,,SPECI,232.0
PTYA 240752Z 05009G20KT 12SM SCT016CB BKN120 OVC300 27/24 A2976 RMK SHRAE30 CB ALQDS SLP079 T02650239,PTYA,2018-03-24T07:52:00Z,9.48,138.08,26.5,23.9,50,9,20,12.0,29.760826,1007.9,,,,,,,,,,SCT,1600,BKN,12000,OVC,30000,,,VFR,,,,,,,,,,,,METAR,17.0
KFBG 240751Z AUTO 01003KT 10SM BKN130 OVC160 02/00 A3017 RMK AO2 SLP220 $,KFBG,2018-03-24T07:51:00Z,35.12,-78.92,2.0,0.0,10,3,,10.0,30.171259,1022.0,,TRUE,TRUE,TRUE,,,,,,BKN,13000,OVC,16000,,,,,VFR,,,,,,,,,,,,SPECI,74.0
KALB 240751Z 31005KT 10SM SCT050 OVC085 01/M06 A3008 RMK AO2 SLP187 T00111056,KALB,2018-03-24T07:51:00Z,42.75,-73.8,1.1,-5.6,310,5,,10.0,30.079725,1018.7,,,TRUE,,,,,,,SCT,5000,OVC,8500,,,,,VFR,,,,,,,,,,,,METAR,92.0
KP59 240751Z AUTO 16007KT 120V190 M04/M12 A3048 RMK AO1 SLP336 T10441122 ,KP59,2018-03-24T07:51:00Z,47.47,-87.88,-4.4,-12.2,160,7,,,30.481298,1033.6,,TRUE,TRUE,,,,,,,,,,,,,,,,,,,,,,,,,,,METAR,190.0
KYNG 240751Z 00000KT 10SM FEW030 M06/M08 A3023 RMK AO2 SLP252 T10561078,KYNG,2018-03-24T07:51:00Z,41.25,-80.67,-5.6,-7.8,0,0,,10.0,30.230314,1025.2,,,TRUE,,,,,,,FEW,3000,,,,,,,VFR,,,,,,,,,,,,METAR,360.0
KVNY 240751Z AUTO 30004KT 10SM CLR 11/09 A3003 RMK AO2 SLP164 T01110089 401940111,KVNY,2018-03-24T07:51:00Z,34.22,-118.48,11.1,8.9,300,4,,10.0,30.029528,1016.4,,TRUE,TRUE,,,,,,,CLR,,,,,,,,VFR,,,,19.4,11.1,,,,,,,METAR,245.0
KVCT 240751Z AUTO 17009KT 10SM OVC016 21/18 A2995 RMK AO2 SLP141 T02110183,KVCT,2018-03-24T07:51:00Z,28.87,-96.93,21.1,18.3,170,9,,10.0,29.949802,1014.1,,TRUE,TRUE,,,,,,,OVC,1600,,,,,,,MVFR,,,,,,,,,,,,METAR,31.0
KTEB 240751Z 33011KT 10SM FEW090 03/M06 A3007 RMK AO2 SLP183 T00281061,KTEB,2018-03-24T07:51:00Z,40.87,-74.05,2.8,-6.1,330,11,,10.0,30.070866,1018.3,,,TRUE,,,,,,,FEW,9000,,,,,,,VFR,,,,,,,,,,,,METAR,7.0
KSTL 240751Z 11015KT 4SM -RA BR OVC006 06/06 A2993 RMK AO2 DZE24RAB24 SLP138 P0000 T00610056,KSTL,2018-03-24T07:51:00Z,38.75,-90.37,6.1,5.6,110,15,,4.0,29.929134,1013.8,,,TRUE,,,,,,-RA BR,OVC,600,,,,,,,IFR,,,,,,0.005,,,,,,METAR,171.0
KSMX 240751Z AUTO 13003KT 10SM CLR 07/05 A3012 RMK AO2 SLP203 T00670050 401610067 $,KSMX,2018-03-24T07:51:00Z,34.9,-120.45,6.7,5.0,130,3,,10.0,30.121063,1020.3,,TRUE,TRUE,TRUE,,,,,,CLR,,,,,,,,VFR,,,,16.1,6.7,,,,,,,METAR,74.0
KSMO 240751Z AUTO 09003KT 10SM CLR 11/09 A3004 RMK AO2 SLP170 T01060094 401780106,KSMO,2018-03-24T07:51:00Z,34.02,-118.45,10.6,9.4,90,3,,10.0,30.041338,1017.0,,TRUE,TRUE,,,,,,,CLR,,,,,,,,VFR,,,,17.8,10.6,,,,,,,METAR,57.0
KSLK 240751Z AUTO VRB04KT 10SM OVC060 M03/M10 A3004 RMK AO2 SLP191 T10331100,KSLK,2018-03-24T07:51:00Z,44.4,-74.2,-3.3,-10.0,0,4,,10.0,30.041338,1019.1,,TRUE,TRUE,,,,,,,OVC,6000,,,,,,,VFR,,,,,,,,,,,,METAR,498.0
KSJT 240751Z AUTO 20014KT 10SM CLR 19/14 A2989 RMK AO2 SLP100 T01940139,KSJT,2018-03-24T07:51:00Z,31.37,-100.5,19.4,13.9,200,14,,10.0,29.890747,1010.0,,TRUE,TRUE,,,,,,,CLR,,,,,,,,VFR,,,,,,,,,,,,METAR,576.0
KSAT 240751Z 17008KT 10SM OVC013 19/17 A2994 RMK AO2 SLP124 T01940172,KSAT,2018-03-24T07:51:00Z,29.53,-98.47,19.4,17.2,170,8,,10.0,29.940945,1012.4,,,TRUE,,,,,,,OVC,1300,,,,,,,MVFR,,,,,,,,,,,,METAR,243.0
KSAN 240751Z 00000KT 10SM FEW016 BKN024 16/12 A3007 RMK AO2 SLP183 T01560117 401890150,KSAN,2018-03-24T07:51:00Z,32.73,-117.18,15.6,11.7,0,0,,10.0,30.070866,1018.3,,,TRUE,,,,,,,FEW,1600,BKN,2400,,,,,MVFR,,,,18.9,15.0,,,,,,,METAR,12.0
KSAD 240751Z AUTO 08003KT 10SM CLR 14/01 A3000 RMK AO2 SLP118 T01440011,KSAD,2018-03-24T07:51:00Z,32.85,-109.63,14.4,1.1,80,3,,10.0,30.0,1011.8,,TRUE,TRUE,,,,,,,CLR,,,,,,,,VFR,,,,,,,,,,,,METAR,962.0
KROW 240751Z AUTO 32007KT 10SM CLR 17/M03 A2997 RMK AO2 SLP084 T01671028,KROW,2018-03-24T07:51:00Z,33.3,-104.5,16.7,-2.8,320,7,,10.0,29.970472,1008.4,,TRUE,TRUE,,,,,,,CLR,,,,,,,,VFR,,,,,,,,,,,,METAR,1112.0
KRDU 240751Z 00000KT 10SM CLR 00/M04 A3020 RMK AO2 SLP229 T00001039,KRDU,2018-03-24T07:51:00Z,35.9,-78.78,0.0,-3.9,0,0,,10.0,30.200787,1022.9,,,TRUE,,,,,,,CLR,,,,,,,,VFR,,,,,,,,,,,,METAR,130.0
KPWM 240751Z AUTO 32008KT 10SM OVC095 02/M06 A2997 RMK AO2 SLP150 T00221061,KPWM,2018-03-24T07:51:00Z,43.65,-70.3,2.2,-6.1,320,8,,10.0,29.970472,1015.0,,TRUE,TRUE,,,,,,,OVC,9500,,,,,,,VFR,,,,,,,,,,,,METAR,15.0
KPVD 240751Z AUTO 33007KT 10SM OVC090 03/M06 A2999 RMK AO2 SLP155 T00331061,KPVD,2018-03-24T07:51:00Z,41.72,-71.43,3.3,-6.1,330,7,,10.0,29.991142,1015.5,,TRUE,TRUE,,,,,,,OVC,9000,,,,,,,VFR,,,,,,,,,,,,METAR,16.0
KPIT 240751Z 29003KT 10SM CLR M04/M08 A3023 RMK AO2 SLP256 T10391078,KPIT,2018-03-24T07:51:00Z,40.5,-80.27,-3.9,-7.8,290,3,,10.0,30.230314,1025.6,,,TRUE,,,,,,,CLR,,,,,,,,VFR,,,,,,,,,,,,METAR,357.0
KPHX 240751Z 11005KT 10SM BKN250 20/M02 A2992 RMK AO2 SLP116 T02001017,KPHX,2018-03-24T07:51:00Z,33.43,-112.02,20.0,-1.7,110,5,,10.0,29.920275,1011.6,,,TRUE,,,,,,,BKN,25000,,,,,,,VFR,,,,,,,,,,,,METAR,336.0
KOXR 240751Z AUTO 04003KT 10SM CLR 11/08 A3004 RMK AO2 SLP172 T01060083 401720106,KOXR,2018-03-24T07:51:00Z,34.2,-119.2,10.6,8.3,40,3,,10.0,30.041338,1017.2,,TRUE,TRUE,,,,,,,CLR,,,,,,,,VFR,,,,17.2,10.6,,,,,,,METAR,20.0
KORF 240751Z VRB06KT 10SM CLR 04/M06 A3018 RMK AO2 SLP220 T00441056,KORF,2018-03-24T07:51:00Z,36.9,-76.2,4.4,-5.6,0,6,,10.0,30.180119,1022.0,,,TRUE,,,,,,,CLR,,,,,,,,VFR,,,,,,,,,,,,METAR,14.0
KORD 240751Z 09012KT 10SM FEW120 OVC200 02/M04 A3022 RMK AO2 SLP238 T00221039,KORD,2018-03-24T07:51:00Z,41.98,-87.93,2.2,-3.9,90,12,,10.0,30.221457,1023.8,,,TRUE,,,,,,,FEW,12000,OVC,20000,,,,,VFR,,,,,,,,,,,,METAR,200.0
KMYL 240751Z AUTO 00000KT 10SM CLR M02/M04 A2973 RMK AO2 SLP084 T10221039,KMYL,2018-03-24T07:51:00Z,44.9,-116.1,-2.2,-3.9,0,0,,10.0,29.731298,1008.4,,TRUE,TRUE,,,,,,,CLR,,,,,,,,VFR,,,,,,,,,,,,METAR,1533.0
KMPV 240751Z AUTO 30004KT 10SM OVC080 M01/M06 A3004 RMK AO2 SLP188 T10111061,KMPV,2018-03-24T07:51:00Z,44.2,-72.57,-1.1,-6.1,300,4,,10.0,30.041338,1018.8,,TRUE,TRUE,,,,,,,OVC,8000,,,,,,,VFR,,,,,,,,,,,,METAR,343.0
KLGU 240751Z AUTO 36003KT 10SM CLR 04/M01 A2987 RMK AO2 SLPNO T00391006,KLGU,2018-03-24T07:51:00Z,41.78,-111.85,3.9,-0.6,360,3,,10.0,29.870079,,,TRUE,TRUE,,,,,,,CLR,,,,,,,,VFR,,,,,,,,,,,,METAR,1355.0
KLGA 240751Z 33010KT 10SM BKN090 04/M06 A3007 RMK AO2 SLP182 T00391056,KLGA,2018-03-24T07:51:00Z,40.78,-73.88,3.9,-5.6,330,10,,10.0,30.070866,1018.2,,,TRUE,,,,,,,BKN,9000,,,,,,,VFR,,,,,,,,,,,,METAR,11.0
KJFK 240751Z 33013KT 10SM BKN095 03/M06 A3007 RMK AO2 SLP183 T00281056,KJFK,2018-03-24T07:51:00Z,40.63,-73.77,2.8,-5.6,330,13,,10.0,30.070866,1018.3,,,TRUE,,,,,,,BKN,9500,,,,,,,VFR,,,,,,,,,,,,METAR,9.0
KJCT 240751Z AUTO 22004KT 8SM CLR 19/16 A2993 RMK AO2 SLP101 T01890161 $,KJCT,2018-03-24T07:51:00Z,30.5,-99.77,18.9,16.1,220,4,,8.0,29.929134,1010.1,,TRUE,TRUE,TRUE,,,,,,CLR,,,,,,,,VFR,,,,,,,,,,,,METAR,522.0
KILG 240751Z AUTO 31008KT 10SM CLR 01/M08 A3015 RMK AO2 SLP210 T00061078,KILG,2018-03-24T07:51:00Z,39.67,-75.6,0.6,-7.8,310,8,,10.0,30.15059,1021.0,,TRUE,TRUE,,,,,,,CLR,,,,,,,,VFR,,,,,,,,,,,,METAR,28.0
KIGM 240751Z AUTO 14006KT 10SM CLR 09/M01 A2998 RMK AO2 SLP109 T00941011,KIGM,2018-03-24T07:51:00Z,35.25,-113.93,9.4,-1.1,140,6,,10.0,29.97933,1010.9,,TRUE,TRUE,,,,,,,CLR,,,,,,,,VFR,,,,,,,,,,,,METAR,1032.0
KHTS 240751Z 07003KT 10SM CLR 00/M07 A3022 RMK AO2 SLP237 T00001067,KHTS,2018-03-24T07:51:00Z,38.37,-82.55,0.0,-6.7,70,3,,10.0,30.221457,1023.7,,,TRUE,,,,,,,CLR,,,,,,,,VFR,,,,,,,,,,,,METAR,254.0
KHSE 240751Z AUTO 02008KT 10SM CLR 07/M02 A3016 RMK AO2 SLP214 T00671022,KHSE,2018-03-24T07:51:00Z,35.23,-75.62,6.7,-2.2,20,8,,10.0,30.159449,1021.4,,TRUE,TRUE,,,,,,,CLR,,,,,,,,VFR,,,,,,,,,,,,METAR,3.0
KHDO 240751Z AUTO 13007KT 10SM CLR 19/17 A2994 RMK AO2 SLP124 T01890172 $,KHDO,2018-03-24T07:51:00Z,29.37,-99.17,18.9,17.2,130,7,,10.0,29.940945,1012.4,,TRUE,TRUE,TRUE,,,,,,CLR,,,,,,,,VFR,,,,,,,,,,,,METAR,282.0
KEWR 240751Z 34010KT 10SM FEW075 BKN100 03/M07 A3008 RMK AO2 SLP185 T00281067,KEWR,2018-03-24T07:51:00Z,40.68,-74.17,2.8,-6.7,340,10,,10.0,30.079725,1018.5,,,TRUE,,,,,,,FEW,7500,BKN,10000,,,,,VFR,,,,,,,,,,,,METAR,7.0
KERI 240751Z AUTO 00000KT 10SM CLR M04/M07 A3027 RMK AO2 SLP258 T10441072,KERI,2018-03-24T07:51:00Z,42.08,-80.18,-4.4,-7.2,0,0,,10.0,30.268702,1025.8,,TRUE,TRUE,,,,,,,CLR,,,,,,,,VFR,,,,,,,,,,,,METAR,222.0
KELP 240751Z 35005KT 10SM FEW150 FEW230 20/M01 A3004 RMK AO2 SLP103 T02001006,KELP,2018-03-24T07:51:00Z,31.82,-106.38,20.0,-0.6,350,5,,10.0,30.041338,1010.3,,,TRUE,,,,,,,FEW,15000,FEW,23000,,,,,VFR,,,,,,,,,,,,METAR,1197.0
KEKN 240751Z AUTO 00000KT 8SM CLR M08/M10 A3018 RMK AO2 SLP246 I1001 T10831100 TSNO $,KEKN,2018-03-24T07:51:00Z,38.88,-79.85,-8.3,-10.0,0,0,,8.0,30.180119,1024.6,,TRUE,TRUE,TRUE,,TRUE,,,,CLR,,,,,,,,VFR,,,,,,,,,,,,METAR,603.0
KDAW 240751Z AUTO 31009KT 10SM BKN070 OVC095 01/M06 A2997 RMK AO2 SLP147 T00111056,KDAW,2018-03-24T07:51:00Z,43.28,-70.92,1.1,-5.6,310,9,,10.0,29.970472,1014.7,,TRUE,TRUE,,,,,,,BKN,7000,OVC,9500,,,,,VFR,,,,,,,,,,,,METAR,100.0
KCSG 240751Z AUTO 00000KT 9SM OVC095 10/05 A3015 RMK AO2 SLP209 T01000050,KCSG,2018-03-24T07:51:00Z,32.52,-84.95,10.0,5.0,0,0,,9.0,30.15059,1020.9,,TRUE,TRUE,,,,,,,OVC,9500,,,,,,,VFR,,,,,,,,,,,,METAR,135.0
KCRP 240751Z 17021KT 10SM SCT015 BKN017 BKN022 BKN250 22/20 A2991 RMK AO2 PK WND 17027/0719 SLP127 T02170200,KCRP,2018-03-24T07:51:00Z,27.77,-97.5,21.7,20.0,170,21,,10.0,29.911417,1012.7,,,TRUE,,,,,,,SCT,1500,BKN,1700,BKN,2200,BKN,25000,MVFR,,,,,,,,,,,,METAR,14.0
KCON 240751Z AUTO 32004KT 10SM OVC075 01/M06 A3000 RMK AO2 SLP161 T00111056,KCON,2018-03-24T07:51:00Z,43.2,-71.5,1.1,-5.6,320,4,,10.0,30.0,1016.1,,TRUE,TRUE,,,,,,,OVC,7500,,,,,,,VFR,,,,,,,,,,,,METAR,103.0
KCMH 240751Z 03004KT 10SM FEW200 M03/M07 A3027 RMK AO2 SLP258 T10281067,KCMH,2018-03-24T07:51:00Z,40.0,-82.88,-2.8,-6.7,30,4,,10.0,30.268702,1025.8,,,TRUE,,,,,,,FEW,20000,,,,,,,VFR,,,,,,,,,,,,METAR,247.0
KCLE 240751Z 09006KT 10SM OVC020 M01/M06 A3031 RMK AO2 SLP271 T10111056 $,KCLE,2018-03-24T07:51:00Z,41.42,-81.85,-1.1,-5.6,90,6,,10.0,30.31004,1027.1,,,TRUE,TRUE,,,,,,OVC,2000,,,,,,,MVFR,,,,,,,,,,,,METAR,233.0
KCAK 240751Z 02004KT 10SM CLR M04/M08 A3025 RMK AO2 SLP256 T10441078,KCAK,2018-03-24T07:51:00Z,40.92,-81.45,-4.4,-7.8,20,4,,10.0,30.250984,1025.6,,,TRUE,,,,,,,CLR,,,,,,,,VFR,,,,,,,,,,,,METAR,377.0
KBKW 240751Z AUTO 00000KT 10SM CLR M03/M08 A3016 RMK AO2 SLP236 T10331083 TSNO,KBKW,2018-03-24T07:51:00Z,37.8,-81.12,-3.3,-8.3,0,0,,10.0,30.159449,1023.6,,TRUE,TRUE,,,TRUE,,,,CLR,,,,,,,,VFR,,,,,,,,,,,,METAR,764.0
KBHK 240751Z AUTO 29007KT 10SM OVC007 M01/M01 A2997 RMK AO2 SLP171 T10061011,KBHK,2018-03-24T07:51:00Z,46.35,-104.25,-0.6,-1.1,290,7,,10.0,29.970472,1017.1,,TRUE,TRUE,,,,,,,OVC,700,,,,,,,IFR,,,,,,,,,,,,METAR,902.0
KBDL 240751Z 32007KT 10SM FEW090 01/M06 A3002 RMK AO2 SLP167 T00061056,KBDL,2018-03-24T07:51:00Z,41.93,-72.68,0.6,-5.6,320,7,,10.0,30.02067,1016.7,,,TRUE,,,,,,,FEW,9000,,,,,,,VFR,,,,,,,,,,,,METAR,60.0
KBAZ 240751Z AUTO 19010KT 10SM OVC016 19/17 A2993 RMK AO2 SLP128 T01940172,KBAZ,2018-03-24T07:51:00Z,29.72,-98.05,19.4,17.2,190,10,,10.0,29.929134,1012.8,,TRUE,TRUE,,,,,,,OVC,1600,,,,,,,MVFR,,,,,,,,,,,,METAR,195.0
KAVX 240751Z AUTO 24009KT 10SM SCT003 09/08 A3005 RMK AO2 SLP173 T00890083 401440089,KAVX,2018-03-24T07:51:00Z,33.4,-118.42,8.9,8.3,240,9,,10.0,30.050198,1017.3,,TRUE,TRUE,,,,,,,SCT,300,,,,,,,VFR,,,,14.4,8.9,,,,,,,METAR,482.0
KAHN 240751Z AUTO 00000KT 10SM OVC080 10/07 A3016 RMK AO2 RAB04E14 SLP212 P0000 T01000067,KAHN,2018-03-24T07:51:00Z,33.95,-83.33,10.0,6.7,0,0,,10.0,30.159449,1021.2,,TRUE,TRUE,,,,,,,OVC,8000,,,,,,,VFR,,,,,,0.005,,,,,,METAR,244.0
KACT 240751Z AUTO 19017G26KT 10SM OVC019 20/16 A2991 RMK AO2 PK WND 18029/0733 SLP121 T02000156,KACT,2018-03-24T07:51:00Z,31.62,-97.23,20.0,15.6,190,17,26,10.0,29.911417,1012.1,,TRUE,TRUE,,,,,,,OVC,1900,,,,,,,MVFR,,,,,,,,,,,,METAR,151.0
KABE 240751Z 26004KT 10SM CLR 01/M10 A3012 RMK AO2 SLP204 T00111100,KABE,2018-03-24T07:51:00Z,40.65,-75.45,1.1,-10.0,260,4,,10.0,30.121063,1020.4,,,TRUE,,,,,,,CLR,,,,,,,,VFR,,,,,,,,,,,,METAR,114.0
KATT 240751Z AUTO VRB05G14KT 10SM OVC014 20/17 A2994 RMK AO2 SLP128 T02000167,KATT,2018-03-24T07:51:00Z,30.32,-97.77,20.0,16.7,0,5,14,10.0,29.940945,1012.8,,TRUE,TRUE,,,,,,,OVC,1400,,,,,,,MVFR,,,,,,,,,,,,METAR,201.0
KNYC 240751Z AUTO 30004KT 10SM BKN090 03/M06 A3009 RMK AO2 SLP182 T00281061 $,KNYC,2018-03-24T07:51:00Z,40.78,-73.97,2.8,-6.1,300,4,,10.0,30.088583,1018.2,,TRUE,TRUE,TRUE,,,,,,BKN,9000,,,,,,,VFR,,,,,,,,,,,,METAR,11.0
KP58 240751Z AUTO 05016KT 00/M07 A3034 RMK AO1 SLP285 T00001067,KP58,2018-03-24T07:51:00Z,44.02,-82.8,0.0,-6.7,50,16,,,30.339567,1028.5,,TRUE,TRUE,,,,,,,,,,,,,,,,,,,,,,,,,,,METAR,179.0
KSNT 240751Z AUTO 12006KT M01/M08 A2979 RMK AO1 SLP068 T10111083,KSNT,2018-03-24T07:51:00Z,44.17,-114.93,-1.1,-8.3,120,6,,,29.790354,1006.8,,TRUE,TRUE,,,,,,,,,,,,,,,,,,,,,,,,,,,METAR,1980.0
PAMD 240751Z AUTO 00000KT 10SM CLR 03/M02 A2973 RMK AO2 SLP060 T00281022 400560017,PAMD,2018-03-24T07:51:00Z,59.43,-146.3,2.8,-2.2,0,0,,10.0,29.731298,1006.0,,TRUE,TRUE,,,,,,,CLR,,,,,,,,VFR,,,,5.6,1.7,,,,,,,METAR,14.0
PAIW 240751Z AUTO 15028G41KT 2SM -SN BR BKN011 M02/M03 A2987 RMK AO2 PK WND 14042/0725 UPB0658E01B24E39SNE0658B01E24B39 CIG 008V013 PRESRR P0000 FZRANO,PAIW,2018-03-24T07:51:00Z,65.62,-168.1,-2.0,-3.0,150,28,41,2.0,29.870079,,,TRUE,TRUE,,,,TRUE,,-SN BR,BKN,1100,,,,,,,IFR,,,,,,0.005,,,,,,METAR,7.0
CYTE 240751Z AUTO 26015G22KT 9SM -SN BKN014 M15/M17 A3018 RMK SLP229,CYTE,2018-03-24T07:51:00Z,64.22,-76.52,-15.0,-17.0,260,15,22,9.0,30.180119,1022.9,,TRUE,,,,,,,-SN,BKN,1400,,,,,,,MVFR,,,,,,,,,,,,SPECI,47.0
CYYL 240751Z AUTO 17010G16KT 9SM BKN049 M05/M10 A3001 RMK SLP193,CYYL,2018-03-24T07:51:00Z,56.87,-101.07,-5.0,-10.0,170,10,16,9.0,30.008858,1019.3,,TRUE,,,,,,,,BKN,4900,,,,,,,VFR,,,,,,,,,,,,SPECI,357.0
KTPL 240751Z AUTO 18019KT 10SM OVC016 19/17 A2990 RMK AO2 SLP131 T01940167,KTPL,2018-03-24T07:51:00Z,31.13,-97.4,19.4,16.7,180,19,,10.0,29.899607,1013.1,,TRUE,TRUE,,,,,,,OVC,1600,,,,,,,MVFR,,,,,,,,,,,,METAR,208.0
KOXC 240751Z AUTO 32008KT 10SM OVC080 01/M06 A3002 RMK AO2 SLP186 T00111056 FZRANO,KOXC,2018-03-24T07:51:00Z,41.47,-73.13,1.1,-5.6,320,8,,10.0,30.02067,1018.6,,TRUE,TRUE,,,,TRUE,,,OVC,8000,,,,,,,VFR,,,,,,,,,,,,METAR,222.0
KBKX 240751Z AUTO 10010KT 1 1/2SM -SN BR OVC006 00/M01 A3001 RMK AO2 P0000 FZRANO,KBKX,2018-03-24T07:51:00Z,44.28,-96.82,0.0,-1.0,100,10,,1.5,30.008858,,,TRUE,TRUE,,,,TRUE,,-SN BR,OVC,600,,,,,,,IFR,,,,,,0.005,,,,,,METAR,502.0
YDBY 240751Z AUTO 31012KT 5000 // NCD 34/26 Q1004,YDBY,2018-03-24T07:51:00Z,-17.37,123.67,34.0,26.0,310,12,,3.11,29.64567,,,TRUE,,,,,,,,CLR,,,,,,,,MVFR,,,,,,,,,,,,SPECI,7.0
EGNS 240750Z VRB02KT 9999 FEW025 06/03 Q1001 NOSIG,EGNS,2018-03-24T07:50:00Z,54.08,-4.63,6.0,3.0,0,2,,6.21,29.557087,,,,,,TRUE,,,,,FEW,2500,,,,,,,VFR,,,,,,,,,,,,METAR,17.0
LGRP 240750Z 25017KT 9999 BKN025 16/08 Q1003 NOSIG,LGRP,2018-03-24T07:50:00Z,36.4,28.08,16.0,8.0,250,17,,6.21,29.616142,,,,,,TRUE,,,,,BKN,2500,,,,,,,MVFR,,,,,,,,,,,,METAR,5.0
LGKR 240750Z 12006KT 9999 FEW010 SCT018 11/07 Q1000 NOSIG,LGKR,2018-03-24T07:50:00Z,39.62,19.92,11.0,7.0,120,6,,6.21,29.52756,,,,,,TRUE,,,,,FEW,1000,SCT,1800,,,,,VFR,,,,,,,,,,,,METAR,2.0
LGAV 240750Z 23008KT 200V260 9999 FEW030 14/03 Q1001 NOSIG,LGAV,2018-03-24T07:50:00Z,37.93,23.95,14.0,3.0,230,8,,6.21,29.557087,,,,,,TRUE,,,,,FEW,3000,,,,,,,VFR,,,,,,,,,,,,METAR,94.0
ENNA 240750Z AUTO 08003KT 9999 FEW032/// SCT042/// M04/M09 Q0997 RMK WIND 1800FT 29008KT,ENNA,2018-03-24T07:50:00Z,70.07,24.97,-4.0,-9.0,80,3,,6.21,29.438976,,,TRUE,,,,,,,,FEW,3200,SCT,4200,,,,,VFR,,,,,,,,,,,,METAR,8.0
ENML 240750Z 24017KT 9999 FEW042 SCT052 BKN066 07/01 Q0988,ENML,2018-03-24T07:50:00Z,62.75,7.27,7.0,1.0,240,17,,6.21,29.17323,,,,,,,,,,,FEW,4200,SCT,5200,BKN,6600,,,VFR,,,,,,,,,,,,METAR,3.0
ENKR 240750Z 23008KT 9999 FEW007 SCT014 M11/M13 Q0994 RMK WIND 731FT 25011KT,ENKR,2018-03-24T07:50:00Z,69.72,29.88,-11.0,-13.0,230,8,,6.21,29.350393,,,,,,,,,,,FEW,700,SCT,1400,,,,,VFR,,,,,,,,,,,,METAR,91.0
ENKB 240750Z 22011KT 190V250 9999 BKN046 08/M00 Q0987 RMK WIND 745FT 22020KT,ENKB,2018-03-24T07:50:00Z,63.12,7.82,8.0,0.0,220,11,,6.21,29.143702,,,,,,,,,,,BKN,4600,,,,,,,VFR,,,,,,,,,,,,METAR,62.0
ENFL 240750Z 25015KT 9999 SHRA FEW012 SCT018 BKN025 04/02 Q0993,ENFL,2018-03-24T07:50:00Z,61.57,5.02,4.0,2.0,250,15,,6.21,29.320866,,,,,,,,,,SHRA,FEW,1200,SCT,1800,BKN,2500,,,MVFR,,,,,,,,,,,,METAR,9.0
ENEV 240750Z 06005KT CAVOK M04/M13 Q0993 RMK WIND 1400FT 08022KT,ENEV,2018-03-24T07:50:00Z,68.52,16.67,-4.0,-13.0,60,5,,6.21,29.320866,,,,,,,,,,,CAVOK,,,,,,,,VFR,,,,,,,,,,,,METAR,26.0
ENBL 240750Z 24008KT 190V270 9999 -SHRA FEW011 SCT016 BKN020 03/01 Q0993,ENBL,2018-03-24T07:50:00Z,61.4,5.77,3.0,1.0,240,8,,6.21,29.320866,,,,,,,,,,-SHRA,FEW,1100,SCT,1600,BKN,2000,,,MVFR,,,,,,,,,,,,METAR,150.0
ENAT 240750Z 14002KT 9999 VCSH FEW008 SCT024 M07/M12 Q0997 RMK WIND 700FT VRB02KT,ENAT,2018-03-24T07:50:00Z,69.97,23.37,-7.0,-12.0,140,2,,6.21,29.438976,,,,,,,,,,VCSH,FEW,800,SCT,2400,,,,,VFR,,,,,,,,,,,,METAR,3.0
ENZV 240750Z 21006KT 9999 FEW010 BKN036 06/04 Q0999 NOSIG,ENZV,2018-03-24T07:50:00Z,58.87,5.62,6.0,4.0,210,6,,6.21,29.498032,,,,,,TRUE,,,,,FEW,1000,BKN,3600,,,,,VFR,,,,,,,,,,,,METAR,9.0
ENVA 240750Z 08003KT 050V110 9999 FEW055 SCT072 BKN092 05/M03 Q0988 NOSIG RMK WIND 670FT VRB03KT,ENVA,2018-03-24T07:50:00Z,63.47,10.92,5.0,-3.0,80,3,,6.21,29.17323,,,,,,TRUE,,,,,FEW,5500,SCT,7200,BKN,9200,,,VFR,,,,,,,,,,,,METAR,17.0
ENOL 240750Z 06004KT 350V080 9999 VCSH FEW020 SCT055 BKN070 06/M00 Q0987 BECMG 24020KT,ENOL,2018-03-24T07:50:00Z,63.7,9.58,6.0,0.0,60,4,,6.21,29.143702,,,,,,,,,,VCSH,FEW,2000,SCT,5500,BKN,7000,,,VFR,,,,,,,,,,,,METAR,7.0
ENGM 240750Z 22012KT 1900 0650SE R19R/P2000N R01R/0800N PRFG BKN002 01/00 Q0996 TEMPO 0800 FG VV001,ENGM,2018-03-24T07:50:00Z,60.2,11.1,1.0,0.0,220,12,,1.18,29.409449,,,,,,,,,,PRFG,BKN,200,,,,,,,LIFR,,,,,,,,,,,,METAR,204.0
ENDU 240750Z 00000KT CAVOK M12/M15 Q0994 NOSIG RMK WIND 1100FT 04007KT WIND 2200FT 09015KT,ENDU,2018-03-24T07:50:00Z,69.03,18.55,-12.0,-15.0,0,0,,6.21,29.350393,,,,,,TRUE,,,,,CAVOK,,,,,,,,VFR,,,,,,,,,,,,METAR,79.0
ENBO 240750Z 07019KT 9999 FEW040 BKN200 M02/M07 Q0989 NOSIG,ENBO,2018-03-24T07:50:00Z,67.27,14.37,-2.0,-7.0,70,19,,6.21,29.202755,,,,,,TRUE,,,,,FEW,4000,BKN,20000,,,,,VFR,,,,,,,,,,,,METAR,13.0
ENBR 240750Z 22010KT 9999 FEW015 SCT020 BKN037 05/05 Q0997 NOSIG RMK WIND 1200FT 24017KT,ENBR,2018-03-24T07:50:00Z,60.28,5.22,5.0,5.0,220,10,,6.21,29.438976,,,,,,TRUE,,,,,FEW,1500,SCT,2000,BKN,3700,,,VFR,,,,,,,,,,,,METAR,50.0
ENAN 240750Z AUTO 06024KT 9999 FEW028/// M02/M07 Q0994,ENAN,2018-03-24T07:50:00Z,69.28,16.13,-2.0,-7.0,60,24,,6.21,29.350393,,,TRUE,,,,,,,,FEW,2800,,,,,,,VFR,,,,,,,,,,,,METAR,14.0
ENHF 240750Z 02007KT 9999 VCSH FEW013 SCT023 M06/M12 Q0996 RMK WIND 1254FT 03010KT,ENHF,2018-03-24T07:50:00Z,70.67,23.67,-6.0,-12.0,20,7,,6.21,29.409449,,,,,,,,,,VCSH,FEW,1300,SCT,2300,,,,,VFR,,,,,,,,,,,,METAR,81.0
ENBN 240750Z AUTO 32003KT //// R22///// FEW052/// OVC068/// 01/00 Q0988,ENBN,2018-03-24T07:50:00Z,65.47,12.22,1.0,0.0,320,3,,,29.17323,,,TRUE,,,,,,,,FEW,5200,OVC,6800,,,,,,,,,,,,,,,,,METAR,9.0
EDSB 240750Z 06004KT 1900 BR BKN001 BKN004 02/02 Q1001,EDSB,2018-03-24T07:50:00Z,48.78,8.08,2.0,2.0,60,4,,1.18,29.557087,,,,,,,,,,BR,BKN,100,BKN,400,,,,,LIFR,,,,,,,,,,,,METAR,124.0
EDNY 240750Z 03008KT CAVOK 04/M01 Q0999,EDNY,2018-03-24T07:50:00Z,47.67,9.52,4.0,-1.0,30,8,,6.21,29.498032,,,,,,,,,,,CAVOK,,,,,,,,VFR,,,,,,,,,,,,METAR,424.0
EDMA 240750Z 09009KT 060V120 CAVOK 04/00 Q1000,EDMA,2018-03-24T07:50:00Z,48.42,10.92,4.0,0.0,90,9,,6.21,29.52756,,,,,,,,,,,CAVOK,,,,,,,,VFR,,,,,,,,,,,,METAR,463.0
EDLW 240750Z 14008KT CAVOK 04/00 Q1002,EDLW,2018-03-24T07:50:00Z,51.52,7.62,4.0,0.0,140,8,,6.21,29.586615,,,,,,,,,,,CAVOK,,,,,,,,VFR,,,,,,,,,,,,METAR,127.0
EDLP 240750Z 14004KT CAVOK 06/02 Q1003,EDLP,2018-03-24T07:50:00Z,51.62,8.62,6.0,2.0,140,4,,6.21,29.616142,,,,,,,,,,,CAVOK,,,,,,,,VFR,,,,,,,,,,,,METAR,213.0
EDLN 240750Z VRB03KT 9999 BKN042 05/03 Q1002,EDLN,2018-03-24T07:50:00Z,51.23,6.5,5.0,3.0,0,3,,6.21,29.586615,,,,,,,,,,,BKN,4200,,,,,,,VFR,,,,,,,,,,,,METAR,38.0
EDHL 240750Z 15005KT 110V180 9999 FEW019 BKN048 04/02 Q1005,EDHL,2018-03-24T07:50:00Z,53.8,10.72,4.0,2.0,150,5,,6.21,29.675198,,,,,,,,,,,FEW,1900,BKN,4800,,,,,VFR,,,,,,,,,,,,METAR,16.0
EDGS 240750Z 11010KT 2200 BR BKN002 01/01 Q1001,EDGS,2018-03-24T07:50:00Z,50.7,8.08,1.0,1.0,110,10,,1.37,29.557087,,,,,,,,,,BR,BKN,200,,,,,,,LIFR,,,,,,,,,,,,METAR,602.0
ENSO 240750Z 23007KT 9999 FEW012 SCT034 05/04 Q0998,ENSO,2018-03-24T07:50:00Z,59.78,5.33,5.0,4.0,230,7,,6.21,29.468504,,,,,,,,,,,FEW,1200,SCT,3400,,,,,VFR,,,,,,,,,,,,METAR,49.0
ENSK 240750Z 05010KT CAVOK M02/M11 Q0992,ENSK,2018-03-24T07:50:00Z,68.57,15.02,-2.0,-11.0,50,10,,6.21,29.291338,,,,,,,,,,,CAVOK,,,,,,,,VFR,,,,,,,,,,,,METAR,3.0
ENRM 240750Z 10005KT 9999 -RA FEW020 SCT055 02/01 Q0987,ENRM,2018-03-24T07:50:00Z,64.83,11.13,2.0,1.0,100,5,,6.21,29.143702,,,,,,,,,,-RA,FEW,2000,SCT,5500,,,,,VFR,,,,,,,,,,,,METAR,14.0
ENMS 240750Z 30001KT 9999 -SN BKN033 M01/M03 Q0988 RMK WIND 412FT VRB01KT,ENMS,2018-03-24T07:50:00Z,65.78,13.22,-1.0,-3.0,300,1,,6.21,29.17323,,,,,,,,,,-SN,BKN,3300,,,,,,,VFR,,,,,,,,,,,,METAR,70.0
ENTO 240750Z 21012KT 0200 R18/0450N R36/0400N FG VV001 02/02 Q0998,ENTO,2018-03-24T07:50:00Z,59.2,10.27,2.0,2.0,210,12,,0.12,29.468504,,,,,,,,,,FG,OVX,0,,,,,,,LIFR,,,,,,,,,,,100,METAR,88.0
ENTC 240750Z 06014KT 9999 VCSH FEW008 SCT017 M04/M08 Q0996 NOSIG RMK WIND 2600FT 07014KT,ENTC,2018-03-24T07:50:00Z,69.68,18.92,-4.0,-8.0,60,14,,6.21,29.409449,,,,,,TRUE,,,,VCSH,FEW,800,SCT,1700,,,,,VFR,,,,,,,,,,,,METAR,10.0
ENRY 240750Z AUTO 19012KT 0100NDV R12/0275N R30/0400N FG OVC000/// 02/02 Q0999,ENRY,2018-03-24T07:50:00Z,59.37,10.77,2.0,2.0,190,12,,0.17,29.498032,,,TRUE,,,,,,,FG,OVC,0,,,,,,,LIFR,,,,,,,,,,,,METAR,53.0
ENRO 240750Z AUTO 20008KT 170V230 9999NDV NCD 00/M04 Q0989,ENRO,2018-03-24T07:50:00Z,62.57,11.33,0.0,-4.0,200,8,,,29.202755,,,TRUE,,,,,,,,CLR,,,,,,,,,,,,,,,,,,,,METAR,626.0
ENHD 240750Z 22010KT 7000 FEW020 SCT025 BKN032 05/04 Q0998,ENHD,2018-03-24T07:50:00Z,59.35,5.22,5.0,4.0,220,10,,4.35,29.468504,,,,,,,,,,,FEW,2000,SCT,2500,BKN,3200,,,MVFR,,,,,,,,,,,,METAR,24.0
ENCN 240750Z 22006KT 9999 BKN011 04/03 Q1000,ENCN,2018-03-24T07:50:00Z,58.2,8.07,4.0,3.0,220,6,,6.21,29.52756,,,,,,,,,,,BKN,1100,,,,,,,MVFR,,,,,,,,,,,,METAR,17.0
ENSG 240750Z 27015KT 9999 VCSH SCT022 BKN040 03/M01 Q0991 RMK WIND 3806FT 25028KT,ENSG,2018-03-24T07:50:00Z,61.13,7.12,3.0,-1.0,270,15,,6.21,29.26181,,,,,,,,,,VCSH,SCT,2200,BKN,4000,,,,,VFR,,,,,,,,,,,,METAR,497.0
ENSD 240750Z VRB02KT 9999 -RA FEW011 VV026 04/02 Q0992 RMK WIND 1138FT VRB06KT,ENSD,2018-03-24T07:50:00Z,61.82,6.12,4.0,2.0,0,2,,6.21,29.291338,,,,,,,,,,-RA,OVX,0,FEW,1100,,,,,LIFR,,,,,,,,,,,2600,METAR,60.0
ENOV 240750Z 23019G33KT 9999 -SHRA SCT019 BKN025 05/01 Q0991 RMK WIND 2175FT 24034G49KT,ENOV,2018-03-24T07:50:00Z,62.17,6.07,5.0,1.0,230,19,33,6.21,29.26181,,,,,,,,,,-SHRA,SCT,1900,BKN,2500,,,,,MVFR,,,,,,,,,,,,METAR,74.0
EDXW 240750Z 18004KT 0800 R14/1500N FG OVC001 04/04 Q1003,EDXW,2018-03-24T07:50:00Z,54.92,8.33,4.0,4.0,180,4,,0.5,29.616142,,,,,,,,,,FG,OVC,100,,,,,,,LIFR,,,,,,,,,,,,METAR,20.0
EDVE 240750Z VRB03KT CAVOK 05/02 Q1004,EDVE,2018-03-24T07:50:00Z,52.32,10.55,5.0,2.0,0,3,,6.21,29.64567,,,,,,,,,,,CAVOK,,,,,,,,VFR,,,,,,,,,,,,METAR,88.0
EDTY 240750Z 09007KT 5000 BR SCT005 03/01 Q1001,EDTY,2018-03-24T07:50:00Z,49.12,9.78,3.0,1.0,90,7,,3.11,29.557087,,,,,,,,,,BR,SCT,500,,,,,,,MVFR,,,,,,,,,,,,METAR,400.0
EDTL 240750Z 03004KT 310V060 0100 R03/0225N FZFG OVC001 M01/M01 Q1001,EDTL,2018-03-24T07:50:00Z,48.37,7.83,-1.0,-1.0,30,4,,0.06,29.557087,,,,,,,,,,FZFG,OVC,100,,,,,,,LIFR,,,,,,,,,,,,METAR,156.0
EDMO 240750Z 09009KT CAVOK 02/M01 Q1000,EDMO,2018-03-24T07:50:00Z,48.07,11.27,2.0,-1.0,90,9,,6.21,29.52756,,,,,,,,,,,CAVOK,,,,,,,,VFR,,,,,,,,,,,,METAR,600.0
EDJA 240750Z 08006KT 040V100 CAVOK 02/M02 Q0999,EDJA,2018-03-24T07:50:00Z,47.98,10.23,2.0,-2.0,80,6,,6.21,29.498032,,,,,,,,,,,CAVOK,,,,,,,,VFR,,,,,,,,,,,,METAR,633.0
EDHK 240750Z 16005KT CAVOK 04/02 Q1004,EDHK,2018-03-24T07:50:00Z,54.38,10.15,4.0,2.0,160,5,,6.21,29.64567,,,,,,,,,,,CAVOK,,,,,,,,VFR,,,,,,,,,,,,METAR,31.0
EDHI 240750Z AUTO 11004KT 080V140 9999 OVC051/// 05/03 Q1004,EDHI,2018-03-24T07:50:00Z,53.53,9.83,5.0,3.0,110,4,,6.21,29.64567,,,TRUE,,,,,,,,OVC,5100,,,,,,,VFR,,,,,,,,,,,,METAR,13.0
EDAH 240750Z 13004KT 9999 BKN026 02/M01 Q1007,EDAH,2018-03-24T07:50:00Z,53.87,14.15,2.0,-1.0,130,4,,6.21,29.734253,,,,,,,,,,,BKN,2600,,,,,,,MVFR,,,,,,,,,,,,METAR,28.0
ENWV 240750Z AUTO 05006KT 9999NDV OVC110/// 06/01 Q1000 W///S4,ENWV,2018-03-24T07:50:00Z,,,6.0,1.0,50,6,,,29.52756,,,TRUE,,,,,,,,OVC,11000,,,,,,,,,,,,,,,,,,,METAR,
ENUG 240750Z AUTO 03015KT 9999NDV BKN032/// BKN047/// M03/M11 Q0996 W///S5,ENUG,2018-03-24T07:50:00Z,,,-3.0,-11.0,30,15,,,29.409449,,,TRUE,,,,,,,,BKN,3200,BKN,4700,,,,,,,,,,,,,,,,,METAR,
ENLA 240750Z AUTO 31007KT 9999NDV OVC110/// 06/03 Q1000 W///S4,ENLA,2018-03-24T07:50:00Z,57.1,2.83,6.0,3.0,310,7,,,29.52756,,,TRUE,,,,,,,,OVC,11000,,,,,,,,,,,,,,,,,,,METAR,4.0
ENHM 240750Z 25023KT 9999 FEW020 SCT100 06/03 Q0996 W06/S5,ENHM,2018-03-24T07:50:00Z,59.57,2.23,6.0,3.0,250,23,,6.21,29.409449,,,,,,,,,,,FEW,2000,SCT,10000,,,,,VFR,,,,,,,,,,,,METAR,10.0
ENQA 240750Z AUTO 23030KT 9999NDV BKN019/// 06/03 Q0995 W04/S5,ENQA,2018-03-24T07:50:00Z,60.65,3.72,6.0,3.0,230,30,,,29.379921,,,TRUE,,,,,,,,BKN,1900,,,,,,,,,,,,,,,,,,,METAR,20.0
ENQC 240750Z AUTO 22029KT 9999NDV BKN021/// 07/03 Q0993 W///S5,ENQC,2018-03-24T07:50:00Z,60.88,3.62,7.0,3.0,220,29,,,29.320866,,,TRUE,,,,,,,,BKN,2100,,,,,,,,,,,,,,,,,,,METAR,20.0
ENSE 240750Z AUTO 26036KT 7000NDV -SHRA FEW024/// SCT031/// BKN045/// 06/02 Q0990 W///S6,ENSE,2018-03-24T07:50:00Z,61.45,2.15,6.0,2.0,260,36,,,29.232283,,,TRUE,,,,,,,-SHRA,FEW,2400,SCT,3100,BKN,4500,,,,,,,,,,,,,,,METAR,10.0
ENQR 240750Z AUTO 24026G40KT 9999NDV BKN023/// BKN036/// 06/02 Q0989 W///S6,ENQR,2018-03-24T07:50:00Z,61.35,2.22,6.0,2.0,240,26,40,,29.202755,,,TRUE,,,,,,,,BKN,2300,BKN,3600,,,,,,,,,,,,,,,,,METAR,10.0
ENNE 240750Z 08023KT 9000 -RA SCT010 BKN020 02/01 Q0987 W///S5,ENNE,2018-03-24T07:50:00Z,66.03,8.08,2.0,1.0,80,23,,5.59,29.143702,,,,,,,,,,-RA,SCT,1000,BKN,2000,,,,,MVFR,,,,,,,,,,,,METAR,10.0
ENSF 240750Z AUTO 23034KT 9999NDV -SHRA BKN023/// 07/02 Q0991 W///S6,ENSF,2018-03-24T07:50:00Z,61.25,1.85,7.0,2.0,230,34,,,29.26181,,,TRUE,,,,,,,-SHRA,BKN,2300,,,,,,,,,,,,,,,,,,,METAR,10.0
ENFB 240750Z AUTO 23033KT //// SCT031/// 07/03 Q0991 W///S6,ENFB,2018-03-24T07:50:00Z,61.2,1.83,7.0,3.0,230,33,,,29.26181,,,TRUE,,,,,,,,SCT,3100,,,,,,,,,,,,,,,,,,,METAR,10.0
ENSL 240750Z 24017KT CAVOK 06/03 Q0999 W04/S5,ENSL,2018-03-24T07:50:00Z,58.37,1.9,6.0,3.0,240,17,,6.21,29.498032,,,,,,,,,,,CAVOK,,,,,,,,VFR,,,,,,,,,,,,METAR,50.0
ENOA 240750Z 24027KT 9999 SCT020 06/03 Q0994 W///S6,ENOA,2018-03-24T07:50:00Z,60.5,2.83,6.0,3.0,240,27,,6.21,29.350393,,,,,,,,,,,SCT,2000,,,,,,,VFR,,,,,,,,,,,,METAR,5.0
ENHE 240750Z 13023KT 9999 FEW015 BKN025 05/04 Q0984 W///S5,ENHE,2018-03-24T07:50:00Z,65.33,2.33,5.0,4.0,130,23,,6.21,29.055119,,,,,,,,,,,FEW,1500,BKN,2500,,,,,MVFR,,,,,,,,,,,,METAR,1.0
ENGC 240750Z 25030KT 9999 FEW015CB SCT025 06/03 Q0992 W05/S6,ENGC,2018-03-24T07:50:00Z,61.02,2.02,6.0,3.0,250,30,,6.21,29.291338,,,,,,,,,,,FEW,1500,SCT,2500,,,,,VFR,,,,,,,,,,,,METAR,10.0
ENLE 240750Z VRB01KT 9999 FEW030 BKN120 06/02 Q1000 W///S4,ENLE,2018-03-24T07:50:00Z,56.53,3.22,6.0,2.0,0,1,,6.21,29.52756,,,,,,,,,,,FEW,3000,BKN,12000,,,,,VFR,,,,,,,,,,,,METAR,3.0
ENNM 240750Z 05015KT CAVOK 01/M01 Q0988,ENNM,2018-03-24T07:50:00Z,64.47,11.57,1.0,-1.0,50,15,,6.21,29.17323,,,,,,,,,,,CAVOK,,,,,,,,VFR,,,,,,,,,,,,METAR,2.0
ENLK 240750Z 04015KT CAVOK M02/M10 Q0991,ENLK,2018-03-24T07:50:00Z,68.15,13.62,-2.0,-10.0,40,15,,6.21,29.26181,,,,,,,,,,,CAVOK,,,,,,,,VFR,,,,,,,,,,,,METAR,26.0
EDVK 240750Z VRB02KT 6000 SCT012 BKN045 04/04 Q1003,EDVK,2018-03-24T07:50:00Z,51.38,9.37,4.0,4.0,0,2,,3.73,29.616142,,,,,,,,,,,SCT,1200,BKN,4500,,,,,MVFR,,,,,,,,,,,,METAR,285.0
EDLV 240750Z VRB03KT 9999 BKN037 06/03 Q1002,EDLV,2018-03-24T07:50:00Z,51.6,6.15,6.0,3.0,0,3,,6.21,29.586615,,,,,,,,,,,BKN,3700,,,,,,,VFR,,,,,,,,,,,,METAR,32.0
LGSO 240750Z 27018KT 9999 SCT018 14/06 Q1001,LGSO,2018-03-24T07:50:00Z,37.42,24.95,14.0,6.0,270,18,,6.21,29.557087,,,,,,,,,,,SCT,1800,,,,,,,VFR,,,,,,,,,,,,METAR,72.0
LGPA 240750Z 26011KT 9999 SCT030 15/06 Q1002 NOSIG,LGPA,2018-03-24T07:50:00Z,37.0,25.13,15.0,6.0,260,11,,6.21,29.586615,,,,,,TRUE,,,,,SCT,3000,,,,,,,VFR,,,,,,,,,,,,METAR,36.0
LGNX 240750Z 24011KT 9999 SCT025 15/07 Q1002,LGNX,2018-03-24T07:50:00Z,37.08,25.37,15.0,7.0,240,11,,6.21,29.586615,,,,,,,,,,,SCT,2500,,,,,,,VFR,,,,,,,,,,,,METAR,4.0
LGMK 240750Z 24009KT 9999 SCT020 14/06 Q1000,LGMK,2018-03-24T07:50:00Z,37.43,25.35,14.0,6.0,240,9,,6.21,29.52756,,,,,,,,,,,SCT,2000,,,,,,,VFR,,,,,,,,,,,,METAR,123.0
LGKZ 240750Z 31007KT 9999 FEW070 04/01 Q1000,LGKZ,2018-03-24T07:50:00Z,40.28,21.83,4.0,1.0,310,7,,6.21,29.52756,,,,,,,,,,,FEW,7000,,,,,,,VFR,,,,,,,,,,,,METAR,628.0
LGKP 240750Z 24014KT 9999 FEW020 17/07 Q1005,LGKP,2018-03-24T07:50:00Z,35.42,27.15,17.0,7.0,240,14,,6.21,29.675198,,,,,,,,,,,FEW,2000,,,,,,,VFR,,,,,,,,,,,,METAR,20.0
LGHI 240750Z 24010KT 210V290 9999 FEW018TCU SCT020 14/08 Q1000,LGHI,2018-03-24T07:50:00Z,38.32,26.12,14.0,8.0,240,10,,6.21,29.52756,,,,,,,,,,,FEW,1800,SCT,2000,,,,,VFR,,,,,,,,,,,,METAR,4.0
ELLX 240750Z 06008KT 6000 NSC 04/02 Q1000 NOSIG,ELLX,2018-03-24T07:50:00Z,49.63,6.2,4.0,2.0,60,8,,3.73,29.52756,,,,,,TRUE,,,,,CLR,,,,,,,,MVFR,,,,,,,,,,,,METAR,379.0
EBOS 240750Z 12007KT 9999 FEW040 06/02 Q1001 NOSIG,EBOS,2018-03-24T07:50:00Z,51.2,2.87,6.0,2.0,120,7,,6.21,29.557087,,,,,,TRUE,,,,,FEW,4000,,,,,,,VFR,,,,,,,,,,,,METAR,5.0
EBLG 240750Z VRB02KT 9999 BKN033 05/01 Q1001 NOSIG,EBLG,2018-03-24T07:50:00Z,50.63,5.45,5.0,1.0,0,2,,6.21,29.557087,,,,,,TRUE,,,,,BKN,3300,,,,,,,VFR,,,,,,,,,,,,METAR,178.0
EBCI 240750Z 11008KT CAVOK 06/01 Q1000 NOSIG,EBCI,2018-03-24T07:50:00Z,50.47,4.45,6.0,1.0,110,8,,6.21,29.52756,,,,,,TRUE,,,,,CAVOK,,,,,,,,VFR,,,,,,,,,,,,METAR,192.0
EBBR 240750Z 13006KT 9999 BKN033 06/02 Q1001 NOSIG,EBBR,2018-03-24T07:50:00Z,50.9,4.5,6.0,2.0,130,6,,6.21,29.557087,,,,,,TRUE,,,,,BKN,3300,,,,,,,VFR,,,,,,,,,,,,METAR,58.0
EBAW 240750Z 13005KT 9999 BKN030 06/02 Q1001 NOSIG,EBAW,2018-03-24T07:50:00Z,51.2,4.47,6.0,2.0,130,5,,6.21,29.557087,,,,,,TRUE,,,,,BKN,3000,,,,,,,MVFR,,,,,,,,,,,,METAR,14.0
EGKB 240750Z 13006KT 100V160 1200 R21///// BR BKN002 06/06 Q0999,EGKB,2018-03-24T07:50:00Z,51.32,0.02,6.0,6.0,130,6,,0.75,29.498032,,,,,,,,,,BR,BKN,200,,,,,,,LIFR,,,,,,,,,,,,METAR,183.0
LGZA 240750Z VRB03KT 9999 SCT020 SCT070 11/08 Q1002,LGZA,2018-03-24T07:50:00Z,37.75,20.87,11.0,8.0,0,3,,6.21,29.586615,,,,,,,,,,,SCT,2000,SCT,7000,,,,,VFR,,,,,,,,,,,,METAR,3.0
LGRX 240750Z 00000KT 9999 FEW025 13/06 Q1002,LGRX,2018-03-24T07:50:00Z,38.17,21.42,13.0,6.0,0,0,,6.21,29.586615,,,,,,,,,,,FEW,2500,,,,,,,VFR,,,,,,,,,,,,METAR,15.0
LGPZ 240750Z VRB03KT 9999 FEW018 SCT025 11/06 Q1003,LGPZ,2018-03-24T07:50:00Z,38.92,20.77,11.0,6.0,0,3,,6.21,29.616142,,,,,,,,,,,FEW,1800,SCT,2500,,,,,VFR,,,,,,,,,,,,METAR,4.0
LGMT 240750Z 34005KT 9999 FEW020TCU BKN025 14/11 Q1000,LGMT,2018-03-24T07:50:00Z,39.05,26.6,14.0,11.0,340,5,,6.21,29.52756,,,,,,,,,,,FEW,2000,BKN,2500,,,,,MVFR,,,,,,,,,,,,METAR,17.0
LGKV 240750Z 08010KT 8000 -RA FEW008 BKN025 BKN070 07/06 Q1000,LGKV,2018-03-24T07:50:00Z,40.92,24.62,7.0,6.0,80,10,,4.97,29.52756,,,,,,,,,,-RA,FEW,800,BKN,2500,BKN,7000,,,MVFR,,,,,,,,,,,,METAR,5.0
LGIO 240750Z /////KT 9999 BKN030 SCT070 07/03 Q1000,LGIO,2018-03-24T07:50:00Z,39.7,20.82,7.0,3.0,,,,6.21,29.52756,,,,,,,,,,,BKN,3000,SCT,7000,,,,,MVFR,,,,,,,,,,,,METAR,476.0
LGEL 240750Z 27008KT 9999 FEW025 SCT070 15/05 Q1001,LGEL,2018-03-24T07:50:00Z,38.07,23.55,15.0,5.0,270,8,,6.21,29.557087,,,,,,,,,,,FEW,2500,SCT,7000,,,,,VFR,,,,,,,,,,,,METAR,31.0
LGAL 240750Z 04012KT 9999 FEW010 BKN020 05/04 Q1001,LGAL,2018-03-24T07:50:00Z,40.85,25.95,5.0,4.0,40,12,,6.21,29.557087,,,,,,,,,,,FEW,1000,BKN,2000,,,,,MVFR,,,,,,,,,,,,METAR,3.0
LOXZ 240750Z VRB01KT 30KM FEW045SC BKN050SC M01/M04 Q1003 NOSIG,LOXZ,2018-03-24T07:50:00Z,47.2,14.75,-1.0,-4.0,0,1,,18.64,29.616142,,,,,,TRUE,,,,,,,,,,,,,,,,,,,,,,,,,METAR,682.0
EEPU 240750Z 18007KT 140V210 CAVOK M02/M05 Q1007,EEPU,2018-03-24T07:50:00Z,58.42,24.47,-2.0,-5.0,180,7,,6.21,29.734253,,,,,,,,,,,CAVOK,,,,,,,,VFR,,,,,,,,,,,,METAR,14.0
EETU 240750Z 22010KT 170V240 CAVOK M02/M08 Q1008,EETU,2018-03-24T07:50:00Z,58.32,26.68,-2.0,-8.0,220,10,,6.21,29.763779,,,,,,,,,,,CAVOK,,,,,,,,VFR,,,,,,,,,,,,METAR,67.0
EEKE 240750Z 22009KT 9999 FEW048 00/M03 Q1007,EEKE,2018-03-24T07:50:00Z,58.23,22.52,0.0,-3.0,220,9,,6.21,29.734253,,,,,,,,,,,FEW,4800,,,,,,,VFR,,,,,,,,,,,,METAR,4.0
EEKA 240750Z 19007KT 9999 FEW013 SCT025 00/M04 Q1005,EEKA,2018-03-24T07:50:00Z,58.98,22.83,0.0,-4.0,190,7,,6.21,29.675198,,,,,,,,,,,FEW,1300,SCT,2500,,,,,VFR,,,,,,,,,,,,METAR,4.0
LGTS 240750Z 30012KT 9999 FEW008 08/01 Q1001 NOSIG,LGTS,2018-03-24T07:50:00Z,40.52,22.97,8.0,1.0,300,12,,6.21,29.557087,,,,,,TRUE,,,,,FEW,800,,,,,,,VFR,,,,,,,,,,,,METAR,7.0
LGSM 240750Z 24004KT 9999 SCT018TCU BKN025 13/09 Q1001,LGSM,2018-03-24T07:50:00Z,37.68,26.92,13.0,9.0,240,4,,6.21,29.557087,,,,,,,,,,,SCT,1800,BKN,2500,,,,,MVFR,,,,,,,,,,,,METAR,6.0
LGSA 240750Z 26014KT 9999 FEW020TCU BKN030 16/05 Q1003,LGSA,2018-03-24T07:50:00Z,35.53,24.13,16.0,5.0,260,14,,6.21,29.616142,,,,,,,,,,,FEW,2000,BKN,3000,,,,,MVFR,,,,,,,,,,,,METAR,135.0
LGLM 240750Z 06010KT 9999 FEW018TCU SCT025 11/09 Q0999,LGLM,2018-03-24T07:50:00Z,39.92,25.23,11.0,9.0,60,10,,6.21,29.498032,,,,,,,,,,,FEW,1800,SCT,2500,,,,,VFR,,,,,,,,,,,,METAR,5.0
LGKO 240750Z 23013KT 9999 FEW018 SCT020 15/07 Q1002,LGKO,2018-03-24T07:50:00Z,36.8,27.08,15.0,7.0,230,13,,6.21,29.586615,,,,,,,,,,,FEW,1800,SCT,2000,,,,,VFR,,,,,,,,,,,,METAR,125.0
LGKL 240750Z 00000KT 9999 FEW020 14/07 Q1002,LGKL,2018-03-24T07:50:00Z,37.07,22.02,14.0,7.0,0,0,,6.21,29.586615,,,,,,,,,,,FEW,2000,,,,,,,VFR,,,,,,,,,,,,METAR,8.0
LGAD 240750Z 08004KT 9999 FEW025 12/05 Q1002,LGAD,2018-03-24T07:50:00Z,37.92,21.27,12.0,5.0,80,4,,6.21,29.586615,,,,,,,,,,,FEW,2500,,,,,,,VFR,,,,,,,,,,,,METAR,12.0
LIMW 240750Z AUTO 10001KT 9999 BKN049/// BKN062/// 03/M04 Q1003,LIMW,2018-03-24T07:50:00Z,45.73,7.37,3.0,-4.0,100,1,,6.21,29.616142,,,TRUE,,,,,,,,BKN,4900,BKN,6200,,,,,VFR,,,,,,,,,,,,METAR,546.0
LOWK 240750Z 29003KT 230V360 9999 FEW050 SCT060 03/M05 Q1004 NOSIG,LOWK,2018-03-24T07:50:00Z,46.65,14.32,3.0,-5.0,290,3,,6.21,29.64567,,,,,,TRUE,,,,,FEW,5000,SCT,6000,,,,,VFR,,,,,,,,,,,,METAR,441.0
LOWG 240750Z VRB02KT 9999 FEW045 BKN058 03/M01 Q1004 NOSIG,LOWG,2018-03-24T07:50:00Z,47.0,15.42,3.0,-1.0,0,2,,6.21,29.64567,,,,,,TRUE,,,,,FEW,4500,BKN,5800,,,,,VFR,,,,,,,,,,,,METAR,347.0
LOWI 240750Z 27007KT 250V310 9999 FEW020 02/M03 Q1001 NOSIG,LOWI,2018-03-24T07:50:00Z,47.27,11.33,2.0,-3.0,270,7,,6.21,29.557087,,,,,,TRUE,,,,,FEW,2000,,,,,,,VFR,,,,,,,,,,,,METAR,581.0
LOWS 240750Z VRB02KT 9999 FEW040 04/M02 Q1001 NOSIG,LOWS,2018-03-24T07:50:00Z,47.78,13.02,4.0,-2.0,0,2,,6.21,29.557087,,,,,,TRUE,,,,,FEW,4000,,,,,,,VFR,,,,,,,,,,,,METAR,430.0
LOWL 240750Z 09010KT 8000 FEW009 OVC050 04/01 Q1004 TEMPO BKN007,LOWL,2018-03-24T07:50:00Z,48.22,14.18,4.0,1.0,90,10,,4.97,29.64567,,,,,,,,,,,FEW,900,OVC,5000,,,,,MVFR,,,,,,,,,,,,METAR,313.0
LOWW 240750Z 09003KT 020V170 8000 FEW022 05/M01 Q1005 NOSIG,LOWW,2018-03-24T07:50:00Z,48.12,16.57,5.0,-1.0,90,3,,4.97,29.675198,,,,,,TRUE,,,,,FEW,2200,,,,,,,MVFR,,,,,,,,,,,,METAR,190.0
LIPZ 240750Z 05005KT 9000 NSC 07/02 Q1004 NOSIG,LIPZ,2018-03-24T07:50:00Z,45.5,12.35,7.0,2.0,50,5,,5.59,29.64567,,,,,,TRUE,,,,,CLR,,,,,,,,VFR,,,,,,,,,,,,METAR,6.0
LIPX 240750Z 06005KT CAVOK 09/M02 Q1004,LIPX,2018-03-24T07:50:00Z,45.38,10.87,9.0,-2.0,60,5,,6.21,29.64567,,,,,,,,,,,CAVOK,,,,,,,,VFR,,,,,,,,,,,,METAR,68.0
LIPQ 240750Z VRB01KT 9999 SCT070 08/M00 Q1004,LIPQ,2018-03-24T07:50:00Z,45.82,13.47,8.0,0.0,0,1,,6.21,29.64567,,,,,,,,,,,SCT,7000,,,,,,,VFR,,,,,,,,,,,,METAR,12.0
LIPH 240750Z 02003KT 350V070 CAVOK 07/02 Q1004,LIPH,2018-03-24T07:50:00Z,45.63,12.17,7.0,2.0,20,3,,6.21,29.64567,,,,,,,,,,,CAVOK,,,,,,,,VFR,,,,,,,,,,,,METAR,23.0
LIPE 240750Z 07004KT 040V120 CAVOK 07/00 Q1005,LIPE,2018-03-24T07:50:00Z,44.52,11.3,7.0,0.0,70,4,,6.21,29.675198,,,,,,,,,,,CAVOK,,,,,,,,VFR,,,,,,,,,,,,METAR,42.0
LIPB 240750Z 00000KT 9999 FEW110 05/M05 Q1004,LIPB,2018-03-24T07:50:00Z,46.47,11.32,5.0,-5.0,0,0,,6.21,29.64567,,,,,,,,,,,FEW,11000,,,,,,,VFR,,,,,,,,,,,,METAR,241.0
LICJ 240750Z 26009KT 200V290 9999 BKN022 11/05 Q1003,LICJ,2018-03-24T07:50:00Z,38.17,13.08,11.0,5.0,260,9,,6.21,29.616142,,,,,,,,,,,BKN,2200,,,,,,,MVFR,,,,,,,,,,,,METAR,34.0
LICC 240750Z 26012KT 9999 SCT100 11/03 Q1002,LICC,2018-03-24T07:50:00Z,37.47,15.05,11.0,3.0,260,12,,6.21,29.586615,,,,,,,,,,,SCT,10000,,,,,,,VFR,,,,,,,,,,,,METAR,17.0
LIBR 240750Z 31008KT 9999 SCT020 SCT040 09/05 Q1001,LIBR,2018-03-24T07:50:00Z,40.65,17.95,9.0,5.0,310,8,,6.21,29.557087,,,,,,,,,,,SCT,2000,SCT,4000,,,,,VFR,,,,,,,,,,,,METAR,10.0
LIBD 240750Z 29007KT 9999 BKN040 08/02 Q1001,LIBD,2018-03-24T07:50:00Z,41.12,16.77,8.0,2.0,290,7,,6.21,29.557087,,,,,,,,,,,BKN,4000,,,,,,,VFR,,,,,,,,,,,,METAR,44.0
LIRQ 240750Z VRB01KT CAVOK 07/M00 Q1003,LIRQ,2018-03-24T07:50:00Z,43.78,11.18,7.0,0.0,0,1,,6.21,29.616142,,,,,,,,,,,CAVOK,,,,,,,,VFR,,,,,,,,,,,,METAR,38.0
LIRN 240750Z 03005KT 360V080 CAVOK 09/M02 Q1001 NOSIG,LIRN,2018-03-24T07:50:00Z,40.88,14.3,9.0,-2.0,30,5,,6.21,29.557087,,,,,,TRUE,,,,,CAVOK,,,,,,,,VFR,,,,,,,,,,,,METAR,72.0
LIRA 240750Z 02006KT CAVOK 06/M01 Q1002,LIRA,2018-03-24T07:50:00Z,41.8,12.58,6.0,-1.0,20,6,,6.21,29.586615,,,,,,,,,,,CAVOK,,,,,,,,VFR,,,,,,,,,,,,METAR,101.0
LIML 240750Z 09006KT 070V130 9999 SCT090 07/01 Q1003 NOSIG,LIML,2018-03-24T07:50:00Z,45.47,9.27,7.0,1.0,90,6,,6.21,29.616142,,,,,,TRUE,,,,,SCT,9000,,,,,,,VFR,,,,,,,,,,,,METAR,103.0
LIMJ 240750Z 07003KT 020V110 9999 -RA SCT028 BKN040 10/05 Q1003,LIMJ,2018-03-24T07:50:00Z,44.42,8.83,10.0,5.0,70,3,,6.21,29.616142,,,,,,,,,,-RA,SCT,2800,BKN,4000,,,,,VFR,,,,,,,,,,,,METAR,3.0
LIMF 240750Z 34005KT 9999 BKN065 07/M02 Q1003,LIMF,2018-03-24T07:50:00Z,45.22,7.65,7.0,-2.0,340,5,,6.21,29.616142,,,,,,,,,,,BKN,6500,,,,,,,VFR,,,,,,,,,,,,METAR,287.0
LIME 240750Z 10005KT 030V140 8000 BKN070 08/00 Q1003 NOSIG,LIME,2018-03-24T07:50:00Z,45.67,9.68,8.0,0.0,100,5,,4.97,29.616142,,,,,,TRUE,,,,,BKN,7000,,,,,,,MVFR,,,,,,,,,,,,METAR,237.0
LIMC 240750Z 07007KT 9999 BKN060 08/M02 Q1003 NOSIG,LIMC,2018-03-24T07:50:00Z,45.62,8.72,8.0,-2.0,70,7,,6.21,29.616142,,,,,,TRUE,,,,,BKN,6000,,,,,,,VFR,,,,,,,,,,,,METAR,211.0
LIEO 240750Z VRB01KT CAVOK 11/05 Q1003,LIEO,2018-03-24T07:50:00Z,40.88,9.52,11.0,5.0,0,1,,6.21,29.616142,,,,,,,,,,,CAVOK,,,,,,,,VFR,,,,,,,,,,,,METAR,13.0
LIEE 240750Z VRB01KT CAVOK 10/05 Q1003,LIEE,2018-03-24T07:50:00Z,39.25,9.07,10.0,5.0,0,1,,6.21,29.616142,,,,,,,,,,,CAVOK,,,,,,,,VFR,,,,,,,,,,,,METAR,4.0
LIEA 240750Z 09003KT 060V140 CAVOK 10/06 Q1001,LIEA,2018-03-24T07:50:00Z,40.62,8.27,10.0,6.0,90,3,,6.21,29.557087,,,,,,,,,,,CAVOK,,,,,,,,VFR,,,,,,,,,,,,METAR,23.0
EGJA 240750Z 10009KT 9999 BKN040 07/// Q0996,EGJA,2018-03-24T07:50:00Z,49.72,-2.2,,,100,9,,6.21,29.409449,,,,,,,,,,,BKN,4000,,,,,,,VFR,,,,,,,,,,,,METAR,71.0
OAKB 240750Z 20005KT 160V240 9999 FEW100 OVC230 17/M06 Q1026 NOSIG RMK A3030 BLU BLU,OAKB,2018-03-24T07:50:00Z,34.55,69.22,17.0,-6.0,200,5,,6.21,30.295275,,,,,,TRUE,,,,,FEW,10000,OVC,23000,,,,,VFR,,,,,,,,,,,,METAR,1791.0
ESND 240750Z AUTO 26011KT 220V300 9999 SCT022/// BKN220/// 02/M02 Q0991,ESND,2018-03-24T07:50:00Z,62.05,14.42,2.0,-2.0,260,11,,6.21,29.26181,,,TRUE,,,,,,,,SCT,2200,BKN,22000,,,,,VFR,,,,,,,,,,,,METAR,359.0
ESUP 240750Z AUTO VRB02KT 9999 OVC055/// M13/M16 Q0995,ESUP,2018-03-24T07:50:00Z,67.25,23.07,-13.0,-16.0,0,2,,6.21,29.379921,,,TRUE,,,,,,,,OVC,5500,,,,,,,VFR,,,,,,,,,,,,METAR,165.0
ESST 240750Z AUTO 20009KT 180V250 8000 BR OVC006/// 02/01 Q0998,ESST,2018-03-24T07:50:00Z,60.15,12.98,2.0,1.0,200,9,,4.97,29.468504,,,TRUE,,,,,,,BR,OVC,600,,,,,,,IFR,,,,,,,,,,,,METAR,120.0
ESNV 240750Z AUTO 00000KT 2300 FZUP BKN002/// OVC005/// M04/M05 Q0987 RESG REFZUP,ESNV,2018-03-24T07:50:00Z,64.58,16.83,-4.0,-5.0,0,0,,1.43,29.143702,,,TRUE,,,,,,,UP UP,BKN,200,OVC,500,,,,,LIFR,,,,,,,,,,,,METAR,348.0
ESKM 240750Z AUTO 21013KT 9999 OVC007/// 01/M01 Q0994,ESKM,2018-03-24T07:50:00Z,60.97,14.52,1.0,-1.0,210,13,,6.21,29.350393,,,TRUE,,,,,,,,OVC,700,,,,,,,IFR,,,,,,,,,,,,METAR,193.0
ESGR 240750Z AUTO 20013KT 9999 FEW032/// OVC043/// 01/M04 Q1001 REUP,ESGR,2018-03-24T07:50:00Z,58.45,13.97,1.0,-4.0,200,13,,6.21,29.557087,,,TRUE,,,,,,,,FEW,3200,OVC,4300,,,,,VFR,,,,,,,,,,,,METAR,105.0
EBBL 240750Z AUTO 15003KT 9999 OVC025/// 06/01 Q1002 BLU,EBBL,2018-03-24T07:50:00Z,51.17,5.47,6.0,1.0,150,3,,6.21,29.586615,,,TRUE,,,,,,,,OVC,2500,,,,,,,MVFR,,,,,,,,,,,,SPECI,64.0
EGHI 240750Z VRB02KT 4000 -RADZ BKN008 06/06 Q0998,EGHI,2018-03-24T07:50:00Z,50.95,-1.35,6.0,6.0,0,2,,2.49,29.468504,,,,,,,,,,-RA -DZ,BKN,800,,,,,,,IFR,,,,,,,,,,,,METAR,14.0
EGNV 240750Z 21002KT 4500 BR FEW030 SCT042 05/04 Q1001,EGNV,2018-03-24T07:50:00Z,54.52,-1.42,5.0,4.0,210,2,,2.8,29.557087,,,,,,,,,,BR,FEW,3000,SCT,4200,,,,,IFR,,,,,,,,,,,,METAR,37.0
EGNT 240750Z 25001KT 9999 FEW040 05/04 Q1001,EGNT,2018-03-24T07:50:00Z,55.02,-1.7,5.0,4.0,250,1,,6.21,29.557087,,,,,,,,,,,FEW,4000,,,,,,,VFR,,,,,,,,,,,,METAR,81.0
EGGP 240750Z 01004KT 9999 BKN028 06/05 Q1001,EGGP,2018-03-24T07:50:00Z,53.32,-2.85,6.0,5.0,10,4,,6.21,29.557087,,,,,,,,,,,BKN,2800,,,,,,,MVFR,,,,,,,,,,,,METAR,26.0
EGGD 240750Z AUTO 04011KT 9999 OVC002 05/05 Q0998,EGGD,2018-03-24T07:50:00Z,51.37,-2.72,5.0,5.0,40,11,,6.21,29.468504,,,TRUE,,,,,,,,OVC,200,,,,,,,LIFR,,,,,,,,,,,,METAR,189.0
EGLL 240750Z 10004KT 4600 -RA BR BKN006 BKN009 07/06 Q0999 NOSIG,EGLL,2018-03-24T07:50:00Z,51.48,-0.45,7.0,6.0,100,4,,2.86,29.498032,,,,,,TRUE,,,,-RA BR,BKN,600,BKN,900,,,,,IFR,,,,,,,,,,,,METAR,24.0
EGPD 240750Z AUTO 20001KT 9999 NCD 02/M01 Q1000 NOSIG,EGPD,2018-03-24T07:50:00Z,57.2,-2.22,2.0,-1.0,200,1,,6.21,29.52756,,,TRUE,,,TRUE,,,,,CLR,,,,,,,,VFR,,,,,,,,,,,,METAR,65.0
EGSS 240750Z AUTO 12006KT 030V140 1600 BR OVC003 06/06 Q0999,EGSS,2018-03-24T07:50:00Z,51.88,0.22,6.0,6.0,120,6,,0.99,29.498032,,,TRUE,,,,,,,BR,OVC,300,,,,,,,LIFR,,,,,,,,,,,,METAR,106.0
EGPK 240750Z 13002KT 9999 FEW030 02/01 Q1002,EGPK,2018-03-24T07:50:00Z,55.5,-4.57,2.0,1.0,130,2,,6.21,29.586615,,,,,,,,,,,FEW,3000,,,,,,,VFR,,,,,,,,,,,,METAR,20.0
EGPH 240750Z 26004KT CAVOK 03/01 Q1001,EGPH,2018-03-24T07:50:00Z,55.95,-3.35,3.0,1.0,260,4,,6.21,29.557087,,,,,,,,,,,CAVOK,,,,,,,,VFR,,,,,,,,,,,,METAR,41.0
EGPF 240750Z AUTO VRB01KT 9999 NCD 02/01 Q1002,EGPF,2018-03-24T07:50:00Z,55.87,-4.42,2.0,1.0,0,1,,6.21,29.586615,,,TRUE,,,,,,,,CLR,,,,,,,,VFR,,,,,,,,,,,,METAR,8.0
EGKK 240750Z 10003KT 2500 BR SCT003 BKN006 06/06 Q0998,EGKK,2018-03-24T07:50:00Z,51.13,-0.17,6.0,6.0,100,3,,1.55,29.468504,,,,,,,,,,BR,SCT,300,BKN,600,,,,,IFR,,,,,,,,,,,,METAR,62.0
EGCC 240750Z AUTO 03005KT 9999 OVC039 06/03 Q1000,EGCC,2018-03-24T07:50:00Z,53.35,-2.27,6.0,3.0,30,5,,6.21,29.52756,,,TRUE,,,,,,,,OVC,3900,,,,,,,VFR,,,,,,,,,,,,METAR,78.0
EGBB 240750Z 02006KT 3600 DZ BKN005 06/05 Q1000 REDZ,EGBB,2018-03-24T07:50:00Z,52.47,-1.75,6.0,5.0,20,6,,2.24,29.52756,,,,,,,,,,DZ,BKN,500,,,,,,,IFR,,,,,,,,,,,,METAR,99.0
EGNX 240750Z 02004KT 350V060 9999 -DZ FEW009 BKN033 05/05 Q1000,EGNX,2018-03-24T07:50:00Z,52.82,-1.32,5.0,5.0,20,4,,6.21,29.52756,,,,,,,,,,-DZ,FEW,900,BKN,3300,,,,,VFR,,,,,,,,,,,,METAR,94.0
EGNM 240750Z 36002KT 9999 -RA FEW018 SCT032 05/03 Q1000,EGNM,2018-03-24T07:50:00Z,53.87,-1.63,5.0,3.0,360,2,,6.21,29.52756,,,,,,,,,,-RA,FEW,1800,SCT,3200,,,,,VFR,,,,,,,,,,,,METAR,208.0
EGLC 240750Z AUTO 08007KT 3700 HZ OVC006 07/06 Q0999,EGLC,2018-03-24T07:50:00Z,51.5,0.05,7.0,6.0,80,7,,2.3,29.498032,,,TRUE,,,,,,,HZ,OVC,600,,,,,,,IFR,,,,,,,,,,,,METAR,5.0
EGGW 240750Z AUTO 09005KT 1800 BR OVC002 06/05 Q0999,EGGW,2018-03-24T07:50:00Z,51.87,-0.37,6.0,5.0,90,5,,1.12,29.498032,,,TRUE,,,,,,,BR,OVC,200,,,,,,,LIFR,,,,,,,,,,,,METAR,160.0
EGFF 240750Z AUTO 05011KT 9999 -RA SCT025 BKN033 OVC039 06/04 Q0999,EGFF,2018-03-24T07:50:00Z,51.38,-3.35,6.0,4.0,50,11,,6.21,29.498032,,,TRUE,,,,,,,-RA,SCT,2500,BKN,3300,OVC,3900,,,VFR,,,,,,,,,,,,METAR,67.0
EGAC 240750Z AUTO 19003KT 9999 NCD 03/02 Q1002,EGAC,2018-03-24T07:50:00Z,54.62,-5.87,3.0,2.0,190,3,,6.21,29.586615,,,TRUE,,,,,,,,CLR,,,,,,,,VFR,,,,,,,,,,,,METAR,5.0
EGAA 240750Z 16003KT 9999 FEW006 02/01 Q1002,EGAA,2018-03-24T07:50:00Z,54.63,-6.22,2.0,1.0,160,3,,6.21,29.586615,,,,,,,,,,,FEW,600,,,,,,,VFR,,,,,,,,,,,,METAR,81.0
ESSL 240750Z AUTO 21004KT 160V260 9999 -SN BKN030/// OVC038/// 01/M01 Q1003,ESSL,2018-03-24T07:50:00Z,58.38,15.67,1.0,-1.0,210,4,,6.21,29.616142,,,TRUE,,,,,,,-SN,BKN,3000,OVC,3800,,,,,MVFR,,,,,,,,,,,,METAR,52.0
ESPE 240750Z AUTO 09006KT 1700 -SN VV019 M08/M09 Q0991,ESPE,2018-03-24T07:50:00Z,65.88,20.15,-8.0,-9.0,90,6,,1.06,29.26181,,,TRUE,,,,,,,-SN,OVX,0,,,,,,,LIFR,,,,,,,,,,,1900,METAR,182.0
ESPA 240750Z 06005KT 020V090 1600 -SN VV018 M08/M09 Q0993,ESPA,2018-03-24T07:50:00Z,65.53,22.12,-8.0,-9.0,60,5,,0.99,29.320866,,,,,,,,,,-SN,OVX,0,,,,,,,LIFR,,,,,,,,,,,1800,METAR,34.0
ESIB 240750Z AUTO 20010KT 9999 OVC007/// 01/01 Q1001,ESIB,2018-03-24T07:50:00Z,58.42,12.68,1.0,1.0,200,10,,6.21,29.557087,,,TRUE,,,,,,,,OVC,700,,,,,,,IFR,,,,,,,,,,,,METAR,74.0
ESDF 240750Z 18006KT 9999 BKN027 01/M00 Q1006,ESDF,2018-03-24T07:50:00Z,56.27,15.27,1.0,0.0,180,6,,6.21,29.704725,,,,,,,,,,,BKN,2700,,,,,,,MVFR,,,,,,,,,,,,METAR,74.0
ESCF 240750Z AUTO 21008KT 9999 -SHSN BKN034/// OVC044/// 00/M02 Q1003,ESCF,2018-03-24T07:50:00Z,58.38,15.52,0.0,-2.0,210,8,,6.21,29.616142,,,TRUE,,,,,,,-SHSN,BKN,3400,OVC,4400,,,,,VFR,,,,,,,,,,,,METAR,117.0
EGTE 240750Z 05007KT 8000 -RA FEW008 BKN021 07/06 Q0997,EGTE,2018-03-24T07:50:00Z,50.72,-3.42,7.0,6.0,50,7,,4.97,29.438976,,,,,,,,,,-RA,FEW,800,BKN,2100,,,,,MVFR,,,,,,,,,,,,METAR,30.0
EGJJ 240750Z 12009KT 9999 FEW007 BKN008 08/07 Q0995,EGJJ,2018-03-24T07:50:00Z,49.22,-2.2,8.0,7.0,120,9,,6.21,29.379921,,,,,,,,,,,FEW,700,BKN,800,,,,,IFR,,,,,,,,,,,,METAR,84.0
EGJB 240750Z 13008KT 9999 FEW003 SCT006 BKN042 08/07 Q0995,EGJB,2018-03-24T07:50:00Z,49.42,-2.6,8.0,7.0,130,8,,6.21,29.379921,,,,,,,,,,,FEW,300,SCT,600,BKN,4200,,,VFR,,,,,,,,,,,,METAR,102.0
EGHQ 240750Z 05010KT 9000 FEW015 BKN035 06/06 Q0997,EGHQ,2018-03-24T07:50:00Z,50.43,-5.0,6.0,6.0,50,10,,5.59,29.438976,,,,,,,,,,,FEW,1500,BKN,3500,,,,,VFR,,,,,,,,,,,,METAR,119.0
EGHE 240750Z 04016KT 8000 -RA FEW008 SCT015 BKN020 08/07 Q0997,EGHE,2018-03-24T07:50:00Z,49.92,-6.28,8.0,7.0,40,16,,4.97,29.438976,,,,,,,,,,-RA,FEW,800,SCT,1500,BKN,2000,,,MVFR,,,,,,,,,,,,METAR,31.0
EGHC 240750Z 05014KT 9999 OVC005 07/07 Q0986,EGHC,2018-03-24T07:50:00Z,50.1,-5.67,7.0,7.0,50,14,,6.21,29.114174,,,,,,,,,,,OVC,500,,,,,,,IFR,,,,,,,,,,,,METAR,122.0
EGYP 240750Z 18013KT 9999 FEW020 BKN040 06/03 Q1007 BLU,EGYP,2018-03-24T07:50:00Z,-51.82,-58.45,6.0,3.0,180,13,,6.21,29.734253,,,,,,,,,,,FEW,2000,BKN,4000,,,,,VFR,,,,,,,,,,,,METAR,74.0
EGPE 240750Z 22012KT 9999 FEW025 05/02 Q0999,EGPE,2018-03-24T07:50:00Z,57.52,-4.03,5.0,2.0,220,12,,6.21,29.498032,,,,,,,,,,,FEW,2500,,,,,,,VFR,,,,,,,,,,,,METAR,9.0
EGNJ 240750Z 01004KT 8000 FEW039 06/05 Q1000,EGNJ,2018-03-24T07:50:00Z,53.57,-0.35,6.0,5.0,10,4,,4.97,29.52756,,,,,,,,,,,FEW,3900,,,,,,,MVFR,,,,,,,,,,,,METAR,31.0
EGNH 240750Z 36005KT 8000 BKN029 06/05 Q1001,EGNH,2018-03-24T07:50:00Z,53.77,-3.02,6.0,5.0,360,5,,4.97,29.557087,,,,,,,,,,,BKN,2900,,,,,,,MVFR,,,,,,,,,,,,METAR,10.0
EGAE 240750Z 27006KT 9999 FEW032 01/01 Q1002,EGAE,2018-03-24T07:50:00Z,55.03,-7.15,1.0,1.0,270,6,,6.21,29.586615,,,,,,,,,,,FEW,3200,,,,,,,VFR,,,,,,,,,,,,METAR,9.0
EGMD 240750Z AUTO 12008KT 9999 OVC013/// 08/05 Q0999,EGMD,2018-03-24T07:50:00Z,50.95,0.92,8.0,5.0,120,8,,6.21,29.498032,,,TRUE,,,,,,,,OVC,1300,,,,,,,MVFR,,,,,,,,,,,,METAR,3.0
EGMC 240750Z 11004KT 3000 BR BKN007 06/05 Q0999,EGMC,2018-03-24T07:50:00Z,51.57,0.7,6.0,5.0,110,4,,1.86,29.498032,,,,,,,,,,BR,BKN,700,,,,,,,IFR,,,,,,,,,,,,METAR,15.0
EGLF 240750Z 07006KT 2800 -RADZ BR BKN003 06/06 Q0999,EGLF,2018-03-24T07:50:00Z,51.28,-0.77,6.0,6.0,70,6,,1.74,29.498032,,,,,,,,,,-RA -DZ BR,BKN,300,,,,,,,LIFR,,,,,,,,,,,,METAR,65.0
EGKA 240750Z 10007KT 5000 BR FEW005 BKN009 07/06 Q0998,EGKA,2018-03-24T07:50:00Z,50.83,-0.3,7.0,6.0,100,7,,3.11,29.468504,,,,,,,,,,BR,FEW,500,BKN,900,,,,,IFR,,,,,,,,,,,,METAR,2.0
EGPO 240750Z 21009KT 9999 VCSH FEW018CB 06/03 Q0996,EGPO,2018-03-24T07:50:00Z,58.22,-6.32,6.0,3.0,210,9,,6.21,29.409449,,,,,,,,,,VCSH,FEW,1800,,,,,,,VFR,,,,,,,,,,,,METAR,13.0
EGPM 240750Z 23021KT 9999 FEW014CB 06/03 Q0992,EGPM,2018-03-24T07:50:00Z,60.42,-1.3,6.0,3.0,230,21,,6.21,29.291338,,,,,,,,,,,FEW,1400,,,,,,,VFR,,,,,,,,,,,,METAR,22.0
EGPL 240750Z 24012KT 9999 FEW019CB SCT036 06/04 Q0998,EGPL,2018-03-24T07:50:00Z,57.47,-7.37,6.0,4.0,240,12,,6.21,29.468504,,,,,,,,,,,FEW,1900,SCT,3600,,,,,VFR,,,,,,,,,,,,METAR,6.0
EGPC 240750Z AUTO 19004KT 9999 NCD 05/02 Q0997,EGPC,2018-03-24T07:50:00Z,58.45,-3.07,5.0,2.0,190,4,,6.21,29.438976,,,TRUE,,,,,,,,CLR,,,,,,,,VFR,,,,,,,,,,,,METAR,39.0
EGPA 240750Z 21013KT 9999 VCSH FEW015TCU FEW035 06/03 Q0996,EGPA,2018-03-24T07:50:00Z,58.95,-2.88,6.0,3.0,210,13,,6.21,29.409449,,,,,,,,,,VCSH,FEW,1500,FEW,3500,,,,,VFR,,,,,,,,,,,,METAR,21.0
ESSV 240750Z 21011KT 9000 BKN010 02/00 Q1005 R21/12//80,ESSV,2018-03-24T07:50:00Z,57.67,18.35,2.0,0.0,210,11,,5.59,29.675198,,,,,,,,,,,BKN,1000,,,,,,,MVFR,,,,,,,,,,,,METAR,47.0
ESSP 240750Z AUTO 22005KT 190V260 9999 -SN SCT022/// OVC030/// 01/M02 Q1003 REUP R27/09//95,ESSP,2018-03-24T07:50:00Z,58.57,16.25,1.0,-2.0,220,5,,6.21,29.616142,,,TRUE,,,,,,,-SN,SCT,2200,OVC,3000,,,,,MVFR,,,,,,,,,,,,METAR,8.0
ESSD 240750Z AUTO 25009KT 9999 BKN010/// OVC051/// 01/00 Q0997,ESSD,2018-03-24T07:50:00Z,60.42,15.5,1.0,0.0,250,9,,6.21,29.438976,,,TRUE,,,,,,,,BKN,1000,OVC,5100,,,,,MVFR,,,,,,,,,,,,METAR,161.0
ESSB 240750Z 20010KT 9999 SCT014 02/M02 Q1002 R30/19//55,ESSB,2018-03-24T07:50:00Z,59.35,17.93,2.0,-2.0,200,10,,6.21,29.586615,,,,,,,,,,,SCT,1400,,,,,,,VFR,,,,,,,,,,,,METAR,11.0
ESSA 240750Z 22014KT 9999 BKN014 01/M02 Q1001 R01L/09//95 R01R/09//95 R08/19//95 NOSIG,ESSA,2018-03-24T07:50:00Z,59.63,17.93,1.0,-2.0,220,14,,6.21,29.557087,,,,,,TRUE,,,,,BKN,1400,,,,,,,MVFR,,,,,,,,,,,,METAR,61.0
ESOW 240750Z AUTO 20010KT 9999 SG SCT013/// BKN026/// BKN044/// 00/M02 Q1001 REUP,ESOW,2018-03-24T07:50:00Z,59.57,16.62,0.0,-2.0,200,10,,6.21,29.557087,,,TRUE,,,,,,,SG,SCT,1300,BKN,2600,BKN,4400,,,MVFR,,,,,,,,,,,,METAR,31.0
ESOE 240750Z AUTO 20007KT 9999 OVC012/// 01/00 Q1001,ESOE,2018-03-24T07:50:00Z,59.22,15.05,1.0,0.0,200,7,,6.21,29.557087,,,TRUE,,,,,,,,OVC,1200,,,,,,,MVFR,,,,,,,,,,,,METAR,57.0
ESKN 240750Z 22009KT 9999 BKN037 00/M02 Q1002 R08/19//95,ESKN,2018-03-24T07:50:00Z,58.78,16.9,0.0,-2.0,220,9,,6.21,29.586615,,,,,,,,,,,BKN,3700,,,,,,,VFR,,,,,,,,,,,,METAR,43.0
EGSH 240750Z 15003KT 4000 HZ SCT006 BKN040 07/06 Q1000 BECMG BKN006,EGSH,2018-03-24T07:50:00Z,52.68,1.28,7.0,6.0,150,3,,2.49,29.52756,,,,,,,,,,HZ,SCT,600,BKN,4000,,,,,IFR,,,,,,,,,,,,METAR,36.0
ESNZ 240750Z 21006KT CAVOK 01/M04 Q0987,ESNZ,2018-03-24T07:50:00Z,63.17,14.5,1.0,-4.0,210,6,,6.21,29.143702,,,,,,,,,,,CAVOK,,,,,,,,VFR,,,,,,,,,,,,METAR,370.0
ESNU 240750Z 23011KT 9999 FEW014 OVC037 01/M01 Q0990 R14/72//55,ESNU,2018-03-24T07:50:00Z,63.78,20.27,1.0,-1.0,230,11,,6.21,29.232283,,,,,,,,,,,FEW,1400,OVC,3700,,,,,VFR,,,,,,,,,,,,METAR,14.0
ESNS 240750Z 36003KT 1800 -SN OVC005 M05/M05 Q0989,ESNS,2018-03-24T07:50:00Z,64.62,21.07,-5.0,-5.0,360,3,,1.12,29.202755,,,,,,,,,,-SN,OVC,500,,,,,,,IFR,,,,,,,,,,,,METAR,49.0
ESNQ 240750Z 02003KT 9999 -SN SCT007 OVC053 M12/M14 Q0991,ESNQ,2018-03-24T07:50:00Z,67.82,20.32,-12.0,-14.0,20,3,,6.21,29.26181,,,,,,,,,,-SN,SCT,700,OVC,5300,,,,,VFR,,,,,,,,,,,,METAR,452.0
ESNO 240750Z AUTO 20009KT 9999 OVC037/// 00/M02 Q0989,ESNO,2018-03-24T07:50:00Z,63.38,18.97,0.0,-2.0,200,9,,6.21,29.202755,,,TRUE,,,,,,,,OVC,3700,,,,,,,VFR,,,,,,,,,,,,METAR,103.0
ESNN 240750Z 16003KT 130V240 9999 OVC029 02/M02 Q0991 R16/19//61,ESNN,2018-03-24T07:50:00Z,62.52,17.43,2.0,-2.0,160,3,,6.21,29.26181,,,,,,,,,,,OVC,2900,,,,,,,MVFR,,,,,,,,,,,,METAR,10.0
ESNK 240750Z AUTO 17007KT 9999 NCD 00/M04 Q0990,ESNK,2018-03-24T07:50:00Z,63.03,17.77,0.0,-4.0,170,7,,6.21,29.232283,,,TRUE,,,,,,,,CLR,,,,,,,,VFR,,,,,,,,,,,,METAR,19.0
ESNG 240750Z AUTO 12006KT 3900 -SN ///041 M09/M12 Q0992,ESNG,2018-03-24T07:50:00Z,67.13,20.82,-9.0,-12.0,120,6,,2.42,29.291338,,,TRUE,,,,,,,-SN,,,,,,,,,,,,,,,,,,,,,METAR,310.0
EGCN 240750Z 33007KT 9999 SCT045 06/05 Q1001,EGCN,2018-03-24T07:50:00Z,53.48,-1.0,6.0,5.0,330,7,,6.21,29.557087,,,,,,,,,,,SCT,4500,,,,,,,VFR,,,,,,,,,,,,METAR,17.0
EGCK 240750Z AUTO 03010KT 9999 BKN016/// BKN027/// 06/05 Q1001,EGCK,2018-03-24T07:50:00Z,53.1,4.33,6.0,5.0,30,10,,6.21,29.557087,,,TRUE,,,,,,,,BKN,1600,BKN,2700,,,,,MVFR,,,,,,,,,,,,METAR,0.0
EKRN 240750Z AUTO 17002KT 9999NDV BKN031/// 03/M01 Q1007,EKRN,2018-03-24T07:50:00Z,55.07,14.75,3.0,-1.0,170,2,,,29.734253,,,TRUE,,,,,,,,BKN,3100,,,,,,,,,,,,,,,,,,,METAR,16.0
EKEB 240750Z AUTO 18007KT 0450NDV R08/1200D R26/0900N FG OVC002/// 04/04 Q1003,EKEB,2018-03-24T07:50:00Z,55.52,8.55,4.0,4.0,180,7,,0.56,29.616142,,,TRUE,,,,,,,FG,OVC,200,,,,,,,LIFR,,,,,,,,,,,,METAR,29.0
EKAH 240750Z 17006KT 140V210 2800 BR OVC003 03/03 Q1004,EKAH,2018-03-24T07:50:00Z,56.28,10.62,3.0,3.0,170,6,,1.74,29.64567,,,,,,,,,,BR,OVC,300,,,,,,,LIFR,,,,,,,,,,,,METAR,25.0
EKRK 240750Z AUTO 14006KT 4800NDV BR BKN020/// BKN030/// OVC035/// 02/01 Q1005,EKRK,2018-03-24T07:50:00Z,55.57,12.12,2.0,1.0,140,6,,,29.675198,,,TRUE,,,,,,,BR,BKN,2000,BKN,3000,OVC,3500,,,,,,,,,,,,,,,METAR,44.0
EKYT 240750Z AUTO 20008KT 3100NDV BR FEW003/// OVC005/// 05/04 Q1002,EKYT,2018-03-24T07:50:00Z,57.1,9.87,5.0,4.0,200,8,,,29.586615,,,TRUE,,,,,,,BR,FEW,300,OVC,500,,,,,,,,,,,,,,,,,METAR,3.0
EKBI 240750Z AUTO 19005KT 160V220 1600NDV BR OVC002/// 04/04 Q1003,EKBI,2018-03-24T07:50:00Z,55.72,9.15,4.0,4.0,190,5,,,29.616142,,,TRUE,,,,,,,BR,OVC,200,,,,,,,,,,,,,,,,,,,METAR,66.0
EKCH 240750Z 17010KT 6000 OVC020 02/00 Q1006 NOSIG,EKCH,2018-03-24T07:50:00Z,55.62,12.67,2.0,0.0,170,10,,3.73,29.704725,,,,,,TRUE,,,,,OVC,2000,,,,,,,MVFR,,,,,,,,,,,,METAR,5.0
EKVD 240750Z 20006KT 2500 BR OVC003 05/05 Q1003,EKVD,2018-03-24T07:50:00Z,55.42,9.32,5.0,5.0,200,6,,1.55,29.616142,,,,,,,,,,BR,OVC,300,,,,,,,LIFR,,,,,,,,,,,,METAR,45.0
EKOD 240750Z 18006KT 4500 BR SCT004 BKN007 04/03 Q1004,EKOD,2018-03-24T07:50:00Z,55.47,10.32,4.0,3.0,180,6,,2.8,29.64567,,,,,,,,,,BR,SCT,400,BKN,700,,,,,IFR,,,,,,,,,,,,METAR,17.0
EFKT 240750Z VRB02KT CAVOK M15/M19 Q0995,EFKT,2018-03-24T07:50:00Z,67.7,24.85,-15.0,-19.0,0,2,,6.21,29.379921,,,,,,,,,,,CAVOK,,,,,,,,VFR,,,,,,,,,,,,METAR,643.0
EFKS 240750Z AUTO 09001KT CAVOK M12/M17 Q0995,EFKS,2018-03-24T07:50:00Z,66.0,29.23,-12.0,-17.0,90,1,,6.21,29.379921,,,TRUE,,,,,,,,CAVOK,,,,,,,,VFR,,,,,,,,,,,,METAR,263.0
EFKI 240750Z AUTO 13005KT 090V160 2500 -SN OVC020 M09/M11 Q0996,EFKI,2018-03-24T07:50:00Z,64.27,27.67,-9.0,-11.0,130,5,,1.55,29.409449,,,TRUE,,,,,,,-SN,OVC,2000,,,,,,,IFR,,,,,,,,,,,,METAR,136.0
EFKE 240750Z AUTO 06004KT 030V090 5000 -SN OVC021 M11/M13 Q0995,EFKE,2018-03-24T07:50:00Z,65.77,24.57,-11.0,-13.0,60,4,,3.11,29.379921,,,TRUE,,,,,,,-SN,OVC,2100,,,,,,,MVFR,,,,,,,,,,,,METAR,15.0
EFET 240750Z 00000KT CAVOK M17/M23 Q0994,EFET,2018-03-24T07:50:00Z,68.37,23.43,-17.0,-23.0,0,0,,6.21,29.350393,,,,,,,,,,,CAVOK,,,,,,,,VFR,,,,,,,,,,,,METAR,306.0
EFUT 240750Z AUTO 19007KT 9999 -SHSN FEW008 BKN054 M04/M06 Q1003,EFUT,2018-03-24T07:50:00Z,60.88,26.92,-4.0,-6.0,190,7,,6.21,29.616142,,,TRUE,,,,,,,-SHSN,FEW,800,BKN,5400,,,,,VFR,,,,,,,,,,,,METAR,100.0
EFSI 240750Z AUTO 19009KT 140V240 4700 -SHRASN OVC014 00/M02 Q0994,EFSI,2018-03-24T07:50:00Z,62.7,22.83,0.0,-2.0,190,9,,2.92,29.350393,,,TRUE,,,,,,,-SHRA -SHSN,OVC,1400,,,,,,,IFR,,,,,,,,,,,,METAR,91.0
EFSA 240750Z AUTO 20005KT 150V260 2700 -SN OVC029 M06/M09 Q1002,EFSA,2018-03-24T07:50:00Z,61.95,28.93,-6.0,-9.0,200,5,,1.68,29.586615,,,TRUE,,,,,,,-SN,OVC,2900,,,,,,,IFR,,,,,,,,,,,,METAR,95.0
EFMI 240750Z AUTO 17005KT 120V210 9999 FEW020 SCT058 BKN095 BKN114 M04/M06 Q1001,EFMI,2018-03-24T07:50:00Z,61.68,27.2,-4.0,-6.0,170,5,,6.21,29.557087,,,TRUE,,,,,,,,FEW,2000,SCT,5800,BKN,9500,BKN,11400,VFR,,,,,,,,,,,,METAR,138.0
EFLP 240750Z AUTO 20008KT 160V230 9999 FEW009 OVC030 M04/M06 Q1003,EFLP,2018-03-24T07:50:00Z,61.07,28.13,-4.0,-6.0,200,8,,6.21,29.616142,,,TRUE,,,,,,,,FEW,900,OVC,3000,,,,,MVFR,,,,,,,,,,,,METAR,106.0
EFJO 240750Z AUTO 16005KT 120V200 7000 -SHSN OVC030 M11/M12 Q1001,EFJO,2018-03-24T07:50:00Z,62.67,29.62,-11.0,-12.0,160,5,,4.35,29.557087,,,TRUE,,,,,,,-SHSN,OVC,3000,,,,,,,MVFR,,,,,,,,,,,,METAR,117.0
EFPO 240750Z AUTO 20011KT 170V230 9999 FEW015/// BKN019/// 02/M02 Q0998,EFPO,2018-03-24T07:50:00Z,61.47,21.8,2.0,-2.0,200,11,,6.21,29.468504,,,TRUE,,,,,,,,FEW,1500,BKN,1900,,,,,MVFR,,,,,,,,,,,,METAR,17.0
EFKK 240750Z AUTO 16012KT 9999 BKN013 OVC016 M01/M03 Q0992,EFKK,2018-03-24T07:50:00Z,63.72,23.13,-1.0,-3.0,160,12,,6.21,29.291338,,,TRUE,,,,,,,,BKN,1300,OVC,1600,,,,,MVFR,,,,,,,,,,,,METAR,25.0
EFHA 240750Z AUTO 18011KT CAVOK M02/M06 Q0998,EFHA,2018-03-24T07:50:00Z,61.85,24.8,-2.0,-6.0,180,11,,6.21,29.468504,,,TRUE,,,,,,,,CAVOK,,,,,,,,VFR,,,,,,,,,,,,METAR,145.0
EFKU 240750Z AUTO 14007KT 1800 SN OVC013 M08/M10 Q0998,EFKU,2018-03-24T07:50:00Z,63.02,27.8,-8.0,-10.0,140,7,,1.12,29.468504,,,TRUE,,,,,,,SN,OVC,1300,,,,,,,IFR,,,,,,,,,,,,METAR,102.0
EFJY 240750Z AUTO 17006KT 130V220 9999 OVC045 M04/M06 Q0997,EFJY,2018-03-24T07:50:00Z,62.4,25.68,-4.0,-6.0,170,6,,6.21,29.438976,,,TRUE,,,,,,,,OVC,4500,,,,,,,VFR,,,,,,,,,,,,METAR,145.0
OAMS 240750Z 09004KT 9000 OVC250 25/08 Q1020 BLU+BLU+,OAMS,2018-03-24T07:50:00Z,36.7,67.2,25.0,8.0,90,4,,5.59,30.11811,,,,,,,,,,,OVC,25000,,,,,,,VFR,,,,,,,,,,,,METAR,378.0
EEEI 240750Z 17010KT 140V200 CAVOK M00/M05 Q1005 R24/190095 NOSIG,EEEI,2018-03-24T07:50:00Z,59.27,24.2,0.0,-5.0,170,10,,6.21,29.675198,,,,,,TRUE,,,,,CAVOK,,,,,,,,VFR,,,,,,,,,,,,METAR,20.0
EDDV 240750Z 08004KT 7000 NSC 06/04 Q1004 NOSIG,EDDV,2018-03-24T07:50:00Z,52.47,9.68,6.0,4.0,80,4,,4.35,29.64567,,,,,,TRUE,,,,,CLR,,,,,,,,MVFR,,,,,,,,,,,,METAR,54.0
EDDT 240750Z 13005KT 070V150 9999 BKN030 03/M01 Q1006 NOSIG,EDDT,2018-03-24T07:50:00Z,52.57,13.32,3.0,-1.0,130,5,,6.21,29.704725,,,,,,TRUE,,,,,BKN,3000,,,,,,,MVFR,,,,,,,,,,,,METAR,37.0
EDDS 240750Z 09007KT CAVOK 04/01 Q1000 NOSIG,EDDS,2018-03-24T07:50:00Z,48.67,9.22,4.0,1.0,90,7,,6.21,29.52756,,,,,,TRUE,,,,,CAVOK,,,,,,,,VFR,,,,,,,,,,,,METAR,419.0
EDDN 240750Z 09009KT 060V120 7000 BKN005 02/01 Q1003 R28/29//95 BECMG CAVOK,EDDN,2018-03-24T07:50:00Z,49.5,11.08,2.0,1.0,90,9,,4.35,29.616142,,,,,,,,,,,BKN,500,,,,,,,IFR,,,,,,,,,,,,METAR,312.0
EDDM 240750Z 07008KT 040V100 5000 BR FEW002 BKN005 02/M00 Q1001 BECMG CAVOK,EDDM,2018-03-24T07:50:00Z,48.35,11.82,2.0,0.0,70,8,,3.11,29.557087,,,,,,,,,,BR,FEW,200,BKN,500,,,,,IFR,,,,,,,,,,,,METAR,447.0
EDDL 240750Z 16005KT 100V210 9999 SCT042 SCT270 06/02 Q1002 NOSIG,EDDL,2018-03-24T07:50:00Z,51.3,6.77,6.0,2.0,160,5,,6.21,29.586615,,,,,,TRUE,,,,,SCT,4200,SCT,27000,,,,,VFR,,,,,,,,,,,,METAR,44.0
EDDK 240750Z 11004KT 070V170 CAVOK 05/01 Q1002 NOSIG,EDDK,2018-03-24T07:50:00Z,50.87,7.15,5.0,1.0,110,4,,6.21,29.586615,,,,,,TRUE,,,,,CAVOK,,,,,,,,VFR,,,,,,,,,,,,METAR,99.0
EDDH 240750Z 16007KT 9999 FEW040 BKN048 05/01 Q1004 NOSIG,EDDH,2018-03-24T07:50:00Z,53.63,10.0,5.0,1.0,160,7,,6.21,29.64567,,,,,,TRUE,,,,,FEW,4000,BKN,4800,,,,,VFR,,,,,,,,,,,,METAR,16.0
EDDF 240750Z 07007KT 7000 FEW003 SCT006 04/02 Q1003 NOSIG,EDDF,2018-03-24T07:50:00Z,50.05,8.6,4.0,2.0,70,7,,4.35,29.616142,,,,,,TRUE,,,,,FEW,300,SCT,600,,,,,MVFR,,,,,,,,,,,,METAR,113.0
EDDW 240750Z 13005KT 6000 NSC 06/04 Q1003 NOSIG,EDDW,2018-03-24T07:50:00Z,53.03,8.8,6.0,4.0,130,5,,3.73,29.616142,,,,,,TRUE,,,,,CLR,,,,,,,,MVFR,,,,,,,,,,,,METAR,5.0
EDDR 240750Z 08008KT 1100 R09/P2000N BR OVC002 01/01 Q1000 BECMG 1500 BKN005,EDDR,2018-03-24T07:50:00Z,49.22,7.1,1.0,1.0,80,8,,0.68,29.52756,,,,,,,,,,BR,OVC,200,,,,,,,LIFR,,,,,,,,,,,,METAR,320.0
EDDP 240750Z 12003KT 020V170 8000 BKN047 04/01 Q1004 NOSIG,EDDP,2018-03-24T07:50:00Z,51.43,12.23,4.0,1.0,120,3,,4.97,29.64567,,,,,,TRUE,,,,,BKN,4700,,,,,,,MVFR,,,,,,,,,,,,METAR,149.0
EDDG 240750Z 16005KT 130V190 9999 FEW043 SCT280 05/01 Q1003 NOSIG,EDDG,2018-03-24T07:50:00Z,52.13,7.7,5.0,1.0,160,5,,6.21,29.616142,,,,,,TRUE,,,,,FEW,4300,SCT,28000,,,,,VFR,,,,,,,,,,,,METAR,52.0
EDDE 240750Z 36004KT 330V040 9999 FEW045 05/02 Q1003 NOSIG,EDDE,2018-03-24T07:50:00Z,50.98,10.97,5.0,2.0,360,4,,6.21,29.616142,,,,,,TRUE,,,,,FEW,4500,,,,,,,VFR,,,,,,,,,,,,METAR,323.0
EDDC 240750Z VRB02KT CAVOK 03/M00 Q1004 NOSIG,EDDC,2018-03-24T07:50:00Z,51.13,13.75,3.0,0.0,0,2,,6.21,29.64567,,,,,,TRUE,,,,,CAVOK,,,,,,,,VFR,,,,,,,,,,,,METAR,226.0
EDDB 240750Z 09005KT 9999 BKN029 02/M00 Q1006 NOSIG,EDDB,2018-03-24T07:50:00Z,52.38,13.53,2.0,0.0,90,5,,6.21,29.704725,,,,,,TRUE,,,,,BKN,2900,,,,,,,MVFR,,,,,,,,,,,,METAR,48.0
BGKK 240750Z AUTO 11010KT 9999NDV -SN BKN025/// M05/M10 Q0993,BGKK,2018-03-24T07:50:00Z,65.57,-37.13,-5.0,-10.0,110,10,,,29.320866,,,TRUE,,,,,,,-SN,BKN,2500,,,,,,,,,,,,,,,,,,,METAR,34.0
BGJN 240750Z AUTO 14007KT 9000NDV -SG SCT033/// M25/M28 Q1017,BGJN,2018-03-24T07:50:00Z,69.25,-51.07,-25.0,-28.0,140,7,,,30.029528,,,TRUE,,,,,,,-SG,SCT,3300,,,,,,,,,,,,,,,,,,,METAR,25.0
BGGH 240750Z AUTO 33012KT 9999NDV BKN035/// M15/M17 Q1012,BGGH,2018-03-24T07:50:00Z,64.2,-51.68,-15.0,-17.0,330,12,,,29.88189,,,TRUE,,,,,,,,BKN,3500,,,,,,,,,,,,,,,,,,,METAR,70.0
BGBW 240750Z AUTO 25006KT 9999NDV FEW034/// BKN046/// M06/M12 Q1003,BGBW,2018-03-24T07:50:00Z,61.17,-45.42,-6.0,-12.0,250,6,,,29.616142,,,TRUE,,,,,,,,FEW,3400,BKN,4600,,,,,,,,,,,,,,,,,METAR,26.0
BGSF 240750Z AUTO 00000KT 9999NDV NCD M29/M32 Q1017,BGSF,2018-03-24T07:50:00Z,67.0,-50.72,-29.0,-32.0,0,0,,,30.029528,,,TRUE,,,,,,,,CLR,,,,,,,,,,,,,,,,,,,,METAR,53.0
LSMS 240750Z 08007KT CAVOK 04/M05 Q0999 RMK BLU+,LSMS,2018-03-24T07:50:00Z,46.22,7.32,4.0,-5.0,80,7,,6.21,29.498032,,,,,,,,,,,CAVOK,,,,,,,,VFR,,,,,,,,,,,,METAR,481.0
LSMP 240750Z VRB01KT 9000 NSC 02/M01 Q0999 RMK BLU,LSMP,2018-03-24T07:50:00Z,46.82,6.92,2.0,-1.0,0,1,,5.59,29.498032,,,,,,,,,,,CLR,,,,,,,,VFR,,,,,,,,,,,,METAR,491.0
LSMM 240750Z AUTO 10004KT 9999NDV NCD 03/M04 Q0999 RMK,LSMM,2018-03-24T07:50:00Z,46.75,8.12,3.0,-4.0,100,4,,,29.498032,,,TRUE,,,,,,,,CLR,,,,,,,,,,,,,,,,,,,,METAR,577.0
LSME 240750Z AUTO 00000KT 9999NDV NCD 02/M01 Q0999 RMK,LSME,2018-03-24T07:50:00Z,47.1,8.3,2.0,-1.0,0,0,,,29.498032,,,TRUE,,,,,,,,CLR,,,,,,,,,,,,,,,,,,,,METAR,427.0
LSMD 240750Z AUTO VRB02KT 9999NDV NCD 02/M01 Q0999 RMK,LSMD,2018-03-24T07:50:00Z,47.4,8.65,2.0,-1.0,0,2,,,29.498032,,,TRUE,,,,,,,,CLR,,,,,,,,,,,,,,,,,,,,METAR,448.0
LSMA 240750Z AUTO 15002KT 9999NDV NCD 01/M01 Q0999 RMK,LSMA,2018-03-24T07:50:00Z,46.95,8.28,1.0,-1.0,150,2,,,29.498032,,,TRUE,,,,,,,,CLR,,,,,,,,,,,,,,,,,,,,METAR,444.0
ESTA 240750Z 13007KT 9000 OVC020 01/M01 Q1005,ESTA,2018-03-24T07:50:00Z,56.28,12.83,1.0,-1.0,130,7,,5.59,29.675198,,,,,,,,,,,OVC,2000,,,,,,,MVFR,,,,,,,,,,,,METAR,47.0
ESMX 240750Z AUTO 16008KT 9999 BKN013/// OVC020/// 00/M03 Q1005,ESMX,2018-03-24T07:50:00Z,56.92,14.72,0.0,-3.0,160,8,,6.21,29.675198,,,TRUE,,,,,,,,BKN,1300,OVC,2000,,,,,MVFR,,,,,,,,,,,,METAR,186.0
ESMT 240750Z AUTO 14009KT 9999 OVC020/// 02/M01 Q1004,ESMT,2018-03-24T07:50:00Z,56.67,12.82,2.0,-1.0,140,9,,6.21,29.64567,,,TRUE,,,,,,,,OVC,2000,,,,,,,MVFR,,,,,,,,,,,,METAR,30.0
ESMS 240750Z 17011KT 9999 FEW030 BKN045 02/M01 Q1006 R17/09//95,ESMS,2018-03-24T07:50:00Z,55.53,13.37,2.0,-1.0,170,11,,6.21,29.704725,,,,,,,,,,,FEW,3000,BKN,4500,,,,,VFR,,,,,,,,,,,,METAR,106.0
ESMQ 240750Z 19003KT 4300 BR OVC025 00/00 Q1006,ESMQ,2018-03-24T07:50:00Z,56.68,16.3,0.0,0.0,190,3,,2.67,29.704725,,,,,,,,,,BR,OVC,2500,,,,,,,IFR,,,,,,,,,,,,METAR,16.0
ESMK 240750Z AUTO 16007KT 9999 FEW019/// BKN044/// 03/M02 Q1006,ESMK,2018-03-24T07:50:00Z,55.92,14.07,3.0,-2.0,160,7,,6.21,29.704725,,,TRUE,,,,,,,,FEW,1900,BKN,4400,,,,,VFR,,,,,,,,,,,,METAR,23.0
ESGJ 240750Z 19009KT 4800 BR BKN006 M01/M01 Q1002 R19//9//70,ESGJ,2018-03-24T07:50:00Z,57.77,14.07,-1.0,-1.0,190,9,,2.98,29.586615,,,,,,,,,,BR,BKN,600,,,,,,,IFR,,,,,,,,,,,,METAR,232.0
ESGG 240750Z 18010KT 3000 -RASN OVC003 M00/M01 Q1002 R21/29//95,ESGG,2018-03-24T07:50:00Z,57.67,12.3,0.0,-1.0,180,10,,1.86,29.586615,,,,,,,,,,-RA -SN,OVC,300,,,,,,,LIFR,,,,,,,,,,,,METAR,169.0
EKSP 240750Z 20005KT 170V230 2800 BR SCT002 BKN005 05/05 Q1003,EKSP,2018-03-24T07:50:00Z,55.22,9.27,5.0,5.0,200,5,,1.74,29.616142,,,,,,,,,,BR,SCT,200,BKN,500,,,,,IFR,,,,,,,,,,,,METAR,40.0
EKKA 240750Z 19006KT 170V240 1800 BR OVC003 05/04 Q1002,EKKA,2018-03-24T07:50:00Z,56.3,9.12,5.0,4.0,190,6,,1.12,29.586615,,,,,,,,,,BR,OVC,300,,,,,,,LIFR,,,,,,,,,,,,METAR,52.0
EVLA 240750Z AUTO 17004KT 1000 R06/1100U R24/P2000N BR FEW001/// OVC003/// M02/M02 Q1009,EVLA,2018-03-24T07:50:00Z,56.52,21.1,-2.0,-2.0,170,4,,0.62,29.793306,,,TRUE,,,,,,,BR,FEW,100,OVC,300,,,,,LIFR,,,,,,,,,,,,METAR,4.0
EVVA 240750Z AUTO 17006KT CAVOK 02/M02 Q1007,EVVA,2018-03-24T07:50:00Z,57.35,21.55,2.0,-2.0,170,6,,6.21,29.734253,,,TRUE,,,,,,,,CAVOK,,,,,,,,VFR,,,,,,,,,,,,METAR,6.0
PGRO 240750Z 08014KT 7SM BKN013 BKN120 27/22 A2984,PGRO,2018-03-24T07:50:00Z,14.18,145.25,27.0,22.0,80,14,,7.0,29.840551,,,,,,,,,,,BKN,1300,BKN,12000,,,,,MVFR,,,,,,,,,,,,METAR,185.0
LLSD 240750Z 26015KT 9999 BKN020 20/14 Q1011,LLSD,2018-03-24T07:50:00Z,32.12,34.78,20.0,14.0,260,15,,6.21,29.852362,,,,,,,,,,,BKN,2000,,,,,,,MVFR,,,,,,,,,,,,METAR,14.0
LLOV 240750Z 27013KT 8000 SCT040 20/13 Q1012,LLOV,2018-03-24T07:50:00Z,29.93,34.93,20.0,13.0,270,13,,4.97,29.88189,,,,,,,,,,,SCT,4000,,,,,,,MVFR,,,,,,,,,,,,METAR,432.0
LLIB 240750Z 24010KT 5000 HZ SCT030 19/13 Q1010,LLIB,2018-03-24T07:50:00Z,32.98,35.57,19.0,13.0,240,10,,3.11,29.822834,,,,,,,,,,HZ,SCT,3000,,,,,,,MVFR,,,,,,,,,,,,METAR,282.0
LLHA 240750Z 28009KT 240V320 9999 BKN023 19/14 Q1010,LLHA,2018-03-24T07:50:00Z,32.78,35.02,19.0,14.0,280,9,,6.21,29.822834,,,,,,,,,,,BKN,2300,,,,,,,MVFR,,,,,,,,,,,,METAR,8.0
LLET 240750Z 35011KT 6000 NSC 27/12 Q1009,LLET,2018-03-24T07:50:00Z,29.55,34.95,27.0,12.0,350,11,,3.73,29.793306,,,,,,,,,,,CLR,,,,,,,,MVFR,,,,,,,,,,,,METAR,13.0
LLBG 240750Z 26014KT 9999 FEW020 BKN030 20/14 Q1011 NOSIG RMK RERA,LLBG,2018-03-24T07:50:00Z,32.0,34.88,20.0,14.0,260,14,,6.21,29.852362,,,,,,TRUE,,,,,FEW,2000,BKN,3000,,,,,MVFR,,,,,,,,,,,,METAR,49.0
LSZL 240750Z AUTO 07003KT 030V090 9999NDV BKN055 06/M02 Q1003 RMK,LSZL,2018-03-24T07:50:00Z,46.17,8.88,6.0,-2.0,70,3,,,29.616142,,,TRUE,,,,,,,,BKN,5500,,,,,,,,,,,,,,,,,,,METAR,600.0
LSZC 240750Z AUTO VRB01KT CAVOK 03/M03 Q0999,LSZC,2018-03-24T07:50:00Z,46.97,8.38,3.0,-3.0,0,1,,6.21,29.498032,,,TRUE,,,,,,,,CAVOK,,,,,,,,VFR,,,,,,,,,,,,METAR,450.0
LSZS 240750Z 00000KT 9999 SCT038 M13/M16 Q0999 RMK C,LSZS,2018-03-24T07:50:00Z,46.53,9.88,-13.0,-16.0,0,0,,6.21,29.498032,,,,,,,,,,,SCT,3800,,,,,,,VFR,,,,,,,,,,,,METAR,1706.0
LSZR 240750Z 28005KT CAVOK 02/M02 Q0999 NOSIG RMK B,LSZR,2018-03-24T07:50:00Z,47.48,9.57,2.0,-2.0,280,5,,6.21,29.498032,,,,,,TRUE,,,,,CAVOK,,,,,,,,VFR,,,,,,,,,,,,METAR,398.0
LSZG 240750Z 25002KT 8000 NSC 01/M00 Q1000 NOSIG,LSZG,2018-03-24T07:50:00Z,47.17,7.42,1.0,0.0,250,2,,4.97,29.52756,,,,,,TRUE,,,,,CLR,,,,,,,,MVFR,,,,,,,,,,,,METAR,430.0
LSGS 240750Z 08007KT CAVOK 04/M05 Q0999,LSGS,2018-03-24T07:50:00Z,46.22,7.32,4.0,-5.0,80,7,,6.21,29.498032,,,,,,,,,,,CAVOK,,,,,,,,VFR,,,,,,,,,,,,METAR,481.0
LSGC 240750Z VRB03KT CAVOK 02/M03 Q0997,LSGC,2018-03-24T07:50:00Z,47.08,6.8,2.0,-3.0,0,3,,6.21,29.438976,,,,,,,,,,,CAVOK,,,,,,,,VFR,,,,,,,,,,,,METAR,1027.0
LSZA 240750Z VRB01KT 9000 BKN050 06/01 Q1003 NOSIG,LSZA,2018-03-24T07:50:00Z,46.0,8.92,6.0,1.0,0,1,,5.59,29.616142,,,,,,TRUE,,,,,BKN,5000,,,,,,,VFR,,,,,,,,,,,,METAR,276.0
LSZB 240750Z VRB02KT CAVOK 02/M01 Q0999 NOSIG,LSZB,2018-03-24T07:50:00Z,46.92,7.5,2.0,-1.0,0,2,,6.21,29.498032,,,,,,TRUE,,,,,CAVOK,,,,,,,,VFR,,,,,,,,,,,,METAR,505.0
LSGG 240750Z VRB01KT CAVOK 04/M00 Q0999 NOSIG,LSGG,2018-03-24T07:50:00Z,46.25,6.12,4.0,0.0,0,1,,6.21,29.498032,,,,,,TRUE,,,,,CAVOK,,,,,,,,VFR,,,,,,,,,,,,METAR,416.0
LSZH 240750Z VRB03KT 9000 NSC 03/M01 Q0999 NOSIG,LSZH,2018-03-24T07:50:00Z,47.48,8.53,3.0,-1.0,0,3,,5.59,29.498032,,,,,,TRUE,,,,,CLR,,,,,,,,VFR,,,,,,,,,,,,METAR,432.0
KDAG 240750Z AUTO 32010KT 10SM CLR 12/06 A2998 RMK AO2 SLP140 T01220056 402330089,KDAG,2018-03-24T07:50:00Z,34.85,-116.78,12.2,5.6,320,10,,10.0,29.97933,1014.0,,TRUE,TRUE,,,,,,,CLR,,,,,,,,VFR,,,,23.3,8.9,,,,,,,METAR,587.0
PGWT 240750Z 08014KT 7SM SCT018 SCT120 BKN150 27/22 A2983,PGWT,2018-03-24T07:50:00Z,14.98,145.62,27.0,22.0,80,14,,7.0,29.828741,,,,,,,,,,,SCT,1800,SCT,12000,BKN,15000,,,VFR,,,,,,,,,,,,METAR,82.0
ESUD 240750Z AUTO 04002KT 1000 R33/1200D -SN VV000 M06/M07 Q0988 RESG,ESUD,2018-03-24T07:50:00Z,64.97,17.7,-6.0,-7.0,40,2,,0.62,29.17323,,,TRUE,,,,,,,-SN,OVX,0,,,,,,,LIFR,,,,,,,,,,,0,METAR,279.0
ESNL 240750Z AUTO 32002KT 2900 OVC001/// M05/M07 Q0988,ESNL,2018-03-24T07:50:00Z,64.55,18.72,-5.0,-7.0,320,2,,1.8,29.17323,,,TRUE,,,,,,,,OVC,100,,,,,,,LIFR,,,,,,,,,,,,METAR,214.0
ESNX 240750Z AUTO 13005KT 2500 -SN VV015 M07/M08 Q0988,ESNX,2018-03-24T07:50:00Z,65.58,19.28,-7.0,-8.0,130,5,,1.55,29.17323,,,TRUE,,,,,,,-SN,OVX,0,,,,,,,LIFR,,,,,,,,,,,1500,METAR,379.0
ESUT 240750Z AUTO 16004KT 130V200 5000 -SN ///023 M05/M07 Q0986 RESHUP,ESUT,2018-03-24T07:50:00Z,65.8,15.08,-5.0,-7.0,160,4,,3.11,29.114174,,,TRUE,,,,,,,-SN,,,,,,,,,,,,,,,,,,,,,METAR,463.0
KMHS 240750Z AUTO 00000KT 3SM -SN BR BKN022 BKN050 OVC060 M01/M02 A2989 RMK AO2 P0005,KMHS,2018-03-24T07:50:00Z,41.32,-122.32,-1.0,-2.0,0,0,,3.0,29.890747,,,TRUE,TRUE,,,,,,-SN BR,BKN,2200,BKN,5000,OVC,6000,,,MVFR,,,,,,0.05,,,,,,METAR,1078.0
PTPN 240750Z 13005KT 15SM FEW018 SCT130 SCT300 26/23 A2974 RMK FIRST,PTPN,2018-03-24T07:50:00Z,6.97,158.22,26.0,23.0,130,5,,15.0,29.740158,,,,,,,,,,,FEW,1800,SCT,13000,SCT,30000,,,VFR,,,,,,,,,,,,METAR,2.0
VNKT 240750Z 22003KT 7000 FEW020 SCT030 25/05 Q1018 NOSIG,VNKT,2018-03-24T07:50:00Z,27.68,85.37,25.0,5.0,220,3,,4.35,30.059055,,,,,,TRUE,,,,,FEW,2000,SCT,3000,,,,,MVFR,,,,,,,,,,,,METAR,1337.0
EFMA 240750Z 20014KT 9999 FEW006 01/M00 Q1000,EFMA,2018-03-24T07:50:00Z,60.12,19.88,1.0,0.0,200,14,,6.21,29.52756,,,,,,,,,,,FEW,600,,,,,,,VFR,,,,,,,,,,,,METAR,6.0
EFRO 240750Z AUTO VRB03KT 060V130 CAVOK M12/M14 Q0995,EFRO,2018-03-24T07:50:00Z,66.57,25.82,-12.0,-14.0,0,3,,6.21,29.379921,,,TRUE,,,,,,,,CAVOK,,,,,,,,VFR,,,,,,,,,,,,METAR,201.0
EFOU 240750Z AUTO 09008KT 1300 1200 R30/1400N -SN VV011 M08/M10 Q0994,EFOU,2018-03-24T07:50:00Z,64.92,25.37,-8.0,-10.0,90,8,,0.81,29.350393,,,TRUE,,,,,,,-SN,OVX,0,,,,,,,LIFR,,,,,,,,,,,1100,METAR,15.0
EFVA 240750Z AUTO 21015KT 180V240 9999 BKN013/// OVC055/// 01/M01 Q0992,EFVA,2018-03-24T07:50:00Z,63.03,21.77,1.0,-1.0,210,15,,6.21,29.291338,,,TRUE,,,,,,,,BKN,1300,OVC,5500,,,,,MVFR,,,,,,,,,,,,METAR,4.0
EFTU 240750Z AUTO 21007G18KT 160V260 9999 OVC008/// 01/M01 Q1001,EFTU,2018-03-24T07:50:00Z,60.52,22.27,1.0,-1.0,210,7,18,6.21,29.557087,,,TRUE,,,,,,,,OVC,800,,,,,,,IFR,,,,,,,,,,,,METAR,59.0
EFTP 240750Z AUTO 19011KT 9999 OVC010 M01/M03 Q0999,EFTP,2018-03-24T07:50:00Z,61.42,23.62,-1.0,-3.0,190,11,,6.21,29.498032,,,TRUE,,,,,,,,OVC,1000,,,,,,,MVFR,,,,,,,,,,,,METAR,112.0
EFHK 240750Z 18009KT 9999 FEW012 SCT057 BKN070 M02/M05 Q1004 NOSIG,EFHK,2018-03-24T07:50:00Z,60.32,24.97,-2.0,-5.0,180,9,,6.21,29.64567,,,,,,TRUE,,,,,FEW,1200,SCT,5700,BKN,7000,,,VFR,,,,,,,,,,,,METAR,56.0
KQFX 240750Z AUTO 24004G11KT 3200 HZ BKN034 14/04 A3010 RMK A02 TSNO,KQFX,2018-03-24T07:50:00Z,,,14.0,4.0,240,4,11,1.99,30.100393,,,TRUE,TRUE,,,TRUE,,,HZ,BKN,3400,,,,,,,IFR,,,,,,,,,,,,METAR,
KQFW 240750Z AUTO 24009G14KT 9999 FEW045 14/M03 A3009 RMK A02 TSNO,KQFW,2018-03-24T07:50:00Z,,,14.0,-3.0,240,9,14,6.21,30.088583,,,TRUE,TRUE,,,TRUE,,,,FEW,4500,,,,,,,VFR,,,,,,,,,,,,METAR,
KQFV 240750Z AUTO 24005G13KT 4800 HZ CLR 13/M01 A3010 RMK A02 TSNO,KQFV,2018-03-24T07:50:00Z,,,13.0,-1.0,240,5,13,2.98,30.100393,,,TRUE,TRUE,,,TRUE,,,HZ,CLR,,,,,,,,IFR,,,,,,,,,,,,METAR,
KQFT 240750Z AUTO 20008G14KT 4000 HZ CLR 13/04 A3011 RMK A02 TSNO,KQFT,2018-03-24T07:50:00Z,,,13.0,4.0,200,8,14,2.49,30.109253,,,TRUE,TRUE,,,TRUE,,,HZ,CLR,,,,,,,,IFR,,,,,,,,,,,,METAR,
KQFB 240750Z AUTO 31008G13KT 6000 HZ SCT075 17/02 A3014 RMK A02 TSNO,KQFB,2018-03-24T07:50:00Z,,,17.0,2.0,310,8,13,3.73,30.138779,,,TRUE,TRUE,,,TRUE,,,HZ,SCT,7500,,,,,,,MVFR,,,,,,,,,,,,METAR,
KQEY 240750Z AUTO 27007G14KT 4000 HZ OVC033 14/04 A2986 RMK A02 TSNO,KQEY,2018-03-24T07:50:00Z,,,14.0,4.0,270,7,14,2.49,29.861221,,,TRUE,TRUE,,,TRUE,,,HZ,OVC,3300,,,,,,,IFR,,,,,,,,,,,,METAR,
KQEW 240750Z AUTO 26006G12KT 6000 HZ BKN037 15/02 A3010 RMK A02 TSNO,KQEW,2018-03-24T07:50:00Z,,,15.0,2.0,260,6,12,3.73,30.100393,,,TRUE,TRUE,,,TRUE,,,HZ,BKN,3700,,,,,,,MVFR,,,,,,,,,,,,METAR,
KQEV 240750Z AUTO 26005G12KT 4800 HZ OVC033 15/05 A3011 RMK A02 TSNO,KQEV,2018-03-24T07:50:00Z,,,15.0,5.0,260,5,12,2.98,30.109253,,,TRUE,TRUE,,,TRUE,,,HZ,OVC,3300,,,,,,,IFR,,,,,,,,,,,,METAR,
KQES 240750Z AUTO 28007KT 3200 HZ OVC010 09/06 A3022 RMK A02 TSNO,KQES,2018-03-24T07:50:00Z,,,9.0,6.0,280,7,,1.99,30.221457,,,TRUE,TRUE,,,TRUE,,,HZ,OVC,1000,,,,,,,IFR,,,,,,,,,,,,METAR,
KQEP 240750Z AUTO 23007G13KT 4800 CLR M01/M10 / RMK A02 TSNO,KQEP,2018-03-24T07:50:00Z,,,-1.0,-10.0,230,7,13,2.98,,,,TRUE,TRUE,,,TRUE,,,,CLR,,,,,,,,IFR,,,,,,,,,,,,METAR,
KQEN 240750Z AUTO 24015G28KT 6000 HZ CLR 07/M03 A3000 RMK A02 TSNO,KQEN,2018-03-24T07:50:00Z,,,7.0,-3.0,240,15,28,3.73,30.0,,,TRUE,TRUE,,,TRUE,,,HZ,CLR,,,,,,,,MVFR,,,,,,,,,,,,METAR,
KQEL 240750Z AUTO 23007G13KT 8000 HZ FEW065 15/M01 A3017 RMK A02 TSNO,KQEL,2018-03-24T07:50:00Z,,,15.0,-1.0,230,7,13,4.97,30.171259,,,TRUE,TRUE,,,TRUE,,,HZ,FEW,6500,,,,,,,MVFR,,,,,,,,,,,,METAR,
EYVI 240750Z VRB01KT CAVOK M00/M08 Q1009 R01/1///95 NOSIG,EYVI,2018-03-24T07:50:00Z,54.63,25.28,0.0,-8.0,0,1,,6.21,29.793306,,,,,,TRUE,,,,,CAVOK,,,,,,,,VFR,,,,,,,,,,,,METAR,197.0
EYPA 240750Z 18004KT 150V210 1800 BR OVC002 M01/M01 Q1009 R19/1///95,EYPA,2018-03-24T07:50:00Z,55.97,21.08,-1.0,-1.0,180,4,,1.12,29.793306,,,,,,,,,,BR,OVC,200,,,,,,,LIFR,,,,,,,,,,,,METAR,10.0
MSLP 240750Z 03009KT 360V060 CAVOK 28/16 Q1011 A2987 NOSIG,MSLP,2018-03-24T07:50:00Z,13.43,-89.05,28.0,16.0,30,9,,6.21,29.852362,,,,,,TRUE,,,,,CAVOK,,,,,,,,VFR,,,,,,,,,,,,METAR,25.0
KSQI 240750Z AUTO 08020KT 3/4SM -SN BKN010 BKN017 OVC032 00/M03 A3016 RMK AO2 RAB32E39SNB39 CIG 009V013 PRESFR P0000 FZRANO RVRNO $,KSQI,2018-03-24T07:50:00Z,41.75,-89.67,0.0,-3.0,80,20,,0.75,30.159449,,,TRUE,TRUE,TRUE,,,TRUE,,-SN,BKN,1000,BKN,1700,OVC,3200,,,LIFR,,,,,,0.005,,,,,,METAR,197.0
EYSA 240750Z 17006KT CAVOK 01/M08 Q1009 R14L/19//95 R14R/19//95 BLU NOSIG,EYSA,2018-03-24T07:50:00Z,55.9,23.4,1.0,-8.0,170,6,,6.21,29.793306,,,,,,TRUE,,,,,CAVOK,,,,,,,,VFR,,,,,,,,,,,,METAR,135.0
CYQW 240750Z AUTO 14008KT 4SM BR OVC004 M04/M05 A2983 RMK SLP135,CYQW,2018-03-24T07:50:00Z,52.77,-108.25,-4.0,-5.0,140,8,,4.0,29.828741,1013.5,,TRUE,,,,,,,BR,OVC,400,,,,,,,LIFR,,,,,,,,,,,,SPECI,548.0
EKVG 240750Z AUTO 31001KT 9999NDV NCD 04/01 Q0989,EKVG,2018-03-24T07:50:00Z,62.07,-7.3,4.0,1.0,310,1,,,29.202755,,,TRUE,,,,,,,,CLR,,,,,,,,,,,,,,,,,,,,METAR,85.0
EETN 240750Z 19010KT CAVOK M02/M06 Q1005 R08/19//95 NOSIG,EETN,2018-03-24T07:50:00Z,59.4,24.82,-2.0,-6.0,190,10,,6.21,29.675198,,,,,,TRUE,,,,,CAVOK,,,,,,,,VFR,,,,,,,,,,,,METAR,40.0
EVRA 240750Z 17007KT CAVOK 01/M04 Q1009 R18/190095 NOSIG,EVRA,2018-03-24T07:50:00Z,56.92,23.97,1.0,-4.0,170,7,,6.21,29.793306,,,,,,TRUE,,,,,CAVOK,,,,,,,,VFR,,,,,,,,,,,,METAR,10.0
PTRO 240750Z 03006G15KT 14SM BKN015CB BKN120 OVC300 26/23 A2974 RMK CB ALQDS,PTRO,2018-03-24T07:50:00Z,7.37,134.55,26.0,23.0,30,6,15,14.0,29.740158,,,,,,,,,,,BKN,1500,BKN,12000,OVC,30000,,,MVFR,,,,,,,,,,,,METAR,54.0
EYKA 240750Z VRB02KT CAVOK 01/M07 Q1009 R08/09//95,EYKA,2018-03-24T07:50:00Z,54.97,24.08,1.0,-7.0,0,2,,6.21,29.793306,,,,,,,,,,,CAVOK,,,,,,,,VFR,,,,,,,,,,,,METAR,77.0
TJBQ 240750Z 00000KT 10SM SKC 22/21 A2997,TJBQ,2018-03-24T07:50:00Z,18.5,-67.13,22.0,21.0,0,0,,10.0,29.970472,,,,,,,,,,,SKC,,,,,,,,VFR,,,,,,,,,,,,METAR,72.0
LATI 240750Z VRB02KT 9999 SCT044 BKN055 OVC070 07/03 Q1001 NOSIG,LATI,2018-03-24T07:50:00Z,41.42,19.72,7.0,3.0,0,2,,6.21,29.557087,,,,,,TRUE,,,,,SCT,4400,BKN,5500,OVC,7000,,,VFR,,,,,,,,,,,,METAR,90.0
KIPJ 240750Z AUTO 00000KT 10SM BKN080 OVC090 05/00 A3019 RMK AO2 T00450000,KIPJ,2018-03-24T07:50:00Z,35.48,-81.17,4.5,0.0,0,0,,10.0,30.188976,,,TRUE,TRUE,,,,,,,BKN,8000,OVC,9000,,,,,VFR,,,,,,,,,,,,METAR,267.0
KSKA 240749Z 07005KT 10SM -RA BKN004 OVC019 01/01 A2973 RMK AO2A RASNB29E49RAB49 CIG 004V006 SLP083 $,KSKA,2018-03-24T07:49:00Z,47.62,-117.65,1.0,1.0,70,5,,10.0,29.731298,1008.3,,,TRUE,TRUE,,,,,-RA,BKN,400,OVC,1900,,,,,LIFR,,,,,,,,,,,,SPECI,750.0
EBLB 240749Z AUTO 13008KT 9000 SCT007/// 02/00 Q1000 GRN,EBLB,2018-03-24T07:49:00Z,50.47,6.17,2.0,0.0,130,8,,5.59,29.52756,,,TRUE,,,,,,,,SCT,700,,,,,,,VFR,,,,,,,,,,,,SPECI,570.0
KSLE 240749Z AUTO 19008KT 10SM -RA BKN035 BKN050 OVC060 02/01 A2983 RMK AO2 UPB46E48 P0003 T00220006,KSLE,2018-03-24T07:49:00Z,44.9,-123.0,2.2,0.6,190,8,,10.0,29.828741,,,TRUE,TRUE,,,,,,-RA,BKN,3500,BKN,5000,OVC,6000,,,VFR,,,,,,0.03,,,,,,METAR,59.0
YMLT 240749Z AUTO 35011KT 9999 // BKN009 BKN021 16/15 Q1007,YMLT,2018-03-24T07:49:00Z,-41.52,147.18,16.0,15.0,350,11,,6.21,29.734253,,,TRUE,,,,,,,,BKN,900,BKN,2100,,,,,IFR,,,,,,,,,,,,SPECI,178.0
PAWM 240749Z AUTO 11010KT 8SM BKN017 M04/M06 A3001 RMK AO2 FZRANO,PAWM,2018-03-24T07:49:00Z,64.68,-163.42,-4.0,-6.0,110,10,,8.0,30.008858,,,TRUE,TRUE,,,,TRUE,,,BKN,1700,,,,,,,MVFR,,,,,,,,,,,,SPECI,82.0
KESN 240749Z AUTO 36006KT 10SM CLR 03/M06 A3021 RMK AO2 T00271056,KESN,2018-03-24T07:49:00Z,38.8,-76.07,2.7,-5.6,360,6,,10.0,30.209646,,,TRUE,TRUE,,,,,,,CLR,,,,,,,,VFR,,,,,,,,,,,,METAR,22.0
KSXS 240748Z AUTO 00000KT 10SM OVC090 11/07 A3016 RMK AO2 SLP214,KSXS,2018-03-24T07:48:00Z,31.37,-85.85,11.0,7.0,0,0,,10.0,30.159449,1021.4,,TRUE,TRUE,,,,,,,OVC,9000,,,,,,,VFR,,,,,,,,,,,,SPECI,122.0
KJDN 240748Z AUTO 11003KT M03/M04 A2993 RMK AO1 SLP164 T10281044 ,KJDN,2018-03-24T07:48:00Z,47.33,-106.95,-2.8,-4.4,110,3,,,29.929134,1016.4,,TRUE,TRUE,,,,,,,,,,,,,,,,,,,,,,,,,,,METAR,801.0
KBJJ 240748Z AUTO 34004KT 10SM BKN015 M06/M07 A3027 RMK AO2 T10561072,KBJJ,2018-03-24T07:48:00Z,40.87,-81.88,-5.6,-7.2,340,4,,10.0,30.268702,,,TRUE,TRUE,,,,,,,BKN,1500,,,,,,,MVFR,,,,,,,,,,,,METAR,343.0
PPIT 240748Z AUTO 15007KT 1SM UP BR OVC003 M07/M08 A3004 RMK AO2 P0000 FZRANO TSNO,PPIT,2018-03-24T07:48:00Z,60.9,-162.43,-7.0,-8.0,150,7,,1.0,30.041338,,,TRUE,TRUE,,,TRUE,TRUE,,BR UP,OVC,300,,,,,,,LIFR,,,,,,0.005,,,,,,METAR,4.0
PFKW 240748Z AUTO 15006KT 10SM BKN004 M07/M08 A3007 RMK AO2 FZRANO,PFKW,2018-03-24T07:48:00Z,60.8,-161.43,-7.0,-8.0,150,6,,10.0,30.070866,,,TRUE,TRUE,,,,TRUE,,,BKN,400,,,,,,,LIFR,,,,,,,,,,,,METAR,8.0
KRYY 240748Z AUTO 00000KT 10SM OVC100 11/06 A3014 RMK AO2 SLP925 T01060056,KRYY,2018-03-24T07:48:00Z,34.02,-84.6,10.6,5.6,0,0,,10.0,30.138779,992.5,,TRUE,TRUE,,,,,,,OVC,10000,,,,,,,VFR,,,,,,,,,,,,METAR,317.0
YCIN 240748Z AUTO 31009KT 9999 // NCD 36/27 Q1003 RF00.0/000.0,YCIN,2018-03-24T07:48:00Z,-17.58,123.83,36.0,27.0,310,9,,6.21,29.616142,,,TRUE,,,,,,,,CLR,,,,,,,,VFR,,,,,,,,,,,,SPECI,91.0
ETSN 240748Z 07007KT 3200 BR BKN002 02/00 Q1002 AMB,ETSN,2018-03-24T07:48:00Z,48.72,11.22,2.0,0.0,70,7,,1.99,29.586615,,,,,,,,,,BR,BKN,200,,,,,,,LIFR,,,,,,,,,,,,SPECI,387.0
KCQT 240747Z AUTO 00000KT 10SM CLR 13/11 A3003 RMK AO2 SLP168 T01280111 402060128,KCQT,2018-03-24T07:47:00Z,34.02,-118.28,12.8,11.1,0,0,,10.0,30.029528,1016.8,,TRUE,TRUE,,,,,,,CLR,,,,,,,,VFR,,,,20.6,12.8,,,,,,,METAR,56.0
YBCS 240747Z 26005KT 1500 SHRA FEW003 BKN018 BKN035 24/23 Q1008 FM0747 16008KT 9999 -SHRA SCT018 BKN040 TEMPO 0747/1047 2000 SHRA SCT005 BKN010,YBCS,2018-03-24T07:47:00Z,-16.87,145.75,24.0,23.0,260,5,,0.93,29.763779,,,,,,,,,,SHRA,FEW,300,BKN,1800,BKN,3500,,,LIFR,,,,,,,,,,,,METAR,7.0
PAAK 240747Z AUTO 15016G26KT 4SM RA BR OVC011 02/01 A2976 RMK AO2 PK WND 14034/0704 UPE45RAB45 P0000 FZRANO,PAAK,2018-03-24T07:47:00Z,52.22,-174.2,2.0,1.0,150,16,26,4.0,29.760826,,,TRUE,TRUE,,,,TRUE,,RA BR,OVC,1100,,,,,,,MVFR,,,,,,0.005,,,,,,METAR,17.0
CYZH 240747Z AUTO 30004KT 9SM -SN OVC019 M05/M07 A2967 RMK SLP080,CYZH,2018-03-24T07:47:00Z,55.28,-114.77,-5.0,-7.0,300,4,,9.0,29.66929,1008.0,,TRUE,,,,,,,-SN,OVC,1900,,,,,,,MVFR,,,,,,,,,,,,SPECI,581.0
KVTP 240747Z AUTO 21020G30KT 10SM CLR M01/M08 A3024 RMK AO2,KVTP,2018-03-24T07:47:00Z,37.5,-105.17,-1.0,-8.0,210,20,30,10.0,30.239174,,,TRUE,TRUE,,,,,,,CLR,,,,,,,,VFR,,,,,,,,,,,,METAR,3114.0
MMTJ 240746Z 27004KT 6SM OVC015 13/11 A3009 RMK 8/6// HZY,MMTJ,2018-03-24T07:46:00Z,32.53,-116.97,13.0,11.0,270,4,,6.0,30.088583,,,,,,,,,,,OVC,1500,,,,,,,MVFR,,,,,,,,,,,,METAR,152.0
MMTO 240746Z 06003KT 6SM SKC 06/01 A3042 RMK HZY,MMTO,2018-03-24T07:46:00Z,19.35,-99.57,6.0,1.0,60,3,,6.0,30.41929,,,,,,,,,,,SKC,,,,,,,,VFR,,,,,,,,,,,,METAR,2576.0
MMMD 240746Z 08008KT 7SM SKC 20/14 A3010,MMMD,2018-03-24T07:46:00Z,20.95,-89.65,20.0,14.0,80,8,,7.0,30.100393,,,,,,,,,,,SKC,,,,,,,,VFR,,,,,,,,,,,,METAR,10.0
K2DP 240746Z AUTO 00000KT 10SM CLR M01/M01 A3017 RMK AO2 SLPNO $,K2DP,2018-03-24T07:46:00Z,35.68,-75.9,-1.0,-1.0,0,0,,10.0,30.171259,,,TRUE,TRUE,TRUE,,,,,,CLR,,,,,,,,VFR,,,,,,,,,,,,METAR,3.0
ETAR 240746Z AUTO 08006KT 3200 BR OVC003 02/02 A2955 RMK AO2 CIG 002 RWY26 SLP019 $,ETAR,2018-03-24T07:46:00Z,49.42,7.58,2.0,2.0,80,6,,1.99,29.551182,1001.9,,TRUE,TRUE,TRUE,,,,,BR,OVC,300,,,,,,,LIFR,,,,,,,,,,,,METAR,238.0
EGUN 240746Z AUTO 11003KT 9000 BR BKN009 BKN014 OVC044 07/07 A2952 RMK AO2 CIG 009V016 SLP000 $,EGUN,2018-03-24T07:46:00Z,52.37,0.47,7.0,7.0,110,3,,5.59,29.518702,1000.0,,TRUE,TRUE,TRUE,,,,,BR,BKN,900,BKN,1400,OVC,4400,,,IFR,,,,,,,,,,,,METAR,10.0
KKLS 240746Z AUTO 14003KT 9SM RA OVC014 03/02 A2980 RMK AO2 P0004 400830028,KKLS,2018-03-24T07:46:00Z,46.12,-122.9,3.0,2.0,140,3,,9.0,29.799213,,,TRUE,TRUE,,,,,,RA,OVC,1400,,,,,,,MVFR,,,,8.3,2.8,0.04,,,,,,METAR,5.0
CYAY 240746Z AUTO 01017G22KT 9SM -SN FEW012 SCT017 SCT023 OVC048 M02/M04 A2993 RMK ICG INTMT SLP137,CYAY,2018-03-24T07:46:00Z,51.38,-56.07,-2.0,-4.0,10,17,22,9.0,29.929134,1013.7,,TRUE,,,,,,,-SN,FEW,1200,SCT,1700,SCT,2300,OVC,4800,VFR,,,,,,,,,,,,SPECI,28.0
CYVL 240746Z AUTO 36008KT 9SM -SN CLR M26/M29 A3018 RMK SLP262,CYVL,2018-03-24T07:46:00Z,67.02,-126.13,-26.0,-29.0,360,8,,9.0,30.180119,1026.2,,TRUE,,,,,,,-SN,CLR,,,,,,,,VFR,,,,,,,,,,,,SPECI,259.0
CYQV 240746Z AUTO 16013KT 9SM OVC007 M02/M02 A3000 RMK ICG SLP187,CYQV,2018-03-24T07:46:00Z,51.27,-102.47,-2.0,-2.0,160,13,,9.0,30.0,1018.7,,TRUE,,,,,,,,OVC,700,,,,,,,IFR,,,,,,,,,,,,SPECI,498.0
CYHE 240746Z AUTO 09006KT 9SM SCT002 BKN170 01/01 A2982 RMK SLP101,CYHE,2018-03-24T07:46:00Z,49.37,-121.5,1.0,1.0,90,6,,9.0,29.819881,1010.1,,TRUE,,,,,,,,SCT,200,BKN,17000,,,,,VFR,,,,,,,,,,,,SPECI,39.0
LIPR 240745Z 30003KT 9999 FEW025 07/03 Q1004,LIPR,2018-03-24T07:45:00Z,44.02,12.62,7.0,3.0,300,3,,6.21,29.64567,,,,,,,,,,,FEW,2500,,,,,,,VFR,,,,,,,,,,,,METAR,13.0
LIRP 240745Z 11005KT CAVOK 05/02 Q1003 NOSIG,LIRP,2018-03-24T07:45:00Z,43.67,10.37,5.0,2.0,110,5,,6.21,29.616142,,,,,,TRUE,,,,,CAVOK,,,,,,,,VFR,,,,,,,,,,,,METAR,2.0
MMSP 240745Z 00000KT 8SM SKC 11/08 A3025,MMSP,2018-03-24T07:45:00Z,22.25,-100.93,11.0,8.0,0,0,,8.0,30.250984,,,,,,,,,,,SKC,,,,,,,,VFR,,,,,,,,,,,,METAR,1903.0
LMML 240745Z 30010KT 9999 FEW022 11/07 Q1005 NOSIG,LMML,2018-03-24T07:45:00Z,35.85,14.47,11.0,7.0,300,10,,6.21,29.675198,,,,,,TRUE,,,,,FEW,2200,,,,,,,VFR,,,,,,,,,,,,METAR,91.0
LHSN 240745Z 13006KT 090V160 3000 BR SCT004 OVC009 M02/M02 Q1007 NOSIG RMK YLO,LHSN,2018-03-24T07:45:00Z,47.12,20.23,-2.0,-2.0,130,6,,1.86,29.734253,,,,,,TRUE,,,,BR,SCT,400,OVC,900,,,,,IFR,,,,,,,,,,,,METAR,98.0
CMGB 240745Z AUTO 36003KT M02/M07 RMK AO1 SOG 11 1009 SLP187 T10161074,CMGB,2018-03-24T07:45:00Z,45.37,-72.77,-1.6,-7.4,360,3,,,,1018.7,,TRUE,TRUE,,,,,,,,,,,,,,,,,,,,,,,,,,,METAR,86.0
KBLV 240745Z AUTO 07014G20KT 10SM OVC007 06/05 A2996 RMK AO2 RAB29E45 SLP150 $,KBLV,2018-03-24T07:45:00Z,38.53,-89.83,6.0,5.0,70,14,20,10.0,29.958662,1015.0,,TRUE,TRUE,TRUE,,,,,,OVC,700,,,,,,,IFR,,,,,,,,,,,,SPECI,138.0
ETNH 240745Z 16004KT 5000 BR FEW010 BKN048 05/03 Q1004 WHT,ETNH,2018-03-24T07:45:00Z,54.32,9.55,5.0,3.0,160,4,,3.11,29.64567,,,,,,,,,,BR,FEW,1000,BKN,4800,,,,,MVFR,,,,,,,,,,,,SPECI,17.0
KBKB 240745Z AUTO VRB04KT 10SM FEW008 OVC024 17/16 A2997 RMK AO2 T01720161 $,KBKB,2018-03-24T07:45:00Z,31.0,-92.92,17.2,16.1,0,4,,10.0,29.970472,,,TRUE,TRUE,TRUE,,,,,,FEW,800,OVC,2400,,,,,MVFR,,,,,,,,,,,,METAR,94.0
KSUU 240745Z AUTO 26013KT 10SM RA FEW027 SCT034 BKN044 BKN055 10/05 A3011 RMK AO2 RAB45 SLP203 $,KSUU,2018-03-24T07:45:00Z,38.27,-121.92,10.0,5.0,260,13,,10.0,30.109253,1020.3,,TRUE,TRUE,TRUE,,,,,RA,FEW,2700,SCT,3400,BKN,4400,BKN,5500,VFR,,,,,,,,,,,,METAR,19.0
CWPF 240745Z AUTO 34005KT 05/01 RMK AO1 T00450013,CWPF,2018-03-24T07:45:00Z,48.43,-123.43,4.5,1.3,340,5,,,,,,TRUE,TRUE,,,,,,,,,,,,,,,,,,,,,,,,,,,METAR,12.0
CWVF 240745Z AUTO 10009KT 06/ RMK AO1 T0059,CWVF,2018-03-24T07:45:00Z,49.1,-123.3,5.9,,100,9,,,,,,TRUE,TRUE,,,,,,,,,,,,,,,,,,,,,,,,,,,METAR,1.0
KHON 240745Z AUTO 10008KT 2SM -SN BR OVC006 01/M01 A2999 RMK AO2 P0004 T00061006,KHON,2018-03-24T07:45:00Z,44.38,-98.23,0.6,-0.6,100,8,,2.0,29.991142,,,TRUE,TRUE,,,,,,-SN BR,OVC,600,,,,,,,IFR,,,,,,0.04,,,,,,SPECI,390.0
ETHL 240745Z 01005KT 1200 BR BKN002 M00/M00 Q1000 AMB,ETHL,2018-03-24T07:45:00Z,48.22,9.92,0.0,0.0,10,5,,0.75,29.52756,,,,,,,,,,BR,BKN,200,,,,,,,LIFR,,,,,,,,,,,,SPECI,549.0
CYZS 240745Z 21017KT 3SM -SN DRSN OVC070 M18/M20 A3013 RMK SN3AC5 SLP214,CYZS,2018-03-24T07:45:00Z,64.2,-83.37,-18.0,-20.0,210,17,,3.0,30.129921,1021.4,,,,,,,,,-SN DRSN,OVC,7000,,,,,,,MVFR,,,,,,,,,,,,SPECI,64.0
KAIZ 240745Z AUTO 13008KT 10SM VCTS -RA SCT048 BKN055 OVC100 12/09 A2977 RMK AO2 TSB39RAB00 P0000,KAIZ,2018-03-24T07:45:00Z,38.1,-92.53,12.0,9.0,130,8,,10.0,29.769686,,,TRUE,TRUE,,,,,,VCTS -RA,SCT,4800,BKN,5500,OVC,10000,,,VFR,,,,,,0.005,,,,,,METAR,265.0
WAAA 240745Z 33005KT 290V010 9999 TS FEW018CB SCT019 29/25 Q100 8 NOSIG,WAAA,2018-03-24T07:45:00Z,-5.07,119.53,29.0,25.0,330,5,,6.21,,,,,,,TRUE,,,,TS,FEW,1800,SCT,1900,,,,,VFR,,,,,,,,,,,,SPECI,14.0
KSWF 240745Z 31010KT 10SM BKN060 01/M05 A3009,KSWF,2018-03-24T07:45:00Z,41.5,-74.08,1.0,-5.0,310,10,,10.0,30.088583,,,,,,,,,,,BKN,6000,,,,,,,VFR,,,,,,,,,,,,METAR,150.0
ETSH 240744Z VRB03KT 5000 BR SCT003 BKN030 02/01 Q1005 WHT,ETSH,2018-03-24T07:44:00Z,51.77,13.17,2.0,1.0,0,3,,3.11,29.675198,,,,,,,,,,BR,SCT,300,BKN,3000,,,,,MVFR,,,,,,,,,,,,SPECI,79.0
ETNL 240744Z 14006KT 4800 BR FEW002 SCT004 BKN026 02/00 Q1006 GRN,ETNL,2018-03-24T07:44:00Z,53.92,12.27,2.0,0.0,140,6,,2.98,29.704725,,,,,,,,,,BR,FEW,200,SCT,400,BKN,2600,,,IFR,,,,,,,,,,,,SPECI,40.0
LTAU 240744Z 18018KT 150V220 9999 -SHRA BKN033 BKN100 18/M01 Q0998 NOSIG RMK RWY07 19014G36KT 140V230,LTAU,2018-03-24T07:44:00Z,38.77,35.47,18.0,-1.0,180,18,,6.21,29.468504,,,,,,TRUE,,,,-SHRA,BKN,3300,BKN,10000,,,,,VFR,,,,,,,,,,,,SPECI,1054.0
KCOU 240744Z AUTO 11017G26KT 7SM BKN008 OVC034 08/07 A2979 RMK AO2 PK WND 10026/0738 RAB17E39 P0001 T00780067,KCOU,2018-03-24T07:44:00Z,38.82,-92.22,7.8,6.7,110,17,26,7.0,29.790354,,,TRUE,TRUE,,,,,,,BKN,800,OVC,3400,,,,,IFR,,,,,,0.01,,,,,,SPECI,271.0
KAST 240744Z AUTO 34004KT 4SM -RA BR SCT010 OVC018 02/01 A2980 RMK AO2 VIS 2 1/2 RWY 08 RAB0659 P0015 T00170011,KAST,2018-03-24T07:44:00Z,46.15,-123.88,1.7,1.1,340,4,,4.0,29.799213,,,TRUE,TRUE,,,,,,-RA BR,SCT,1000,OVC,1800,,,,,MVFR,,,,,,0.15,,,,,,SPECI,3.0
KAXS 240744Z AUTO 00000KT 10SM CLR 17/10 A2977 RMK AO2,KAXS,2018-03-24T07:44:00Z,34.7,-99.33,17.0,10.0,0,0,,10.0,29.769686,,,TRUE,TRUE,,,,,,,CLR,,,,,,,,VFR,,,,,,,,,,,,METAR,437.0
KSXT 240743Z AUTO 20010G16KT 1/4SM SN FZFG VV001 M03/M03 A2981 RMK AO2 P0000 T10331033,KSXT,2018-03-24T07:43:00Z,42.6,-123.37,-3.3,-3.3,200,10,16,0.25,29.811024,,,TRUE,TRUE,,,,,,SN FZFG,OVX,0,,,,,,,LIFR,,,,,,0.005,,,,,100,METAR,1170.0
KVBG 240743Z AUTO 35011KT 9SM BKN017 10/07 A3012 RMK AO2 BKN V SCT SLP203 $,KVBG,2018-03-24T07:43:00Z,34.73,-120.58,10.0,7.0,350,11,,9.0,30.121063,1020.3,,TRUE,TRUE,TRUE,,,,,,BKN,1700,,,,,,,MVFR,,,,,,,,,,,,SPECI,112.0
KTCM 240743Z AUTO 29005KT 10SM -RA FEW010 BKN016 OVC029 04/04 A2976 RMK AO2 CIG 005 RWY34 SLP083 $,KTCM,2018-03-24T07:43:00Z,47.12,-122.47,4.0,4.0,290,5,,10.0,29.760826,1008.3,,TRUE,TRUE,TRUE,,,,,-RA,FEW,1000,BKN,1600,OVC,2900,,,MVFR,,,,,,,,,,,,SPECI,98.0
EGUL 240743Z AUTO 11004KT 9999 FEW008 SCT014 OVC043 07/07 A2951 RMK AO2 SLP997 $,EGUL,2018-03-24T07:43:00Z,52.42,0.57,7.0,7.0,110,4,,6.21,29.509842,999.7,,TRUE,TRUE,TRUE,,,,,,FEW,800,SCT,1400,OVC,4300,,,VFR,,,,,,,,,,,,SPECI,10.0
CYXE 240743Z 16012KT 6SM BR BKN006 OVC024 M01/M02 A2987 RMK ST6SC2 SLP145,CYXE,2018-03-24T07:43:00Z,52.17,-106.7,-1.0,-2.0,160,12,,6.0,29.870079,1014.5,,,,,,,,,BR,BKN,600,OVC,2400,,,,,IFR,,,,,,,,,,,,SPECI,504.0
PARS 240743Z AUTO 03003KT 10SM BKN012 OVC025 M07/M08 A3007 RMK AO2 FZRANO $,PARS,2018-03-24T07:43:00Z,61.77,-161.32,-7.0,-8.0,30,3,,10.0,30.070866,,,TRUE,TRUE,TRUE,,,TRUE,,,BKN,1200,OVC,2500,,,,,MVFR,,,,,,,,,,,,SPECI,16.0
CWSA 240743Z AUTO 28011G17KT 7SM -RA SCT011 SCT019 OVC030 01/M01 A2977 RMK SLP081,CWSA,2018-03-24T07:43:00Z,43.93,-60.0,1.0,-1.0,280,11,17,7.0,29.769686,1008.1,,TRUE,,,,,,,-RA,SCT,1100,SCT,1900,OVC,3000,,,MVFR,,,,,,,,,,,,SPECI,4.0
PANA 240743Z AUTO 15006KT 1/4SM FZFG OVC003 M07/M08 A3006 RMK AO2 FZRANO,PANA,2018-03-24T07:43:00Z,60.68,-161.98,-7.0,-8.0,150,6,,0.25,30.059055,,,TRUE,TRUE,,,,TRUE,,FZFG,OVC,300,,,,,,,LIFR,,,,,,,,,,,,SPECI,5.0
CYDN 240743Z AUTO 14014KT 9SM BKN025 BKN032 OVC050 M00/M02 A3011 RMK SLP215,CYDN,2018-03-24T07:43:00Z,51.1,-100.03,0.0,-2.0,140,14,,9.0,30.109253,1021.5,,TRUE,,,,,,,,BKN,2500,BKN,3200,OVC,5000,,,MVFR,,,,,,,,,,,,SPECI,305.0
LKKV 240743Z 14007KT 110V170 5000 BR BKN005 00/M01 Q1003 RMK REG QNH 1000,LKKV,2018-03-24T07:43:00Z,50.2,12.92,0.0,-1.0,140,7,,3.11,29.616142,,,,,,,,,,BR,BKN,500,,,,,,,IFR,,,,,,,,,,,,SPECI,604.0
MMSD 240742Z 00000KT 8SM SKC 21/03 A2997,MMSD,2018-03-24T07:42:00Z,23.13,-109.7,21.0,3.0,0,0,,8.0,29.970472,,,,,,,,,,,SKC,,,,,,,,VFR,,,,,,,,,,,,METAR,109.0
MMMX 240742Z 06004KT 10SM SKC 15/02 A3035 NOSIG RMK HZY,MMMX,2018-03-24T07:42:00Z,19.42,-99.08,15.0,2.0,60,4,,10.0,30.351377,,,,,,TRUE,,,,,SKC,,,,,,,,VFR,,,,,,,,,,,,METAR,2238.0
MMAA 240742Z 05002KT 6SM SKC 25/24 A2993 RMK HZY,MMAA,2018-03-24T07:42:00Z,16.75,-99.75,25.0,24.0,50,2,,6.0,29.929134,,,,,,,,,,,SKC,,,,,,,,VFR,,,,,,,,,,,,METAR,5.0
MMGL 240742Z 00000KT 10SM SKC 17/04 A3020,MMGL,2018-03-24T07:42:00Z,20.52,-103.32,17.0,4.0,0,0,,10.0,30.200787,,,,,,,,,,,SKC,,,,,,,,VFR,,,,,,,,,,,,METAR,1528.0
KNKX 240742Z 00000KT 10SM OVC018 16/12 A3006 RMK AO2 T01560117,KNKX,2018-03-24T07:42:00Z,32.87,-117.13,15.6,11.7,0,0,,10.0,30.059055,,,,TRUE,,,,,,,OVC,1800,,,,,,,MVFR,,,,,,,,,,,,SPECI,146.0
CYQI 240742Z 01003KT 15SM OVC041 00/M00 A2992 RMK SC8 SLP134,CYQI,2018-03-24T07:42:00Z,43.83,-66.08,0.0,0.0,10,3,,15.0,29.920275,1013.4,,,,,,,,,,OVC,4100,,,,,,,VFR,,,,,,,,,,,,SPECI,43.0
KEVV 240742Z AUTO 09014G18KT 8SM -RA FEW009 BKN060 OVC075 06/05 A3008 RMK AO2 P0006 T00560050,KEVV,2018-03-24T07:42:00Z,38.05,-87.52,5.6,5.0,90,14,18,8.0,30.079725,,,TRUE,TRUE,,,,,,-RA,FEW,900,BKN,6000,OVC,7500,,,VFR,,,,,,0.06,,,,,,SPECI,117.0
LZZI 240742Z 10003KT 060V130 6000 NSC 02/M03 Q1005,LZZI,2018-03-24T07:42:00Z,49.23,18.62,2.0,-3.0,100,3,,3.73,29.675198,,,,,,,,,,,CLR,,,,,,,,MVFR,,,,,,,,,,,,SPECI,311.0
KEIK 240742Z AUTO 01003KT 10SM CLR 04/02 A3010 RMK AO2 T00400018,KEIK,2018-03-24T07:42:00Z,40.02,-105.05,4.0,1.8,10,3,,10.0,30.100393,,,TRUE,TRUE,,,,,,,CLR,,,,,,,,VFR,,,,,,,,,,,,SPECI,1564.0
PGUA 240741Z AUTO 07016KT 10SM SCT018 28/22 A2984 RMK AO2 SLP095 CHINO RWY24L $,PGUA,2018-03-24T07:41:00Z,13.57,144.92,28.0,22.0,70,16,,10.0,29.840551,1009.5,,TRUE,TRUE,TRUE,,,,,,SCT,1800,,,,,,,VFR,,,,,,,,,,,,METAR,187.0
MMMZ 240741Z 00000KT 10SM SCT230 15/14 A2995 RMK 8/002 HZY,MMMZ,2018-03-24T07:41:00Z,23.17,-106.27,15.0,14.0,0,0,,10.0,29.949802,,,,,,,,,,,SCT,23000,,,,,,,VFR,,,,,,,,,,,,METAR,10.0
MMHO 240741Z 08003KT 10SM BKN090 OVC200 26/05 A2995 RMK 8/037 HZY,MMHO,2018-03-24T07:41:00Z,29.08,-111.05,26.0,5.0,80,3,,10.0,29.949802,,,,,,,,,,,BKN,9000,OVC,20000,,,,,VFR,,,,,,,,,,,,METAR,184.0
MMUN 240741Z 00000KT 7SM SCT015 16/15 A3011 RMK 8/500,MMUN,2018-03-24T07:41:00Z,21.02,-86.85,16.0,15.0,0,0,,7.0,30.109253,,,,,,,,,,,SCT,1500,,,,,,,VFR,,,,,,,,,,,,METAR,10.0
MMCZ 240741Z 00000KT 7SM SKC 16/14 A3009 RMK SC,MMCZ,2018-03-24T07:41:00Z,20.52,-86.92,16.0,14.0,0,0,,7.0,30.088583,,,,,,,,,,,SKC,,,,,,,,VFR,,,,,,,,,,,,METAR,5.0
MMMM 240741Z 00000KT 6SM SKC 14/07 A3025,MMMM,2018-03-24T07:41:00Z,19.85,-101.02,14.0,7.0,0,0,,6.0,30.250984,,,,,,,,,,,SKC,,,,,,,,VFR,,,,,,,,,,,,METAR,1833.0
FAKM 240741Z 35010KT CAVOK 22/13 Q1015,FAKM,2018-03-24T07:41:00Z,-28.8,24.77,22.0,13.0,350,10,,6.21,29.970472,,,,,,,,,,,CAVOK,,,,,,,,VFR,,,,,,,,,,,,SPECI,1192.0
ETIK 240741Z AUTO 08007KT 1000 R24/0900V1400 BR OVC002 00/00 A2961 RMK AO2 SLP044 $,ETIK,2018-03-24T07:41:00Z,49.47,10.37,0.0,0.0,80,7,,0.62,29.610237,1004.4,,TRUE,TRUE,TRUE,,,,,BR,OVC,200,,,,,,,LIFR,,,,,,,,,,,,SPECI,325.0
ETIH 240741Z AUTO 10005KT 8000 BR OVC005 01/01 A2961 RMK AO2 CIG 003V005 SLP049 $,ETIH,2018-03-24T07:41:00Z,49.22,11.82,1.0,1.0,100,5,,4.97,29.610237,1004.9,,TRUE,TRUE,TRUE,,,,,BR,OVC,500,,,,,,,IFR,,,,,,,,,,,,SPECI,442.0
KDVP 240741Z AUTO 09012KT 1 3/4SM -SN OVC007 00/M01 A3002 RMK AO2 P0001 T10011006,KDVP,2018-03-24T07:41:00Z,43.98,-95.78,-0.1,-0.6,90,12,,1.75,30.02067,,,TRUE,TRUE,,,,,,-SN,OVC,700,,,,,,,IFR,,,,,,0.01,,,,,,METAR,495.0
CYQY 240741Z 32009KT 2SM -SN OVC003 M01/M01 A2971 RMK SC8 SLP066,CYQY,2018-03-24T07:41:00Z,46.17,-60.03,-1.0,-1.0,320,9,,2.0,29.71063,1006.6,,,,,,,,,-SN,OVC,300,,,,,,,LIFR,,,,,,,,,,,,SPECI,62.0
KFRI 240741Z AUTO 07010KT 10SM SCT021 BKN028 BKN038 13/09 A2963 RMK AO2 BKN028 V SCT SLP027,KFRI,2018-03-24T07:41:00Z,39.03,-96.77,13.0,9.0,70,10,,10.0,29.630905,1002.7,,TRUE,TRUE,,,,,,,SCT,2100,BKN,2800,BKN,3800,,,MVFR,,,,,,,,,,,,SPECI,325.0
CYKJ 240741Z AUTO 18014G20KT 2 1/2SM -FZRA BR OVC010 M04/M05 A2975 RMK VIS VRB 1 3/4-3 ICG SLP109,CYKJ,2018-03-24T07:41:00Z,57.25,-105.62,-4.0,-5.0,180,14,20,2.5,29.749016,1010.9,,TRUE,,,,,,,-FZRA BR,OVC,1000,,,,,,,IFR,,,,,,,,,,,,SPECI,509.0
KTGI 240741Z AUTO 33019KT 10SM CLR 04/M02 A3017 RMK AO1,KTGI,2018-03-24T07:41:00Z,37.82,-75.98,4.0,-2.0,330,19,,10.0,30.171259,,,TRUE,TRUE,,,,,,,CLR,,,,,,,,VFR,,,,,,,,,,,,METAR,2.0
MMMY 240740Z 11005KT 10SM SKC 19/17 A2990,MMMY,2018-03-24T07:40:00Z,25.77,-100.08,19.0,17.0,110,5,,10.0,29.899607,,,,,,,,,,,SKC,,,,,,,,VFR,,,,,,,,,,,,METAR,387.0
MMTP 240740Z 00000KT 8SM SCT100 23/21 A2989 RMK 8/030,MMTP,2018-03-24T07:40:00Z,14.77,-92.37,23.0,21.0,0,0,,8.0,29.890747,,,,,,,,,,,SCT,10000,,,,,,,VFR,,,,,,,,,,,,METAR,29.0
UKLL 240740Z 15003MPS 5000 BR SCT006 BKN200 M04/M05 Q1007 R13/D NOSIG,UKLL,2018-03-24T07:40:00Z,49.82,23.93,-4.0,-5.0,150,6,,3.11,29.734253,,,,,,TRUE,,,,BR,SCT,600,BKN,20000,,,,,MVFR,,,,,,,,,,,,SPECI,325.0
KQBF 240740Z AUTO 00000KT 1400 HZ CLR 25/M17 A2991 RMK AO2 SLPNO WND DATA ESTMD,KQBF,2018-03-24T07:40:00Z,,,25.0,-17.0,0,0,,0.87,29.911417,,,TRUE,TRUE,,,,,,HZ,CLR,,,,,,,,LIFR,,,,,,,,,,,,SPECI,
MMIO 240740Z 18010KT 10SM SKC 18/08 A3012,MMIO,2018-03-24T07:40:00Z,25.55,-100.93,18.0,8.0,180,10,,10.0,30.121063,,,,,,,,,,,SKC,,,,,,,,VFR,,,,,,,,,,,,METAR,1790.0
CWZQ 240740Z AUTO 03004KT M01/ RMK AO1 T1005,CWZQ,2018-03-24T07:40:00Z,46.53,-61.05,-0.5,,30,4,,,,,,TRUE,TRUE,,,,,,,,,,,,,,,,,,,,,,,,,,,METAR,17.0
SBSN 240740Z 20002KT 0500 -RA SCT004 SCT013 OVC100 24/24 Q1010,SBSN,2018-03-24T07:40:00Z,-2.42,-54.78,24.0,24.0,200,2,,0.31,29.822834,,,,,,,,,,-RA,SCT,400,SCT,1300,OVC,10000,,,LIFR,,,,,,,,,,,,SPECI,72.0
KSBD 240740Z AUTO 00000KT 10SM BKN021 BKN046 13/10 A3005 RMK AO2 T01320095,KSBD,2018-03-24T07:40:00Z,34.08,-117.25,13.2,9.5,0,0,,10.0,30.050198,,,TRUE,TRUE,,,,,,,BKN,2100,BKN,4600,,,,,MVFR,,,,,,,,,,,,METAR,353.0
KONX 240740Z AUTO 00000KT 10SM CLR 03/M02 A3019 RMK AO2 T00321024,KONX,2018-03-24T07:40:00Z,36.4,-76.02,3.2,-2.4,0,0,,10.0,30.188976,,,TRUE,TRUE,,,,,,,CLR,,,,,,,,VFR,,,,,,,,,,,,METAR,5.0
KIXA 240740Z AUTO 00000KT 10SM CLR 00/M03 A3021 RMK AO2,KIXA,2018-03-24T07:40:00Z,36.33,-77.63,0.0,-3.0,0,0,,10.0,30.209646,,,TRUE,TRUE,,,,,,,CLR,,,,,,,,VFR,,,,,,,,,,,,METAR,44.0
KGEV 240740Z AUTO 27004KT 10SM OVC080 01/M06 A3013 RMK AO2 T00101063,KGEV,2018-03-24T07:40:00Z,36.43,-81.42,1.0,-6.3,270,4,,10.0,30.129921,,,TRUE,TRUE,,,,,,,OVC,8000,,,,,,,VFR,,,,,,,,,,,,METAR,969.0
KALO 240740Z AUTO 09020G30KT 1 1/4SM -SN BR FEW007 OVC020 M03/M03 A3006 RMK AO2 PK WND 09030/0734 P0003 T10281033,KALO,2018-03-24T07:40:00Z,42.55,-92.4,-2.8,-3.3,90,20,30,1.25,30.059055,,,TRUE,TRUE,,,,,,-SN BR,FEW,700,OVC,2000,,,,,IFR,,,,,,0.03,,,,,,SPECI,264.0
K2G4 240740Z AUTO 35004KT 10SM CLR M07/M08 A3009 RMK AO1,K2G4,2018-03-24T07:40:00Z,39.58,-79.33,-7.0,-8.0,350,4,,10.0,30.088583,,,TRUE,TRUE,,,,,,,CLR,,,,,,,,VFR,,,,,,,,,,,,METAR,894.0
PAVA 240740Z AUTO 17019KT 4SM BR OVC003 M01/M02 A2996 RMK AO2 FZRANO,PAVA,2018-03-24T07:40:00Z,61.53,-165.6,-1.0,-2.0,170,19,,4.0,29.958662,,,TRUE,TRUE,,,,TRUE,,BR,OVC,300,,,,,,,LIFR,,,,,,,,,,,,SPECI,23.0
CYBU 240740Z AUTO 15015G22KT 9SM -SN OVC021 M01/M03 A2995 RMK SLP165,CYBU,2018-03-24T07:40:00Z,53.32,-104.0,-1.0,-3.0,150,15,22,9.0,29.949802,1016.5,,TRUE,,,,,,,-SN,OVC,2100,,,,,,,MVFR,,,,,,,,,,,,SPECI,374.0
PKWA 240740Z AUTO 08015G19KT 10SM SCT020 BKN043 OVC070 26/24 A2983 RMK AO2 P0006 T02600244,PKWA,2018-03-24T07:40:00Z,8.72,167.72,26.0,24.4,80,15,19,10.0,29.828741,,,TRUE,TRUE,,,,,,,SCT,2000,BKN,4300,OVC,7000,,,VFR,,,,,,0.06,,,,,,METAR,8.0
KUSE 240740Z AUTO 04004KT 10SM CLR M04/M05 A3030 RMK AO2,KUSE,2018-03-24T07:40:00Z,41.62,-84.13,-4.0,-5.0,40,4,,10.0,30.301182,,,TRUE,TRUE,,,,,,,CLR,,,,,,,,VFR,,,,,,,,,,,,METAR,238.0
KPGV 240740Z AUTO 00000KT 10SM CLR 01/M03 A3021 RMK AO2,KPGV,2018-03-24T07:40:00Z,35.62,-77.4,1.0,-3.0,0,0,,10.0,30.209646,,,TRUE,TRUE,,,,,,,CLR,,,,,,,,VFR,,,,,,,,,,,,METAR,8.0
KOWI 240740Z AUTO 34007KT 10SM BKN026 BKN033 OVC042 15/12 A2966 RMK AO2,KOWI,2018-03-24T07:40:00Z,38.53,-95.25,15.0,12.0,340,7,,10.0,29.660433,,,TRUE,TRUE,,,,,,,BKN,2600,BKN,3300,OVC,4200,,,MVFR,,,,,,,,,,,,METAR,292.0
KHSD 240740Z AUTO 21019G27KT 10SM CLR 20/15 A2968 RMK A01,KHSD,2018-03-24T07:40:00Z,35.6,-97.72,20.0,15.0,210,19,27,10.0,29.681103,,,TRUE,TRUE,,,,,,,CLR,,,,,,,,VFR,,,,,,,,,,,,METAR,364.0
KGWW 240740Z AUTO 36003KT 10SM CLR 01/M03 A3020 RMK AO2 T00061035,KGWW,2018-03-24T07:40:00Z,35.47,-77.97,0.6,-3.5,360,3,,10.0,30.200787,,,TRUE,TRUE,,,,,,,CLR,,,,,,,,VFR,,,,,,,,,,,,METAR,41.0
KGOO 240740Z AUTO 18007KT 130V220 10SM OVC005 03/02 A3006 RMK AO1,KGOO,2018-03-24T07:40:00Z,39.22,-121.0,3.0,2.0,180,7,,10.0,30.059055,,,TRUE,TRUE,,,,,,,OVC,500,,,,,,,IFR,,,,,,,,,,,,METAR,962.0
KJNX 240740Z AUTO 00000KT 10SM CLR 00/00 A3020 RMK AO2,KJNX,2018-03-24T07:40:00Z,35.53,-78.38,0.0,0.0,0,0,,10.0,30.200787,,,TRUE,TRUE,,,,,,,CLR,,,,,,,,VFR,,,,,,,,,,,,METAR,50.0
KEHO 240740Z AUTO 10003KT 10SM OVC075 07/M01 A3019 RMK AO2 T00741011,KEHO,2018-03-24T07:40:00Z,35.25,-81.6,7.4,-1.1,100,3,,10.0,30.188976,,,TRUE,TRUE,,,,,,,OVC,7500,,,,,,,VFR,,,,,,,,,,,,SPECI,258.0
KGNB 240740Z AUTO 06004KT 10SM CLR M04/M05 A3013 RMK AO2 T10421048,KGNB,2018-03-24T07:40:00Z,40.08,-105.92,-4.2,-4.8,60,4,,10.0,30.129921,,,TRUE,TRUE,,,,,,,CLR,,,,,,,,VFR,,,,,,,,,,,,SPECI,2500.0
EHVL 240739Z AUTO 17008KT 5000 BR OVC280 05/04 Q1002 WHT,EHVL,2018-03-24T07:39:00Z,53.23,4.92,5.0,4.0,170,8,,3.11,29.586615,,,TRUE,,,,,,,BR,OVC,28000,,,,,,,MVFR,,,,,,,,,,,,SPECI,5.0
LELN 240739Z 26018KT 2500 -SN BKN025 00/M00 Q0999,LELN,2018-03-24T07:39:00Z,42.57,-5.65,0.0,0.0,260,18,,1.55,29.498032,,,,,,,,,,-SN,BKN,2500,,,,,,,IFR,,,,,,,,,,,,SPECI,914.0
EHLW 240739Z AUTO 16005KT 120V180 4700 BR BKN026 OVC030 05/04 Q1002 GRN,EHLW,2018-03-24T07:39:00Z,53.22,5.75,5.0,4.0,160,5,,2.92,29.586615,,,TRUE,,,,,,,BR,BKN,2600,OVC,3000,,,,,IFR,,,,,,,,,,,,SPECI,2.0
KMTN 240739Z AUTO 30005KT 10SM CLR 01/M06 A3019 RMK AO2,KMTN,2018-03-24T07:39:00Z,39.32,-76.42,1.0,-6.0,300,5,,10.0,30.188976,,,TRUE,TRUE,,,,,,,CLR,,,,,,,,VFR,,,,,,,,,,,,METAR,7.0
KFSD 240739Z AUTO 09012KT 2SM -SN BR OVC006 01/00 A2997 RMK AO2 RAE29SNB29 CIG 004V011 P0002 T00060000,KFSD,2018-03-24T07:39:00Z,43.58,-96.75,0.6,0.0,90,12,,2.0,29.970472,,,TRUE,TRUE,,,,,,-SN BR,OVC,600,,,,,,,IFR,,,,,,0.02,,,,,,METAR,436.0
KMKT 240739Z AUTO 11015KT 2 1/2SM -SN BR FEW006 SCT020 OVC027 M01/M01 A3009 RMK AO2 VIS 1 3/4V4 P0000 FZRANO,KMKT,2018-03-24T07:39:00Z,44.22,-93.92,-1.0,-1.0,110,15,,2.5,30.088583,,,TRUE,TRUE,,,,TRUE,,-SN BR,FEW,600,SCT,2000,OVC,2700,,,IFR,,,,,,0.005,,,,,,METAR,311.0
KCWI 240739Z AUTO 09010KT 1/2SM SN FZFG OVC007 M02/M03 A3018 RMK AO2 CIG 003V009 P0002 FZRANO,KCWI,2018-03-24T07:39:00Z,41.82,-90.32,-2.0,-3.0,90,10,,0.5,30.180119,,,TRUE,TRUE,,,,TRUE,,SN FZFG,OVC,700,,,,,,,LIFR,,,,,,0.02,,,,,,METAR,216.0
KCGS 240738Z AUTO 00000KT 10SM CLR M01/M06 A3019 RMK AO1 T10061065,KCGS,2018-03-24T07:38:00Z,38.98,-76.92,-0.6,-6.5,0,0,,10.0,30.188976,,,TRUE,TRUE,,,,,,,CLR,,,,,,,,VFR,,,,,,,,,,,,METAR,15.0
KMWM 240738Z AUTO 08015KT M01/ A3000 RMK AO2 PWINO,KMWM,2018-03-24T07:38:00Z,43.9,-95.1,-1.0,,80,15,,,30.0,,,TRUE,TRUE,,,,,TRUE,,,,,,,,,,,,,,,,,,,,,,METAR,430.0
CYYR 240738Z 01009KT 15SM FEW038 M08/M11 A3021 RMK SC2 SLP234,CYYR,2018-03-24T07:38:00Z,53.32,-60.42,-8.0,-11.0,10,9,,15.0,30.209646,1023.4,,,,,,,,,,FEW,3800,,,,,,,VFR,,,,,,,,,,,,SPECI,49.0
KSAW 240738Z AUTO 06004KT 10SM CLR M07/M11 A3041 RMK AO2 T10711112,KSAW,2018-03-24T07:38:00Z,46.35,-87.4,-7.1,-11.2,60,4,,10.0,30.410433,,,TRUE,TRUE,,,,,,,CLR,,,,,,,,VFR,,,,,,,,,,,,METAR,372.0
KAMN 240738Z AUTO 00000KT 10SM CLR M07/M08 A3035 RMK AO2 T10711077,KAMN,2018-03-24T07:38:00Z,43.32,-84.68,-7.1,-7.7,0,0,,10.0,30.351377,,,TRUE,TRUE,,,,,,,CLR,,,,,,,,VFR,,,,,,,,,,,,METAR,230.0
KPRX 240738Z AUTO 20014KT 10SM OVC029 19/14 A2986 RMK AO2,KPRX,2018-03-24T07:38:00Z,33.62,-95.45,19.0,14.0,200,14,,10.0,29.861221,,,TRUE,TRUE,,,,,,,OVC,2900,,,,,,,MVFR,,,,,,,,,,,,METAR,167.0
CYKL 240738Z AUTO 36013KT 5SM -SN BKN037 OVC048 M20/M23 A3024 RMK SLP294,CYKL,2018-03-24T07:38:00Z,54.78,-66.82,-20.0,-23.0,360,13,,5.0,30.239174,1029.4,,TRUE,,,,,,,-SN,BKN,3700,OVC,4800,,,,,MVFR,,,,,,,,,,,,SPECI,521.0
PASV 240738Z AUTO 35010KT 4SM -SN BR BKN006 M05/M06 A2993 RMK AO2 SLP170,PASV,2018-03-24T07:38:00Z,61.1,-155.57,-5.0,-6.0,350,10,,4.0,29.929134,1017.0,,TRUE,TRUE,,,,,,-SN BR,BKN,600,,,,,,,IFR,,,,,,,,,,,,METAR,484.0
PASY 240737Z AUTO 32021G26KT 5SM BR BKN009 OVC015 01/01 A2933 RMK AO2 WSHFT 28 RAE02RAB23E35 CIG 006V009 SLP936 FZRANO $,PASY,2018-03-24T07:37:00Z,52.72,174.12,1.0,1.0,320,21,26,5.0,29.329725,993.6,,TRUE,TRUE,TRUE,,,TRUE,,BR,BKN,900,OVC,1500,,,,,IFR,,,,,,,,,,,,METAR,31.0
KCBE 240737Z AUTO 34003KT 10SM CLR M01/M07 A3025 RMK AO1,KCBE,2018-03-24T07:37:00Z,39.62,-78.77,-1.0,-7.0,340,3,,10.0,30.250984,,,TRUE,TRUE,,,,,,,CLR,,,,,,,,VFR,,,,,,,,,,,,METAR,236.0
K2W6 240737Z AUTO 30004KT 10SM CLR 01/M06 A3020 RMK AO1,K2W6,2018-03-24T07:37:00Z,38.32,-76.55,1.0,-6.0,300,4,,10.0,30.200787,,,TRUE,TRUE,,,,,,,CLR,,,,,,,,VFR,,,,,,,,,,,,METAR,44.0
KTBR 240737Z AUTO 00000KT 10SM OVC090 11/06 A3018 RMK AO2,KTBR,2018-03-24T07:37:00Z,32.48,-81.73,11.0,6.0,0,0,,10.0,30.180119,,,TRUE,TRUE,,,,,,,OVC,9000,,,,,,,VFR,,,,,,,,,,,,METAR,57.0
PAKH 240737Z AUTO 10SM SCT025 02/M03 A2996 RMK AO2 FZRANO $,PAKH,2018-03-24T07:37:00Z,56.93,-154.18,2.0,-3.0,,,,10.0,29.958662,,,TRUE,TRUE,TRUE,,,TRUE,,,SCT,2500,,,,,,,VFR,,,,,,,,,,,,SPECI,14.0
KHYS 240737Z AUTO 33019G25KT 8SM OVC008 08/06 A2980 RMK AO2,KHYS,2018-03-24T07:37:00Z,38.85,-99.27,8.0,6.0,330,19,25,8.0,29.799213,,,TRUE,TRUE,,,,,,,OVC,800,,,,,,,IFR,,,,,,,,,,,,METAR,609.0
KFME 240736Z AUTO 00000KT 10SM CLR M01/M06 A3021 RMK AO1,KFME,2018-03-24T07:36:00Z,39.08,-76.77,-1.0,-6.0,0,0,,10.0,30.209646,,,TRUE,TRUE,,,,,,,CLR,,,,,,,,VFR,,,,,,,,,,,,METAR,46.0
KJES 240736Z AUTO 00000KT 10SM OVC110 10/05 A3019 RMK AO2,KJES,2018-03-24T07:36:00Z,31.55,-81.88,10.0,5.0,0,0,,10.0,30.188976,,,TRUE,TRUE,,,,,,,OVC,11000,,,,,,,VFR,,,,,,,,,,,,METAR,33.0
SAVC 240736Z 23014KT 9999 TS SCT035CB BKN080 11/02 Q1018,SAVC,2018-03-24T07:36:00Z,-45.77,-67.47,11.0,2.0,230,14,,6.21,30.059055,,,,,,,,,,TS,SCT,3500,BKN,8000,,,,,VFR,,,,,,,,,,,,METAR,46.0
KTTF 240736Z AUTO 00000KT 10SM CLR M05/M06 A3032 RMK AO2 T10471063,KTTF,2018-03-24T07:36:00Z,41.93,-83.42,-4.7,-6.3,0,0,,10.0,30.318897,,,TRUE,TRUE,,,,,,,CLR,,,,,,,,VFR,,,,,,,,,,,,METAR,188.0
KTEW 240736Z AUTO 00000KT 10SM CLR M04/M10 A3032 RMK AO2 T10361096,KTEW,2018-03-24T07:36:00Z,42.57,-84.42,-3.6,-9.6,0,0,,10.0,30.318897,,,TRUE,TRUE,,,,,,,CLR,,,,,,,,VFR,,,,,,,,,,,,METAR,280.0
K5R8 240736Z AUTO 17003KT 10SM CLR 17/16 A3001 RMK AO2,K5R8,2018-03-24T07:36:00Z,30.43,-93.47,17.0,16.0,170,3,,10.0,30.008858,,,TRUE,TRUE,,,,,,,CLR,,,,,,,,VFR,,,,,,,,,,,,METAR,24.0
K14Y 240736Z AUTO 04012G16KT 10SM CLR M02/M08 A3017 RMK AO2,K14Y,2018-03-24T07:36:00Z,45.9,-94.87,-2.0,-8.0,40,12,16,10.0,30.171259,,,TRUE,TRUE,,,,,,,CLR,,,,,,,,VFR,,,,,,,,,,,,METAR,406.0
CWWU 240736Z 24007KT 15SM SCT007 SCT011 OVC022 00/00 A2972 RMK ST3SC1SC4 SLP063,CWWU,2018-03-24T07:36:00Z,47.52,-52.98,0.0,0.0,240,7,,15.0,29.719488,1006.3,,,,,,,,,,SCT,700,SCT,1100,OVC,2200,,,MVFR,,,,,,,,,,,,SPECI,13.0
KGDB 240736Z AUTO 07015G21KT 3/4SM SN OVC003 00/00 A3009 RMK AO2 P0003 T00001005,KGDB,2018-03-24T07:36:00Z,44.75,-95.55,0.0,-0.5,70,15,21,0.75,30.088583,,,TRUE,TRUE,,,,,,SN,OVC,300,,,,,,,LIFR,,,,,,0.03,,,,,,SPECI,319.0
KCFS 240736Z AUTO 00000KT 10SM CLR M08/M10 A3032 RMK AO2 T10851097,KCFS,2018-03-24T07:36:00Z,43.47,-83.45,-8.5,-9.7,0,0,,10.0,30.318897,,,TRUE,TRUE,,,,,,,CLR,,,,,,,,VFR,,,,,,,,,,,,METAR,214.0
CYUX 240736Z AUTO 36005KT 6SM -SN OVC075 M26/M30 A3008 RMK SLP188,CYUX,2018-03-24T07:36:00Z,68.77,-81.25,-26.0,-30.0,360,5,,6.0,30.079725,1018.8,,TRUE,,,,,,,-SN,OVC,7500,,,,,,,VFR,,,,,,,,,,,,SPECI,8.0
CYXR 240736Z AUTO 34012KT 9SM BKN018 M15/M18 A3046 RMK ICG SLP338,CYXR,2018-03-24T07:36:00Z,47.7,-79.83,-15.0,-18.0,340,12,,9.0,30.46063,1033.8,,TRUE,,,,,,,,BKN,1800,,,,,,,MVFR,,,,,,,,,,,,SPECI,243.0
KBDU 240736Z AUTO 36003KT 10SM CLR 05/02 A3006 RMK AO2,KBDU,2018-03-24T07:36:00Z,40.03,-105.23,5.0,2.0,360,3,,10.0,30.059055,,,TRUE,TRUE,,,,,,,CLR,,,,,,,,VFR,,,,,,,,,,,,SPECI,1612.0
K4BM 240736Z AUTO 23005KT 10SM SCT100 M05/M08 A3017 RMK AO2 LTG DSNT NW,K4BM,2018-03-24T07:36:00Z,39.05,-105.52,-5.0,-8.0,230,5,,10.0,30.171259,,,TRUE,TRUE,,,,,,,SCT,10000,,,,,,,VFR,,,,,,,,,,,,SPECI,3438.0
KMYP 240736Z AUTO 26026KT OVC001 M06/M07 A3027 RMK AO2 PWINO,KMYP,2018-03-24T07:36:00Z,38.48,-106.32,-6.0,-7.0,260,26,,,30.268702,,,TRUE,TRUE,,,,,TRUE,,OVC,100,,,,,,,,,,,,,,,,,,,SPECI,3667.0
KFTG 240736Z AUTO 00000KT 10SM BKN011 06/03 A3004 RMK AO2 T00560029,KFTG,2018-03-24T07:36:00Z,39.78,-104.55,5.6,2.9,0,0,,10.0,30.041338,,,TRUE,TRUE,,,,,,,BKN,1100,,,,,,,MVFR,,,,,,,,,,,,SPECI,1675.0
KFYG 240735Z AUTO 13008KT 7SM OVC010 07/07 A2989 RMK AO2,KFYG,2018-03-24T07:35:00Z,38.58,-91.0,7.0,7.0,130,8,,7.0,29.890747,,,TRUE,TRUE,,,,,,,OVC,1000,,,,,,,MVFR,,,,,,,,,,,,METAR,149.0
KEDJ 240735Z AUTO 00000KT 10SM CLR M03/M08 A3027 RMK AO1,KEDJ,2018-03-24T07:35:00Z,40.37,-83.82,-3.0,-8.0,0,0,,10.0,30.268702,,,TRUE,TRUE,,,,,,,CLR,,,,,,,,VFR,,,,,,,,,,,,METAR,342.0
KTVK 240735Z AUTO 08021G33KT 10SM -RA 03/03 A2987 RMK AO2 P0001,KTVK,2018-03-24T07:35:00Z,40.68,-92.9,3.0,3.0,80,21,33,10.0,29.870079,,,TRUE,TRUE,,,,,,-RA,,,,,,,,,,,,,,,0.01,,,,,,METAR,314.0
KHAE 240735Z AUTO 10013G19KT 5SM UP OVC005 05/04 A2991 RMK AO2 P0001 LTG DSNT NW,KHAE,2018-03-24T07:35:00Z,39.73,-91.45,5.0,4.0,100,13,19,5.0,29.911417,,,TRUE,TRUE,,,,,,UP,OVC,500,,,,,,,IFR,,,,,,0.01,,,,,,METAR,234.0
KS39 240735Z AUTO 24006KT 10SM SCT004 BKN070 OVC085 00/M01 A2970 RMK AO2,KS39,2018-03-24T07:35:00Z,44.28,-120.9,0.0,-1.0,240,6,,10.0,29.698818,,,TRUE,TRUE,,,,,,,SCT,400,BKN,7000,OVC,8500,,,VFR,,,,,,,,,,,,METAR,991.0
KPTD 240735Z AUTO 30004KT 10SM SCT036 BKN042 OVC065 M03/M09 A3015 RMK AO2,KPTD,2018-03-24T07:35:00Z,44.68,-74.95,-3.0,-9.0,300,4,,10.0,30.15059,,,TRUE,TRUE,,,,,,,SCT,3600,BKN,4200,OVC,6500,,,VFR,,,,,,,,,,,,METAR,144.0
KMNV 240735Z AUTO 05003KT 10SM OVC070 07/02 A3014 RMK A01,KMNV,2018-03-24T07:35:00Z,35.55,-84.38,7.0,2.0,50,3,,10.0,30.138779,,,TRUE,TRUE,,,,,,,OVC,7000,,,,,,,VFR,,,,,,,,,,,,METAR,314.0
KMCC 240735Z AUTO 13007KT 10SM FEW038 BKN080 OVC110 09/05 A3013 RMK AO2,KMCC,2018-03-24T07:35:00Z,38.67,-121.4,9.0,5.0,130,7,,10.0,30.129921,,,TRUE,TRUE,,,,,,,FEW,3800,BKN,8000,OVC,11000,,,VFR,,,,,,,,,,,,METAR,23.0
KF45 240735Z AUTO 31003KT 10SM FEW029 10/08 A3019 RMK AO2,KF45,2018-03-24T07:35:00Z,,,10.0,8.0,310,3,,10.0,30.188976,,,TRUE,TRUE,,,,,,,FEW,2900,,,,,,,VFR,,,,,,,,,,,,METAR,
KXPY 240735Z AUTO 18008G13KT 10SM OVC032 21/17 A3010 RMK A01,KXPY,2018-03-24T07:35:00Z,29.12,-90.2,21.0,17.0,180,8,13,10.0,30.100393,,,TRUE,TRUE,,,,,,,OVC,3200,,,,,,,VFR,,,,,,,,,,,,SPECI,2.0
KXIH 240735Z AUTO 7SM CLR 21/19 A2998 RMK A01,KXIH,2018-03-24T07:35:00Z,29.18,-94.52,21.0,19.0,,,,7.0,29.97933,,,TRUE,TRUE,,,,,,,CLR,,,,,,,,VFR,,,,,,,,,,,,SPECI,75.0
KVQT 240735Z AUTO VRB05G12KT 7SM OVC023 A3008 RMK A01,KVQT,2018-03-24T07:35:00Z,28.27,-92.27,,,0,5,12,7.0,30.079725,,,TRUE,TRUE,,,,,,,OVC,2300,,,,,,,MVFR,,,,,,,,,,,,METAR,25.0
KVOA 240735Z AUTO 16017KT 9SM OVC025 20/14 A3014 RMK A01,KVOA,2018-03-24T07:35:00Z,29.23,-87.78,20.0,14.0,160,17,,9.0,30.138779,,,TRUE,TRUE,,,,,,,OVC,2500,,,,,,,MVFR,,,,,,,,,,,,SPECI,53.0
KVKY 240735Z AUTO 19010G16KT 10SM SCT023 SCT029 20/14 A3015 RMK A01,KVKY,2018-03-24T07:35:00Z,29.25,-88.43,20.0,14.0,190,10,16,10.0,30.15059,,,TRUE,TRUE,,,,,,,SCT,2300,SCT,2900,,,,,VFR,,,,,,,,,,,,SPECI,32.0
KVAF 240735Z AUTO 20029KT 6SM HZ SCT020 22/18 A3001 RMK A01,KVAF,2018-03-24T07:35:00Z,27.35,-94.63,22.0,18.0,200,29,,6.0,30.008858,,,TRUE,TRUE,,,,,,HZ,SCT,2000,,,,,,,VFR,,,,,,,,,,,,METAR,46.0
KSPR 240735Z AUTO 18021KT 9SM BKN031 22/17 A3007 RMK A01,KSPR,2018-03-24T07:35:00Z,28.6,-91.2,22.0,17.0,180,21,,9.0,30.070866,,,TRUE,TRUE,,,,,,,BKN,3100,,,,,,,VFR,,,,,,,,,,,,SPECI,31.0
KSCF 240735Z AUTO VRB03G11KT 9SM 21/17 A3008 RMK A01,KSCF,2018-03-24T07:35:00Z,29.12,-91.87,21.0,17.0,0,3,11,9.0,30.079725,,,TRUE,TRUE,,,,,,,,,,,,,,,,,,,,,,,,,,,SPECI,8.0
KMZG 240735Z AUTO 25015G22KT 10SM 22/20 A2995 RMK A01,KMZG,2018-03-24T07:35:00Z,27.73,-96.18,22.0,20.0,250,15,22,10.0,29.949802,,,TRUE,TRUE,,,,,,,,,,,,,,,,,,,,,,,,,,,METAR,29.0
KMIS 240735Z AUTO 19014G19KT 10SM BKN029 21/16 A3013 RMK A01,KMIS,2018-03-24T07:35:00Z,29.3,-88.85,21.0,16.0,190,14,19,10.0,30.129921,,,TRUE,TRUE,,,,,,,BKN,2900,,,,,,,MVFR,,,,,,,,,,,,SPECI,32.0
KMDJ 240735Z AUTO 18020G25KT CLR 22/16 A3011 RMK A01,KMDJ,2018-03-24T07:35:00Z,28.65,-89.8,22.0,16.0,180,20,25,,30.109253,,,TRUE,TRUE,,,,,,,CLR,,,,,,,,,,,,,,,,,,,,SPECI,31.0
KHQI 240735Z AUTO 15017G28KT 9SM FEW022 A3003 RMK A01,KHQI,2018-03-24T07:35:00Z,27.93,-93.67,,,150,17,28,9.0,30.029528,,,TRUE,TRUE,,,,,,,FEW,2200,,,,,,,VFR,,,,,,,,,,,,METAR,26.0
KGUL 240735Z AUTO 20024KT 10SM SCT022 22/17 A3006 RMK A01,KGUL,2018-03-24T07:35:00Z,27.3,-93.53,22.0,17.0,200,24,,10.0,30.059055,,,TRUE,TRUE,,,,,,,SCT,2200,,,,,,,VFR,,,,,,,,,,,,METAR,30.0
KGHB 240735Z AUTO 16018G26KT 10SM OVC025 22/17 A3009 RMK A01,KGHB,2018-03-24T07:35:00Z,27.83,-91.98,22.0,17.0,160,18,26,10.0,30.088583,,,TRUE,TRUE,,,,,,,OVC,2500,,,,,,,MVFR,,,,,,,,,,,,SPECI,30.0
KGBK 240735Z AUTO 14019G24KT 10SM SCT026 22/16 A3009 RMK A01,KGBK,2018-03-24T07:35:00Z,27.2,-92.2,22.0,16.0,140,19,24,10.0,30.088583,,,TRUE,TRUE,,,,,,,SCT,2600,,,,,,,VFR,,,,,,,,,,,,SPECI,59.0
KEMK 240735Z AUTO 15031KT 5SM HZ SCT020 SCT024 22/18 A3002 RMK A01,KEMK,2018-03-24T07:35:00Z,27.82,-94.32,22.0,18.0,150,31,,5.0,30.02067,,,TRUE,TRUE,,,,,,HZ,SCT,2000,SCT,2400,,,,,MVFR,,,,,,,,,,,,METAR,26.0
KEIR 240735Z AUTO 22022KT 9SM 22/17 A3008 RMK A01,KEIR,2018-03-24T07:35:00Z,28.63,-91.48,22.0,17.0,220,22,,9.0,30.079725,,,TRUE,TRUE,,,,,,,,,,,,,,,,,,,,,,,,,,,SPECI,28.0
KEHC 240735Z AUTO 18021KT 10SM OVC025 A3005 RMK A01,KEHC,2018-03-24T07:35:00Z,28.43,-92.88,,,180,21,,10.0,30.050198,,,TRUE,TRUE,,,,,,,OVC,2500,,,,,,,MVFR,,,,,,,,,,,,SPECI,31.0
KDSF 240735Z AUTO 13014KT 9SM CLR 21/14 A3014 RMK A01,KDSF,2018-03-24T07:35:00Z,,,21.0,14.0,130,14,,9.0,30.138779,,,TRUE,TRUE,,,,,,,CLR,,,,,,,,VFR,,,,,,,,,,,,METAR,
KDLP 240735Z AUTO 15010KT 10SM CLR 21/17 A3010 RMK A01,KDLP,2018-03-24T07:35:00Z,29.12,-89.55,21.0,17.0,150,10,,10.0,30.100393,,,TRUE,TRUE,,,,,,,CLR,,,,,,,,VFR,,,,,,,,,,,,SPECI,36.0
KCVW 240735Z AUTO 18011G16KT 9SM FEW021 20/19 A3001 RMK A01,KCVW,2018-03-24T07:35:00Z,29.78,-93.3,20.0,19.0,180,11,16,9.0,30.008858,,,TRUE,TRUE,,,,,,,FEW,2100,,,,,,,VFR,,,,,,,,,,,,SPECI,1.0
KBQX 240735Z AUTO 18022KT 5SM HZ CLR 22/19 A2998 RMK A01,KBQX,2018-03-24T07:35:00Z,28.5,-95.72,22.0,19.0,180,22,,5.0,29.97933,,,TRUE,TRUE,,,,,,HZ,CLR,,,,,,,,MVFR,,,,,,,,,,,,METAR,34.0
KBBF 240735Z AUTO 19029KT 4SM HZ BKN021 22/19 A2995 RMK A01,KBBF,2018-03-24T07:35:00Z,27.83,-96.02,22.0,19.0,190,29,,4.0,29.949802,,,TRUE,TRUE,,,,,,HZ,BKN,2100,,,,,,,MVFR,,,,,,,,,,,,METAR,36.0
KATP 240735Z AUTO 17015G24KT 140V210 10SM BKN028 22/16 A3012 RMK A01,KATP,2018-03-24T07:35:00Z,27.2,-90.03,22.0,16.0,170,15,24,10.0,30.121063,,,TRUE,TRUE,,,,,,,BKN,2800,,,,,,,MVFR,,,,,,,,,,,,SPECI,62.0
K18H 240735Z AUTO 16023KT 10SM BKN028 22/16 A3008 RMK A01,K18H,2018-03-24T07:35:00Z,,,22.0,16.0,160,23,,10.0,30.079725,,,TRUE,TRUE,,,,,,,BKN,2800,,,,,,,MVFR,,,,,,,,,,,,METAR,
KGLW 240735Z AUTO 08005KT 10SM -RA BKN038 OVC065 A3014 RMK AO2 P0002,KGLW,2018-03-24T07:35:00Z,37.03,-85.95,,,80,5,,10.0,30.138779,,,TRUE,TRUE,,,,,,-RA,BKN,3800,OVC,6500,,,,,VFR,,,,,,0.02,,,,,,SPECI,218.0
KW29 240735Z AUTO 35012G17KT 10SM CLR 03/M05 A3018 RMK AO2,KW29,2018-03-24T07:35:00Z,38.98,-76.33,3.0,-5.0,350,12,17,10.0,30.180119,,,TRUE,TRUE,,,,,,,CLR,,,,,,,,VFR,,,,,,,,,,,,METAR,15.0
KSUT 240735Z AUTO 00000KT 10SM CLR 04/M02 A3019 RMK AO2 T00421024,KSUT,2018-03-24T07:35:00Z,33.93,-78.08,4.2,-2.4,0,0,,10.0,30.188976,,,TRUE,TRUE,,,,,,,CLR,,,,,,,,VFR,,,,,,,,,,,,METAR,8.0
KMRN 240735Z AUTO 00000KT 10SM BKN070 OVC080 06/M01 A3021 RMK AO2 T00581015,KMRN,2018-03-24T07:35:00Z,35.82,-81.62,5.8,-1.5,0,0,,10.0,30.209646,,,TRUE,TRUE,,,,,,,BKN,7000,OVC,8000,,,,,VFR,,,,,,,,,,,,METAR,387.0
KMQI 240735Z AUTO 02009KT 10SM CLR 05/M03 A3018 RMK AO2 T00471035,KMQI,2018-03-24T07:35:00Z,35.92,-75.7,4.7,-3.5,20,9,,10.0,30.180119,,,TRUE,TRUE,,,,,,,CLR,,,,,,,,VFR,,,,,,,,,,,,METAR,4.0
KHRJ 240735Z AUTO 00000KT 10SM CLR 00/M02 A3020 RMK AO2 T00001025,KHRJ,2018-03-24T07:35:00Z,35.38,-78.73,0.0,-2.5,0,0,,10.0,30.200787,,,TRUE,TRUE,,,,,,,CLR,,,,,,,,VFR,,,,,,,,,,,,METAR,60.0
KHNZ 240735Z AUTO 03004KT 10SM CLR 00/M06 A3021 RMK AO2 T10021065,KHNZ,2018-03-24T07:35:00Z,36.37,-78.53,-0.2,-6.5,30,4,,10.0,30.209646,,,TRUE,TRUE,,,,,,,CLR,,,,,,,,VFR,,,,,,,,,,,,METAR,161.0
KHBI 240735Z AUTO 00000KT 10SM OVC120 03/M03 A3021 RMK AO2 T00271027,KHBI,2018-03-24T07:35:00Z,35.65,-79.9,2.7,-2.7,0,0,,10.0,30.209646,,,TRUE,TRUE,,,,,,,OVC,12000,,,,,,,VFR,,,,,,,,,,,,METAR,205.0
KFFA 240735Z AUTO 00000KT 10SM CLR 05/M03 A3016 RMK AO2 T00461034,KFFA,2018-03-24T07:35:00Z,36.02,-75.67,4.6,-3.4,0,0,,10.0,30.159449,,,TRUE,TRUE,,,,,,,CLR,,,,,,,,VFR,,,,,,,,,,,,METAR,4.0
KFDK 240735Z AUTO 00000KT 10SM CLR M02/M06 A3022 RMK AO2 LTG DSNT E,KFDK,2018-03-24T07:35:00Z,39.42,-77.37,-2.0,-6.0,0,0,,10.0,30.221457,,,TRUE,TRUE,,,,,,,CLR,,,,,,,,VFR,,,,,,,,,,,,METAR,92.0
KEXX 240735Z AUTO 00000KT 10SM OVC110 03/M01 A3019 RMK AO2 T00271010,KEXX,2018-03-24T07:35:00Z,35.78,-80.3,2.7,-1.0,0,0,,10.0,30.188976,,,TRUE,TRUE,,,,,,,OVC,11000,,,,,,,VFR,,,,,,,,,,,,METAR,223.0
KDPL 240735Z AUTO 00000KT 10SM CLR M01/M03 A3020 RMK AO2,KDPL,2018-03-24T07:35:00Z,35.0,-77.97,-1.0,-3.0,0,0,,10.0,30.200787,,,TRUE,TRUE,,,,,,,CLR,,,,,,,,VFR,,,,,,,,,,,,METAR,42.0
KDMW 240735Z AUTO 35004KT 10SM CLR M01/M07 A3015 RMK AO2,KDMW,2018-03-24T07:35:00Z,39.6,-77.0,-1.0,-7.0,350,4,,10.0,30.15059,,,TRUE,TRUE,,,,,,,CLR,,,,,,,,VFR,,,,,,,,,,,,METAR,241.0
KCTZ 240735Z AUTO 00000KT 10SM CLR 02/00 A3020 RMK AO2 T00160002,KCTZ,2018-03-24T07:35:00Z,34.98,-78.37,1.6,0.2,0,0,,10.0,30.200787,,,TRUE,TRUE,,,,,,,CLR,,,,,,,,VFR,,,,,,,,,,,,METAR,45.0
KCPC 240735Z AUTO 00000KT 10SM SCT120 03/00 A3019 RMK AO2 T00260002,KCPC,2018-03-24T07:35:00Z,34.28,-78.72,2.6,0.2,0,0,,10.0,30.188976,,,TRUE,TRUE,,,,,,,SCT,12000,,,,,,,VFR,,,,,,,,,,,,METAR,29.0
KCGE 240735Z AUTO 33009KT 10SM CLR 03/M05 A3017 RMK A01,KCGE,2018-03-24T07:35:00Z,38.53,-76.03,3.0,-5.0,330,9,,10.0,30.171259,,,TRUE,TRUE,,,,,,,CLR,,,,,,,,VFR,,,,,,,,,,,,METAR,6.0
KAFP 240735Z AUTO 00000KT 10SM OVC100 03/01 A3020 RMK AO2 T00300007,KAFP,2018-03-24T07:35:00Z,35.02,-80.08,3.0,0.7,0,0,,10.0,30.200787,,,TRUE,TRUE,,,,,,,OVC,10000,,,,,,,VFR,,,,,,,,,,,,METAR,92.0
K7W6 240735Z AUTO 00000KT 10SM CLR 00/M01 A3017 RMK AO2 T10051007,K7W6,2018-03-24T07:35:00Z,35.55,-75.95,-0.5,-0.7,0,0,,10.0,30.171259,,,TRUE,TRUE,,,,,,,CLR,,,,,,,,VFR,,,,,,,,,,,,METAR,2.0
KOUN 240735Z AUTO 20015G19KT 10SM CLR 20/15 A2971 RMK AO2 T01990149,KOUN,2018-03-24T07:35:00Z,35.25,-97.47,19.9,14.9,200,15,19,10.0,29.71063,,,TRUE,TRUE,,,,,,,CLR,,,,,,,,VFR,,,,,,,,,,,,METAR,357.0
KMYZ 240735Z AUTO 01007KT 10SM BKN021 OVC029 08/06 A2970 RMK AO2,KMYZ,2018-03-24T07:35:00Z,39.85,-96.63,8.0,6.0,10,7,,10.0,29.698818,,,TRUE,TRUE,,,,,,,BKN,2100,OVC,2900,,,,,MVFR,,,,,,,,,,,,METAR,319.0
KMER 240735Z AUTO 00000KT 10SM CLR 07/06 A3013 RMK AO1,KMER,2018-03-24T07:35:00Z,37.38,-120.57,7.0,6.0,0,0,,10.0,30.129921,,,TRUE,TRUE,,,,,,,CLR,,,,,,,,VFR,,,,,,,,,,,,METAR,57.0
KLVN 240735Z AUTO 09013G16KT 10SM CLR 00/M06 A3016 RMK AO2,KLVN,2018-03-24T07:35:00Z,44.63,-93.23,0.0,-6.0,90,13,16,10.0,30.159449,,,TRUE,TRUE,,,,,,,CLR,,,,,,,,VFR,,,,,,,,,,,,METAR,293.0
KLRO 240735Z AUTO 00000KT 10SM OVC100 10/08 A3016 RMK AO2,KLRO,2018-03-24T07:35:00Z,32.9,-79.78,10.0,8.0,0,0,,10.0,30.159449,,,TRUE,TRUE,,,,,,,OVC,10000,,,,,,,VFR,,,,,,,,,,,,METAR,4.0
KLNP 240735Z AUTO 00000KT 10SM OVC065 03/M06 A3015 RMK AO2,KLNP,2018-03-24T07:35:00Z,36.97,-82.52,3.0,-6.0,0,0,,10.0,30.15059,,,TRUE,TRUE,,,,,,,OVC,6500,,,,,,,VFR,,,,,,,,,,,,METAR,817.0
KIYA 240735Z AUTO 17005KT 10SM CLR 17/17 A3005 RMK AO2 T01700170,KIYA,2018-03-24T07:35:00Z,29.98,-92.08,17.0,17.0,170,5,,10.0,30.050198,,,TRUE,TRUE,,,,,,,CLR,,,,,,,,VFR,,,,,,,,,,,,METAR,5.0
KIDP 240735Z AUTO 18011KT 10SM CLR 17/15 A2966 RMK AO2 T01660150,KIDP,2018-03-24T07:35:00Z,37.17,-95.78,16.6,15.0,180,11,,10.0,29.660433,,,TRUE,TRUE,,,,,,,CLR,,,,,,,,VFR,,,,,,,,,,,,METAR,251.0
KIBM 240735Z AUTO 28010KT 10SM CLR 01/01 A3001 RMK AO2 T00140010,KIBM,2018-03-24T07:35:00Z,41.18,-103.68,1.4,1.0,280,10,,10.0,30.008858,,,TRUE,TRUE,,,,,,,CLR,,,,,,,,VFR,,,,,,,,,,,,METAR,1501.0
KHVS 240735Z AUTO 07005KT 10SM OVC090 07/M04 A3019 RMK AO2,KHVS,2018-03-24T07:35:00Z,34.4,-80.12,7.0,-4.0,70,5,,10.0,30.188976,,,TRUE,TRUE,,,,,,,OVC,9000,,,,,,,VFR,,,,,,,,,,,,METAR,111.0
KHSP 240735Z AUTO 31005KT 10SM CLR M04/M09 A3008 RMK AO2 T10391093,KHSP,2018-03-24T07:35:00Z,37.95,-79.82,-3.9,-9.3,310,5,,10.0,30.079725,,,TRUE,TRUE,,,,,,,CLR,,,,,,,,VFR,,,,,,,,,,,,METAR,1156.0
KHBV 240735Z AUTO 18011G18KT 5SM RA OVC016 21/18 A2991 RMK AO2 T02110175,KHBV,2018-03-24T07:35:00Z,27.35,-98.73,21.1,17.5,180,11,18,5.0,29.911417,,,TRUE,TRUE,,,,,,RA,OVC,1600,,,,,,,MVFR,,,,,,,,,,,,METAR,202.0
KGVT 240735Z AUTO 21016G19KT 10SM SCT023 SCT028 20/15 A2987 RMK AO2,KGVT,2018-03-24T07:35:00Z,33.07,-96.07,20.0,15.0,210,16,19,10.0,29.870079,,,TRUE,TRUE,,,,,,,SCT,2300,SCT,2800,,,,,VFR,,,,,,,,,,,,METAR,163.0
KEHY 240735Z AUTO 27006KT 10SM CLR 00/M06 A3003 RMK AO2,KEHY,2018-03-24T07:35:00Z,41.73,-106.47,0.0,-6.0,270,6,,10.0,30.029528,,,TRUE,TRUE,,,,,,,CLR,,,,,,,,VFR,,,,,,,,,,,,METAR,2225.0
KDVK 240735Z AUTO 00000KT 10SM RA OVC040 05/02 A3019 RMK AO2,KDVK,2018-03-24T07:35:00Z,37.58,-84.77,5.0,2.0,0,0,,10.0,30.188976,,,TRUE,TRUE,,,,,,RA,OVC,4000,,,,,,,VFR,,,,,,,,,,,,METAR,312.0
KCVH 240735Z AUTO 16005KT 10SM CLR 07/05 A3016 RMK A01,KCVH,2018-03-24T07:35:00Z,36.9,-121.42,7.0,5.0,160,5,,10.0,30.159449,,,TRUE,TRUE,,,,,,,CLR,,,,,,,,VFR,,,,,,,,,,,,METAR,70.0
KCTJ 240735Z AUTO 00000KT 10SM OVC090 09/06 A3016 RMK AO2 T00850055,KCTJ,2018-03-24T07:35:00Z,33.63,-85.15,8.5,5.5,0,0,,10.0,30.159449,,,TRUE,TRUE,,,,,,,OVC,9000,,,,,,,VFR,,,,,,,,,,,,METAR,354.0
KCHK 240735Z AUTO 21011G17KT 10SM CLR 20/15 A2971 RMK AO2 T01990150,KCHK,2018-03-24T07:35:00Z,35.1,-97.97,19.9,15.0,210,11,17,10.0,29.71063,,,TRUE,TRUE,,,,,,,CLR,,,,,,,,VFR,,,,,,,,,,,,METAR,351.0
KCBK 240735Z AUTO 32012KT 10SM CLR 07/07 A2990 RMK AO2,KCBK,2018-03-24T07:35:00Z,39.43,-101.05,7.0,7.0,320,12,,10.0,29.899607,,,TRUE,TRUE,,,,,,,CLR,,,,,,,,VFR,,,,,,,,,,,,METAR,971.0
KBWP 240735Z AUTO 11013G21KT 10SM BKN042 OVC055 M01/M03 A3014 RMK AO1,KBWP,2018-03-24T07:35:00Z,46.25,-96.62,-1.0,-3.0,110,13,21,10.0,30.138779,,,TRUE,TRUE,,,,,,,BKN,4200,OVC,5500,,,,,VFR,,,,,,,,,,,,METAR,295.0
KBCB 240735Z AUTO 00000KT 10SM CLR M02/M07 A3020 RMK AO2 T10221068,KBCB,2018-03-24T07:35:00Z,37.22,-80.42,-2.2,-6.8,0,0,,10.0,30.200787,,,TRUE,TRUE,,,,,,,CLR,,,,,,,,VFR,,,,,,,,,,,,METAR,650.0
KACJ 240735Z AUTO 00000KT 10SM CLR 09/02 A3019 RMK AO2,KACJ,2018-03-24T07:35:00Z,32.12,-84.18,9.0,2.0,0,0,,10.0,30.188976,,,TRUE,TRUE,,,,,,,CLR,,,,,,,,VFR,,,,,,,,,,,,METAR,143.0
K28J 240735Z AUTO 00000KT 10SM FEW039 SCT049 OVC060 06/06 A3021 RMK AO2,K28J,2018-03-24T07:35:00Z,29.65,-81.58,6.0,6.0,0,0,,10.0,30.209646,,,TRUE,TRUE,,,,,,,FEW,3900,SCT,4900,OVC,6000,,,VFR,,,,,,,,,,,,METAR,15.0
K21D 240735Z AUTO 09012KT 10SM OVC095 01/M07 A3021 RMK AO2,K21D,2018-03-24T07:35:00Z,45.0,-92.85,1.0,-7.0,90,12,,10.0,30.209646,,,TRUE,TRUE,,,,,,,OVC,9500,,,,,,,VFR,,,,,,,,,,,,METAR,285.0
K1K1 240735Z AUTO 28009G17KT 10SM CLR 17/13 A2963 RMK AO2 T01650130,K1K1,2018-03-24T07:35:00Z,37.77,-97.12,16.5,13.0,280,9,17,10.0,29.630905,,,TRUE,TRUE,,,,,,,CLR,,,,,,,,VFR,,,,,,,,,,,,METAR,416.0
K1F0 240735Z AUTO 22010G19KT 10SM CLR 20/14 A2977 RMK AO2,K1F0,2018-03-24T07:35:00Z,34.15,-97.12,20.0,14.0,220,10,19,10.0,29.769686,,,TRUE,TRUE,,,,,,,CLR,,,,,,,,VFR,,,,,,,,,,,,METAR,257.0
KW99 240735Z AUTO 28004KT 10SM CLR M05/M07 A3022 RMK AO2 T10511071,KW99,2018-03-24T07:35:00Z,39.0,-79.15,-5.1,-7.1,280,4,,10.0,30.221457,,,TRUE,TRUE,,,,,,,CLR,,,,,,,,VFR,,,,,,,,,,,,METAR,293.0
KVBW 240735Z AUTO 10SM CLR M04/M06 A3018 RMK AO2 T10371058,KVBW,2018-03-24T07:35:00Z,38.37,-78.97,-3.7,-5.8,,,,10.0,30.180119,,,TRUE,TRUE,,,,,,,CLR,,,,,,,,VFR,,,,,,,,,,,,METAR,355.0
KTMT 240735Z AUTO 15005KT 10SM BKN048 BKN060 04/M05 A2989 RMK AO2 T00371053,KTMT,2018-03-24T07:35:00Z,39.47,-117.2,3.7,-5.3,150,5,,10.0,29.890747,,,TRUE,TRUE,,,,,,,BKN,4800,BKN,6000,,,,,VFR,,,,,,,,,,,,METAR,1748.0
KSHD 240735Z AUTO 00000KT 10SM CLR M04/M07 A3021 RMK AO2 T10431074,KSHD,2018-03-24T07:35:00Z,38.27,-78.9,-4.3,-7.4,0,0,,10.0,30.209646,,,TRUE,TRUE,,,,,,,CLR,,,,,,,,VFR,,,,,,,,,,,,METAR,366.0
KSEF 240735Z AUTO 00000KT 7SM CLR 12/07 A3020 RMK AO2 T01180072,KSEF,2018-03-24T07:35:00Z,27.45,-81.35,11.8,7.2,0,0,,7.0,30.200787,,,TRUE,TRUE,,,,,,,CLR,,,,,,,,VFR,,,,,,,,,,,,METAR,19.0
KRQO 240735Z AUTO 21014KT 10SM CLR 19/15 A2973 RMK AO2 T01850148,KRQO,2018-03-24T07:35:00Z,35.47,-98.0,18.5,14.8,210,14,,10.0,29.731298,,,TRUE,TRUE,,,,,,,CLR,,,,,,,,VFR,,,,,,,,,,,,METAR,432.0
KPSK 240735Z AUTO 31003KT 10SM CLR 00/M07 A3018 RMK AO2 T10021075,KPSK,2018-03-24T07:35:00Z,37.12,-80.67,-0.2,-7.5,310,3,,10.0,30.180119,,,TRUE,TRUE,,,,,,,CLR,,,,,,,,VFR,,,,,,,,,,,,METAR,642.0
KPRO 240735Z AUTO 10027G36KT 5SM -RA OVC010 01/01 A2987 RMK AO2 P0001 T00110005,KPRO,2018-03-24T07:35:00Z,41.83,-94.17,1.1,0.5,100,27,36,5.0,29.870079,,,TRUE,TRUE,,,,,,-RA,OVC,1000,,,,,,,MVFR,,,,,,0.01,,,,,,METAR,308.0
KW43 240735Z AUTO 15006KT 10SM CLR 00/M03 A2997 RMK AO2,KW43,2018-03-24T07:35:00Z,44.67,-104.57,0.0,-3.0,150,6,,10.0,29.970472,,,TRUE,TRUE,,,,,,,CLR,,,,,,,,VFR,,,,,,,,,,,,METAR,1300.0
KW13 240735Z AUTO 00000KT 10SM CLR M03/M07 A3018 RMK AO1 T10351070,KW13,2018-03-24T07:35:00Z,38.08,-78.95,-3.5,-7.0,0,0,,10.0,30.180119,,,TRUE,TRUE,,,,,,,CLR,,,,,,,,VFR,,,,,,,,,,,,METAR,443.0
KSME 240735Z AUTO 00000KT 10SM -RA OVC050 04/01 A3018 RMK AO2,KSME,2018-03-24T07:35:00Z,37.05,-84.62,4.0,1.0,0,0,,10.0,30.180119,,,TRUE,TRUE,,,,,,-RA,OVC,5000,,,,,,,VFR,,,,,,,,,,,,METAR,283.0
KSBO 240735Z AUTO 00000KT 10SM OVC100 12/07 A3018 RMK AO2,KSBO,2018-03-24T07:35:00Z,32.62,-82.37,12.0,7.0,0,0,,10.0,30.180119,,,TRUE,TRUE,,,,,,,OVC,10000,,,,,,,VFR,,,,,,,,,,,,METAR,100.0
KRBO 240735Z AUTO 17017G25KT 10SM OVC020 22/19 A2992 RMK AO2 T02160190,KRBO,2018-03-24T07:35:00Z,27.78,-97.68,21.6,19.0,170,17,25,10.0,29.920275,,,TRUE,TRUE,,,,,,,OVC,2000,,,,,,,MVFR,,,,,,,,,,,,METAR,24.0
KNOW 240735Z AUTO 28006KT 10SM SCT046 SCT050 05/02 A2977 RMK AO2 T00500016,KNOW,2018-03-24T07:35:00Z,48.13,-123.4,5.0,1.6,280,6,,10.0,29.769686,,,TRUE,TRUE,,,,,,,SCT,4600,SCT,5000,,,,,VFR,,,,,,,,,,,,METAR,4.0
KMGR 240735Z AUTO 00000KT 10SM CLR 10/06 A3020 RMK AO2,KMGR,2018-03-24T07:35:00Z,31.08,-83.8,10.0,6.0,0,0,,10.0,30.200787,,,TRUE,TRUE,,,,,,,CLR,,,,,,,,VFR,,,,,,,,,,,,METAR,90.0
KLCK 240735Z AUTO 02004KT 10SM CLR M02/M07 A3028 RMK AO2 T10161068,KLCK,2018-03-24T07:35:00Z,39.82,-82.92,-1.6,-6.8,20,4,,10.0,30.280512,,,TRUE,TRUE,,,,,,,CLR,,,,,,,,VFR,,,,,,,,,,,,METAR,227.0
KHQG 240735Z AUTO 32010KT 10SM CLR 10/04 A2991 RMK AO2 T00970044,KHQG,2018-03-24T07:35:00Z,37.17,-101.37,9.7,4.4,320,10,,10.0,29.911417,,,TRUE,TRUE,,,,,,,CLR,,,,,,,,VFR,,,,,,,,,,,,METAR,956.0
KHQG 240735Z AUTO 32010KT 10SM CLR 10/04 A2991 RMK AO2 T00970044,KHQG,2018-03-24T07:35:00Z,37.17,-101.37,9.7,4.4,320,10,,10.0,29.911417,,,TRUE,TRUE,,,,,,,CLR,,,,,,,,VFR,,,,,,,,,,,,METAR,956.0
KEMV 240735Z AUTO 34004KT 10SM CLR 01/M06 A3023 RMK AO2,KEMV,2018-03-24T07:35:00Z,36.68,-77.48,1.0,-6.0,340,4,,10.0,30.230314,,,TRUE,TRUE,,,,,,,CLR,,,,,,,,VFR,,,,,,,,,,,,METAR,39.0
KDWX 240735Z AUTO 06005KT 10SM CLR M02/M03 A3010 RMK AO2 T10171029,KDWX,2018-03-24T07:35:00Z,41.03,-107.5,-1.7,-2.9,60,5,,10.0,30.100393,,,TRUE,TRUE,,,,,,,CLR,,,,,,,,VFR,,,,,,,,,,,,METAR,1996.0
KDTA 240735Z AUTO 17009KT 10SM CLR 05/M01 A2994 RMK AO1,KDTA,2018-03-24T07:35:00Z,39.38,-112.5,5.0,-1.0,170,9,,10.0,29.940945,,,TRUE,TRUE,,,,,,,CLR,,,,,,,,VFR,,,,,,,,,,,,METAR,1402.0
KCPK 240735Z AUTO 34004KT 10SM CLR 03/M07 A3020 RMK AO2 T00321074,KCPK,2018-03-24T07:35:00Z,36.67,-76.32,3.2,-7.4,340,4,,10.0,30.200787,,,TRUE,TRUE,,,,,,,CLR,,,,,,,,VFR,,,,,,,,,,,,METAR,6.0
K3N8 240735Z AUTO 11010KT 10SM OVC029 M02/M08 A3020 RMK AO2 T10211077,K3N8,2018-03-24T07:35:00Z,47.25,-95.88,-2.1,-7.7,110,10,,10.0,30.200787,,,TRUE,TRUE,,,,,,,OVC,2900,,,,,,,MVFR,,,,,,,,,,,,METAR,383.0
K17J 240735Z AUTO 00000KT 10SM CLR 10/08 A3019 RMK AO2 T00980078,K17J,2018-03-24T07:35:00Z,31.07,-84.92,9.8,7.8,0,0,,10.0,30.188976,,,TRUE,TRUE,,,,,,,CLR,,,,,,,,VFR,,,,,,,,,,,,METAR,45.0
K0V4 240735Z AUTO 10SM CLR M02/M06 A3020 RMK AO1 T10221056,K0V4,2018-03-24T07:35:00Z,37.15,-79.02,-2.2,-5.6,,,,10.0,30.200787,,,TRUE,TRUE,,,,,,,CLR,,,,,,,,VFR,,,,,,,,,,,,METAR,182.0
KY31 240735Z AUTO 02003KT 10SM CLR M04/M10 A3034 RMK AO2 T10401105,KY31,2018-03-24T07:35:00Z,44.25,-84.18,-4.0,-10.5,20,3,,10.0,30.339567,,,TRUE,TRUE,,,,,,,CLR,,,,,,,,VFR,,,,,,,,,,,,METAR,269.0
KVWU 240735Z AUTO 11010G17KT 10SM CLR M03/M12 A3029 RMK AO2,KVWU,2018-03-24T07:35:00Z,48.15,-94.52,-3.0,-12.0,110,10,17,10.0,30.28937,,,TRUE,TRUE,,,,,,,CLR,,,,,,,,VFR,,,,,,,,,,,,METAR,360.0
KOWX 240735Z AUTO 08004KT 10SM CLR M05/M07 A3031 RMK AO1,KOWX,2018-03-24T07:35:00Z,41.03,-83.98,-5.0,-7.0,80,4,,10.0,30.31004,,,TRUE,TRUE,,,,,,,CLR,,,,,,,,VFR,,,,,,,,,,,,METAR,233.0
KMCD 240735Z AUTO 06013KT 10SM CLR M04/M13 A3042 RMK AO2 T10401127,KMCD,2018-03-24T07:35:00Z,45.85,-84.63,-4.0,-12.7,60,13,,10.0,30.41929,,,TRUE,TRUE,,,,,,,CLR,,,,,,,,VFR,,,,,,,,,,,,METAR,226.0
KIKW 240735Z AUTO 00000KT 10SM CLR M07/M08 A3036 RMK AO2 T10681080,KIKW,2018-03-24T07:35:00Z,43.67,-84.27,-6.8,-8.0,0,0,,10.0,30.360237,,,TRUE,TRUE,,,,,,,CLR,,,,,,,,VFR,,,,,,,,,,,,METAR,194.0
KI23 240735Z AUTO 05006KT 10SM CLR M04/M06 A3026 RMK AO1,KI23,2018-03-24T07:35:00Z,39.57,-83.42,-4.0,-6.0,50,6,,10.0,30.259842,,,TRUE,TRUE,,,,,,,CLR,,,,,,,,VFR,,,,,,,,,,,,METAR,299.0
KI19 240735Z AUTO 08004KT 10SM CLR M01/M06 A3026 RMK AO2 T10061060,KI19,2018-03-24T07:35:00Z,39.7,-83.98,-0.6,-6.0,80,4,,10.0,30.259842,,,TRUE,TRUE,,,,,,,CLR,,,,,,,,VFR,,,,,,,,,,,,METAR,289.0
KCQM 240735Z AUTO 09004KT 10SM M07/M12 A3035 RMK AO2,KCQM,2018-03-24T07:35:00Z,47.82,-92.68,-7.0,-12.0,90,4,,10.0,30.351377,,,TRUE,TRUE,,,,,,,,,,,,,,,,,,,,,,,,,,,METAR,404.0
KCDI 240735Z AUTO 20003KT 10SM CLR M07/M08 A3027 RMK AO2 T10681076,KCDI,2018-03-24T07:35:00Z,39.97,-81.58,-6.8,-7.6,200,3,,10.0,30.268702,,,TRUE,TRUE,,,,,,,CLR,,,,,,,,VFR,,,,,,,,,,,,METAR,244.0
KBDH 240735Z AUTO 08012G16KT 10SM CLR 02/M07 A3012 RMK AO2,KBDH,2018-03-24T07:35:00Z,45.12,-95.13,2.0,-7.0,80,12,16,10.0,30.121063,,,TRUE,TRUE,,,,,,,CLR,,,,,,,,VFR,,,,,,,,,,,,METAR,247.0
KOPL 240735Z AUTO 14009KT 10SM CLR 16/16 A3003 RMK AO2 T01640155,KOPL,2018-03-24T07:35:00Z,30.55,-92.1,16.4,15.5,140,9,,10.0,30.029528,,,TRUE,TRUE,,,,,,,CLR,,,,,,,,VFR,,,,,,,,,,,,METAR,23.0
KO54 240735Z AUTO 20006KT 10SM FEW020 FEW031 SCT040 02/00 A2998 RMK AO1,KO54,2018-03-24T07:35:00Z,40.75,-122.92,2.0,0.0,200,6,,10.0,29.97933,,,TRUE,TRUE,,,,,,,FEW,2000,FEW,3100,SCT,4000,,,VFR,,,,,,,,,,,,METAR,717.0
KNY0 240735Z AUTO 31006KT 10SM OVC075 M02/M06 A3006 RMK AO2,KNY0,2018-03-24T07:35:00Z,42.98,-74.33,-2.0,-6.0,310,6,,10.0,30.059055,,,TRUE,TRUE,,,,,,,OVC,7500,,,,,,,VFR,,,,,,,,,,,,METAR,271.0
KMTV 240735Z AUTO 00000KT 10SM CLR M04/M06 A3022 RMK AO2 T10421061,KMTV,2018-03-24T07:35:00Z,36.63,-80.02,-4.2,-6.1,0,0,,10.0,30.221457,,,TRUE,TRUE,,,,,,,CLR,,,,,,,,VFR,,,,,,,,,,,,METAR,287.0
KMRT 240735Z AUTO 00000KT 10SM CLR M04/M07 A3027 RMK AO2 T10451068,KMRT,2018-03-24T07:35:00Z,40.22,-83.35,-4.5,-6.8,0,0,,10.0,30.268702,,,TRUE,TRUE,,,,,,,CLR,,,,,,,,VFR,,,,,,,,,,,,METAR,312.0
KMQJ 240735Z AUTO 09006KT 10SM OVC100 01/M02 A3022 RMK AO1,KMQJ,2018-03-24T07:35:00Z,39.85,-85.9,1.0,-2.0,90,6,,10.0,30.221457,,,TRUE,TRUE,,,,,,,OVC,10000,,,,,,,VFR,,,,,,,,,,,,METAR,263.0
KMOX 240735Z AUTO 10014KT 10SM SCT039 BKN060 OVC095 00/M05 A3011 RMK AO2,KMOX,2018-03-24T07:35:00Z,45.57,-95.97,0.0,-5.0,100,14,,10.0,30.109253,,,TRUE,TRUE,,,,,,,SCT,3900,BKN,6000,OVC,9500,,,VFR,,,,,,,,,,,,METAR,344.0
KMMU 240735Z AUTO 34004KT 10SM CLR 01/M06 A3010 RMK AO2,KMMU,2018-03-24T07:35:00Z,40.78,-74.42,1.0,-6.0,340,4,,10.0,30.100393,,,TRUE,TRUE,,,,,,,CLR,,,,,,,,VFR,,,,,,,,,,,,METAR,57.0
KMKJ 240735Z AUTO 00000KT 10SM OVC100 M01/M06 A3018 RMK AO2 T10121056,KMKJ,2018-03-24T07:35:00Z,36.88,-81.33,-1.2,-5.6,0,0,,10.0,30.180119,,,TRUE,TRUE,,,,,,,OVC,10000,,,,,,,VFR,,,,,,,,,,,,METAR,780.0
KMGG 240735Z AUTO 07012KT 10SM OVC090 01/M06 A3018 RMK AO2 T00051056,KMGG,2018-03-24T07:35:00Z,45.23,-93.98,0.5,-5.6,70,12,,10.0,30.180119,,,TRUE,TRUE,,,,,,,OVC,9000,,,,,,,VFR,,,,,,,,,,,,METAR,313.0
KMDS 240735Z AUTO 09015KT 1 1/4SM -SN OVC003 00/00 A2998 RMK AO2 P0027,KMDS,2018-03-24T07:35:00Z,44.02,-97.08,0.0,0.0,90,15,,1.25,29.97933,,,TRUE,TRUE,,,,,,-SN,OVC,300,,,,,,,LIFR,,,,,,0.27,,,,,,METAR,524.0
KMDQ 240735Z AUTO 15007KT 10SM OVC085 12/04 A3008 RMK AO2 PWINO T01250036,KMDQ,2018-03-24T07:35:00Z,34.87,-86.55,12.5,3.6,150,7,,10.0,30.079725,,,TRUE,TRUE,,,,,TRUE,,OVC,8500,,,,,,,VFR,,,,,,,,,,,,METAR,230.0
KMDD 240735Z AUTO 24005KT 10SM 19/14 A2994 RMK AO2 T01870137,KMDD,2018-03-24T07:35:00Z,32.03,-102.1,18.7,13.7,240,5,,10.0,29.940945,,,TRUE,TRUE,,,,,,,,,,,,,,,,,,,,,,,,,,,METAR,854.0
KM30 240735Z AUTO 10008G15KT 10SM OVC060 08/06 A2998 RMK AO2 T00800060,KM30,2018-03-24T07:35:00Z,37.18,-88.75,8.0,6.0,100,8,15,10.0,29.97933,,,TRUE,TRUE,,,,,,,OVC,6000,,,,,,,VFR,,,,,,,,,,,,METAR,117.0
KLYV 240735Z AUTO 09011G14KT 2 1/2SM DZ SCT007 OVC013 00/00 A2999 RMK AO2 P0001,KLYV,2018-03-24T07:35:00Z,43.62,-96.22,0.0,0.0,90,11,14,2.5,29.991142,,,TRUE,TRUE,,,,,,DZ,SCT,700,OVC,1300,,,,,IFR,,,,,,0.01,,,,,,METAR,436.0
KLWB 240735Z AUTO 00000KT 10SM CLR M02/M08 A3017 RMK AO2 T10171078,KLWB,2018-03-24T07:35:00Z,37.87,-80.4,-1.7,-7.8,0,0,,10.0,30.171259,,,TRUE,TRUE,,,,,,,CLR,,,,,,,,VFR,,,,,,,,,,,,METAR,702.0
KLVL 240735Z AUTO 00000KT 10SM CLR 02/M07 A3020 RMK AO1 T00151074,KLVL,2018-03-24T07:35:00Z,36.78,-77.8,1.5,-7.4,0,0,,10.0,30.200787,,,TRUE,TRUE,,,,,,,CLR,,,,,,,,VFR,,,,,,,,,,,,METAR,100.0
KLNC 240735Z AUTO 20010G22KT 10SM OVC020 19/15 A2989 RMK AO2 T01870154,KLNC,2018-03-24T07:35:00Z,32.58,-96.72,18.7,15.4,200,10,22,10.0,29.890747,,,TRUE,TRUE,,,,,,,OVC,2000,,,,,,,MVFR,,,,,,,,,,,,METAR,153.0
KLGC 240735Z AUTO 00000KT 10SM BKN100 BKN120 07/07 A3014 RMK AO2 T00700067,KLGC,2018-03-24T07:35:00Z,33.0,-85.07,7.0,6.7,0,0,,10.0,30.138779,,,TRUE,TRUE,,,,,,,BKN,10000,BKN,12000,,,,,VFR,,,,,,,,,,,,METAR,211.0
KLBE 240735Z AUTO 00000KT 10SM CLR M03/M08 A3022 RMK AO2,KLBE,2018-03-24T07:35:00Z,40.27,-79.4,-3.0,-8.0,0,0,,10.0,30.221457,,,TRUE,TRUE,,,,,,,CLR,,,,,,,,VFR,,,,,,,,,,,,METAR,361.0
KJZP 240735Z AUTO 00000KT 10SM SCT080 BKN120 09/05 A3016 RMK AO2 T00850047 PNO,KJZP,2018-03-24T07:35:00Z,34.45,-84.47,8.5,4.7,0,0,,10.0,30.159449,,,TRUE,TRUE,,,,,,,SCT,8000,BKN,12000,,,,,VFR,,,,,,,,,,,,METAR,468.0
KINF 240735Z AUTO 00000KT 10SM CLR 06/06 A3022 RMK AO2,KINF,2018-03-24T07:35:00Z,28.8,-82.32,6.0,6.0,0,0,,10.0,30.221457,,,TRUE,TRUE,,,,,,,CLR,,,,,,,,VFR,,,,,,,,,,,,METAR,15.0
KIMS 240735Z AUTO 08007KT 10SM BKN050 OVC075 04/M05 A3022 RMK AO1,KIMS,2018-03-24T07:35:00Z,38.75,-85.47,4.0,-5.0,80,7,,10.0,30.221457,,,TRUE,TRUE,,,,,,,BKN,5000,OVC,7500,,,,,VFR,,,,,,,,,,,,METAR,250.0
KI69 240735Z AUTO 08004KT 10SM CLR 00/M05 A3024 RMK AO2 T00041050,KI69,2018-03-24T07:35:00Z,39.08,-84.22,0.4,-5.0,80,4,,10.0,30.239174,,,TRUE,TRUE,,,,,,,CLR,,,,,,,,VFR,,,,,,,,,,,,METAR,255.0
KHTO 240735Z AUTO 32005KT 10SM BKN095 02/M04 A3001 RMK AO2 T00231045,KHTO,2018-03-24T07:35:00Z,40.95,-72.25,2.3,-4.5,320,5,,10.0,30.008858,,,TRUE,TRUE,,,,,,,BKN,9500,,,,,,,VFR,,,,,,,,,,,,METAR,17.0
KHII 240735Z AUTO 00000KT 10SM CLR 18/M05 A2990 RMK AO2,KHII,2018-03-24T07:35:00Z,34.57,-114.37,18.0,-5.0,0,0,,10.0,29.899607,,,TRUE,TRUE,,,,,,,CLR,,,,,,,,VFR,,,,,,,,,,,,METAR,238.0
KHHW 240735Z AUTO 20012G19KT 10SM OVC029 21/14 A2983 RMK AO2 T02050140,KHHW,2018-03-24T07:35:00Z,34.03,-95.55,20.5,14.0,200,12,19,10.0,29.828741,,,TRUE,TRUE,,,,,,,OVC,2900,,,,,,,MVFR,,,,,,,,,,,,METAR,144.0
KHHG 240735Z AUTO 08006KT 10SM CLR M02/M07 A3027 RMK AO2 T10181070,KHHG,2018-03-24T07:35:00Z,40.85,-85.45,-1.8,-7.0,80,6,,10.0,30.268702,,,TRUE,TRUE,,,,,,,CLR,,,,,,,,VFR,,,,,,,,,,,,METAR,246.0
KGHW 240735Z AUTO 07016G19KT 10SM CLR M01/M07 A3014 RMK AO2,KGHW,2018-03-24T07:35:00Z,45.63,-95.32,-1.0,-7.0,70,16,19,10.0,30.138779,,,TRUE,TRUE,,,,,,,CLR,,,,,,,,VFR,,,,,,,,,,,,METAR,425.0
KGGP 240735Z AUTO 09007KT 10SM CLR 00/M06 A3024 RMK AO2,KGGP,2018-03-24T07:35:00Z,40.72,-86.37,0.0,-6.0,90,7,,10.0,30.239174,,,TRUE,TRUE,,,,,,,CLR,,,,,,,,VFR,,,,,,,,,,,,METAR,225.0
KFZG 240735Z AUTO 00000KT 10SM SCT120 09/08 A3020 RMK AO2 T00940083,KFZG,2018-03-24T07:35:00Z,31.68,-83.27,9.4,8.3,0,0,,10.0,30.200787,,,TRUE,TRUE,,,,,,,SCT,12000,,,,,,,VFR,,,,,,,,,,,,METAR,111.0
KFKN 240735Z AUTO 34004KT 10SM CLR 01/M06 A3021 RMK AO2 T00051057,KFKN,2018-03-24T07:35:00Z,36.7,-76.9,0.5,-5.7,340,4,,10.0,30.209646,,,TRUE,TRUE,,,,,,,CLR,,,,,,,,VFR,,,,,,,,,,,,METAR,12.0
KFHB 240735Z AUTO 23003KT 10SM CLR 11/06 A3019 RMK AO2 T01100057,KFHB,2018-03-24T07:35:00Z,30.62,-81.47,11.0,5.7,230,3,,10.0,30.188976,,,TRUE,TRUE,,,,,,,CLR,,,,,,,,VFR,,,,,,,,,,,,METAR,5.0
KEZF 240735Z AUTO 30004KT 10SM CLR 02/M06 A3021 RMK AO2 T00211058,KEZF,2018-03-24T07:35:00Z,38.27,-77.45,2.1,-5.8,300,4,,10.0,30.209646,,,TRUE,TRUE,,,,,,,CLR,,,,,,,,VFR,,,,,,,,,,,,METAR,26.0
KEVU 240735Z AUTO 10019G28KT 5SM BR OVC006 07/05 A2971 RMK AO2 LTG DSNT E,KEVU,2018-03-24T07:35:00Z,40.35,-94.92,7.0,5.0,100,19,28,5.0,29.71063,,,TRUE,TRUE,,,,,,BR,OVC,600,,,,,,,IFR,,,,,,,,,,,,METAR,349.0
PAAD 240735Z AUTO 09030KT 1/2SM SN BKN004 M22/M24 A3022 RMK AO2 T12201243,PAAD,2018-03-24T07:35:00Z,70.13,-146.28,-22.0,-24.3,90,30,,0.5,30.221457,,,TRUE,TRUE,,,,,,SN,BKN,400,,,,,,,LIFR,,,,,,,,,,,,METAR,8.0
KY70 240735Z AUTO 05005KT 10SM CLR M05/M09 A3033 RMK AO2 T10491094,KY70,2018-03-24T07:35:00Z,42.93,-85.07,-4.9,-9.4,50,5,,10.0,30.33071,,,TRUE,TRUE,,,,,,,CLR,,,,,,,,VFR,,,,,,,,,,,,METAR,250.0
KY63 240735Z AUTO 10016G21KT 040V150 10SM OVC055 M01/M07 A3013 RMK AO2 T10101072,KY63,2018-03-24T07:35:00Z,45.98,-96.0,-1.0,-7.2,100,16,21,10.0,30.129921,,,TRUE,TRUE,,,,,,,OVC,5500,,,,,,,VFR,,,,,,,,,,,,METAR,367.0
KY49 240735Z AUTO 08009KT 10SM OVC110 M04/M10 A3024 RMK AO2 T10451103,KY49,2018-03-24T07:35:00Z,47.13,-94.65,-4.5,-10.3,80,9,,10.0,30.239174,,,TRUE,TRUE,,,,,,,OVC,11000,,,,,,,VFR,,,,,,,,,,,,METAR,416.0
KY23 240735Z AUTO 12008KT 090V150 10SM CLR M02/M09 A3027 RMK AO2 T10201090,KY23,2018-03-24T07:35:00Z,45.3,-91.63,-2.0,-9.0,120,8,,10.0,30.268702,,,TRUE,TRUE,,,,,,,CLR,,,,,,,,VFR,,,,,,,,,,,,METAR,322.0
KXLL 240735Z AUTO 23004KT 10SM CLR 00/M08 A3014 RMK AO2,KXLL,2018-03-24T07:35:00Z,40.57,-75.48,0.0,-8.0,230,4,,10.0,30.138779,,,TRUE,TRUE,,,,,,,CLR,,,,,,,,VFR,,,,,,,,,,,,METAR,122.0
KWDR 240735Z AUTO 00000KT 10SM OVC085 12/03 A3019 RMK AO1,KWDR,2018-03-24T07:35:00Z,33.98,-83.67,12.0,3.0,0,0,,10.0,30.188976,,,TRUE,TRUE,,,,,,,OVC,8500,,,,,,,VFR,,,,,,,,,,,,METAR,287.0
KW81 240735Z AUTO 00000KT 10SM CLR M01/M05 A3021 RMK AO1 T10141055,KW81,2018-03-24T07:35:00Z,37.18,-78.1,-1.4,-5.5,0,0,,10.0,30.209646,,,TRUE,TRUE,,,,,,,CLR,,,,,,,,VFR,,,,,,,,,,,,METAR,129.0
KW63 240735Z AUTO 06003KT 10SM CLR 01/M03 A3021 RMK AO1,KW63,2018-03-24T07:35:00Z,36.6,-78.55,1.0,-3.0,60,3,,10.0,30.209646,,,TRUE,TRUE,,,,,,,CLR,,,,,,,,VFR,,,,,,,,,,,,METAR,129.0
KW22 240735Z AUTO 00000KT 10SM CLR M02/M07 A3019 RMK AO2,KW22,2018-03-24T07:35:00Z,39.0,-80.27,-2.0,-7.0,0,0,,10.0,30.188976,,,TRUE,TRUE,,,,,,,CLR,,,,,,,,VFR,,,,,,,,,,,,METAR,499.0
KVYS 240735Z AUTO 08013KT 10SM OVC075 03/M03 A3017 RMK AO2 T00251028,KVYS,2018-03-24T07:35:00Z,41.35,-89.15,2.5,-2.8,80,13,,10.0,30.171259,,,TRUE,TRUE,,,,,,,OVC,7500,,,,,,,VFR,,,,,,,,,,,,METAR,199.0
KVER 240735Z AUTO 11011G21KT 10SM BKN012 BKN017 OVC031 09/ A2977 RMK AO2 T0088,KVER,2018-03-24T07:35:00Z,38.95,-92.68,8.8,,110,11,21,10.0,29.769686,,,TRUE,TRUE,,,,,,,BKN,1200,BKN,1700,OVC,3100,,,MVFR,,,,,,,,,,,,METAR,218.0
KVDI 240735Z AUTO 24003KT 10SM BKN100 12/06 A3018 RMK AO2,KVDI,2018-03-24T07:35:00Z,32.2,-82.37,12.0,6.0,240,3,,10.0,30.180119,,,TRUE,TRUE,,,,,,,BKN,10000,,,,,,,VFR,,,,,,,,,,,,METAR,84.0
KVCV 240735Z AUTO 20006KT 10SM CLR 07/05 A3001 RMK AO2,KVCV,2018-03-24T07:35:00Z,34.58,-117.38,7.0,5.0,200,6,,10.0,30.008858,,,TRUE,TRUE,,,,,,,CLR,,,,,,,,VFR,,,,,,,,,,,,METAR,876.0
KUXL 240735Z AUTO 17007KT 10SM CLR 19/18 A3002 RMK AO2 T01890175,KUXL,2018-03-24T07:35:00Z,30.13,-93.38,18.9,17.5,170,7,,10.0,30.02067,,,TRUE,TRUE,,,,,,,CLR,,,,,,,,VFR,,,,,,,,,,,,METAR,4.0
KUNV 240735Z AUTO 25003KT 10SM CLR M02/M07 A3017 RMK AO2 T10211074,KUNV,2018-03-24T07:35:00Z,40.85,-77.83,-2.1,-7.4,250,3,,10.0,30.171259,,,TRUE,TRUE,,,,,,,CLR,,,,,,,,VFR,,,,,,,,,,,,METAR,378.0
KUNU 240735Z AUTO 05008KT 10SM CLR M02/M07 A3029 RMK AO2 T10181070,KUNU,2018-03-24T07:35:00Z,43.42,-88.7,-1.8,-7.0,50,8,,10.0,30.28937,,,TRUE,TRUE,,,,,,,CLR,,,,,,,,VFR,,,,,,,,,,,,METAR,285.0
KULM 240735Z AUTO 10016G21KT 1SM SN OVC005 M01/M02 A3008 RMK AO2 P0002,KULM,2018-03-24T07:35:00Z,44.32,-94.5,-1.0,-2.0,100,16,21,1.0,30.079725,,,TRUE,TRUE,,,,,,SN,OVC,500,,,,,,,IFR,,,,,,0.02,,,,,,METAR,308.0
KUKT 240735Z AUTO VRB06KT 10SM CLR M00/M09 A3011 RMK A01,KUKT,2018-03-24T07:35:00Z,40.43,-75.38,0.0,-9.0,0,6,,10.0,30.109253,,,TRUE,TRUE,,,,,,,CLR,,,,,,,,VFR,,,,,,,,,,,,METAR,160.0
KUES 240735Z AUTO 06008KT 10SM CLR M01/M06 A3027 RMK AO2,KUES,2018-03-24T07:35:00Z,43.05,-88.25,-1.0,-6.0,60,8,,10.0,30.268702,,,TRUE,TRUE,,,,,,,CLR,,,,,,,,VFR,,,,,,,,,,,,METAR,278.0
KUBE 240735Z AUTO 09008KT 10SM CLR M02/M10 A3025 RMK AO2,KUBE,2018-03-24T07:35:00Z,45.5,-91.98,-2.0,-10.0,90,8,,10.0,30.250984,,,TRUE,TRUE,,,,,,,CLR,,,,,,,,VFR,,,,,,,,,,,,METAR,379.0
KU68 240735Z AUTO 09004KT 10SM CLR 03/M01 A2990 RMK AO2,KU68,2018-03-24T07:35:00Z,44.92,-108.45,3.0,-1.0,90,4,,10.0,29.899607,,,TRUE,TRUE,,,,,,,CLR,,,,,,,,VFR,,,,,,,,,,,,METAR,1247.0
KTWM 240735Z AUTO 08014G22KT 10SM CLR M03/M09 A3036 RMK AO2,KTWM,2018-03-24T07:35:00Z,47.03,-91.75,-3.0,-9.0,80,14,22,10.0,30.360237,,,TRUE,TRUE,,,,,,,CLR,,,,,,,,VFR,,,,,,,,,,,,METAR,328.0
KTVI 240735Z AUTO 00000KT 7SM CLR 08/08 A3020 RMK AO2,KTVI,2018-03-24T07:35:00Z,30.9,-83.88,8.0,8.0,0,0,,7.0,30.200787,,,TRUE,TRUE,,,,,,,CLR,,,,,,,,VFR,,,,,,,,,,,,METAR,80.0
KTRK 240735Z AUTO 20012G20KT 10SM OVC035 M01/M07 A2995 RMK AO2,KTRK,2018-03-24T07:35:00Z,39.32,-120.12,-1.0,-7.0,200,12,20,10.0,29.949802,,,TRUE,TRUE,,,,,,,OVC,3500,,,,,,,VFR,,,,,,,,,,,,METAR,1798.0
KTOC 240735Z AUTO 00000KT 10SM OVC075 12/05 A3016 RMK AO2 T01200053,KTOC,2018-03-24T07:35:00Z,34.6,-83.3,12.0,5.3,0,0,,10.0,30.159449,,,TRUE,TRUE,,,,,,,OVC,7500,,,,,,,VFR,,,,,,,,,,,,METAR,304.0
KTMK 240735Z AUTO 11005KT 10SM SCT016 SCT025 OVC050 02/02 A2983 RMK AO2,KTMK,2018-03-24T07:35:00Z,45.42,-123.82,2.0,2.0,110,5,,10.0,29.828741,,,TRUE,TRUE,,,,,,,SCT,1600,SCT,2500,OVC,5000,,,VFR,,,,,,,,,,,,METAR,11.0
KTKV 240735Z AUTO 08006KT 10SM CLR M07/M15 A3032 RMK AO2 T10701146,KTKV,2018-03-24T07:35:00Z,45.47,-89.82,-7.0,-14.6,80,6,,10.0,30.318897,,,TRUE,TRUE,,,,,,,CLR,,,,,,,,VFR,,,,,,,,,,,,METAR,453.0
KTIP 240735Z AUTO 10009KT 2 1/2SM -SN BKN016 BKN021 OVC026 02/M01 A3017 RMK AO2 P0002 T00191006,KTIP,2018-03-24T07:35:00Z,40.28,-88.15,1.9,-0.6,100,9,,2.5,30.171259,,,TRUE,TRUE,,,,,,-SN,BKN,1600,BKN,2100,OVC,2600,,,IFR,,,,,,0.02,,,,,,METAR,225.0
KTIF 240735Z AUTO 33011G15KT 7SM BKN007 OVC011 07/06 A2989 RMK AO2 T00680058,KTIF,2018-03-24T07:35:00Z,41.97,-100.57,6.8,5.8,330,11,15,7.0,29.890747,,,TRUE,TRUE,,,,,,,BKN,700,OVC,1100,,,,,IFR,,,,,,,,,,,,METAR,892.0
KTAZ 240735Z AUTO 08015G20KT 2SM UP OVC006 04/04 A3003 RMK AO2 P0010 T00400036,KTAZ,2018-03-24T07:35:00Z,39.53,-89.33,4.0,3.6,80,15,20,2.0,30.029528,,,TRUE,TRUE,,,,,,UP,OVC,600,,,,,,,IFR,,,,,,0.1,,,,,,METAR,190.0
KT82 240735Z AUTO 20008KT 10SM OVC013 17/15 A2994 RMK AO2 T01690146,KT82,2018-03-24T07:35:00Z,30.25,-98.92,16.9,14.6,200,8,,10.0,29.940945,,,TRUE,TRUE,,,,,,,OVC,1300,,,,,,,MVFR,,,,,,,,,,,,METAR,517.0
KT65 240735Z AUTO 18016G23KT 7SM 23/19 A2991 RMK AO2 T02300191,KT65,2018-03-24T07:35:00Z,26.18,-97.97,23.0,19.1,180,16,23,7.0,29.911417,,,TRUE,TRUE,,,,,,,,,,,,,,,,,,,,,,,,,,,METAR,21.0
KEAN 240735Z AUTO 13005KT 10SM CLR 01/00 A3000 RMK AO2 T00091001,KEAN,2018-03-24T07:35:00Z,42.05,-104.93,0.9,-0.1,130,5,,10.0,30.0,,,TRUE,TRUE,,,,,,,CLR,,,,,,,,VFR,,,,,,,,,,,,METAR,1456.0
KDTL 240735Z AUTO 12011KT 1 1/2SM -SN OVC005 M03/M05 A3020 RMK AO2 P0001,KDTL,2018-03-24T07:35:00Z,46.82,-95.87,-3.0,-5.0,120,11,,1.5,30.200787,,,TRUE,TRUE,,,,,,-SN,OVC,500,,,,,,,IFR,,,,,,0.01,,,,,,METAR,426.0
KDLZ 240735Z AUTO 00000KT 10SM CLR M03/M06 A3028 RMK AO2,KDLZ,2018-03-24T07:35:00Z,40.28,-83.12,-3.0,-6.0,0,0,,10.0,30.280512,,,TRUE,TRUE,,,,,,,CLR,,,,,,,,VFR,,,,,,,,,,,,METAR,289.0
KDKR 240735Z AUTO 18005KT 10SM BKN028 18/15 A2998 RMK AO2,KDKR,2018-03-24T07:35:00Z,31.3,-95.4,18.0,15.0,180,5,,10.0,29.97933,,,TRUE,TRUE,,,,,,,BKN,2800,,,,,,,MVFR,,,,,,,,,,,,METAR,106.0
KD95 240735Z AUTO 00000KT 10SM CLR M07/M08 A3031 RMK AO2 T10721079,KD95,2018-03-24T07:35:00Z,43.07,-83.27,-7.2,-7.9,0,0,,10.0,30.31004,,,TRUE,TRUE,,,,,,,CLR,,,,,,,,VFR,,,,,,,,,,,,METAR,255.0
KD39 240735Z AUTO 07015G18KT 10SM OVC080 M02/M08 A3016 RMK AO2 T10161083,KD39,2018-03-24T07:35:00Z,45.7,-94.93,-1.6,-8.3,70,15,18,10.0,30.159449,,,TRUE,TRUE,,,,,,,OVC,8000,,,,,,,VFR,,,,,,,,,,,,METAR,380.0
KD25 240735Z AUTO 09004KT 10SM CLR M08/M14 A3032 RMK AO2 T10851143,KD25,2018-03-24T07:35:00Z,46.12,-89.88,-8.5,-14.3,90,4,,10.0,30.318897,,,TRUE,TRUE,,,,,,,CLR,,,,,,,,VFR,,,,,,,,,,,,METAR,491.0
KCVB 240735Z AUTO 12003KT 10SM CLR 18/17 A2996 RMK AO2 T01750165,KCVB,2018-03-24T07:35:00Z,29.35,-98.85,17.5,16.5,120,3,,10.0,29.958662,,,TRUE,TRUE,,,,,,,CLR,,,,,,,,VFR,,,,,,,,,,,,METAR,235.0
KCUH 240735Z AUTO 23010KT 10SM CLR 20/15 A2969 RMK AO2 T01980151,KCUH,2018-03-24T07:35:00Z,35.95,-96.77,19.8,15.1,230,10,,10.0,29.68996,,,TRUE,TRUE,,,,,,,CLR,,,,,,,,VFR,,,,,,,,,,,,METAR,279.0
KCCO 240735Z AUTO 14003KT 10SM OVC100 10/04 A3014 RMK AO2 T00980041,KCCO,2018-03-24T07:35:00Z,33.32,-84.77,9.8,4.1,140,3,,10.0,30.138779,,,TRUE,TRUE,,,,,,,OVC,10000,,,,,,,VFR,,,,,,,,,,,,METAR,296.0
KC75 240735Z AUTO 07009KT 1SM SN OVC005 M01/M01 A3015 RMK AO2 P0004 T10111015,KC75,2018-03-24T07:35:00Z,41.02,-89.38,-1.1,-1.5,70,9,,1.0,30.15059,,,TRUE,TRUE,,,,,,SN,OVC,500,,,,,,,IFR,,,,,,0.04,,,,,,METAR,173.0
KBYL 240735Z AUTO 00000KT 10SM FEW050 04/02 A3016 RMK AO1,KBYL,2018-03-24T07:35:00Z,36.8,-84.2,4.0,2.0,0,0,,10.0,30.159449,,,TRUE,TRUE,,,,,,,FEW,5000,,,,,,,VFR,,,,,,,,,,,,METAR,359.0
KBXK 240735Z AUTO 00000KT 10SM CLR 14/M03 A2993 RMK AO1,KBXK,2018-03-24T07:35:00Z,33.42,-112.68,14.0,-3.0,0,0,,10.0,29.929134,,,TRUE,TRUE,,,,,,,CLR,,,,,,,,VFR,,,,,,,,,,,,METAR,315.0
KBWD 240735Z AUTO 16005KT 10SM OVC026 18/16 A2990 RMK AO2,KBWD,2018-03-24T07:35:00Z,31.8,-98.95,18.0,16.0,160,5,,10.0,29.899607,,,TRUE,TRUE,,,,,,,OVC,2600,,,,,,,MVFR,,,,,,,,,,,,METAR,423.0
KBKD 240735Z AUTO 19011G18KT 7SM CLR 21/15 A2982 RMK AO2 T02100147,KBKD,2018-03-24T07:35:00Z,32.72,-98.88,21.0,14.7,190,11,18,7.0,29.819881,,,TRUE,TRUE,,,,,,,CLR,,,,,,,,VFR,,,,,,,,,,,,METAR,392.0
KBJI 240735Z AUTO 10011KT 10SM OVC100 M04/M10 A3024 RMK AO2 T10411103,KBJI,2018-03-24T07:35:00Z,47.5,-94.92,-4.1,-10.3,100,11,,10.0,30.239174,,,TRUE,TRUE,,,,,,,OVC,10000,,,,,,,VFR,,,,,,,,,,,,METAR,420.0
KBFW 240735Z AUTO 08014G19KT 10SM CLR M04/M09 A3038 RMK AO2,KBFW,2018-03-24T07:35:00Z,47.25,-91.4,-4.0,-9.0,80,14,19,10.0,30.380905,,,TRUE,TRUE,,,,,,,CLR,,,,,,,,VFR,,,,,,,,,,,,METAR,331.0
KBBB 240735Z AUTO 12010G15KT 10SM SCT033 SCT042 01/M07 A3012 RMK AO2,KBBB,2018-03-24T07:35:00Z,45.32,-95.65,1.0,-7.0,120,10,15,10.0,30.121063,,,TRUE,TRUE,,,,,,,SCT,3300,SCT,4200,,,,,VFR,,,,,,,,,,,,METAR,317.0
KAXV 240735Z AUTO 09003KT 7SM CLR M02/M05 A3029 RMK AO2,KAXV,2018-03-24T07:35:00Z,40.5,-84.3,-2.0,-5.0,90,3,,7.0,30.28937,,,TRUE,TRUE,,,,,,,CLR,,,,,,,,VFR,,,,,,,,,,,,METAR,279.0
KARV 240735Z AUTO 10003KT 10SM CLR M06/M12 A3032 RMK AO2 T10571121,KARV,2018-03-24T07:35:00Z,45.92,-89.72,-5.7,-12.1,100,3,,10.0,30.318897,,,TRUE,TRUE,,,,,,,CLR,,,,,,,,VFR,,,,,,,,,,,,METAR,496.0
KAPY 240735Z AUTO 15009G14KT 10SM BKN016 21/17 A2989 RMK AO2 T02140176,KAPY,2018-03-24T07:35:00Z,26.97,-99.25,21.4,17.6,150,9,14,10.0,29.890747,,,TRUE,TRUE,,,,,,,BKN,1600,,,,,,,MVFR,,,,,,,,,,,,METAR,129.0
KALN 240735Z AUTO 10009G20KT 7SM OVC005 05/05 A2998 RMK AO2 T00500050,KALN,2018-03-24T07:35:00Z,38.88,-90.03,5.0,5.0,100,9,20,7.0,29.97933,,,TRUE,TRUE,,,,,,,OVC,500,,,,,,,IFR,,,,,,,,,,,,METAR,166.0
KAIG 240735Z AUTO 07006KT 10SM CLR M07/M12 A3032 RMK AO2 T10701121,KAIG,2018-03-24T07:35:00Z,45.15,-89.12,-7.0,-12.1,70,6,,10.0,30.318897,,,TRUE,TRUE,,,,,,,CLR,,,,,,,,VFR,,,,,,,,,,,,METAR,464.0
KAEL 240735Z AUTO 11019G25KT BKN006 OVC009 M02/M03 A3007 RMK AO2 PWINO,KAEL,2018-03-24T07:35:00Z,43.68,-93.37,-2.0,-3.0,110,19,25,,30.070866,,,TRUE,TRUE,,,,,TRUE,,BKN,600,OVC,900,,,,,,,,,,,,,,,,,METAR,383.0
KADS 240735Z AUTO 20013G21KT 10SM SCT022 19/15 A2986 RMK AO2 T01930153,KADS,2018-03-24T07:35:00Z,32.97,-96.82,19.3,15.3,200,13,21,10.0,29.861221,,,TRUE,TRUE,,,,,,,SCT,2200,,,,,,,VFR,,,,,,,,,,,,METAR,196.0
KAAA 240735Z AUTO 08012G17KT 7SM RA SCT032 OVC050 01/01 A3010 RMK AO2 T00110006,KAAA,2018-03-24T07:35:00Z,40.17,-89.33,1.1,0.6,80,12,17,7.0,30.100393,,,TRUE,TRUE,,,,,,RA,SCT,3200,OVC,5000,,,,,VFR,,,,,,,,,,,,METAR,182.0
K9MN 240735Z AUTO 09014G24KT 10SM OVC110 01/M09 A3014 RMK AO1 T00071095,K9MN,2018-03-24T07:35:00Z,44.02,-92.48,0.7,-9.5,90,14,24,10.0,30.138779,,,TRUE,TRUE,,,,,,,OVC,11000,,,,,,,VFR,,,,,,,,,,,,METAR,355.0
K8A0 240735Z AUTO 14004KT 10SM SCT100 10/06 A3009 RMK AO2,K8A0,2018-03-24T07:35:00Z,34.23,-86.25,10.0,6.0,140,4,,10.0,30.088583,,,TRUE,TRUE,,,,,,,SCT,10000,,,,,,,VFR,,,,,,,,,,,,METAR,315.0
K82C 240735Z AUTO 10005G14KT 10SM CLR M01/M07 A3027 RMK AO2 T10151067,K82C,2018-03-24T07:35:00Z,43.83,-90.13,-1.5,-6.7,100,5,14,10.0,30.268702,,,TRUE,TRUE,,,,,,,CLR,,,,,,,,VFR,,,,,,,,,,,,METAR,276.0
K6R3 240735Z AUTO 19006KT 7SM SCT023 BKN029 19/16 A2999 RMK AO2 T01920158,K6R3,2018-03-24T07:35:00Z,30.35,-95.0,19.2,15.8,190,6,,7.0,29.991142,,,TRUE,TRUE,,,,,,,SCT,2300,BKN,2900,,,,,MVFR,,,,,,,,,,,,METAR,46.0
K5M9 240735Z AUTO 11008G16KT 10SM OVC008 06/06 A3002 RMK AO2 T00570057,K5M9,2018-03-24T07:35:00Z,37.33,-88.12,5.7,5.7,110,8,16,10.0,30.02067,,,TRUE,TRUE,,,,,,,OVC,800,,,,,,,IFR,,,,,,,,,,,,METAR,199.0
K57C 240735Z AUTO 07007KT 10SM CLR 00/M04 A3025 RMK AO2 T10051045,K57C,2018-03-24T07:35:00Z,42.8,-88.37,-0.5,-4.5,70,7,,10.0,30.250984,,,TRUE,TRUE,,,,,,,CLR,,,,,,,,VFR,,,,,,,,,,,,METAR,262.0
K11R 240735Z AUTO 18010G15KT 10SM OVC018 21/18 A2996 RMK AO2 T02080180,K11R,2018-03-24T07:35:00Z,30.22,-96.37,20.8,18.0,180,10,15,10.0,29.958662,,,TRUE,TRUE,,,,,,,OVC,1800,,,,,,,MVFR,,,,,,,,,,,,METAR,94.0
K04W 240735Z AUTO 06006KT 10SM M02/M08 A3028 RMK AO2,K04W,2018-03-24T07:35:00Z,46.02,-92.9,-2.0,-8.0,60,6,,10.0,30.280512,,,TRUE,TRUE,,,,,,,,,,,,,,,,,,,,,,,,,,,METAR,311.0
KT35 240735Z AUTO 19014G19KT 10SM OVC020 20/17 A2992 RMK AO2 T01960165,KT35,2018-03-24T07:35:00Z,30.88,-96.97,19.6,16.5,190,14,19,10.0,29.920275,,,TRUE,TRUE,,,,,,,OVC,2000,,,,,,,MVFR,,,,,,,,,,,,METAR,123.0
KT20 240735Z AUTO 18011KT 10SM OVC022 21/18 A2995 RMK AO2 T02110180,KT20,2018-03-24T07:35:00Z,29.52,-97.47,21.1,18.0,180,11,,10.0,29.949802,,,TRUE,TRUE,,,,,,,OVC,2200,,,,,,,MVFR,,,,,,,,,,,,METAR,108.0
KSYN 240735Z AUTO 10013G19KT 10SM CLR 02/M07 A3015 RMK AO2 T00151073,KSYN,2018-03-24T07:35:00Z,44.47,-93.02,1.5,-7.3,100,13,19,10.0,30.15059,,,TRUE,TRUE,,,,,,,CLR,,,,,,,,VFR,,,,,,,,,,,,METAR,280.0
KSYM 240735Z AUTO 07007KT 030V110 10SM OVC095 03/M07 A3022 RMK AO2,KSYM,2018-03-24T07:35:00Z,38.22,-83.58,3.0,-7.0,70,7,,10.0,30.221457,,,TRUE,TRUE,,,,,,,OVC,9500,,,,,,,VFR,,,,,,,,,,,,METAR,313.0
KSTE 240735Z AUTO 08011KT 10SM CLR M05/M11 A3032 RMK AO2 T10481115,KSTE,2018-03-24T07:35:00Z,44.55,-89.53,-4.8,-11.5,80,11,,10.0,30.318897,,,TRUE,TRUE,,,,,,,CLR,,,,,,,,VFR,,,,,,,,,,,,METAR,338.0
KSQL 240735Z AUTO 16006KT 10SM FEW030 SCT036 BKN050 10/06 A3013 RMK AO2,KSQL,2018-03-24T07:35:00Z,37.52,-122.25,10.0,6.0,160,6,,10.0,30.129921,,,TRUE,TRUE,,,,,,,FEW,3000,SCT,3600,BKN,5000,,,VFR,,,,,,,,,,,,METAR,1.0
KSOA 240735Z AUTO 00000KT 10SM CLR 18/15 A2998 RMK AO2,KSOA,2018-03-24T07:35:00Z,30.58,-100.65,18.0,15.0,0,0,,10.0,29.97933,,,TRUE,TRUE,,,,,,,CLR,,,,,,,,VFR,,,,,,,,,,,,METAR,652.0
KSNL 240735Z AUTO 21014G17KT 10SM CLR 20/15 A2972 RMK AO2 T01960148,KSNL,2018-03-24T07:35:00Z,35.35,-96.95,19.6,14.8,210,14,17,10.0,29.719488,,,TRUE,TRUE,,,,,,,CLR,,,,,,,,VFR,,,,,,,,,,,,METAR,327.0
KSGS 240735Z AUTO 09008KT 10SM SCT090 02/M09 A3019 RMK AO2 T00191092,KSGS,2018-03-24T07:35:00Z,44.87,-93.03,1.9,-9.2,90,8,,10.0,30.188976,,,TRUE,TRUE,,,,,,,SCT,9000,,,,,,,VFR,,,,,,,,,,,,METAR,250.0
KSFY 240735Z AUTO 10008KT 10SM BKN043 BKN060 OVC070 00/M06 A3019 RMK AO2 T00031060,KSFY,2018-03-24T07:35:00Z,42.05,-90.12,0.3,-6.0,100,8,,10.0,30.188976,,,TRUE,TRUE,,,,,,,BKN,4300,BKN,6000,OVC,7000,,,VFR,,,,,,,,,,,,METAR,188.0
KSFQ 240735Z AUTO 30003KT 10SM CLR 02/M04 A3021 RMK AO2 T00221043,KSFQ,2018-03-24T07:35:00Z,36.68,-76.6,2.2,-4.3,300,3,,10.0,30.209646,,,TRUE,TRUE,,,,,,,CLR,,,,,,,,VFR,,,,,,,,,,,,METAR,22.0
KSEZ 240735Z AUTO 03005KT 10SM CLR 12/M06 A3006 RMK AO2,KSEZ,2018-03-24T07:35:00Z,34.85,-111.78,12.0,-6.0,30,5,,10.0,30.059055,,,TRUE,TRUE,,,,,,,CLR,,,,,,,,VFR,,,,,,,,,,,,METAR,1473.0
KSEE 240735Z AUTO 28004KT 10SM OVC018 14/11 A3006 RMK AO2,KSEE,2018-03-24T07:35:00Z,32.82,-116.97,14.0,11.0,280,4,,10.0,30.059055,,,TRUE,TRUE,,,,,,,OVC,1800,,,,,,,MVFR,,,,,,,,,,,,METAR,117.0
KRZT 240735Z AUTO 00000KT 10SM CLR M04/M05 A3027 RMK AO2,KRZT,2018-03-24T07:35:00Z,39.43,-83.02,-4.0,-5.0,0,0,,10.0,30.268702,,,TRUE,TRUE,,,,,,,CLR,,,,,,,,VFR,,,,,,,,,,,,METAR,221.0
KRZN 240735Z AUTO 07005KT 10SM CLR M03/M10 A3028 RMK AO2 T10271100,KRZN,2018-03-24T07:35:00Z,45.82,-92.37,-2.7,-10.0,70,5,,10.0,30.280512,,,TRUE,TRUE,,,,,,,CLR,,,,,,,,VFR,,,,,,,,,,,,METAR,301.0
KRWV 240735Z AUTO 18010G15KT 10SM OVC025 19/17 A2995 RMK AO2 T01940169,KRWV,2018-03-24T07:35:00Z,30.52,-96.7,19.4,16.9,180,10,15,10.0,29.949802,,,TRUE,TRUE,,,,,,,OVC,2500,,,,,,,MVFR,,,,,,,,,,,,METAR,119.0
KRQB 240735Z AUTO 00000KT 10SM CLR M05/M09 A3034 RMK AO2 T10551086,KRQB,2018-03-24T07:35:00Z,43.72,-85.5,-5.5,-8.6,0,0,,10.0,30.339567,,,TRUE,TRUE,,,,,,,CLR,,,,,,,,VFR,,,,,,,,,,,,METAR,302.0
KRPJ 240735Z AUTO 07013KT 10SM BKN110 01/M04 A3019 RMK AO2 T00071042,KRPJ,2018-03-24T07:35:00Z,41.88,-89.08,0.7,-4.2,70,13,,10.0,30.188976,,,TRUE,TRUE,,,,,,,BKN,11000,,,,,,,VFR,,,,,,,,,,,,METAR,238.0
KRPH 240735Z AUTO 17010G17KT 21/16 A2979 RMK AO2 T02100155 PWINO,KRPH,2018-03-24T07:35:00Z,33.12,-98.55,21.0,15.5,170,10,17,,29.790354,,,TRUE,TRUE,,,,,TRUE,,,,,,,,,,,,,,,,,,,,,,METAR,342.0
KRNH 240735Z AUTO 10013KT 10SM CLR 00/M09 A3022 RMK AO2 T10051090,KRNH,2018-03-24T07:35:00Z,45.15,-92.53,-0.5,-9.0,100,13,,10.0,30.221457,,,TRUE,TRUE,,,,,,,CLR,,,,,,,,VFR,,,,,,,,,,,,METAR,304.0
KPWC 240735Z AUTO 10012KT 10SM OVC100 M04/M09 A3026 RMK AO2,KPWC,2018-03-24T07:35:00Z,46.72,-94.37,-4.0,-9.0,100,12,,10.0,30.259842,,,TRUE,TRUE,,,,,,,OVC,10000,,,,,,,VFR,,,,,,,,,,,,METAR,395.0
KPVW 240735Z AUTO 29008KT 10SM CLR 11/M02 A2991 RMK AO2 T01061020,KPVW,2018-03-24T07:35:00Z,34.17,-101.72,10.6,-2.0,290,8,,10.0,29.911417,,,TRUE,TRUE,,,,,,,CLR,,,,,,,,VFR,,,,,,,,,,,,METAR,1028.0
KPVB 240735Z AUTO 08017G22KT 10SM CLR 00/M06 A3018 RMK AO1 T10051065,KPVB,2018-03-24T07:35:00Z,42.68,-90.43,-0.5,-6.5,80,17,22,10.0,30.180119,,,TRUE,TRUE,,,,,,,CLR,,,,,,,,VFR,,,,,,,,,,,,METAR,313.0
KPTT 240735Z AUTO 32015KT 10SM CLR 11/08 A2975 RMK AO2 T01060080,KPTT,2018-03-24T07:35:00Z,37.7,-98.75,10.6,8.0,320,15,,10.0,29.749016,,,TRUE,TRUE,,,,,,,CLR,,,,,,,,VFR,,,,,,,,,,,,METAR,595.0
KPRS 240735Z AUTO 36004KT 10SM CLR 19/M08 A2999 RMK AO2 T01931078,KPRS,2018-03-24T07:35:00Z,29.63,-104.35,19.3,-7.8,360,4,,10.0,29.991142,,,TRUE,TRUE,,,,,,,CLR,,,,,,,,VFR,,,,,,,,,,,,METAR,896.0
KPRG 240735Z AUTO 11011G19KT 3SM RA BKN014 OVC023 02/00 A3016 RMK AO2 P0003 T00201001,KPRG,2018-03-24T07:35:00Z,39.7,-87.67,2.0,-0.1,110,11,19,3.0,30.159449,,,TRUE,TRUE,,,,,,RA,BKN,1400,OVC,2300,,,,,MVFR,,,,,,0.03,,,,,,METAR,199.0
KPPA 240735Z AUTO 33014KT 10SM CLR 16/M03 A2990 RMK AO2 T01591030,KPPA,2018-03-24T07:35:00Z,35.62,-101.0,15.9,-3.0,330,14,,10.0,29.899607,,,TRUE,TRUE,,,,,,,CLR,,,,,,,,VFR,,,,,,,,,,,,METAR,989.0
KPOY 240735Z AUTO 21006KT 10SM CLR 03/M10 A2987 RMK AO2,KPOY,2018-03-24T07:35:00Z,44.87,-108.8,3.0,-10.0,210,6,,10.0,29.870079,,,TRUE,TRUE,,,,,,,CLR,,,,,,,,VFR,,,,,,,,,,,,METAR,1552.0
KPOV 240735Z AUTO 00000KT 10SM M05/M07 A3025 RMK AO2 T10461066,KPOV,2018-03-24T07:35:00Z,41.22,-81.25,-4.6,-6.6,0,0,,10.0,30.250984,,,TRUE,TRUE,,,,,,,,,,,,,,,,,,,,,,,,,,,METAR,365.0
KPNT 240735Z AUTO 13012KT 7SM -SN SCT022 BKN030 OVC042 02/M03 A3018 RMK AO2 T00161033,KPNT,2018-03-24T07:35:00Z,40.92,-88.62,1.6,-3.3,130,12,,7.0,30.180119,,,TRUE,TRUE,,,,,,-SN,SCT,2200,BKN,3000,OVC,4200,,,MVFR,,,,,,,,,,,,METAR,201.0
KPNA 240735Z AUTO 00000KT 10SM CLR M03/M06 A3002 RMK AO2,KPNA,2018-03-24T07:35:00Z,42.8,-109.8,-3.0,-6.0,0,0,,10.0,30.02067,,,TRUE,TRUE,,,,,,,CLR,,,,,,,,VFR,,,,,,,,,,,,METAR,2160.0
KPLU 240735Z AUTO 00000KT 4SM -DZ BKN014 OVC026 03/03 A2975 RMK AO2,KPLU,2018-03-24T07:35:00Z,47.1,-122.28,3.0,3.0,0,0,,4.0,29.749016,,,TRUE,TRUE,,,,,,-DZ,BKN,1400,OVC,2600,,,,,MVFR,,,,,,,,,,,,METAR,164.0
KPIM 240735Z AUTO 20005KT 10SM SCT120 13/05 A3015 RMK AO2 T01260050 PWINO,KPIM,2018-03-24T07:35:00Z,32.83,-84.88,12.6,5.0,200,5,,10.0,30.15059,,,TRUE,TRUE,,,,,TRUE,,SCT,12000,,,,,,,VFR,,,,,,,,,,,,METAR,275.0
KPDC 240735Z AUTO 09011KT 10SM OVC070 01/M14 A3018 RMK AO2 T00101136,KPDC,2018-03-24T07:35:00Z,43.02,-91.12,1.0,-13.6,90,11,,10.0,30.180119,,,TRUE,TRUE,,,,,,,OVC,7000,,,,,,,VFR,,,,,,,,,,,,METAR,201.0
KPBX 240735Z AUTO 04005KT 10SM OVC100 03/M07 A3018 RMK AO2 T00261069,KPBX,2018-03-24T07:35:00Z,37.57,-82.57,2.6,-6.9,40,5,,10.0,30.180119,,,TRUE,TRUE,,,,,,,OVC,10000,,,,,,,VFR,,,,,,,,,,,,METAR,449.0
KOVL 240735Z AUTO 11013G21KT 4SM -SN OVC016 00/M02 A3008 RMK AO2,KOVL,2018-03-24T07:35:00Z,44.78,-95.03,0.0,-2.0,110,13,21,4.0,30.079725,,,TRUE,TRUE,,,,,,-SN,OVC,1600,,,,,,,MVFR,,,,,,,,,,,,METAR,328.0
KW75 240735Z AUTO 33008G15KT 10SM CLR 03/M05 A3019 RMK AO1 T00311046,KW75,2018-03-24T07:35:00Z,37.6,-76.45,3.1,-4.6,330,8,15,10.0,30.188976,,,TRUE,TRUE,,,,,,,CLR,,,,,,,,VFR,,,,,,,,,,,,METAR,9.0
KVUJ 240735Z AUTO 00000KT 10SM OVC100 04/00 A3024 RMK AO2 T00400003,KVUJ,2018-03-24T07:35:00Z,35.42,-80.15,4.0,0.3,0,0,,10.0,30.239174,,,TRUE,TRUE,,,,,,,OVC,10000,,,,,,,VFR,,,,,,,,,,,,METAR,186.0
KVLL 240735Z AUTO 36004KT 10SM CLR M03/M07 A3033 RMK AO2 T10321075,KVLL,2018-03-24T07:35:00Z,42.55,-83.18,-3.2,-7.5,360,4,,10.0,30.33071,,,TRUE,TRUE,,,,,,,CLR,,,,,,,,VFR,,,,,,,,,,,,METAR,222.0
KVKS 240735Z AUTO 17011KT 10SM BKN027 BKN034 17/13 A3002 RMK A01,KVKS,2018-03-24T07:35:00Z,32.23,-90.93,17.0,13.0,170,11,,10.0,30.02067,,,TRUE,TRUE,,,,,,,BKN,2700,BKN,3400,,,,,MVFR,,,,,,,,,,,,METAR,32.0
KUNI 240735Z AUTO 00000KT 10SM CLR M04/M06 A3026 RMK AO2 T10401058,KUNI,2018-03-24T07:35:00Z,39.22,-82.23,-4.0,-5.8,0,0,,10.0,30.259842,,,TRUE,TRUE,,,,,,,CLR,,,,,,,,VFR,,,,,,,,,,,,METAR,193.0
KUKF 240735Z AUTO 00000KT 10SM OVC100 01/M02 A3024 RMK AO2,KUKF,2018-03-24T07:35:00Z,36.22,-81.1,1.0,-2.0,0,0,,10.0,30.239174,,,TRUE,TRUE,,,,,,,OVC,10000,,,,,,,VFR,,,,,,,,,,,,METAR,396.0
KUCY 240735Z AUTO 13008KT 10SM BKN060 OVC070 13/06 A2994 RMK A01,KUCY,2018-03-24T07:35:00Z,36.38,-88.98,13.0,6.0,130,8,,10.0,29.940945,,,TRUE,TRUE,,,,,,,BKN,6000,OVC,7000,,,,,VFR,,,,,,,,,,,,METAR,104.0
KTTA 240735Z AUTO 00000KT 10SM CLR M02/M03 A3020 RMK AO2 T10241035,KTTA,2018-03-24T07:35:00Z,35.58,-79.1,-2.4,-3.5,0,0,,10.0,30.200787,,,TRUE,TRUE,,,,,,,CLR,,,,,,,,VFR,,,,,,,,,,,,METAR,75.0
KTOB 240735Z AUTO 09019G22KT 10SM SCT090 01/M05 A3012 RMK AO2,KTOB,2018-03-24T07:35:00Z,44.02,-92.82,1.0,-5.0,90,19,22,10.0,30.121063,,,TRUE,TRUE,,,,,,,SCT,9000,,,,,,,VFR,,,,,,,,,,,,METAR,398.0
KTHA 240735Z AUTO 14007KT 10SM OVC075 09/05 A3007 RMK A01,KTHA,2018-03-24T07:35:00Z,35.38,-86.25,9.0,5.0,140,7,,10.0,30.070866,,,TRUE,TRUE,,,,,,,OVC,7500,,,,,,,VFR,,,,,,,,,,,,METAR,331.0
KTDF 240735Z AUTO 00000KT 10SM CLR M03/M04 A3022 RMK AO2,KTDF,2018-03-24T07:35:00Z,36.28,-78.98,-3.0,-4.0,0,0,,10.0,30.221457,,,TRUE,TRUE,,,,,,,CLR,,,,,,,,VFR,,,,,,,,,,,,METAR,186.0
KSZY 240735Z AUTO 20007G15KT 180V240 10SM OVC075 16/06 A2997 RMK A01,KSZY,2018-03-24T07:35:00Z,,,16.0,6.0,200,7,15,10.0,29.970472,,,TRUE,TRUE,,,,,,,OVC,7500,,,,,,,VFR,,,,,,,,,,,,METAR,
KSYI 240735Z AUTO 13006KT 10SM OVC075 10/05 A3007 RMK A01,KSYI,2018-03-24T07:35:00Z,35.57,-86.45,10.0,5.0,130,6,,10.0,30.070866,,,TRUE,TRUE,,,,,,,OVC,7500,,,,,,,VFR,,,,,,,,,,,,METAR,245.0
KSWW 240735Z AUTO 20014KT 10SM CLR 20/14 A2991 RMK AO2 T01990142,KSWW,2018-03-24T07:35:00Z,32.47,-100.47,19.9,14.2,200,14,,10.0,29.911417,,,TRUE,TRUE,,,,,,,CLR,,,,,,,,VFR,,,,,,,,,,,,METAR,727.0
KSVH 240735Z AUTO 00000KT 10SM OVC090 02/M02 A3018 RMK AO2 T00231021,KSVH,2018-03-24T07:35:00Z,35.75,-80.95,2.3,-2.1,0,0,,10.0,30.180119,,,TRUE,TRUE,,,,,,,OVC,9000,,,,,,,VFR,,,,,,,,,,,,METAR,294.0
KSRE 240735Z AUTO 20007G16KT 10SM FEW050 20/15 A2972 RMK AO2,KSRE,2018-03-24T07:35:00Z,35.27,-96.68,20.0,15.0,200,7,16,10.0,29.719488,,,TRUE,TRUE,,,,,,,FEW,5000,,,,,,,VFR,,,,,,,,,,,,METAR,312.0
KSRB 240735Z AUTO 15004KT 7SM FEW040 SCT049 BKN060 07/05 A3010 RMK A01,KSRB,2018-03-24T07:35:00Z,36.05,-85.53,7.0,5.0,150,4,,7.0,30.100393,,,TRUE,TRUE,,,,,,,FEW,4000,SCT,4900,BKN,6000,,,VFR,,,,,,,,,,,,METAR,313.0
KSNH 240735Z AUTO 18008KT 10SM OVC080 14/06 A2999 RMK A01,KSNH,2018-03-24T07:35:00Z,35.17,-88.22,14.0,6.0,180,8,,10.0,29.991142,,,TRUE,TRUE,,,,,,,OVC,8000,,,,,,,VFR,,,,,,,,,,,,METAR,144.0
KSLR 240735Z AUTO 21016KT 10SM CLR 19/15 A2988 RMK AO2 T01930146,KSLR,2018-03-24T07:35:00Z,33.17,-95.62,19.3,14.6,210,16,,10.0,29.878937,,,TRUE,TRUE,,,,,,,CLR,,,,,,,,VFR,,,,,,,,,,,,METAR,149.0
KSLH 240735Z AUTO 06009KT 10SM CLR M03/M10 A3041 RMK AO2 T10381102,KSLH,2018-03-24T07:35:00Z,45.65,-84.52,-3.8,-10.2,60,9,,10.0,30.410433,,,TRUE,TRUE,,,,,,,CLR,,,,,,,,VFR,,,,,,,,,,,,METAR,195.0
KSIF 240735Z AUTO 00000KT 10SM CLR M03/M05 A3020 RMK AO2 T10271047,KSIF,2018-03-24T07:35:00Z,36.43,-79.85,-2.7,-4.7,0,0,,10.0,30.200787,,,TRUE,TRUE,,,,,,,CLR,,,,,,,,VFR,,,,,,,,,,,,METAR,211.0
KSEP 240735Z AUTO 19010KT 10SM CLR 18/15 A2990 RMK AO2 T01800151,KSEP,2018-03-24T07:35:00Z,32.22,-98.17,18.0,15.1,190,10,,10.0,29.899607,,,TRUE,TRUE,,,,,,,CLR,,,,,,,,VFR,,,,,,,,,,,,METAR,402.0
KSCX 240735Z AUTO 00000KT 10SM FEW045 OVC055 04/02 A3013 RMK A01,KSCX,2018-03-24T07:35:00Z,36.45,-84.58,4.0,2.0,0,0,,10.0,30.129921,,,TRUE,TRUE,,,,,,,FEW,4500,OVC,5500,,,,,VFR,,,,,,,,,,,,METAR,471.0
KSCR 240735Z AUTO 00000KT 10SM CLR M01/M03 A3019 RMK AO2 T10111033,KSCR,2018-03-24T07:35:00Z,35.7,-79.5,-1.1,-3.3,0,0,,10.0,30.188976,,,TRUE,TRUE,,,,,,,CLR,,,,,,,,VFR,,,,,,,,,,,,METAR,188.0
KSAZ 240735Z AUTO 08008G15KT 053V113 10SM OVC090 M03/M11 A3019 RMK AO2,KSAZ,2018-03-24T07:35:00Z,46.37,-94.8,-3.0,-11.0,80,8,15,10.0,30.188976,,,TRUE,TRUE,,,,,,,OVC,9000,,,,,,,VFR,,,,,,,,,,,,METAR,392.0
KS52 240735Z AUTO 31003KT 10SM -SN SCT050 BKN060 OVC080 M01/M02 A2977 RMK AO2 T10091018,KS52,2018-03-24T07:35:00Z,48.38,-120.15,-0.9,-1.8,310,3,,10.0,29.769686,,,TRUE,TRUE,,,,,,-SN,SCT,5000,BKN,6000,OVC,8000,,,VFR,,,,,,,,,,,,METAR,520.0
KRZR 240735Z AUTO 00000KT 10SM FEW039 BKN065 OVC080 08/03 A3014 RMK A01,KRZR,2018-03-24T07:35:00Z,35.22,-84.8,8.0,3.0,0,0,,10.0,30.138779,,,TRUE,TRUE,,,,,,,FEW,3900,BKN,6500,OVC,8000,,,VFR,,,,,,,,,,,,METAR,263.0
KRYV 240735Z AUTO 06008KT 10SM CLR M01/M05 A3026 RMK AO2 T10131050,KRYV,2018-03-24T07:35:00Z,43.17,-88.72,-1.3,-5.0,60,8,,10.0,30.259842,,,TRUE,TRUE,,,,,,,CLR,,,,,,,,VFR,,,,,,,,,,,,METAR,254.0
KRUQ 240735Z AUTO 00000KT 10SM SCT100 01/M01 A3019 RMK AO2 T00121015,KRUQ,2018-03-24T07:35:00Z,35.65,-80.52,1.2,-1.5,0,0,,10.0,30.188976,,,TRUE,TRUE,,,,,,,SCT,10000,,,,,,,VFR,,,,,,,,,,,,METAR,236.0
KRTS 240735Z AUTO 23014G22KT 10SM SCT042 BKN049 01/M08 A2996 RMK AO2,KRTS,2018-03-24T07:35:00Z,39.67,-119.88,1.0,-8.0,230,14,22,10.0,29.958662,,,TRUE,TRUE,,,,,,,SCT,4200,BKN,4900,,,,,VFR,,,,,,,,,,,,METAR,1540.0
KRPD 240735Z AUTO 10009KT 10SM CLR M01/M09 A3028 RMK AO2 T10131091,KRPD,2018-03-24T07:35:00Z,45.42,-91.77,-1.3,-9.1,100,9,,10.0,30.280512,,,TRUE,TRUE,,,,,,,CLR,,,,,,,,VFR,,,,,,,,,,,,METAR,338.0
KRNP 240735Z AUTO 00000KT 10SM CLR M06/M09 A3033 RMK AO2 T10641090,KRNP,2018-03-24T07:35:00Z,43.0,-84.13,-6.4,-9.0,0,0,,10.0,30.33071,,,TRUE,TRUE,,,,,,,CLR,,,,,,,,VFR,,,,,,,,,,,,METAR,224.0
KRNC 240735Z AUTO 10005KT 10SM FEW050 BKN070 OVC085 08/04 A3009 RMK A01,KRNC,2018-03-24T07:35:00Z,35.7,-85.85,8.0,4.0,100,5,,10.0,30.088583,,,TRUE,TRUE,,,,,,,FEW,5000,BKN,7000,OVC,8500,,,VFR,,,,,,,,,,,,METAR,315.0
KRMY 240735Z AUTO 00000KT 10SM CLR M04/M10 A3029 RMK AO2 T10391100,KRMY,2018-03-24T07:35:00Z,42.23,-84.95,-3.9,-10.0,0,0,,10.0,30.28937,,,TRUE,TRUE,,,,,,,CLR,,,,,,,,VFR,,,,,,,,,,,,METAR,287.0
KRMN 240735Z AUTO 36005KT 10SM CLR 02/M06 A3024 RMK AO2 T00151065,KRMN,2018-03-24T07:35:00Z,38.4,-77.45,1.5,-6.5,360,5,,10.0,30.239174,,,TRUE,TRUE,,,,,,,CLR,,,,,,,,VFR,,,,,,,,,,,,METAR,65.0
KRLD 240735Z AUTO 00000KT 10SM SCT050 BKN070 OVC090 05/03 A2975 RMK AO2 T00530032,KRLD,2018-03-24T07:35:00Z,46.3,-119.3,5.3,3.2,0,0,,10.0,29.749016,,,TRUE,TRUE,,,,,,,SCT,5000,BKN,7000,OVC,9000,,,VFR,,,,,,,,,,,,METAR,120.0
KRKW 240735Z AUTO 00000KT 10SM OVC060 05/04 A3015 RMK A01,KRKW,2018-03-24T07:35:00Z,35.92,-84.68,5.0,4.0,0,0,,10.0,30.15059,,,TRUE,TRUE,,,,,,,OVC,6000,,,,,,,VFR,,,,,,,,,,,,METAR,508.0
KRKR 240735Z AUTO 19013G23KT 10SM SCT040 20/12 A2978 RMK AO2,KRKR,2018-03-24T07:35:00Z,35.02,-94.62,20.0,12.0,190,13,23,10.0,29.778543,,,TRUE,TRUE,,,,,,,SCT,4000,,,,,,,VFR,,,,,,,,,,,,METAR,138.0
KRHP 240735Z AUTO 00000KT 10SM OVC070 06/04 A3015 RMK AO2 T00640039,KRHP,2018-03-24T07:35:00Z,35.18,-83.85,6.4,3.9,0,0,,10.0,30.15059,,,TRUE,TRUE,,,,,,,OVC,7000,,,,,,,VFR,,,,,,,,,,,,METAR,518.0
KRGA 240735Z AUTO 07004KT 10SM OVC060 05/M03 A3018 RMK AO2,KRGA,2018-03-24T07:35:00Z,37.63,-84.33,5.0,-3.0,70,4,,10.0,30.180119,,,TRUE,TRUE,,,,,,,OVC,6000,,,,,,,VFR,,,,,,,,,,,,METAR,305.0
KREG 240735Z AUTO 17004KT 10SM SCT032 17/15 A3007 RMK AO2 T01690150 TSNO,KREG,2018-03-24T07:35:00Z,30.17,-90.93,16.9,15.0,170,4,,10.0,30.070866,,,TRUE,TRUE,,,TRUE,,,,SCT,3200,,,,,,,VFR,,,,,,,,,,,,METAR,4.0
KRCZ 240735Z AUTO 00000KT 10SM SCT100 04/00 A3020 RMK AO2 T00400001,KRCZ,2018-03-24T07:35:00Z,34.88,-79.77,4.0,0.1,0,0,,10.0,30.200787,,,TRUE,TRUE,,,,,,,SCT,10000,,,,,,,VFR,,,,,,,,,,,,METAR,109.0
KPZQ 240735Z AUTO 05010KT 10SM CLR M03/M10 A3042 RMK AO2 T10331100,KPZQ,2018-03-24T07:35:00Z,45.4,-83.82,-3.3,-10.0,50,10,,10.0,30.41929,,,TRUE,TRUE,,,,,,,CLR,,,,,,,,VFR,,,,,,,,,,,,METAR,204.0
KPXE 240735Z AUTO 00000KT 10SM CLR 08/06 A3017 RMK AO2 T00850055,KPXE,2018-03-24T07:35:00Z,32.52,-83.77,8.5,5.5,0,0,,10.0,30.171259,,,TRUE,TRUE,,,,,,,CLR,,,,,,,,VFR,,,,,,,,,,,,METAR,127.0
KPVE 240735Z AUTO 13003KT 10SM OVC080 13/05 A2998 RMK A01,KPVE,2018-03-24T07:35:00Z,35.65,-88.2,13.0,5.0,130,3,,10.0,29.97933,,,TRUE,TRUE,,,,,,,OVC,8000,,,,,,,VFR,,,,,,,,,,,,METAR,149.0
KPPQ 240735Z AUTO 08010G15KT 5SM RA OVC005 05/05 A2998 RMK AO2 P0005 T00510047,KPPQ,2018-03-24T07:35:00Z,39.63,-90.78,5.1,4.7,80,10,15,5.0,29.97933,,,TRUE,TRUE,,,,,,RA,OVC,500,,,,,,,IFR,,,,,,0.05,,,,,,METAR,216.0
KPPO 240735Z AUTO 09007KT 10SM CLR M01/M07 A3027 RMK AO2 T10111071,KPPO,2018-03-24T07:35:00Z,41.57,-86.73,-1.1,-7.1,90,7,,10.0,30.268702,,,TRUE,TRUE,,,,,,,CLR,,,,,,,,VFR,,,,,,,,,,,,METAR,248.0
KPMV 240735Z AUTO 04005KT 5SM DZ OVC009 06/06 A2978 RMK AO2 T00560056,KPMV,2018-03-24T07:35:00Z,40.95,-95.92,5.6,5.6,40,5,,5.0,29.778543,,,TRUE,TRUE,,,,,,DZ,OVC,900,,,,,,,IFR,,,,,,,,,,,,METAR,367.0
KPHT 240735Z AUTO 11009G15KT 10SM BKN060 BKN070 OVC080 11/06 A2996 RMK A01,KPHT,2018-03-24T07:35:00Z,36.33,-88.38,11.0,6.0,110,9,15,10.0,29.958662,,,TRUE,TRUE,,,,,,,BKN,6000,BKN,7000,OVC,8000,,,VFR,,,,,,,,,,,,METAR,177.0
KPEX 240735Z AUTO 06011G17KT 10SM BKN080 OVC090 00/M06 A3015 RMK AO2 T10051065,KPEX,2018-03-24T07:35:00Z,45.37,-94.73,-0.5,-6.5,60,11,17,10.0,30.15059,,,TRUE,TRUE,,,,,,,BKN,8000,OVC,9000,,,,,VFR,,,,,,,,,,,,METAR,360.0
KPEQ 240735Z AUTO 23008KT 10SM CLR 18/M06 A2993 RMK AO2 T01751060,KPEQ,2018-03-24T07:35:00Z,31.38,-103.52,17.5,-6.0,230,8,,10.0,29.929134,,,TRUE,TRUE,,,,,,,CLR,,,,,,,,VFR,,,,,,,,,,,,METAR,797.0
KPCW 240735Z AUTO 05007G13KT 10SM CLR M02/M05 A3030 RMK AO2,KPCW,2018-03-24T07:35:00Z,41.52,-82.87,-2.0,-5.0,50,7,13,10.0,30.301182,,,TRUE,TRUE,,,,,,,CLR,,,,,,,,VFR,,,,,,,,,,,,METAR,178.0
KOZW 240735Z AUTO 00000KT 10SM CLR M05/M08 A3031 RMK AO2 T10481078,KOZW,2018-03-24T07:35:00Z,42.62,-83.97,-4.8,-7.8,0,0,,10.0,30.31004,,,TRUE,TRUE,,,,,,,CLR,,,,,,,,VFR,,,,,,,,,,,,METAR,293.0
KOZA 240735Z AUTO 00000KT 10SM CLR 13/11 A2996 RMK AO2,KOZA,2018-03-24T07:35:00Z,30.73,-101.2,13.0,11.0,0,0,,10.0,29.958662,,,TRUE,TRUE,,,,,,,CLR,,,,,,,,VFR,,,,,,,,,,,,METAR,726.0
KOXI 240735Z AUTO 09008KT 10SM CLR 00/M07 A3025 RMK AO1,KOXI,2018-03-24T07:35:00Z,41.33,-86.67,0.0,-7.0,90,8,,10.0,30.250984,,,TRUE,TRUE,,,,,,,CLR,,,,,,,,VFR,,,,,,,,,,,,METAR,209.0
KOSA 240735Z AUTO 19011G15KT 10SM CLR 18/15 A2990 RMK AO1 T01820150,KOSA,2018-03-24T07:35:00Z,33.1,-94.97,18.2,15.0,190,11,15,10.0,29.899607,,,TRUE,TRUE,,,,,,,CLR,,,,,,,,VFR,,,,,,,,,,,,METAR,111.0
KOPN 240735Z AUTO 17003KT SCT110 08/03 A3017 RMK AO2 PWINO,KOPN,2018-03-24T07:35:00Z,32.95,-84.27,8.0,3.0,170,3,,,30.171259,,,TRUE,TRUE,,,,,TRUE,,SCT,11000,,,,,,,,,,,,,,,,,,,METAR,243.0
KONZ 240735Z AUTO 01003KT 10SM CLR M03/M07 A3031 RMK AO2 T10331067,KONZ,2018-03-24T07:35:00Z,42.1,-83.15,-3.3,-6.7,10,3,,10.0,30.31004,,,TRUE,TRUE,,,,,,,CLR,,,,,,,,VFR,,,,,,,,,,,,METAR,180.0
KONP 240735Z AUTO 18009KT 10SM SCT012 BKN019 OVC060 02/02 A2988 RMK AO2,KONP,2018-03-24T07:35:00Z,44.57,-124.03,2.0,2.0,180,9,,10.0,29.878937,,,TRUE,TRUE,,,,,,,SCT,1200,BKN,1900,OVC,6000,,,MVFR,,,,,,,,,,,,METAR,48.0
KONM 240735Z AUTO 30009KT 10SM CLR 14/M05 A3009 RMK AO2 T01351048,KONM,2018-03-24T07:35:00Z,34.02,-106.9,13.5,-4.8,300,9,,10.0,30.088583,,,TRUE,TRUE,,,,,,,CLR,,,,,,,,VFR,,,,,,,,,,,,METAR,1410.0
KONL 240735Z AUTO 02004KT 5SM BR OVC004 04/04 A2988 RMK AO2 T00420038,KONL,2018-03-24T07:35:00Z,42.47,-98.67,4.2,3.8,20,4,,5.0,29.878937,,,TRUE,TRUE,,,,,,BR,OVC,400,,,,,,,LIFR,,,,,,,,,,,,METAR,619.0
KOMH 240735Z AUTO 00000KT 10SM CLR M01/M06 A3022 RMK AO2,KOMH,2018-03-24T07:35:00Z,38.25,-78.05,-1.0,-6.0,0,0,,10.0,30.221457,,,TRUE,TRUE,,,,,,,CLR,,,,,,,,VFR,,,,,,,,,,,,METAR,142.0
KOLY 240735Z AUTO 09012G20KT 4SM RA OVC010 05/04 A3009 RMK AO2 P0006 T00460035,KOLY,2018-03-24T07:35:00Z,38.72,-88.18,4.6,3.5,90,12,20,4.0,30.088583,,,TRUE,TRUE,,,,,,RA,OVC,1000,,,,,,,MVFR,,,,,,0.06,,,,,,METAR,147.0
KOLG 240735Z AUTO 05007KT 10SM CLR M06/M12 A3032 RMK AO1,KOLG,2018-03-24T07:35:00Z,46.3,-91.82,-6.0,-12.0,50,7,,10.0,30.318897,,,TRUE,TRUE,,,,,,,CLR,,,,,,,,VFR,,,,,,,,,,,,METAR,336.0
KOKV 240735Z AUTO 00000KT 10SM CLR M02/M08 A3021 RMK AO2,KOKV,2018-03-24T07:35:00Z,39.13,-78.15,-2.0,-8.0,0,0,,10.0,30.209646,,,TRUE,TRUE,,,,,,,CLR,,,,,,,,VFR,,,,,,,,,,,,METAR,222.0
KOKM 240735Z AUTO 21013G21KT 10SM CLR 20/16 A2972 RMK AO2 T02010157,KOKM,2018-03-24T07:35:00Z,35.67,-95.95,20.1,15.7,210,13,21,10.0,29.719488,,,TRUE,TRUE,,,,,,,CLR,,,,,,,,VFR,,,,,,,,,,,,METAR,220.0
KOGA 240735Z AUTO 00000KT 10SM CLR 06/03 A2993 RMK AO2 T00610031,KOGA,2018-03-24T07:35:00Z,41.12,-101.77,6.1,3.1,0,0,,10.0,29.929134,,,TRUE,TRUE,,,,,,,CLR,,,,,,,,VFR,,,,,,,,,,,,METAR,999.0
KOEO 240735Z AUTO 10012G16KT 10SM CLR 00/M08 A3026 RMK AO2 T00011077,KOEO,2018-03-24T07:35:00Z,45.32,-92.7,0.1,-7.7,100,12,16,10.0,30.259842,,,TRUE,TRUE,,,,,,,CLR,,,,,,,,VFR,,,,,,,,,,,,METAR,275.0
KOEB 240735Z AUTO 09004KT 10SM CLR M02/M09 A3030 RMK AO2 T10211090,KOEB,2018-03-24T07:35:00Z,41.92,-85.03,-2.1,-9.0,90,4,,10.0,30.301182,,,TRUE,TRUE,,,,,,,CLR,,,,,,,,VFR,,,,,,,,,,,,METAR,292.0
KOCW 240735Z AUTO 36003KT 10SM CLR 02/M03 A3020 RMK AO2 T00201035,KOCW,2018-03-24T07:35:00Z,35.57,-77.05,2.0,-3.5,360,3,,10.0,30.200787,,,TRUE,TRUE,,,,,,,CLR,,,,,,,,VFR,,,,,,,,,,,,METAR,12.0
KOCQ 240735Z AUTO 02005KT 10SM CLR M06/M11 A3038 RMK AO1 T10581106,KOCQ,2018-03-24T07:35:00Z,44.87,-87.92,-5.8,-10.6,20,5,,10.0,30.380905,,,TRUE,TRUE,,,,,,,CLR,,,,,,,,VFR,,,,,,,,,,,,METAR,183.0
KNQA 240735Z AUTO 15009KT 10SM OVC065 18/08 A2993 RMK A01,KNQA,2018-03-24T07:35:00Z,35.35,-89.87,18.0,8.0,150,9,,10.0,29.929134,,,TRUE,TRUE,,,,,,,OVC,6500,,,,,,,VFR,,,,,,,,,,,,METAR,86.0
KN38 240735Z AUTO 31008KT 10SM CLR M03/M08 A3011 RMK AO2,KN38,2018-03-24T07:35:00Z,41.73,-77.4,-3.0,-8.0,310,8,,10.0,30.109253,,,TRUE,TRUE,,,,,,,CLR,,,,,,,,VFR,,,,,,,,,,,,METAR,577.0
KMZZ 240735Z AUTO 00000KT 10SM CLR 00/M05 A3026 RMK AO2 T00001055,KMZZ,2018-03-24T07:35:00Z,40.48,-85.68,0.0,-5.5,0,0,,10.0,30.259842,,,TRUE,TRUE,,,,,,,CLR,,,,,,,,VFR,,,,,,,,,,,,METAR,262.0
KMWO 240735Z AUTO 06006KT 10SM CLR 01/M06 A3027 RMK AO2 T00051055,KMWO,2018-03-24T07:35:00Z,39.53,-84.4,0.5,-5.5,60,6,,10.0,30.268702,,,TRUE,TRUE,,,,,,,CLR,,,,,,,,VFR,,,,,,,,,,,,METAR,198.0
KMWK 240735Z AUTO 00000KT 10SM SCT120 02/M05 A3021 RMK AO2 T00221052,KMWK,2018-03-24T07:35:00Z,36.47,-80.55,2.2,-5.2,0,0,,10.0,30.209646,,,TRUE,TRUE,,,,,,,SCT,12000,,,,,,,VFR,,,,,,,,,,,,METAR,380.0
KMWC 240735Z AUTO 06006KT 10SM CLR 00/M06 A3029 RMK AO2,KMWC,2018-03-24T07:35:00Z,43.12,-88.03,0.0,-6.0,60,6,,10.0,30.28937,,,TRUE,TRUE,,,,,,,CLR,,,,,,,,VFR,,,,,,,,,,,,METAR,227.0
KMWA 240735Z AUTO 10009KT 7SM -RA OVC005 06/06 A3000 RMK AO2 T00630061,KMWA,2018-03-24T07:35:00Z,37.77,-89.02,6.3,6.1,100,9,,7.0,30.0,,,TRUE,TRUE,,,,,,-RA,OVC,500,,,,,,,IFR,,,,,,,,,,,,METAR,144.0
KMVH 240735Z AUTO 00000KT 10SM CLR M00/M05 A2991 RMK AO2,KMVH,2018-03-24T07:35:00Z,46.83,-108.93,0.0,-5.0,0,0,,10.0,29.911417,,,TRUE,TRUE,,,,,,,CLR,,,,,,,,VFR,,,,,,,,,,,,METAR,1355.0
KMVE 240735Z AUTO 13016G27KT 1SM -SN OVC006 M01/M01 A3009 RMK AO2,KMVE,2018-03-24T07:35:00Z,44.97,-95.72,-1.0,-1.0,130,16,27,1.0,30.088583,,,TRUE,TRUE,,,,,,-SN,OVC,600,,,,,,,IFR,,,,,,,,,,,,METAR,315.0
KMRJ 240735Z AUTO 07012G18KT 10SM UP CLR 00/M06 A3019 RMK AO2,KMRJ,2018-03-24T07:35:00Z,42.88,-90.23,0.0,-6.0,70,12,18,10.0,30.188976,,,TRUE,TRUE,,,,,,UP,CLR,,,,,,,,VFR,,,,,,,,,,,,METAR,359.0
KMRC 240735Z AUTO 08004KT 10SM OVC065 10/08 A3002 RMK A01,KMRC,2018-03-24T07:35:00Z,35.55,-87.18,10.0,8.0,80,4,,10.0,30.02067,,,TRUE,TRUE,,,,,,,OVC,6500,,,,,,,VFR,,,,,,,,,,,,METAR,208.0
KMQS 240735Z AUTO 31012KT 10SM CLR M00/M09 A3014 RMK AO2,KMQS,2018-03-24T07:35:00Z,39.98,-75.87,0.0,-9.0,310,12,,10.0,30.138779,,,TRUE,TRUE,,,,,,,CLR,,,,,,,,VFR,,,,,,,,,,,,METAR,201.0
KMQB 240735Z AUTO 08018KT 4SM -RA OVC007 00/00 A3007 RMK AO2 P0006 T00030000,KMQB,2018-03-24T07:35:00Z,40.52,-90.65,0.3,0.0,80,18,,4.0,30.070866,,,TRUE,TRUE,,,,,,-RA,OVC,700,,,,,,,IFR,,,,,,0.06,,,,,,METAR,215.0
KMOR 240735Z AUTO 00000KT 10SM FEW042 BKN055 OVC065 06/00 A3015 RMK A01,KMOR,2018-03-24T07:35:00Z,36.18,-83.37,6.0,0.0,0,0,,10.0,30.15059,,,TRUE,TRUE,,,,,,,FEW,4200,BKN,5500,OVC,6500,,,VFR,,,,,,,,,,,,METAR,400.0
KMNZ 240735Z AUTO 19008KT 10SM CLR 17/16 A2993 RMK AO2 T01730162,KMNZ,2018-03-24T07:35:00Z,31.67,-98.15,17.3,16.2,190,8,,10.0,29.929134,,,TRUE,TRUE,,,,,,,CLR,,,,,,,,VFR,,,,,,,,,,,,METAR,396.0
KMLE 240735Z AUTO 04004KT 7SM -DZ BKN006 OVC023 06/05 A2981 RMK AO2 P0003 T00580050,KMLE,2018-03-24T07:35:00Z,41.2,-96.12,5.8,5.0,40,4,,7.0,29.811024,,,TRUE,TRUE,,,,,,-DZ,BKN,600,OVC,2300,,,,,IFR,,,,,,0.03,,,,,,METAR,320.0
KMKN 240735Z AUTO 18008KT 10SM CLR 18/17 A2989 RMK AO2 T01830166,KMKN,2018-03-24T07:35:00Z,31.92,-98.6,18.3,16.6,180,8,,10.0,29.890747,,,TRUE,TRUE,,,,,,,CLR,,,,,,,,VFR,,,,,,,,,,,,METAR,423.0
KMGN 240735Z AUTO 06006KT 10SM CLR M03/M11 A3041 RMK AO2 T10371114,KMGN,2018-03-24T07:35:00Z,45.43,-84.92,-3.7,-11.4,60,6,,10.0,30.410433,,,TRUE,TRUE,,,,,,,CLR,,,,,,,,VFR,,,,,,,,,,,,METAR,209.0
KMEV 240735Z AUTO 26014G24KT 10SM CLR 02/M11 A2996 RMK AO2,KMEV,2018-03-24T07:35:00Z,38.98,-119.75,2.0,-11.0,260,14,24,10.0,29.958662,,,TRUE,TRUE,,,,,,,CLR,,,,,,,,VFR,,,,,,,,,,,,METAR,1439.0
KMDZ 240735Z AUTO 09009KT 10SM CLR M05/M13 A3027 RMK AO2 T10501127,KMDZ,2018-03-24T07:35:00Z,45.1,-90.3,-5.0,-12.7,90,9,,10.0,30.268702,,,TRUE,TRUE,,,,,,,CLR,,,,,,,,VFR,,,,,,,,,,,,METAR,448.0
KM91 240735Z AUTO 11007G13KT 070V130 OVC070 07/06 A3003 RMK A01,KM91,2018-03-24T07:35:00Z,36.53,-86.92,7.0,6.0,110,7,13,,30.029528,,,TRUE,TRUE,,,,,,,OVC,7000,,,,,,,,,,,,,,,,,,,METAR,215.0
KM75 240735Z AUTO 08008KT 10SM BKN075 OVC100 M02/M02 A2991 RMK A01,KM75,2018-03-24T07:35:00Z,48.37,-107.92,-2.0,-2.0,80,8,,10.0,29.911417,,,TRUE,TRUE,,,,,,,BKN,7500,OVC,10000,,,,,VFR,,,,,,,,,,,,METAR,687.0
KM33 240735Z AUTO 07007KT 10SM OVC070 07/06 A3011 RMK A01,KM33,2018-03-24T07:35:00Z,36.38,-86.42,7.0,6.0,70,7,,10.0,30.109253,,,TRUE,TRUE,,,,,,,OVC,7000,,,,,,,VFR,,,,,,,,,,,,METAR,178.0
KM08 240735Z AUTO 16009KT 10SM BKN065 OVC070 16/07 A2996 RMK A01,KM08,2018-03-24T07:35:00Z,35.22,-89.05,16.0,7.0,160,9,,10.0,29.958662,,,TRUE,TRUE,,,,,,,BKN,6500,OVC,7000,,,,,VFR,,,,,,,,,,,,METAR,152.0
KM04 240735Z AUTO 19006KT 10SM OVC070 17/08 A2994 RMK A01,KM04,2018-03-24T07:35:00Z,35.58,-89.58,17.0,8.0,190,6,,10.0,29.940945,,,TRUE,TRUE,,,,,,,OVC,7000,,,,,,,VFR,,,,,,,,,,,,METAR,85.0
KLXN 240735Z AUTO 30007KT 4SM BR SCT009 OVC024 05/04 A2985 RMK AO2 T00490038,KLXN,2018-03-24T07:35:00Z,40.78,-99.77,4.9,3.8,300,7,,4.0,29.84941,,,TRUE,TRUE,,,,,,BR,SCT,900,OVC,2400,,,,,MVFR,,,,,,,,,,,,METAR,734.0
KI63 240735Z AUTO 09020G25KT 5SM -RA OVC004 02/02 A2998 RMK AO2 LTG DSNT E P0001 T00240018,KI63,2018-03-24T07:35:00Z,39.98,-90.8,2.4,1.8,90,20,25,5.0,29.97933,,,TRUE,TRUE,,,,,,-RA,OVC,400,,,,,,,LIFR,,,,,,0.01,,,,,,METAR,223.0
KI35 240735Z AUTO 00000KT 10SM BKN040 OVC045 05/M01 A3017 RMK AO1,KI35,2018-03-24T07:35:00Z,36.87,-83.37,5.0,-1.0,0,0,,10.0,30.171259,,,TRUE,TRUE,,,,,,,BKN,4000,OVC,4500,,,,,VFR,,,,,,,,,,,,METAR,473.0
KI16 240735Z AUTO 10SM M03/M05 A3024 RMK AO2 T10341049,KI16,2018-03-24T07:35:00Z,37.6,-81.57,-3.4,-4.9,,,,10.0,30.239174,,,TRUE,TRUE,,,,,,,,,,,,,,,,,,,,,,,,,,,METAR,544.0
KHZR 240735Z AUTO 16007KT 10SM SCT031 16/15 A3005 RMK AO2 T01640145,KHZR,2018-03-24T07:35:00Z,30.72,-91.48,16.4,14.5,160,7,,10.0,30.050198,,,TRUE,TRUE,,,,,,,SCT,3100,,,,,,,VFR,,,,,,,,,,,,METAR,12.0
KHZD 240735Z AUTO 12006KT 10SM BKN060 OVC075 12/06 A2996 RMK A01,KHZD,2018-03-24T07:35:00Z,36.08,-88.47,12.0,6.0,120,6,,10.0,29.958662,,,TRUE,TRUE,,,,,,,BKN,6000,OVC,7500,,,,,VFR,,,,,,,,,,,,METAR,151.0
KHYX 240735Z AUTO 27004KT 10SM CLR M07/M08 A3034 RMK AO2,KHYX,2018-03-24T07:35:00Z,43.43,-83.87,-7.0,-8.0,270,4,,10.0,30.339567,,,TRUE,TRUE,,,,,,,CLR,,,,,,,,VFR,,,,,,,,,,,,METAR,183.0
KHWY 240735Z AUTO 34005KT 10SM CLR 02/M09 A3020 RMK AO2 T00211088,KHWY,2018-03-24T07:35:00Z,38.58,-77.72,2.1,-8.8,340,5,,10.0,30.200787,,,TRUE,TRUE,,,,,,,CLR,,,,,,,,VFR,,,,,,,,,,,,METAR,103.0
KHTH 240735Z AUTO 21014KT 10SM CLR 08/M15 A2986 RMK A01,KHTH,2018-03-24T07:35:00Z,,,8.0,-15.0,210,14,,10.0,29.861221,,,TRUE,TRUE,,,,,,,CLR,,,,,,,,VFR,,,,,,,,,,,,METAR,
KHQZ 240735Z AUTO 19015G19KT 10SM OVC020 19/15 A2988 RMK AO1 T01890154,KHQZ,2018-03-24T07:35:00Z,32.75,-96.53,18.9,15.4,190,15,19,10.0,29.878937,,,TRUE,TRUE,,,,,,,OVC,2000,,,,,,,MVFR,,,,,,,,,,,,METAR,136.0
KHQU 240735Z AUTO 13003KT 10SM OVC080 11/06 A3021 RMK AO2 T01120058,KHQU,2018-03-24T07:35:00Z,33.53,-82.52,11.2,5.8,130,3,,10.0,30.209646,,,TRUE,TRUE,,,,,,,OVC,8000,,,,,,,VFR,,,,,,,,,,,,METAR,152.0
KHOE 240735Z AUTO 00000KT 10SM CLR 08/06 A3020 RMK AO2,KHOE,2018-03-24T07:35:00Z,31.05,-82.78,8.0,6.0,0,0,,10.0,30.200787,,,TRUE,TRUE,,,,,,,CLR,,,,,,,,VFR,,,,,,,,,,,,METAR,57.0
KHMZ 240735Z AUTO 34005KT 10SM CLR M03/M09 A3018 RMK AO2 T10351087,KHMZ,2018-03-24T07:35:00Z,40.08,-78.52,-3.5,-8.7,340,5,,10.0,30.180119,,,TRUE,TRUE,,,,,,,CLR,,,,,,,,VFR,,,,,,,,,,,,METAR,354.0
KHLX 240735Z AUTO 00000KT 10SM CLR 00/M09 A3014 RMK AO2 T10011091,KHLX,2018-03-24T07:35:00Z,36.77,-80.82,-0.1,-9.1,0,0,,10.0,30.138779,,,TRUE,TRUE,,,,,,,CLR,,,,,,,,VFR,,,,,,,,,,,,METAR,834.0
KHLB 240735Z AUTO 10SM SCT075 OVC100 02/M05 A3022 RMK A01,KHLB,2018-03-24T07:35:00Z,,,2.0,-5.0,,,,10.0,30.221457,,,TRUE,TRUE,,,,,,,SCT,7500,OVC,10000,,,,,VFR,,,,,,,,,,,,METAR,
KHJH 240735Z AUTO 01009KT 7SM SCT008 BKN015 OVC020 08/06 A2977 RMK AO2 T00760061,KHJH,2018-03-24T07:35:00Z,40.15,-97.58,7.6,6.1,10,9,,7.0,29.769686,,,TRUE,TRUE,,,,,,,SCT,800,BKN,1500,OVC,2000,,,MVFR,,,,,,,,,,,,METAR,447.0
KHHF 240735Z AUTO 35008G14KT 10SM CLR 17/02 A2985 RMK AO2 T01650019,KHHF,2018-03-24T07:35:00Z,35.9,-100.4,16.5,1.9,350,8,14,10.0,29.84941,,,TRUE,TRUE,,,,,,,CLR,,,,,,,,VFR,,,,,,,,,,,,METAR,712.0
KHCO 240735Z AUTO 14015KT 2 1/2SM -SN BKN013 OVC021 M02/M03 A3022 RMK AO2,KHCO,2018-03-24T07:35:00Z,48.75,-96.93,-2.0,-3.0,140,15,,2.5,30.221457,,,TRUE,TRUE,,,,,,-SN,BKN,1300,OVC,2100,,,,,IFR,,,,,,,,,,,,METAR,250.0
KHCD 240735Z AUTO 08016G21KT 10SM BKN080 OVC100 02/M06 A3013 RMK AO2 T00201061,KHCD,2018-03-24T07:35:00Z,44.87,-94.38,2.0,-6.1,80,16,21,10.0,30.129921,,,TRUE,TRUE,,,,,,,BKN,8000,OVC,10000,,,,,VFR,,,,,,,,,,,,METAR,323.0
KGZS 240735Z AUTO 00000KT 10SM OVC070 12/07 A3005 RMK A01,KGZS,2018-03-24T07:35:00Z,35.15,-87.05,12.0,7.0,0,0,,10.0,30.050198,,,TRUE,TRUE,,,,,,,OVC,7000,,,,,,,VFR,,,,,,,,,,,,METAR,209.0
KGYY 240735Z AUTO 10010KT 10SM CLR 02/M08 A3024 RMK AO2 T00201085,KGYY,2018-03-24T07:35:00Z,41.62,-87.42,2.0,-8.5,100,10,,10.0,30.239174,,,TRUE,TRUE,,,,,,,CLR,,,,,,,,VFR,,,,,,,,,,,,METAR,180.0
KGYI 240735Z AUTO 20019G26KT 10SM CLR 19/15 A2981 RMK AO2 T01920153,KGYI,2018-03-24T07:35:00Z,33.72,-96.67,19.2,15.3,200,19,26,10.0,29.811024,,,TRUE,TRUE,,,,,,,CLR,,,,,,,,VFR,,,,,,,,,,,,METAR,228.0
KGRN 240735Z AUTO 34009KT 10SM CLR 02/01 A2994 RMK AO2 T00220005,KGRN,2018-03-24T07:35:00Z,42.8,-102.17,2.2,0.5,340,9,,10.0,29.940945,,,TRUE,TRUE,,,,,,,CLR,,,,,,,,VFR,,,,,,,,,,,,METAR,1086.0
KGPM 240735Z AUTO 18010G19KT 10SM CLR 19/15 A2987 RMK AO2 T01910148,KGPM,2018-03-24T07:35:00Z,32.7,-97.05,19.1,14.8,180,10,19,10.0,29.870079,,,TRUE,TRUE,,,,,,,CLR,,,,,,,,VFR,,,,,,,,,,,,METAR,180.0
KGOP 240735Z AUTO 19008KT 10SM BKN016 19/16 A2993 RMK AO2,KGOP,2018-03-24T07:35:00Z,31.42,-97.8,19.0,16.0,190,8,,10.0,29.929134,,,TRUE,TRUE,,,,,,,BKN,1600,,,,,,,MVFR,,,,,,,,,,,,METAR,276.0
KGNC 240735Z AUTO 32007KT 10SM CLR 17/M03 A2995 RMK AO2 T01651028,KGNC,2018-03-24T07:35:00Z,32.68,-102.65,16.5,-2.8,320,7,,10.0,29.949802,,,TRUE,TRUE,,,,,,,CLR,,,,,,,,VFR,,,,,,,,,,,,METAR,1010.0
KGKT 240735Z AUTO 07004KT 10SM FEW050 OVC055 06/03 A3017 RMK A01,KGKT,2018-03-24T07:35:00Z,35.85,-83.53,6.0,3.0,70,4,,10.0,30.171259,,,TRUE,TRUE,,,,,,,FEW,5000,OVC,5500,,,,,VFR,,,,,,,,,,,,METAR,309.0
KGHG 240735Z AUTO 33005KT 10SM CLR 03/M03 A2997 RMK AO2,KGHG,2018-03-24T07:35:00Z,42.1,-70.67,3.0,-3.0,330,5,,10.0,29.970472,,,TRUE,TRUE,,,,,,,CLR,,,,,,,,VFR,,,,,,,,,,,,METAR,4.0
KFYM 240735Z AUTO 16009KT 10SM BKN070 OVC085 12/05 A3006 RMK A01,KFYM,2018-03-24T07:35:00Z,35.07,-86.57,12.0,5.0,160,9,,10.0,30.059055,,,TRUE,TRUE,,,,,,,BKN,7000,OVC,8500,,,,,VFR,,,,,,,,,,,,SPECI,300.0
KFYJ 240735Z AUTO 29004KT 10SM CLR 01/M06 A3022 RMK AO2 T00111064,KFYJ,2018-03-24T07:35:00Z,37.52,-76.77,1.1,-6.4,290,4,,10.0,30.221457,,,TRUE,TRUE,,,,,,,CLR,,,,,,,,VFR,,,,,,,,,,,,SPECI,7.0
KFYE 240735Z AUTO 18009G15KT 10SM OVC070 18/07 A2995 RMK A01,KFYE,2018-03-24T07:35:00Z,35.2,-89.38,18.0,7.0,180,9,15,10.0,29.949802,,,TRUE,TRUE,,,,,,,OVC,7000,,,,,,,VFR,,,,,,,,,,,,SPECI,133.0
KFWS 240735Z AUTO 19014G21KT 10SM CLR 19/16 A2987 RMK AO2 T01900155,KFWS,2018-03-24T07:35:00Z,32.57,-97.3,19.0,15.5,190,14,21,10.0,29.870079,,,TRUE,TRUE,,,,,,,CLR,,,,,,,,VFR,,,,,,,,,,,,METAR,208.0
KFWC 240735Z AUTO 10009G14KT 5SM -RA OVC007 05/05 A3004 RMK AO1 P0001 T00510051,KFWC,2018-03-24T07:35:00Z,38.38,-88.42,5.1,5.1,100,9,14,5.0,30.041338,,,TRUE,TRUE,,,,,,-RA,OVC,700,,,,,,,IFR,,,,,,0.01,,,,,,SPECI,133.0
KFVX 240735Z AUTO 00000KT 10SM CLR M02/M05 A3021 RMK AO2 T10241047,KFVX,2018-03-24T07:35:00Z,37.35,-78.42,-2.4,-4.7,0,0,,10.0,30.209646,,,TRUE,TRUE,,,,,,,CLR,,,,,,,,VFR,,,,,,,,,,,,SPECI,125.0
KLXL 240735Z AUTO 07008KT 10SM BKN120 M01/M12 A3020 RMK AO2,KLXL,2018-03-24T07:35:00Z,45.95,-94.33,-1.0,-12.0,70,8,,10.0,30.200787,,,TRUE,TRUE,,,,,,,BKN,12000,,,,,,,VFR,,,,,,,,,,,,METAR,342.0
KLUD 240735Z AUTO 19011G18KT 10SM CLR 20/16 A2982 RMK AO2 T01950156,KLUD,2018-03-24T07:35:00Z,33.25,-97.58,19.5,15.6,190,11,18,10.0,29.819881,,,TRUE,TRUE,,,,,,,CLR,,,,,,,,VFR,,,,,,,,,,,,METAR,319.0
KLOT 240735Z AUTO 09012KT 10SM CLR 01/M03 A3021 RMK AO2 T00121032,KLOT,2018-03-24T07:35:00Z,41.6,-88.1,1.2,-3.2,90,12,,10.0,30.209646,,,TRUE,TRUE,,,,,,,CLR,,,,,,,,VFR,,,,,,,,,,,,METAR,205.0
KLOM 240735Z AUTO 30003KT 10SM CLR 00/M07 A3014 RMK AO1,KLOM,2018-03-24T07:35:00Z,40.13,-75.27,0.0,-7.0,300,3,,10.0,30.138779,,,TRUE,TRUE,,,,,,,CLR,,,,,,,,VFR,,,,,,,,,,,,METAR,92.0
KLNN 240735Z AUTO 00000KT 10SM CLR M04/M05 A3028 RMK AO1 T10401055,KLNN,2018-03-24T07:35:00Z,41.67,-81.37,-4.0,-5.5,0,0,,10.0,30.280512,,,TRUE,TRUE,,,,,,,CLR,,,,,,,,VFR,,,,,,,,,,,,METAR,191.0
KLKU 240735Z AUTO 01005KT 10SM CLR 01/M08 A3025 RMK AO2 T00081082,KLKU,2018-03-24T07:35:00Z,38.02,-77.97,0.8,-8.2,10,5,,10.0,30.250984,,,TRUE,TRUE,,,,,,,CLR,,,,,,,,VFR,,,,,,,,,,,,METAR,150.0
KLJF 240735Z AUTO 08013KT 10SM BKN080 OVC085 02/M07 A3013 RMK AO2,KLJF,2018-03-24T07:35:00Z,45.1,-94.52,2.0,-7.0,80,13,,10.0,30.129921,,,TRUE,TRUE,,,,,,,BKN,8000,OVC,8500,,,,,VFR,,,,,,,,,,,,METAR,348.0
KLHZ 240735Z AUTO 00000KT 10SM CLR M01/M03 A3023 RMK AO2,KLHZ,2018-03-24T07:35:00Z,36.02,-78.33,-1.0,-3.0,0,0,,10.0,30.230314,,,TRUE,TRUE,,,,,,,CLR,,,,,,,,VFR,,,,,,,,,,,,METAR,113.0
KLHM 240735Z AUTO 15007KT 10SM SCT065 BKN090 09/05 A3011 RMK AO1,KLHM,2018-03-24T07:35:00Z,38.92,-121.35,9.0,5.0,150,7,,10.0,30.109253,,,TRUE,TRUE,,,,,,,SCT,6500,BKN,9000,,,,,VFR,,,,,,,,,,,,METAR,37.0
KLCQ 240735Z AUTO 00000KT 10SM CLR 07/05 A3020 RMK AO2,KLCQ,2018-03-24T07:35:00Z,30.18,-82.58,7.0,5.0,0,0,,10.0,30.200787,,,TRUE,TRUE,,,,,,,CLR,,,,,,,,VFR,,,,,,,,,,,,METAR,61.0
KLCG 240735Z AUTO 07009KT 10SM -DZ OVC006 03/02 A2988 RMK AO2 T00270022,KLCG,2018-03-24T07:35:00Z,42.25,-96.98,2.7,2.2,70,9,,10.0,29.878937,,,TRUE,TRUE,,,,,,-DZ,OVC,600,,,,,,,IFR,,,,,,,,,,,,METAR,436.0
KL35 240735Z AUTO 00000KT 10SM CLR M03/M06 A3008 RMK AO2,KL35,2018-03-24T07:35:00Z,34.27,-116.85,-3.0,-6.0,0,0,,10.0,30.079725,,,TRUE,TRUE,,,,,,,CLR,,,,,,,,VFR,,,,,,,,,,,,METAR,2059.0
KJYR 240735Z AUTO 02010KT 10SM CLR 05/05 A2980 RMK AO2,KJYR,2018-03-24T07:35:00Z,40.9,-97.62,5.0,5.0,20,10,,10.0,29.799213,,,TRUE,TRUE,,,,,,,CLR,,,,,,,,VFR,,,,,,,,,,,,METAR,509.0
KJYO 240735Z AUTO 32006KT 10SM CLR 00/M04 A3021 RMK AO2,KJYO,2018-03-24T07:35:00Z,39.07,-77.57,0.0,-4.0,320,6,,10.0,30.209646,,,TRUE,TRUE,,,,,,,CLR,,,,,,,,VFR,,,,,,,,,,,,METAR,119.0
KJYM 240735Z AUTO 00000KT 10SM CLR M05/M09 A3027 RMK AO2,KJYM,2018-03-24T07:35:00Z,41.92,-84.58,-5.0,-9.0,0,0,,10.0,30.268702,,,TRUE,TRUE,,,,,,,CLR,,,,,,,,VFR,,,,,,,,,,,,METAR,360.0
KJWY 240735Z AUTO 19012KT 10SM OVC018 18/16 A2990 RMK AO2 T01820158,KJWY,2018-03-24T07:35:00Z,32.45,-96.92,18.2,15.8,190,12,,10.0,29.899607,,,TRUE,TRUE,,,,,,,OVC,1800,,,,,,,MVFR,,,,,,,,,,,,METAR,217.0
KJWN 240735Z AUTO 07006KT 10SM OVC075 08/06 A3006 RMK A01,KJWN,2018-03-24T07:35:00Z,36.18,-86.88,8.0,6.0,70,6,,10.0,30.059055,,,TRUE,TRUE,,,,,,,OVC,7500,,,,,,,VFR,,,,,,,,,,,,METAR,151.0
KJWG 240735Z AUTO 24004KT 10SM CLR 18/15 A2974 RMK AO2 T01760146,KJWG,2018-03-24T07:35:00Z,35.87,-98.42,17.6,14.6,240,4,,10.0,29.740158,,,TRUE,TRUE,,,,,,,CLR,,,,,,,,VFR,,,,,,,,,,,,METAR,472.0
KJVL 240735Z AUTO 07008KT 10SM CLR 00/M04 A3023 RMK AO2,KJVL,2018-03-24T07:35:00Z,42.62,-89.05,0.0,-4.0,70,8,,10.0,30.230314,,,TRUE,TRUE,,,,,,,CLR,,,,,,,,VFR,,,,,,,,,,,,METAR,246.0
KJTC 240735Z AUTO 00000KT 10SM CLR 03/M04 A3016 RMK AO2,KJTC,2018-03-24T07:35:00Z,34.13,-109.32,3.0,-4.0,0,0,,10.0,30.159449,,,TRUE,TRUE,,,,,,,CLR,,,,,,,,VFR,,,,,,,,,,,,METAR,2150.0
KJOT 240735Z AUTO 07010KT 10SM CLR 03/M03 A3020 RMK AO2 T00251033,KJOT,2018-03-24T07:35:00Z,41.52,-88.18,2.5,-3.3,70,10,,10.0,30.200787,,,TRUE,TRUE,,,,,,,CLR,,,,,,,,VFR,,,,,,,,,,,,METAR,177.0
KJKA 240735Z AUTO 13006KT 10SM CLR 17/13 A3015 RMK AO2 T01700131,KJKA,2018-03-24T07:35:00Z,30.28,-87.67,17.0,13.1,130,6,,10.0,30.15059,,,TRUE,TRUE,,,,,,,CLR,,,,,,,,VFR,,,,,,,,,,,,METAR,5.0
KJGG 240735Z AUTO 33006KT 10SM CLR 03/M06 A3021 RMK AO1,KJGG,2018-03-24T07:35:00Z,37.23,-76.72,3.0,-6.0,330,6,,10.0,30.209646,,,TRUE,TRUE,,,,,,,CLR,,,,,,,,VFR,,,,,,,,,,,,METAR,15.0
KJFZ 240735Z AUTO 00000KT 10SM OVC100 02/M09 A3016 RMK AO2 T00181086,KJFZ,2018-03-24T07:35:00Z,37.07,-81.8,1.8,-8.6,0,0,,10.0,30.159449,,,TRUE,TRUE,,,,,,,OVC,10000,,,,,,,VFR,,,,,,,,,,,,METAR,809.0
KJDD 240735Z AUTO 20012G18KT 10SM SCT024 19/15 A2987 RMK AO2,KJDD,2018-03-24T07:35:00Z,32.75,-95.5,19.0,15.0,200,12,18,10.0,29.870079,,,TRUE,TRUE,,,,,,,SCT,2400,,,,,,,VFR,,,,,,,,,,,,METAR,132.0
KJCA 240735Z AUTO 00000KT 10SM OVC080 10/04 A3016 RMK AO2,KJCA,2018-03-24T07:35:00Z,34.18,-83.57,10.0,4.0,0,0,,10.0,30.159449,,,TRUE,TRUE,,,,,,,OVC,8000,,,,,,,VFR,,,,,,,,,,,,METAR,290.0
KJAU 240735Z AUTO 00000KT 10SM OVC055 05/04 A3019 RMK A01,KJAU,2018-03-24T07:35:00Z,36.33,-84.17,5.0,4.0,0,0,,10.0,30.188976,,,TRUE,TRUE,,,,,,,OVC,5500,,,,,,,VFR,,,,,,,,,,,,METAR,360.0
KJAS 240735Z AUTO 19010KT 10SM OVC015 20/18 A3002 RMK AO2 T02030177,KJAS,2018-03-24T07:35:00Z,30.88,-94.03,20.3,17.7,190,10,,10.0,30.02067,,,TRUE,TRUE,,,,,,,OVC,1500,,,,,,,MVFR,,,,,,,,,,,,METAR,65.0
KIZA 240735Z AUTO 23004KT 10SM SCT032 07/05 A3011 RMK AO2,KIZA,2018-03-24T07:35:00Z,34.6,-120.07,7.0,5.0,230,4,,10.0,30.109253,,,TRUE,TRUE,,,,,,,SCT,3200,,,,,,,VFR,,,,,,,,,,,,METAR,205.0
KIWA 240735Z AUTO 11007KT 10SM CLR 16/M02 A2995 RMK AO2 T01611021,KIWA,2018-03-24T07:35:00Z,33.3,-111.65,16.1,-2.1,110,7,,10.0,29.949802,,,TRUE,TRUE,,,,,,,CLR,,,,,,,,VFR,,,,,,,,,,,,METAR,412.0
KISO 240735Z AUTO 35006KT 10SM CLR 01/M03 A3020 RMK AO2 T00121032,KISO,2018-03-24T07:35:00Z,35.32,-77.62,1.2,-3.2,350,6,,10.0,30.200787,,,TRUE,TRUE,,,,,,,CLR,,,,,,,,VFR,,,,,,,,,,,,METAR,29.0
KIRS 240735Z AUTO 10006KT 10SM CLR M02/M07 A3028 RMK AO2 T10161075,KIRS,2018-03-24T07:35:00Z,41.8,-85.43,-1.6,-7.5,100,6,,10.0,30.280512,,,TRUE,TRUE,,,,,,,CLR,,,,,,,,VFR,,,,,,,,,,,,METAR,282.0
KINJ 240735Z AUTO 19014KT 10SM OVC018 19/17 A2989 RMK AO2 T01880170,KINJ,2018-03-24T07:35:00Z,32.08,-97.1,18.8,17.0,190,14,,10.0,29.890747,,,TRUE,TRUE,,,,,,,OVC,1800,,,,,,,MVFR,,,,,,,,,,,,METAR,209.0
KIMM 240735Z AUTO 00000KT 10SM CLR 08/05 A3021 RMK AO2,KIMM,2018-03-24T07:35:00Z,26.43,-81.4,8.0,5.0,0,0,,10.0,30.209646,,,TRUE,TRUE,,,,,,,CLR,,,,,,,,VFR,,,,,,,,,,,,METAR,12.0
KIKK 240735Z AUTO 09011KT 10SM OVC120 02/M06 A3019 RMK AO2 T00171060,KIKK,2018-03-24T07:35:00Z,41.07,-87.85,1.7,-6.0,90,11,,10.0,30.188976,,,TRUE,TRUE,,,,,,,OVC,12000,,,,,,,VFR,,,,,,,,,,,,METAR,192.0
KIJX 240735Z AUTO 07018G22KT 2 1/2SM -RA BKN005 03/03 A3001 RMK AO2 P0004 T00310026,KIJX,2018-03-24T07:35:00Z,39.77,-90.25,3.1,2.6,70,18,22,2.5,30.008858,,,TRUE,TRUE,,,,,,-RA,BKN,500,,,,,,,IFR,,,,,,0.04,,,,,,METAR,190.0
KIGQ 240735Z AUTO 09008KT 10SM CLR 01/M05 A3023 RMK AO2 T00061055,KIGQ,2018-03-24T07:35:00Z,41.53,-87.53,0.6,-5.5,90,8,,10.0,30.230314,,,TRUE,TRUE,,,,,,,CLR,,,,,,,,VFR,,,,,,,,,,,,METAR,188.0
KIFP 240735Z AUTO 13006KT 10SM CLR 17/M01 A2989 RMK AO2,KIFP,2018-03-24T07:35:00Z,35.15,-114.57,17.0,-1.0,130,6,,10.0,29.890747,,,TRUE,TRUE,,,,,,,CLR,,,,,,,,VFR,,,,,,,,,,,,METAR,212.0
KFTN 240735Z AUTO 14006KT 10SM FEW019 22/18 A2991 RMK A01,KFTN,2018-03-24T07:35:00Z,28.22,-100.02,22.0,18.0,140,6,,10.0,29.911417,,,TRUE,TRUE,,,,,,,FEW,1900,,,,,,,VFR,,,,,,,,,,,,METAR,236.0
KFSO 240735Z AUTO 31003KT 10SM OVC085 00/M06 A3010 RMK AO2 T10051065,KFSO,2018-03-24T07:35:00Z,44.93,-73.1,-0.5,-6.5,310,3,,10.0,30.100393,,,TRUE,TRUE,,,,,,,OVC,8500,,,,,,,VFR,,,,,,,,,,,,SPECI,70.0
KFSE 240735Z AUTO 11007KT 10SM CLR M03/M10 A3023 RMK AO2,KFSE,2018-03-24T07:35:00Z,47.58,-95.77,-3.0,-10.0,110,7,,10.0,30.230314,,,TRUE,TRUE,,,,,,,CLR,,,,,,,,VFR,,,,,,,,,,,,SPECI,389.0
KFQD 240735Z AUTO 00000KT 10SM OVC075 07/00 A3018 RMK AO2 T00710000,KFQD,2018-03-24T07:35:00Z,35.42,-81.93,7.1,0.0,0,0,,10.0,30.180119,,,TRUE,TRUE,,,,,,,OVC,7500,,,,,,,VFR,,,,,,,,,,,,SPECI,329.0
KFPK 240735Z AUTO 05005KT 10SM CLR M04/M10 A3030 RMK AO2 T10401096,KFPK,2018-03-24T07:35:00Z,42.57,-84.82,-4.0,-9.6,50,5,,10.0,30.301182,,,TRUE,TRUE,,,,,,,CLR,,,,,,,,VFR,,,,,,,,,,,,SPECI,272.0
KFOT 240735Z AUTO 12004KT 10SM CLR 03/03 A3008 RMK AO1,KFOT,2018-03-24T07:35:00Z,40.55,-124.13,3.0,3.0,120,4,,10.0,30.079725,,,TRUE,TRUE,,,,,,,CLR,,,,,,,,VFR,,,,,,,,,,,,METAR,120.0
KFKS 240735Z AUTO 07003KT 10SM CLR M02/M08 A3038 RMK AO2 T10251076,KFKS,2018-03-24T07:35:00Z,44.63,-86.2,-2.5,-7.6,70,3,,10.0,30.380905,,,TRUE,TRUE,,,,,,,CLR,,,,,,,,VFR,,,,,,,,,,,,SPECI,193.0
KFKR 240735Z AUTO 11011G16KT 10SM BKN110 04/M05 A3021 RMK AO2 T00361050,KFKR,2018-03-24T07:35:00Z,40.27,-86.57,3.6,-5.0,110,11,16,10.0,30.209646,,,TRUE,TRUE,,,,,,,BKN,11000,,,,,,,VFR,,,,,,,,,,,,SPECI,262.0
KFFX 240735Z AUTO 09006KT 10SM CLR M03/M10 A3033 RMK AO2 T10261096,KFFX,2018-03-24T07:35:00Z,43.43,-86.0,-2.6,-9.6,90,6,,10.0,30.33071,,,TRUE,TRUE,,,,,,,CLR,,,,,,,,VFR,,,,,,,,,,,,SPECI,236.0
KFET 240735Z AUTO 03005KT 7SM -RA OVC006 04/04 A2983 RMK AO2 P0004 T00420040,KFET,2018-03-24T07:35:00Z,41.45,-96.52,4.2,4.0,30,5,,7.0,29.828741,,,TRUE,TRUE,,,,,,-RA,OVC,600,,,,,,,IFR,,,,,,0.04,,,,,,SPECI,367.0
KFCH 240735Z AUTO 32007KT 10SM SCT065 10/04 A3012 RMK A01,KFCH,2018-03-24T07:35:00Z,36.72,-119.82,10.0,4.0,320,7,,10.0,30.121063,,,TRUE,TRUE,,,,,,,SCT,6500,,,,,,,VFR,,,,,,,,,,,,METAR,85.0
KF70 240735Z AUTO 18006KT 5SM OVC003 11/11 A3006 RMK AO1,KF70,2018-03-24T07:35:00Z,33.57,-117.13,11.0,11.0,180,6,,5.0,30.059055,,,TRUE,TRUE,,,,,,,OVC,300,,,,,,,LIFR,,,,,,,,,,,,METAR,412.0
KF44 240735Z AUTO 20009G19KT 10SM BKN022 19/15 A2990 RMK AO2,KF44,2018-03-24T07:35:00Z,32.17,-95.83,19.0,15.0,200,9,19,10.0,29.899607,,,TRUE,TRUE,,,,,,,BKN,2200,,,,,,,MVFR,,,,,,,,,,,,METAR,135.0
KF17 240735Z AUTO 18006G19KT 10SM OVC022 19/15 A2995 RMK AO2 T01870151,KF17,2018-03-24T07:35:00Z,31.83,-94.15,18.7,15.1,180,6,19,10.0,29.949802,,,TRUE,TRUE,,,,,,,OVC,2200,,,,,,,MVFR,,,,,,,,,,,,METAR,97.0
KF05 240735Z AUTO 24009KT 10SM CLR 20/11 A2978 RMK AO1 T02010105,KF05,2018-03-24T07:35:00Z,34.23,-99.28,20.1,10.5,240,9,,10.0,29.778543,,,TRUE,TRUE,,,,,,,CLR,,,,,,,,VFR,,,,,,,,,,,,METAR,386.0
KF00 240735Z AUTO 20022G30KT 10SM CLR 18/15 A2983 RMK AO2 T01840147,KF00,2018-03-24T07:35:00Z,33.62,-96.18,18.4,14.7,200,22,30,10.0,29.828741,,,TRUE,TRUE,,,,,,,CLR,,,,,,,,VFR,,,,,,,,,,,,METAR,188.0
KEZM 240735Z AUTO 00000KT 10SM SCT100 11/04 A3020 RMK AO2 T01100038,KEZM,2018-03-24T07:35:00Z,32.22,-83.13,11.0,3.8,0,0,,10.0,30.200787,,,TRUE,TRUE,,,,,,,SCT,10000,,,,,,,VFR,,,,,,,,,,,,SPECI,93.0
KETN 240735Z AUTO 19013KT 10SM CLR 19/15 A2985 RMK AO2 T01860152,KETN,2018-03-24T07:35:00Z,32.42,-98.82,18.6,15.2,190,13,,10.0,29.84941,,,TRUE,TRUE,,,,,,,CLR,,,,,,,,VFR,,,,,,,,,,,,METAR,446.0
KETB 240735Z AUTO 07010KT 10SM CLR M01/M06 A3029 RMK AO2,KETB,2018-03-24T07:35:00Z,43.42,-88.13,-1.0,-6.0,70,10,,10.0,30.28937,,,TRUE,TRUE,,,,,,,CLR,,,,,,,,VFR,,,,,,,,,,,,SPECI,270.0
KERY 240735Z AUTO 05004KT 10SM CLR M09/M15 A3043 RMK AO2 T10891150,KERY,2018-03-24T07:35:00Z,46.3,-85.45,-8.9,-15.0,50,4,,10.0,30.431103,,,TRUE,TRUE,,,,,,,CLR,,,,,,,,VFR,,,,,,,,,,,,SPECI,265.0
KERV 240735Z AUTO 16014KT 10SM OVC009 17/15 A2995 RMK AO2 T01700150,KERV,2018-03-24T07:35:00Z,29.98,-99.08,17.0,15.0,160,14,,10.0,29.949802,,,TRUE,TRUE,,,,,,,OVC,900,,,,,,,IFR,,,,,,,,,,,,METAR,510.0
KENL 240735Z AUTO 11013G22KT 7SM -RA OVC008 06/06 A2998 RMK AO2 P0001 T00600055,KENL,2018-03-24T07:35:00Z,38.52,-89.1,6.0,5.5,110,13,22,7.0,29.97933,,,TRUE,TRUE,,,,,,-RA,OVC,800,,,,,,,IFR,,,,,,0.01,,,,,,SPECI,163.0
KELO 240735Z AUTO 07003KT 10SM CLR M08/M12 A3037 RMK AO2,KELO,2018-03-24T07:35:00Z,47.82,-91.82,-8.0,-12.0,70,3,,10.0,30.369095,,,TRUE,TRUE,,,,,,,CLR,,,,,,,,VFR,,,,,,,,,,,,SPECI,443.0
KELK 240735Z AUTO 32006KT 10SM CLR 16/08 A2977 RMK AO2 T01570080,KELK,2018-03-24T07:35:00Z,35.43,-99.4,15.7,8.0,320,6,,10.0,29.769686,,,TRUE,TRUE,,,,,,,CLR,,,,,,,,VFR,,,,,,,,,,,,SPECI,610.0
KELA 240735Z AUTO 19011G16KT 10SM BKN017 OVC027 21/19 A2997 RMK AO2 T02110191,KELA,2018-03-24T07:35:00Z,29.6,-96.32,21.1,19.1,190,11,16,10.0,29.970472,,,TRUE,TRUE,,,,,,,BKN,1700,OVC,2700,,,,,MVFR,,,,,,,,,,,,METAR,56.0
KEKS 240735Z AUTO 16014G23KT 10SM BKN055 BKN075 OVC085 05/M04 A2985 RMK AO2,KEKS,2018-03-24T07:35:00Z,45.27,-111.65,5.0,-4.0,160,14,23,10.0,29.84941,,,TRUE,TRUE,,,,,,,BKN,5500,BKN,7500,OVC,8500,,,VFR,,,,,,,,,,,,METAR,1641.0
KEHA 240735Z AUTO 31008KT 10SM CLR 11/06 A2994 RMK AO2 T01070064,KEHA,2018-03-24T07:35:00Z,37.0,-101.9,10.7,6.4,310,8,,10.0,29.940945,,,TRUE,TRUE,,,,,,,CLR,,,,,,,,VFR,,,,,,,,,,,,METAR,1099.0
KEFT 240735Z AUTO 06010KT 10SM CLR M01/M06 A3020 RMK AO2,KEFT,2018-03-24T07:35:00Z,42.62,-89.6,-1.0,-6.0,60,10,,10.0,30.200787,,,TRUE,TRUE,,,,,,,CLR,,,,,,,,VFR,,,,,,,,,,,,SPECI,331.0
KEDU 240735Z AUTO 17007KT 10SM FEW095 FEW110 09/06 A3011 RMK AO1,KEDU,2018-03-24T07:35:00Z,38.53,-121.78,9.0,6.0,170,7,,10.0,30.109253,,,TRUE,TRUE,,,,,,,FEW,9500,FEW,11000,,,,,VFR,,,,,,,,,,,,METAR,21.0
KEDN 240735Z AUTO 00000KT 10SM BKN085 11/07 A3017 RMK AO2 T01050070,KEDN,2018-03-24T07:35:00Z,31.3,-85.9,10.5,7.0,0,0,,10.0,30.171259,,,TRUE,TRUE,,,,,,,BKN,8500,,,,,,,VFR,,,,,,,,,,,,SPECI,110.0
KEDE 240735Z AUTO 36003KT 10SM CLR 03/M01 A3020 RMK AO2 T00251014,KEDE,2018-03-24T07:35:00Z,36.02,-76.57,2.5,-1.4,360,3,,10.0,30.200787,,,TRUE,TRUE,,,,,,,CLR,,,,,,,,VFR,,,,,,,,,,,,SPECI,6.0
KEBG 240735Z AUTO 16017G20KT 10SM OVC020 24/19 A2992 RMK AO2 T02430190,KEBG,2018-03-24T07:35:00Z,26.45,-98.13,24.3,19.0,160,17,20,10.0,29.920275,,,TRUE,TRUE,,,,,,,OVC,2000,,,,,,,MVFR,,,,,,,,,,,,METAR,24.0
KEBA 240735Z AUTO 00000KT 10SM OVC070 11/06 A3019 RMK AO2 T01100056,KEBA,2018-03-24T07:35:00Z,34.1,-82.82,11.0,5.6,0,0,,10.0,30.188976,,,TRUE,TRUE,,,,,,,OVC,7000,,,,,,,VFR,,,,,,,,,,,,SPECI,184.0
KE38 240735Z AUTO 17005KT 10SM CLR 12/M07 A3012 RMK AO2 T01241071,KE38,2018-03-24T07:35:00Z,30.38,-103.68,12.4,-7.1,170,5,,10.0,30.121063,,,TRUE,TRUE,,,,,,,CLR,,,,,,,,VFR,,,,,,,,,,,,METAR,1376.0
KE16 240735Z AUTO 00000KT 10SM BKN065 07/05 A3017 RMK AO2,KE16,2018-03-24T07:35:00Z,37.08,-121.6,7.0,5.0,0,0,,10.0,30.171259,,,TRUE,TRUE,,,,,,,BKN,6500,,,,,,,VFR,,,,,,,,,,,,METAR,86.0
KE11 240735Z AUTO 25008KT 10SM CLR 18/05 A2994 RMK AO2 T01750050,KE11,2018-03-24T07:35:00Z,32.33,-102.53,17.5,5.0,250,8,,10.0,29.940945,,,TRUE,TRUE,,,,,,,CLR,,,,,,,,VFR,,,,,,,,,,,,METAR,967.0
KDZJ 240735Z AUTO 06003KT 10SM OVC070 07/01 A3015 RMK AO2 T00730013,KDZJ,2018-03-24T07:35:00Z,34.85,-84.0,7.3,1.3,60,3,,10.0,30.15059,,,TRUE,TRUE,,,,,,,OVC,7000,,,,,,,VFR,,,,,,,,,,,,SPECI,582.0
K8W2 240735Z AUTO 24003KT 10SM CLR M04/M07 A3020 RMK AO1 T10391070,K8W2,2018-03-24T07:35:00Z,38.65,-78.7,-3.9,-7.0,240,3,,10.0,30.200787,,,TRUE,TRUE,,,,,,,CLR,,,,,,,,VFR,,,,,,,,,,,,METAR,297.0
K8A3 240735Z AUTO 10004KT 7SM FEW048 BKN055 OVC070 06/04 A3011 RMK A01,K8A3,2018-03-24T07:35:00Z,36.42,-85.32,6.0,4.0,100,4,,7.0,30.109253,,,TRUE,TRUE,,,,,,,FEW,4800,BKN,5500,OVC,7000,,,VFR,,,,,,,,,,,,METAR,419.0
K7W4 240735Z AUTO 00000KT 10SM CLR 01/M08 A3021 RMK AO1 T00101085,K7W4,2018-03-24T07:35:00Z,37.97,-77.75,1.0,-8.5,0,0,,10.0,30.209646,,,TRUE,TRUE,,,,,,,CLR,,,,,,,,VFR,,,,,,,,,,,,METAR,106.0
K6S0 240735Z AUTO 21003KT 10SM SCT075 SCT085 M01/M03 A2988 RMK A01,K6S0,2018-03-24T07:35:00Z,45.8,-109.97,-1.0,-3.0,210,3,,10.0,29.878937,,,TRUE,TRUE,,,,,,,SCT,7500,SCT,8500,,,,,VFR,,,,,,,,,,,,METAR,1363.0
K6P9 240735Z AUTO 20013G16KT 10SM CLR 19/16 A2986 RMK AO2 T01850158,K6P9,2018-03-24T07:35:00Z,32.43,-98.6,18.5,15.8,200,13,16,10.0,29.861221,,,TRUE,TRUE,,,,,,,CLR,,,,,,,,VFR,,,,,,,,,,,,METAR,449.0
K6B0 240735Z AUTO 36005KT 10SM OVC085 00/M07 A3006 RMK AO2 T00001069,K6B0,2018-03-24T07:35:00Z,43.98,-73.1,0.0,-6.9,360,5,,10.0,30.059055,,,TRUE,TRUE,,,,,,,OVC,8500,,,,,,,VFR,,,,,,,,,,,,METAR,149.0
K6A1 240735Z AUTO 20005KT 10SM 12/02 A3017 RMK AO2 T01150019,K6A1,2018-03-24T07:35:00Z,32.57,-84.25,11.5,1.9,200,5,,10.0,30.171259,,,TRUE,TRUE,,,,,,,,,,,,,,,,,,,,,,,,,,,METAR,203.0
K66R 240735Z AUTO 19009KT 10SM BKN019 OVC027 20/18 A2998 RMK AO2 T02020181,K66R,2018-03-24T07:35:00Z,29.65,-96.52,20.2,18.1,190,9,,10.0,29.97933,,,TRUE,TRUE,,,,,,,BKN,1900,OVC,2700,,,,,MVFR,,,,,,,,,,,,METAR,74.0
K65S 240735Z AUTO 00000KT 10SM BKN024 OVC050 00/00 A2979 RMK AO2,K65S,2018-03-24T07:35:00Z,48.73,-116.3,0.0,0.0,0,0,,10.0,29.790354,,,TRUE,TRUE,,,,,,,BKN,2400,OVC,5000,,,,,MVFR,,,,,,,,,,,,METAR,713.0
K5T9 240735Z AUTO 12006KT 10SM SCT029 BKN038 BKN045 21/16 A2990 RMK A01,K5T9,2018-03-24T07:35:00Z,28.85,-100.52,21.0,16.0,120,6,,10.0,29.899607,,,TRUE,TRUE,,,,,,,SCT,2900,BKN,3800,BKN,4500,,,VFR,,,,,,,,,,,,METAR,270.0
K5C1 240735Z AUTO 19009G16KT 150V210 10SM OVC008 17/16 A2996 RMK AO1,K5C1,2018-03-24T07:35:00Z,29.72,-98.7,17.0,16.0,190,9,16,10.0,29.958662,,,TRUE,TRUE,,,,,,,OVC,800,,,,,,,IFR,,,,,,,,,,,,METAR,423.0
K54A 240735Z AUTO 07003KT 10SM CLR 10/08 A3020 RMK AO2,K54A,2018-03-24T07:35:00Z,,,10.0,8.0,70,3,,10.0,30.200787,,,TRUE,TRUE,,,,,,,CLR,,,,,,,,VFR,,,,,,,,,,,,METAR,
K49A 240735Z AUTO 05005KT 10SM SCT080 10/01 A3016 RMK AO2 T00950009,K49A,2018-03-24T07:35:00Z,34.63,-84.53,9.5,0.9,50,5,,10.0,30.159449,,,TRUE,TRUE,,,,,,,SCT,8000,,,,,,,VFR,,,,,,,,,,,,METAR,453.0
K40J 240735Z AUTO 00000KT 10SM CLR 08/07 A3022 RMK AO2 T00820073,K40J,2018-03-24T07:35:00Z,30.07,-83.57,8.2,7.3,0,0,,10.0,30.221457,,,TRUE,TRUE,,,,,,,CLR,,,,,,,,VFR,,,,,,,,,,,,METAR,13.0
K3S8 240735Z AUTO 00000KT 10SM FEW023 SCT034 BKN040 01/01 A2996 RMK AO2,K3S8,2018-03-24T07:35:00Z,42.5,-123.4,1.0,1.0,0,0,,10.0,29.958662,,,TRUE,TRUE,,,,,,,FEW,2300,SCT,3400,BKN,4000,,,VFR,,,,,,,,,,,,METAR,343.0
K3LF 240735Z AUTO 11018G24KT 7SM OVC007 05/04 A2997 RMK AO2 P0001 T00450041,K3LF,2018-03-24T07:35:00Z,39.17,-89.67,4.5,4.1,110,18,24,7.0,29.970472,,,TRUE,TRUE,,,,,,,OVC,700,,,,,,,IFR,,,,,,0.01,,,,,,METAR,210.0
K3L4 240735Z AUTO 17007KT 10SM BKN017 OVC026 19/18 A3003 RMK A01,K3L4,2018-03-24T07:35:00Z,29.8,-92.8,19.0,18.0,170,7,,10.0,30.029528,,,TRUE,TRUE,,,,,,,BKN,1700,OVC,2600,,,,,MVFR,,,,,,,,,,,,METAR,2.0
K3K3 240735Z AUTO 30009KT 10SM CLR 06/03 A2993 RMK AO2,K3K3,2018-03-24T07:35:00Z,38.0,-101.75,6.0,3.0,300,9,,10.0,29.929134,,,TRUE,TRUE,,,,,,,CLR,,,,,,,,VFR,,,,,,,,,,,,METAR,1013.0
K3F3 240735Z AUTO 19011G19KT 10SM OVC019 19/16 A2998 RMK AO2 T01930162,K3F3,2018-03-24T07:35:00Z,32.07,-93.77,19.3,16.2,190,11,19,10.0,29.97933,,,TRUE,TRUE,,,,,,,OVC,1900,,,,,,,MVFR,,,,,,,,,,,,METAR,96.0
K3D2 240735Z AUTO 02004KT 10SM CLR M06/M09 A3037 RMK AO2 T10561095,K3D2,2018-03-24T07:35:00Z,45.13,-87.18,-5.6,-9.5,20,4,,10.0,30.369095,,,TRUE,TRUE,,,,,,,CLR,,,,,,,,VFR,,,,,,,,,,,,METAR,234.0
K3AU 240735Z AUTO 24010KT 10SM CLR 16/14 A2964 RMK AO2,K3AU,2018-03-24T07:35:00Z,37.67,-97.08,16.0,14.0,240,10,,10.0,29.639763,,,TRUE,TRUE,,,,,,,CLR,,,,,,,,VFR,,,,,,,,,,,,METAR,405.0
K2P2 240735Z AUTO 07004KT 10SM CLR M03/M08 A3038 RMK AO2 T10321076,K2P2,2018-03-24T07:35:00Z,45.38,-86.92,-3.2,-7.6,70,4,,10.0,30.380905,,,TRUE,TRUE,,,,,,,CLR,,,,,,,,VFR,,,,,,,,,,,,METAR,199.0
K2LS 240735Z AUTO 16006KT 10SM FEW021 BKN026 OVC030 20/16 A3010 RMK AO2,K2LS,2018-03-24T07:35:00Z,,,20.0,16.0,160,6,,10.0,30.100393,,,TRUE,TRUE,,,,,,,FEW,2100,BKN,2600,OVC,3000,,,MVFR,,,,,,,,,,,,METAR,
K2J3 240735Z AUTO 26004KT 10SM OVC090 11/07 A3017 RMK AO2 T01130065,K2J3,2018-03-24T07:35:00Z,32.98,-82.38,11.3,6.5,260,4,,10.0,30.171259,,,TRUE,TRUE,,,,,,,OVC,9000,,,,,,,VFR,,,,,,,,,,,,METAR,100.0
K2G9 240735Z AUTO 00000KT 10SM CLR M06/M08 A3014 RMK AO2,K2G9,2018-03-24T07:35:00Z,40.03,-79.02,-6.0,-8.0,0,0,,10.0,30.138779,,,TRUE,TRUE,,,,,,,CLR,,,,,,,,VFR,,,,,,,,,,,,METAR,693.0
K2A0 240735Z AUTO 00000KT 10SM FEW047 FEW060 OVC075 08/04 A3016 RMK A01,K2A0,2018-03-24T07:35:00Z,35.48,-84.93,8.0,4.0,0,0,,10.0,30.159449,,,TRUE,TRUE,,,,,,,FEW,4700,FEW,6000,OVC,7500,,,VFR,,,,,,,,,,,,METAR,219.0
K24A 240735Z AUTO 00000KT 10SM BKN042 OVC050 06/00 A3016 RMK AO2 T00571001,K24A,2018-03-24T07:35:00Z,35.32,-83.2,5.7,-0.1,0,0,,10.0,30.159449,,,TRUE,TRUE,,,,,,,BKN,4200,OVC,5000,,,,,VFR,,,,,,,,,,,,METAR,871.0
K1M5 240735Z AUTO 11007KT 9SM FEW004 SCT048 BKN055 06/06 A3007 RMK A01,K1M5,2018-03-24T07:35:00Z,36.6,-86.48,6.0,6.0,110,7,,9.0,30.070866,,,TRUE,TRUE,,,,,,,FEW,400,SCT,4800,BKN,5500,,,VFR,,,,,,,,,,,,METAR,250.0
K1H2 240735Z AUTO 08013G19KT 4SM RA OVC008 05/05 A3007 RMK AO2 P0006 T00500050,K1H2,2018-03-24T07:35:00Z,39.07,-88.53,5.0,5.0,80,13,19,4.0,30.070866,,,TRUE,TRUE,,,,,,RA,OVC,800,,,,,,,IFR,,,,,,0.06,,,,,,METAR,179.0
K1A6 240735Z AUTO 00000KT 10SM -DZ BKN050 OVC060 06/02 A3017 RMK AO2 T00550018,K1A6,2018-03-24T07:35:00Z,36.62,-83.73,5.5,1.8,0,0,,10.0,30.171259,,,TRUE,TRUE,,,,,,-DZ,BKN,5000,OVC,6000,,,,,VFR,,,,,,,,,,,,METAR,352.0
K1A5 240735Z AUTO 00000KT 10SM OVC060 06/02 A3016 RMK AO2 T00600022,K1A5,2018-03-24T07:35:00Z,35.22,-83.42,6.0,2.2,0,0,,10.0,30.159449,,,TRUE,TRUE,,,,,,,OVC,6000,,,,,,,VFR,,,,,,,,,,,,METAR,616.0
K19S 240735Z AUTO 30009KT 10SM CLR 08/05 A2988 RMK AO2 T00810048,K19S,2018-03-24T07:35:00Z,37.48,-100.83,8.1,4.8,300,9,,10.0,29.878937,,,TRUE,TRUE,,,,,,,CLR,,,,,,,,VFR,,,,,,,,,,,,METAR,886.0
K0R4 240735Z AUTO 16006KT 10SM SCT031 16/14 A3002 RMK AO2 T01620135,K0R4,2018-03-24T07:35:00Z,31.57,-91.5,16.2,13.5,160,6,,10.0,30.02067,,,TRUE,TRUE,,,,,,,SCT,3100,,,,,,,VFR,,,,,,,,,,,,METAR,17.0
K0A9 240735Z AUTO 00000KT 10SM BKN065 OVC075 02/M00 A3018 RMK AO2,K0A9,2018-03-24T07:35:00Z,36.37,-82.17,2.0,0.0,0,0,,10.0,30.180119,,,TRUE,TRUE,,,,,,,BKN,6500,OVC,7500,,,,,VFR,,,,,,,,,,,,METAR,486.0
K05U 240735Z AUTO 18010KT 10SM CLR 04/M03 A2986 RMK A01,K05U,2018-03-24T07:35:00Z,39.6,-116.0,4.0,-3.0,180,10,,10.0,29.861221,,,TRUE,TRUE,,,,,,,CLR,,,,,,,,VFR,,,,,,,,,,,,METAR,1816.0
KDVO 240735Z AUTO 22004KT 10SM BKN044 BKN055 OVC070 09/08 A3011 RMK AO2,KDVO,2018-03-24T07:35:00Z,38.15,-122.55,9.0,8.0,220,4,,10.0,30.109253,,,TRUE,TRUE,,,,,,,BKN,4400,BKN,5500,OVC,7000,,,VFR,,,,,,,,,,,,METAR,1.0
KDUH 240735Z AUTO 05003KT 10SM CLR M04/M06 A3031 RMK AO2 T10401058,KDUH,2018-03-24T07:35:00Z,41.73,-83.65,-4.0,-5.8,50,3,,10.0,30.31004,,,TRUE,TRUE,,,,,,,CLR,,,,,,,,VFR,,,,,,,,,,,,SPECI,204.0
KDUC 240735Z AUTO 21013KT 10SM 20/15 A2976 RMK AO2 T02030150,KDUC,2018-03-24T07:35:00Z,34.47,-97.97,20.3,15.0,210,13,,10.0,29.760826,,,TRUE,TRUE,,,,,,,,,,,,,,,,,,,,,,,,,,,SPECI,339.0
KDUB 240735Z AUTO 29006KT 10SM SCT055 M01/M06 A2995 RMK AO2,KDUB,2018-03-24T07:35:00Z,43.55,-109.68,-1.0,-6.0,290,6,,10.0,29.949802,,,TRUE,TRUE,,,,,,,SCT,5500,,,,,,,VFR,,,,,,,,,,,,METAR,2224.0
KDUA 240735Z AUTO 21015G20KT 10SM BKN026 20/15 A2980 RMK AO2,KDUA,2018-03-24T07:35:00Z,33.95,-96.4,20.0,15.0,210,15,20,10.0,29.799213,,,TRUE,TRUE,,,,,,,BKN,2600,,,,,,,MVFR,,,,,,,,,,,,SPECI,213.0
KDQH 240735Z AUTO 24003KT 10SM CLR 09/07 A3020 RMK AO2,KDQH,2018-03-24T07:35:00Z,31.48,-82.87,9.0,7.0,240,3,,10.0,30.200787,,,TRUE,TRUE,,,,,,,CLR,,,,,,,,VFR,,,,,,,,,,,,SPECI,78.0
KDNV 240735Z AUTO 10009KT 5SM HZ SCT040 OVC048 04/M06 A3013 RMK AO2 T00371059,KDNV,2018-03-24T07:35:00Z,40.2,-87.6,3.7,-5.9,100,9,,5.0,30.129921,,,TRUE,TRUE,,,,,,HZ,SCT,4000,OVC,4800,,,,,MVFR,,,,,,,,,,,,SPECI,212.0
KDLL 240735Z AUTO 07011KT 10SM CLR M02/M07 A3025 RMK AO2 T10221070,KDLL,2018-03-24T07:35:00Z,43.52,-89.77,-2.2,-7.0,70,11,,10.0,30.250984,,,TRUE,TRUE,,,,,,,CLR,,,,,,,,VFR,,,,,,,,,,,,METAR,299.0
KDKX 240735Z AUTO 00000KT 10SM FEW060 OVC070 06/04 A3016 RMK A01,KDKX,2018-03-24T07:35:00Z,35.97,-83.87,6.0,4.0,0,0,,10.0,30.159449,,,TRUE,TRUE,,,,,,,FEW,6000,OVC,7000,,,,,VFR,,,,,,,,,,,,METAR,254.0
KDED 240735Z AUTO 00000KT 10SM CLR 09/07 A3021 RMK AO2,KDED,2018-03-24T07:35:00Z,29.07,-81.28,9.0,7.0,0,0,,10.0,30.209646,,,TRUE,TRUE,,,,,,,CLR,,,,,,,,VFR,,,,,,,,,,,,METAR,24.0
KDCY 240735Z AUTO 09012G18KT 10SM -RA OVC070 04/00 A3013 RMK AO2 P0002 T00400003,KDCY,2018-03-24T07:35:00Z,38.7,-87.13,4.0,0.3,90,12,18,10.0,30.129921,,,TRUE,TRUE,,,,,,-RA,OVC,7000,,,,,,,VFR,,,,,,0.02,,,,,,METAR,144.0
KDBN 240735Z AUTO 00000KT 10SM OVC100 10/07 A3019 RMK AO2,KDBN,2018-03-24T07:35:00Z,32.57,-82.98,10.0,7.0,0,0,,10.0,30.188976,,,TRUE,TRUE,,,,,,,OVC,10000,,,,,,,VFR,,,,,,,,,,,,METAR,94.0
KCXE 240735Z AUTO 06003KT 10SM CLR 01/M07 A3021 RMK AO1 T00141069,KCXE,2018-03-24T07:35:00Z,36.78,-78.5,1.4,-6.9,60,3,,10.0,30.209646,,,TRUE,TRUE,,,,,,,CLR,,,,,,,,VFR,,,,,,,,,,,,METAR,153.0
KCWF 240735Z AUTO 16004KT 10SM CLR A3002 RMK AO2,KCWF,2018-03-24T07:35:00Z,30.22,-93.15,,,160,4,,10.0,30.02067,,,TRUE,TRUE,,,,,,,CLR,,,,,,,,VFR,,,,,,,,,,,,METAR,4.0
KCWA 240735Z AUTO 08009G16KT 10SM CLR M05/M11 A3031 RMK AO2,KCWA,2018-03-24T07:35:00Z,44.78,-89.67,-5.0,-11.0,80,9,16,10.0,30.31004,,,TRUE,TRUE,,,,,,,CLR,,,,,,,,VFR,,,,,,,,,,,,METAR,389.0
KCTY 240735Z AUTO 00000KT 10SM CLR 07/06 A3021 RMK AO2 T00680064,KCTY,2018-03-24T07:35:00Z,29.63,-83.1,6.8,6.4,0,0,,10.0,30.209646,,,TRUE,TRUE,,,,,,,CLR,,,,,,,,VFR,,,,,,,,,,,,METAR,13.0
KCRX 240735Z AUTO 19008G15KT 10SM OVC070 16/06 A2999 RMK AO2,KCRX,2018-03-24T07:35:00Z,34.92,-88.6,16.0,6.0,190,8,15,10.0,29.991142,,,TRUE,TRUE,,,,,,,OVC,7000,,,,,,,VFR,,,,,,,,,,,,METAR,130.0
KCQF 240735Z AUTO 00000KT 10SM CLR 10/10 A3015 RMK AO2,KCQF,2018-03-24T07:35:00Z,30.47,-87.88,10.0,10.0,0,0,,10.0,30.15059,,,TRUE,TRUE,,,,,,,CLR,,,,,,,,VFR,,,,,,,,,,,,METAR,28.0
KCQB 240735Z AUTO 21017G22KT 10SM CLR 20/15 A2970 RMK AO2 T02030153,KCQB,2018-03-24T07:35:00Z,35.72,-96.82,20.3,15.3,210,17,22,10.0,29.698818,,,TRUE,TRUE,,,,,,,CLR,,,,,,,,VFR,,,,,,,,,,,,METAR,300.0
KCOQ 240735Z AUTO 07011G19KT 10SM CLR M05/M11 A3031 RMK AO2,KCOQ,2018-03-24T07:35:00Z,46.7,-92.5,-5.0,-11.0,70,11,19,10.0,30.31004,,,TRUE,TRUE,,,,,,,CLR,,,,,,,,VFR,,,,,,,,,,,,METAR,390.0
KCOM 240735Z AUTO 00000KT 10SM CLR 17/13 A2990 RMK AO2 T01670133,KCOM,2018-03-24T07:35:00Z,31.83,-99.4,16.7,13.3,0,0,,10.0,29.899607,,,TRUE,TRUE,,,,,,,CLR,,,,,,,,VFR,,,,,,,,,,,,METAR,517.0
KCNI 240735Z AUTO 00000KT 10SM SCT080 BKN120 11/04 A3015 RMK AO2,KCNI,2018-03-24T07:35:00Z,34.32,-84.42,11.0,4.0,0,0,,10.0,30.15059,,,TRUE,TRUE,,,,,,,SCT,8000,BKN,12000,,,,,VFR,,,,,,,,,,,,METAR,372.0
KCMY 240735Z AUTO 09010G15KT 10SM CLR M01/M08 A3026 RMK AO2 T10131082,KCMY,2018-03-24T07:35:00Z,43.97,-90.73,-1.3,-8.2,90,10,15,10.0,30.259842,,,TRUE,TRUE,,,,,,,CLR,,,,,,,,VFR,,,,,,,,,,,,METAR,256.0
KCKN 240735Z AUTO 13015KT 2SM -SN OVC011 M02/M03 A3021 RMK AO2,KCKN,2018-03-24T07:35:00Z,47.85,-96.62,-2.0,-3.0,130,15,,2.0,30.209646,,,TRUE,TRUE,,,,,,-SN,OVC,1100,,,,,,,IFR,,,,,,,,,,,,METAR,273.0
KCJR 240735Z AUTO 31005KT 10SM CLR 01/M08 A3022 RMK AO2 T00051083,KCJR,2018-03-24T07:35:00Z,38.53,-77.87,0.5,-8.3,310,5,,10.0,30.221457,,,TRUE,TRUE,,,,,,,CLR,,,,,,,,VFR,,,,,,,,,,,,METAR,97.0
KCFE 240735Z AUTO 04007KT 10SM SCT085 00/M06 A3018 RMK AO2 T00001065,KCFE,2018-03-24T07:35:00Z,45.17,-93.85,0.0,-6.5,40,7,,10.0,30.180119,,,TRUE,TRUE,,,,,,,SCT,8500,,,,,,,VFR,,,,,,,,,,,,METAR,295.0
KCFD 240735Z AUTO 18009G16KT 10SM BKN023 BKN029 19/18 A2996 RMK AO2 T01930175,KCFD,2018-03-24T07:35:00Z,30.72,-96.33,19.3,17.5,180,9,16,10.0,29.958662,,,TRUE,TRUE,,,,,,,BKN,2300,BKN,2900,,,,,MVFR,,,,,,,,,,,,METAR,112.0
KCDA 240735Z AUTO 32005KT 10SM BKN070 00/M07 A3001 RMK AO2 T10051071,KCDA,2018-03-24T07:35:00Z,44.57,-72.02,-0.5,-7.1,320,5,,10.0,30.008858,,,TRUE,TRUE,,,,,,,BKN,7000,,,,,,,VFR,,,,,,,,,,,,METAR,363.0
KCCB 240735Z AUTO 00000KT 10SM CLR 11/09 A3004 RMK AO2,KCCB,2018-03-24T07:35:00Z,34.12,-117.68,11.0,9.0,0,0,,10.0,30.041338,,,TRUE,TRUE,,,,,,,CLR,,,,,,,,VFR,,,,,,,,,,,,METAR,440.0
KCBG 240735Z AUTO 06005KT 10SM CLR M01/M08 A3023 RMK AO2,KCBG,2018-03-24T07:35:00Z,45.57,-93.27,-1.0,-8.0,60,5,,10.0,30.230314,,,TRUE,TRUE,,,,,,,CLR,,,,,,,,VFR,,,,,,,,,,,,METAR,287.0
KCAD 240735Z AUTO 00000KT 10SM CLR M08/M11 A3032 RMK AO2 T10851116,KCAD,2018-03-24T07:35:00Z,44.27,-85.42,-8.5,-11.6,0,0,,10.0,30.318897,,,TRUE,TRUE,,,,,,,CLR,,,,,,,,VFR,,,,,,,,,,,,METAR,398.0
KC83 240735Z AUTO 21007KT 10SM FEW036 FEW042 SCT049 06/04 A3012 RMK AO2,KC83,2018-03-24T07:35:00Z,37.83,-121.62,6.0,4.0,210,7,,10.0,30.121063,,,TRUE,TRUE,,,,,,,FEW,3600,FEW,4200,SCT,4900,,,VFR,,,,,,,,,,,,METAR,24.0
KC65 240735Z AUTO 09009KT 10SM CLR M01/M08 A3026 RMK A01,KC65,2018-03-24T07:35:00Z,41.37,-86.3,-1.0,-8.0,90,9,,10.0,30.259842,,,TRUE,TRUE,,,,,,,CLR,,,,,,,,VFR,,,,,,,,,,,,METAR,244.0
KC29 240735Z AUTO 07008KT 10SM CLR M01/M05 A3025 RMK AO1 T10061055,KC29,2018-03-24T07:35:00Z,43.12,-89.53,-0.6,-5.5,70,8,,10.0,30.250984,,,TRUE,TRUE,,,,,,,CLR,,,,,,,,VFR,,,,,,,,,,,,METAR,283.0
KC09 240735Z AUTO 09014KT 10SM BKN120 02/M04 A3018 RMK AO2 T00201040,KC09,2018-03-24T07:35:00Z,41.43,-88.42,2.0,-4.0,90,14,,10.0,30.180119,,,TRUE,TRUE,,,,,,,BKN,12000,,,,,,,VFR,,,,,,,,,,,,METAR,178.0
KBVS 240735Z AUTO 06004KT 10SM BKN060 OVC070 04/02 A2978 RMK A01,KBVS,2018-03-24T07:35:00Z,48.47,-122.42,4.0,2.0,60,4,,10.0,29.778543,,,TRUE,TRUE,,,,,,,BKN,6000,OVC,7000,,,,,VFR,,,,,,,,,,,,METAR,43.0
KBVN 240735Z AUTO 36004KT 5SM -DZ OVC005 04/04 A2985 RMK AO2 T00430036,KBVN,2018-03-24T07:35:00Z,41.73,-98.05,4.3,3.6,360,4,,5.0,29.84941,,,TRUE,TRUE,,,,,,-DZ,OVC,500,,,,,,,IFR,,,,,,,,,,,,METAR,551.0
KBUU 240735Z AUTO 07005KT 10SM CLR M01/M04 A3025 RMK AO2 T10071045,KBUU,2018-03-24T07:35:00Z,42.68,-88.3,-0.7,-4.5,70,5,,10.0,30.250984,,,TRUE,TRUE,,,,,,,CLR,,,,,,,,VFR,,,,,,,,,,,,METAR,237.0
KBTA 240735Z AUTO 03008KT 4SM -RA OVC003 05/04 A2981 RMK AO2 P0005 T00450039,KBTA,2018-03-24T07:35:00Z,41.42,-96.12,4.5,3.9,30,8,,4.0,29.811024,,,TRUE,TRUE,,,,,,-RA,OVC,300,,,,,,,LIFR,,,,,,0.05,,,,,,METAR,396.0
KBQP 240735Z AUTO 18009G14KT 10SM BKN026 18/15 A2998 RMK AO2 T01820145,KBQP,2018-03-24T07:35:00Z,32.75,-91.88,18.2,14.5,180,9,14,10.0,29.97933,,,TRUE,TRUE,,,,,,,BKN,2600,,,,,,,MVFR,,,,,,,,,,,,METAR,51.0
KBQK 240735Z AUTO 25003KT 10SM OVC110 10/05 A3020 RMK AO2,KBQK,2018-03-24T07:35:00Z,31.25,-81.47,10.0,5.0,250,3,,10.0,30.200787,,,TRUE,TRUE,,,,,,,OVC,11000,,,,,,,VFR,,,,,,,,,,,,METAR,8.0
KBPG 240735Z AUTO 20006KT 10SM CLR 18/13 A2994 RMK AO2 T01790134,KBPG,2018-03-24T07:35:00Z,32.22,-101.52,17.9,13.4,200,6,,10.0,29.940945,,,TRUE,TRUE,,,,,,,CLR,,,,,,,,VFR,,,,,,,,,,,,METAR,784.0
KBMT 240735Z AUTO 18005KT 10SM OVC021 19/17 A3001 RMK AO2 T01920173,KBMT,2018-03-24T07:35:00Z,30.07,-94.22,19.2,17.3,180,5,,10.0,30.008858,,,TRUE,TRUE,,,,,,,OVC,2100,,,,,,,MVFR,,,,,,,,,,,,METAR,10.0
KBMC 240735Z AUTO 31007KT 10SM CLR 05/01 A2988 RMK AO1 T00480007,KBMC,2018-03-24T07:35:00Z,41.55,-112.07,4.8,0.7,310,7,,10.0,29.878937,,,TRUE,TRUE,,,,,,,CLR,,,,,,,,VFR,,,,,,,,,,,,METAR,1288.0
KBKT 240735Z AUTO 03004KT 10SM CLR 01/M08 A3021 RMK AO1 T00071076,KBKT,2018-03-24T07:35:00Z,37.07,-77.95,0.7,-7.6,30,4,,10.0,30.209646,,,TRUE,TRUE,,,,,,,CLR,,,,,,,,VFR,,,,,,,,,,,,METAR,134.0
KBIE 240735Z AUTO 02007KT 5SM BR OVC011 08/07 A2975 RMK AO2 T00760065,KBIE,2018-03-24T07:35:00Z,40.28,-96.75,7.6,6.5,20,7,,5.0,29.749016,,,TRUE,TRUE,,,,,,BR,OVC,1100,,,,,,,MVFR,,,,,,,,,,,,METAR,403.0
KBHC 240735Z AUTO 00000KT 10SM SCT095 08/07 A3019 RMK AO2,KBHC,2018-03-24T07:35:00Z,31.72,-82.4,8.0,7.0,0,0,,10.0,30.188976,,,TRUE,TRUE,,,,,,,SCT,9500,,,,,,,VFR,,,,,,,,,,,,METAR,61.0
KBGE 240735Z AUTO 00000KT 10SM CLR 12/10 A3020 RMK AO2,KBGE,2018-03-24T07:35:00Z,30.97,-84.63,12.0,10.0,0,0,,10.0,30.200787,,,TRUE,TRUE,,,,,,,CLR,,,,,,,,VFR,,,,,,,,,,,,METAR,43.0
KBEC 240735Z AUTO 28008G16KT 10SM CLR 17/13 A2963 RMK AO2 T01710127,KBEC,2018-03-24T07:35:00Z,37.7,-97.22,17.1,12.7,280,8,16,10.0,29.630905,,,TRUE,TRUE,,,,,,,CLR,,,,,,,,VFR,,,,,,,,,,,,METAR,429.0
KBDG 240735Z AUTO 10004KT 10SM 02/M02 A3014 RMK AO1 T00161016,KBDG,2018-03-24T07:35:00Z,37.58,-109.47,1.6,-1.6,100,4,,10.0,30.138779,,,TRUE,TRUE,,,,,,,,,,,,,,,,,,,,,,,,,,,METAR,1788.0
KBCK 240735Z AUTO 09007G14KT 10SM CLR M01/M10 A3026 RMK AO2 T10121097,KBCK,2018-03-24T07:35:00Z,44.25,-90.85,-1.2,-9.7,90,7,14,10.0,30.259842,,,TRUE,TRUE,,,,,,,CLR,,,,,,,,VFR,,,,,,,,,,,,METAR,255.0
KBBD 240735Z AUTO 19008KT 10SM CLR 18/16 A2992 RMK AO2,KBBD,2018-03-24T07:35:00Z,31.18,-99.32,18.0,16.0,190,8,,10.0,29.920275,,,TRUE,TRUE,,,,,,,CLR,,,,,,,,VFR,,,,,,,,,,,,METAR,557.0
KAYS 240735Z AUTO 00000KT 10SM CLR 10/06 A3019 RMK AO2 T00950055,KAYS,2018-03-24T07:35:00Z,31.25,-82.4,9.5,5.5,0,0,,10.0,30.188976,,,TRUE,TRUE,,,,,,,CLR,,,,,,,,VFR,,,,,,,,,,,,METAR,46.0
KAXH 240735Z AUTO 19006KT 10SM BKN019 OVC025 21/18 A3000 RMK AO2 T02050180,KAXH,2018-03-24T07:35:00Z,29.52,-95.48,20.5,18.0,190,6,,10.0,30.0,,,TRUE,TRUE,,,,,,,BKN,1900,OVC,2500,,,,,MVFR,,,,,,,,,,,,METAR,21.0
KAVK 240735Z AUTO 33012KT 10SM FEW038 SCT045 OVC055 16/10 A2975 RMK AO2,KAVK,2018-03-24T07:35:00Z,36.77,-98.67,16.0,10.0,330,12,,10.0,29.749016,,,TRUE,TRUE,,,,,,,FEW,3800,SCT,4500,OVC,5500,,,VFR,,,,,,,,,,,,METAR,449.0
KAVC 240735Z AUTO 03004KT 10SM CLR 01/M05 A3027 RMK AO2 T00051055,KAVC,2018-03-24T07:35:00Z,36.68,-78.03,0.5,-5.5,30,4,,10.0,30.268702,,,TRUE,TRUE,,,,,,,CLR,,,,,,,,VFR,,,,,,,,,,,,METAR,135.0
KAUH 240735Z AUTO 02010KT 7SM OVC005 05/05 A2982 RMK AO2 T00470045,KAUH,2018-03-24T07:35:00Z,40.88,-98.0,4.7,4.5,20,10,,7.0,29.819881,,,TRUE,TRUE,,,,,,,OVC,500,,,,,,,IFR,,,,,,,,,,,,METAR,550.0
KATW 240735Z AUTO 05012G16KT 10SM CLR M04/M10 A3031 RMK AO2,KATW,2018-03-24T07:35:00Z,44.27,-88.52,-4.0,-10.0,50,12,16,10.0,30.31004,,,TRUE,TRUE,,,,,,,CLR,,,,,,,,VFR,,,,,,,,,,,,METAR,280.0
KASL 240735Z AUTO 20009G19KT 10SM OVC023 18/15 A2995 RMK AO1 T01830145,KASL,2018-03-24T07:35:00Z,32.52,-94.3,18.3,14.5,200,9,19,10.0,29.949802,,,TRUE,TRUE,,,,,,,OVC,2300,,,,,,,MVFR,,,,,,,,,,,,METAR,109.0
KASJ 240735Z AUTO 00000KT 10SM CLR 00/M04 A3021 RMK AO2 T10051037,KASJ,2018-03-24T07:35:00Z,36.28,-77.17,-0.5,-3.7,0,0,,10.0,30.209646,,,TRUE,TRUE,,,,,,,CLR,,,,,,,,VFR,,,,,,,,,,,,METAR,21.0
KAQR 240735Z AUTO 17007KT 10SM BKN030 BKN035 19/13 A2980 RMK AO2,KAQR,2018-03-24T07:35:00Z,34.4,-96.15,19.0,13.0,170,7,,10.0,29.799213,,,TRUE,TRUE,,,,,,,BKN,3000,BKN,3500,,,,,MVFR,,,,,,,,,,,,METAR,189.0
KANW 240735Z AUTO 00000KT 1/4SM -DZ OVC002 04/04 A2988 RMK AO2 T00400040,KANW,2018-03-24T07:35:00Z,42.57,-100.0,4.0,4.0,0,0,,0.25,29.878937,,,TRUE,TRUE,,,,,,-DZ,OVC,200,,,,,,,LIFR,,,,,,,,,,,,METAR,789.0
KALX 240735Z AUTO 00000KT 10SM SCT090 07/07 A3013 RMK AO2 T00700070,KALX,2018-03-24T07:35:00Z,32.92,-85.97,7.0,7.0,0,0,,10.0,30.129921,,,TRUE,TRUE,,,,,,,SCT,9000,,,,,,,VFR,,,,,,,,,,,,METAR,209.0
KAJR 240735Z AUTO 09004KT 10SM OVC070 10/05 A3015 RMK AO2 T00950053,KAJR,2018-03-24T07:35:00Z,34.5,-83.55,9.5,5.3,90,4,,10.0,30.15059,,,TRUE,TRUE,,,,,,,OVC,7000,,,,,,,VFR,,,,,,,,,,,,METAR,441.0
KAIT 240735Z AUTO 07008G14KT 10SM CLR M06/M11 A3025 RMK AO2,KAIT,2018-03-24T07:35:00Z,46.53,-93.67,-6.0,-11.0,70,8,14,10.0,30.250984,,,TRUE,TRUE,,,,,,,CLR,,,,,,,,VFR,,,,,,,,,,,,METAR,367.0
KAHQ 240735Z AUTO 03008KT 7SM BKN005 OVC028 05/04 A2981 RMK AO2 T00480041,KAHQ,2018-03-24T07:35:00Z,41.23,-96.6,4.8,4.1,30,8,,7.0,29.811024,,,TRUE,TRUE,,,,,,,BKN,500,OVC,2800,,,,,IFR,,,,,,,,,,,,METAR,374.0
KAFK 240735Z AUTO 06006KT 5SM BR OVC008 07/07 A2976 RMK AO2 T00660066,KAFK,2018-03-24T07:35:00Z,40.6,-95.85,6.6,6.6,60,6,,5.0,29.760826,,,TRUE,TRUE,,,,,,BR,OVC,800,,,,,,,IFR,,,,,,,,,,,,METAR,354.0
KADH 240735Z AUTO 20013G17KT 10SM CLR 20/15 A2975 RMK AO2,KADH,2018-03-24T07:35:00Z,34.8,-96.67,20.0,15.0,200,13,17,10.0,29.749016,,,TRUE,TRUE,,,,,,,CLR,,,,,,,,VFR,,,,,,,,,,,,METAR,308.0
KADC 240735Z AUTO 10007KT 10SM BKN040 OVC048 M03/M09 A3019 RMK AO2,KADC,2018-03-24T07:35:00Z,46.45,-95.22,-3.0,-9.0,100,7,,10.0,30.188976,,,TRUE,TRUE,,,,,,,BKN,4000,OVC,4800,,,,,VFR,,,,,,,,,,,,METAR,418.0
KACQ 240735Z AUTO 09018G26KT 4SM -SN BKN015 OVC026 00/M02 A3011 RMK AO2,KACQ,2018-03-24T07:35:00Z,44.07,-93.55,0.0,-2.0,90,18,26,4.0,30.109253,,,TRUE,TRUE,,,,,,-SN,BKN,1500,OVC,2600,,,,,MVFR,,,,,,,,,,,,METAR,343.0
KACP 240735Z AUTO 17004KT 10SM OVC029 18/16 A3002 RMK AO2 T01770158,KACP,2018-03-24T07:35:00Z,30.75,-92.68,17.7,15.8,170,4,,10.0,30.02067,,,TRUE,TRUE,,,,,,,OVC,2900,,,,,,,MVFR,,,,,,,,,,,,METAR,33.0
KA39 240735Z AUTO 14006KT 10SM CLR 15/00 A2999 RMK AO2,KA39,2018-03-24T07:35:00Z,32.98,-111.92,15.0,0.0,140,6,,10.0,29.991142,,,TRUE,TRUE,,,,,,,CLR,,,,,,,,VFR,,,,,,,,,,,,METAR,396.0
KA08 240735Z AUTO 19010G14KT 10SM SCT080 13/09 A3011 RMK AO2 T01280087,KA08,2018-03-24T07:35:00Z,32.52,-87.38,12.8,8.7,190,10,14,10.0,30.109253,,,TRUE,TRUE,,,,,,,SCT,8000,,,,,,,VFR,,,,,,,,,,,,METAR,69.0
K9V9 240735Z AUTO 08006KT 2 1/2SM -DZ OVC003 02/02 A2994 RMK AO2 T00160016,K9V9,2018-03-24T07:35:00Z,43.77,-99.32,1.6,1.6,80,6,,2.5,29.940945,,,TRUE,TRUE,,,,,,-DZ,OVC,300,,,,,,,LIFR,,,,,,,,,,,,METAR,519.0
K9A5 240735Z AUTO 00000KT 10SM OVC090 09/03 A3015 RMK AO2 T00850032,K9A5,2018-03-24T07:35:00Z,34.68,-85.28,8.5,3.2,0,0,,10.0,30.15059,,,TRUE,TRUE,,,,,,,OVC,9000,,,,,,,VFR,,,,,,,,,,,,METAR,237.0
KBYY 240735Z AUTO 17010KT 10SM OVC019 21/19 A2998 RMK AO2 T02090195,KBYY,2018-03-24T07:35:00Z,28.97,-95.87,20.9,19.5,170,10,,10.0,29.97933,,,TRUE,TRUE,,,,,,,OVC,1900,,,,,,,MVFR,,,,,,,,,,,,METAR,14.0
KBXA 240735Z AUTO 17006KT 10SM CLR 17/14 A3010 RMK AO2 T01720135,KBXA,2018-03-24T07:35:00Z,30.82,-89.87,17.2,13.5,170,6,,10.0,30.100393,,,TRUE,TRUE,,,,,,,CLR,,,,,,,,VFR,,,,,,,,,,,,SPECI,36.0
KBPC 240735Z AUTO 36009KT 10SM CLR 15/00 A2990 RMK AO2,KBPC,2018-03-24T07:35:00Z,35.88,-101.03,15.0,0.0,360,9,,10.0,29.899607,,,TRUE,TRUE,,,,,,,CLR,,,,,,,,VFR,,,,,,,,,,,,METAR,845.0
KBKS 240735Z AUTO 16012G18KT 10SM OVC022 23/19 A2991 RMK AO1 T02310185,KBKS,2018-03-24T07:35:00Z,27.2,-98.12,23.1,18.5,160,12,18,10.0,29.911417,,,TRUE,TRUE,,,,,,,OVC,2200,,,,,,,MVFR,,,,,,,,,,,,METAR,34.0
KBIJ 240735Z AUTO 00000KT 10SM CLR 10/07 A3019 RMK AO2,KBIJ,2018-03-24T07:35:00Z,31.4,-84.9,10.0,7.0,0,0,,10.0,30.188976,,,TRUE,TRUE,,,,,,,CLR,,,,,,,,VFR,,,,,,,,,,,,SPECI,65.0
KBEA 240735Z AUTO 18015G23KT 10SM OVC015 21/19 A2993 RMK AO2 T02110186,KBEA,2018-03-24T07:35:00Z,28.37,-97.78,21.1,18.6,180,15,23,10.0,29.929134,,,TRUE,TRUE,,,,,,,OVC,1500,,,,,,,MVFR,,,,,,,,,,,,METAR,82.0
KBAM 240735Z AUTO 23004KT 10SM OVC100 03/M02 A2987 RMK AO1,KBAM,2018-03-24T07:35:00Z,,,3.0,-2.0,230,4,,10.0,29.870079,,,TRUE,TRUE,,,,,,,OVC,10000,,,,,,,VFR,,,,,,,,,,,,METAR,
KAZC 240735Z AUTO 17003KT 10SM CLR 03/02 A3005 RMK AO2,KAZC,2018-03-24T07:35:00Z,36.97,-113.02,3.0,2.0,170,3,,10.0,30.050198,,,TRUE,TRUE,,,,,,,CLR,,,,,,,,VFR,,,,,,,,,,,,METAR,1486.0
KAXX 240735Z AUTO 27017G27KT 10SM CLR 04/M08 A3012 RMK AO2 T00351077,KAXX,2018-03-24T07:35:00Z,36.42,-105.28,3.5,-7.7,270,17,27,10.0,30.121063,,,TRUE,TRUE,,,,,,,CLR,,,,,,,,VFR,,,,,,,,,,,,METAR,2548.0
KAVQ 240735Z AUTO 23006KT 10SM CLR 19/01 A2999 RMK AO2 T01900013,KAVQ,2018-03-24T07:35:00Z,32.4,-111.22,19.0,1.3,230,6,,10.0,29.991142,,,TRUE,TRUE,,,,,,,CLR,,,,,,,,VFR,,,,,,,,,,,,METAR,619.0
KAUN 240735Z AUTO 14006KT 10SM BKN050 OVC060 07/03 A3010 RMK AO1,KAUN,2018-03-24T07:35:00Z,38.95,-121.08,7.0,3.0,140,6,,10.0,30.100393,,,TRUE,TRUE,,,,,,,BKN,5000,OVC,6000,,,,,VFR,,,,,,,,,,,,SPECI,467.0
KASW 240735Z AUTO 11008KT 10SM CLR 00/M07 A3027 RMK AO2,KASW,2018-03-24T07:35:00Z,41.27,-85.83,0.0,-7.0,110,8,,10.0,30.268702,,,TRUE,TRUE,,,,,,,CLR,,,,,,,,VFR,,,,,,,,,,,,SPECI,259.0
KASN 240735Z AUTO 00000KT 10SM CLR 08/06 A3012 RMK AO2 T00770063,KASN,2018-03-24T07:35:00Z,33.57,-86.05,7.7,6.3,0,0,,10.0,30.121063,,,TRUE,TRUE,,,,,,,CLR,,,,,,,,VFR,,,,,,,,,,,,METAR,162.0
KARM 240735Z AUTO 17011G15KT 10SM BKN020 BKN026 21/18 A2998 RMK AO2 T02050176,KARM,2018-03-24T07:35:00Z,29.25,-96.15,20.5,17.6,170,11,15,10.0,29.97933,,,TRUE,TRUE,,,,,,,BKN,2000,BKN,2600,,,,,MVFR,,,,,,,,,,,,METAR,31.0
KAPS 240735Z AUTO 16005KT 10SM CLR 17/15 A3009 RMK AO2 T01720151,KAPS,2018-03-24T07:35:00Z,30.08,-90.58,17.2,15.1,160,5,,10.0,30.088583,,,TRUE,TRUE,,,,,,,CLR,,,,,,,,VFR,,,,,,,,,,,,SPECI,2.0
KAJG 240735Z AUTO 09012KT 4SM -RA SCT011 OVC029 05/04 A3010 RMK AO2 T00510043,KAJG,2018-03-24T07:35:00Z,38.62,-87.73,5.1,4.3,90,12,,4.0,30.100393,,,TRUE,TRUE,,,,,,-RA,SCT,1100,OVC,2900,,,,,MVFR,,,,,,,,,,,,SPECI,131.0
KAIB 240735Z AUTO 10009KT 10SM CLR 03/M01 A3013 RMK AO2,KAIB,2018-03-24T07:35:00Z,38.23,-108.57,3.0,-1.0,100,9,,10.0,30.129921,,,TRUE,TRUE,,,,,,,CLR,,,,,,,,VFR,,,,,,,,,,,,SPECI,1811.0
KAFO 240735Z AUTO 21006KT 10SM CLR M01/M05 A2995 RMK AO2,KAFO,2018-03-24T07:35:00Z,42.72,-110.95,-1.0,-5.0,210,6,,10.0,29.949802,,,TRUE,TRUE,,,,,,,CLR,,,,,,,,VFR,,,,,,,,,,,,METAR,1897.0
KADM 240735Z AUTO 20010G18KT 10SM CLR 21/16 A2976 RMK AO2 T02060161,KADM,2018-03-24T07:35:00Z,34.28,-97.02,20.6,16.1,200,10,18,10.0,29.760826,,,TRUE,TRUE,,,,,,,CLR,,,,,,,,VFR,,,,,,,,,,,,SPECI,232.0
K82V 240735Z AUTO 2SM BKN001 00/00 A3003 RMK AO2 VIS 1V5 PWINO,K82V,2018-03-24T07:35:00Z,41.15,-104.13,0.0,0.0,,,,2.0,30.029528,,,TRUE,TRUE,,,,,TRUE,,BKN,100,,,,,,,LIFR,,,,,,,,,,,,METAR,1570.0
K6S2 240735Z AUTO 14003KT 10SM BKN020 BKN028 OVC050 02/01 A2989 RMK AO2,K6S2,2018-03-24T07:35:00Z,43.98,-124.12,2.0,1.0,140,3,,10.0,29.890747,,,TRUE,TRUE,,,,,,,BKN,2000,BKN,2800,OVC,5000,,,MVFR,,,,,,,,,,,,METAR,16.0
K6A2 240735Z AUTO 00000KT 10SM SCT110 09/06 A3016 RMK AO2,K6A2,2018-03-24T07:35:00Z,33.23,-84.27,9.0,6.0,0,0,,10.0,30.159449,,,TRUE,TRUE,,,,,,,SCT,11000,,,,,,,VFR,,,,,,,,,,,,SPECI,292.0
K4V0 240735Z AUTO 00000KT 10SM CLR 01/00 A3005 RMK AO2 T00051003,K4V0,2018-03-24T07:35:00Z,40.1,-108.77,0.5,-0.3,0,0,,10.0,30.050198,,,TRUE,TRUE,,,,,,,CLR,,,,,,,,VFR,,,,,,,,,,,,METAR,1608.0
K4S2 240735Z AUTO 18003KT 10SM DZ SCT005 OVC013 03/02 A2975 RMK AO2,K4S2,2018-03-24T07:35:00Z,45.68,-121.55,3.0,2.0,180,3,,10.0,29.749016,,,TRUE,TRUE,,,,,,DZ,SCT,500,OVC,1300,,,,,MVFR,,,,,,,,,,,,SPECI,192.0
K4R5 240735Z AUTO 06003KT 10SM CLR M05/M09 A3041 RMK AO2 T10541095,K4R5,2018-03-24T07:35:00Z,46.78,-90.77,-5.4,-9.5,60,3,,10.0,30.410433,,,TRUE,TRUE,,,,,,,CLR,,,,,,,,VFR,,,,,,,,,,,,SPECI,198.0
K4O4 240735Z AUTO 18009KT 10SM OVC036 18/13 A2987 RMK AO2,K4O4,2018-03-24T07:35:00Z,33.92,-94.87,18.0,13.0,180,9,,10.0,29.870079,,,TRUE,TRUE,,,,,,,OVC,3600,,,,,,,VFR,,,,,,,,,,,,METAR,144.0
K4A9 240735Z AUTO 00000KT 10SM OVC090 10/01 A3012 RMK AO2,K4A9,2018-03-24T07:35:00Z,34.47,-85.72,10.0,1.0,0,0,,10.0,30.121063,,,TRUE,TRUE,,,,,,,OVC,9000,,,,,,,VFR,,,,,,,,,,,,SPECI,267.0
K3R7 240735Z AUTO 16007KT 10SM CLR 18/17 A3003 RMK AO2 T01820166,K3R7,2018-03-24T07:35:00Z,30.25,-92.67,18.2,16.6,160,7,,10.0,30.029528,,,TRUE,TRUE,,,,,,,CLR,,,,,,,,VFR,,,,,,,,,,,,SPECI,7.0
K3J7 240735Z AUTO 00000KT 10SM OVC085 12/07 A3013 RMK AO2,K3J7,2018-03-24T07:35:00Z,33.6,-83.13,12.0,7.0,0,0,,10.0,30.129921,,,TRUE,TRUE,,,,,,,OVC,8500,,,,,,,VFR,,,,,,,,,,,,SPECI,206.0
K3I2 240735Z AUTO 00000KT 10SM CLR M02/M05 A3027 RMK AO2 T10241055,K3I2,2018-03-24T07:35:00Z,38.92,-82.1,-2.4,-5.5,0,0,,10.0,30.268702,,,TRUE,TRUE,,,,,,,CLR,,,,,,,,VFR,,,,,,,,,,,,SPECI,196.0
K2F5 240735Z AUTO 26007KT 10SM SCT070 BKN100 BKN120 14/08 A2993 RMK AO2,K2F5,2018-03-24T07:35:00Z,32.75,-101.92,14.0,8.0,260,7,,10.0,29.929134,,,TRUE,TRUE,,,,,,,SCT,7000,BKN,10000,BKN,12000,,,VFR,,,,,,,,,,,,METAR,912.0
K22N 240735Z AUTO 00000KT 10SM CLR 00/M09 A3014 RMK AO2,K22N,2018-03-24T07:35:00Z,40.8,-75.77,0.0,-9.0,0,0,,10.0,30.138779,,,TRUE,TRUE,,,,,,,CLR,,,,,,,,VFR,,,,,,,,,,,,SPECI,163.0
K1A9 240735Z AUTO 00000KT 10SM BKN095 10/08 A3013 RMK AO2 T01020081,K1A9,2018-03-24T07:35:00Z,32.43,-86.52,10.2,8.1,0,0,,10.0,30.129921,,,TRUE,TRUE,,,,,,,BKN,9500,,,,,,,VFR,,,,,,,,,,,,SPECI,69.0
K0F2 240735Z AUTO 17012G20KT 10SM CLR 20/16 A2979 RMK AO2 T01950157,K0F2,2018-03-24T07:35:00Z,33.6,-97.78,19.5,15.7,170,12,20,10.0,29.790354,,,TRUE,TRUE,,,,,,,CLR,,,,,,,,VFR,,,,,,,,,,,,METAR,336.0
K0E0 240735Z AUTO 28009KT 10SM CLR 09/M10 A3012 RMK AO2 T00921100,K0E0,2018-03-24T07:35:00Z,34.98,-106.0,9.2,-10.0,280,9,,10.0,30.121063,,,TRUE,TRUE,,,,,,,CLR,,,,,,,,VFR,,,,,,,,,,,,METAR,1890.0
K06C 240735Z AUTO 08004KT 10SM SCT110 00/M03 A3022 RMK AO2 T00031026,K06C,2018-03-24T07:35:00Z,41.98,-88.1,0.3,-2.6,80,4,,10.0,30.221457,,,TRUE,TRUE,,,,,,,SCT,11000,,,,,,,VFR,,,,,,,,,,,,METAR,244.0
KGAO 240735Z AUTO 16006KT 10SM CLR 18/15 A3009 RMK AO2 T01800147,KGAO,2018-03-24T07:35:00Z,29.45,-90.27,18.0,14.7,160,6,,10.0,30.088583,,,TRUE,TRUE,,,,,,,CLR,,,,,,,,VFR,,,,,,,,,,,,SPECI,1.0
KFWZ 240735Z AUTO 25007KT 10SM CLR M02/M08 RMK AO2 TSNO,KFWZ,2018-03-24T07:35:00Z,42.52,-108.78,-2.0,-8.0,250,7,,10.0,,,,TRUE,TRUE,,,TRUE,,,,CLR,,,,,,,,VFR,,,,,,,,,,,,METAR,2588.0
KFWB 240735Z AUTO 12006KT 10SM OVC036 17/13 A2979 RMK AO2,KFWB,2018-03-24T07:35:00Z,36.7,-93.4,17.0,13.0,120,6,,10.0,29.790354,,,TRUE,TRUE,,,,,,,OVC,3600,,,,,,,VFR,,,,,,,,,,,,SPECI,406.0
KFRR 240735Z AUTO 31003KT 10SM CLR 00/M07 A3020 RMK AO1,KFRR,2018-03-24T07:35:00Z,38.92,-78.25,0.0,-7.0,310,3,,10.0,30.200787,,,TRUE,TRUE,,,,,,,CLR,,,,,,,,VFR,,,,,,,,,,,,SPECI,216.0
KFOA 240735Z AUTO 10012KT 4SM -RA OVC009 06/05 A3007 RMK AO2 P0006 T00570047,KFOA,2018-03-24T07:35:00Z,38.67,-88.45,5.7,4.7,100,12,,4.0,30.070866,,,TRUE,TRUE,,,,,,-RA,OVC,900,,,,,,,IFR,,,,,,0.06,,,,,,SPECI,144.0
KFEP 240735Z AUTO 07010KT 10SM OVC100 00/M05 A3020 RMK AO2 T10051052,KFEP,2018-03-24T07:35:00Z,42.25,-89.58,-0.5,-5.2,70,10,,10.0,30.200787,,,TRUE,TRUE,,,,,,,OVC,10000,,,,,,,VFR,,,,,,,,,,,,SPECI,262.0
KFBR 240735Z AUTO 16010KT 10SM CLR M02/M09 A3003 RMK AO2 T10201088,KFBR,2018-03-24T07:35:00Z,41.4,-110.4,-2.0,-8.8,160,10,,10.0,30.029528,,,TRUE,TRUE,,,,,,,CLR,,,,,,,,VFR,,,,,,,,,,,,METAR,2144.0
KF46 240735Z AUTO 24014G25KT 10SM BKN020 19/16 A2986 RMK AO2 T01900155,KF46,2018-03-24T07:35:00Z,32.93,-96.43,19.0,15.5,240,14,25,10.0,29.861221,,,TRUE,TRUE,,,,,,,BKN,2000,,,,,,,MVFR,,,,,,,,,,,,METAR,176.0
KEZS 240735Z AUTO 05007KT 10SM CLR M04/M10 A3037 RMK AO2 T10411100,KEZS,2018-03-24T07:35:00Z,44.78,-88.57,-4.1,-10.0,50,7,,10.0,30.369095,,,TRUE,TRUE,,,,,,,CLR,,,,,,,,VFR,,,,,,,,,,,,SPECI,248.0
KEQA 240735Z AUTO 00000KT 10SM CLR 16/15 A2962 RMK AO2,KEQA,2018-03-24T07:35:00Z,37.78,-96.82,16.0,15.0,0,0,,10.0,29.619095,,,TRUE,TRUE,,,,,,,CLR,,,,,,,,VFR,,,,,,,,,,,,SPECI,420.0
KEOE 240735Z AUTO 04005KT 10SM OVC060 11/00 A3021 RMK AO2,KEOE,2018-03-24T07:35:00Z,34.32,-81.63,11.0,0.0,40,5,,10.0,30.209646,,,TRUE,TRUE,,,,,,,OVC,6000,,,,,,,VFR,,,,,,,,,,,,SPECI,174.0
KEGV 240735Z AUTO 09006KT 10SM CLR M08/M13 A3032 RMK AO2 T10771132,KEGV,2018-03-24T07:35:00Z,45.93,-89.27,-7.7,-13.2,90,6,,10.0,30.318897,,,TRUE,TRUE,,,,,,,CLR,,,,,,,,VFR,,,,,,,,,,,,SPECI,500.0
KEFK 240735Z AUTO 31004KT 10SM OVC080 M01/M07 A3003 RMK AO2 T10151075,KEFK,2018-03-24T07:35:00Z,44.88,-72.23,-1.5,-7.5,310,4,,10.0,30.029528,,,TRUE,TRUE,,,,,,,OVC,8000,,,,,,,VFR,,,,,,,,,,,,SPECI,284.0
KECU 240735Z AUTO 16012KT 10SM FEW016 FEW028 SCT037 17/16 A2999 RMK AO2,KECU,2018-03-24T07:35:00Z,29.95,-100.17,17.0,16.0,160,12,,10.0,29.991142,,,TRUE,TRUE,,,,,,,FEW,1600,FEW,2800,SCT,3700,,,VFR,,,,,,,,,,,,METAR,725.0
KECS 240735Z AUTO 33003KT 10SM CLR M01/M02 A2998 RMK AO2,KECS,2018-03-24T07:35:00Z,43.88,-104.32,-1.0,-2.0,330,3,,10.0,29.97933,,,TRUE,TRUE,,,,,,,CLR,,,,,,,,VFR,,,,,,,,,,,,METAR,1273.0
KEBS 240735Z AUTO 09027G39KT 2 1/2SM +UP OVC008 00/M01 A2992 RMK AO2,KEBS,2018-03-24T07:35:00Z,42.42,-93.87,0.0,-1.0,90,27,39,2.5,29.920275,,,TRUE,TRUE,,,,,,UP,OVC,800,,,,,,,IFR,,,,,,,,,,,,SPECI,342.0
KDZB 240735Z AUTO 17007G14KT OVC016 19/16 A2992 RMK AO2 T01930164 PWINO,KDZB,2018-03-24T07:35:00Z,30.53,-98.37,19.3,16.4,170,7,14,,29.920275,,,TRUE,TRUE,,,,,TRUE,,OVC,1600,,,,,,,,,,,,,,,,,,,METAR,334.0
KDUX 240735Z AUTO 29012G18KT 10SM CLR 14/M05 A2991 RMK AO2 T01411054,KDUX,2018-03-24T07:35:00Z,35.85,-102.02,14.1,-5.4,290,12,18,10.0,29.911417,,,TRUE,TRUE,,,,,,,CLR,,,,,,,,VFR,,,,,,,,,,,,METAR,1129.0
KDRI 240735Z AUTO 15005KT 10SM BKN015 BKN023 18/17 A3003 RMK AO2 T01750166,KDRI,2018-03-24T07:35:00Z,30.83,-93.33,17.5,16.6,150,5,,10.0,30.029528,,,TRUE,TRUE,,,,,,,BKN,1500,BKN,2300,,,,,MVFR,,,,,,,,,,,,SPECI,63.0
KDNN 240735Z AUTO 00000KT 10SM SCT110 07/04 A3015 RMK AO2,KDNN,2018-03-24T07:35:00Z,34.72,-84.87,7.0,4.0,0,0,,10.0,30.15059,,,TRUE,TRUE,,,,,,,SCT,11000,,,,,,,VFR,,,,,,,,,,,,SPECI,216.0
KDLO 240735Z AUTO 00000KT 10SM CLR 06/05 A3010 RMK AO2 T00640047,KDLO,2018-03-24T07:35:00Z,35.75,-119.23,6.4,4.7,0,0,,10.0,30.100393,,,TRUE,TRUE,,,,,,,CLR,,,,,,,,VFR,,,,,,,,,,,,METAR,96.0
KDKB 240735Z AUTO 08011KT 10SM CLR 01/M03 A3020 RMK AO2 T00061030 TSNO,KDKB,2018-03-24T07:35:00Z,41.93,-88.7,0.6,-3.0,80,11,,10.0,30.200787,,,TRUE,TRUE,,,TRUE,,,,CLR,,,,,,,,VFR,,,,,,,,,,,,METAR,279.0
KCZT 240735Z AUTO 12005KT 10SM CLR 20/16 A2990 RMK AO2,KCZT,2018-03-24T07:35:00Z,28.52,-99.82,20.0,16.0,120,5,,10.0,29.899607,,,TRUE,TRUE,,,,,,,CLR,,,,,,,,VFR,,,,,,,,,,,,METAR,183.0
KCZL 240735Z AUTO 00000KT 10SM OVC110 10/03 A3016 RMK AO2 T00960033,KCZL,2018-03-24T07:35:00Z,34.47,-84.93,9.6,3.3,0,0,,10.0,30.159449,,,TRUE,TRUE,,,,,,,OVC,11000,,,,,,,VFR,,,,,,,,,,,,SPECI,195.0
KCXU 240735Z AUTO 00000KT 10SM CLR 10/07 A3020 RMK AO1 T00980068,KCXU,2018-03-24T07:35:00Z,31.22,-84.23,9.8,6.8,0,0,,10.0,30.200787,,,TRUE,TRUE,,,,,,,CLR,,,,,,,,VFR,,,,,,,,,,,,SPECI,53.0
KCWV 240735Z AUTO 00000KT 10SM OVC090 11/08 A3018 RMK AO2 T01060080,KCWV,2018-03-24T07:35:00Z,32.2,-81.87,10.6,8.0,0,0,,10.0,30.180119,,,TRUE,TRUE,,,,,,,OVC,9000,,,,,,,VFR,,,,,,,,,,,,SPECI,33.0
KCWC 240735Z AUTO 20010G19KT 10SM CLR 22/15 A2977 RMK AO2 T02200150,KCWC,2018-03-24T07:35:00Z,33.85,-98.48,22.0,15.0,200,10,19,10.0,29.769686,,,TRUE,TRUE,,,,,,,CLR,,,,,,,,VFR,,,,,,,,,,,,METAR,305.0
KCUL 240735Z AUTO 10014KT 7SM -DZ OVC010 06/05 A3005 RMK AO2 T00560048,KCUL,2018-03-24T07:35:00Z,38.08,-88.12,5.6,4.8,100,14,,7.0,30.050198,,,TRUE,TRUE,,,,,,-DZ,OVC,1000,,,,,,,MVFR,,,,,,,,,,,,METAR,118.0
KCMD 240735Z AUTO 15005KT 10SM CLR 12/03 A3011 RMK AO2 T01160033,KCMD,2018-03-24T07:35:00Z,34.27,-86.85,11.6,3.3,150,5,,10.0,30.109253,,,TRUE,TRUE,,,,,,,CLR,,,,,,,,VFR,,,,,,,,,,,,SPECI,294.0
KCLI 240735Z AUTO 06007KT 10SM CLR M04/M11 A3035 RMK AO2 T10451110,KCLI,2018-03-24T07:35:00Z,44.62,-88.73,-4.5,-11.0,60,7,,10.0,30.351377,,,TRUE,TRUE,,,,,,,CLR,,,,,,,,VFR,,,,,,,,,,,,METAR,250.0
KCKP 240735Z AUTO 10011G20KT 5SM -RA BKN015 OVC022 01/01 A2992 RMK AO2 P0003 T00120008,KCKP,2018-03-24T07:35:00Z,42.73,-95.55,1.2,0.8,100,11,20,5.0,29.920275,,,TRUE,TRUE,,,,,,-RA,BKN,1500,OVC,2200,,,,,MVFR,,,,,,0.03,,,,,,METAR,374.0
KCKF 240735Z AUTO 00000KT 10SM SCT120 12/07 A3020 RMK AO2 T01160073,KCKF,2018-03-24T07:35:00Z,31.98,-83.77,11.6,7.3,0,0,,10.0,30.200787,,,TRUE,TRUE,,,,,,,SCT,12000,,,,,,,VFR,,,,,,,,,,,,SPECI,91.0
KCIR 240735Z AUTO 09011G15KT 10SM BKN065 OVC075 09/06 A2996 RMK AO2 T00880061,KCIR,2018-03-24T07:35:00Z,37.07,-89.22,8.8,6.1,90,11,15,10.0,29.958662,,,TRUE,TRUE,,,,,,,BKN,6500,OVC,7500,,,,,VFR,,,,,,,,,,,,METAR,98.0
KCEY 240735Z AUTO 09009G16KT 10SM OVC055 08/07 A2999 RMK AO1,KCEY,2018-03-24T07:35:00Z,36.67,-88.37,8.0,7.0,90,9,16,10.0,29.991142,,,TRUE,TRUE,,,,,,,OVC,5500,,,,,,,VFR,,,,,,,,,,,,SPECI,176.0
KCDH 240735Z AUTO 19009G16KT 10SM OVC031 19/13 A2992 RMK AO2,KCDH,2018-03-24T07:35:00Z,33.62,-92.77,19.0,13.0,190,9,16,10.0,29.920275,,,TRUE,TRUE,,,,,,,OVC,3100,,,,,,,VFR,,,,,,,,,,,,SPECI,35.0
KC35 240735Z AUTO 08008KT 10SM CLR M02/M07 A3025 RMK AO2 T10201071,KC35,2018-03-24T07:35:00Z,43.53,-89.98,-2.0,-7.1,80,8,,10.0,30.250984,,,TRUE,TRUE,,,,,,,CLR,,,,,,,,VFR,,,,,,,,,,,,SPECI,276.0
PAUT 240735Z AUTO 18012G16KT 10SM SCT017 BKN027 OVC040 02/00 A3009 RMK AO2 T00180000,PAUT,2018-03-24T07:35:00Z,54.15,-165.6,1.8,0.0,180,12,16,10.0,30.088583,,,TRUE,TRUE,,,,,,,SCT,1700,BKN,2700,OVC,4000,,,MVFR,,,,,,,,,,,,SPECI,25.0
KY51 240735Z AUTO 10016G22KT 10SM CLR M01/M08 A3020 RMK AO1 T10151082,KY51,2018-03-24T07:35:00Z,43.58,-90.9,-1.5,-8.2,100,16,22,10.0,30.200787,,,TRUE,TRUE,,,,,,,CLR,,,,,,,,VFR,,,,,,,,,,,,SPECI,394.0
KXSA 240735Z AUTO 00000KT 10SM CLR 00/M05 A3020 RMK AO2 T10021054,KXSA,2018-03-24T07:35:00Z,37.87,-76.9,-0.2,-5.4,0,0,,10.0,30.200787,,,TRUE,TRUE,,,,,,,CLR,,,,,,,,VFR,,,,,,,,,,,,SPECI,42.0
KXBP 240735Z AUTO 20011G19KT 10SM CLR 20/15 A2983 RMK AO2 T02000152,KXBP,2018-03-24T07:35:00Z,33.18,-97.83,20.0,15.2,200,11,19,10.0,29.828741,,,TRUE,TRUE,,,,,,,CLR,,,,,,,,VFR,,,,,,,,,,,,METAR,260.0
KWWR 240735Z AUTO 32010KT 10SM CLR 13/06 A2984 RMK AO2,KWWR,2018-03-24T07:35:00Z,36.45,-99.52,13.0,6.0,320,10,,10.0,29.840551,,,TRUE,TRUE,,,,,,,CLR,,,,,,,,VFR,,,,,,,,,,,,METAR,667.0
KW96 240735Z AUTO 00000KT 10SM CLR 01/M08 A3021 RMK AO1 T00141079,KW96,2018-03-24T07:35:00Z,37.5,-77.12,1.4,-7.9,0,0,,10.0,30.209646,,,TRUE,TRUE,,,,,,,CLR,,,,,,,,VFR,,,,,,,,,,,,SPECI,37.0
KW31 240735Z AUTO 36003KT 10SM CLR 00/M07 A3020 RMK AO1 T00011070,KW31,2018-03-24T07:35:00Z,36.95,-78.18,0.1,-7.0,360,3,,10.0,30.200787,,,TRUE,TRUE,,,,,,,CLR,,,,,,,,VFR,,,,,,,,,,,,SPECI,162.0
KVJI 240735Z AUTO 00000KT 10SM OVC075 03/M02 A3016 RMK AO2 T00331024,KVJI,2018-03-24T07:35:00Z,36.67,-82.02,3.3,-2.4,0,0,,10.0,30.159449,,,TRUE,TRUE,,,,,,,OVC,7500,,,,,,,VFR,,,,,,,,,,,,SPECI,631.0
KUVA 240735Z AUTO 10006KT 10SM CLR 18/16 A2993 RMK AO2 T01810164,KUVA,2018-03-24T07:35:00Z,29.22,-99.75,18.1,16.4,100,6,,10.0,29.929134,,,TRUE,TRUE,,,,,,,CLR,,,,,,,,VFR,,,,,,,,,,,,METAR,287.0
KUTA 240735Z AUTO 19016G23KT 10SM 17/10 A2996 RMK AO2 TSNO,KUTA,2018-03-24T07:35:00Z,34.68,-90.35,17.0,10.0,190,16,23,10.0,29.958662,,,TRUE,TRUE,,,TRUE,,,,,,,,,,,,,,,,,,,,,,,,SPECI,59.0
KTZR 240735Z AUTO 04003KT 10SM CLR M02/M07 A3028 RMK AO2 T10201066,KTZR,2018-03-24T07:35:00Z,39.9,-83.13,-2.0,-6.6,40,3,,10.0,30.280512,,,TRUE,TRUE,,,,,,,CLR,,,,,,,,VFR,,,,,,,,,,,,SPECI,276.0
KTYQ 240735Z AUTO 08008KT 10SM OVC090 02/M05 A3022 RMK AO2 T00161051,KTYQ,2018-03-24T07:35:00Z,40.03,-86.25,1.6,-5.1,80,8,,10.0,30.221457,,,TRUE,TRUE,,,,,,,OVC,9000,,,,,,,VFR,,,,,,,,,,,,SPECI,281.0
KTSP 240735Z AUTO 31010KT 5SM BR SCT006 BKN016 OVC025 03/03 A3007 RMK AO2,KTSP,2018-03-24T07:35:00Z,35.13,-118.43,3.0,3.0,310,10,,5.0,30.070866,,,TRUE,TRUE,,,,,,BR,SCT,600,BKN,1600,OVC,2500,,,MVFR,,,,,,,,,,,,METAR,1220.0
KTQH 240735Z AUTO 21013G20KT 10SM BKN032 BKN039 20/15 A2976 RMK AO2,KTQH,2018-03-24T07:35:00Z,35.93,-95.0,20.0,15.0,210,13,20,10.0,29.760826,,,TRUE,TRUE,,,,,,,BKN,3200,BKN,3900,,,,,VFR,,,,,,,,,,,,METAR,266.0
KTNB 240735Z AUTO 00000KT 10SM SCT100 M01/M05 A3014 RMK AO2 T10151046,KTNB,2018-03-24T07:35:00Z,36.2,-81.65,-1.5,-4.6,0,0,,10.0,30.138779,,,TRUE,TRUE,,,,,,,SCT,10000,,,,,,,VFR,,,,,,,,,,,,METAR,911.0
KTEX 240735Z AUTO 14005KT 10SM CLR 00/M08 A3018 RMK AO2 T00001079,KTEX,2018-03-24T07:35:00Z,37.95,-107.9,0.0,-7.9,140,5,,10.0,30.180119,,,TRUE,TRUE,,,,,,,CLR,,,,,,,,VFR,,,,,,,,,,,,METAR,2769.0
KSZT 240735Z AUTO 03005KT 10SM -RA OVC012 00/00 A2981 RMK AO2,KSZT,2018-03-24T07:35:00Z,48.3,-116.57,0.0,0.0,30,5,,10.0,29.811024,,,TRUE,TRUE,,,,,,-RA,OVC,1200,,,,,,,MVFR,,,,,,,,,,,,METAR,648.0
KSYF 240735Z AUTO 32009G16KT 10SM CLR 07/04 A2996 RMK AO2 T00650043,KSYF,2018-03-24T07:35:00Z,39.77,-101.8,6.5,4.3,320,9,16,10.0,29.958662,,,TRUE,TRUE,,,,,,,CLR,,,,,,,,VFR,,,,,,,,,,,,METAR,1025.0
KSVE 240735Z AUTO 23017G36KT 10SM CLR 03/M05 A2983 RMK AO2,KSVE,2018-03-24T07:35:00Z,40.37,-120.57,3.0,-5.0,230,17,36,10.0,29.828741,,,TRUE,TRUE,,,,,,,CLR,,,,,,,,VFR,,,,,,,,,,,,METAR,1263.0
KSUW 240735Z AUTO 08009KT 10SM CLR M05/M10 A3038 RMK AO2 T10501100,KSUW,2018-03-24T07:35:00Z,46.68,-92.1,-5.0,-10.0,80,9,,10.0,30.380905,,,TRUE,TRUE,,,,,,,CLR,,,,,,,,VFR,,,,,,,,,,,,METAR,206.0
KSUN 240735Z AUTO 29005KT 10SM SCT055 SCT070 BKN080 01/M02 A2985 RMK AO2,KSUN,2018-03-24T07:35:00Z,43.5,-114.28,1.0,-2.0,290,5,,10.0,29.84941,,,TRUE,TRUE,,,,,,,SCT,5500,SCT,7000,BKN,8000,,,VFR,,,,,,,,,,,,METAR,1620.0
KSNK 240735Z AUTO 20008KT 10SM CLR 18/14 A2990 RMK AO2 T01780135,KSNK,2018-03-24T07:35:00Z,32.7,-100.95,17.8,13.5,200,8,,10.0,29.899607,,,TRUE,TRUE,,,,,,,CLR,,,,,,,,VFR,,,,,,,,,,,,METAR,741.0
KSLO 240735Z AUTO 10011G16KT 5SM RA OVC006 06/05 A3002 RMK AO2 T00610049,KSLO,2018-03-24T07:35:00Z,38.65,-88.97,6.1,4.9,100,11,16,5.0,30.02067,,,TRUE,TRUE,,,,,,RA,OVC,600,,,,,,,IFR,,,,,,,,,,,,METAR,175.0
KSCD 240735Z AUTO 22003KT 10SM SCT090 14/07 A3012 RMK AO2 T01350071,KSCD,2018-03-24T07:35:00Z,33.17,-86.3,13.5,7.1,220,3,,10.0,30.121063,,,TRUE,TRUE,,,,,,,SCT,9000,,,,,,,VFR,,,,,,,,,,,,METAR,173.0
KSAR 240735Z AUTO 11014G20KT 7SM -RA OVC005 06/06 A2996 RMK AO2 T00600060,KSAR,2018-03-24T07:35:00Z,38.15,-89.7,6.0,6.0,110,14,20,7.0,29.958662,,,TRUE,TRUE,,,,,,-RA,OVC,500,,,,,,,IFR,,,,,,,,,,,,METAR,164.0
KRSV 240735Z AUTO 09011G17KT 7SM -RA BKN065 BKN075 OVC085 04/03 A3011 RMK AO2 P0006 T00370025,KRSV,2018-03-24T07:35:00Z,39.02,-87.65,3.7,2.5,90,11,17,7.0,30.109253,,,TRUE,TRUE,,,,,,-RA,BKN,6500,BKN,7500,OVC,8500,,,VFR,,,,,,0.06,,,,,,METAR,141.0
KRSN 240735Z AUTO 19012KT 10SM BKN023 OVC030 19/14 A3000 RMK AO2 T01850139,KRSN,2018-03-24T07:35:00Z,32.52,-92.58,18.5,13.9,190,12,,10.0,30.0,,,TRUE,TRUE,,,,,,,BKN,2300,OVC,3000,,,,,MVFR,,,,,,,,,,,,METAR,95.0
KRRL 240735Z AUTO 08008G14KT 10SM CLR M05/M13 A3031 RMK AO2 T10551134,KRRL,2018-03-24T07:35:00Z,45.2,-89.72,-5.5,-13.4,80,8,14,10.0,30.31004,,,TRUE,TRUE,,,,,,,CLR,,,,,,,,VFR,,,,,,,,,,,,METAR,401.0
KRFI 240735Z AUTO 19008G17KT 10SM OVC016 18/16 A2992 RMK AO2 T01830157,KRFI,2018-03-24T07:35:00Z,32.15,-94.85,18.3,15.7,190,8,17,10.0,29.920275,,,TRUE,TRUE,,,,,,,OVC,1600,,,,,,,MVFR,,,,,,,,,,,,METAR,135.0
KRCX 240735Z AUTO 08008KT 10SM CLR M03/M12 A3031 RMK AO2 T10281117,KRCX,2018-03-24T07:35:00Z,45.5,-91.0,-2.8,-11.7,80,8,,10.0,30.31004,,,TRUE,TRUE,,,,,,,CLR,,,,,,,,VFR,,,,,,,,,,,,METAR,377.0
KRCR 240735Z AUTO 10012KT 10SM CLR 01/M07 A3026 RMK AO2,KRCR,2018-03-24T07:35:00Z,41.07,-86.18,1.0,-7.0,100,12,,10.0,30.259842,,,TRUE,TRUE,,,,,,,CLR,,,,,,,,VFR,,,,,,,,,,,,METAR,241.0
KPYX 240735Z AUTO 34009KT 10SM CLR 13/05 A2986 RMK AO2 T01270054,KPYX,2018-03-24T07:35:00Z,36.42,-100.75,12.7,5.4,340,9,,10.0,29.861221,,,TRUE,TRUE,,,,,,,CLR,,,,,,,,VFR,,,,,,,,,,,,METAR,889.0
KPVJ 240735Z AUTO 20014G21KT 10SM CLR 20/16 A2972 RMK AO2 T02000157,KPVJ,2018-03-24T07:35:00Z,34.72,-97.22,20.0,15.7,200,14,21,10.0,29.719488,,,TRUE,TRUE,,,,,,,CLR,,,,,,,,VFR,,,,,,,,,,,,METAR,295.0
KPVF 240735Z AUTO 14005KT 10SM SCT048 BKN050 OVC065 03/02 A3010 RMK AO1,KPVF,2018-03-24T07:35:00Z,38.72,-120.75,3.0,2.0,140,5,,10.0,30.100393,,,TRUE,TRUE,,,,,,,SCT,4800,BKN,5000,OVC,6500,,,VFR,,,,,,,,,,,,METAR,789.0
KPUJ 240735Z AUTO 00000KT 10SM BKN100 12/06 A3013 RMK AO2,KPUJ,2018-03-24T07:35:00Z,33.92,-84.93,12.0,6.0,0,0,,10.0,30.129921,,,TRUE,TRUE,,,,,,,BKN,10000,,,,,,,VFR,,,,,,,,,,,,METAR,393.0
KPTB 240735Z AUTO 34004KT 10SM CLR 01/M08 A3022 RMK AO2 T00061080,KPTB,2018-03-24T07:35:00Z,37.17,-77.52,0.6,-8.0,340,4,,10.0,30.221457,,,TRUE,TRUE,,,,,,,CLR,,,,,,,,VFR,,,,,,,,,,,,METAR,59.0
KPSN 240735Z AUTO 17009G13KT 10SM BKN023 20/16 A2994 RMK AO2 T01970159,KPSN,2018-03-24T07:35:00Z,31.78,-95.7,19.7,15.9,170,9,13,10.0,29.940945,,,TRUE,TRUE,,,,,,,BKN,2300,,,,,,,MVFR,,,,,,,,,,,,METAR,129.0
KPKV 240735Z AUTO 17009G14KT 7SM SCT014 20/19 A2995 RMK AO2 T02030185,KPKV,2018-03-24T07:35:00Z,28.65,-96.68,20.3,18.5,170,9,14,7.0,29.949802,,,TRUE,TRUE,,,,,,,SCT,1400,,,,,,,VFR,,,,,,,,,,,,METAR,9.0
KPEZ 240735Z AUTO 16004KT 10SM OVC019 20/18 A2995 RMK AO2 T02030179,KPEZ,2018-03-24T07:35:00Z,28.95,-98.52,20.3,17.9,160,4,,10.0,29.949802,,,TRUE,TRUE,,,,,,,OVC,1900,,,,,,,MVFR,,,,,,,,,,,,METAR,132.0
KPCZ 240735Z AUTO 05005KT 10SM CLR M03/M09 A3035 RMK AO2 T10271090,KPCZ,2018-03-24T07:35:00Z,44.33,-89.02,-2.7,-9.0,50,5,,10.0,30.351377,,,TRUE,TRUE,,,,,,,CLR,,,,,,,,VFR,,,,,,,,,,,,METAR,252.0
KPBH 240735Z AUTO 09009KT 10SM CLR M06/M14 A3029 RMK AO2 T10581144,KPBH,2018-03-24T07:35:00Z,45.7,-90.4,-5.8,-14.4,90,9,,10.0,30.28937,,,TRUE,TRUE,,,,,,,CLR,,,,,,,,VFR,,,,,,,,,,,,METAR,449.0
KOZS 240735Z AUTO 11010KT 10SM RA BKN042 BKN048 OVC055 12/10 A2977 RMK AO2 LTG DSNT E,KOZS,2018-03-24T07:35:00Z,37.97,-92.68,12.0,10.0,110,10,,10.0,29.769686,,,TRUE,TRUE,,,,,,RA,BKN,4200,BKN,4800,OVC,5500,,,VFR,,,,,,,,,,,,METAR,324.0
KOWP 240735Z AUTO 20007KT 10SM CLR 21/16 A2971 RMK AO2 T02050160,KOWP,2018-03-24T07:35:00Z,36.18,-96.15,20.5,16.0,200,7,,10.0,29.71063,,,TRUE,TRUE,,,,,,,CLR,,,,,,,,VFR,,,,,,,,,,,,METAR,272.0
KORG 240735Z AUTO 19008KT 10SM CLR 20/19 A3002 RMK AO2 T01950187,KORG,2018-03-24T07:35:00Z,30.07,-93.8,19.5,18.7,190,8,,10.0,30.02067,,,TRUE,TRUE,,,,,,,CLR,,,,,,,,VFR,,,,,,,,,,,,METAR,4.0
KOOA 240735Z AUTO 10025G33KT 7SM BKN009 OVC012 00/M01 A2996 RMK AO2 T00001007,KOOA,2018-03-24T07:35:00Z,41.23,-92.5,0.0,-0.7,100,25,33,7.0,29.958662,,,TRUE,TRUE,,,,,,,BKN,900,OVC,1200,,,,,IFR,,,,,,,,,,,,METAR,256.0
KOJA 240735Z AUTO 25006KT 10SM CLR 18/13 A2974 RMK AO2,KOJA,2018-03-24T07:35:00Z,35.55,-98.67,18.0,13.0,250,6,,10.0,29.740158,,,TRUE,TRUE,,,,,,,CLR,,,,,,,,VFR,,,,,,,,,,,,METAR,490.0
KMPZ 240735Z AUTO 10024G29KT 2SM -SN OVC006 00/00 A3003 RMK AO2 P0001,KMPZ,2018-03-24T07:35:00Z,40.95,-91.52,0.0,0.0,100,24,29,2.0,30.029528,,,TRUE,TRUE,,,,,,-SN,OVC,600,,,,,,,IFR,,,,,,0.01,,,,,,METAR,224.0
KMNE 240735Z AUTO 18010G18KT 10SM BKN023 OVC030 19/15 A2996 RMK AO2 T01940153,KMNE,2018-03-24T07:35:00Z,32.65,-93.3,19.4,15.3,180,10,18,10.0,29.958662,,,TRUE,TRUE,,,,,,,BKN,2300,OVC,3000,,,,,MVFR,,,,,,,,,,,,METAR,85.0
KMMH 240735Z AUTO 35004G14KT 10SM CLR 01/M20 A2993 RMK AO2 T00141199,KMMH,2018-03-24T07:35:00Z,37.62,-118.82,1.4,-19.9,350,4,14,10.0,29.929134,,,TRUE,TRUE,,,,,,,CLR,,,,,,,,VFR,,,,,,,,,,,,METAR,2173.0
KMLJ 240735Z AUTO 00000KT 10SM BKN090 OVC110 12/07 A3017 RMK AO2,KMLJ,2018-03-24T07:35:00Z,33.15,-83.23,12.0,7.0,0,0,,10.0,30.171259,,,TRUE,TRUE,,,,,,,BKN,9000,OVC,11000,,,,,VFR,,,,,,,,,,,,SPECI,117.0
KMGC 240735Z AUTO 10006KT 10SM CLR 00/M08 A3027 RMK AO2,KMGC,2018-03-24T07:35:00Z,41.7,-86.82,0.0,-8.0,100,6,,10.0,30.268702,,,TRUE,TRUE,,,,,,,CLR,,,,,,,,VFR,,,,,,,,,,,,SPECI,200.0
KMFV 240735Z AUTO 33011G18KT 10SM CLR 04/M04 A3017 RMK AO2 T00381036,KMFV,2018-03-24T07:35:00Z,37.63,-75.77,3.8,-3.6,330,11,18,10.0,30.171259,,,TRUE,TRUE,,,,,,,CLR,,,,,,,,VFR,,,,,,,,,,,,SPECI,15.0
KMEZ 240735Z AUTO 21008G15KT 174V264 10SM OVC036 20/14 A2985 RMK AO2,KMEZ,2018-03-24T07:35:00Z,34.55,-94.2,20.0,14.0,210,8,15,10.0,29.84941,,,TRUE,TRUE,,,,,,,OVC,3600,,,,,,,VFR,,,,,,,,,,,,SPECI,329.0
KLXY 240735Z AUTO 19017G29KT 10SM OVC020 19/16 A2991 RMK AO2 T01890155,KLXY,2018-03-24T07:35:00Z,31.63,-96.52,18.9,15.5,190,17,29,10.0,29.911417,,,TRUE,TRUE,,,,,,,OVC,2000,,,,,,,MVFR,,,,,,,,,,,,METAR,166.0
KLUM 240735Z AUTO 07010KT 10SM CLR 00/M08 A3025 RMK AO2 T10021084,KLUM,2018-03-24T07:35:00Z,44.9,-91.87,-0.2,-8.4,70,10,,10.0,30.250984,,,TRUE,TRUE,,,,,,,CLR,,,,,,,,VFR,,,,,,,,,,,,SPECI,273.0
KLUA 240735Z AUTO 00000KT 10SM CLR M02/M06 A3020 RMK AO2,KLUA,2018-03-24T07:35:00Z,38.67,-78.5,-2.0,-6.0,0,0,,10.0,30.200787,,,TRUE,TRUE,,,,,,,CLR,,,,,,,,VFR,,,,,,,,,,,,SPECI,275.0
KLRU 240735Z AUTO 32006KT 10SM CLR 13/M03 A3008 RMK AO2 T01261030,KLRU,2018-03-24T07:35:00Z,32.27,-106.92,12.6,-3.0,320,6,,10.0,30.079725,,,TRUE,TRUE,,,,,,,CLR,,,,,,,,VFR,,,,,,,,,,,,METAR,1358.0
KLNL 240735Z AUTO 08004KT 10SM CLR M09/M12 A3036 RMK AO2 T10891125,KLNL,2018-03-24T07:35:00Z,46.15,-89.22,-8.9,-12.5,80,4,,10.0,30.360237,,,TRUE,TRUE,,,,,,,CLR,,,,,,,,VFR,,,,,,,,,,,,SPECI,520.0
KLNA 240735Z AUTO 34006KT 10SM CLR 14/08 A3018 RMK AO2 T01400077,KLNA,2018-03-24T07:35:00Z,26.6,-80.02,14.0,7.7,340,6,,10.0,30.180119,,,TRUE,TRUE,,,,,,,CLR,,,,,,,,VFR,,,,,,,,,,,,METAR,11.0
KLHB 240735Z AUTO 15008G14KT 10SM BKN022 19/17 A2995 RMK AO2 T01920166,KLHB,2018-03-24T07:35:00Z,30.87,-96.62,19.2,16.6,150,8,14,10.0,29.949802,,,TRUE,TRUE,,,,,,,BKN,2200,,,,,,,MVFR,,,,,,,,,,,,METAR,87.0
KLBO 240735Z AUTO 13008KT 10SM -RA SCT045 SCT060 SCT085 13/11 A2979 RMK AO2 LTG DSNT NE AND W,KLBO,2018-03-24T07:35:00Z,37.65,-92.65,13.0,11.0,130,8,,10.0,29.790354,,,TRUE,TRUE,,,,,,-RA,SCT,4500,SCT,6000,SCT,8500,,,VFR,,,,,,,,,,,,SPECI,403.0
KLAM 240735Z AUTO 34005KT 10SM CLR 07/M06 A3016 RMK AO2 T00691061,KLAM,2018-03-24T07:35:00Z,35.87,-106.27,6.9,-6.1,340,5,,10.0,30.159449,,,TRUE,TRUE,,,,,,,CLR,,,,,,,,VFR,,,,,,,,,,,,METAR,2179.0
KL18 240735Z AUTO 17005KT 10SM OVC005 12/11 A3006 RMK AO2,KL18,2018-03-24T07:35:00Z,33.35,-117.25,12.0,11.0,170,5,,10.0,30.059055,,,TRUE,TRUE,,,,,,,OVC,500,,,,,,,IFR,,,,,,,,,,,,METAR,216.0
KK88 240735Z AUTO 18014G23KT 10SM 18/15 A2965 RMK AO1 T01800149,KK88,2018-03-24T07:35:00Z,37.87,-95.38,18.0,14.9,180,14,23,10.0,29.648623,,,TRUE,TRUE,,,,,,,,,,,,,,,,,,,,,,,,,,,SPECI,309.0
KJYL 240735Z AUTO 00000KT 10SM OVC090 11/07 A3019 RMK AO2 T01070067,KJYL,2018-03-24T07:35:00Z,32.65,-81.6,10.7,6.7,0,0,,10.0,30.188976,,,TRUE,TRUE,,,,,,,OVC,9000,,,,,,,VFR,,,,,,,,,,,,SPECI,57.0
KJSV 240735Z AUTO 18006KT 10SM BKN041 20/13 A2978 RMK AO2,KJSV,2018-03-24T07:35:00Z,35.43,-94.8,20.0,13.0,180,6,,10.0,29.778543,,,TRUE,TRUE,,,,,,,BKN,4100,,,,,,,VFR,,,,,,,,,,,,SPECI,161.0
KIKG 240735Z AUTO 15009KT 10SM OVC020 23/20 A2992 RMK AO2 T02250202,KIKG,2018-03-24T07:35:00Z,27.55,-98.03,22.5,20.2,150,9,,10.0,29.920275,,,TRUE,TRUE,,,,,,,OVC,2000,,,,,,,MVFR,,,,,,,,,,,,METAR,40.0
KIIY 240735Z AUTO 00000KT 10SM SCT075 10/06 A3016 RMK AO2 TSNO,KIIY,2018-03-24T07:35:00Z,33.78,-82.82,10.0,6.0,0,0,,10.0,30.159449,,,TRUE,TRUE,,,TRUE,,,,SCT,7500,,,,,,,VFR,,,,,,,,,,,,METAR,197.0
KIER 240735Z AUTO 19009KT 10SM OVC020 19/16 A2998 RMK AO2 T01850158,KIER,2018-03-24T07:35:00Z,31.73,-93.1,18.5,15.8,190,9,,10.0,29.97933,,,TRUE,TRUE,,,,,,,OVC,2000,,,,,,,MVFR,,,,,,,,,,,,METAR,37.0
KHZL 240735Z AUTO 26003KT 10SM CLR M04/M11 A3011 RMK AO2,KHZL,2018-03-24T07:35:00Z,40.98,-76.0,-4.0,-11.0,260,3,,10.0,30.109253,,,TRUE,TRUE,,,,,,,CLR,,,,,,,,VFR,,,,,,,,,,,,METAR,489.0
KHVE 240735Z AUTO 00000KT 10SM CLR 06/M03 A3001 RMK AO2,KHVE,2018-03-24T07:35:00Z,38.42,-110.7,6.0,-3.0,0,0,,10.0,30.008858,,,TRUE,TRUE,,,,,,,CLR,,,,,,,,VFR,,,,,,,,,,,,METAR,1350.0
KHUM 240735Z AUTO 21004KT 7SM CLR 19/17 A3010 RMK AO2 T01910168,KHUM,2018-03-24T07:35:00Z,29.57,-90.67,19.1,16.8,210,4,,7.0,30.100393,,,TRUE,TRUE,,,,,,,CLR,,,,,,,,VFR,,,,,,,,,,,,METAR,3.0
KHSB 240735Z AUTO 11012KT 10SM OVC009 06/05 A3003 RMK AO2 T00580053,KHSB,2018-03-24T07:35:00Z,37.82,-88.55,5.8,5.3,110,12,,10.0,30.029528,,,TRUE,TRUE,,,,,,,OVC,900,,,,,,,IFR,,,,,,,,,,,,METAR,121.0
KHRX 240735Z AUTO 29010KT 10SM CLR 09/M02 A2995 RMK AO2 T00921017,KHRX,2018-03-24T07:35:00Z,34.87,-102.33,9.2,-1.7,290,10,,10.0,29.949802,,,TRUE,TRUE,,,,,,,CLR,,,,,,,,VFR,,,,,,,,,,,,METAR,1154.0
KHMP 240735Z AUTO 00000KT 10SM CLR 08/06 A3016 RMK AO2 T00830064,KHMP,2018-03-24T07:35:00Z,33.38,-84.33,8.3,6.4,0,0,,10.0,30.159449,,,TRUE,TRUE,,,,,,,CLR,,,,,,,,VFR,,,,,,,,,,,,METAR,269.0
KHFY 240735Z AUTO 10005KT 10SM OVC080 03/M05 A3021 RMK AO2 T00301050,KHFY,2018-03-24T07:35:00Z,39.63,-86.08,3.0,-5.0,100,5,,10.0,30.209646,,,TRUE,TRUE,,,,,,,OVC,8000,,,,,,,VFR,,,,,,,,,,,,METAR,251.0
KHDC 240735Z AUTO 15004KT 10SM CLR 15/14 A3008 RMK AO2,KHDC,2018-03-24T07:35:00Z,30.52,-90.42,15.0,14.0,150,4,,10.0,30.079725,,,TRUE,TRUE,,,,,,,CLR,,,,,,,,VFR,,,,,,,,,,,,METAR,13.0
KHCR 240735Z AUTO 00000KT 10SM SCT090 00/M03 A2996 RMK AO2,KHCR,2018-03-24T07:35:00Z,40.48,-111.43,0.0,-3.0,0,0,,10.0,29.958662,,,TRUE,TRUE,,,,,,,SCT,9000,,,,,,,VFR,,,,,,,,,,,,METAR,1706.0
KGZL 240735Z AUTO 21016G23KT 10SM BKN037 20/10 A2976 RMK AO2,KGZL,2018-03-24T07:35:00Z,35.28,-95.1,20.0,10.0,210,16,23,10.0,29.760826,,,TRUE,TRUE,,,,,,,BKN,3700,,,,,,,VFR,,,,,,,,,,,,METAR,183.0
KGYB 240735Z AUTO 19007KT 10SM SCT025 19/17 A2995 RMK AO2 T01910167,KGYB,2018-03-24T07:35:00Z,30.17,-96.98,19.1,16.7,190,7,,10.0,29.949802,,,TRUE,TRUE,,,,,,,SCT,2500,,,,,,,VFR,,,,,,,,,,,,METAR,148.0
KGWB 240735Z AUTO 11003KT 10SM CLR M02/M06 A3030 RMK AO2,KGWB,2018-03-24T07:35:00Z,41.3,-85.07,-2.0,-6.0,110,3,,10.0,30.301182,,,TRUE,TRUE,,,,,,,CLR,,,,,,,,VFR,,,,,,,,,,,,METAR,269.0
KGMJ 240735Z AUTO 19014G19KT 10SM BKN034 OVC040 21/16 A2973 RMK AO2,KGMJ,2018-03-24T07:35:00Z,36.6,-94.73,21.0,16.0,190,14,19,10.0,29.731298,,,TRUE,TRUE,,,,,,,BKN,3400,OVC,4000,,,,,VFR,,,,,,,,,,,,METAR,254.0
KGIC 240735Z AUTO 00000KT 10SM CLR 01/M02 A2973 RMK AO1,KGIC,2018-03-24T07:35:00Z,45.95,-116.12,1.0,-2.0,0,0,,10.0,29.731298,,,TRUE,TRUE,,,,,,,CLR,,,,,,,,VFR,,,,,,,,,,,,METAR,1009.0
KGCM 240735Z AUTO 18009KT 10SM SCT030 17/14 A2973 RMK AO2,KGCM,2018-03-24T07:35:00Z,36.3,-95.48,17.0,14.0,180,9,,10.0,29.731298,,,TRUE,TRUE,,,,,,,SCT,3000,,,,,,,VFR,,,,,,,,,,,,METAR,221.0
KROX 240735Z AUTO 12011KT 10SM OVC110 M01/M08 A3025 RMK AO2,KROX,2018-03-24T07:35:00Z,48.85,-95.7,-1.0,-8.0,120,11,,10.0,30.250984,,,TRUE,TRUE,,,,,,,OVC,11000,,,,,,,VFR,,,,,,,,,,,,SPECI,323.0
KROS 240735Z AUTO 05007KT 10SM CLR M02/M08 A3026 RMK AO2 T10251082,KROS,2018-03-24T07:35:00Z,45.7,-92.95,-2.5,-8.2,50,7,,10.0,30.259842,,,TRUE,TRUE,,,,,,,CLR,,,,,,,,VFR,,,,,,,,,,,,SPECI,281.0
KRGK 240735Z AUTO 10010KT 10SM OVC100 02/M13 A3018 RMK AO2,KRGK,2018-03-24T07:35:00Z,44.58,-92.48,2.0,-13.0,100,10,,10.0,30.180119,,,TRUE,TRUE,,,,,,,OVC,10000,,,,,,,VFR,,,,,,,,,,,,SPECI,239.0
KPQN 240735Z AUTO 12013KT 1 1/2SM -SN OVC007 M01/M01 A2998 RMK AO2 P0001,KPQN,2018-03-24T07:35:00Z,43.97,-96.32,-1.0,-1.0,120,13,,1.5,29.97933,,,TRUE,TRUE,,,,,,-SN,OVC,700,,,,,,,IFR,,,,,,0.01,,,,,,SPECI,529.0
KPNM 240735Z AUTO 05007G16KT 10SM OVC090 M01/M08 A3021 RMK AO2 TSNO,KPNM,2018-03-24T07:35:00Z,45.57,-93.6,-1.0,-8.0,50,7,16,10.0,30.209646,,,TRUE,TRUE,,,TRUE,,,,OVC,9000,,,,,,,VFR,,,,,,,,,,,,SPECI,298.0
KPHN 240735Z AUTO 32004KT 10SM CLR M06/M07 A3031 RMK AO2,KPHN,2018-03-24T07:35:00Z,42.92,-82.52,-6.0,-7.0,320,4,,10.0,30.31004,,,TRUE,TRUE,,,,,,,CLR,,,,,,,,VFR,,,,,,,,,,,,SPECI,198.0
KOSC 240735Z AUTO 04008KT 10SM CLR M02/M09 A3037 RMK AO2 T10231091,KOSC,2018-03-24T07:35:00Z,44.45,-83.4,-2.3,-9.1,40,8,,10.0,30.369095,,,TRUE,TRUE,,,,,,,CLR,,,,,,,,VFR,,,,,,,,,,,,METAR,193.0
KONA 240735Z AUTO 11010G19KT 10SM CLR 01/M08 A3020 RMK AO2,KONA,2018-03-24T07:35:00Z,44.07,-91.7,1.0,-8.0,110,10,19,10.0,30.200787,,,TRUE,TRUE,,,,,,,CLR,,,,,,,,VFR,,,,,,,,,,,,SPECI,200.0
KMZH 240735Z AUTO 07005KT 10SM CLR M05/M10 A3029 RMK AO2,KMZH,2018-03-24T07:35:00Z,46.42,-92.8,-5.0,-10.0,70,5,,10.0,30.28937,,,TRUE,TRUE,,,,,,,CLR,,,,,,,,VFR,,,,,,,,,,,,SPECI,328.0
KMOP 240735Z AUTO 00000KT 10SM CLR M05/M06 A3034 RMK AO2 T10501059,KMOP,2018-03-24T07:35:00Z,43.62,-84.73,-5.0,-5.9,0,0,,10.0,30.339567,,,TRUE,TRUE,,,,,,,CLR,,,,,,,,VFR,,,,,,,,,,,,SPECI,230.0
KMJQ 240735Z AUTO 10014KT 3SM -SN OVC006 00/M01 A3000 RMK AO2,KMJQ,2018-03-24T07:35:00Z,43.63,-94.97,0.0,-1.0,100,14,,3.0,30.0,,,TRUE,TRUE,,,,,,-SN,OVC,600,,,,,,,IFR,,,,,,,,,,,,SPECI,441.0
KLWA 240735Z AUTO 00000KT 10SM CLR M02/M08 A3030 RMK AO2 T10211083,KLWA,2018-03-24T07:35:00Z,42.35,-86.25,-2.1,-8.3,0,0,,10.0,30.301182,,,TRUE,TRUE,,,,,,,CLR,,,,,,,,VFR,,,,,,,,,,,,SPECI,203.0
KLDM 240735Z AUTO 08007KT 10SM CLR M04/M10 A3034 RMK AO2 T10451096,KLDM,2018-03-24T07:35:00Z,43.97,-86.4,-4.5,-9.6,80,7,,10.0,30.339567,,,TRUE,TRUE,,,,,,,CLR,,,,,,,,VFR,,,,,,,,,,,,SPECI,197.0
KJYG 240735Z AUTO 08012KT 3/4SM SN OVC006 M01/M01 A3005 RMK AO2 P0001,KJYG,2018-03-24T07:35:00Z,43.98,-94.55,-1.0,-1.0,80,12,,0.75,30.050198,,,TRUE,TRUE,,,,,,SN,OVC,600,,,,,,,LIFR,,,,,,0.01,,,,,,SPECI,325.0
KJMR 240735Z AUTO 08008KT 060V120 10SM CLR M03/M08 A3027 RMK AO2,KJMR,2018-03-24T07:35:00Z,45.88,-93.27,-3.0,-8.0,80,8,,10.0,30.268702,,,TRUE,TRUE,,,,,,,CLR,,,,,,,,VFR,,,,,,,,,,,,SPECI,309.0
KJKJ 240735Z AUTO 11015G21KT 10SM -DZ OVC080 M02/M04 A3016 RMK AO2,KJKJ,2018-03-24T07:35:00Z,46.83,-96.67,-2.0,-4.0,110,15,21,10.0,30.159449,,,TRUE,TRUE,,,,,,-DZ,OVC,8000,,,,,,,VFR,,,,,,,,,,,,SPECI,280.0
KISQ 240735Z AUTO 34004KT 10SM CLR M07/M13 A3044 RMK AO2 T10671126,KISQ,2018-03-24T07:35:00Z,45.97,-86.17,-6.7,-12.6,340,4,,10.0,30.43996,,,TRUE,TRUE,,,,,,,CLR,,,,,,,,VFR,,,,,,,,,,,,SPECI,209.0
KHZX 240735Z AUTO 08010G14KT 10SM CLR M05/M10 A3029 RMK AO2,KHZX,2018-03-24T07:35:00Z,46.62,-93.32,-5.0,-10.0,80,10,14,10.0,30.28937,,,TRUE,TRUE,,,,,,,CLR,,,,,,,,VFR,,,,,,,,,,,,SPECI,374.0
KHAI 240735Z AUTO 07004KT 10SM CLR M01/M09 A3030 RMK AO2 T10111095,KHAI,2018-03-24T07:35:00Z,41.97,-85.6,-1.1,-9.5,70,4,,10.0,30.301182,,,TRUE,TRUE,,,,,,,CLR,,,,,,,,VFR,,,,,,,,,,,,SPECI,251.0
KHAF 240735Z AUTO 18010G14KT 7SM SCT018 BKN025 OVC046 11/09 A3010 RMK AO2,KHAF,2018-03-24T07:35:00Z,37.52,-122.5,11.0,9.0,180,10,14,7.0,30.100393,,,TRUE,TRUE,,,,,,,SCT,1800,BKN,2500,OVC,4600,,,MVFR,,,,,,,,,,,,METAR,21.0
KGYL 240735Z AUTO 08015G19KT 10SM BKN085 02/M05 A3012 RMK AO2 T00201055,KGYL,2018-03-24T07:35:00Z,44.77,-94.08,2.0,-5.5,80,15,19,10.0,30.121063,,,TRUE,TRUE,,,,,,,BKN,8500,,,,,,,VFR,,,,,,,,,,,,SPECI,302.0
KFKA 240735Z AUTO 11014G20KT 10SM OVC070 00/M11 A3014 RMK AO2 T00001106,KFKA,2018-03-24T07:35:00Z,43.68,-92.17,0.0,-10.6,110,14,20,10.0,30.138779,,,TRUE,TRUE,,,,,,,OVC,7000,,,,,,,VFR,,,,,,,,,,,,SPECI,389.0
KFGN 240735Z AUTO 12008G14KT 10SM CLR M03/M11 A3030 RMK AO2,KFGN,2018-03-24T07:35:00Z,49.32,-94.9,-3.0,-11.0,120,8,14,10.0,30.301182,,,TRUE,TRUE,,,,,,,CLR,,,,,,,,VFR,,,,,,,,,,,,SPECI,328.0
KFFM 240735Z AUTO 11017G23KT 2SM -SN M03/M04 A3013 RMK AO2 SKY OBSCURED,KFFM,2018-03-24T07:35:00Z,46.28,-96.15,-3.0,-4.0,110,17,23,2.0,30.129921,,,TRUE,TRUE,,,,,,-SN,,,,,,,,,,,,,,,,,,,,,SPECI,361.0
KDYT 240735Z AUTO 08014KT 10SM CLR M04/M09 A3038 RMK AO2,KDYT,2018-03-24T07:35:00Z,46.72,-92.03,-4.0,-9.0,80,14,,10.0,30.380905,,,TRUE,TRUE,,,,,,,CLR,,,,,,,,VFR,,,,,,,,,,,,SPECI,186.0
KDXX 240735Z AUTO 09015KT 1 1/4SM SN OVC007 01/M01 A3009 RMK AO2,KDXX,2018-03-24T07:35:00Z,44.98,-96.18,1.0,-1.0,90,15,,1.25,30.088583,,,TRUE,TRUE,,,,,,SN,OVC,700,,,,,,,IFR,,,,,,,,,,,,SPECI,330.0
KDRM 240735Z AUTO 03003KT 10SM CLR M07/M14 A3043 RMK AO2 T10731143,KDRM,2018-03-24T07:35:00Z,46.0,-83.75,-7.3,-14.3,30,3,,10.0,30.431103,,,TRUE,TRUE,,,,,,,CLR,,,,,,,,VFR,,,,,,,,,,,,SPECI,204.0
KCVX 240735Z AUTO 10005KT 10SM CLR M04/M10 A3043 RMK AO2 T10371101,KCVX,2018-03-24T07:35:00Z,45.3,-85.27,-3.7,-10.1,100,5,,10.0,30.431103,,,TRUE,TRUE,,,,,,,CLR,,,,,,,,VFR,,,,,,,,,,,,SPECI,204.0
KBAX 240735Z AUTO 00000KT 10SM CLR M07/M09 A3034 RMK AO2 T10741091,KBAX,2018-03-24T07:35:00Z,43.78,-82.98,-7.4,-9.1,0,0,,10.0,30.339567,,,TRUE,TRUE,,,,,,,CLR,,,,,,,,VFR,,,,,,,,,,,,SPECI,234.0
KAUM 240735Z AUTO 12016G27KT 2 1/2SM -SN OVC014 M01/M03 A3010 RMK AO2,KAUM,2018-03-24T07:35:00Z,43.67,-92.92,-1.0,-3.0,120,16,27,2.5,30.100393,,,TRUE,TRUE,,,,,,-SN,OVC,1400,,,,,,,IFR,,,,,,,,,,,,SPECI,375.0
KANE 240735Z AUTO 09012G16KT 10SM OVC100 02/M08 A3019 RMK AO2,KANE,2018-03-24T07:35:00Z,45.15,-93.22,2.0,-8.0,90,12,16,10.0,30.188976,,,TRUE,TRUE,,,,,,,OVC,10000,,,,,,,VFR,,,,,,,,,,,,SPECI,278.0
KACB 240735Z AUTO 00000KT 10SM CLR M08/M08 A3041 RMK AO2 T10821082,KACB,2018-03-24T07:35:00Z,44.98,-85.2,-8.2,-8.2,0,0,,10.0,30.410433,,,TRUE,TRUE,,,,,,,CLR,,,,,,,,VFR,,,,,,,,,,,,SPECI,190.0
K4I3 240735Z AUTO 03003KT 10SM CLR M04/M06 A3027 RMK AO2,K4I3,2018-03-24T07:35:00Z,40.33,-82.53,-4.0,-6.0,30,3,,10.0,30.268702,,,TRUE,TRUE,,,,,,,CLR,,,,,,,,VFR,,,,,,,,,,,,SPECI,363.0
KXVG 240735Z AUTO 08007KT 10SM CLR M04/M11 A3026 RMK AO2,KXVG,2018-03-24T07:35:00Z,46.98,-94.2,-4.0,-11.0,80,7,,10.0,30.259842,,,TRUE,TRUE,,,,,,,CLR,,,,,,,,VFR,,,,,,,,,,,,SPECI,407.0
KVVV 240735Z AUTO 11014G22KT 1 1/4SM -SN OVC006 M01/M03 A3010 RMK AO2,KVVV,2018-03-24T07:35:00Z,45.3,-96.42,-1.0,-3.0,110,14,22,1.25,30.100393,,,TRUE,TRUE,,,,,,-SN,OVC,600,,,,,,,IFR,,,,,,,,,,,,SPECI,335.0
KTKC 240735Z AUTO 10015G20KT 1/2SM +SN BKN003 BKN007 00/00 A3004 RMK AO2 T00000000,KTKC,2018-03-24T07:35:00Z,44.25,-95.62,0.0,0.0,100,15,20,0.5,30.041338,,,TRUE,TRUE,,,,,,+SN,BKN,300,BKN,700,,,,,LIFR,,,,,,,,,,,,SPECI,408.0
KSJX 240735Z AUTO 07006KT 10SM CLR M03/M10 A3043 RMK AO2 T10301103,KSJX,2018-03-24T07:35:00Z,45.7,-85.57,-3.0,-10.3,70,6,,10.0,30.431103,,,TRUE,TRUE,,,,,,,CLR,,,,,,,,VFR,,,,,,,,,,,,SPECI,204.0
KRRT 240735Z AUTO 12017KT 10SM CLR M02/M09 A3028 RMK AO2,KRRT,2018-03-24T07:35:00Z,48.93,-95.33,-2.0,-9.0,120,17,,10.0,30.280512,,,TRUE,TRUE,,,,,,,CLR,,,,,,,,VFR,,,,,,,,,,,,SPECI,327.0
KY19 240735Z AUTO 13010KT 5SM BR OVC005 M01/M01 A3002 RMK AO2 PWINO,KY19,2018-03-24T07:35:00Z,46.77,-100.9,-1.0,-1.0,130,10,,5.0,30.02067,,,TRUE,TRUE,,,,,TRUE,BR,OVC,500,,,,,,,IFR,,,,,,,,,,,,SPECI,593.0
KWYS 240735Z AUTO 04003KT 10SM FEW034 FEW040 FEW070 M00/M02 A2987 RMK AO2,KWYS,2018-03-24T07:35:00Z,44.67,-111.12,0.0,-2.0,40,3,,10.0,29.870079,,,TRUE,TRUE,,,,,,,FEW,3400,FEW,4000,FEW,7000,,,VFR,,,,,,,,,,,,METAR,2025.0
KUOX 240735Z AUTO 18010KT 10SM BKN055 BKN110 16/08 A3001 RMK AO2,KUOX,2018-03-24T07:35:00Z,34.38,-89.53,16.0,8.0,180,10,,10.0,30.008858,,,TRUE,TRUE,,,,,,,BKN,5500,BKN,11000,,,,,VFR,,,,,,,,,,,,SPECI,137.0
KU42 240735Z AUTO 19008KT 10SM SCT090 05/00 A2992 RMK AO1 T00540000,KU42,2018-03-24T07:35:00Z,40.62,-111.98,5.4,0.0,190,8,,10.0,29.920275,,,TRUE,TRUE,,,,,,,SCT,9000,,,,,,,VFR,,,,,,,,,,,,METAR,1402.0
KTVY 240735Z AUTO 21009KT 10SM CLR 05/00 A2988 RMK AO2,KTVY,2018-03-24T07:35:00Z,40.62,-112.35,5.0,0.0,210,9,,10.0,29.878937,,,TRUE,TRUE,,,,,,,CLR,,,,,,,,VFR,,,,,,,,,,,,METAR,1317.0
KTPF 240735Z AUTO 09003KT 10SM OVC110 12/08 A3022 RMK AO2,KTPF,2018-03-24T07:35:00Z,27.92,-82.45,12.0,8.0,90,3,,10.0,30.221457,,,TRUE,TRUE,,,,,,,OVC,11000,,,,,,,VFR,,,,,,,,,,,,SPECI,3.0
KTME 240735Z AUTO 20015KT 10SM SCT018 BKN025 OVC029 21/19 A2999 RMK AO2,KTME,2018-03-24T07:35:00Z,29.8,-95.9,21.0,19.0,200,15,,10.0,29.991142,,,TRUE,TRUE,,,,,,,SCT,1800,BKN,2500,OVC,2900,,,MVFR,,,,,,,,,,,,METAR,51.0
KTKX 240735Z AUTO 17006KT 9SM BKN065 OVC075 15/09 A2988 RMK AO2,KTKX,2018-03-24T07:35:00Z,36.22,-90.02,15.0,9.0,170,6,,9.0,29.878937,,,TRUE,TRUE,,,,,,,BKN,6500,OVC,7500,,,,,VFR,,,,,,,,,,,,SPECI,80.0
KSXU 240735Z AUTO 29003KT 10SM CLR 14/M11 A3000 RMK AO2 T01401109,KSXU,2018-03-24T07:35:00Z,34.93,-104.65,14.0,-10.9,290,3,,10.0,30.0,,,TRUE,TRUE,,,,,,,CLR,,,,,,,,VFR,,,,,,,,,,,,METAR,1460.0
KSUA 240735Z AUTO 31004KT 10SM CLR 15/09 A3020 RMK AO2,KSUA,2018-03-24T07:35:00Z,27.18,-80.22,15.0,9.0,310,4,,10.0,30.200787,,,TRUE,TRUE,,,,,,,CLR,,,,,,,,VFR,,,,,,,,,,,,SPECI,6.0
KSRR 240735Z AUTO 29017G26KT CLR 13/M07 A3012 RMK AO2,KSRR,2018-03-24T07:35:00Z,33.47,-105.52,13.0,-7.0,290,17,26,,30.121063,,,TRUE,TRUE,,,,,,,CLR,,,,,,,,,,,,,,,,,,,,METAR,2076.0
KSOW 240735Z AUTO 18009KT 10SM CLR 05/M04 A3013 RMK AO2,KSOW,2018-03-24T07:35:00Z,34.27,-110.0,5.0,-4.0,180,9,,10.0,30.129921,,,TRUE,TRUE,,,,,,,CLR,,,,,,,,VFR,,,,,,,,,,,,METAR,1954.0
KSNC 240735Z AUTO 33007KT 10SM CLR 01/M05 A3001 RMK AO2,KSNC,2018-03-24T07:35:00Z,41.38,-72.5,1.0,-5.0,330,7,,10.0,30.008858,,,TRUE,TRUE,,,,,,,CLR,,,,,,,,VFR,,,,,,,,,,,,SPECI,127.0
KSMS 240735Z AUTO VRB05KT 10SM OVC080 08/03 A3020 RMK AO2,KSMS,2018-03-24T07:35:00Z,34.0,-80.37,8.0,3.0,0,5,,10.0,30.200787,,,TRUE,TRUE,,,,,,,OVC,8000,,,,,,,VFR,,,,,,,,,,,,SPECI,56.0
KSLB 240735Z AUTO 10022G32KT 4SM -RA BKN007 OVC014 00/00 A2989 RMK AO2,KSLB,2018-03-24T07:35:00Z,42.6,-95.22,0.0,0.0,100,22,32,4.0,29.890747,,,TRUE,TRUE,,,,,,-RA,BKN,700,OVC,1400,,,,,IFR,,,,,,,,,,,,SPECI,454.0
KSHL 240735Z AUTO 11018G23KT 3SM -SN OVC009 01/01 A2992 RMK AO2,KSHL,2018-03-24T07:35:00Z,43.22,-95.82,1.0,1.0,110,18,23,3.0,29.920275,,,TRUE,TRUE,,,,,,-SN,OVC,900,,,,,,,IFR,,,,,,,,,,,,SPECI,432.0
KSEM 240735Z AUTO 18006KT 10SM SCT085 13/08 A3012 RMK AO2,KSEM,2018-03-24T07:35:00Z,32.35,-86.98,13.0,8.0,180,6,,10.0,30.121063,,,TRUE,TRUE,,,,,,,SCT,8500,,,,,,,VFR,,,,,,,,,,,,SPECI,51.0
KSDC 240735Z AUTO 36005KT 10SM CLR 00/M06 A3021 RMK AO2,KSDC,2018-03-24T07:35:00Z,43.23,-77.12,0.0,-6.0,360,5,,10.0,30.209646,,,TRUE,TRUE,,,,,,,CLR,,,,,,,,VFR,,,,,,,,,,,,SPECI,129.0
KS25 240735Z AUTO 00000KT 9SM OVC006 M00/00 A2997 RMK AO2,KS25,2018-03-24T07:35:00Z,47.8,-103.25,0.0,0.0,0,0,,9.0,29.970472,,,TRUE,TRUE,,,,,,,OVC,600,,,,,,,IFR,,,,,,,,,,,,SPECI,644.0
KRZL 240735Z AUTO 08012KT 10SM CLR 01/M09 A3021 RMK AO2,KRZL,2018-03-24T07:35:00Z,40.95,-87.18,1.0,-9.0,80,12,,10.0,30.209646,,,TRUE,TRUE,,,,,,,CLR,,,,,,,,VFR,,,,,,,,,,,,SPECI,213.0
KFMH 240735Z AUTO 32005KT 10SM SCT065 M03/M04 A2996 RMK AO2,KFMH,2018-03-24T07:35:00Z,41.63,-70.52,-3.0,-4.0,320,5,,10.0,29.958662,,,TRUE,TRUE,,,,,,,SCT,6500,,,,,,,VFR,,,,,,,,,,,,METAR,40.0
KFLY 240735Z AUTO 32008KT 10SM CLR 05/M07 A3006 RMK AO2 T00461066,KFLY,2018-03-24T07:35:00Z,38.95,-104.57,4.6,-6.6,320,8,,10.0,30.059055,,,TRUE,TRUE,,,,,,,CLR,,,,,,,,VFR,,,,,,,,,,,,METAR,2096.0
KFIN 240735Z AUTO 00000KT 10SM CLR 08/06 A3021 RMK AO2 T00790064,KFIN,2018-03-24T07:35:00Z,29.47,-81.2,7.9,6.4,0,0,,10.0,30.209646,,,TRUE,TRUE,,,,,,,CLR,,,,,,,,VFR,,,,,,,,,,,,SPECI,10.0
KFGX 240735Z AUTO 09005KT 10SM SCT110 00/M05 A3022 RMK AO2 T00001048,KFGX,2018-03-24T07:35:00Z,38.55,-83.75,0.0,-4.8,90,5,,10.0,30.221457,,,TRUE,TRUE,,,,,,,SCT,11000,,,,,,,VFR,,,,,,,,,,,,SPECI,278.0
KEOK 240735Z AUTO 07017KT 7SM -UP BKN009 OVC014 02/01 A3000 RMK AO2,KEOK,2018-03-24T07:35:00Z,40.47,-91.42,2.0,1.0,70,17,,7.0,30.0,,,TRUE,TRUE,,,,,,UP,BKN,900,OVC,1400,,,,,IFR,,,,,,,,,,,,SPECI,205.0
KEDC 240735Z AUTO 20012KT 10SM BKN015 OVC020 19/18 A2993 RMK AO2,KEDC,2018-03-24T07:35:00Z,30.4,-97.57,19.0,18.0,200,12,,10.0,29.929134,,,TRUE,TRUE,,,,,,,BKN,1500,OVC,2000,,,,,MVFR,,,,,,,,,,,,METAR,189.0
KCXP 240735Z AUTO 24012G19KT 10SM CLR 02/M09 A2996 RMK AO2,KCXP,2018-03-24T07:35:00Z,39.18,-119.73,2.0,-9.0,240,12,19,10.0,29.958662,,,TRUE,TRUE,,,,,,,CLR,,,,,,,,VFR,,,,,,,,,,,,METAR,1435.0
KCNC 240735Z AUTO 10023KT 5SM BR OVC007 03/02 A2986 RMK AO2,KCNC,2018-03-24T07:35:00Z,41.02,-93.37,3.0,2.0,100,23,,5.0,29.861221,,,TRUE,TRUE,,,,,,BR,OVC,700,,,,,,,IFR,,,,,,,,,,,,SPECI,320.0
KCLW 240735Z AUTO 12003KT 10SM CLR 11/09 A3021 RMK AO2,KCLW,2018-03-24T07:35:00Z,27.98,-82.75,11.0,9.0,120,3,,10.0,30.209646,,,TRUE,TRUE,,,,,,,CLR,,,,,,,,VFR,,,,,,,,,,,,SPECI,22.0
KCLS 240735Z AUTO 19003KT 10SM FEW017 BKN032 OVC039 04/04 A2978 RMK AO2,KCLS,2018-03-24T07:35:00Z,46.68,-122.98,4.0,4.0,190,3,,10.0,29.778543,,,TRUE,TRUE,,,,,,,FEW,1700,BKN,3200,OVC,3900,,,VFR,,,,,,,,,,,,METAR,54.0
KCKZ 240735Z AUTO 33004KT 10SM CLR 00/M09 A3012 RMK AO2,KCKZ,2018-03-24T07:35:00Z,40.38,-75.28,0.0,-9.0,330,4,,10.0,30.121063,,,TRUE,TRUE,,,,,,,CLR,,,,,,,,VFR,,,,,,,,,,,,SPECI,173.0
KCIC 240735Z AUTO 14013KT 10SM FEW032 SCT040 BKN048 08/07 A3005 RMK AO1 P0001,KCIC,2018-03-24T07:35:00Z,39.78,-121.83,8.0,7.0,140,13,,10.0,30.050198,,,TRUE,TRUE,,,,,,,FEW,3200,SCT,4000,BKN,4800,,,VFR,,,,,,0.01,,,,,,METAR,73.0
KCGC 240735Z AUTO 00000KT 10SM CLR 05/05 A3022 RMK AO2,KCGC,2018-03-24T07:35:00Z,28.87,-82.57,5.0,5.0,0,0,,10.0,30.221457,,,TRUE,TRUE,,,,,,,CLR,,,,,,,,VFR,,,,,,,,,,,,SPECI,3.0
KCFJ 240735Z AUTO 10008KT 10SM OVC080 03/M05 A3017 RMK AO2 T00271053,KCFJ,2018-03-24T07:35:00Z,39.98,-86.92,2.7,-5.3,100,8,,10.0,30.171259,,,TRUE,TRUE,,,,,,,OVC,8000,,,,,,,VFR,,,,,,,,,,,,SPECI,244.0
KCDN 240735Z AUTO 06006KT 10SM OVC080 09/M03 A3019 RMK AO2,KCDN,2018-03-24T07:35:00Z,34.28,-80.57,9.0,-3.0,60,6,,10.0,30.188976,,,TRUE,TRUE,,,,,,,OVC,8000,,,,,,,VFR,,,,,,,,,,,,SPECI,92.0
KCCY 240735Z AUTO 09025KT 1/4SM -SN OVC003 M02/M02 A3009 RMK AO2,KCCY,2018-03-24T07:35:00Z,43.07,-92.62,-2.0,-2.0,90,25,,0.25,30.088583,,,TRUE,TRUE,,,,,,-SN,OVC,300,,,,,,,LIFR,,,,,,,,,,,,SPECI,343.0
KCBF 240735Z AUTO 06008KT 4SM -RA FEW008 FEW016 OVC024 04/04 A2980 RMK AO2,KCBF,2018-03-24T07:35:00Z,41.27,-95.77,4.0,4.0,60,8,,4.0,29.799213,,,TRUE,TRUE,,,,,,-RA,FEW,800,FEW,1600,OVC,2400,,,MVFR,,,,,,,,,,,,SPECI,382.0
KBOW 240735Z AUTO 00000KT 10SM CLR 08/07 A3022 RMK AO2,KBOW,2018-03-24T07:35:00Z,27.93,-81.77,8.0,7.0,0,0,,10.0,30.221457,,,TRUE,TRUE,,,,,,,CLR,,,,,,,,VFR,,,,,,,,,,,,SPECI,39.0
KBNW 240735Z AUTO 10027G33KT OVC008 00/M00 A2989 RMK AO2,KBNW,2018-03-24T07:35:00Z,42.03,-93.83,0.0,0.0,100,27,33,,29.890747,,,TRUE,TRUE,,,,,,,OVC,800,,,,,,,,,,,,,,,,,,,SPECI,354.0
KBNL 240735Z AUTO 00000KT 10SM A3018 RMK AO2,KBNL,2018-03-24T07:35:00Z,33.25,-81.38,,,0,0,,10.0,30.180119,,,TRUE,TRUE,,,,,,,,,,,,,,,,,,,,,,,,,,,SPECI,75.0
KBDN 240735Z AUTO 19012KT 10SM CLR 01/M02 A2970 RMK AO2,KBDN,2018-03-24T07:35:00Z,44.1,-121.2,1.0,-2.0,190,12,,10.0,29.698818,,,TRUE,TRUE,,,,,,,CLR,,,,,,,,VFR,,,,,,,,,,,,SPECI,1055.0
KBBP 240735Z AUTO 00000KT 10SM OVC100 05/04 A3020 RMK AO2,KBBP,2018-03-24T07:35:00Z,34.62,-79.73,5.0,4.0,0,0,,10.0,30.200787,,,TRUE,TRUE,,,,,,,OVC,10000,,,,,,,VFR,,,,,,,,,,,,SPECI,45.0
KBAC 240735Z AUTO 11014G23KT 6SM -SN OVC006 M02/M02 A3012 RMK AO2,KBAC,2018-03-24T07:35:00Z,46.93,-98.02,-2.0,-2.0,110,14,23,6.0,30.121063,,,TRUE,TRUE,,,,,,-SN,OVC,600,,,,,,,IFR,,,,,,,,,,,,SPECI,427.0
KARW 240735Z AUTO 28004KT 10SM BKN090 OVC120 12/06 A3017 RMK AO2,KARW,2018-03-24T07:35:00Z,32.42,-80.63,12.0,6.0,280,4,,10.0,30.171259,,,TRUE,TRUE,,,,,,,BKN,9000,OVC,12000,,,,,VFR,,,,,,,,,,,,SPECI,4.0
KAQX 240735Z AUTO 00000KT 10SM BKN075 OVC080 12/04 A3017 RMK AO2,KAQX,2018-03-24T07:35:00Z,32.98,-81.27,12.0,4.0,0,0,,10.0,30.171259,,,TRUE,TRUE,,,,,,,BKN,7500,OVC,8000,,,,,VFR,,,,,,,,,,,,SPECI,49.0
KANQ 240735Z AUTO 13004KT 10SM CLR M02/M07 A3029 RMK AO2 TSNO,KANQ,2018-03-24T07:35:00Z,41.63,-85.08,-2.0,-7.0,130,4,,10.0,30.28937,,,TRUE,TRUE,,,TRUE,,,,CLR,,,,,,,,VFR,,,,,,,,,,,,SPECI,303.0
KAIO 240735Z AUTO 10015G27KT 3SM -RA OVC010 04/04 A2977 RMK AO2,KAIO,2018-03-24T07:35:00Z,41.38,-95.03,4.0,4.0,100,15,27,3.0,29.769686,,,TRUE,TRUE,,,,,,-RA,OVC,1000,,,,,,,MVFR,,,,,,,,,,,,SPECI,360.0
KADU 240735Z AUTO 08017G22KT 4SM RA OVC009 03/01 A2981 RMK AO2 P0014,KADU,2018-03-24T07:35:00Z,41.7,-94.92,3.0,1.0,80,17,22,4.0,29.811024,,,TRUE,TRUE,,,,,,RA,OVC,900,,,,,,,IFR,,,,,,0.14,,,,,,SPECI,392.0
K9D7 240735Z AUTO 14019KT 4SM BR OVC007 M02/M02 A3011 RMK AO2,K9D7,2018-03-24T07:35:00Z,48.48,-99.23,-2.0,-2.0,140,19,,4.0,30.109253,,,TRUE,TRUE,,,,,,BR,OVC,700,,,,,,,IFR,,,,,,,,,,,,SPECI,452.0
K8B0 240735Z AUTO 00000KT 10SM CLR M03/M08 A2994 RMK AO2,K8B0,2018-03-24T07:35:00Z,,,-3.0,-8.0,0,0,,10.0,29.940945,,,TRUE,TRUE,,,,,,,CLR,,,,,,,,VFR,,,,,,,,,,,,SPECI,
K6B9 240735Z AUTO 00000KT 10SM CLR M02/M07 A3014 RMK AO2,K6B9,2018-03-24T07:35:00Z,42.92,-76.43,-2.0,-7.0,0,0,,10.0,30.138779,,,TRUE,TRUE,,,,,,,CLR,,,,,,,,VFR,,,,,,,,,,,,SPECI,316.0
K5H4 240735Z AUTO 36004KT 10SM OVC011 M02/M02 A3007 RMK AO2,K5H4,2018-03-24T07:35:00Z,47.78,-99.93,-2.0,-2.0,360,4,,10.0,30.070866,,,TRUE,TRUE,,,,,,,OVC,1100,,,,,,,MVFR,,,,,,,,,,,,SPECI,490.0
K54J 240735Z AUTO 00000KT 10SM CLR 11/08 A3018 RMK AO2 T01110075,K54J,2018-03-24T07:35:00Z,30.73,-86.15,11.1,7.5,0,0,,10.0,30.180119,,,TRUE,TRUE,,,,,,,CLR,,,,,,,,VFR,,,,,,,,,,,,SPECI,88.0
K46D 240735Z AUTO 14021KT 8SM OVC009 M01/M02 A3008 RMK AO2,K46D,2018-03-24T07:35:00Z,47.45,-99.15,-1.0,-2.0,140,21,,8.0,30.079725,,,TRUE,TRUE,,,,,,,OVC,900,,,,,,,IFR,,,,,,,,,,,,SPECI,490.0
K2D5 240735Z AUTO 11020KT 2 1/2SM BR M02/M02 A3007 RMK AO2 PWINO,K2D5,2018-03-24T07:35:00Z,46.17,-98.08,-2.0,-2.0,110,20,,2.5,30.070866,,,TRUE,TRUE,,,,,TRUE,BR,,,,,,,,,,,,,,,,,,,,,SPECI,407.0
K08D 240735Z AUTO 16010KT 3SM BR M02/M02 A3000 RMK AO2,K08D,2018-03-24T07:35:00Z,48.3,-102.4,-2.0,-2.0,160,10,,3.0,30.0,,,TRUE,TRUE,,,,,,BR,,,,,,,,,,,,,,,,,,,,,SPECI,684.0
KRNV 240735Z AUTO 19014G20KT 10SM CLR 18/12 A2997 RMK AO2 T01750120,KRNV,2018-03-24T07:35:00Z,33.77,-90.75,17.5,12.0,190,14,20,10.0,29.970472,,,TRUE,TRUE,,,,,,,CLR,,,,,,,,VFR,,,,,,,,,,,,SPECI,41.0
KRCV 240735Z AUTO 27009KT 10SM CLR M01/M10 A3016 RMK AO2 T10131098,KRCV,2018-03-24T07:35:00Z,37.72,-106.35,-1.3,-9.8,270,9,,10.0,30.159449,,,TRUE,TRUE,,,,,,,CLR,,,,,,,,VFR,,,,,,,,,,,,METAR,2424.0
KPSO 240735Z AUTO 00000KT 10SM CLR M01/M06 A3017 RMK AO2 T10071057,KPSO,2018-03-24T07:35:00Z,37.28,-107.05,-0.7,-5.7,0,0,,10.0,30.171259,,,TRUE,TRUE,,,,,,,CLR,,,,,,,,VFR,,,,,,,,,,,,METAR,2334.0
KPLR 240735Z AUTO 00000KT 10SM CLR 06/06 A3012 RMK A01,KPLR,2018-03-24T07:35:00Z,33.57,-86.25,6.0,6.0,0,0,,10.0,30.121063,,,TRUE,TRUE,,,,,,,CLR,,,,,,,,VFR,,,,,,,,,,,,SPECI,148.0
KPCM 240735Z AUTO 00000KT 10SM CLR 09/06 A3023 RMK AO2,KPCM,2018-03-24T07:35:00Z,28.0,-82.17,9.0,6.0,0,0,,10.0,30.230314,,,TRUE,TRUE,,,,,,,CLR,,,,,,,,VFR,,,,,,,,,,,,SPECI,47.0
KPCD 240735Z AUTO 10SM OVC060 07/06 A2994 RMK AO2 T00730062 PWINO,KPCD,2018-03-24T07:35:00Z,37.87,-89.87,7.3,6.2,,,,10.0,29.940945,,,TRUE,TRUE,,,,,TRUE,,OVC,6000,,,,,,,VFR,,,,,,,,,,,,SPECI,113.0
KPAN 240735Z AUTO 00000KT 10SM CLR 07/M09 A3008 RMK AO2,KPAN,2018-03-24T07:35:00Z,34.25,-111.33,7.0,-9.0,0,0,,10.0,30.079725,,,TRUE,TRUE,,,,,,,CLR,,,,,,,,VFR,,,,,,,,,,,,METAR,1572.0
KORS 240735Z AUTO 00000KT 10SM OVC070 05/02 A2977 RMK AO2,KORS,2018-03-24T07:35:00Z,48.7,-122.92,5.0,2.0,0,0,,10.0,29.769686,,,TRUE,TRUE,,,,,,,OVC,7000,,,,,,,VFR,,,,,,,,,,,,METAR,9.0
KORC 240735Z AUTO 10009G20KT 3SM -SN OVC012 02/02 A2992 RMK AO2 P0001,KORC,2018-03-24T07:35:00Z,42.97,-96.07,2.0,2.0,100,9,20,3.0,29.920275,,,TRUE,TRUE,,,,,,-SN,OVC,1200,,,,,,,MVFR,,,,,,0.01,,,,,,SPECI,431.0
KOLZ 240735Z AUTO 09018KT 3/4SM -SN OVC002 M03/M03 A3011 RMK AO2,KOLZ,2018-03-24T07:35:00Z,42.67,-91.97,-3.0,-3.0,90,18,,0.75,30.109253,,,TRUE,TRUE,,,,,,-SN,OVC,200,,,,,,,LIFR,,,,,,,,,,,,SPECI,328.0
KOLE 240735Z AUTO 30003KT 10SM BKN039 M07/M08 A3014 RMK AO2,KOLE,2018-03-24T07:35:00Z,42.23,-78.37,-7.0,-8.0,300,3,,10.0,30.138779,,,TRUE,TRUE,,,,,,,BKN,3900,,,,,,,VFR,,,,,,,,,,,,SPECI,651.0
KOGS 240735Z AUTO 33010G15KT 10SM CLR M02/M08 A3018 RMK AO2 T10161081,KOGS,2018-03-24T07:35:00Z,44.67,-75.47,-1.6,-8.1,330,10,15,10.0,30.180119,,,TRUE,TRUE,,,,,,,CLR,,,,,,,,VFR,,,,,,,,,,,,SPECI,91.0
KN03 240735Z AUTO 00000KT 10SM CLR M04/M06 A3012 RMK AO2,KN03,2018-03-24T07:35:00Z,42.6,-76.22,-4.0,-6.0,0,0,,10.0,30.121063,,,TRUE,TRUE,,,,,,,CLR,,,,,,,,VFR,,,,,,,,,,,,SPECI,366.0
KMXO 240735Z AUTO 08011G18KT 1/4SM -SN OVC002 M02/M03 A3014 RMK AO2,KMXO,2018-03-24T07:35:00Z,42.22,-91.17,-2.0,-3.0,80,11,18,0.25,30.138779,,,TRUE,TRUE,,,,,,-SN,OVC,200,,,,,,,LIFR,,,,,,,,,,,,SPECI,259.0
KMMI 240735Z AUTO 04003KT 10SM OVC075 07/01 A3016 RMK,KMMI,2018-03-24T07:35:00Z,35.4,-84.57,7.0,1.0,40,3,,10.0,30.159449,,,TRUE,,,,,,,,OVC,7500,,,,,,,VFR,,,,,,,,,,,,METAR,266.0
KMKS 240735Z AUTO 05003KT 7SM OVC080 08/05 A3016 RMK AO2,KMKS,2018-03-24T07:35:00Z,33.18,-80.03,8.0,5.0,50,3,,7.0,30.159449,,,TRUE,TRUE,,,,,,,OVC,8000,,,,,,,VFR,,,,,,,,,,,,SPECI,23.0
KMBO 240735Z AUTO 16004KT 10SM SCT030 15/11 A3003 RMK AO2 PWINO,KMBO,2018-03-24T07:35:00Z,32.43,-90.1,15.0,11.0,160,4,,10.0,30.029528,,,TRUE,TRUE,,,,,TRUE,,SCT,3000,,,,,,,VFR,,,,,,,,,,,,SPECI,99.0
KMAN 240735Z AUTO 14004KT 10SM CLR 05/M02 A2979 RMK A01,KMAN,2018-03-24T07:35:00Z,43.58,-116.52,5.0,-2.0,140,4,,10.0,29.790354,,,TRUE,TRUE,,,,,,,CLR,,,,,,,,VFR,,,,,,,,,,,,SPECI,774.0
KM21 240735Z AUTO 12007KT 10SM OVC070 05/05 A3007 RMK AO2 T00490049,KM21,2018-03-24T07:35:00Z,37.22,-87.15,4.9,4.9,120,7,,10.0,30.070866,,,TRUE,TRUE,,,,,,,OVC,7000,,,,,,,VFR,,,,,,,,,,,,SPECI,129.0
KLMO 240735Z AUTO 24003KT 10SM CLR 06/03 A3006 RMK AO2 T00570025,KLMO,2018-03-24T07:35:00Z,40.17,-105.17,5.7,2.5,240,3,,10.0,30.059055,,,TRUE,TRUE,,,,,,,CLR,,,,,,,,VFR,,,,,,,,,,,,METAR,1541.0
KJZI 240735Z AUTO 00000KT 10SM OVC095 11/08 A3016 RMK AO2,KJZI,2018-03-24T07:35:00Z,32.7,-80.0,11.0,8.0,0,0,,10.0,30.159449,,,TRUE,TRUE,,,,,,,OVC,9500,,,,,,,VFR,,,,,,,,,,,,SPECI,6.0
KJXI 240735Z AUTO 17013G19KT 10SM TS OVC022 18/15 A2988 RMK AO2 T01830150,KJXI,2018-03-24T07:35:00Z,32.7,-94.95,18.3,15.0,170,13,19,10.0,29.878937,,,TRUE,TRUE,,,,,,TS,OVC,2200,,,,,,,MVFR,,,,,,,,,,,,SPECI,127.0
KJVW 240735Z AUTO 17009G14KT 10SM CLR 16/13 A3002 RMK AO2,KJVW,2018-03-24T07:35:00Z,32.3,-90.42,16.0,13.0,170,9,14,10.0,30.02067,,,TRUE,TRUE,,,,,,,CLR,,,,,,,,VFR,,,,,,,,,,,,SPECI,76.0
KJHN 240735Z AUTO 30013KT 10SM CLR 08/04 A2991 RMK AO2 T00830041,KJHN,2018-03-24T07:35:00Z,37.58,-101.73,8.3,4.1,300,13,,10.0,29.911417,,,TRUE,TRUE,,,,,,,CLR,,,,,,,,VFR,,,,,,,,,,,,SPECI,1013.0
KJFX 240735Z AUTO 00000KT 10SM 13/06 A3009 RMK AO2 PWINO,KJFX,2018-03-24T07:35:00Z,33.9,-87.32,13.0,6.0,0,0,,10.0,30.088583,,,TRUE,TRUE,,,,,TRUE,,,,,,,,,,,,,,,,,,,,,,SPECI,148.0
KJAQ 240735Z AUTO 00000KT 10SM CLR 05/04 A3011 RMK AO1 T00520040,KJAQ,2018-03-24T07:35:00Z,38.37,-120.8,5.2,4.0,0,0,,10.0,30.109253,,,TRUE,TRUE,,,,,,,CLR,,,,,,,,VFR,,,,,,,,,,,,METAR,512.0
KIOB 240735Z AUTO 00000KT 10SM OVC090 04/M05 A3022 RMK AO2,KIOB,2018-03-24T07:35:00Z,38.05,-83.98,4.0,-5.0,0,0,,10.0,30.221457,,,TRUE,TRUE,,,,,,,OVC,9000,,,,,,,VFR,,,,,,,,,,,,SPECI,311.0
KICL 240735Z AUTO 11012G20KT 9SM OVC010 06/06 A2976 RMK AO2,KICL,2018-03-24T07:35:00Z,40.72,-95.02,6.0,6.0,110,12,20,9.0,29.760826,,,TRUE,TRUE,,,,,,,OVC,1000,,,,,,,MVFR,,,,,,,,,,,,SPECI,303.0
KI75 240735Z AUTO 08022G26KT 7SM -RA OVC007 03/03 A2983 RMK AO2 P0001 T00330025,KI75,2018-03-24T07:35:00Z,41.05,-93.68,3.3,2.5,80,22,26,7.0,29.828741,,,TRUE,TRUE,,,,,,-RA,OVC,700,,,,,,,IFR,,,,,,0.01,,,,,,SPECI,339.0
KI68 240735Z AUTO 09007KT 10SM CLR 00/M05 A3025 RMK AO2,KI68,2018-03-24T07:35:00Z,39.47,-84.25,0.0,-5.0,90,7,,10.0,30.250984,,,TRUE,TRUE,,,,,,,CLR,,,,,,,,VFR,,,,,,,,,,,,SPECI,274.0
KI67 240735Z AUTO 06004KT 10SM CLR 00/M04 A3025 RMK AO1,KI67,2018-03-24T07:35:00Z,39.25,-84.78,0.0,-4.0,60,4,,10.0,30.250984,,,TRUE,TRUE,,,,,,,CLR,,,,,,,,VFR,,,,,,,,,,,,SPECI,178.0
KHYW 240735Z AUTO 00000KT 5SM BR OVC110 03/03 A3020 RMK AO2,KHYW,2018-03-24T07:35:00Z,33.83,-79.12,3.0,3.0,0,0,,5.0,30.200787,,,TRUE,TRUE,,,,,,BR,OVC,11000,,,,,,,MVFR,,,,,,,,,,,,SPECI,11.0
KGWR 240735Z AUTO 11015KT 1 1/4SM BR M01/M01 A3010 RMK A01,KGWR,2018-03-24T07:35:00Z,46.22,-97.65,-1.0,-1.0,110,15,,1.25,30.100393,,,TRUE,TRUE,,,,,,BR,,,,,,,,,,,,,,,,,,,,,SPECI,386.0
KGPC 240735Z AUTO 11006KT 10SM BKN075 OVC100 03/M05 A3019 RMK AO2,KGPC,2018-03-24T07:35:00Z,39.63,-86.82,3.0,-5.0,110,6,,10.0,30.188976,,,TRUE,TRUE,,,,,,,BKN,7500,OVC,10000,,,,,VFR,,,,,,,,,,,,SPECI,257.0
KGCD 240735Z AUTO 19015G23KT 10SM CLR 06/M07 A2969 RMK AO2 T00551069,KGCD,2018-03-24T07:35:00Z,44.38,-118.97,5.5,-6.9,190,15,23,10.0,29.68996,,,TRUE,TRUE,,,,,,,CLR,,,,,,,,VFR,,,,,,,,,,,,SPECI,1127.0
KFXY 240735Z AUTO 10018G25KT 3/4SM SN OVC006 M01/M01 A3001 RMK AO2,KFXY,2018-03-24T07:35:00Z,43.23,-93.62,-1.0,-1.0,100,18,25,0.75,30.008858,,,TRUE,TRUE,,,,,,SN,OVC,600,,,,,,,LIFR,,,,,,,,,,,,SPECI,375.0
KFSW 240735Z AUTO 08016G20KT 2SM -SN OVC007 01/01 A3003 RMK AO2,KFSW,2018-03-24T07:35:00Z,40.67,-91.32,1.0,1.0,80,16,20,2.0,30.029528,,,TRUE,TRUE,,,,,,-SN,OVC,700,,,,,,,IFR,,,,,,,,,,,,SPECI,221.0
KFRH 240735Z AUTO 07013KT 7SM OVC060 02/00 A3013 RMK AO1,KFRH,2018-03-24T07:35:00Z,38.5,-86.63,2.0,0.0,70,13,,7.0,30.129921,,,TRUE,TRUE,,,,,,,OVC,6000,,,,,,,VFR,,,,,,,,,,,,SPECI,241.0
KFMM 240735Z AUTO 36017KT 10SM CLR 03/01 A3000 RMK AO2 T00300010,KFMM,2018-03-24T07:35:00Z,40.33,-103.8,3.0,1.0,360,17,,10.0,30.0,,,TRUE,TRUE,,,,,,,CLR,,,,,,,,VFR,,,,,,,,,,,,SPECI,1393.0
CYBR 240735Z 14013G18KT 4SM -FZDZ BR OVC006 M01/M02 A3011 RMK SF8 SLP220,CYBR,2018-03-24T07:35:00Z,49.92,-99.95,-1.0,-2.0,140,13,18,4.0,30.109253,1022.0,,,,,,,,,-FZDZ BR,OVC,600,,,,,,,IFR,,,,,,,,,,,,SPECI,409.0
GEML 240735Z 29019G31KT 250V330 6000 2000NW RA SCT009 BKN012 BKN030 13/11 Q1007,GEML,2018-03-24T07:35:00Z,35.27,-2.95,13.0,11.0,290,19,31,3.73,29.734253,,,,,,,,,,RA,SCT,900,BKN,1200,BKN,3000,,,MVFR,,,,,,,,,,,,SPECI,55.0
KVQQ 240735Z AUTO 00000KT 10SM FEW038 OVC060 05/05 A3020 RMK AO2,KVQQ,2018-03-24T07:35:00Z,30.22,-81.88,5.0,5.0,0,0,,10.0,30.200787,,,TRUE,TRUE,,,,,,,FEW,3800,OVC,6000,,,,,VFR,,,,,,,,,,,,SPECI,25.0
KVNC 240735Z AUTO 08004KT 10SM CLR 11/07 A3021 RMK AO2,KVNC,2018-03-24T07:35:00Z,27.07,-82.43,11.0,7.0,80,4,,10.0,30.209646,,,TRUE,TRUE,,,,,,,CLR,,,,,,,,VFR,,,,,,,,,,,,SPECI,6.0
KUYF 240735Z AUTO 02005KT 10SM CLR M02/M05 A3026 RMK AO2,KUYF,2018-03-24T07:35:00Z,39.93,-83.47,-2.0,-5.0,20,5,,10.0,30.259842,,,TRUE,TRUE,,,,,,,CLR,,,,,,,,VFR,,,,,,,,,,,,SPECI,330.0
KTNU 240735Z AUTO 09028G38KT 9SM -UP OVC008 M00/M00 A2993 RMK AO2,KTNU,2018-03-24T07:35:00Z,41.67,-93.02,0.0,0.0,90,28,38,9.0,29.929134,,,TRUE,TRUE,,,,,,UP,OVC,800,,,,,,,IFR,,,,,,,,,,,,SPECI,290.0
KTFP 240735Z AUTO 20014KT 10SM SCT012 22/20 A2994 RMK AO2 T02200196 PNO,KTFP,2018-03-24T07:35:00Z,27.92,-97.22,22.0,19.6,200,14,,10.0,29.940945,,,TRUE,TRUE,,,,,,,SCT,1200,,,,,,,VFR,,,,,,,,,,,,SPECI,6.0
KSVC 240735Z AUTO 33009KT 10SM CLR 10/M02 A3012 RMK AO2 T00951019,KSVC,2018-03-24T07:35:00Z,32.63,-108.15,9.5,-1.9,330,9,,10.0,30.121063,,,TRUE,TRUE,,,,,,,CLR,,,,,,,,VFR,,,,,,,,,,,,SPECI,1659.0
KSDA 240735Z AUTO 35006G11KT 9SM OVC009 06/05 A2980 RMK AO2,KSDA,2018-03-24T07:35:00Z,40.75,-95.42,6.0,5.0,350,6,11,9.0,29.799213,,,TRUE,TRUE,,,,,,,OVC,900,,,,,,,IFR,,,,,,,,,,,,SPECI,296.0
KS33 240735Z AUTO 18006KT 10SM BKN110 01/00 A2970 RMK AO2,KS33,2018-03-24T07:35:00Z,44.67,-121.15,1.0,0.0,180,6,,10.0,29.698818,,,TRUE,TRUE,,,,,,,BKN,11000,,,,,,,VFR,,,,,,,,,,,,SPECI,743.0
KRDK 240735Z AUTO 07005KT 7SM OVC009 05/05 A2980 RMK AO2,KRDK,2018-03-24T07:35:00Z,41.02,-95.27,5.0,5.0,70,5,,7.0,29.799213,,,TRUE,TRUE,,,,,,,OVC,900,,,,,,,IFR,,,,,,,,,,,,SPECI,318.0
KD60 240735Z AUTO 16009KT 1SM BR OVC002 M03/M03 A2999 RMK AO2,KD60,2018-03-24T07:35:00Z,48.38,-102.9,-3.0,-3.0,160,9,,1.0,29.991142,,,TRUE,TRUE,,,,,,BR,OVC,200,,,,,,,LIFR,,,,,,,,,,,,SPECI,693.0
KD55 240735Z AUTO 14021KT 7SM M02/M02 A3012 RMK AO2,KD55,2018-03-24T07:35:00Z,48.75,-98.4,-2.0,-2.0,140,21,,7.0,30.121063,,,TRUE,TRUE,,,,,,,,,,,,,,,,,,,,,,,,,,,SPECI,491.0
KD50 240735Z AUTO 18012KT 5SM BR OVC008 M02/M02 A2997 RMK AO2,KD50,2018-03-24T07:35:00Z,48.93,-103.3,-2.0,-2.0,180,12,,5.0,29.970472,,,TRUE,TRUE,,,,,,BR,OVC,800,,,,,,,IFR,,,,,,,,,,,,SPECI,595.0
KCSQ 240735Z AUTO 10028KT 3SM -UP OVC006 04/03 A2976 RMK AO2,KCSQ,2018-03-24T07:35:00Z,41.02,-94.37,4.0,3.0,100,28,,3.0,29.760826,,,TRUE,TRUE,,,,,,UP,OVC,600,,,,,,,IFR,,,,,,,,,,,,SPECI,394.0
KCPT 240735Z AUTO 18012G19KT 10SM CLR 18/17 A2989 RMK AO2,KCPT,2018-03-24T07:35:00Z,32.35,-97.43,18.0,17.0,180,12,19,10.0,29.890747,,,TRUE,TRUE,,,,,,,CLR,,,,,,,,VFR,,,,,,,,,,,,SPECI,260.0
KCMR 240735Z AUTO 21008KT 10SM CLR 06/M05 A3008 RMK AO2,KCMR,2018-03-24T07:35:00Z,35.3,-112.2,6.0,-5.0,210,8,,10.0,30.079725,,,TRUE,TRUE,,,,,,,CLR,,,,,,,,VFR,,,,,,,,,,,,SPECI,2036.0
KCIN 240735Z AUTO 09019G31KT 2 1/2SM +UP OVC009 01/01 A2989 RMK AO2,KCIN,2018-03-24T07:35:00Z,42.03,-94.77,1.0,1.0,90,19,31,2.5,29.890747,,,TRUE,TRUE,,,,,,UP,OVC,900,,,,,,,IFR,,,,,,,,,,,,SPECI,375.0
KCCU 240735Z AUTO 22008KT 190V260 10SM CLR M05/M08 A3018 RMK AO2,KCCU,2018-03-24T07:35:00Z,39.48,-106.15,-5.0,-8.0,220,8,,10.0,30.180119,,,TRUE,TRUE,,,,,,,CLR,,,,,,,,VFR,,,,,,,,,,,,SPECI,3680.0
KBVU 240735Z AUTO 30005KT 10SM SCT041 BKN049 12/M02 A2993 RMK AO2,KBVU,2018-03-24T07:35:00Z,35.95,-114.87,12.0,-2.0,300,5,,10.0,29.929134,,,TRUE,TRUE,,,,,,,SCT,4100,BKN,4900,,,,,VFR,,,,,,,,,,,,SPECI,671.0
KBKN 240735Z AUTO 24009KT 10SM FEW049 FEW055 SCT065 17/17 A2971 RMK AO2,KBKN,2018-03-24T07:35:00Z,36.75,-97.35,17.0,17.0,240,9,,10.0,29.71063,,,TRUE,TRUE,,,,,,,FEW,4900,FEW,5500,SCT,6500,,,VFR,,,,,,,,,,,,SPECI,314.0
KBBG 240735Z AUTO 12005KT 10SM OVC043 15/12 A2981 RMK AO2,KBBG,2018-03-24T07:35:00Z,36.53,-93.2,15.0,12.0,120,5,,10.0,29.811024,,,TRUE,TRUE,,,,,,,OVC,4300,,,,,,,VFR,,,,,,,,,,,,SPECI,397.0
KAXA 240735Z AUTO 11025G36KT 6SM BR OVC007 M00/M01 A2994 RMK AO2 PWINO,KAXA,2018-03-24T07:35:00Z,43.07,-94.27,0.0,-1.0,110,25,36,6.0,29.940945,,,TRUE,TRUE,,,,,TRUE,BR,OVC,700,,,,,,,IFR,,,,,,,,,,,,SPECI,372.0
KAWG 240735Z AUTO 09024G33KT 3SM BR BKN008 OVC011 00/00 A3004 RMK AO2,KAWG,2018-03-24T07:35:00Z,41.27,-91.67,0.0,0.0,90,24,33,3.0,30.041338,,,TRUE,TRUE,,,,,,BR,BKN,800,OVC,1100,,,,,IFR,,,,,,,,,,,,SPECI,230.0
KANK 240735Z AUTO 00000KT 10SM CLR 02/M05 A3019 RMK AO1 T00171048,KANK,2018-03-24T07:35:00Z,38.53,-106.05,1.7,-4.8,0,0,,10.0,30.188976,,,TRUE,TRUE,,,,,,,CLR,,,,,,,,VFR,,,,,,,,,,,,SPECI,2293.0
KALM 240735Z AUTO 03007KT 10SM CLR 15/M05 A3006 RMK AO2,KALM,2018-03-24T07:35:00Z,32.82,-105.97,15.0,-5.0,30,7,,10.0,30.059055,,,TRUE,TRUE,,,,,,,CLR,,,,,,,,VFR,,,,,,,,,,,,SPECI,1279.0
KAJZ 240735Z AUTO 05007KT 10SM SCT080 04/M01 A3008 RMK AO2 T00401006,KAJZ,2018-03-24T07:35:00Z,38.78,-108.07,4.0,-0.6,50,7,,10.0,30.079725,,,TRUE,TRUE,,,,,,,SCT,8000,,,,,,,VFR,,,,,,,,,,,,SPECI,1583.0
KAIK 240735Z AUTO 00000KT 10SM OVC075 11/01 A3021 RMK AO2,KAIK,2018-03-24T07:35:00Z,33.65,-81.68,11.0,1.0,0,0,,10.0,30.209646,,,TRUE,TRUE,,,,,,,OVC,7500,,,,,,,VFR,,,,,,,,,,,,SPECI,161.0
KAEJ 240735Z AUTO 31008KT 10SM CLR M01/M05 A3012 RMK AO2 T10081051,KAEJ,2018-03-24T07:35:00Z,38.82,-106.12,-0.8,-5.1,310,8,,10.0,30.121063,,,TRUE,TRUE,,,,,,,CLR,,,,,,,,VFR,,,,,,,,,,,,SPECI,2422.0
K7L2 240735Z AUTO 13011G19KT 4SM BR M01/M01 A3003 RMK AO2,K7L2,2018-03-24T07:35:00Z,46.22,-100.25,-1.0,-1.0,130,11,19,4.0,30.029528,,,TRUE,TRUE,,,,,,BR,,,,,,,,,,,,,,,,,,,,,SPECI,543.0
K6L4 240735Z AUTO 00000KT 10SM CLR 00/M07 A3019 RMK AO2,K6L4,2018-03-24T07:35:00Z,37.85,-81.92,0.0,-7.0,0,0,,10.0,30.188976,,,TRUE,TRUE,,,,,,,CLR,,,,,,,,VFR,,,,,,,,,,,,SPECI,508.0
K4M9 240735Z AUTO 02005KT 10SM BKN055 OVC070 14/10 A2989 RMK AO2 PWINO,K4M9,2018-03-24T07:35:00Z,36.4,-90.65,14.0,10.0,20,5,,10.0,29.890747,,,TRUE,TRUE,,,,,TRUE,,BKN,5500,OVC,7000,,,,,VFR,,,,,,,,,,,,SPECI,90.0
K4A6 240735Z AUTO 06003KT 10SM OVC090 10/04 A3012 RMK AO2,K4A6,2018-03-24T07:35:00Z,34.68,-86.0,10.0,4.0,60,3,,10.0,30.121063,,,TRUE,TRUE,,,,,,,OVC,9000,,,,,,,VFR,,,,,,,,,,,,SPECI,198.0
K3T5 240735Z AUTO 18008KT 10SM BKN023 OVC028 21/19 A2994 RMK AO2 T02060185,K3T5,2018-03-24T07:35:00Z,29.9,-96.95,20.6,18.5,180,8,,10.0,29.940945,,,TRUE,TRUE,,,,,,,BKN,2300,OVC,2800,,,,,MVFR,,,,,,,,,,,,SPECI,99.0
K33V 240735Z AUTO 18006KT 10SM CLR M01/M04 A3011 RMK AO1,K33V,2018-03-24T07:35:00Z,40.75,-106.28,-1.0,-4.0,180,6,,10.0,30.109253,,,TRUE,TRUE,,,,,,,CLR,,,,,,,,VFR,,,,,,,,,,,,SPECI,2484.0
K27K 240735Z AUTO 08006KT 10SM OVC090 03/M05 A3020 RMK AO1,K27K,2018-03-24T07:35:00Z,38.23,-84.43,3.0,-5.0,80,6,,10.0,30.200787,,,TRUE,TRUE,,,,,,,OVC,9000,,,,,,,VFR,,,,,,,,,,,,SPECI,289.0
K24J 240735Z AUTO 00000KT 10SM SCT024 BKN029 BKN035 07/07 A3022 RMK A01,K24J,2018-03-24T07:35:00Z,30.3,-83.03,7.0,7.0,0,0,,10.0,30.221457,,,TRUE,TRUE,,,,,,,SCT,2400,BKN,2900,BKN,3500,,,MVFR,,,,,,,,,,,,SPECI,32.0
K0S9 240735Z AUTO 12004KT 10SM SCT075 BKN110 02/02 A2977 RMK AO2,K0S9,2018-03-24T07:35:00Z,48.05,-122.82,2.0,2.0,120,4,,10.0,29.769686,,,TRUE,TRUE,,,,,,,SCT,7500,BKN,11000,,,,,VFR,,,,,,,,,,,,SPECI,33.0
K06D 240735Z AUTO 15015G22KT 3SM BR OVC006 M02/M02 A3009 RMK AO2,K06D,2018-03-24T07:35:00Z,48.88,-99.62,-2.0,-2.0,150,15,22,3.0,30.088583,,,TRUE,TRUE,,,,,,BR,OVC,600,,,,,,,IFR,,,,,,,,,,,,SPECI,556.0
KRBW 240735Z AUTO 00000KT 10SM OVC080 10/05 A3018 RMK AO2,KRBW,2018-03-24T07:35:00Z,32.92,-80.63,10.0,5.0,0,0,,10.0,30.180119,,,TRUE,TRUE,,,,,,,OVC,8000,,,,,,,VFR,,,,,,,,,,,,SPECI,31.0
KPTS 240735Z AUTO 20015G23KT 10SM BKN027 OVC035 22/17 A2967 RMK AO2 T02170167,KPTS,2018-03-24T07:35:00Z,37.45,-94.73,21.7,16.7,200,15,23,10.0,29.66929,,,TRUE,TRUE,,,,,,,BKN,2700,OVC,3500,,,,,MVFR,,,,,,,,,,,,SPECI,290.0
KOXV 240735Z AUTO 09024G35KT 10SM OVC009 01/M01 A2986 RMK AO2,KOXV,2018-03-24T07:35:00Z,41.28,-93.12,1.0,-1.0,90,24,35,10.0,29.861221,,,TRUE,TRUE,,,,,,,OVC,900,,,,,,,IFR,,,,,,,,,,,,SPECI,283.0
KMUT 240735Z AUTO 10019G25KT 8SM -SN FEW009 BKN012 OVC060 00/M02 A3010 RMK AO2,KMUT,2018-03-24T07:35:00Z,41.37,-91.15,0.0,-2.0,100,19,25,8.0,30.100393,,,TRUE,TRUE,,,,,,-SN,FEW,900,BKN,1200,OVC,6000,,,MVFR,,,,,,,,,,,,SPECI,167.0
KMNI 240735Z 10SM OVC090 10/M01 A3017 RMK AO2,KMNI,2018-03-24T07:35:00Z,33.58,-80.22,10.0,-1.0,,,,10.0,30.171259,,,,TRUE,,,,,,,OVC,9000,,,,,,,VFR,,,,,,,,,,,,SPECI,32.0
KMAO 240735Z AUTO 06003KT 10SM OVC100 04/01 A3020 RMK AO2,KMAO,2018-03-24T07:35:00Z,34.18,-79.33,4.0,1.0,60,3,,10.0,30.200787,,,TRUE,TRUE,,,,,,,OVC,10000,,,,,,,VFR,,,,,,,,,,,,SPECI,28.0
KM40 240735Z AUTO 18007KT 10SM SCT065 15/11 A3006 RMK AO2,KM40,2018-03-24T07:35:00Z,33.87,-88.48,15.0,11.0,180,7,,10.0,30.059055,,,TRUE,TRUE,,,,,,,SCT,6500,,,,,,,VFR,,,,,,,,,,,,SPECI,69.0
KM25 240735Z AUTO 10007KT 10SM OVC060 08/06 A2999 RMK AO2,KM25,2018-03-24T07:35:00Z,36.77,-88.58,8.0,6.0,100,7,,10.0,29.991142,,,TRUE,TRUE,,,,,,,OVC,6000,,,,,,,VFR,,,,,,,,,,,,SPECI,160.0
KLZZ 240735Z AUTO 18004KT 10SM BKN015 18/16 A2991 RMK AO2 T01760155,KLZZ,2018-03-24T07:35:00Z,31.1,-98.2,17.6,15.5,180,4,,10.0,29.911417,,,TRUE,TRUE,,,,,,,BKN,1500,,,,,,,MVFR,,,,,,,,,,,,SPECI,371.0
KLRJ 240735Z AUTO 09010G18KT 5SM -SN BKN012 OVC016 02/01 A2992 RMK AO2,KLRJ,2018-03-24T07:35:00Z,42.77,-96.2,2.0,1.0,90,10,18,5.0,29.920275,,,TRUE,TRUE,,,,,,-SN,BKN,1200,OVC,1600,,,,,MVFR,,,,,,,,,,,,SPECI,365.0
KLKR 240735Z AUTO 00000KT 10SM OVC085 06/02 A3020 RMK AO2,KLKR,2018-03-24T07:35:00Z,34.72,-80.85,6.0,2.0,0,0,,10.0,30.200787,,,TRUE,TRUE,,,,,,,OVC,8500,,,,,,,VFR,,,,,,,,,,,,SPECI,149.0
KLAL 240735Z AUTO 00000KT 10SM CLR 08/05 A3022 RMK AO2,KLAL,2018-03-24T07:35:00Z,27.97,-82.02,8.0,5.0,0,0,,10.0,30.221457,,,TRUE,TRUE,,,,,,,CLR,,,,,,,,VFR,,,,,,,,,,,,SPECI,43.0
KL08 240735Z AUTO 32012KT 10SM CLR 18/06 A2994 RMK AO2,KL08,2018-03-24T07:35:00Z,,,18.0,6.0,320,12,,10.0,29.940945,,,TRUE,TRUE,,,,,,,CLR,,,,,,,,VFR,,,,,,,,,,,,METAR,
KKY8 240735Z AUTO 09009KT 5SM BR BKN038 OVC045 06/05 A3012 RMK A01,KKY8,2018-03-24T07:35:00Z,37.95,-86.87,6.0,5.0,90,9,,5.0,30.121063,,,TRUE,TRUE,,,,,,BR,BKN,3800,OVC,4500,,,,,MVFR,,,,,,,,,,,,SPECI,126.0
KJSO 240735Z AUTO 19011G16KT 10SM CLR 17/16 A2994 RMK AO2 T01760160,KJSO,2018-03-24T07:35:00Z,31.87,-95.22,17.6,16.0,190,11,16,10.0,29.940945,,,TRUE,TRUE,,,,,,,CLR,,,,,,,,VFR,,,,,,,,,,,,SPECI,206.0
KJRB 240735Z VRB04KT 10SM 03/M05 RMK AO2 PWINO FZRANO RVRNO,KJRB,2018-03-24T07:35:00Z,40.7,-74.02,3.0,-5.0,0,4,,10.0,,,,,TRUE,,,,TRUE,TRUE,,,,,,,,,,,,,,,,,,,,,,SPECI,7.0
KIKV 240735Z AUTO 10023G30KT 10SM OVC010 01/M00 A2992 RMK AO2,KIKV,2018-03-24T07:35:00Z,41.68,-93.57,1.0,0.0,100,23,30,10.0,29.920275,,,TRUE,TRUE,,,,,,,OVC,1000,,,,,,,MVFR,,,,,,,,,,,,SPECI,275.0
KIIB 240735Z AUTO 09019G25KT 1/2SM SN OVC003 M03/M03 A3010 RMK AO2 T10301035,KIIB,2018-03-24T07:35:00Z,42.45,-91.95,-3.0,-3.5,90,19,25,0.5,30.100393,,,TRUE,TRUE,,,,,,SN,OVC,300,,,,,,,LIFR,,,,,,,,,,,,SPECI,298.0
KIDI 240735Z AUTO 00000KT 10SM BKN036 M05/M07 A3024 RMK A01,KIDI,2018-03-24T07:35:00Z,40.62,-79.08,-5.0,-7.0,0,0,,10.0,30.239174,,,TRUE,TRUE,,,,,,,BKN,3600,,,,,,,VFR,,,,,,,,,,,,SPECI,429.0
KHOB 240735Z AUTO 36011KT 10SM CLR 17/M03 A2997 RMK AO2,KHOB,2018-03-24T07:35:00Z,32.67,-103.22,17.0,-3.0,360,11,,10.0,29.970472,,,TRUE,TRUE,,,,,,,CLR,,,,,,,,VFR,,,,,,,,,,,,SPECI,1115.0
KHNR 240735Z AUTO 07006G13KT 5SM RA OVC010 04/03 A2988 RMK AO2,KHNR,2018-03-24T07:35:00Z,41.58,-95.33,4.0,3.0,70,6,13,5.0,29.878937,,,TRUE,TRUE,,,,,,RA,OVC,1000,,,,,,,MVFR,,,,,,,,,,,,SPECI,375.0
KHEG 240735Z AUTO 00000KT 10SM OVC065 08/06 A3022 RMK AO2,KHEG,2018-03-24T07:35:00Z,,,8.0,6.0,0,0,,10.0,30.221457,,,TRUE,TRUE,,,,,,,OVC,6500,,,,,,,VFR,,,,,,,,,,,,METAR,
KGNT 240735Z AUTO 26008G16KT 240V310 10SM CLR 03/M13 A3016 RMK AO2 T00261127,KGNT,2018-03-24T07:35:00Z,35.17,-107.9,2.6,-12.7,260,8,16,10.0,30.159449,,,TRUE,TRUE,,,,,,,CLR,,,,,,,,VFR,,,,,,,,,,,,SPECI,1987.0
KGLY 240735Z AUTO 12006KT 10SM OVC030 15/11 A2970 RMK AO2,KGLY,2018-03-24T07:35:00Z,38.35,-93.68,15.0,11.0,120,6,,10.0,29.698818,,,TRUE,TRUE,,,,,,,OVC,3000,,,,,,,MVFR,,,,,,,,,,,,SPECI,251.0
KGLE 240735Z AUTO 19016G21KT 10SM CLR 19/15 A2981 RMK AO2 T01870150,KGLE,2018-03-24T07:35:00Z,33.65,-97.2,18.7,15.0,190,16,21,10.0,29.811024,,,TRUE,TRUE,,,,,,,CLR,,,,,,,,VFR,,,,,,,,,,,,SPECI,256.0
KGGE 240735Z AUTO 00000KT 10SM OVC110 06/06 A3018 RMK AO2,KGGE,2018-03-24T07:35:00Z,33.32,-79.32,6.0,6.0,0,0,,10.0,30.180119,,,TRUE,TRUE,,,,,,,OVC,11000,,,,,,,VFR,,,,,,,,,,,,SPECI,12.0
KFRM 240735Z AUTO 10025G30KT 3SM -SN BR OVC006 M01/M01 A2998 RMK AO2 PK WND 10035/0714 CIG 004V008 P0000 FZRANO,KFRM,2018-03-24T07:35:00Z,43.63,-94.42,-1.0,-1.0,100,25,30,3.0,29.97933,,,TRUE,TRUE,,,,TRUE,,-SN BR,OVC,600,,,,,,,IFR,,,,,,0.005,,,,,,SPECI,354.0
KFFL 240735Z AUTO 09025G33KT 3SM BR OVC006 00/M00 A2998 RMK AO2 PWINO,KFFL,2018-03-24T07:35:00Z,41.03,-91.97,0.0,0.0,90,25,33,3.0,29.97933,,,TRUE,TRUE,,,,,TRUE,BR,OVC,600,,,,,,,IFR,,,,,,,,,,,,SPECI,244.0
KE80 240735Z AUTO 26008KT 10SM CLR 07/M09 A3011 RMK AO2 T00701087,KE80,2018-03-24T07:35:00Z,34.65,-106.83,7.0,-8.7,260,8,,10.0,30.109253,,,TRUE,TRUE,,,,,,,CLR,,,,,,,,VFR,,,,,,,,,,,,SPECI,1582.0
KDNS 240735Z AUTO 09016KT +UP OVC010 02/02 A2988 RMK AO2,KDNS,2018-03-24T07:35:00Z,41.97,-95.37,2.0,2.0,90,16,,,29.878937,,,TRUE,TRUE,,,,,,UP,OVC,1000,,,,,,,,,,,,,,,,,,,SPECI,388.0
KDYA 240735Z AUTO 00000KT 10SM 15/09 A3010 RMK AO2 T01460090,KDYA,2018-03-24T07:35:00Z,32.47,-87.95,14.6,9.0,0,0,,10.0,30.100393,,,TRUE,TRUE,,,,,,,,,,,,,,,,,,,,,,,,,,,METAR,34.0
KATS 240735Z AUTO 24010KT 10SM CLR 15/M03 A2996 RMK AO2,KATS,2018-03-24T07:35:00Z,32.85,-104.47,15.0,-3.0,240,10,,10.0,29.958662,,,TRUE,TRUE,,,,,,,CLR,,,,,,,,VFR,,,,,,,,,,,,SPECI,1081.0
K2J9 240735Z AUTO 00000KT 10SM CLR 07/06 A3020 RMK AO2,K2J9,2018-03-24T07:35:00Z,30.6,-84.55,7.0,6.0,0,0,,10.0,30.200787,,,TRUE,TRUE,,,,,,,CLR,,,,,,,,VFR,,,,,,,,,,,,METAR,69.0
CYMT 240735Z AUTO 34011G19KT 9SM BKN022 OVC034 M11/M15 A3022 RMK SLP262,CYMT,2018-03-24T07:35:00Z,49.77,-74.52,-11.0,-15.0,340,11,19,9.0,30.221457,1026.2,,TRUE,,,,,,,,BKN,2200,OVC,3400,,,,,MVFR,,,,,,,,,,,,SPECI,387.0
KDNA 240735Z AUTO 00000KT 10SM CLR 15/M02 A3007 RMK AO2 PWINO,KDNA,2018-03-24T07:35:00Z,31.88,-106.7,15.0,-2.0,0,0,,10.0,30.070866,,,TRUE,TRUE,,,,,TRUE,,CLR,,,,,,,,VFR,,,,,,,,,,,,SPECI,1253.0
KRYW 240735Z AUTO 20014G20KT 10SM OVC012 20/17 A2993 RMK AO2 T01950171,KRYW,2018-03-24T07:35:00Z,30.5,-97.97,19.5,17.1,200,14,20,10.0,29.929134,,,TRUE,TRUE,,,,,,,OVC,1200,,,,,,,MVFR,,,,,,,,,,,,METAR,376.0
KETH 240734Z AUTO 10012KT 10SM SCT021 SCT034 BKN055 00/M04 A3014 RMK AO2,KETH,2018-03-24T07:34:00Z,45.78,-96.55,0.0,-4.0,100,12,,10.0,30.138779,,,TRUE,TRUE,,,,,,,SCT,2100,SCT,3400,BKN,5500,,,VFR,,,,,,,,,,,,SPECI,313.0
KDIK 240734Z AUTO 00000KT 1/4SM FG VV003 00/00 A2994 RMK AO2 T00000000,KDIK,2018-03-24T07:34:00Z,46.8,-102.8,0.0,0.0,0,0,,0.25,29.940945,,,TRUE,TRUE,,,,,,FG,OVX,0,,,,,,,LIFR,,,,,,,,,,,300,SPECI,788.0
K2V6 240734Z AUTO 32011KT 10SM CLR 04/03 A2998 RMK AO2,K2V6,2018-03-24T07:34:00Z,40.1,-102.72,4.0,3.0,320,11,,10.0,29.97933,,,TRUE,TRUE,,,,,,,CLR,,,,,,,,VFR,,,,,,,,,,,,SPECI,1261.0
KMKY 240734Z AUTO 00000KT 2SM HZ BKN003 12/08 A3021 RMK AO2,KMKY,2018-03-24T07:34:00Z,26.0,-81.67,12.0,8.0,0,0,,2.0,30.209646,,,TRUE,TRUE,,,,,,HZ,BKN,300,,,,,,,LIFR,,,,,,,,,,,,METAR,2.0
CYXX 240734Z 01004KT 10SM -SHRA OVC062 03/02 A2979 RMK SC8 CVCTV CLD EMBD SLP091,CYXX,2018-03-24T07:34:00Z,49.03,-122.38,3.0,2.0,10,4,,10.0,29.790354,1009.1,,,,,,,,,-SHRA,OVC,6200,,,,,,,VFR,,,,,,,,,,,,SPECI,58.0
KORB 240733Z AUTO 12004KT 10SM CLR M06/M13 A3033 RMK AO2,KORB,2018-03-24T07:33:00Z,48.02,-92.87,-6.0,-13.0,120,4,,10.0,30.33071,,,TRUE,TRUE,,,,,,,CLR,,,,,,,,VFR,,,,,,,,,,,,SPECI,397.0
KHEY 240733Z AUTO 00000KT 8SM SCT090 10/07 A3016 RMK AO2 SLP215,KHEY,2018-03-24T07:33:00Z,31.35,-85.65,10.0,7.0,0,0,,8.0,30.159449,1021.5,,TRUE,TRUE,,,,,,,SCT,9000,,,,,,,VFR,,,,,,,,,,,,SPECI,97.0
FAUT 240732Z 11001KT CAVOK 25/15 Q1011,FAUT,2018-03-24T07:32:00Z,-31.52,28.67,25.0,15.0,110,1,,6.21,29.852362,,,,,,,,,,,CAVOK,,,,,,,,VFR,,,,,,,,,,,,SPECI,732.0
KWDG 240732Z AUTO 23005KT 10SM CLR 16/14 A2970 RMK AO2,KWDG,2018-03-24T07:32:00Z,36.37,-97.77,16.0,14.0,230,5,,10.0,29.698818,,,TRUE,TRUE,,,,,,,CLR,,,,,,,,VFR,,,,,,,,,,,,METAR,356.0
EHKD 240732Z AUTO 14005KT 110V170 6000 BR OVC030 05/04 Q1002 WHT 15006KT 5000 BR BKN028,EHKD,2018-03-24T07:32:00Z,52.92,4.77,5.0,4.0,140,5,,3.73,29.586615,,,TRUE,,,,,,,BR BR,OVC,3000,BKN,2800,,,,,MVFR,,,,,,,,,,,,SPECI,14.0
KFAM 240732Z AUTO 12010KT 10SM BKN011 OVC050 08/06 A2992 RMK AO2,KFAM,2018-03-24T07:32:00Z,37.77,-90.42,8.0,6.0,120,10,,10.0,29.920275,,,TRUE,TRUE,,,,,,,BKN,1100,OVC,5000,,,,,MVFR,,,,,,,,,,,,SPECI,288.0
YMER 240732Z AUTO 00000KT 5000 // SCT075 SCT084 21/17 Q1012,YMER,2018-03-24T07:32:00Z,-36.92,149.9,21.0,17.0,0,0,,3.11,29.88189,,,TRUE,,,,,,,,SCT,7500,SCT,8400,,,,,MVFR,,,,,,,,,,,,SPECI,2.0
KOWA 240732Z AUTO 09017G22KT 10SM SCT065 SCT085 02/M06 A3011 RMK AO2,KOWA,2018-03-24T07:32:00Z,44.12,-93.25,2.0,-6.0,90,17,22,10.0,30.109253,,,TRUE,TRUE,,,,,,,SCT,6500,SCT,8500,,,,,VFR,,,,,,,,,,,,METAR,350.0
KSEA 240732Z 29003KT 10SM -RA SCT024 BKN028 OVC035 04/02 A2976 RMK AO2 RAB14 P0001 T00440022,KSEA,2018-03-24T07:32:00Z,47.45,-122.32,4.4,2.2,290,3,,10.0,29.760826,,,,TRUE,,,,,,-RA,SCT,2400,BKN,2800,OVC,3500,,,MVFR,,,,,,0.01,,,,,,SPECI,136.0
PFSH 240731Z AUTO 07003KT 1/2SM FZFG VV011 M09/M10 A3006 RMK AO2 PWINO FZRANO $,PFSH,2018-03-24T07:31:00Z,64.37,-161.22,-9.0,-10.0,70,3,,0.5,30.059055,,,TRUE,TRUE,TRUE,,,TRUE,TRUE,FZFG,OVX,0,,,,,,,LIFR,,,,,,,,,,,1100,SPECI,7.0
BIKF 240731Z 33014KT 9999 FEW026CB SCT036 BKN060 00/M04 Q0993,BIKF,2018-03-24T07:31:00Z,63.98,-22.6,0.0,-4.0,330,14,,6.21,29.320866,,,,,,,,,,,FEW,2600,SCT,3600,BKN,6000,,,VFR,,,,,,,,,,,,METAR,54.0
KLNK 240731Z AUTO 02010KT 4SM -RA BR BKN006 OVC015 06/05 A2980 RMK AO2 RAB16 P0000 T00560050,KLNK,2018-03-24T07:31:00Z,40.85,-96.77,5.6,5.0,20,10,,4.0,29.799213,,,TRUE,TRUE,,,,,,-RA BR,BKN,600,OVC,1500,,,,,IFR,,,,,,0.005,,,,,,SPECI,364.0
VTPH 240730Z 06006KT 020V110 9999 FEW032 31/24 Q1010 NOSIG,VTPH,2018-03-24T07:30:00Z,12.63,99.95,31.0,24.0,60,6,,6.21,29.822834,,,,,,TRUE,,,,,FEW,3200,,,,,,,VFR,,,,,,,,,,,,METAR,6.0
HECA 240730Z 25018KT 6000 SCT025 BKN070 20/01 Q1014 NOSIG,HECA,2018-03-24T07:30:00Z,30.12,31.38,20.0,1.0,250,18,,3.73,29.940945,,,,,,TRUE,,,,,SCT,2500,BKN,7000,,,,,MVFR,,,,,,,,,,,,METAR,74.0
HUEN 240730Z 18008KT 9999 TS BKNO19 FEW021CB SCT120 23/18 Q1017,HUEN,2018-03-24T07:30:00Z,0.03,32.45,23.0,18.0,180,8,,6.21,30.029528,,,,,,,,,,TS,FEW,2100,SCT,12000,,,,,VFR,,,,,,,,,,,,METAR,1155.0
KVBS 240730Z AUTO 14008G16KT 110V170 10SM BKN023 BKN043 BKN065 21/18 A3000 RMK A01,KVBS,2018-03-24T07:30:00Z,29.48,-93.63,21.0,18.0,140,8,16,10.0,30.0,,,TRUE,TRUE,,,,,,,BKN,2300,BKN,4300,BKN,6500,,,MVFR,,,,,,,,,,,,SPECI,31.0
VIDP 240730Z 31011KT 4000 HZ NSC 31/10 Q1014 NOSIG,VIDP,2018-03-24T07:30:00Z,28.57,77.12,31.0,10.0,310,11,,2.49,29.940945,,,,,,TRUE,,,,HZ,CLR,,,,,,,,IFR,,,,,,,,,,,,METAR,233.0
KHSG 240730Z AUTO 27006KT 10SM CLR M03/M06 A2991 RMK AO2 T10321058,KHSG,2018-03-24T07:30:00Z,43.72,-108.38,-3.2,-5.8,270,6,,10.0,29.911417,,,TRUE,TRUE,,,,,,,CLR,,,,,,,,VFR,,,,,,,,,,,,METAR,1494.0
KHFJ 240730Z AUTO 18012KT 10SM OVC028 18/13 A2974 RMK AO2,KHFJ,2018-03-24T07:30:00Z,36.9,-94.02,18.0,13.0,180,12,,10.0,29.740158,,,TRUE,TRUE,,,,,,,OVC,2800,,,,,,,MVFR,,,,,,,,,,,,METAR,401.0
KHDE 240730Z AUTO 35006KT 5SM BR OVC005 06/06 A2984 RMK AO2 T00600060,KHDE,2018-03-24T07:30:00Z,40.45,-99.32,6.0,6.0,350,6,,5.0,29.840551,,,TRUE,TRUE,,,,,,BR,OVC,500,,,,,,,IFR,,,,,,,,,,,,METAR,705.0
KGDJ 240730Z AUTO 16007KT 10SM CLR 20/16 A2988 RMK AO2 T02000157,KGDJ,2018-03-24T07:30:00Z,32.45,-97.82,20.0,15.7,160,7,,10.0,29.878937,,,TRUE,TRUE,,,,,,,CLR,,,,,,,,VFR,,,,,,,,,,,,METAR,237.0
KGBG 240730Z AUTO 07010KT 5SM UP OVC008 02/02 A3012 RMK AO2 LTG DSNT SE P0001 T00240017,KGBG,2018-03-24T07:30:00Z,40.93,-90.43,2.4,1.7,70,10,,5.0,30.121063,,,TRUE,TRUE,,,,,,UP,OVC,800,,,,,,,IFR,,,,,,0.01,,,,,,METAR,233.0
KD73 240730Z AUTO 00000KT 10SM BKN080 OVC110 11/06 A3016 RMK AO2 T01050056,KD73,2018-03-24T07:30:00Z,33.78,-83.7,10.5,5.6,0,0,,10.0,30.159449,,,TRUE,TRUE,,,,,,,BKN,8000,OVC,11000,,,,,VFR,,,,,,,,,,,,METAR,267.0
KCPU 240730Z AUTO 10003KT 10SM BKN042 OVC048 05/02 A3012 RMK AO2 T00500022,KCPU,2018-03-24T07:30:00Z,38.15,-120.65,5.0,2.2,100,3,,10.0,30.121063,,,TRUE,TRUE,,,,,,,BKN,4200,OVC,4800,,,,,VFR,,,,,,,,,,,,METAR,404.0
KAZE 240730Z AUTO 00000KT 10SM SCT100 13/04 A3017 RMK AO2 T01310037,KAZE,2018-03-24T07:30:00Z,31.88,-82.65,13.1,3.7,0,0,,10.0,30.171259,,,TRUE,TRUE,,,,,,,SCT,10000,,,,,,,VFR,,,,,,,,,,,,METAR,78.0
KAQO 240730Z AUTO 00000KT 10SM CLR 17/16 A2995 RMK AO2,KAQO,2018-03-24T07:30:00Z,30.78,-98.67,17.0,16.0,0,0,,10.0,29.949802,,,TRUE,TRUE,,,,,,,CLR,,,,,,,,VFR,,,,,,,,,,,,METAR,336.0
K0VG 240730Z AUTO 00000KT 10SM BKN040 05/01 A3019 RMK AO2,K0VG,2018-03-24T07:30:00Z,36.65,-83.22,5.0,1.0,0,0,,10.0,30.188976,,,TRUE,TRUE,,,,,,,BKN,4000,,,,,,,VFR,,,,,,,,,,,,METAR,430.0
KW78 240730Z AUTO 00000KT 10SM CLR M03/M04 A3021 RMK AO1 T10311041,KW78,2018-03-24T07:30:00Z,36.68,-78.85,-3.1,-4.1,0,0,,10.0,30.209646,,,TRUE,TRUE,,,,,,,CLR,,,,,,,,VFR,,,,,,,,,,,,METAR,129.0
KVES 240730Z AUTO 08003KT 10SM CLR M02/M05 A3025 RMK AO2,KVES,2018-03-24T07:30:00Z,40.2,-84.53,-2.0,-5.0,80,3,,10.0,30.250984,,,TRUE,TRUE,,,,,,,CLR,,,,,,,,VFR,,,,,,,,,,,,METAR,307.0
KTMA 240730Z AUTO 24003KT 10SM SCT120 11/05 A3018 RMK AO2 T01090053,KTMA,2018-03-24T07:30:00Z,31.43,-83.48,10.9,5.3,240,3,,10.0,30.180119,,,TRUE,TRUE,,,,,,,SCT,12000,,,,,,,VFR,,,,,,,,,,,,METAR,109.0
HRYR 240730Z VRB02KT 9999 SCT025 SCT100 23/19 Q1021 NOSIG,HRYR,2018-03-24T07:30:00Z,-1.97,30.12,23.0,19.0,0,2,,6.21,30.147638,,,,,,TRUE,,,,,SCT,2500,SCT,10000,,,,,VFR,,,,,,,,,,,,METAR,1497.0
HKJK 240730Z 08005KT 040V150 9999 SCT022 23/15 Q1021,HKJK,2018-03-24T07:30:00Z,-1.32,36.92,23.0,15.0,80,5,,6.21,30.147638,,,,,,,,,,,SCT,2200,,,,,,,VFR,,,,,,,,,,,,METAR,1624.0
HKEL 240730Z 09010KT 9999 FEW022 BKN260 23/07 Q1024,HKEL,2018-03-24T07:30:00Z,0.4,35.23,23.0,7.0,90,10,,6.21,30.236221,,,,,,,,,,,FEW,2200,BKN,26000,,,,,VFR,,,,,,,,,,,,METAR,2133.0
OICI 240730Z 15008KT 6000 FEW050 SCT090 BKN200 24/M02 Q1022 A3018,OICI,2018-03-24T07:30:00Z,33.58,46.4,24.0,-2.0,150,8,,3.73,30.177166,,,,,,,,,,,FEW,5000,SCT,9000,BKN,20000,,,MVFR,,,,,,,,,,,,METAR,1343.0
UTTT 240730Z VRB02KT 9999 FEW066CB 20/08 Q1022 R26R/CLRD70 NOSIG,UTTT,2018-03-24T07:30:00Z,41.27,69.27,20.0,8.0,0,2,,6.21,30.177166,,,,,,TRUE,,,,,FEW,6600,,,,,,,VFR,,,,,,,,,,,,METAR,489.0
UTST 240730Z 03004KT 350V110 CAVOK 25/04 Q1021 R88/CLRD70 NOSIG,UTST,2018-03-24T07:30:00Z,37.28,67.32,25.0,4.0,30,4,,6.21,30.147638,,,,,,TRUE,,,,,CAVOK,,,,,,,,VFR,,,,,,,,,,,,METAR,302.0
UTSS 240730Z 34004KT 9999 NSC 20/06 Q1022 R27/70D NOSIG,UTSS,2018-03-24T07:30:00Z,39.7,66.98,20.0,6.0,340,4,,6.21,30.177166,,,,,,TRUE,,,,,CLR,,,,,,,,VFR,,,,,,,,,,,,METAR,724.0
UTSK 240730Z VRB02KT CAVOK 22/06 Q1021 R16/CLRD70,UTSK,2018-03-24T07:30:00Z,38.83,65.77,22.0,6.0,0,2,,6.21,30.147638,,,,,,,,,,,CAVOK,,,,,,,,VFR,,,,,,,,,,,,METAR,1365.0
UTSA 240730Z 16008KT 9999 NSC 21/06 Q1020 R07/CLRD70 NOSIG,UTSA,2018-03-24T07:30:00Z,40.12,65.17,21.0,6.0,160,8,,6.21,30.11811,,,,,,TRUE,,,,,CLR,,,,,,,,VFR,,,,,,,,,,,,METAR,346.0
UTNU 240730Z 13012KT CAVOK 08/M02 Q1019 R31/CLRD70 NOSIG,UTNU,2018-03-24T07:30:00Z,41.58,60.63,8.0,-2.0,130,12,,6.21,30.088583,,,,,,TRUE,,,,,CAVOK,,,,,,,,VFR,,,,,,,,,,,,METAR,98.0
UTNN 240730Z 11014KT CAVOK 07/M05 Q1019 R15/CLRD60 NOSIG,UTNN,2018-03-24T07:30:00Z,42.48,59.63,7.0,-5.0,110,14,,6.21,30.088583,,,,,,TRUE,,,,,CAVOK,,,,,,,,VFR,,,,,,,,,,,,METAR,67.0
LFQG 240730Z AUTO 12006KT 090V150 CAVOK 05/02 Q0996,LFQG,2018-03-24T07:30:00Z,47.0,3.1,5.0,2.0,120,6,,6.21,29.409449,,,TRUE,,,,,,,,CAVOK,,,,,,,,VFR,,,,,,,,,,,,METAR,181.0
LFLW 240730Z AUTO 14006KT 110V180 9999 OVC009 03/02 Q0996 TEMPO RA BECMG BKN013,LFLW,2018-03-24T07:30:00Z,44.88,2.42,3.0,2.0,140,6,,6.21,29.409449,,,TRUE,,,,,,,,OVC,900,,,,,,,IFR,,,,,,,,,,,,METAR,639.0
RJGG 240730Z 18010KT 9999 FEW030 14/05 Q1017 NOSIG,RJGG,2018-03-24T07:30:00Z,34.87,136.8,14.0,5.0,180,10,,6.21,30.029528,,,,,,TRUE,,,,,FEW,3000,,,,,,,VFR,,,,,,,,,,,,METAR,5.0
RJBB 240730Z VRB01KT CAVOK 12/07 Q1018 NOSIG,RJBB,2018-03-24T07:30:00Z,34.42,135.25,12.0,7.0,0,1,,6.21,30.059055,,,,,,TRUE,,,,,CAVOK,,,,,,,,VFR,,,,,,,,,,,,METAR,8.0
VEBN 240730Z 24004KT 5000 HZ NSC 34/13 Q1011 NOSIG,VEBN,2018-03-24T07:30:00Z,25.45,82.85,34.0,13.0,240,4,,3.11,29.852362,,,,,,TRUE,,,,HZ,CLR,,,,,,,,MVFR,,,,,,,,,,,,METAR,83.0
VAJJ 240730Z 31015KT 6000 NSC 31/21 Q1011 NOSIG,VAJJ,2018-03-24T07:30:00Z,19.12,72.82,31.0,21.0,310,15,,3.73,29.852362,,,,,,TRUE,,,,,CLR,,,,,,,,MVFR,,,,,,,,,,,,METAR,4.0
VOHY 240730Z VRB03KT 6000 NSC 37/09 Q1014 NOSIG,VOHY,2018-03-24T07:30:00Z,17.45,78.45,37.0,9.0,0,3,,3.73,29.940945,,,,,,TRUE,,,,,CLR,,,,,,,,MVFR,,,,,,,,,,,,METAR,545.0
YPGV 240730Z AUTO 20010KT 9999 // NCD 29/23 Q1003 RF00.0/005.6,YPGV,2018-03-24T07:30:00Z,-12.27,136.82,29.0,23.0,200,10,,6.21,29.616142,,,TRUE,,,,,,,,CLR,,,,,,,,VFR,,,,,,,,,,,,METAR,55.0
YPKU 240730Z AUTO 12008KT 9999 // NCD 38/12 Q1004 RF00.0/000.0,YPKU,2018-03-24T07:30:00Z,-15.77,128.68,38.0,12.0,120,8,,6.21,29.64567,,,TRUE,,,,,,,,CLR,,,,,,,,VFR,,,,,,,,,,,,METAR,45.0
YFRT 240730Z AUTO 18008KT //// // ////// 27/13 Q1014,YFRT,2018-03-24T07:30:00Z,-30.83,128.12,27.0,13.0,180,8,,,29.940945,,,TRUE,,,,,,,,,,,,,,,,,,,,,,,,,,,,METAR,156.0
YGLA 240730Z AUTO 13009KT 9999 // BKN025 BKN041 BKN051 26/20 Q1014,YGLA,2018-03-24T07:30:00Z,-23.87,151.22,26.0,20.0,130,9,,6.21,29.940945,,,TRUE,,,,,,,,BKN,2500,BKN,4100,BKN,5100,,,MVFR,,,,,,,,,,,,METAR,52.0
YAMB 240730Z AUTO 06011KT 9999 // SCT038 SCT046 SCT053 25/17 Q1016,YAMB,2018-03-24T07:30:00Z,-27.63,152.72,25.0,17.0,60,11,,6.21,30.0,,,TRUE,,,,,,,,SCT,3800,SCT,4600,SCT,5300,,,VFR,,,,,,,,,,,,METAR,28.0
YGEL 240730Z AUTO 19010KT 9999 // NCD 28/19 Q1008 RF00.0/000.0,YGEL,2018-03-24T07:30:00Z,-28.8,114.7,28.0,19.0,190,10,,6.21,29.763779,,,TRUE,,,,,,,,CLR,,,,,,,,VFR,,,,,,,,,,,,METAR,37.0
YSTW 240730Z AUTO 29001KT 9999 // NCD 30/08 Q1015 RF00.0/000.0,YSTW,2018-03-24T07:30:00Z,-31.07,150.85,30.0,8.0,290,1,,6.21,29.970472,,,TRUE,,,,,,,,CLR,,,,,,,,VFR,,,,,,,,,,,,METAR,410.0
YHID 240730Z AUTO 32015KT 8000 -SHRA BKN018 BKN024 OVC028 28/25 Q1002,YHID,2018-03-24T07:30:00Z,-10.58,142.3,28.0,25.0,320,15,,4.97,29.586615,,,TRUE,,,,,,,-SHRA,BKN,1800,BKN,2400,OVC,2800,,,MVFR,,,,,,,,,,,,METAR,13.0
YPJT 240730Z AUTO 12014KT 9999 // NCD 24/11 Q1015 RF00.0/000.0,YPJT,2018-03-24T07:30:00Z,-32.1,115.88,24.0,11.0,120,14,,6.21,29.970472,,,TRUE,,,,,,,,CLR,,,,,,,,VFR,,,,,,,,,,,,METAR,30.0
YSRI 240730Z AUTO 32009KT 9999 // SCT100 OVC120 20/19 Q1015,YSRI,2018-03-24T07:30:00Z,-33.6,150.77,20.0,19.0,320,9,,6.21,29.970472,,,TRUE,,,,,,,,SCT,10000,OVC,12000,,,,,VFR,,,,,,,,,,,,METAR,21.0
YPEA 240730Z AUTO 13015KT 9999 // NCD 27/11 Q1014,YPEA,2018-03-24T07:30:00Z,-31.67,116.02,27.0,11.0,130,15,,6.21,29.940945,,,TRUE,,,,,,,,CLR,,,,,,,,VFR,,,,,,,,,,,,METAR,49.0
YPWR 240730Z AUTO 30012KT 9999 // NCD 36/09 Q1009 RF00.0/000.0,YPWR,2018-03-24T07:30:00Z,-31.12,136.82,36.0,9.0,300,12,,6.21,29.793306,,,TRUE,,,,,,,,CLR,,,,,,,,VFR,,,,,,,,,,,,METAR,167.0
YSDU 240730Z AUTO 35009KT 9999 // NCD 30/11 Q1014 RF00.0/000.0,YSDU,2018-03-24T07:30:00Z,-32.22,148.57,30.0,11.0,350,9,,6.21,29.940945,,,TRUE,,,,,,,,CLR,,,,,,,,VFR,,,,,,,,,,,,METAR,275.0
YSSY 240730Z 05015KT 9999 VCSH FEW013 SCT080 BKN120 24/20 Q1014 NOSIG,YSSY,2018-03-24T07:30:00Z,-33.95,151.17,24.0,20.0,50,15,,6.21,29.940945,,,,,,TRUE,,,,VCSH,FEW,1300,SCT,8000,BKN,12000,,,VFR,,,,,,,,,,,,METAR,3.0
YPPH 240730Z 14017KT CAVOK 25/10 Q1014 NOSIG,YPPH,2018-03-24T07:30:00Z,-31.93,115.98,25.0,10.0,140,17,,6.21,29.940945,,,,,,TRUE,,,,,CAVOK,,,,,,,,VFR,,,,,,,,,,,,METAR,13.0
YMML 240730Z 36014KT 9999 -SHRA FEW010 BKN100 BKN170 21/16 Q1009 NOSIG,YMML,2018-03-24T07:30:00Z,-37.67,144.82,21.0,16.0,360,14,,6.21,29.793306,,,,,,TRUE,,,,-SHRA,FEW,1000,BKN,10000,BKN,17000,,,VFR,,,,,,,,,,,,METAR,141.0
YPDN 240730Z 23009KT 9999 FEW020 SCT100 BKN300 28/20 Q1005 NOSIG,YPDN,2018-03-24T07:30:00Z,-12.42,130.9,28.0,20.0,230,9,,6.21,29.675198,,,,,,TRUE,,,,,FEW,2000,SCT,10000,BKN,30000,,,VFR,,,,,,,,,,,,METAR,30.0
YBBN 240730Z 07008KT 9999 FEW022 BKN350 25/17 Q1016 NOSIG,YBBN,2018-03-24T07:30:00Z,-27.38,153.13,25.0,17.0,70,8,,6.21,30.0,,,,,,TRUE,,,,,FEW,2200,BKN,35000,,,,,VFR,,,,,,,,,,,,METAR,5.0
YPAD 240730Z 24012KT CAVOK 26/16 Q1007 NOSIG,YPAD,2018-03-24T07:30:00Z,-34.95,138.52,26.0,16.0,240,12,,6.21,29.734253,,,,,,TRUE,,,,,CAVOK,,,,,,,,VFR,,,,,,,,,,,,METAR,4.0
YLHI 240730Z AUTO 06010KT 9999 // SCT043 22/14 Q1020,YLHI,2018-03-24T07:30:00Z,-31.53,159.07,22.0,14.0,60,10,,6.21,30.11811,,,TRUE,,,,,,,,SCT,4300,,,,,,,VFR,,,,,,,,,,,,METAR,2.0
YCFS 240730Z AUTO 02010KT 9999 // SCT075 23/19 Q1017 RF00.0/002.6,YCFS,2018-03-24T07:30:00Z,-30.32,153.12,23.0,19.0,20,10,,6.21,30.029528,,,TRUE,,,,,,,,SCT,7500,,,,,,,VFR,,,,,,,,,,,,METAR,5.0
YWLM 240730Z AUTO 05009KT 9999 // NCD 25/20 Q1015,YWLM,2018-03-24T07:30:00Z,-32.8,151.83,25.0,20.0,50,9,,6.21,29.970472,,,TRUE,,,,,,,,CLR,,,,,,,,VFR,,,,,,,,,,,,METAR,9.0
YBRK 240730Z AUTO 12010KT 9999 // SCT036 26/21 Q1013 RF00.0/000.0,YBRK,2018-03-24T07:30:00Z,-23.37,150.47,26.0,21.0,120,10,,6.21,29.911417,,,TRUE,,,,,,,,SCT,3600,,,,,,,VFR,,,,,,,,,,,,METAR,14.0
YPPD 240730Z AUTO 30013KT //// // NCD 39/19 Q1004,YPPD,2018-03-24T07:30:00Z,-20.37,118.62,39.0,19.0,300,13,,,29.64567,,,TRUE,,,,,,,,CLR,,,,,,,,,,,,,,,,,,,,METAR,6.0
YSNF 240730Z AUTO 10011KT 9999 // SCT022 21/17 Q1018 RF00.0/000.0,YSNF,2018-03-24T07:30:00Z,-29.02,167.92,21.0,17.0,100,11,,6.21,30.059055,,,TRUE,,,,,,,,SCT,2200,,,,,,,VFR,,,,,,,,,,,,METAR,109.0
YMHB 240730Z 35006KT 9999 FEW015 SCT100 BKN300 18/14 Q1005 RF00.0/001.4,YMHB,2018-03-24T07:30:00Z,-42.82,147.52,18.0,14.0,350,6,,6.21,29.675198,,,,,,,,,,,FEW,1500,SCT,10000,BKN,30000,,,VFR,,,,,,,,,,,,METAR,27.0
YPCC 240730Z AUTO 31019KT 9999 // NCD 29/23 Q1005,YPCC,2018-03-24T07:30:00Z,-12.17,96.82,29.0,23.0,310,19,,6.21,29.675198,,,TRUE,,,,,,,,CLR,,,,,,,,VFR,,,,,,,,,,,,METAR,3.0
YPXM 240730Z AUTO 27006KT 9999 // NCD 28/22 Q1010,YPXM,2018-03-24T07:30:00Z,-10.45,105.67,28.0,22.0,270,6,,6.21,29.822834,,,TRUE,,,,,,,,CLR,,,,,,,,VFR,,,,,,,,,,,,METAR,259.0
YBRM 240730Z AUTO 28009KT 9999 // NCD 33/28 Q1004 RF00.0/000.0,YBRM,2018-03-24T07:30:00Z,-17.93,122.22,33.0,28.0,280,9,,6.21,29.64567,,,TRUE,,,,,,,,CLR,,,,,,,,VFR,,,,,,,,,,,,METAR,9.0
YBTL 240730Z AUTO 12009KT 9999 -RA NCD 26/24 Q1009,YBTL,2018-03-24T07:30:00Z,-19.25,146.75,26.0,24.0,120,9,,6.21,29.793306,,,TRUE,,,,,,,-RA,CLR,,,,,,,,VFR,,,,,,,,,,,,METAR,6.0
YPLM 240730Z AUTO 28013KT 9999 // NCD 34/21 Q1008,YPLM,2018-03-24T07:30:00Z,-22.22,114.07,34.0,21.0,280,13,,6.21,29.763779,,,TRUE,,,,,,,,CLR,,,,,,,,VFR,,,,,,,,,,,,METAR,6.0
YPKG 240730Z AUTO 15010KT 9999 // SCT115 24/12 Q1016,YPKG,2018-03-24T07:30:00Z,-30.77,121.45,24.0,12.0,150,10,,6.21,30.0,,,TRUE,,,,,,,,SCT,11500,,,,,,,VFR,,,,,,,,,,,,METAR,360.0
YBCG 240730Z AUTO 07007KT 9999 // BKN032 BKN063 24/19 Q1017,YBCG,2018-03-24T07:30:00Z,-28.17,153.5,24.0,19.0,70,7,,6.21,30.029528,,,TRUE,,,,,,,,BKN,3200,BKN,6300,,,,,VFR,,,,,,,,,,,,METAR,6.0
YSCB 240730Z AUTO 33009KT 9999 // BKN100 25/12 Q1013,YSCB,2018-03-24T07:30:00Z,-35.28,149.17,25.0,12.0,330,9,,6.21,29.911417,,,TRUE,,,,,,,,BKN,10000,,,,,,,VFR,,,,,,,,,,,,METAR,577.0
YMAV 240730Z AUTO 31004KT //// // NCD 25/14 Q1007 RF00.0/018.8 PRESENT WEATHER SENSOR US,YMAV,2018-03-24T07:30:00Z,-38.03,144.48,25.0,14.0,310,4,,,29.734253,,,TRUE,,,,,,,,CLR,,,,,,,,,,,,,,,,,,,,METAR,8.0
YBAS 240730Z AUTO 13012KT 9999 // NCD 31/13 Q1011 RF00.0/000.0,YBAS,2018-03-24T07:30:00Z,-23.8,133.9,31.0,13.0,130,12,,6.21,29.852362,,,TRUE,,,,,,,,CLR,,,,,,,,VFR,,,,,,,,,,,,METAR,541.0
YBMA 240730Z AUTO 11009KT 9999 // NCD 29/19 Q1008 RF00.0/000.2,YBMA,2018-03-24T07:30:00Z,-20.67,139.47,29.0,19.0,110,9,,6.21,29.763779,,,TRUE,,,,,,,,CLR,,,,,,,,VFR,,,,,,,,,,,,METAR,344.0
UMKK 240730Z VRB01MPS 2100 BR BKN002 00/00 Q1009 R24/19//60 NOSIG RMK QBB080 OBST OBSC QFE755/1007,UMKK,2018-03-24T07:30:00Z,54.88,20.6,0.0,0.0,0,2,,1.3,29.793306,,,,,,TRUE,,,,BR,BKN,200,,,,,,,LIFR,,,,,,,,,,,,METAR,21.0
ULOO 240730Z 22004MPS P5000 NSC M02/M07 Q1009 R19/090060 NOSIG RMK QFE753,ULOO,2018-03-24T07:30:00Z,57.78,28.4,-2.0,-7.0,220,8,,3.11,29.793306,,,,,,TRUE,,,,,CLR,,,,,,,,MVFR,,,,,,,,,,,,METAR,47.0
UUYY 240730Z 34003MPS 290V010 9999 BKN024CB M05/M11 Q0995 R36/490535 NOSIG RMK QFE737/0983,UUYY,2018-03-24T07:30:00Z,61.65,50.82,-5.0,-11.0,340,6,,6.21,29.379921,,,,,,TRUE,,,,,BKN,2400,,,,,,,MVFR,,,,,,,,,,,,METAR,119.0
UUOO 240730Z 10002MPS 060V130 9999 BKN035 M02/M09 Q1004 R30/090050 NOSIG RMK QFE739,UUOO,2018-03-24T07:30:00Z,51.82,39.23,-2.0,-9.0,100,4,,6.21,29.64567,,,,,,TRUE,,,,,BKN,3500,,,,,,,VFR,,,,,,,,,,,,METAR,157.0
ULMM 240730Z 27004MPS 9999 FEW018 M08/M13 Q0994 R31/410160 NOSIG RMK QFE738,ULMM,2018-03-24T07:30:00Z,68.78,32.75,-8.0,-13.0,270,8,,6.21,29.350393,,,,,,TRUE,,,,,FEW,1800,,,,,,,VFR,,,,,,,,,,,,METAR,51.0
ULAA 240730Z 29003MPS 260V330 9999 BKN010 M09/M10 Q0998 R26/950552 NOSIG RMK QFE747/0996,ULAA,2018-03-24T07:30:00Z,64.6,40.72,-9.0,-10.0,290,6,,6.21,29.468504,,,,,,TRUE,,,,,BKN,1000,,,,,,,MVFR,,,,,,,,,,,,METAR,19.0
WMKP 240730Z 20006KT 150V240 9000 FEW020 SCT140 BKN270 33/24 Q1007 NOSIG,WMKP,2018-03-24T07:30:00Z,5.28,100.27,33.0,24.0,200,6,,5.59,29.734253,,,,,,TRUE,,,,,FEW,2000,SCT,14000,BKN,27000,,,VFR,,,,,,,,,,,,METAR,4.0
WMKK 240730Z VRB07KT 9999 SCT018 SCT140 BKN280 35/22 Q1008 NOSIG,WMKK,2018-03-24T07:30:00Z,2.75,101.72,35.0,22.0,0,7,,6.21,29.763779,,,,,,TRUE,,,,,SCT,1800,SCT,14000,BKN,28000,,,VFR,,,,,,,,,,,,METAR,22.0
UEEE 240730Z 07001MPS CAVOK M07/M14 Q1005 R23L/450150 NOSIG RMK QFE745,UEEE,2018-03-24T07:30:00Z,62.08,129.77,-7.0,-14.0,70,2,,6.21,29.675198,,,,,,TRUE,,,,,CAVOK,,,,,,,,VFR,,,,,,,,,,,,METAR,103.0
ROAH 240730Z 36012KT 9999 FEW045 21/10 Q1021 RMK 1SC045 A3016,ROAH,2018-03-24T07:30:00Z,26.17,127.65,21.0,10.0,360,12,,6.21,30.147638,,,,,,,,,,,FEW,4500,,,,,,,VFR,,,,,,,,,,,,METAR,8.0
RJTT 240730Z 12013KT 9999 FEW030 BKN/// 14/09 Q1016 NOSIG,RJTT,2018-03-24T07:30:00Z,35.53,139.77,14.0,9.0,120,13,,6.21,30.0,,,,,,TRUE,,,,,FEW,3000,,,,,,,VFR,,,,,,,,,,,,METAR,8.0
RJFF 240730Z 31011KT 9999 FEW030 15/03 Q1021 RMK 1CU030 A3016,RJFF,2018-03-24T07:30:00Z,33.57,130.43,15.0,3.0,310,11,,6.21,30.147638,,,,,,,,,,,FEW,3000,,,,,,,VFR,,,,,,,,,,,,METAR,12.0
RJCC 240730Z 17012KT 9999 FEW030 BKN/// 07/M02 Q1014,RJCC,2018-03-24T07:30:00Z,42.77,141.67,7.0,-2.0,170,12,,6.21,29.940945,,,,,,,,,,,FEW,3000,,,,,,,VFR,,,,,,,,,,,,METAR,30.0
RJAA 240730Z 13011KT 9999 FEW030 BKN170 BKN/// 13/06 Q1017 NOSIG,RJAA,2018-03-24T07:30:00Z,35.77,140.37,13.0,6.0,130,11,,6.21,30.029528,,,,,,TRUE,,,,,FEW,3000,BKN,17000,,,,,VFR,,,,,,,,,,,,METAR,44.0
VILK 240730Z 32010KT 5000 HZ NSC 33/14 Q1012 NOSIG,VILK,2018-03-24T07:30:00Z,26.75,80.87,33.0,14.0,320,10,,3.11,29.88189,,,,,,TRUE,,,,HZ,CLR,,,,,,,,MVFR,,,,,,,,,,,,METAR,128.0
KO86 240730Z AUTO 28005KT 10SM FEW018 SCT060 02/00 A2994 RMK AO1,KO86,2018-03-24T07:30:00Z,40.98,-122.7,2.0,0.0,280,5,,10.0,29.940945,,,TRUE,TRUE,,,,,,,FEW,1800,SCT,6000,,,,,VFR,,,,,,,,,,,,METAR,729.0
K6I2 240730Z AUTO 00000KT 5SM -RA SCT036 05/02 A3017 RMK AO2,K6I2,2018-03-24T07:30:00Z,37.63,-85.25,5.0,2.0,0,0,,5.0,30.171259,,,TRUE,TRUE,,,,,,-RA,SCT,3600,,,,,,,MVFR,,,,,,,,,,,,METAR,264.0
GQNO 240730Z 06007KT 4000 DU NSC 13/M15 Q1015 NOSIG,GQNO,2018-03-24T07:30:00Z,18.3,-15.97,13.0,-15.0,60,7,,2.49,29.970472,,,,,,TRUE,,,,DU,CLR,,,,,,,,IFR,,,,,,,,,,,,METAR,4.0
USCM 240730Z 24010MPS 9999 SCT023 M03/M09 Q1007 R18/090060 TEMPO 21014MPS RMK QFE718,USCM,2018-03-24T07:30:00Z,53.4,58.75,-3.0,-9.0,240,19,,6.21,29.734253,,,,,,,,,,,SCT,2300,,,,,,,VFR,,,-1.4,,,,,,,,,METAR,435.0
USHH 240730Z 34003MPS 280V030 9999 SCT041 M13/M18 Q0998 R06/490547 TEMPO 2000 SN BKN005 RMK QFE745,USHH,2018-03-24T07:30:00Z,61.03,69.08,-13.0,-18.0,340,6,,6.21,29.468504,,,,,,,,,,,SCT,4100,,,,,,,VFR,,,,,,,,,,,,METAR,23.0
USTR 240730Z 26003MPS 210V300 CAVOK M06/M15 Q1003 R30/450350 NOSIG RMK QFE743/0990,USTR,2018-03-24T07:30:00Z,57.17,65.32,-6.0,-15.0,260,6,,6.21,29.616142,,,,,,TRUE,,,,,CAVOK,,,,,,,,VFR,,,,,,,,,,,,METAR,115.0
UNTT 240730Z 18009MPS 9999 FEW024 04/M01 Q0994 R21/290145 NOSIG RMK QFE731,UNTT,2018-03-24T07:30:00Z,56.38,85.22,4.0,-1.0,180,17,,6.21,29.350393,,,,,,TRUE,,,,,FEW,2400,,,,,,,VFR,,,,,,,,,,,,METAR,182.0
UNOO 240730Z 26011MPS 8000 BLSN SCT017 BKN033CB M04/M08 Q0999 R25/810555 NOSIG RMK QFE741,UNOO,2018-03-24T07:30:00Z,54.97,73.32,-4.0,-8.0,260,21,,4.97,29.498032,,,,,,TRUE,,,,BLSN,SCT,1700,BKN,3300,,,,,MVFR,,,,,,,,,,,,METAR,95.0
UNNT 240730Z 26007MPS 8000 -SHRASN BKN006 OVC022CB 01/M00 Q0997 R25/500150 R16/290160 NOSIG RMK QBB180 QFE738/0984,UNNT,2018-03-24T07:30:00Z,55.02,82.63,1.0,0.0,260,14,,4.97,29.438976,,,,,,TRUE,,,,-SHRA -SHSN,BKN,600,OVC,2200,,,,,IFR,,,,,,,,,,,,METAR,111.0
UNKL 240730Z 09002MPS CAVOK 04/M01 Q1004 R29/190060 NOSIG RMK QFE727,UNKL,2018-03-24T07:30:00Z,56.17,92.48,4.0,-1.0,90,4,,6.21,29.64567,,,,,,TRUE,,,,,CAVOK,,,,,,,,VFR,,,,,,,,,,,,METAR,276.0
UNEE 240730Z 14007MPS CAVOK 03/M01 Q0997 R23/921045 NOSIG RMK QFE725,UNEE,2018-03-24T07:30:00Z,55.27,86.08,3.0,-1.0,140,14,,6.21,29.438976,,,,,,TRUE,,,,,CAVOK,,,,,,,,VFR,,,,,,,,,,,,METAR,260.0
UNBB 240730Z 25012G19MPS 7000 -SHRA BKN014CB 03/01 Q0999 R24/190058 NOSIG RMK QFE727,UNBB,2018-03-24T07:30:00Z,53.37,83.53,3.0,1.0,250,23,37,4.35,29.498032,,,,,,TRUE,,,,-SHRA,BKN,1400,,,,,,,MVFR,,,,,,,,,,,,METAR,255.0
UNAA 240730Z 36001MPS CAVOK 08/00 Q1006 R20/190060 NOSIG RMK QFE732,UNAA,2018-03-24T07:30:00Z,53.75,91.4,8.0,0.0,360,2,,6.21,29.704725,,,,,,TRUE,,,,,CAVOK,,,,,,,,VFR,,,,,,,,,,,,METAR,245.0
UUMO 240730Z 36006MPS 9999 -SN OVC023 M01/M06 Q1006 R26/090060 NOSIG RMK QFE739/0986,UUMO,2018-03-24T07:30:00Z,55.52,37.5,-1.0,-6.0,360,12,,6.21,29.704725,,,,,,TRUE,,,,-SN,OVC,2300,,,,,,,MVFR,,,,,,,,,,,,METAR,174.0
UUWW 240730Z 32005MPS 9999 BKN022 M02/M07 Q1006 R24/510250 NOSIG,UUWW,2018-03-24T07:30:00Z,55.6,37.27,-2.0,-7.0,320,10,,6.21,29.704725,,,,,,TRUE,,,,,BKN,2200,,,,,,,MVFR,,,,,,,,,,,,METAR,203.0
UUEE 240730Z 33005MPS 9999 BKN029 M02/M08 Q1006 R24R/410151 R24L/450145 NOSIG,UUEE,2018-03-24T07:30:00Z,55.97,37.42,-2.0,-8.0,330,10,,6.21,29.704725,,,,,,TRUE,,,,,BKN,2900,,,,,,,MVFR,,,,,,,,,,,,METAR,190.0
UUDL 240730Z 33004MPS CAVOK M05/M11 Q1006 R23/350140 NOSIG RMK QFE746,UUDL,2018-03-24T07:30:00Z,57.57,40.17,-5.0,-11.0,330,8,,6.21,29.704725,,,,,,TRUE,,,,,CAVOK,,,,,,,,VFR,,,,,,,,,,,,METAR,88.0
UUDD 240730Z 35005MPS 9999 BKN019 M01/M06 Q1005 R32L/290095 R32R/190095 NOSIG,UUDD,2018-03-24T07:30:00Z,55.4,37.9,-1.0,-6.0,350,10,,6.21,29.675198,,,,,,TRUE,,,,,BKN,1900,,,,,,,MVFR,,,,,,,,,,,,METAR,168.0
UUBW 240730Z 31007MPS 9999 BKN028 M00/M05 Q1006 R30/110155 NOSIG,UUBW,2018-03-24T07:30:00Z,55.55,38.15,0.0,-5.0,310,14,,6.21,29.704725,,,,,,TRUE,,,,,BKN,2800,,,,,,,MVFR,,,,,,,,,,,,METAR,115.0
ULLI 240730Z 26004MPS 220V280 9999 BKN007 M07/M08 Q1008 R88/810550 NOSIG RMK OBST OBSC,ULLI,2018-03-24T07:30:00Z,59.8,30.27,-7.0,-8.0,260,8,,6.21,29.763779,,,,,,TRUE,,,,,BKN,700,,,,,,,IFR,,,,,,,,,,,,METAR,4.0
USSS 240730Z 20004MPS 9999 SCT040 M04/M13 Q1002 R26L/820350 R26R/497028 NOSIG RMK QFE731/0975,USSS,2018-03-24T07:30:00Z,56.75,60.82,-4.0,-13.0,200,8,,6.21,29.586615,,,,,,TRUE,,,,,SCT,4000,,,,,,,VFR,,,,,,,,,,,,METAR,233.0
USRR 240730Z 01003MPS 340V050 3000 -SN OVC027 M11/M14 Q0995 R07/450550 NOSIG RMK OBST OBSC QFE741,USRR,2018-03-24T07:30:00Z,61.33,73.42,-11.0,-14.0,10,6,,1.86,29.379921,,,,,,TRUE,,,,-SN,OVC,2700,,,,,,,IFR,,,,,,,,,,,,METAR,44.0
USNN 240730Z 02007MPS 5000 -SN DRSN NSC M08/M10 Q0990 R03/491843 NOSIG RMK QFE739,USNN,2018-03-24T07:30:00Z,60.95,76.48,-8.0,-10.0,20,14,,3.11,29.232283,,,,,,TRUE,,,,-SN DRSN,CLR,,,,,,,,MVFR,,,,,,,,,,,,METAR,54.0
USCC 240730Z 20006MPS CAVOK M03/M12 Q1005 R27/450250 NOSIG RMK QFE734,USCC,2018-03-24T07:30:00Z,55.3,61.5,-3.0,-12.0,200,12,,6.21,29.675198,,,,,,TRUE,,,,,CAVOK,,,,,,,,VFR,,,,,,,,,,,,METAR,234.0
UWUU 240730Z 20009MPS 9999 -SN OVC033 M05/M09 Q1006 R14R/0///60 NOSIG RMK QFE744/0993,UWUU,2018-03-24T07:30:00Z,54.57,55.87,-5.0,-9.0,200,17,,6.21,29.704725,,,,,,TRUE,,,,-SN,OVC,3300,,,,,,,VFR,,,,,,,,,,,,METAR,137.0
VVPB 240730Z 07014KT 9999 FEW015 29/21 Q1014 NOSIG,VVPB,2018-03-24T07:30:00Z,16.38,107.7,29.0,21.0,70,14,,6.21,29.940945,,,,,,TRUE,,,,,FEW,1500,,,,,,,VFR,,,,,,,,,,,,METAR,17.0
UWGG 240730Z 28003MPS 9999 -SN BKN018 00/M03 Q1001 R36L/510145 TEMPO 2000 SN RMK QFE744,UWGG,2018-03-24T07:30:00Z,56.23,43.78,0.0,-3.0,280,6,,6.21,29.557087,,,,,,,,,,-SN,BKN,1800,,,,,,,MVFR,,,,,,,,,,,,METAR,73.0
UUOB 240730Z 34002MPS CAVOK M03/M08 Q1003 R11/090060 NOSIG,UUOB,2018-03-24T07:30:00Z,50.65,36.58,-3.0,-8.0,340,4,,6.21,29.616142,,,,,,TRUE,,,,,CAVOK,,,,,,,,VFR,,,,,,,,,,,,METAR,224.0
UUBP 240730Z 02004MPS CAVOK M01/M05 Q1005 R34/CLRD70 NOSIG RMK QFE736/0982,UUBP,2018-03-24T07:30:00Z,53.22,34.18,-1.0,-5.0,20,8,,6.21,29.675198,,,,,,TRUE,,,,,CAVOK,,,,,,,,VFR,,,,,,,,,,,,METAR,202.0
UIUU 240730Z 18002MPS 9999 NSC 15/M03 Q1009 R26/60D NOSIG RMK QFE712/0950,UIUU,2018-03-24T07:30:00Z,51.8,107.45,15.0,-3.0,180,4,,6.21,29.793306,,,,,,TRUE,,,,,CLR,,,,,,,,VFR,,,,,,,,,,,,METAR,515.0
UIII 240730Z 27002MPS CAVOK 11/01 Q1011 R30/60D NOSIG RMK QFE714/0952,UIII,2018-03-24T07:30:00Z,52.27,104.4,11.0,1.0,270,4,,6.21,29.852362,,,,,,TRUE,,,,,CAVOK,,,,,,,,VFR,,,,,,,,,,,,METAR,513.0
UIBB 240730Z 26006MPS 210V300 9999 BKN040 05/M03 Q1010 R30/821050 NOSIG RMK QFE714/0953,UIBB,2018-03-24T07:30:00Z,56.37,101.7,5.0,-3.0,260,12,,6.21,29.822834,,,,,,TRUE,,,,,BKN,4000,,,,,,,VFR,,,,,,,,,,,,METAR,490.0
UIAA 240730Z 26006MPS 9999 NSC 14/M06 Q1004 R29/70D NOSIG RMK QFE695/0926,UIAA,2018-03-24T07:30:00Z,52.02,113.32,14.0,-6.0,260,12,,6.21,29.64567,,,,,,TRUE,,,,,CLR,,,,,,,,VFR,,,,,,,,,,,,METAR,685.0
UWWW 240730Z 18005MPS 9999 FEW033 M02/M07 Q1005 R15/420245 NOSIG RMK QFE742/0990,UWWW,2018-03-24T07:30:00Z,53.5,50.17,-2.0,-7.0,180,10,,6.21,29.675198,,,,,,TRUE,,,,,FEW,3300,,,,,,,VFR,,,,,,,,,,,,METAR,146.0
UWSS 240730Z 17002MPS 4000 -SN BR BKN008 OVC100 M04/M06 Q1005 R12/810355 TEMPO 2000 SN BR OVC007 RMK QFE742,UWSS,2018-03-24T07:30:00Z,51.57,46.07,-4.0,-6.0,170,4,,2.49,29.675198,,,,,,,,,,-SN BR,BKN,800,OVC,10000,,,,,IFR,,,,,,,,,,,,METAR,166.0
UWOO 240730Z 19006MPS 9999 OVC008 M06/M07 Q1014 R26/850240 NOSIG RMK QFE750/1000,UWOO,2018-03-24T07:30:00Z,51.8,55.47,-6.0,-7.0,190,12,,6.21,29.940945,,,,,,TRUE,,,,,OVC,800,,,,,,,IFR,,,,,,,,,,,,METAR,109.0
UWKS 240730Z 25007MPS 9999 BKN015CB M01/M03 Q1000 R24/890542 NOSIG RMK QFE736,UWKS,2018-03-24T07:30:00Z,56.08,47.35,-1.0,-3.0,250,14,,6.21,29.52756,,,,,,TRUE,,,,,BKN,1500,,,,,,,MVFR,,,,,,,,,,,,METAR,170.0
UWKE 240730Z 21006G11MPS 5000 -SHSN DRSN BKN012CB M03/M06 Q1001 R21/451036 NOSIG RMK OBST OBSC QFE734/0978,UWKE,2018-03-24T07:30:00Z,55.57,52.08,-3.0,-6.0,210,12,21,3.11,29.557087,,,,,,TRUE,,,,-SHSN DRSN,BKN,1200,,,,,,,MVFR,,,,,,,,,,,,METAR,196.0
UWKD 240730Z 26005G10MPS 9999 BKN020 M00/M04 Q1000 R29/420345 NOSIG RMK QFE739/0986,UWKD,2018-03-24T07:30:00Z,55.62,49.28,0.0,-4.0,260,10,19,6.21,29.52756,,,,,,TRUE,,,,,BKN,2000,,,,,,,MVFR,,,,,,,,,,,,METAR,126.0
USPP 240730Z 22007MPS 9000 -SN BKN020 M05/M09 Q0998 R21/490250 NOSIG RMK QFE738,USPP,2018-03-24T07:30:00Z,57.92,56.02,-5.0,-9.0,220,14,,5.59,29.468504,,,,,,TRUE,,,,-SN,BKN,2000,,,,,,,MVFR,,,,,,,,,,,,METAR,123.0
URWW 240730Z 10008MPS 3500 -SN OVC003 M01/M01 Q0998 RESN R06/890328 NOSIG RMK OBST OBSC,URWW,2018-03-24T07:30:00Z,48.78,44.33,-1.0,-1.0,100,16,,2.17,29.468504,,,,,,TRUE,,,,-SN,OVC,300,,,,,,,LIFR,,,,,,,,,,,,METAR,147.0
URWI 240730Z 18008MPS 6000 -SHRA SCT///CB 04/03 Q0999 TEMPO 16010G16MPS,URWI,2018-03-24T07:30:00Z,46.37,44.33,4.0,3.0,180,16,,3.73,29.498032,,,,,,,,,,-SHRA,,,,,,,,,,,,,,,,,,,,,METAR,150.0
URWA 240730Z 13007MPS CAVOK 06/00 Q1002 R09/010060 NOSIG RMK QFE753/1005,URWA,2018-03-24T07:30:00Z,46.28,48.02,6.0,0.0,130,14,,6.21,29.586615,,,,,,TRUE,,,,,CAVOK,,,,,,,,VFR,,,,,,,,,,,,METAR,-20.0
URSS 240730Z 30005MPS 9999 OVC080 13/09 Q1000 WS ALL RWY R06/090070 R02/////// NOSIG RMK R02/28004MPS QFE749,URSS,2018-03-24T07:30:00Z,43.45,39.95,13.0,9.0,300,10,,6.21,29.52756,,,,,,TRUE,,,,,OVC,8000,,,,,,,VFR,,,,,,,,,,,,METAR,16.0
URMT 240730Z 28007MPS 9999 -RA FEW013 OVC040 08/06 Q0999 R25/290250 NOSIG RMK QFE711,URMT,2018-03-24T07:30:00Z,45.12,42.12,8.0,6.0,280,14,,6.21,29.498032,,,,,,TRUE,,,,-RA,FEW,1300,OVC,4000,,,,,VFR,,,,,,,,,,,,METAR,453.0
URMO 240730Z 24006MPS 9999 BKN020 09/05 Q1000 R09/010070 NOSIG RMK QFE707/0943,URMO,2018-03-24T07:30:00Z,43.2,44.6,9.0,5.0,240,12,,6.21,29.52756,,,,,,TRUE,,,,,BKN,2000,,,,,,,MVFR,,,,,,,,,,,,METAR,510.0
URMN 240730Z 06001MPS 9999 SCT/// BKN/// 11/05 Q0999 R24/110060 NOSIG RMK QFE713,URMN,2018-03-24T07:30:00Z,43.52,43.63,11.0,5.0,60,2,,6.21,29.498032,,,,,,TRUE,,,,,,,,,,,,,,,,,,,,,,,,,METAR,445.0
URMM 240730Z 30005MPS 9000 SCT044 06/04 Q1000 R30/090070 NOSIG RMK QFE722/0963,URMM,2018-03-24T07:30:00Z,44.22,43.1,6.0,4.0,300,10,,5.59,29.52756,,,,,,TRUE,,,,,SCT,4400,,,,,,,VFR,,,,,,,,,,,,METAR,314.0
URML 240730Z 13003MPS 070V170 9999 FEW040 08/05 Q0997 R14/01//70 NOSIG RMK QFE748/0997,URML,2018-03-24T07:30:00Z,42.82,47.65,8.0,5.0,130,6,,6.21,29.438976,,,,,,TRUE,,,,,FEW,4000,,,,,,,VFR,,,,,,,,,,,,METAR,4.0
URMG 240730Z 31007MPS CAVOK 06/03 Q1000 R26/000070 NOSIG RMK QFE735/0980,URMG,2018-03-24T07:30:00Z,43.37,45.7,6.0,3.0,310,14,,6.21,29.52756,,,,,,TRUE,,,,,CAVOK,,,,,,,,VFR,,,,,,,,,,,,METAR,263.0
URKK 240730Z 28001MPS 9000 BKN018 09/08 Q0999 R23L/290060 TEMPO 2000 -SHRA BR BKN005 BKN020CB RMK QFE746,URKK,2018-03-24T07:30:00Z,45.03,39.15,9.0,8.0,280,2,,5.59,29.498032,,,,,,,,,,,BKN,1800,,,,,,,MVFR,,,,,,,,,,,,METAR,34.0
URKA 240730Z 29002MPS 6000 -SHRA BKN019CB 09/08 Q0999 R22/290160 TEMPO 0500 FG BKN002 BKN020CB RMK QFE744/0992,URKA,2018-03-24T07:30:00Z,45.0,37.35,9.0,8.0,290,4,,3.73,29.498032,,,,,,,,,,-SHRA,BKN,1900,,,,,,,MVFR,,,,,,,,,,,,METAR,53.0
UHSS 240730Z 19004MPS 9999 BKN011 M00/M02 Q1009 R19/150065 NOSIG RMK MT OBSC QFE756/1008,UHSS,2018-03-24T07:30:00Z,46.88,142.72,0.0,-2.0,190,8,,6.21,29.793306,,,,,,TRUE,,,,,BKN,1100,,,,,,,MVFR,,,,,,,,,,,,METAR,31.0
UHMM 240730Z 35002MPS 9999 NSC M06/M20 Q1004 R10/82//55 NOSIG RMK QFE738,UHMM,2018-03-24T07:30:00Z,59.92,150.72,-6.0,-20.0,350,4,,6.21,29.64567,,,,,,TRUE,,,,,CLR,,,,,,,,VFR,,,,,,,,,,,,METAR,175.0
UHWW 240730Z 24005MPS 9999 NSC 10/M03 Q1010 R25L/0///70 NOSIG RMK QFE756,UHWW,2018-03-24T07:30:00Z,43.4,132.15,10.0,-3.0,240,10,,6.21,29.822834,,,,,,TRUE,,,,,CLR,,,,,,,,VFR,,,,,,,,,,,,METAR,14.0
UHHH 240730Z 26007MPS 9999 SCT030CB 03/M01 Q1006 R23L/090060 NOSIG RMK QFE748/0997,UHHH,2018-03-24T07:30:00Z,48.52,135.18,3.0,-1.0,260,14,,6.21,29.704725,,,,,,TRUE,,,,,SCT,3000,,,,,,,VFR,,,,,,,,,,,,METAR,72.0
UHBB 240730Z 02004MPS 340V050 9999 FEW033 08/M12 Q1008 R36/090060 NOSIG RMK QFE739/0985,UHBB,2018-03-24T07:30:00Z,50.43,127.42,8.0,-12.0,20,8,,6.21,29.763779,,,,,,TRUE,,,,,FEW,3300,,,,,,,VFR,,,,,,,,,,,,METAR,195.0
VAUD 240730Z 27004KT 6000 NSC 32/05 Q1017 NOSIG,VAUD,2018-03-24T07:30:00Z,24.6,73.9,32.0,5.0,270,4,,3.73,30.029528,,,,,,TRUE,,,,,CLR,,,,,,,,MVFR,,,,,,,,,,,,METAR,514.0
VEBS 240730Z 18008KT 5000 HZ NSC 36/24 Q1009 NOSIG,VEBS,2018-03-24T07:30:00Z,20.25,85.82,36.0,24.0,180,8,,3.11,29.793306,,,,,,TRUE,,,,HZ,CLR,,,,,,,,MVFR,,,,,,,,,,,,METAR,46.0
WBKK 240730Z VRB03KT 9999 FEW014 SCT040 BKN270 29/25 Q1008 NOSIG,WBKK,2018-03-24T07:30:00Z,5.92,116.03,29.0,25.0,0,3,,6.21,29.763779,,,,,,TRUE,,,,,FEW,1400,SCT,4000,BKN,27000,,,VFR,,,,,,,,,,,,METAR,3.0
WBSB 240730Z 02012KT 9999 FEW016 FEW017CB SCT140 BKN300 31/25 Q1008 NOSIG,WBSB,2018-03-24T07:30:00Z,4.92,114.92,31.0,25.0,20,12,,6.21,29.763779,,,,,,TRUE,,,,,FEW,1600,FEW,1700,SCT,14000,BKN,30000,VFR,,,,,,,,,,,,METAR,15.0
WBGG 240730Z 32005KT 260V050 9999 SCT020 BKN150 28/24 Q1009 NOSIG,WBGG,2018-03-24T07:30:00Z,1.47,110.35,28.0,24.0,320,5,,6.21,29.793306,,,,,,TRUE,,,,,SCT,2000,BKN,15000,,,,,VFR,,,,,,,,,,,,METAR,27.0
VVTS 240730Z VRB03KT 9999 SCT020 35/18 Q1008 NOSIG,VVTS,2018-03-24T07:30:00Z,10.82,106.67,35.0,18.0,0,3,,6.21,29.763779,,,,,,TRUE,,,,,SCT,2000,,,,,,,VFR,,,,,,,,,,,,METAR,19.0
VVPQ 240730Z 110010T 080V150 9999 SCT015 30/23 Q1010 NOSIG,VVPQ,2018-03-24T07:30:00Z,10.23,103.97,30.0,23.0,,,,6.21,29.822834,,,,,,TRUE,,,,,SCT,1500,,,,,,,VFR,,-0.1,,,,,,,,,,METAR,4.0
VVNB 240730Z 16005KT 110V200 9000 FEW020 BKN045 24/17 Q1014 NOSIG,VVNB,2018-03-24T07:30:00Z,21.22,105.8,24.0,17.0,160,5,,5.59,29.940945,,,,,,TRUE,,,,,FEW,2000,BKN,4500,,,,,VFR,,,,,,,,,,,,METAR,12.0
VVDN 240730Z 11009KT 8000 FEW015 27/21 Q1014 NOSIG,VVDN,2018-03-24T07:30:00Z,16.02,108.2,27.0,21.0,110,9,,4.97,29.940945,,,,,,TRUE,,,,,FEW,1500,,,,,,,MVFR,,,,,,,,,,,,METAR,7.0
VVCR 240730Z 08018KT 9999 FEW017 29/22 Q1012 NOSIG,VVCR,2018-03-24T07:30:00Z,12.0,109.22,29.0,22.0,80,18,,6.21,29.88189,,,,,,TRUE,,,,,FEW,1700,,,,,,,VFR,,,,,,,,,,,,METAR,12.0
VVCI 240730Z 12007KT 9999 SCT046 24/16 Q1014 NOSIG,VVCI,2018-03-24T07:30:00Z,20.82,106.73,24.0,16.0,120,7,,6.21,29.940945,,,,,,TRUE,,,,,SCT,4600,,,,,,,VFR,,,,,,,,,,,,METAR,3.0
VYYY 240730Z 21006KT 8000 NSC 36/24 Q1010,VYYY,2018-03-24T07:30:00Z,16.9,96.13,36.0,24.0,210,6,,4.97,29.822834,,,,,,,,,,,CLR,,,,,,,,MVFR,,,,,,,,,,,,METAR,33.0
VYMD 240730Z 18007KT 7000 HZ FEW025 38/15 Q1008,VYMD,2018-03-24T07:30:00Z,21.7,95.98,38.0,15.0,180,7,,4.35,29.763779,,,,,,,,,,HZ,FEW,2500,,,,,,,MVFR,,,,,,,,,,,,METAR,91.0
VLVT 240730Z 24004KT 8000 NSC 31/16 Q1011 NOSIG,VLVT,2018-03-24T07:30:00Z,17.98,102.57,31.0,16.0,240,4,,4.97,29.852362,,,,,,TRUE,,,,,CLR,,,,,,,,MVFR,,,,,,,,,,,,METAR,171.0
VDSR 240730Z 21007KT 9999 FEW015 31/19 Q1008,VDSR,2018-03-24T07:30:00Z,13.42,103.83,31.0,19.0,210,7,,6.21,29.763779,,,,,,,,,,,FEW,1500,,,,,,,VFR,,,,,,,,,,,,METAR,15.0
VDPP 240730Z VRB01KT CAVOK 33/18 Q1008,VDPP,2018-03-24T07:30:00Z,11.55,104.83,33.0,18.0,0,1,,6.21,29.763779,,,,,,,,,,,CAVOK,,,,,,,,VFR,,,,,,,,,,,,METAR,10.0
NZCH 240730Z AUTO 25003KT 7000 RA FEW045/// BKN060/// OVC080/// 15/14 Q1016 BECMG 9999 -RA TEMPO 6000 SHRA,NZCH,2018-03-24T07:30:00Z,-43.47,172.55,15.0,14.0,250,3,,4.35,30.0,,,TRUE,,,,,,,RA,FEW,4500,BKN,6000,OVC,8000,,,MVFR,,,,,,,,,,,,SPECI,34.0
NZWN 240730Z AUTO 02007KT 9999 FEW027/// BKN044/// BKN060/// 16/15 Q1019 NOSIG,NZWN,2018-03-24T07:30:00Z,-41.32,174.8,16.0,15.0,20,7,,6.21,30.088583,,,TRUE,,,TRUE,,,,,FEW,2700,BKN,4400,BKN,6000,,,VFR,,,,,,,,,,,,METAR,7.0
NZAA 240730Z AUTO 31002KT 9999 -RA FEW008/// BKN021/// BKN043/// 18/17 Q1021 TEMPO 6000 SHRA,NZAA,2018-03-24T07:30:00Z,-37.02,174.8,18.0,17.0,310,2,,6.21,30.147638,,,TRUE,,,,,,,-RA,FEW,800,BKN,2100,BKN,4300,,,MVFR,,,,,,,,,,,,SPECI,6.0
VTSS 240730Z 11006KT 9999 VCSH FEW018CB SCT020 BKN100 28/27 Q1009 NOSIG,VTSS,2018-03-24T07:30:00Z,6.92,100.38,28.0,27.0,110,6,,6.21,29.793306,,,,,,TRUE,,,,VCSH,FEW,1800,SCT,2000,BKN,10000,,,VFR,,,,,,,,,,,,METAR,35.0
VTCC 240730Z 16006KT 8000 FEW035 34/15 Q1012 NOSIG,VTCC,2018-03-24T07:30:00Z,18.77,98.97,34.0,15.0,160,6,,4.97,29.88189,,,,,,TRUE,,,,,FEW,3500,,,,,,,MVFR,,,,,,,,,,,,METAR,314.0
VTBU 240730Z 22006KT 3000 HZ FEW020 31/21 Q1009 NOSIG,VTBU,2018-03-24T07:30:00Z,12.68,101.0,31.0,21.0,220,6,,1.86,29.793306,,,,,,TRUE,,,,HZ,FEW,2000,,,,,,,IFR,,,,,,,,,,,,METAR,5.0
VTBS 240730Z 07006G17KT 8000 FEW020 34/19 Q1010 NOSIG,VTBS,2018-03-24T07:30:00Z,13.68,100.75,34.0,19.0,70,6,17,4.97,29.822834,,,,,,TRUE,,,,,FEW,2000,,,,,,,MVFR,,,,,,,,,,,,METAR,2.0
VTBD 240730Z 03007KT 320V080 9999 FEW020 34/22 Q1010 NOSIG,VTBD,2018-03-24T07:30:00Z,13.92,100.6,34.0,22.0,30,7,,6.21,29.822834,,,,,,TRUE,,,,,FEW,2000,,,,,,,VFR,,,,,,,,,,,,METAR,3.0
DAUH 240730Z 22008KT 8000 NSC 11/M04 Q1010,DAUH,2018-03-24T07:30:00Z,31.67,6.15,11.0,-4.0,220,8,,4.97,29.822834,,,,,,,,,,,CLR,,,,,,,,MVFR,,,,,,,,,,,,METAR,142.0
DAOO 240730Z 24010KT 9999 FEW020 BKN026 13/11 Q1003,DAOO,2018-03-24T07:30:00Z,35.62,-0.6,13.0,11.0,240,10,,6.21,29.616142,,,,,,,,,,,FEW,2000,BKN,2600,,,,,MVFR,,,,,,,,,,,,METAR,90.0
DAON 240730Z 22022KT 9999 SCT026 BKN100 14/08 Q1005,DAON,2018-03-24T07:30:00Z,35.02,-1.47,14.0,8.0,220,22,,6.21,29.675198,,,,,,,,,,,SCT,2600,BKN,10000,,,,,VFR,,,,,,,,,,,,METAR,247.0
DABC 240730Z 10002KT 9999 FEW020 BKN030 04/03 Q1004,DABC,2018-03-24T07:30:00Z,36.27,6.62,4.0,3.0,100,2,,6.21,29.64567,,,,,,,,,,,FEW,2000,BKN,3000,,,,,MVFR,,,,,,,,,,,,METAR,694.0
DABB 240730Z 22009KT 9999 FEW023 SCT040 11/06 Q1002,DABB,2018-03-24T07:30:00Z,36.82,7.82,11.0,6.0,220,9,,6.21,29.586615,,,,,,,,,,,FEW,2300,SCT,4000,,,,,VFR,,,,,,,,,,,,METAR,4.0
DAAT 240730Z 34002KT CAVOK 11/// Q1020,DAAT,2018-03-24T07:30:00Z,22.82,5.47,,,340,2,,6.21,30.11811,,,,,,,,,,,CAVOK,,,,,,,,VFR,,0.0,,,,,,,,,,SPECI,1377.0
DAAG 240730Z 24013KT 200V270 9999 SCT026 BKN040 15/09 Q1000,DAAG,2018-03-24T07:30:00Z,36.72,3.22,15.0,9.0,240,13,,6.21,29.52756,,,,,,,,,,,SCT,2600,BKN,4000,,,,,VFR,,,,,,,,,,,,METAR,25.0
UKWW 240730Z VRB01MPS CAVOK M03/M07 Q1006 NOSIG,UKWW,2018-03-24T07:30:00Z,49.25,28.6,-3.0,-7.0,0,2,,6.21,29.704725,,,,,,TRUE,,,,,CAVOK,,,,,,,,VFR,,,,,,,,,,,,METAR,293.0
UKOH 240730Z 02007MPS 9999 OVC020 00/M02 Q1003 R03/690235 NOSIG,UKOH,2018-03-24T07:30:00Z,46.67,32.5,0.0,-2.0,20,14,,6.21,29.616142,,,,,,TRUE,,,,,OVC,2000,,,,,,,MVFR,,,,,,,,,,,,METAR,45.0
UKLN 240730Z 33002MPS 3900 BR BKN039 M05/M06 Q1008 R15/850240 NOSIG,UKLN,2018-03-24T07:30:00Z,48.27,25.98,-5.0,-6.0,330,4,,2.42,29.763779,,,,,,TRUE,,,,BR,BKN,3900,,,,,,,IFR,,,,,,,,,,,,SPECI,252.0
UKKM 240730Z AUTO 02002MPS 340V060 9999 // NCD 01/M05 Q1006,UKKM,2018-03-24T07:30:00Z,50.6,30.2,1.0,-5.0,20,4,,6.21,29.704725,,,TRUE,,,,,,,,CLR,,,,,,,,VFR,,,,,,,,,,,,SPECI,157.0
UKKK 240730Z 02002MPS 360V060 CAVOK 01/M05 Q1006 R08/190060 NOSIG,UKKK,2018-03-24T07:30:00Z,50.4,30.45,1.0,-5.0,20,4,,6.21,29.704725,,,,,,TRUE,,,,,CAVOK,,,,,,,,VFR,,,,,,,,,,,,METAR,179.0
UKLU 240730Z 31002MPS 270V360 9999 BKN200 00/M03 Q1007 R10/090070 NOSIG,UKLU,2018-03-24T07:30:00Z,48.63,22.27,0.0,-3.0,310,4,,6.21,29.734253,,,,,,TRUE,,,,,BKN,20000,,,,,,,VFR,,,,,,,,,,,,SPECI,117.0
UKLI 240730Z VRB02MPS 6000 OVC004 M05/M05 Q1008 R10/810560 NOSIG,UKLI,2018-03-24T07:30:00Z,48.88,24.68,-5.0,-5.0,0,4,,3.73,29.763779,,,,,,TRUE,,,,,OVC,400,,,,,,,LIFR,,,,,,,,,,,,SPECI,280.0
UKLR 240730Z 26002MPS CAVOK M03/M08 Q1008 NOSIG,UKLR,2018-03-24T07:30:00Z,50.6,26.13,-3.0,-8.0,260,4,,6.21,29.763779,,,,,,TRUE,,,,,CAVOK,,,,,,,,VFR,,,,,,,,,,,,METAR,230.0
EIKY 240730Z 23003KT 9999 FEW029 02/01 Q1004,EIKY,2018-03-24T07:30:00Z,52.18,-9.52,2.0,1.0,230,3,,6.21,29.64567,,,,,,,,,,,FEW,2900,,,,,,,VFR,,,,,,,,,,,,METAR,34.0
EIDL 240730Z 18006KT 9999 FEW028 02/01 Q1002,EIDL,2018-03-24T07:30:00Z,55.05,-8.33,2.0,1.0,180,6,,6.21,29.586615,,,,,,,,,,,FEW,2800,,,,,,,VFR,,,,,,,,,,,,METAR,9.0
VMMC 240730Z 12006KT 9999 FEW025 SCT040 22/18 Q1017 NOSIG,VMMC,2018-03-24T07:30:00Z,22.15,113.58,22.0,18.0,120,6,,6.21,30.029528,,,,,,TRUE,,,,,FEW,2500,SCT,4000,,,,,VFR,,,,,,,,,,,,METAR,6.0
RCFN 240730Z 06005KT 030V090 9999 FEW030 OVC040 21/13 Q1020 NOSIG RMK A3013,RCFN,2018-03-24T07:30:00Z,22.77,121.07,21.0,13.0,60,5,,6.21,30.11811,,,,,,TRUE,,,,,FEW,3000,OVC,4000,,,,,VFR,,,,,,,,,,,,SPECI,42.0
RCNN 240730Z 29008KT 9999 FEW012 25/08 Q1017 NOSIG RMK A3004,RCNN,2018-03-24T07:30:00Z,22.93,120.2,25.0,8.0,290,8,,6.21,30.029528,,,,,,TRUE,,,,,FEW,1200,,,,,,,VFR,,,,,,,,,,,,SPECI,19.0
RCMQ 240730Z 34012KT 9999 FEW012 SCT200 23/14 Q1018 NOSIG RMK A3006,RCMQ,2018-03-24T07:30:00Z,24.27,120.62,23.0,14.0,340,12,,6.21,30.059055,,,,,,TRUE,,,,,FEW,1200,SCT,20000,,,,,VFR,,,,,,,,,,,,SPECI,5.0
RCSS 240730Z 13012KT 100V160 9999 FEW025 26/13 Q1018 NOSIG RMK A3006,RCSS,2018-03-24T07:30:00Z,25.07,121.53,26.0,13.0,130,12,,6.21,30.059055,,,,,,TRUE,,,,,FEW,2500,,,,,,,VFR,,,,,,,,,,,,SPECI,6.0
RCKH 240730Z 27010KT 240V300 9999 FEW020 26/09 Q1016 NOSIG RMK 29011KT/R09 A3003,RCKH,2018-03-24T07:30:00Z,22.57,120.33,26.0,9.0,270,10,,6.21,30.0,,,,,,TRUE,,,,,FEW,2000,,,,,,,VFR,,,,,,,,,,,,METAR,9.0
RCTP 240730Z 06009KT 9999 FEW025 26/14 Q1016 NOSIG RMK R05 A3003,RCTP,2018-03-24T07:30:00Z,25.07,121.22,26.0,14.0,60,9,,6.21,30.0,,,,,,TRUE,,,,,FEW,2500,,,,,,,VFR,,,,,,,,,,,,METAR,33.0
VGHS 240730Z 24005KT 4000 HZ SCT015 34/24 Q1011 NOSIG,VGHS,2018-03-24T07:30:00Z,23.85,90.4,34.0,24.0,240,5,,2.49,29.852362,,,,,,TRUE,,,,HZ,SCT,1500,,,,,,,IFR,,,,,,,,,,,,METAR,10.0
FMEP 240730Z AUTO 13017KT 9999 FEW043 29/23 Q1014 BECMG 12015G25KT,FMEP,2018-03-24T07:30:00Z,-21.32,55.42,29.0,23.0,130,17,,6.21,29.940945,,,TRUE,,,,,,,,FEW,4300,,,,,,,VFR,,,,,,,,,,,,SPECI,18.0
FMEE 240730Z 10017KT 9999 FEW030 SCT066 30/23 Q1013 NOSIG,FMEE,2018-03-24T07:30:00Z,-20.87,55.52,30.0,23.0,100,17,,6.21,29.911417,,,,,,TRUE,,,,,FEW,3000,SCT,6600,,,,,VFR,,,,,,,,,,,,METAR,25.0
VANP 240730Z 05003KT 6000 NSC 37/06 Q1012 NOSIG,VANP,2018-03-24T07:30:00Z,21.08,79.05,37.0,6.0,50,3,,3.73,29.88189,,,,,,TRUE,,,,,CLR,,,,,,,,MVFR,,,,,,,,,,,,METAR,310.0
VOCI 240730Z 30004KT 6000 NSC 34/23 Q1007 NOSIG,VOCI,2018-03-24T07:30:00Z,10.15,76.4,34.0,23.0,300,4,,3.73,29.734253,,,,,,TRUE,,,,,CLR,,,,,,,,MVFR,,,,,,,,,,,,METAR,8.0
VOTR 240730Z 10003KT 5000 HZ FEW016 37/21 Q1008 NOSIG,VOTR,2018-03-24T07:30:00Z,10.77,78.72,37.0,21.0,100,3,,3.11,29.763779,,,,,,TRUE,,,,HZ,FEW,1600,,,,,,,MVFR,,,,,,,,,,,,METAR,88.0
LETU 240730Z AUTO 30005KT 9999 NCD 04/01 Q0999,LETU,2018-03-24T07:30:00Z,,,4.0,1.0,300,5,,6.21,29.498032,,,TRUE,,,,,,,,CLR,,,,,,,,VFR,,,,,,,,,,,,METAR,
LEBR 240730Z AUTO 31010KT 9999 FEW068 05/00 Q0998,LEBR,2018-03-24T07:30:00Z,42.2,-1.43,5.0,0.0,310,10,,6.21,29.468504,,,TRUE,,,,,,,,FEW,6800,,,,,,,VFR,,,,,,,,,,,,METAR,295.0
VIAR 240730Z 29007KT 3500 HZ SCT100 SCT200 28/16 Q1015 NOSIG,VIAR,2018-03-24T07:30:00Z,31.7,74.8,28.0,16.0,290,7,,2.17,29.970472,,,,,,TRUE,,,,HZ,SCT,10000,SCT,20000,,,,,IFR,,,,,,,,,,,,METAR,234.0
KSBS 240730Z AUTO 00000KT 10SM CLR M02/M02 A3010 RMK AO1 T10161016,KSBS,2018-03-24T07:30:00Z,40.52,-106.87,-1.6,-1.6,0,0,,10.0,30.100393,,,TRUE,TRUE,,,,,,,CLR,,,,,,,,VFR,,,,,,,,,,,,SPECI,2096.0
KC07 240730Z AUTO 22005KT 10SM CLR M05/M06 A3013 RMK AO2,KC07,2018-03-24T07:30:00Z,40.35,-106.7,-5.0,-6.0,220,5,,10.0,30.129921,,,TRUE,TRUE,,,,,,,CLR,,,,,,,,VFR,,,,,,,,,,,,SPECI,3224.0
K7BM 240730Z AUTO 28005KT 10SM CLR 02/M06 A3015 RMK AO2,K7BM,2018-03-24T07:30:00Z,38.78,-106.22,2.0,-6.0,280,5,,10.0,30.15059,,,TRUE,TRUE,,,,,,,CLR,,,,,,,,VFR,,,,,,,,,,,,SPECI,2995.0
K5SM 240730Z AUTO 21009KT 10SM CLR M06/M06 A3020 RMK AO2,K5SM,2018-03-24T07:30:00Z,39.43,-107.38,-6.0,-6.0,210,9,,10.0,30.200787,,,TRUE,TRUE,,,,,,,CLR,,,,,,,,VFR,,,,,,,,,,,,SPECI,3232.0
K20V 240730Z AUTO 00000KT 10SM CLR 01/00 A3014 RMK AO2,K20V,2018-03-24T07:30:00Z,40.05,-106.37,1.0,0.0,0,0,,10.0,30.138779,,,TRUE,TRUE,,,,,,,CLR,,,,,,,,VFR,,,,,,,,,,,,SPECI,2259.0
K1V6 240730Z AUTO 28005KT 10SM CLR 07/M02 A3001 RMK AO2,K1V6,2018-03-24T07:30:00Z,38.43,-105.1,7.0,-2.0,280,5,,10.0,30.008858,,,TRUE,TRUE,,,,,,,CLR,,,,,,,,VFR,,,,,,,,,,,,SPECI,1658.0
K0CO 240730Z AUTO 31022G28KT 10SM OVC009 M08/M15 A3014 RMK AO2,K0CO,2018-03-24T07:30:00Z,39.8,-105.77,-8.0,-15.0,310,22,28,10.0,30.138779,,,TRUE,TRUE,,,,,,,OVC,900,,,,,,,IFR,,,,,,,,,,,,SPECI,3807.0
KMNH 240730Z AUTO 21005KT 10SM CLR 01/M05 A3008 RMK AO2,KMNH,2018-03-24T07:30:00Z,39.22,-104.65,1.0,-5.0,210,5,,10.0,30.079725,,,TRUE,TRUE,,,,,,,CLR,,,,,,,,VFR,,,,,,,,,,,,SPECI,2152.0
KHEQ 240730Z AUTO 33011G15KT 10SM CLR 06/03 A2995 RMK AO2,KHEQ,2018-03-24T07:30:00Z,40.57,-102.28,6.0,3.0,330,11,15,10.0,29.949802,,,TRUE,TRUE,,,,,,,CLR,,,,,,,,VFR,,,,,,,,,,,,SPECI,1137.0
LRIA 240730Z 32007KT CAVOK M03/M05 Q1008 R14/950395,LRIA,2018-03-24T07:30:00Z,47.17,27.62,-3.0,-5.0,320,7,,6.21,29.763779,,,,,,,,,,,CAVOK,,,,,,,,VFR,,,,,,,,,,,,METAR,104.0
LRCV 240730Z 10010KT 9999 -SN BKN028 M02/M03 Q1006 R27/29//95,LRCV,2018-03-24T07:30:00Z,44.32,23.88,-2.0,-3.0,100,10,,6.21,29.704725,,,,,,,,,,-SN,BKN,2800,,,,,,,MVFR,,,,,,,,,,,,METAR,191.0
LRBC 240730Z 34008KT 9999 BKN065 M00/M03 Q1008 R16/910295,LRBC,2018-03-24T07:30:00Z,46.52,26.92,0.0,-3.0,340,8,,6.21,29.763779,,,,,,,,,,,BKN,6500,,,,,,,VFR,,,,,,,,,,,,METAR,185.0
LFRT 240730Z AUTO 12006KT 2100 BR OVC002 05/05 Q0994,LFRT,2018-03-24T07:30:00Z,48.52,-2.85,5.0,5.0,120,6,,1.3,29.350393,,,TRUE,,,,,,,BR,OVC,200,,,,,,,LIFR,,,,,,,,,,,,SPECI,136.0
LFRQ 240730Z AUTO 06009KT 030V090 9999 SCT012 SCT017 BKN033 08/06 Q0992 NOSIG,LFRQ,2018-03-24T07:30:00Z,47.97,-4.17,8.0,6.0,60,9,,6.21,29.291338,,,TRUE,,,TRUE,,,,,SCT,1200,SCT,1700,BKN,3300,,,VFR,,,,,,,,,,,,SPECI,94.0
LFRK 240730Z AUTO 11008KT 9999 OVC008 07/06 Q0996 TEMPO RA BECMG BKN012,LFRK,2018-03-24T07:30:00Z,49.17,-0.45,7.0,6.0,110,8,,6.21,29.409449,,,TRUE,,,,,,,,OVC,800,,,,,,,IFR,,,,,,,,,,,,METAR,67.0
LFRC 240730Z AUTO 12012KT 7000 -RA BKN005 OVC013 06/06 Q0996 BECMG BKN010,LFRC,2018-03-24T07:30:00Z,49.63,-1.47,6.0,6.0,120,12,,4.35,29.409449,,,TRUE,,,,,,,-RA,BKN,500,OVC,1300,,,,,IFR,,,,,,,,,,,,METAR,138.0
LFPN 240730Z AUTO 10007KT 9999 OVC023 05/03 Q0998 TEMPO BKN012,LFPN,2018-03-24T07:30:00Z,48.75,2.12,5.0,3.0,100,7,,6.21,29.468504,,,TRUE,,,,,,,,OVC,2300,,,,,,,MVFR,,,,,,,,,,,,METAR,164.0
LRSV 240730Z 02005KT 9999 BKN011 M02/M04 Q1007 R16/890393,LRSV,2018-03-24T07:30:00Z,47.68,26.35,-2.0,-4.0,20,5,,6.21,29.734253,,,,,,,,,,,BKN,1100,,,,,,,MVFR,,,,,,,,,,,,METAR,351.0
GMTT 240730Z 33018KT 290V350 5000 BKN006 BKN020 12/06 Q1015 NOSIG,GMTT,2018-03-24T07:30:00Z,35.72,-5.9,12.0,6.0,330,18,,3.11,29.970472,,,,,,TRUE,,,,,BKN,600,BKN,2000,,,,,IFR,,,,,,,,,,,,METAR,21.0
GMMX 240730Z 20006KT 9999 BKN023 11/05 Q1020 NOSIG,GMMX,2018-03-24T07:30:00Z,31.62,-8.02,11.0,5.0,200,6,,6.21,30.11811,,,,,,TRUE,,,,,BKN,2300,,,,,,,MVFR,,,,,,,,,,,,METAR,466.0
GMMN 240730Z 23013KT 3500 +RADZ SCT016 BKN020 13/13 Q1020 NOSIG,GMMN,2018-03-24T07:30:00Z,33.37,-7.57,13.0,13.0,230,13,,2.17,30.11811,,,,,,TRUE,,,,+RA +DZ,SCT,1600,BKN,2000,,,,,IFR,,,,,,,,,,,,METAR,206.0
GMME 240730Z 23015KT 4000 BR SCT010 OVC020 FEW030CB 14/12 Q1016 NOSIG,GMME,2018-03-24T07:30:00Z,34.03,-6.77,14.0,12.0,230,15,,2.49,30.0,,,,,,TRUE,,,,BR,SCT,1000,OVC,2000,FEW,3000,,,IFR,,,,,,,,,,,,METAR,75.0
GMFF 240730Z 25021KT 8000 SCT013 BKN026 13/10 Q1014 NOSIG,GMFF,2018-03-24T07:30:00Z,33.92,-4.97,13.0,10.0,250,21,,4.97,29.940945,,,,,,TRUE,,,,,SCT,1300,BKN,2600,,,,,MVFR,,,,,,,,,,,,METAR,579.0
SBSP 240730Z AUTO 07004KT 030V100 9999 BKN009 21/18 Q1018,SBSP,2018-03-24T07:30:00Z,-23.62,-46.63,21.0,18.0,70,4,,6.21,30.059055,,,TRUE,,,,,,,,BKN,900,,,,,,,IFR,,,,,,,,,,,,SPECI,803.0
KUKI 240730Z AUTO 00000KT 10SM BKN028 OVC034 07/05 A3009 RMK AO2 RAE27 P0000 T00670050,KUKI,2018-03-24T07:30:00Z,39.12,-123.2,6.7,5.0,0,0,,10.0,30.088583,,,TRUE,TRUE,,,,,,,BKN,2800,OVC,3400,,,,,MVFR,,,,,,0.005,,,,,,SPECI,187.0
LZPP 240730Z 01003KT 8000 NSC 01/M03 Q1005,LZPP,2018-03-24T07:30:00Z,48.62,17.83,1.0,-3.0,10,3,,4.97,29.675198,,,,,,,,,,,CLR,,,,,,,,MVFR,,,,,,,,,,,,METAR,161.0
FMCZ 240730Z 11005KT 060V150 9999 SCT022 31/25 Q1012 NOSIG,FMCZ,2018-03-24T07:30:00Z,-12.8,45.27,31.0,25.0,110,5,,6.21,29.88189,,,,,,TRUE,,,,,SCT,2200,,,,,,,VFR,,,,,,,,,,,,METAR,7.0
LCPH 240730Z 27017KT 4000 DU FEW014 SCT020 18/10 Q1007,LCPH,2018-03-24T07:30:00Z,34.72,32.47,18.0,10.0,270,17,,2.49,29.734253,,,,,,,,,,DU,FEW,1400,SCT,2000,,,,,IFR,,,,,,,,,,,,METAR,8.0
LCLK 240730Z 11004KT 090V150 9999 SCT025 20/09 Q1006 NOSIG RMK WS020,LCLK,2018-03-24T07:30:00Z,34.87,33.62,20.0,9.0,110,4,,6.21,29.704725,,,,,,TRUE,,,,,SCT,2500,,,,,,,VFR,,,,,,,,,,,,SPECI,2.0
EIDW 240730Z 34006KT 9999 FEW016 SCT040 03/02 Q1002 NOSIG,EIDW,2018-03-24T07:30:00Z,53.42,-6.25,3.0,2.0,340,6,,6.21,29.586615,,,,,,TRUE,,,,,FEW,1600,SCT,4000,,,,,VFR,,,,,,,,,,,,METAR,85.0
LDRI 240730Z 08005KT 9999 FEW030 08/M03 Q1003,LDRI,2018-03-24T07:30:00Z,45.22,14.57,8.0,-3.0,80,5,,6.21,29.616142,,,,,,,,,,,FEW,3000,,,,,,,VFR,,,,,,,,,,,,METAR,85.0
LQTZ 240730Z 10004KT 080V140 3000 BR SCT005 BKN020 M01/M02 Q1004,LQTZ,2018-03-24T07:30:00Z,44.47,18.73,-1.0,-2.0,100,4,,1.86,29.64567,,,,,,,,,,BR,SCT,500,BKN,2000,,,,,IFR,,,,,,,,,,,,METAR,306.0
LQSA 240730Z 00000KT 5000 BR FEW015 SCT035 M03/M03 Q1003 NOSIG,LQSA,2018-03-24T07:30:00Z,43.82,18.32,-3.0,-3.0,0,0,,3.11,29.616142,,,,,,TRUE,,,,BR,FEW,1500,SCT,3500,,,,,MVFR,,,,,,,,,,,,METAR,511.0
LQBK 240730Z 16002KT 9999 FEW037 03/M02 Q1004 NOSIG,LQBK,2018-03-24T07:30:00Z,44.93,17.3,3.0,-2.0,160,2,,6.21,29.64567,,,,,,TRUE,,,,,FEW,3700,,,,,,,VFR,,,,,,,,,,,,METAR,122.0
LKTB 240730Z 06010KT 8000 FEW021 04/M01 Q1005 NOSIG,LKTB,2018-03-24T07:30:00Z,49.13,16.68,4.0,-1.0,60,10,,4.97,29.675198,,,,,,TRUE,,,,,FEW,2100,,,,,,,MVFR,,,,,,,,,,,,METAR,246.0
LKPR 240730Z 14004KT 050V190 6000 BKN048 02/00 Q1004 NOSIG,LKPR,2018-03-24T07:30:00Z,50.1,14.27,2.0,0.0,140,4,,3.73,29.64567,,,,,,TRUE,,,,,BKN,4800,,,,,,,MVFR,,,,,,,,,,,,METAR,365.0
LKMT 240730Z 04006KT 010V070 2500 BR SCT009 02/M00 Q1006 BECMG 5000 BR,LKMT,2018-03-24T07:30:00Z,49.67,18.12,2.0,0.0,40,6,,1.55,29.704725,,,,,,,,,,BR,SCT,900,,,,,,,IFR,,,,,,,,,,,,SPECI,256.0
LZSL 240730Z 00000KT CAVOK 01/M05 Q1005,LZSL,2018-03-24T07:30:00Z,48.63,19.13,1.0,-5.0,0,0,,6.21,29.675198,,,,,,,,,,,CAVOK,,,,,,,,VFR,,,,,,,,,,,,METAR,313.0
LYKV 240730Z 14001KT 3000 -SN BR BKN012 BKN032 M01/M03 Q1006 R14/////// NOSIG,LYKV,2018-03-24T07:30:00Z,43.82,20.58,-1.0,-3.0,140,1,,1.86,29.704725,,,,,,TRUE,,,,-SN BR,BKN,1200,BKN,3200,,,,,IFR,,,,,,,,,,,,METAR,209.0
LYBT 240730Z 17002KT 6000 NSC 00/M03 Q1006 R12/////// NOSIG,LYBT,2018-03-24T07:30:00Z,44.93,20.25,0.0,-3.0,170,2,,3.73,29.704725,,,,,,TRUE,,,,,CLR,,,,,,,,MVFR,,,,,,,,,,,,METAR,80.0
LYBE 240730Z 19003KT 6000 NSC 00/M03 Q1006 R12/1///95 NOSIG,LYBE,2018-03-24T07:30:00Z,44.82,20.28,0.0,-3.0,190,3,,3.73,29.704725,,,,,,TRUE,,,,,CLR,,,,,,,,MVFR,,,,,,,,,,,,SPECI,99.0
EIKN 240730Z 27005KT 9999 FEW020 03/00 Q1003 NOSIG,EIKN,2018-03-24T07:30:00Z,53.92,-8.82,3.0,0.0,270,5,,6.21,29.616142,,,,,,TRUE,,,,,FEW,2000,,,,,,,VFR,,,,,,,,,,,,METAR,64.0
EICK 240730Z 34015KT 9999 SCT005 03/02 Q1003 NOSIG,EICK,2018-03-24T07:30:00Z,51.85,-8.47,3.0,2.0,340,15,,6.21,29.616142,,,,,,TRUE,,,,,SCT,500,,,,,,,VFR,,,,,,,,,,,,METAR,162.0
EINN 240730Z 32003KT 9999 FEW030 02/01 Q1004 NOSIG,EINN,2018-03-24T07:30:00Z,52.7,-8.92,2.0,1.0,320,3,,6.21,29.64567,,,,,,TRUE,,,,,FEW,3000,,,,,,,VFR,,,,,,,,,,,,METAR,20.0
LYVR 240730Z VRB01KT 7000 NSC 01/M03 Q1007 R01/////// NOSIG,LYVR,2018-03-24T07:30:00Z,45.13,21.32,1.0,-3.0,0,1,,4.35,29.734253,,,,,,TRUE,,,,,CLR,,,,,,,,MVFR,,,,,,,,,,,,METAR,85.0
LYUZ 240730Z VRB02KT 5000 BR SCT005 BKN021 M05/M05 Q1001 R10///////,LYUZ,2018-03-24T07:30:00Z,43.9,19.7,-5.0,-5.0,0,2,,3.11,29.557087,,,,,,,,,,BR,SCT,500,BKN,2100,,,,,MVFR,,,,,,,,,,,,METAR,904.0
LYTV 240730Z VRB01KT CAVOK 08/M03 Q1000 NOSIG,LYTV,2018-03-24T07:30:00Z,42.38,18.72,8.0,-3.0,0,1,,6.21,29.52756,,,,,,TRUE,,,,,CAVOK,,,,,,,,VFR,,,,,,,,,,,,METAR,5.0
LYPG 240730Z 12004KT 080V160 9999 FEW023 BKN080 05/M01 Q1002 NOSIG,LYPG,2018-03-24T07:30:00Z,42.37,19.25,5.0,-1.0,120,4,,6.21,29.586615,,,,,,TRUE,,,,,FEW,2300,BKN,8000,,,,,VFR,,,,,,,,,,,,METAR,43.0
LYNI 240730Z 33009KT 7000 -SN FEW010 SCT030 M01/M04 Q1005 R11/2///95 NOSIG,LYNI,2018-03-24T07:30:00Z,43.32,21.88,-1.0,-4.0,330,9,,4.35,29.675198,,,,,,TRUE,,,,-SN,FEW,1000,SCT,3000,,,,,MVFR,,,,,,,,,,,,SPECI,202.0
LFPV 240730Z AUTO 09005KT 9999 OVC022 05/02 Q0998 NOSIG,LFPV,2018-03-24T07:30:00Z,48.77,2.2,5.0,2.0,90,5,,6.21,29.468504,,,TRUE,,,TRUE,,,,,OVC,2200,,,,,,,MVFR,,,,,,,,,,,,METAR,179.0
LFOA 240730Z AUTO 12009KT CAVOK 06/02 Q0996,LFOA,2018-03-24T07:30:00Z,47.03,2.63,6.0,2.0,120,9,,6.21,29.409449,,,TRUE,,,,,,,,CAVOK,,,,,,,,VFR,,,,,,,,,,,,METAR,179.0
LFRL 240730Z AUTO 05008KT CAVOK 06/05 Q0993,LFRL,2018-03-24T07:30:00Z,48.27,-4.42,6.0,5.0,50,8,,6.21,29.320866,,,TRUE,,,,,,,,CAVOK,,,,,,,,VFR,,,,,,,,,,,,METAR,82.0
LFRJ 240730Z AUTO 07009KT CAVOK 05/04 Q0993,LFRJ,2018-03-24T07:30:00Z,48.52,-4.15,5.0,4.0,70,9,,6.21,29.320866,,,TRUE,,,,,,,,CAVOK,,,,,,,,VFR,,,,,,,,,,,,METAR,115.0
LFOJ 240730Z AUTO 08007KT 7000 BKN029 OVC038 05/03 Q0996 TEMPO BKN010,LFOJ,2018-03-24T07:30:00Z,47.97,1.75,5.0,3.0,80,7,,4.35,29.409449,,,TRUE,,,,,,,,BKN,2900,OVC,3800,,,,,MVFR,,,,,,,,,,,,SPECI,125.0
LFOE 240730Z AUTO 08006KT 9000 OVC016 06/05 Q0997 BECMG BKN010,LFOE,2018-03-24T07:30:00Z,49.02,1.22,6.0,5.0,80,6,,5.59,29.438976,,,TRUE,,,,,,,,OVC,1600,,,,,,,MVFR,,,,,,,,,,,,SPECI,146.0
LFOC 240730Z AUTO 08009KT 6000 -RA OVC014 06/04 Q0996,LFOC,2018-03-24T07:30:00Z,48.03,1.37,6.0,4.0,80,9,,3.73,29.409449,,,TRUE,,,,,,,-RA,OVC,1400,,,,,,,MVFR,,,,,,,,,,,,METAR,127.0
OITL 240730Z 20029G41KT 6000 FEW070 BKN190 20/M03 Q1012,OITL,2018-03-24T07:30:00Z,38.33,48.42,20.0,-3.0,200,29,41,3.73,29.88189,,,,,,,,,,,FEW,7000,BKN,19000,,,,,MVFR,,,,,,,,,,,,METAR,1316.0
OIBP 240730Z 15008KT CAVOK 33/13 Q1012 A2990,OIBP,2018-03-24T07:30:00Z,27.38,52.73,33.0,13.0,150,8,,6.21,29.88189,,,,,,,,,,,CAVOK,,,,,,,,VFR,,,,,,,,,,,,METAR,9.0
OIHR 240730Z 33008KT 6000 NSC 17/M04 Q1023,OIHR,2018-03-24T07:30:00Z,34.13,49.85,17.0,-4.0,330,8,,3.73,30.206694,,,,,,,,,,,CLR,,,,,,,,MVFR,,,,,,,,,,,,METAR,1658.0
OIZH 240730Z 01006KT CAVOK 25/00 Q1024 A3024,OIZH,2018-03-24T07:30:00Z,29.47,60.92,25.0,0.0,10,6,,6.21,30.236221,,,,,,,,,,,CAVOK,,,,,,,,VFR,,,,,,,,,,,,METAR,1370.0
OITT 240730Z 27004KT 4500 DU SCT040 BKN180 18/M05 Q1015 A2997,OITT,2018-03-24T07:30:00Z,38.13,46.23,18.0,-5.0,270,4,,2.8,29.970472,,,,,,,,,,DU,SCT,4000,BKN,18000,,,,,IFR,,,,,,,,,,,,METAR,1361.0
OISS 240730Z 00000KT CAVOK 23/M05 Q1024 A3026,OISS,2018-03-24T07:30:00Z,29.52,52.57,23.0,-5.0,0,0,,6.21,30.236221,,,,,,,,,,,CAVOK,,,,,,,,VFR,,,,,,,,,,,,METAR,1491.0
OIMM 240730Z 07006KT 7000 NSC 22/05 Q1021 A3015,OIMM,2018-03-24T07:30:00Z,36.23,59.62,22.0,5.0,70,6,,4.35,30.147638,,,,,,,,,,,CLR,,,,,,,,MVFR,,,,,,,,,,,,METAR,980.0
OIKK 240730Z 11008KT CAVOK 23/M11 Q1027 A3033,OIKK,2018-03-24T07:30:00Z,30.25,56.97,23.0,-11.0,110,8,,6.21,30.324802,,,,,,,,,,,CAVOK,,,,,,,,VFR,,,,,,,,,,,,METAR,1754.0
OIKB 240730Z 20010KT 8000 NSC 30/12 Q1015 A3000,OIKB,2018-03-24T07:30:00Z,27.22,56.37,30.0,12.0,200,10,,4.97,29.970472,,,,,,,,,,,CLR,,,,,,,,MVFR,,,,,,,,,,,,METAR,10.0
OIII 240730Z 14006KT 5000 HZ NSC 23/M08 Q1021 A3017,OIII,2018-03-24T07:30:00Z,35.68,51.3,23.0,-8.0,140,6,,3.11,30.147638,,,,,,,,,,HZ,CLR,,,,,,,,MVFR,,,,,,,,,,,,METAR,1191.0
OIFM 240730Z 19004KT 8000 NSC 20/M11 Q1024 A3026,OIFM,2018-03-24T07:30:00Z,32.75,51.87,20.0,-11.0,190,4,,4.97,30.236221,,,,,,,,,,,CLR,,,,,,,,MVFR,,,,,,,,,,,,METAR,1542.0
OIAW 240730Z 15008KT CAVOK 32/01 Q1013,OIAW,2018-03-24T07:30:00Z,31.32,48.77,32.0,1.0,150,8,,6.21,29.911417,,,,,,,,,,,CAVOK,,,,,,,,VFR,,,,,,,,,,,,METAR,22.0
OITR 240730Z 18002KT 6000 SCT040 BKN170 20/M04 Q1013,OITR,2018-03-24T07:30:00Z,37.67,45.07,20.0,-4.0,180,2,,3.73,29.911417,,,,,,,,,,,SCT,4000,BKN,17000,,,,,MVFR,,,,,,,,,,,,METAR,1312.0
OIGG 240730Z 00000KT 5000 BR BKN012 OVC080 14/11 Q1009,OIGG,2018-03-24T07:30:00Z,37.33,49.6,14.0,11.0,0,0,,3.11,29.793306,,,,,,,,,,BR,BKN,1200,OVC,8000,,,,,MVFR,,,,,,,,,,,,METAR,-13.0
OICC 240730Z 10008KT 7000 NSC 23/M07 Q1020 A3013 NOSIG,OICC,2018-03-24T07:30:00Z,34.35,47.17,23.0,-7.0,100,8,,4.35,30.11811,,,,,,TRUE,,,,,CLR,,,,,,,,MVFR,,,,,,,,,,,,METAR,1322.0
OIBK 240730Z 10010KT 8000 NSC 31/07 Q1015,OIBK,2018-03-24T07:30:00Z,26.53,53.98,31.0,7.0,100,10,,4.97,29.970472,,,,,,,,,,,CLR,,,,,,,,MVFR,,,,,,,,,,,,METAR,30.0
LFMY 240730Z AUTO 05007KT CAVOK 08/02 Q0998,LFMY,2018-03-24T07:30:00Z,43.6,5.08,8.0,2.0,50,7,,6.21,29.468504,,,TRUE,,,,,,,,CAVOK,,,,,,,,VFR,,,,,,,,,,,,METAR,60.0
LFMO 240730Z AUTO VRB03KT 9999 OVC078 05/02 Q0998 NOSIG,LFMO,2018-03-24T07:30:00Z,44.12,4.87,5.0,2.0,0,3,,6.21,29.468504,,,TRUE,,,TRUE,,,,,OVC,7800,,,,,,,VFR,,,,,,,,,,,,METAR,55.0
LFMC 240730Z AUTO VRB01KT 9999 ////// 03/01 Q1000,LFMC,2018-03-24T07:30:00Z,43.37,6.37,3.0,1.0,0,1,,6.21,29.52756,,,TRUE,,,,,,,,,,,,,,,,,,,,,,,,,,,,METAR,78.0
LFKS 240730Z AUTO VRB02KT CAVOK 11/03 Q1003,LFKS,2018-03-24T07:30:00Z,41.92,9.4,11.0,3.0,0,2,,6.21,29.616142,,,TRUE,,,,,,,,CAVOK,,,,,,,,VFR,,,,,,,,,,,,METAR,22.0
LFBY 240730Z AUTO 25005KT 220V290 9999 // FEW032 SCT040 BKN048 09/05 Q0997,LFBY,2018-03-24T07:30:00Z,43.67,-1.07,9.0,5.0,250,5,,6.21,29.438976,,,TRUE,,,,,,,,FEW,3200,SCT,4000,BKN,4800,,,VFR,,,,,,,,,,,,METAR,32.0
LFBM 240730Z AUTO 22004KT 190V260 9999 FEW020/// SCT026/// BKN032/// ///TCU 07/06 Q0997 BECMG BKN012 BKN020,LFBM,2018-03-24T07:30:00Z,43.92,-0.5,7.0,6.0,220,4,,6.21,29.438976,,,TRUE,,,,,,,,FEW,2000,SCT,2600,BKN,3200,,,VFR,,,,,,,,,,,,SPECI,63.0
LFBG 240730Z AUTO 16008KT 9999 BKN026 BKN032 OVC049 07/05 Q0995,LFBG,2018-03-24T07:30:00Z,45.67,-0.32,7.0,5.0,160,8,,6.21,29.379921,,,TRUE,,,,,,,,BKN,2600,BKN,3200,OVC,4900,,,MVFR,,,,,,,,,,,,METAR,31.0
LFBC 240730Z AUTO 23009KT 9999 FEW020 SCT026 BKN033 09/06 Q0995,LFBC,2018-03-24T07:30:00Z,44.52,-1.12,9.0,6.0,230,9,,6.21,29.379921,,,TRUE,,,,,,,,FEW,2000,SCT,2600,BKN,3300,,,VFR,,,,,,,,,,,,METAR,33.0
VOMD 240730Z 11004KT 8000 FEW018 36/23 Q1009 NOSIG,VOMD,2018-03-24T07:30:00Z,9.82,78.07,36.0,23.0,110,4,,4.97,29.793306,,,,,,TRUE,,,,,FEW,1800,,,,,,,MVFR,,,,,,,,,,,,METAR,131.0
VOND 240730Z 32002KT 6000 NSC 38/04 Q1013 NOSIG,VOND,2018-03-24T07:30:00Z,19.18,77.32,38.0,4.0,320,2,,3.73,29.911417,,,,,,TRUE,,,,,CLR,,,,,,,,MVFR,,,,,,,,,,,,METAR,86.0
VOMY 240730Z 10008KT 8000 FEW015 30/11 Q1014,VOMY,2018-03-24T07:30:00Z,12.23,76.65,30.0,11.0,100,8,,4.97,29.940945,,,,,,,,,,,FEW,1500,,,,,,,MVFR,,,,,,,,,,,,METAR,722.0
VIJP 240730Z 32008KT 5000 HZ NSC 31/01 Q1016 NOSIG,VIJP,2018-03-24T07:30:00Z,26.82,75.78,31.0,1.0,320,8,,3.11,30.0,,,,,,TRUE,,,,HZ,CLR,,,,,,,,MVFR,,,,,,,,,,,,METAR,390.0
VOTP 240730Z 32008KT 5000 HZ FEW020 35/21 Q1009,VOTP,2018-03-24T07:30:00Z,13.63,79.55,35.0,21.0,320,8,,3.11,29.793306,,,,,,,,,,HZ,FEW,2000,,,,,,,MVFR,,,,,,,,,,,,METAR,107.0
VEGY 240730Z 31008KT 5000 HZ NSC 34/08 Q1012 NOSIG,VEGY,2018-03-24T07:30:00Z,24.75,84.95,34.0,8.0,310,8,,3.11,29.88189,,,,,,TRUE,,,,HZ,CLR,,,,,,,,MVFR,,,,,,,,,,,,METAR,116.0
VAAH 240730Z 07005KT 6000 FEW080 37/05 Q1013 NOSIG,VAAH,2018-03-24T07:30:00Z,23.07,72.62,37.0,5.0,70,5,,3.73,29.911417,,,,,,TRUE,,,,,FEW,8000,,,,,,,MVFR,,,,,,,,,,,,METAR,55.0
VOCL 240730Z 23006KT 7000 FEW015 34/22 Q1008 NOSIG,VOCL,2018-03-24T07:30:00Z,11.13,75.95,34.0,22.0,230,6,,4.35,29.763779,,,,,,TRUE,,,,,FEW,1500,,,,,,,MVFR,,,,,,,,,,,,METAR,104.0
VOHS 240730Z VRB03KT 6000 NSC 37/25 Q1013 NOSIG,VOHS,2018-03-24T07:30:00Z,17.23,78.43,37.0,25.0,0,3,,3.73,29.911417,,,,,,TRUE,,,,,CLR,,,,,,,,MVFR,,,,,,,,,,,,METAR,1.0
VOMM 240730Z 18008KT 4000 HZ SCT020 BKN100 34/23 Q1010 NOSIG,VOMM,2018-03-24T07:30:00Z,13.0,80.17,34.0,23.0,180,8,,2.49,29.822834,,,,,,TRUE,,,,HZ,SCT,2000,BKN,10000,,,,,IFR,,,,,,,,,,,,METAR,16.0
VOTK 240730Z 09005KT 6000 FEW020 34/20 Q1009,VOTK,2018-03-24T07:30:00Z,8.72,78.02,34.0,20.0,90,5,,3.73,29.793306,,,,,,,,,,,FEW,2000,,,,,,,MVFR,,,,,,,,,,,,METAR,25.0
VEAT 240730Z 26003KT 4000 HZ SCT018 33/21 Q1011 BECMG 5000 HZ,VEAT,2018-03-24T07:30:00Z,23.87,91.25,33.0,21.0,260,3,,2.49,29.852362,,,,,,,,,,HZ,SCT,1800,,,,,,,IFR,,,,,,,,,,,,METAR,16.0
VEMN 240730Z Z 12003 KT 5000 HZ FEW020 SCT100 26/17 Q1013 NOSIG,VEMN,2018-03-24T07:30:00Z,27.47,95.02,26.0,17.0,120,3,,3.11,29.911417,,,,,,TRUE,,,,HZ,FEW,2000,SCT,10000,,,,,MVFR,,,,,,,,,,,,METAR,111.0
LFBL 240730Z AUTO 16006KT 3800 -RA BR OVC002 05/04 Q0995 BECMG SCT012TCU BKN030,LFBL,2018-03-24T07:30:00Z,45.87,1.17,5.0,4.0,160,6,,2.36,29.379921,,,TRUE,,,,,,,-RA BR,OVC,200,,,,,,,LIFR,,,,,,,,,,,,SPECI,402.0
LFBI 240730Z AUTO 15006KT 9999 -RA BKN005 BKN010 OVC034 06/06 Q0995 BECMG BKN030,LFBI,2018-03-24T07:30:00Z,46.57,0.32,6.0,6.0,150,6,,6.21,29.379921,,,TRUE,,,,,,,-RA,BKN,500,BKN,1000,OVC,3400,,,IFR,,,,,,,,,,,,SPECI,120.0
LFSB 240730Z VRB02KT 0300 R15/0400N R33/0400N FG VV/// M00/M00 Q1000 NOSIG,LFSB,2018-03-24T07:30:00Z,47.6,7.52,0.0,0.0,0,2,,0.19,29.52756,,,,,,TRUE,,,,FG,OVX,0,,,,,,,LIFR,,,,,,,,,,,,SPECI,271.0
LFRN 240730Z AUTO 10007KT 080V140 CAVOK 08/07 Q0994 TEMPO BKN005,LFRN,2018-03-24T07:30:00Z,48.07,-1.72,8.0,7.0,100,7,,6.21,29.350393,,,TRUE,,,,,,,,CAVOK,,,,,,,,VFR,,,,,,,,,,,,SPECI,37.0
LFRD 240730Z AUTO 09005KT CAVOK 07/07 Q0994 NOSIG,LFRD,2018-03-24T07:30:00Z,48.58,-2.07,7.0,7.0,90,5,,6.21,29.350393,,,TRUE,,,TRUE,,,,,CAVOK,,,,,,,,VFR,,,,,,,,,,,,METAR,59.0
LFPB 240730Z AUTO 09007KT 9999 OVC029 06/03 Q0998 NOSIG,LFPB,2018-03-24T07:30:00Z,48.97,2.45,6.0,3.0,90,7,,6.21,29.468504,,,TRUE,,,TRUE,,,,,OVC,2900,,,,,,,MVFR,,,,,,,,,,,,METAR,65.0
LFOK 240730Z AUTO 06007KT 2100 BR VV/// 02/02 Q0999 BECMG 9999 NSW SCT020,LFOK,2018-03-24T07:30:00Z,48.78,4.18,2.0,2.0,60,7,,1.3,29.498032,,,TRUE,,,,,,,BR,OVX,0,,,,,,,LIFR,,,,,,,,,,,,SPECI,162.0
LFOB 240730Z AUTO 10006KT 040V120 9999 -RA OVC022 05/03 Q0998 NOSIG,LFOB,2018-03-24T07:30:00Z,49.47,2.12,5.0,3.0,100,6,,6.21,29.468504,,,TRUE,,,TRUE,,,,-RA,OVC,2200,,,,,,,MVFR,,,,,,,,,,,,METAR,111.0
LFMU 240730Z AUTO 31011KT 6000 RA OVC018/// ///TCU 06/05 Q0997 BECMG OVC010,LFMU,2018-03-24T07:30:00Z,43.32,3.35,6.0,5.0,310,11,,3.73,29.438976,,,TRUE,,,,,,,RA,OVC,1800,,,,,,,MVFR,,,,,,,,,,,,SPECI,17.0
LFMT 240730Z AUTO 04008KT 010V070 9999 SCT021/// OVC078/// ///TCU 08/03 Q0997 TEMPO RA OVC010,LFMT,2018-03-24T07:30:00Z,43.57,3.97,8.0,3.0,40,8,,6.21,29.438976,,,TRUE,,,,,,,,SCT,2100,OVC,7800,,,,,VFR,,,,,,,,,,,,METAR,6.0
LFMK 240730Z AUTO 29008KT 9999 -RA FEW012 OVC041 06/04 Q0999 BECMG RA OVC010,LFMK,2018-03-24T07:30:00Z,43.22,2.32,6.0,4.0,290,8,,6.21,29.498032,,,TRUE,,,,,,,-RA,FEW,1200,OVC,4100,,,,,VFR,,,,,,,,,,,,SPECI,130.0
LFLY 240730Z AUTO 00000KT 7000 NSC 02/M00 Q0998 NOSIG,LFLY,2018-03-24T07:30:00Z,45.72,4.95,2.0,0.0,0,0,,4.35,29.468504,,,TRUE,,,TRUE,,,,,CLR,,,,,,,,MVFR,,,,,,,,,,,,METAR,201.0
LFSL 240730Z AUTO 27005KT 240V310 9999 -RA BKN007 BKN015 BKN026 05/04 Q0996 BECMG SCT013TCU BKN035,LFSL,2018-03-24T07:30:00Z,45.03,1.48,5.0,4.0,270,5,,6.21,29.409449,,,TRUE,,,,,,,-RA,BKN,700,BKN,1500,BKN,2600,,,IFR,,,,,,,,,,,,SPECI,310.0
LFMV 240730Z AUTO 01003KT 340V040 9999 OVC080 05/03 Q0998 BECMG 14012KT,LFMV,2018-03-24T07:30:00Z,43.9,4.9,5.0,3.0,10,3,,6.21,29.468504,,,TRUE,,,,,,,,OVC,8000,,,,,,,VFR,,,,,,,,,,,,SPECI,38.0
LFMP 240730Z AUTO 31006KT 280V360 9999 -RA FEW034/// BKN041/// OVC047/// ///TCU 06/04 Q0998 BECMG RA OVC010,LFMP,2018-03-24T07:30:00Z,42.72,2.87,6.0,4.0,310,6,,6.21,29.468504,,,TRUE,,,,,,,-RA,FEW,3400,BKN,4100,OVC,4700,,,VFR,,,,,,,,,,,,SPECI,48.0
LFLS 240730Z AUTO 09009KT 9000 NSC 04/01 Q0998 NOSIG,LFLS,2018-03-24T07:30:00Z,45.37,5.32,4.0,1.0,90,9,,5.59,29.468504,,,TRUE,,,TRUE,,,,,CLR,,,,,,,,VFR,,,,,,,,,,,,METAR,386.0
LFLC 240730Z AUTO 03003KT 350V050 CAVOK 05/01 Q0996 NOSIG,LFLC,2018-03-24T07:30:00Z,45.77,3.17,5.0,1.0,30,3,,6.21,29.409449,,,TRUE,,,TRUE,,,,,CAVOK,,,,,,,,VFR,,,,,,,,,,,,METAR,330.0
LFKJ 240730Z AUTO 02003KT 360V060 CAVOK 09/04 Q1001 NOSIG,LFKJ,2018-03-24T07:30:00Z,41.92,8.8,9.0,4.0,20,3,,6.21,29.557087,,,TRUE,,,TRUE,,,,,CAVOK,,,,,,,,VFR,,,,,,,,,,,,METAR,9.0
LFKF 240730Z AUTO 07009KT 040V100 CAVOK 11/03 Q1002 BECMG 06015G25KT,LFKF,2018-03-24T07:30:00Z,41.5,9.08,11.0,3.0,70,9,,6.21,29.586615,,,TRUE,,,,,,,,CAVOK,,,,,,,,VFR,,,,,,,,,,,,SPECI,23.0
LFKC 240730Z AUTO 19004KT 160V220 CAVOK 10/03 Q1001 NOSIG,LFKC,2018-03-24T07:30:00Z,42.52,8.8,10.0,3.0,190,4,,6.21,29.557087,,,TRUE,,,TRUE,,,,,CAVOK,,,,,,,,VFR,,,,,,,,,,,,METAR,58.0
LFJL 240730Z AUTO 09006KT 5000 BR NSC 03/02 Q1000 NOSIG,LFJL,2018-03-24T07:30:00Z,48.97,6.25,3.0,2.0,90,6,,3.11,29.52756,,,TRUE,,,TRUE,,,,BR,CLR,,,,,,,,MVFR,,,,,,,,,,,,METAR,264.0
LFCR 240730Z AUTO 24006KT 9999 -RA BKN009 OVC015 03/02 Q0997 TEMPO 4000,LFCR,2018-03-24T07:30:00Z,44.38,2.47,3.0,2.0,240,6,,6.21,29.438976,,,TRUE,,,,,,,-RA,BKN,900,OVC,1500,,,,,IFR,,,,,,,,,,,,SPECI,580.0
LETL 240730Z AUTO 33017KT 290V350 9999 BKN032/// BKN040/// 02/M03 Q0998,LETL,2018-03-24T07:30:00Z,40.42,-1.22,2.0,-3.0,330,17,,6.21,29.468504,,,TRUE,,,,,,,,BKN,3200,BKN,4000,,,,,VFR,,,,,,,,,,,,METAR,1013.0
LEAG 240730Z AUTO 31017G33KT 250V030 CAVOK 11/05 Q1012,LEAG,2018-03-24T07:30:00Z,,,11.0,5.0,310,17,33,6.21,29.88189,,,TRUE,,,,,,,,CAVOK,,,,,,,,VFR,,,,,,,,,,,,METAR,
GCXO 240730Z 30020KT 9999 FEW003 BKN010 12/12 Q1025 NOSIG,GCXO,2018-03-24T07:30:00Z,28.48,-16.35,12.0,12.0,300,20,,6.21,30.265747,,,,,,TRUE,,,,,FEW,300,BKN,1000,,,,,MVFR,,,,,,,,,,,,METAR,632.0
GCTS 240730Z 36006KT 320V050 9999 FEW030 15/11 Q1024 NOSIG,GCTS,2018-03-24T07:30:00Z,28.05,-16.57,15.0,11.0,360,6,,6.21,30.236221,,,,,,TRUE,,,,,FEW,3000,,,,,,,VFR,,,,,,,,,,,,METAR,72.0
GCRR 240730Z 35011KT 320V020 9999 FEW025 BKN040 18/14 Q1023,GCRR,2018-03-24T07:30:00Z,28.93,-13.58,18.0,14.0,350,11,,6.21,30.206694,,,,,,,,,,,FEW,2500,BKN,4000,,,,,VFR,,,,,,,,,,,,METAR,40.0
GCLP 240730Z 01014KT 9999 FEW025 BKN035 18/13 Q1024 NOSIG,GCLP,2018-03-24T07:30:00Z,27.92,-15.37,18.0,13.0,10,14,,6.21,30.236221,,,,,,TRUE,,,,,FEW,2500,BKN,3500,,,,,VFR,,,,,,,,,,,,METAR,25.0
GCLA 240730Z 34008KT 9999 BKN030 17/11 Q1025,GCLA,2018-03-24T07:30:00Z,28.62,-17.75,17.0,11.0,340,8,,6.21,30.265747,,,,,,,,,,,BKN,3000,,,,,,,MVFR,,,,,,,,,,,,METAR,31.0
GCFV 240730Z 36009KT 9999 FEW030 BKN040 18/14 Q1023,GCFV,2018-03-24T07:30:00Z,28.43,-13.87,18.0,14.0,360,9,,6.21,30.206694,,,,,,,,,,,FEW,3000,BKN,4000,,,,,VFR,,,,,,,,,,,,METAR,23.0
GCHI 240730Z 02016KT 350V050 9999 SCT024 BKN030 18/13 Q1025,GCHI,2018-03-24T07:30:00Z,27.82,-17.87,18.0,13.0,20,16,,6.21,30.265747,,,,,,,,,,,SCT,2400,BKN,3000,,,,,MVFR,,,,,,,,,,,,METAR,30.0
GCGM 240730Z VRB05KT 9999 FEW020 15/11 Q1024 RMK R09/33006KT 290V030 ARP/35005KT 280V070,GCGM,2018-03-24T07:30:00Z,28.03,-17.22,15.0,11.0,0,5,,6.21,30.236221,,,,,,,,,,,FEW,2000,,,,,,,VFR,,,,,,,,,,,,METAR,219.0
LEJR 240730Z 29009KT 250V320 9999 FEW035 09/07 Q1014,LEJR,2018-03-24T07:30:00Z,36.75,-6.07,9.0,7.0,290,9,,6.21,29.940945,,,,,,,,,,,FEW,3500,,,,,,,VFR,,,,,,,,,,,,METAR,30.0
LEXJ 240730Z 24014KT 200V260 9999 FEW024 SCT033 BKN050 08/04 Q0998,LEXJ,2018-03-24T07:30:00Z,43.42,-3.82,8.0,4.0,240,14,,6.21,29.468504,,,,,,,,,,,FEW,2400,SCT,3300,BKN,5000,,,VFR,,,,,,,,,,,,METAR,6.0
LEPP 240730Z VRB01KT 9999 FEW049 02/01 Q0998,LEPP,2018-03-24T07:30:00Z,42.77,-1.65,2.0,1.0,0,1,,6.21,29.468504,,,,,,,,,,,FEW,4900,,,,,,,VFR,,,,,,,,,,,,METAR,459.0
LELL 240730Z 23001KT 4000 -RA BKN009 BKN015 08/08 Q0994,LELL,2018-03-24T07:30:00Z,41.52,2.1,8.0,8.0,230,1,,2.49,29.350393,,,,,,,,,,-RA,BKN,900,BKN,1500,,,,,IFR,,,,,,,,,,,,METAR,250.0
LEVS 240730Z 26013KT 9999 BKN041 05/M02 Q1003,LEVS,2018-03-24T07:30:00Z,40.37,-3.77,5.0,-2.0,260,13,,6.21,29.616142,,,,,,,,,,,BKN,4100,,,,,,,VFR,,,,,,,,,,,,METAR,687.0
LEVD 240730Z 25019KT 9999 BKN012 BKN043 01/M01 Q1002,LEVD,2018-03-24T07:30:00Z,41.72,-4.83,1.0,-1.0,250,19,,6.21,29.586615,,,,,,,,,,,BKN,1200,BKN,4300,,,,,MVFR,,,,,,,,,,,,METAR,854.0
LESA 240730Z 28018KT 9999 FEW016 SCT030 02/M01 Q1004,LESA,2018-03-24T07:30:00Z,40.95,-5.5,2.0,-1.0,280,18,,6.21,29.64567,,,,,,,,,,,FEW,1600,SCT,3000,,,,,VFR,,,,,,,,,,,,METAR,795.0
LEZG 240730Z 27010KT 9999 FEW040 07/02 Q0998,LEZG,2018-03-24T07:30:00Z,41.67,-1.02,7.0,2.0,270,10,,6.21,29.468504,,,,,,,,,,,FEW,4000,,,,,,,VFR,,,,,,,,,,,,METAR,258.0
LEVT 240730Z 22014KT 9999 FEW015 03/00 Q0998,LEVT,2018-03-24T07:30:00Z,42.87,-2.72,3.0,0.0,220,14,,6.21,29.468504,,,,,,,,,,,FEW,1500,,,,,,,VFR,,,,,,,,,,,,METAR,509.0
LEST 240730Z 32013G23KT 280V350 9999 SCT025 FEW030TCU SCT045 06/04 Q1006 TEMPO 3000 SHRA,LEST,2018-03-24T07:30:00Z,42.88,-8.42,6.0,4.0,320,13,23,6.21,29.704725,,,,,,,,,,,SCT,2500,FEW,3000,SCT,4500,,,VFR,,,,,,,,,,,,SPECI,367.0
LESO 240730Z 24005KT 210V280 9999 SCT050 08/02 Q0997,LESO,2018-03-24T07:30:00Z,43.35,-1.8,8.0,2.0,240,5,,6.21,29.438976,,,,,,,,,,,SCT,5000,,,,,,,VFR,,,,,,,,,,,,METAR,8.0
LERS 240730Z 26015KT 9999 FEW020 SCT040 09/05 Q0994,LERS,2018-03-24T07:30:00Z,41.13,1.17,9.0,5.0,260,15,,6.21,29.350393,,,,,,,,,,,FEW,2000,SCT,4000,,,,,VFR,,,,,,,,,,,,METAR,76.0
LEMH 240730Z 22010KT 7000 -RA BKN007 BKN015 12/11 Q0995,LEMH,2018-03-24T07:30:00Z,39.87,4.22,12.0,11.0,220,10,,4.35,29.379921,,,,,,,,,,-RA,BKN,700,BKN,1500,,,,,IFR,,,,,,,,,,,,METAR,82.0
LEGR 240730Z 31010KT 9999 FEW030 SCT045 07/02 Q1008,LEGR,2018-03-24T07:30:00Z,37.17,-3.77,7.0,2.0,310,10,,6.21,29.763779,,,,,,,,,,,FEW,3000,SCT,4500,,,,,VFR,,,,,,,,,,,,METAR,559.0
LEGE 240730Z 04014KT 4000 RA FEW005 BKN025 06/06 Q0994,LEGE,2018-03-24T07:30:00Z,41.88,2.77,6.0,6.0,40,14,,2.49,29.350393,,,,,,,,,,RA,FEW,500,BKN,2500,,,,,IFR,,,,,,,,,,,,METAR,129.0
LECO 240730Z 33026G46KT 280V020 9000 FEW031 SCT039 BKN049 09/04 Q1005 TEMPO 3000 SHRA SCT030TCU,LECO,2018-03-24T07:30:00Z,43.28,-8.37,9.0,4.0,330,26,46,5.59,29.675198,,,,,,,,,,,FEW,3100,SCT,3900,BKN,4900,,,VFR,,,,,,,,,,,,SPECI,103.0
LEBB 240730Z 24007KT 190V280 9999 SCT050 SCT070 09/02 Q0998 NOSIG,LEBB,2018-03-24T07:30:00Z,43.28,-2.92,9.0,2.0,240,7,,6.21,29.468504,,,,,,TRUE,,,,,SCT,5000,SCT,7000,,,,,VFR,,,,,,,,,,,,METAR,34.0
LEAS 240730Z 27027G39KT 240V300 4100 SHRA SCT017 BKN029TCU BKN044 08/06 Q0998 TEMPO 9999 NSW,LEAS,2018-03-24T07:30:00Z,43.53,-6.02,8.0,6.0,270,27,39,2.55,29.468504,,,,,,,,,,SHRA,SCT,1700,BKN,2900,BKN,4400,,,IFR,,,,,,,,,,,,SPECI,134.0
LEAM 240730Z 33029G43KT 9999 FEW040 14/M02 Q1001,LEAM,2018-03-24T07:30:00Z,36.85,-2.37,14.0,-2.0,330,29,43,6.21,29.557087,,,,,,,,,,,FEW,4000,,,,,,,VFR,,,,,,,,,,,,METAR,21.0
LEZL 240730Z 26006KT 230V290 9999 FEW040 10/04 Q1012 NOSIG,LEZL,2018-03-24T07:30:00Z,37.42,-5.9,10.0,4.0,260,6,,6.21,29.88189,,,,,,TRUE,,,,,FEW,4000,,,,,,,VFR,,,,,,,,,,,,METAR,31.0
LEVX 240730Z 31011G24KT 230V030 5000 BR SCT031 BKN046 09/02 Q1008 NOSIG,LEVX,2018-03-24T07:30:00Z,42.22,-8.62,9.0,2.0,310,11,24,3.11,29.763779,,,,,,TRUE,,,,BR,SCT,3100,BKN,4600,,,,,MVFR,,,,,,,,,,,,METAR,256.0
LEVC 240730Z 29024G36KT 9999 FEW030 12/M04 Q0997 NOSIG,LEVC,2018-03-24T07:30:00Z,39.5,-0.47,12.0,-4.0,290,24,36,6.21,29.438976,,,,,,TRUE,,,,,FEW,3000,,,,,,,VFR,,,,,,,,,,,,METAR,62.0
LEPA 240730Z 21007KT 6000 -RA SCT010 BKN033 13/12 Q0994 NOSIG,LEPA,2018-03-24T07:30:00Z,39.53,2.72,13.0,12.0,210,7,,3.73,29.350393,,,,,,TRUE,,,,-RA,SCT,1000,BKN,3300,,,,,MVFR,,,,,,,,,,,,METAR,8.0
LEMG 240730Z 30017G29KT 270V330 9999 FEW040 SCT080 11/04 Q1009 NOSIG,LEMG,2018-03-24T07:30:00Z,36.67,-4.5,11.0,4.0,300,17,29,6.21,29.793306,,,,,,TRUE,,,,,FEW,4000,SCT,8000,,,,,VFR,,,,,,,,,,,,METAR,7.0
LEMD 240730Z 28018KT 9999 FEW045 05/M01 Q1003 NOSIG,LEMD,2018-03-24T07:30:00Z,40.48,-3.57,5.0,-1.0,280,18,,6.21,29.616142,,,,,,TRUE,,,,,FEW,4500,,,,,,,VFR,,,,,,,,,,,,METAR,582.0
LEIB 240730Z 28016KT 9999 -RA FEW013 BKN045 12/08 Q0995 NOSIG,LEIB,2018-03-24T07:30:00Z,38.87,1.37,12.0,8.0,280,16,,6.21,29.379921,,,,,,TRUE,,,,-RA,FEW,1300,BKN,4500,,,,,VFR,,,,,,,,,,,,METAR,12.0
LEBL 240730Z 33005KT 250V010 6000 -RA SCT008 BKN030 09/08 Q0993 NOSIG,LEBL,2018-03-24T07:30:00Z,41.27,2.07,9.0,8.0,330,5,,3.73,29.320866,,,,,,TRUE,,,,-RA,SCT,800,BKN,3000,,,,,MVFR,,,,,,,,,,,,METAR,6.0
LEAL 240730Z VRB05KT CAVOK 11/01 Q0999 NOSIG,LEAL,2018-03-24T07:30:00Z,38.27,-0.55,11.0,1.0,0,5,,6.21,29.498032,,,,,,TRUE,,,,,CAVOK,,,,,,,,VFR,,,,,,,,,,,,METAR,31.0
VECC 240730Z 11007KT 2800 HZ FEW020 SCT100 34/23 Q1010 NOSIG,VECC,2018-03-24T07:30:00Z,22.65,88.43,34.0,23.0,110,7,,1.74,29.822834,,,,,,TRUE,,,,HZ,FEW,2000,SCT,10000,,,,,IFR,,,,,,,,,,,,METAR,6.0
VEPT 240730Z 27004KT 5000 HZ NSC 36/13 Q1010 NOSIG,VEPT,2018-03-24T07:30:00Z,25.6,85.08,36.0,13.0,270,4,,3.11,29.822834,,,,,,TRUE,,,,HZ,CLR,,,,,,,,MVFR,,,,,,,,,,,,METAR,60.0
LEHC 240730Z AUTO 27020KT 250V310 CAVOK 05/M01 Q0995,LEHC,2018-03-24T07:30:00Z,42.08,-0.32,5.0,-1.0,270,20,,6.21,29.379921,,,TRUE,,,,,,,,CAVOK,,,,,,,,VFR,,,,,,,,,,,,METAR,539.0
LEBG 240730Z 23018KT 9999 BKN011 01/M01 Q0999,LEBG,2018-03-24T07:30:00Z,42.37,-3.62,1.0,-1.0,230,18,,6.21,29.498032,,,,,,,,,,,BKN,1100,,,,,,,MVFR,,,,,,,,,,,,METAR,891.0
LEBA 240730Z AUTO 26007KT 230V290 9999 NCD 08/04 Q1010,LEBA,2018-03-24T07:30:00Z,37.85,-4.82,8.0,4.0,260,7,,6.21,29.822834,,,TRUE,,,,,,,,CLR,,,,,,,,VFR,,,,,,,,,,,,METAR,92.0
LECH 240730Z AUTO 35004G15KT 9999 -RA NSC 09/M01 Q0994,LECH,2018-03-24T07:30:00Z,40.2,0.07,9.0,-1.0,350,4,15,6.21,29.350393,,,TRUE,,,,,,,-RA,CLR,,,,,,,,VFR,,,,,,,,,,,,METAR,337.0
RKSI 240730Z 23009KT 1400 R33R/P2000N R33L/P2000N R34/1300U BR FEW003 SCT030 07/04 Q1022 NOSIG,RKSI,2018-03-24T07:30:00Z,37.47,126.45,7.0,4.0,230,9,,0.87,30.177166,,,,,,TRUE,,,,BR,FEW,300,SCT,3000,,,,,LIFR,,,,,,,,,,,,SPECI,7.0
LPPD 240730Z VRB02KT 9999 SCT016 BKN030 16/13 Q1029,LPPD,2018-03-24T07:30:00Z,37.72,-25.68,16.0,13.0,0,2,,6.21,30.383858,,,,,,,,,,,SCT,1600,BKN,3000,,,,,MVFR,,,,,,,,,,,,METAR,72.0
LPAZ 240730Z 32009KT 9999 FEW006 BKN025 16/15 Q1029,LPAZ,2018-03-24T07:30:00Z,36.97,-25.17,16.0,15.0,320,9,,6.21,30.383858,,,,,,,,,,,FEW,600,BKN,2500,,,,,MVFR,,,,,,,,,,,,METAR,100.0
LRTR 240730Z 14004KT 5000 BR FEW033 M00/M01 Q1006 R11/190095 NOSIG,LRTR,2018-03-24T07:30:00Z,45.82,21.33,0.0,-1.0,140,4,,3.11,29.704725,,,,,,TRUE,,,,BR,FEW,3300,,,,,,,MVFR,,,,,,,,,,,,SPECI,88.0
LRSB 240730Z 15005KT 9999 FEW007 SCT009 BKN031 M02/M04 Q1005 R27/19//95,LRSB,2018-03-24T07:30:00Z,45.78,24.08,-2.0,-4.0,150,5,,6.21,29.675198,,,,,,,,,,,FEW,700,SCT,900,BKN,3100,,,VFR,,,,,,,,,,,,METAR,444.0
LROP 240730Z 25007KT 8000 BKN011 OVC019 M01/M04 Q1007 R08R/19//95 R08L/19//95 NOSIG,LROP,2018-03-24T07:30:00Z,44.57,26.1,-1.0,-4.0,250,7,,4.97,29.734253,,,,,,TRUE,,,,,BKN,1100,OVC,1900,,,,,MVFR,,,,,,,,,,,,SPECI,95.0
LRCK 240730Z 34007KT 5000 BR OVC007 M01/M02 Q1005 R36/CLRD// BECMG OVC010,LRCK,2018-03-24T07:30:00Z,44.37,28.48,-1.0,-2.0,340,7,,3.11,29.675198,,,,,,,,,,BR,OVC,700,,,,,,,IFR,,,,,,,,,,,,SPECI,108.0
LRBS 240730Z 25007KT 9999 FEW011 OVC019 M01/M03 Q1007 R07/19//95 NOSIG,LRBS,2018-03-24T07:30:00Z,44.5,26.08,-1.0,-3.0,250,7,,6.21,29.734253,,,,,,TRUE,,,,,FEW,1100,OVC,1900,,,,,MVFR,,,,,,,,,,,,SPECI,91.0
LRTC 240730Z 36012KT 9999 OVC010 00/M02 Q1005 R16/899091,LRTC,2018-03-24T07:30:00Z,45.07,28.72,0.0,-2.0,360,12,,6.21,29.675198,,,,,,,,,,,OVC,1000,,,,,,,MVFR,,,,,,,,,,,,SPECI,6.0
UMMS 240730Z 02001MPS CAVOK M01/M06 Q1008 R31/190060 NOSIG,UMMS,2018-03-24T07:30:00Z,53.88,28.03,-1.0,-6.0,20,2,,6.21,29.763779,,,,,,TRUE,,,,,CAVOK,,,,,,,,VFR,,,,,,,,,,,,METAR,205.0
GOBD 240730Z 06012KT 3200 DU NSC 24/M12 Q1011 NOSIG,GOBD,2018-03-24T07:30:00Z,14.67,-17.07,24.0,-12.0,60,12,,1.99,29.852362,,,,,,TRUE,,,,DU,CLR,,,,,,,,IFR,,,,,,,,,,,,METAR,88.0
UMGG 240730Z 32003MPS 5000 BR SCT003 M04/M04 Q1008 R28/D NOSIG RMK QBB090,UMGG,2018-03-24T07:30:00Z,52.53,31.02,-4.0,-4.0,320,6,,3.11,29.763779,,,,,,TRUE,,,,BR,SCT,300,,,,,,,MVFR,,,,,,,,,,,,METAR,144.0
LFLN 240730Z AUTO 10003KT 060V120 CAVOK 04/02 Q0997 NOSIG,LFLN,2018-03-24T07:30:00Z,46.42,4.02,4.0,2.0,100,3,,6.21,29.438976,,,TRUE,,,TRUE,,,,,CAVOK,,,,,,,,VFR,,,,,,,,,,,,METAR,244.0
LFBT 240730Z AUTO 25006KT 210V270 9999 -RA SCT034 BKN068 OVC082 05/03 Q0998 TEMPO 24015G25KT BECMG SCT020TCU BKN040,LFBT,2018-03-24T07:30:00Z,43.17,0.0,5.0,3.0,250,6,,6.21,29.468504,,,TRUE,,,,,,,-RA,SCT,3400,BKN,6800,OVC,8200,,,VFR,,,,,,,,,,,,SPECI,363.0
LFBP 240730Z AUTO 24005KT 210V280 9999 -RA BKN028/// BKN036/// OVC056/// ///TCU 06/04 Q0998 BECMG BKN030,LFBP,2018-03-24T07:30:00Z,43.37,-0.42,6.0,4.0,240,5,,6.21,29.468504,,,TRUE,,,,,,,-RA,BKN,2800,BKN,3600,OVC,5600,,,MVFR,,,,,,,,,,,,SPECI,185.0
LFBO 240730Z AUTO 21007KT 9999 FEW030/// BKN040/// OVC056/// ///TCU 06/04 Q0998 TEMPO 4000 RA BKN014 OVC030,LFBO,2018-03-24T07:30:00Z,43.62,1.37,6.0,4.0,210,7,,6.21,29.468504,,,TRUE,,,,,,,,FEW,3000,BKN,4000,OVC,5600,,,VFR,,,,,,,,,,,,METAR,153.0
LRAR 240730Z 36002KT 4900 BR SCT009 01/01 Q1006 R09/19//95,LRAR,2018-03-24T07:30:00Z,46.18,21.27,1.0,1.0,360,2,,3.04,29.704725,,,,,,,,,,BR,SCT,900,,,,,,,MVFR,,,,,,,,,,,,METAR,118.0
LJCE 240730Z VRB01KT 9999 SCT035 BKN070 04/M00 Q1005 R09/CLRD// RMK BLU,LJCE,2018-03-24T07:30:00Z,45.9,15.52,4.0,0.0,0,1,,6.21,29.675198,,,,,,,,,,,SCT,3500,BKN,7000,,,,,VFR,,,,,,,,,,,,METAR,155.0
LFTW 240730Z AUTO 06004KT 9999 OVC025 07/02 Q0998 NOSIG,LFTW,2018-03-24T07:30:00Z,43.75,4.42,7.0,2.0,60,4,,6.21,29.468504,,,TRUE,,,TRUE,,,,,OVC,2500,,,,,,,MVFR,,,,,,,,,,,,METAR,96.0
LFPM 240730Z AUTO 08008KT 9999 BKN027 BKN054 BKN064 05/02 Q0998,LFPM,2018-03-24T07:30:00Z,48.62,2.67,5.0,2.0,80,8,,6.21,29.468504,,,TRUE,,,,,,,,BKN,2700,BKN,5400,BKN,6400,,,MVFR,,,,,,,,,,,,METAR,92.0
LFRH 240730Z AUTO 07010KT CAVOK 07/06 Q0992 TEMPO SHRA SCT020TCU BKN030 BKN040,LFRH,2018-03-24T07:30:00Z,47.77,-3.45,7.0,6.0,70,10,,6.21,29.291338,,,TRUE,,,,,,,,CAVOK,,,,,,,,VFR,,,,,,,,,,,,SPECI,44.0
DTTA 240730Z 22010KT 9999 FEW026TCU 11/07 Q1004 NOSIG,DTTA,2018-03-24T07:30:00Z,36.85,10.22,11.0,7.0,220,10,,6.21,29.64567,,,,,,TRUE,,,,,FEW,2600,,,,,,,VFR,,,,,,,,,,,,METAR,4.0
DTNH 240730Z 24010KT CAVOK 11/04 Q1005 NOSIG,DTNH,2018-03-24T07:30:00Z,36.07,10.43,11.0,4.0,240,10,,6.21,29.675198,,,,,,TRUE,,,,,CAVOK,,,,,,,,VFR,,,,,,,,,,,,METAR,2.0
DTMB 240730Z 21011KT 8000 NSC 13/05 Q1005,DTMB,2018-03-24T07:30:00Z,35.77,10.75,13.0,5.0,210,11,,4.97,29.675198,,,,,,,,,,,CLR,,,,,,,,MVFR,,,,,,,,,,,,METAR,2.0
ZBAA 240730Z 23003MPS 180V310 CAVOK 24/M08 Q1018 NOSIG,ZBAA,2018-03-24T07:30:00Z,40.07,116.58,24.0,-8.0,230,6,,6.21,30.059055,,,,,,TRUE,,,,,CAVOK,,,,,,,,VFR,,,,,,,,,,,,METAR,30.0
DTTJ 240730Z 25015KT 8000 NSC 15/M01 Q1006 NOSIG,DTTJ,2018-03-24T07:30:00Z,33.87,10.77,15.0,-1.0,250,15,,4.97,29.704725,,,,,,TRUE,,,,,CLR,,,,,,,,MVFR,,,,,,,,,,,,METAR,4.0
ZBTJ 240730Z 28004MPS 250V340 8000 NSC 22/M08 Q1019 NOSIG,ZBTJ,2018-03-24T07:30:00Z,39.12,117.35,22.0,-8.0,280,8,,4.97,30.088583,,,,,,TRUE,,,,,CLR,,,,,,,,MVFR,,,,,,,,,,,,METAR,3.0
ZBYN 240730Z VRB02MPS CAVOK 20/M12 Q1020 NOSIG,ZBYN,2018-03-24T07:30:00Z,37.77,112.63,20.0,-12.0,0,4,,6.21,30.11811,,,,,,TRUE,,,,,CAVOK,,,,,,,,VFR,,,,,,,,,,,,METAR,779.0
ZSHC 240730Z 06004MPS 030V090 CAVOK 23/07 Q1019 NOSIG,ZSHC,2018-03-24T07:30:00Z,30.22,120.43,23.0,7.0,60,8,,6.21,30.088583,,,,,,TRUE,,,,,CAVOK,,,,,,,,VFR,,,,,,,,,,,,METAR,43.0
ZGGG 240730Z 18002MPS 150V210 9999 BKN040 25/16 Q1016 NOSIG,ZGGG,2018-03-24T07:30:00Z,23.4,113.3,25.0,16.0,180,4,,6.21,30.0,,,,,,TRUE,,,,,BKN,4000,,,,,,,VFR,,,,,,,,,,,,METAR,15.0
UAOO 240730Z 13002MPS 090V160 CAVOK 03/M01 Q1024 R05/120065 NOSIG RMK QFE756/1008,UAOO,2018-03-24T07:30:00Z,44.7,65.6,3.0,-1.0,130,4,,6.21,30.236221,,,,,,TRUE,,,,,CAVOK,,,,,,,,VFR,,,,,,,,,,,,SPECI,129.0
UAKK 240730Z 26011MPS 9999 -SHSN BKN019CB M04/M07 Q1013 R23/850545 NOSIG RMK QFE713/0951,UAKK,2018-03-24T07:30:00Z,49.67,73.33,-4.0,-7.0,260,21,,6.21,29.911417,,,,,,TRUE,,,,-SHSN,BKN,1900,,,,,,,MVFR,,,,,,,,,,,,SPECI,538.0
UAII 240730Z 30003MPS 270V330 9999 SCT050CB OVC100 10/06 Q1023 R28/0///70 NOSIG RMK QFE730/0973,UAII,2018-03-24T07:30:00Z,42.37,69.48,10.0,6.0,300,6,,6.21,30.206694,,,,,,TRUE,,,,,SCT,5000,OVC,10000,,,,,VFR,,,,,,,,,,,,SPECI,422.0
UACP 240730Z 24004MPS 9999 FEW016 M07/M10 Q1005 R23/7/1028 NOSIG RMK QFE741/0988,UACP,2018-03-24T07:30:00Z,54.78,69.18,-7.0,-10.0,240,8,,6.21,29.675198,,,,,,TRUE,,,,,FEW,1600,,,,,,,VFR,,,,,,,,,,,,SPECI,142.0
UACK 240730Z 27011MPS 9999 FEW016 M07/M10 Q1007 R20/010260 NOSIG RMK QFE731/0975,UACK,2018-03-24T07:30:00Z,53.32,69.58,-7.0,-10.0,270,21,,6.21,29.734253,,,,,,TRUE,,,,,FEW,1600,,,,,,,VFR,,,,,,,,,,,,SPECI,2547.0
UACC 240730Z 26010G15MPS 9999 BKN013 M05/M08 Q1011 R22/25//50 NOSIG RMK QFE727/0970,UACC,2018-03-24T07:30:00Z,51.02,71.47,-5.0,-8.0,260,19,29,6.21,29.852362,,,,,,TRUE,,,,,BKN,1300,,,,,,,MVFR,,,,,,,,,,,,METAR,355.0
UADD 240730Z 13003MPS 090V150 9999 BKN006 OVC100 05/05 Q1022 R13/290056 NOSIG RMK QBB200 MT OBSC QFE709/0946,UADD,2018-03-24T07:30:00Z,42.85,71.3,5.0,5.0,130,6,,6.21,30.177166,,,,,,TRUE,,,,,BKN,600,OVC,10000,,,,,IFR,,,,,,,,,,,,SPECI,665.0
UAAH 240730Z 29010G17MPS 270V330 9999 SCT030 05/M07 Q1017 R23/0///60 NOSIG RMK QFE724/0965,UAAH,2018-03-24T07:30:00Z,46.9,75.0,5.0,-7.0,290,19,33,6.21,30.029528,,,,,,TRUE,,,,,SCT,3000,,,,,,,VFR,,,,,,,,,,,,SPECI,441.0
UAAA 240730Z 26005MPS 9999 SCT050CB OVC100 14/08 Q1020 R88/65D NOSIG,UAAA,2018-03-24T07:30:00Z,43.35,77.03,14.0,8.0,260,10,,6.21,30.11811,,,,,,TRUE,,,,,SCT,5000,OVC,10000,,,,,VFR,,,,,,,,,,,,METAR,681.0
UDSG 240730Z 20016KT 9999 FEW046CB SCT046 18/M07 Q1008 R02/CLRD70 NOSIG,UDSG,2018-03-24T07:30:00Z,40.75,43.87,18.0,-7.0,200,16,,6.21,29.763779,,,,,,TRUE,,,,,FEW,4600,SCT,4600,,,,,VFR,,,,,,,,,,,,METAR,1524.0
UDYZ 240730Z 14014KT 9999 NSC 24/M04 Q1007 R09/000070 TEMPO 17026G36KT,UDYZ,2018-03-24T07:30:00Z,40.15,44.4,24.0,-4.0,140,14,,6.21,29.734253,,,,,,,,,,,CLR,,,,,,,,VFR,,,,,,,,,,,,SPECI,865.0
ZYTX 240730Z 22007MPS 9000 NSC 18/M04 Q1016 NOSIG,ZYTX,2018-03-24T07:30:00Z,41.63,123.48,18.0,-4.0,220,14,,5.59,30.0,,,,,,TRUE,,,,,CLR,,,,,,,,VFR,,,,,,,,,,,,METAR,35.0
ZYTL 240730Z 13003MPS 6000 NSC 15/03 Q1020 NOSIG,ZYTL,2018-03-24T07:30:00Z,38.97,121.53,15.0,3.0,130,6,,3.73,30.11811,,,,,,TRUE,,,,,CLR,,,,,,,,MVFR,,,,,,,,,,,,METAR,97.0
ZWWW 240730Z 33004MPS 300V360 CAVOK 18/06 Q1013 NOSIG,ZWWW,2018-03-24T07:30:00Z,43.88,87.47,18.0,6.0,330,8,,6.21,29.911417,,,,,,TRUE,,,,,CAVOK,,,,,,,,VFR,,,,,,,,,,,,METAR,654.0
ZSSS 240730Z 11003MPS 090V160 CAVOK 23/06 Q1020 NOSIG,ZSSS,2018-03-24T07:30:00Z,31.2,121.33,23.0,6.0,110,6,,6.21,30.11811,,,,,,TRUE,,,,,CAVOK,,,,,,,,VFR,,,,,,,,,,,,METAR,7.0
ZSPD 240730Z 11004MPS CAVOK 19/11 Q1021 NOSIG,ZSPD,2018-03-24T07:30:00Z,31.15,121.8,19.0,11.0,110,8,,6.21,30.147638,,,,,,TRUE,,,,,CAVOK,,,,,,,,VFR,,,,,,,,,,,,METAR,4.0
UASP 240730Z 25012MPS 9999 OVC033CB 00/M06 Q1007 R21/0///60 NOSIG RMK QFE744/0992,UASP,2018-03-24T07:30:00Z,52.2,77.07,0.0,-6.0,250,23,,6.21,29.734253,,,,,,TRUE,,,,,OVC,3300,,,,,,,VFR,,,,,,,,,,,,SPECI,125.0
UASS 240730Z 29010MPS 9999 BKN040CB 00/M03 Q1010 NOSIG RMK QFE739/0986,UASS,2018-03-24T07:30:00Z,50.35,80.23,0.0,-3.0,290,19,,6.21,29.822834,,,,,,TRUE,,,,,BKN,4000,,,,,,,VFR,,,,,,,,,,,,SPECI,232.0
UARR 240730Z 16004MPS 9999 BKN033 OVC090 M04/M05 Q1010 R22/720255 NOSIG RMK QFE754/1006,UARR,2018-03-24T07:30:00Z,51.15,51.53,-4.0,-5.0,160,8,,6.21,29.822834,,,,,,TRUE,,,,,BKN,3300,OVC,9000,,,,,VFR,,,,,,,,,,,,SPECI,38.0
UATE 240730Z 15013G18MPS 9999 OVC016 09/06 Q1004 R12/0///70 NOSIG RMK QFE751/1001,UATE,2018-03-24T07:30:00Z,43.87,51.1,9.0,6.0,150,25,35,6.21,29.64567,,,,,,TRUE,,,,,OVC,1600,,,,,,,MVFR,,,,,,,,,,,,METAR,22.0
LFAT 240730Z AUTO 11008KT 9999 OVC023 07/04 Q0999 NOSIG,LFAT,2018-03-24T07:30:00Z,50.52,1.62,7.0,4.0,110,8,,6.21,29.498032,,,TRUE,,,TRUE,,,,,OVC,2300,,,,,,,MVFR,,,,,,,,,,,,SPECI,14.0
UATG 240730Z 13010MPS 9999 SCT033CB 03/M02 Q1008 R14/CLRD70 NOSIG RMK QFE758/1011,UATG,2018-03-24T07:30:00Z,47.12,51.83,3.0,-2.0,130,19,,6.21,29.763779,,,,,,TRUE,,,,,SCT,3300,,,,,,,VFR,,,,,,,,,,,,SPECI,-22.0
UATT 240730Z 18005MPS CAVOK M05/M07 Q1015 R13/810250 NOSIG RMK QFE742/0989,UATT,2018-03-24T07:30:00Z,50.25,57.2,-5.0,-7.0,180,10,,6.21,29.970472,,,,,,TRUE,,,,,CAVOK,,,,,,,,VFR,,,,,,,,,,,,METAR,227.0
UAUU 240730Z 24006MPS CAVOK M06/M10 Q1011 R33/850145 NOSIG RMK QFE743/0991,UAUU,2018-03-24T07:30:00Z,53.2,63.55,-6.0,-10.0,240,12,,6.21,29.852362,,,,,,TRUE,,,,,CAVOK,,,,,,,,VFR,,,,,,,,,,,,SPECI,182.0
UTDD 240730Z 14003MPS 080V180 9999 FEW066CB 23/04 Q1024 R09/D NOSIG RMK QFE699/0932,UTDD,2018-03-24T07:30:00Z,38.53,68.82,23.0,4.0,140,6,,6.21,30.236221,,,,,,TRUE,,,,,FEW,6600,,,,,,,VFR,,,,,,,,,,,,METAR,803.0
UTDT 240730Z 35003MPS 290V020 9999 BKN180 25/06 Q1022 35CLRD70 RMK QFE727/0969,UTDT,2018-03-24T07:30:00Z,37.87,68.87,25.0,6.0,350,6,,6.21,30.177166,,,,,,,,,,,BKN,18000,,,,,,,VFR,,,,,,,,,,,,METAR,449.0
UTDK 240730Z VRB02MPS 9999 NSC 22/05 Q1023 R01/09//70 RMK QFE709/0946,UTDK,2018-03-24T07:30:00Z,37.98,69.8,22.0,5.0,0,4,,6.21,30.206694,,,,,,,,,,,CLR,,,,,,,,VFR,,,,,,,,,,,,METAR,699.0
UTDL 240730Z 08003MPS 9999 NSC 19/09 Q1022 R08/CLRD70 NOSIG RMK QFE727/0970,UTDL,2018-03-24T07:30:00Z,40.22,69.7,19.0,9.0,80,6,,6.21,30.177166,,,,,,TRUE,,,,,CLR,,,,,,,,VFR,,,,,,,,,,,,SPECI,442.0
UCFO 240730Z VRB01MPS 9000 NSC 18/06 Q1023 R12/CLRD70 NOSIG,UCFO,2018-03-24T07:30:00Z,40.6,72.8,18.0,6.0,0,2,,5.59,30.206694,,,,,,TRUE,,,,,CLR,,,,,,,,VFR,,,,,,,,,,,,METAR,884.0
UCFM 240730Z 30009MPS 9999 SCT016CB 09/05 Q1023 R26/CLRD70 TEMPO 29010G15MPS,UCFM,2018-03-24T07:30:00Z,43.07,74.48,9.0,5.0,300,17,,6.21,30.206694,,,,,,,,,,,SCT,1600,,,,,,,VFR,,,,,,,,,,,,METAR,633.0
VEGT 240730Z 02008KT 4000 HZ NSC 29/19 Q1011 NOSIG,VEGT,2018-03-24T07:30:00Z,26.1,91.58,29.0,19.0,20,8,,2.49,29.852362,,,,,,TRUE,,,,HZ,CLR,,,,,,,,IFR,,,,,,,,,,,,METAR,54.0
LPPT 240730Z 32010KT 290V350 9999 -SHRA FEW020 SCT028 09/06 Q1015,LPPT,2018-03-24T07:30:00Z,38.77,-9.12,9.0,6.0,320,10,,6.21,29.970472,,,,,,,,,,-SHRA,FEW,2000,SCT,2800,,,,,VFR,,,,,,,,,,,,METAR,123.0
LPPS 240730Z 32013KT 9999 SCT011 SCT030 17/14 Q1024,LPPS,2018-03-24T07:30:00Z,33.07,-16.35,17.0,14.0,320,13,,6.21,30.236221,,,,,,,,,,,SCT,1100,SCT,3000,,,,,VFR,,,,,,,,,,,,METAR,82.0
LPPR 240730Z 33020G34KT 9999 VCSH SCT025 FEW030TCU 09/04 Q1011 RESHRA,LPPR,2018-03-24T07:30:00Z,41.22,-8.67,9.0,4.0,330,20,34,6.21,29.852362,,,,,,,,,,VCSH,SCT,2500,FEW,3000,,,,,VFR,,,,,,,,,,,,METAR,73.0
LPMA 240730Z 31005KT 230V030 9999 SCT016 SCT030 17/13 Q1024,LPMA,2018-03-24T07:30:00Z,32.7,-16.77,17.0,13.0,310,5,,6.21,30.236221,,,,,,,,,,,SCT,1600,SCT,3000,,,,,VFR,,,,,,,,,,,,METAR,55.0
LPFR 240730Z 29013KT 9999 FEW034 11/07 Q1015,LPFR,2018-03-24T07:30:00Z,37.02,-7.97,11.0,7.0,290,13,,6.21,29.970472,,,,,,,,,,,FEW,3400,,,,,,,VFR,,,,,,,,,,,,METAR,4.0
LRTM 240730Z 11003KT 5000 BR FEW007 SCT034 M02/M03 Q1006,LRTM,2018-03-24T07:30:00Z,46.47,24.42,-2.0,-3.0,110,3,,3.11,29.704725,,,,,,,,,,BR,FEW,700,SCT,3400,,,,,MVFR,,,,,,,,,,,,METAR,309.0
LRSM 240730Z AUTO 33002KT 300V010 5000 BR OVC002/// 01/01 Q1007,LRSM,2018-03-24T07:30:00Z,47.7,22.88,1.0,1.0,330,2,,3.11,29.734253,,,TRUE,,,,,,,BR,OVC,200,,,,,,,LIFR,,,,,,,,,,,,METAR,124.0
LROD 240730Z VRB01KT 6000 SCT009 BKN024 01/M01 Q1006 R01/19//95,LROD,2018-03-24T07:30:00Z,47.03,21.92,1.0,-1.0,0,1,,3.73,29.704725,,,,,,,,,,,SCT,900,BKN,2400,,,,,MVFR,,,,,,,,,,,,METAR,140.0
LRCL 240730Z VRB01KT 9999 BKN005 OVC018 01/M01 Q1006 R07/15//95,LRCL,2018-03-24T07:30:00Z,46.78,23.68,1.0,-1.0,0,1,,6.21,29.704725,,,,,,,,,,,BKN,500,OVC,1800,,,,,IFR,,,,,,,,,,,,METAR,413.0
LRBM 240730Z KT 7000 FEW006 BKN010 Q1006,LRBM,2018-03-24T07:30:00Z,47.67,23.47,,,,,,4.35,29.704725,,,,,,,,,,,FEW,600,BKN,1000,,,,,MVFR,,,,,,,,,,,,METAR,185.0
UASK 240730Z 24012G19MPS 5000 -SHRA OVC020CB 09/05 Q1007 R30/290250 TEMPO 21012G17MPS RMK QFE730/0973,UASK,2018-03-24T07:30:00Z,50.03,82.5,9.0,5.0,240,23,37,3.11,29.734253,,,,,,,,,,-SHRA,OVC,2000,,,,,,,MVFR,,,-1.2,,,,,,,,,METAR,286.0
FOOL 240730Z 14004KT 070V140 9999 FEW009 SCT020 27/25 Q1011 NOSIG,FOOL,2018-03-24T07:30:00Z,0.45,9.42,27.0,25.0,140,4,,6.21,29.852362,,,,,,TRUE,,,,,FEW,900,SCT,2000,,,,,VFR,,,,,,,,,,,,METAR,15.0
YBHM 240730Z AUTO 12027KT 4200 // BKN014 BKN031 OVC050 24/24 Q1011,YBHM,2018-03-24T07:30:00Z,-20.35,148.95,24.0,24.0,120,27,,2.61,29.852362,,,TRUE,,,,,,,,BKN,1400,BKN,3100,OVC,5000,,,IFR,,,,,,,,,,,,METAR,5.0
VOML 240730Z 25009KT 8000 NSC 33/17 Q1009 NOSIG,VOML,2018-03-24T07:30:00Z,12.97,74.88,33.0,17.0,250,9,,4.97,29.793306,,,,,,TRUE,,,,,CLR,,,,,,,,MVFR,,,,,,,,,,,,METAR,103.0
YBWP 240730Z AUTO 35017KT 9999 RA SCT014 SCT019 BKN022 26/24 Q0997,YBWP,2018-03-24T07:30:00Z,-12.68,141.92,26.0,24.0,350,17,,6.21,29.438976,,,TRUE,,,,,,,RA,SCT,1400,SCT,1900,BKN,2200,,,MVFR,,,,,,,,,,,,SPECI,12.0
LUKK 240730Z 34006KT 280V020 CAVOK M01/M07 Q1007 R26/850593 NOSIG,LUKK,2018-03-24T07:30:00Z,46.93,28.93,-1.0,-7.0,340,6,,6.21,29.734253,,,,,,TRUE,,,,,CAVOK,,,,,,,,VFR,,,,,,,,,,,,METAR,122.0
HSSS 240730Z 34008KT CAVOK 37/M01 Q1008 NOSIG,HSSS,2018-03-24T07:30:00Z,15.58,32.53,37.0,-1.0,340,8,,6.21,29.763779,,,,,,TRUE,,,,,CAVOK,,,,,,,,VFR,,,,,,,,,,,,METAR,380.0
UBBN 240730Z 11008KT 9999 SCT050 BKN100 23/M01 Q1008 R14R/CLRD// NOSIG RMK MT OP QFE682,UBBN,2018-03-24T07:30:00Z,39.18,45.45,23.0,-1.0,110,8,,6.21,29.763779,,,,,,TRUE,,,,,SCT,5000,BKN,10000,,,,,VFR,,,,,,,,,,,,METAR,873.0
VEIM 240730Z 29006KT 3000 HZ SCT018 SCT100 29/16 Q1013 NOSIG,VEIM,2018-03-24T07:30:00Z,24.77,93.9,29.0,16.0,290,6,,1.86,29.911417,,,,,,TRUE,,,,HZ,SCT,1800,SCT,10000,,,,,IFR,,,,,,,,,,,,METAR,781.0
VERC 240730Z 10005KT 5000 HZ SCT020 33/11 Q1015 NOSIG,VERC,2018-03-24T07:30:00Z,23.32,85.32,33.0,11.0,100,5,,3.11,29.970472,,,,,,TRUE,,,,HZ,SCT,2000,,,,,,,MVFR,,,,,,,,,,,,METAR,652.0
WAJJ 240730Z 29012KT 9999 SCT014 32/22 Q1003 NOSIG,WAJJ,2018-03-24T07:30:00Z,-2.58,140.52,32.0,22.0,290,12,,6.21,29.616142,,,,,,TRUE,,,,,SCT,1400,,,,,,,VFR,,,,,,,,,,,,METAR,88.0
FMMI 240730Z 14008KT 100V200 9999 FEW020 23/19 Q1021 NOSIG,FMMI,2018-03-24T07:30:00Z,-18.8,47.47,23.0,19.0,140,8,,6.21,30.147638,,,,,,TRUE,,,,,FEW,2000,,,,,,,VFR,,,,,,,,,,,,METAR,1276.0
LDDU 240730Z 02013KT 9999 FEW033 05/M05 Q1000 NOSIG,LDDU,2018-03-24T07:30:00Z,42.57,18.27,5.0,-5.0,20,13,,6.21,29.52756,,,,,,TRUE,,,,,FEW,3300,,,,,,,VFR,,,,,,,,,,,,METAR,165.0
LDOS 240730Z 13008KT 4000 BR FEW040 01/M01 Q1005,LDOS,2018-03-24T07:30:00Z,45.47,18.82,1.0,-1.0,130,8,,2.49,29.675198,,,,,,,,,,BR,FEW,4000,,,,,,,IFR,,,,,,,,,,,,METAR,89.0
LDPL 240730Z 07009KT CAVOK 08/M00 Q1003 NOSIG,LDPL,2018-03-24T07:30:00Z,44.88,13.92,8.0,0.0,70,9,,6.21,29.616142,,,,,,TRUE,,,,,CAVOK,,,,,,,,VFR,,,,,,,,,,,,METAR,63.0
LDZA 240730Z 01010KT 330V050 9999 FEW025 06/M00 Q1004 NOSIG,LDZA,2018-03-24T07:30:00Z,45.72,16.07,6.0,0.0,10,10,,6.21,29.64567,,,,,,TRUE,,,,,FEW,2500,,,,,,,VFR,,,,,,,,,,,,METAR,107.0
LDSP 240730Z 09005KT 040V130 CAVOK 09/M04 Q1001 NOSIG,LDSP,2018-03-24T07:30:00Z,43.52,16.3,9.0,-4.0,90,5,,6.21,29.557087,,,,,,TRUE,,,,,CAVOK,,,,,,,,VFR,,,,,,,,,,,,METAR,21.0
LDZD 240730Z 23003KT 140V300 CAVOK 08/M03 Q1002 BECMG 06008KT,LDZD,2018-03-24T07:30:00Z,44.1,15.37,8.0,-3.0,230,3,,6.21,29.586615,,,,,,,,,,,CAVOK,,,,,,,,VFR,,,,,,,,,,,,SPECI,84.0
VHHH 240730Z 11012KT 9999 FEW025 SCT040 24/17 Q1017 NOSIG,VHHH,2018-03-24T07:30:00Z,22.32,113.92,24.0,17.0,110,12,,6.21,30.029528,,,,,,TRUE,,,,,FEW,2500,SCT,4000,,,,,VFR,,,,,,,,,,,,METAR,9.0
UBBG 240730Z 31004KT 9999 SCT010 BKN050 10/07 Q1007 R30/CLRD// NOSIG,UBBG,2018-03-24T07:30:00Z,40.73,46.32,10.0,7.0,310,4,,6.21,29.734253,,,,,,TRUE,,,,,SCT,1000,BKN,5000,,,,,VFR,,,,,,,,,,,,METAR,330.0
UBBB 240730Z 20022G32KT 9999 BKN014 11/07 Q1006 R88/D NOSIG,UBBB,2018-03-24T07:30:00Z,40.45,50.07,11.0,7.0,200,22,32,6.21,29.704725,,,,,,TRUE,,,,,BKN,1400,,,,,,,MVFR,,,,,,,,,,,,METAR,-6.0
OPPS 240730Z 13004KT 5000 HZ SCT100 SCT200 27/11 Q1017,OPPS,2018-03-24T07:30:00Z,34.02,71.52,27.0,11.0,130,4,,3.11,30.029528,,,,,,,,,,HZ,SCT,10000,SCT,20000,,,,,MVFR,,,,,,,,,,,,METAR,360.0
DIAP 240730Z 22004KT 9999 FEW012 BKN040 24/23 Q1010 NOSIG,DIAP,2018-03-24T07:30:00Z,5.25,-3.92,24.0,23.0,220,4,,6.21,29.822834,,,,,,TRUE,,,,,FEW,1200,BKN,4000,,,,,VFR,,,,,,,,,,,,SPECI,8.0
WSSS 240730Z 03010KT 320V070 9999 SCT020TCU BKN300 32/22 Q1009 NOSIG,WSSS,2018-03-24T07:30:00Z,1.37,103.97,32.0,22.0,30,10,,6.21,29.793306,,,,,,TRUE,,,,,SCT,2000,BKN,30000,,,,,VFR,,,,,,,,,,,,METAR,16.0
LBPD 240730Z AUTO 12012KT 9999 SCT038/// OVC043/// 02/01 Q1004 R99/29//95 NOSIG,LBPD,2018-03-24T07:30:00Z,42.13,24.8,2.0,1.0,120,12,,6.21,29.64567,,,TRUE,,,TRUE,,,,,SCT,3800,OVC,4300,,,,,VFR,,,,,,,,,,,,SPECI,185.0
LFBZ 240730Z AUTO 25007KT 200V290 9999 OVC039 09/03 Q0997 TEMPO 27020G35KT,LFBZ,2018-03-24T07:30:00Z,43.47,-1.52,9.0,3.0,250,7,,6.21,29.438976,,,TRUE,,,,,,,,OVC,3900,,,,,,,VFR,,,,,,,,,,,,SPECI,71.0
LFKB 240730Z AUTO 15003KT 120V200 9999 FEW084 10/04 Q1003 NOSIG,LFKB,2018-03-24T07:30:00Z,42.53,9.47,10.0,4.0,150,3,,6.21,29.616142,,,TRUE,,,TRUE,,,,,FEW,8400,,,,,,,VFR,,,,,,,,,,,,METAR,12.0
LFLB 240730Z AUTO 00000KT 6000 NSC 03/02 Q1000 NOSIG,LFLB,2018-03-24T07:30:00Z,45.63,5.87,3.0,2.0,0,0,,3.73,29.52756,,,TRUE,,,TRUE,,,,,CLR,,,,,,,,MVFR,,,,,,,,,,,,METAR,239.0
LJLJ 240730Z 08003KT 9999 SCT063 M01/M02 Q1004 NOSIG,LJLJ,2018-03-24T07:30:00Z,46.22,14.47,-1.0,-2.0,80,3,,6.21,29.64567,,,,,,TRUE,,,,,SCT,6300,,,,,,,VFR,,,,,,,,,,,,METAR,385.0
LJMB 240730Z 01005KT 340V060 9999 SCT023 BKN064 04/M01 Q1004,LJMB,2018-03-24T07:30:00Z,46.47,15.67,4.0,-1.0,10,5,,6.21,29.64567,,,,,,,,,,,SCT,2300,BKN,6400,,,,,VFR,,,,,,,,,,,,METAR,265.0
LJPZ 240730Z VRB02KT CAVOK 05/M00 Q1004,LJPZ,2018-03-24T07:30:00Z,45.47,13.62,5.0,0.0,0,2,,6.21,29.64567,,,,,,,,,,,CAVOK,,,,,,,,VFR,,,,,,,,,,,,METAR,2.0
LFCK 240730Z AUTO 24008KT 9999 -RA OVC011 04/03 Q1000 TEMPO 4000 RA OVC008,LFCK,2018-03-24T07:30:00Z,43.55,2.28,4.0,3.0,240,8,,6.21,29.52756,,,TRUE,,,,,,,-RA,OVC,1100,,,,,,,MVFR,,,,,,,,,,,,METAR,240.0
LFLP 240730Z AUTO VRB01KT CAVOK 02/M01 Q0999 NOSIG,LFLP,2018-03-24T07:30:00Z,45.92,6.08,2.0,-1.0,0,1,,6.21,29.498032,,,TRUE,,,TRUE,,,,,CAVOK,,,,,,,,VFR,,,,,,,,,,,,METAR,463.0
LFLU 240730Z AUTO 00000KT CAVOK 05/02 Q0998,LFLU,2018-03-24T07:30:00Z,44.92,4.98,5.0,2.0,0,0,,6.21,29.468504,,,TRUE,,,,,,,,CAVOK,,,,,,,,VFR,,,,,,,,,,,,METAR,160.0
LFLX 240730Z AUTO 06003KT 9999 FEW035 06/05 Q0996 TEMPO 4000 RA BKN012 SCT020TCU,LFLX,2018-03-24T07:30:00Z,46.85,1.72,6.0,5.0,60,3,,6.21,29.409449,,,TRUE,,,,,,,,FEW,3500,,,,,,,VFR,,,,,,,,,,,,SPECI,157.0
LFOH 240730Z AUTO 10010KT 5000 BR OVC007 06/05 Q0997 TEMPO DZ,LFOH,2018-03-24T07:30:00Z,49.52,0.07,6.0,5.0,100,10,,3.11,29.438976,,,TRUE,,,,,,,BR,OVC,700,,,,,,,IFR,,,,,,,,,,,,SPECI,103.0
LFML 240730Z AUTO 08011KT CAVOK 10/03 Q0998 BECMG 14015KT,LFML,2018-03-24T07:30:00Z,43.45,5.22,10.0,3.0,80,11,,6.21,29.468504,,,TRUE,,,,,,,,CAVOK,,,,,,,,VFR,,,,,,,,,,,,METAR,36.0
LFQA 240730Z AUTO 13008KT 4600 BR OVC004 03/03 Q0999,LFQA,2018-03-24T07:30:00Z,49.2,4.15,3.0,3.0,130,8,,2.86,29.498032,,,TRUE,,,,,,,BR,OVC,400,,,,,,,LIFR,,,,,,,,,,,,METAR,95.0
LFOP 240730Z AUTO 12004KT 5000 BR FEW006 OVC012 06/05 Q0998 BECMG BKN025,LFOP,2018-03-24T07:30:00Z,49.37,1.17,6.0,5.0,120,4,,3.11,29.468504,,,TRUE,,,,,,,BR,FEW,600,OVC,1200,,,,,MVFR,,,,,,,,,,,,SPECI,157.0
LFQB 240730Z AUTO 08004KT 5000 BR OVC004 02/01 Q0999,LFQB,2018-03-24T07:30:00Z,48.32,4.02,2.0,1.0,80,4,,3.11,29.498032,,,TRUE,,,,,,,BR,OVC,400,,,,,,,LIFR,,,,,,,,,,,,METAR,118.0
LFBA 240730Z AUTO 22005KT 190V270 9999 -RA BKN014 BKN033 OVC045 07/06 Q0997 BECMG SCT015TCU BKN035,LFBA,2018-03-24T07:30:00Z,44.17,0.6,7.0,6.0,220,5,,6.21,29.438976,,,TRUE,,,,,,,-RA,BKN,1400,BKN,3300,OVC,4500,,,MVFR,,,,,,,,,,,,SPECI,60.0
LFSN 240730Z AUTO 05004KT 0800 R03/1300U FG VV/// 01/01 Q1000,LFSN,2018-03-24T07:30:00Z,48.67,6.22,1.0,1.0,50,4,,0.5,29.52756,,,TRUE,,,,,,,FG,OVX,0,,,,,,,LIFR,,,,,,,,,,,,SPECI,217.0
UKDD 240730Z 02004MPS CAVOK 00/M07 Q1003 R08/810345 NOSIG,UKDD,2018-03-24T07:30:00Z,48.37,35.1,0.0,-7.0,20,8,,6.21,29.616142,,,,,,TRUE,,,,,CAVOK,,,,,,,,VFR,,,,,,,,,,,,SPECI,149.0
UKDE 240730Z 34006MPS CAVOK M00/M04 Q1002 R02/591228 NOSIG,UKDE,2018-03-24T07:30:00Z,47.87,35.32,0.0,-4.0,340,12,,6.21,29.586615,,,,,,TRUE,,,,,CAVOK,,,,,,,,VFR,,,,,,,,,,,,SPECI,113.0
UKOO 240730Z 01007MPS 9999 OVC040 M01/M04 Q1005 R34/691035 NOSIG,UKOO,2018-03-24T07:30:00Z,46.42,30.68,-1.0,-4.0,10,14,,6.21,29.675198,,,,,,TRUE,,,,,OVC,4000,,,,,,,VFR,,,,,,,,,,,,SPECI,35.0
UKHH 240730Z 02004MPS 360V070 CAVOK M01/M09 Q1003 R07/71//66 NOSIG,UKHH,2018-03-24T07:30:00Z,49.92,36.28,-1.0,-9.0,20,8,,6.21,29.616142,,,,,,TRUE,,,,,CAVOK,,,,,,,,VFR,,,,,,,,,,,,SPECI,155.0
UKBB 240730Z 36003MPS 9999 SCT036 M00/M05 Q1006 R88/811050 NOSIG,UKBB,2018-03-24T07:30:00Z,50.33,30.9,0.0,-5.0,360,6,,6.21,29.704725,,,,,,TRUE,,,,,SCT,3600,,,,,,,VFR,,,,,,,,,,,,SPECI,119.0
NTAA 240730Z VRB02KT 9999 FEW023 27/22 Q1015 WS R04 NOSIG,NTAA,2018-03-24T07:30:00Z,-17.55,-149.62,27.0,22.0,0,2,,6.21,29.970472,,,,,,TRUE,,,,,FEW,2300,,,,,,,VFR,,,,,,,,,,,,METAR,2.0
UKDR 240730Z 01006MPS CAVOK M03/M07 Q1004 R36/5950// NOSIG,UKDR,2018-03-24T07:30:00Z,48.05,33.22,-3.0,-7.0,10,12,,6.21,29.64567,,,,,,TRUE,,,,,CAVOK,,,,,,,,VFR,,,,,,,,,,,,SPECI,124.0
LFMI 240730Z AUTO 08012KT CAVOK 09/04 Q0998 NOSIG,LFMI,2018-03-24T07:30:00Z,43.52,4.92,9.0,4.0,80,12,,6.21,29.468504,,,TRUE,,,TRUE,,,,,CAVOK,,,,,,,,VFR,,,,,,,,,,,,METAR,24.0
LFOV 240730Z AUTO 12007KT 7000 BKN005 OVC013 07/06 Q0995,LFOV,2018-03-24T07:30:00Z,48.03,-0.75,7.0,6.0,120,7,,4.35,29.379921,,,TRUE,,,,,,,,BKN,500,OVC,1300,,,,,IFR,,,,,,,,,,,,METAR,101.0
LFRI 240730Z AUTO 13007KT 9999 FEW028 BKN100 07/05 Q0993 NOSIG,LFRI,2018-03-24T07:30:00Z,46.7,-1.37,7.0,5.0,130,7,,6.21,29.320866,,,TRUE,,,TRUE,,,,,FEW,2800,BKN,10000,,,,,VFR,,,,,,,,,,,,METAR,91.0
LFRM 240730Z AUTO 11003KT 090V150 9999 OVC041 07/06 Q0996 TEMPO 4000 -RA BKN010,LFRM,2018-03-24T07:30:00Z,47.95,0.2,7.0,6.0,110,3,,6.21,29.409449,,,TRUE,,,,,,,,OVC,4100,,,,,,,VFR,,,,,,,,,,,,METAR,52.0
LFRO 240730Z AUTO VRB03KT CAVOK 06/05 Q0994 NOSIG,LFRO,2018-03-24T07:30:00Z,48.75,-3.47,6.0,5.0,0,3,,6.21,29.350393,,,TRUE,,,TRUE,,,,,CAVOK,,,,,,,,VFR,,,,,,,,,,,,METAR,89.0
HLLB 240730Z 26022KT 9999 SCT025 SCT080 15/03 Q1011,HLLB,2018-03-24T07:30:00Z,32.07,20.27,15.0,3.0,260,22,,6.21,29.852362,,,,,,,,,,,SCT,2500,SCT,8000,,,,,VFR,,,,,,,,,,,,METAR,132.0
LWOH 240730Z 31007KT 9999 FEW020 BKN040 OVC080 M00/M04 Q0999,LWOH,2018-03-24T07:30:00Z,41.18,20.75,0.0,-4.0,310,7,,6.21,29.498032,,,,,,,,,,,FEW,2000,BKN,4000,OVC,8000,,,VFR,,,,,,,,,,,,METAR,761.0
LWSK 240730Z 35003KT 9999 FEW020 SCT050 BKN080 01/M03 Q1004 R99/2///95 NOSIG,LWSK,2018-03-24T07:30:00Z,41.97,21.63,1.0,-3.0,350,3,,6.21,29.64567,,,,,,TRUE,,,,,FEW,2000,SCT,5000,BKN,8000,,,VFR,,,,,,,,,,,,SPECI,239.0
WAMM 240730Z VRB01KT 9999 FEW021 29/22 Q1009 NOSIG,WAMM,2018-03-24T07:30:00Z,1.55,124.92,29.0,22.0,0,1,,6.21,29.793306,,,,,,TRUE,,,,,FEW,2100,,,,,,,VFR,,,,,,,,,,,,METAR,80.0
VORY 240730Z 25004KT 3000 HZ SCT020 SCT090 33/23 Q1010 NOSIG,VORY,2018-03-24T07:30:00Z,17.1,81.82,33.0,23.0,250,4,,1.86,29.822834,,,,,,TRUE,,,,HZ,SCT,2000,SCT,9000,,,,,IFR,,,,,,,,,,,,METAR,46.0
VOTV 240730Z 32011KT 6000 FEW015 32/25 Q1008 NOSIG,VOTV,2018-03-24T07:30:00Z,8.47,76.95,32.0,25.0,320,11,,3.73,29.763779,,,,,,TRUE,,,,,FEW,1500,,,,,,,MVFR,,,,,,,,,,,,METAR,8.0
VABB 240730Z 25011KT 5000 FU NSC 32/21 Q1011 NOSIG,VABB,2018-03-24T07:30:00Z,19.1,72.87,32.0,21.0,250,11,,3.11,29.852362,,,,,,TRUE,,,,FU,CLR,,,,,,,,MVFR,,,,,,,,,,,,METAR,8.0
VOCB 240730Z 16008KT 7000 FEW015 35/17 Q1011 NOSIG,VOCB,2018-03-24T07:30:00Z,11.02,77.03,35.0,17.0,160,8,,4.35,29.852362,,,,,,TRUE,,,,,FEW,1500,,,,,,,MVFR,,,,,,,,,,,,METAR,399.0
LFSD 240730Z AUTO 03003KT 6000 NSC 02/01 Q0998,LFSD,2018-03-24T07:30:00Z,47.27,5.07,2.0,1.0,30,3,,3.73,29.468504,,,TRUE,,,,,,,,CLR,,,,,,,,MVFR,,,,,,,,,,,,SPECI,227.0
SOCA 240730Z AUTO 03006KT 9999 FEW024 BKN038 OVC047 26/23 Q1010 TEMPO 2000 SHRA SCT010TCU,SOCA,2018-03-24T07:30:00Z,4.82,-52.37,26.0,23.0,30,6,,6.21,29.822834,,,TRUE,,,,,,,,FEW,2400,BKN,3800,OVC,4700,,,VFR,,,,,,,,,,,,METAR,9.0
TFFR 240730Z AUTO 25003KT 9999 FEW023 21/20 Q1014 TEMPO 1500 SCT015CB BECMG 11010KT,TFFR,2018-03-24T07:30:00Z,16.27,-61.53,21.0,20.0,250,3,,6.21,29.940945,,,TRUE,,,,,,,,FEW,2300,,,,,,,VFR,,-1.0,,,,,,,,,,METAR,11.0
LZTT 240730Z 16004KT 080V210 9999 FEW043 M01/M07 Q1003 NOSIG,LZTT,2018-03-24T07:30:00Z,49.07,20.25,-1.0,-7.0,160,4,,6.21,29.616142,,,,,,TRUE,,,,,FEW,4300,,,,,,,VFR,,,,,,,,,,,,METAR,707.0
LZKZ 240730Z 05005KT 010V120 CAVOK 03/M05 Q1006 NOSIG,LZKZ,2018-03-24T07:30:00Z,48.67,21.23,3.0,-5.0,50,5,,6.21,29.704725,,,,,,TRUE,,,,,CAVOK,,,,,,,,VFR,,,,,,,,,,,,METAR,232.0
LZIB 240730Z VRB02KT 7000 NSC 04/M02 Q1006 NOSIG,LZIB,2018-03-24T07:30:00Z,48.17,17.22,4.0,-2.0,0,2,,4.35,29.704725,,,,,,TRUE,,,,,CLR,,,,,,,,MVFR,,,,,,,,,,,,METAR,134.0
LHBP 240730Z 11005KT 080V150 4000 BR OVC004 M01/M01 Q1006 BECMG 5000 BR BKN005,LHBP,2018-03-24T07:30:00Z,47.42,19.27,-1.0,-1.0,110,5,,2.49,29.704725,,,,,,,,,,BR,OVC,400,,,,,,,LIFR,,,,,,,,,,,,SPECI,185.0
LBGO 240730Z AUTO VRB02KT 9999 -RASN FEW006/// OVC033/// M01/M02 Q1007 R99/690593 NOSIG,LBGO,2018-03-24T07:30:00Z,43.15,25.72,-1.0,-2.0,0,2,,6.21,29.734253,,,TRUE,,,TRUE,,,,-RA -SN,FEW,600,OVC,3300,,,,,VFR,,,,,,,,,,,,METAR,86.0
EPKK 240730Z 08005KT 060V120 5000 BR NSC 01/M04 Q1006,EPKK,2018-03-24T07:30:00Z,50.07,19.8,1.0,-4.0,80,5,,3.11,29.704725,,,,,,,,,,BR,CLR,,,,,,,,MVFR,,,,,,,,,,,,METAR,237.0
EPGD 240730Z 14004KT 3500 BR FEW004 OVC038 01/M00 Q1007,EPGD,2018-03-24T07:30:00Z,54.37,18.47,1.0,0.0,140,4,,2.17,29.734253,,,,,,,,,,BR,FEW,400,OVC,3800,,,,,IFR,,,,,,,,,,,,METAR,138.0
VTSM 240730Z 15012KT 8000 FEW020 30/24 Q1011,VTSM,2018-03-24T07:30:00Z,9.55,100.07,30.0,24.0,150,12,,4.97,29.852362,,,,,,,,,,,FEW,2000,,,,,,,MVFR,,,,,,,,,,,,METAR,17.0
VOBZ 240730Z 18004KT 5000 HZ FEW020 SCT100 36/24 Q1009 NOSIG,VOBZ,2018-03-24T07:30:00Z,16.52,80.78,36.0,24.0,180,4,,3.11,29.793306,,,,,,TRUE,,,,HZ,FEW,2000,SCT,10000,,,,,MVFR,,,,,,,,,,,,METAR,24.0
VOBG 240730Z 20006KT 9999 SCT015 32/16 Q1014,VOBG,2018-03-24T07:30:00Z,12.95,77.63,32.0,16.0,200,6,,6.21,29.940945,,,,,,,,,,,SCT,1500,,,,,,,VFR,,,,,,,,,,,,METAR,897.0
EPLL 240730Z 10004KT 060V150 5000 BR NSC 03/M00 Q1007,EPLL,2018-03-24T07:30:00Z,51.72,19.4,3.0,0.0,100,4,,3.11,29.734253,,,,,,,,,,BR,CLR,,,,,,,,MVFR,,,,,,,,,,,,METAR,184.0
EPWA 240730Z 11004KT 6000 NSC 03/M02 Q1008 NOSIG,EPWA,2018-03-24T07:30:00Z,52.17,20.97,3.0,-2.0,110,4,,3.73,29.763779,,,,,,TRUE,,,,,CLR,,,,,,,,MVFR,,,,,,,,,,,,METAR,107.0
EPRZ 240730Z 09003KT 050V110 4000 BR NSC M02/M04 Q1007,EPRZ,2018-03-24T07:30:00Z,50.1,22.05,-2.0,-4.0,90,3,,2.49,29.734253,,,,,,,,,,BR,CLR,,,,,,,,IFR,,,,,,,,,,,,METAR,202.0
EPPO 240730Z 18004KT 2000 BR BKN001 01/01 Q1007 R10/290195,EPPO,2018-03-24T07:30:00Z,52.42,16.82,1.0,1.0,180,4,,1.24,29.734253,,,,,,,,,,BR,BKN,100,,,,,,,LIFR,,,,,,,,,,,,SPECI,92.0
LFSG 240730Z AUTO 03004KT 0250 R26/0300N FZFG VV/// M02/M02 Q0999,LFSG,2018-03-24T07:30:00Z,48.33,6.07,-2.0,-2.0,30,4,,0.16,29.498032,,,TRUE,,,,,,,FZFG,OVX,0,,,,,,,LIFR,,,,,,,,,,,,METAR,330.0
LFRZ 240730Z AUTO 10011KT 9000 NSC 09/07 Q0992 NOSIG,LFRZ,2018-03-24T07:30:00Z,47.32,-2.17,9.0,7.0,100,11,,5.59,29.291338,,,TRUE,,,TRUE,,,,,CLR,,,,,,,,VFR,,,,,,,,,,,,METAR,4.0
LFRV 240730Z AUTO 08009KT CAVOK 07/06 Q0992,LFRV,2018-03-24T07:30:00Z,47.72,-2.72,7.0,6.0,80,9,,6.21,29.291338,,,TRUE,,,,,,,,CAVOK,,,,,,,,VFR,,,,,,,,,,,,METAR,133.0
LFBD 240730Z AUTO 16007KT 9999 SCT025 SCT034 BKN044 07/07 Q0995 TEMPO 20015G25KT 4000 SHRA BKN020TCU,LFBD,2018-03-24T07:30:00Z,44.82,-0.7,7.0,7.0,160,7,,6.21,29.379921,,,TRUE,,,,,,,,SCT,2500,SCT,3400,BKN,4400,,,VFR,,,1.5,,,,,,,,,SPECI,61.0
LFBH 240730Z AUTO 15010KT 9999 BKN027 08/05 Q0993 NOSIG,LFBH,2018-03-24T07:30:00Z,46.18,-1.2,8.0,5.0,150,10,,6.21,29.320866,,,TRUE,,,TRUE,,,,,BKN,2700,,,,,,,MVFR,,,,,,,,,,,,METAR,10.0
GMAD 240730Z VRB02KT 9999 SCT011 12/10 Q1020 NOSIG,GMAD,2018-03-24T07:30:00Z,30.32,-9.42,12.0,10.0,0,2,,6.21,30.11811,,,,,,TRUE,,,,,SCT,1100,,,,,,,VFR,,,,,,,,,,,,METAR,74.0
EPZG 240730Z 10004KT 070V140 6000 BKN035 02/01 Q1007,EPZG,2018-03-24T07:30:00Z,52.13,15.8,2.0,1.0,100,4,,3.73,29.734253,,,,,,,,,,,BKN,3500,,,,,,,MVFR,,,,,,,,,,,,METAR,59.0
EPWR 240730Z 13007KT 7000 BKN012 02/M00 Q1007,EPWR,2018-03-24T07:30:00Z,51.1,16.87,2.0,0.0,130,7,,4.35,29.734253,,,,,,,,,,,BKN,1200,,,,,,,MVFR,,,,,,,,,,,,METAR,121.0
EPSY 240730Z 12005KT 4700 BR BKN048 02/M01 Q1008,EPSY,2018-03-24T07:30:00Z,53.47,20.93,2.0,-1.0,120,5,,2.92,29.763779,,,,,,,,,,BR,BKN,4800,,,,,,,IFR,,,,,,,,,,,,METAR,141.0
EPSC 240730Z 12002KT 6000 SCT017 OVC027 01/00 Q1007,EPSC,2018-03-24T07:30:00Z,53.58,14.9,1.0,0.0,120,2,,3.73,29.734253,,,,,,,,,,,SCT,1700,OVC,2700,,,,,MVFR,,,,,,,,,,,,METAR,47.0
EPRA 240730Z VRB01KT 5000 BR NSC 01/M02 Q1007,EPRA,2018-03-24T07:30:00Z,51.38,21.22,1.0,-2.0,0,1,,3.11,29.734253,,,,,,,,,,BR,CLR,,,,,,,,MVFR,,,,,,,,,,,,METAR,178.0
EPMO 240730Z 09005KT 3800 BR NSC 02/M00 Q1008,EPMO,2018-03-24T07:30:00Z,52.45,20.65,2.0,0.0,90,5,,2.36,29.763779,,,,,,,,,,BR,CLR,,,,,,,,IFR,,,,,,,,,,,,METAR,104.0
EPLB 240730Z VRB01KT 8000 NSC 00/M05 Q1008,EPLB,2018-03-24T07:30:00Z,51.23,22.72,0.0,-5.0,0,1,,4.97,29.763779,,,,,,,,,,,CLR,,,,,,,,MVFR,,,,,,,,,,,,METAR,206.0
EPKT 240730Z 08004KT 4200 BR OVC049 01/M02 Q1006,EPKT,2018-03-24T07:30:00Z,50.47,19.08,1.0,-2.0,80,4,,2.61,29.704725,,,,,,,,,,BR,OVC,4900,,,,,,,IFR,,,,,,,,,,,,METAR,284.0
EPBY 240730Z 13004KT 100V170 2900 BR FEW004 BKN006 02/01 Q1007,EPBY,2018-03-24T07:30:00Z,53.1,18.0,2.0,1.0,130,4,,1.8,29.734253,,,,,,,,,,BR,FEW,400,BKN,600,,,,,IFR,,,,,,,,,,,,METAR,71.0
LFLL 240730Z 13008KT 6000 NSC 03/00 Q0998 NOSIG,LFLL,2018-03-24T07:30:00Z,45.72,5.07,3.0,0.0,130,8,,3.73,29.468504,,,,,,TRUE,,,,,CLR,,,,,,,,MVFR,,,,,,,,,,,,METAR,240.0
LFMN 240730Z 33009KT 9999 FEW073 SCT260 10/01 Q1001 NOSIG,LFMN,2018-03-24T07:30:00Z,43.63,7.2,10.0,1.0,330,9,,6.21,29.557087,,,,,,TRUE,,,,,FEW,7300,SCT,26000,,,,,VFR,,,,,,,,,,,,METAR,10.0
LFPG 240730Z 11010KT 9999 BKN026 SCT080 06/02 Q0998 NOSIG,LFPG,2018-03-24T07:30:00Z,49.02,2.52,6.0,2.0,110,10,,6.21,29.468504,,,,,,TRUE,,,,,BKN,2600,SCT,8000,,,,,MVFR,,,,,,,,,,,,METAR,109.0
LFPO 240730Z 09004KT 9999 BKN026 05/02 Q0998 NOSIG,LFPO,2018-03-24T07:30:00Z,48.72,2.38,5.0,2.0,90,4,,6.21,29.468504,,,,,,TRUE,,,,,BKN,2600,,,,,,,MVFR,,,,,,,,,,,,METAR,96.0
LFQQ 240730Z AUTO 11008KT CAVOK 05/02 Q1000 NOSIG,LFQQ,2018-03-24T07:30:00Z,50.57,3.1,5.0,2.0,110,8,,6.21,29.52756,,,TRUE,,,TRUE,,,,,CAVOK,,,,,,,,VFR,,,,,,,,,,,,METAR,52.0
LFRB 240730Z AUTO 05007KT CAVOK 05/05 Q0993 NOSIG,LFRB,2018-03-24T07:30:00Z,48.45,-4.42,5.0,5.0,50,7,,6.21,29.320866,,,TRUE,,,TRUE,,,,,CAVOK,,,,,,,,VFR,,,,,,,,,,,,METAR,103.0
ULWC 240730Z 23002MPS CAVOK M06/M10 Q1006 R03/950235 NOSIG RMK QFE745/0993,ULWC,2018-03-24T07:30:00Z,59.28,38.02,-6.0,-10.0,230,4,,6.21,29.704725,,,,,,TRUE,,,,,CAVOK,,,,,,,,VFR,,,,,,,,,,,,METAR,115.0
YPTN 240730Z AUTO 18007KT 9999 // NCD 33/17 Q1005,YPTN,2018-03-24T07:30:00Z,-14.52,132.38,33.0,17.0,180,7,,6.21,29.675198,,,TRUE,,,,,,,,CLR,,,,,,,,VFR,,,,,,,,,,,,METAR,109.0
TFFF 240730Z AUTO 11002KT 9999 SCT028/// SCT034/// BKN050/// ///TCU 23/20 Q1013 TEMPO 1500 FEW015CB,TFFF,2018-03-24T07:30:00Z,14.6,-61.0,23.0,20.0,110,2,,6.21,29.911417,,,TRUE,,,,,,,,SCT,2800,SCT,3400,BKN,5000,,,VFR,,,,,,,,,,,,METAR,5.0
NWWW 240730Z AUTO VRB01KT 9999 ///TCU 27/23 Q1011 TEMPO 4000 SHRA,NWWW,2018-03-24T07:30:00Z,-22.02,166.22,27.0,23.0,0,1,,6.21,29.852362,,,TRUE,,,,,,,,,,,,,,,,,,,,,,,,,,,,SPECI,16.0
WIII 240730Z 24008KT 9999 SCT022 28/24 Q1009 NOSIG,WIII,2018-03-24T07:30:00Z,-6.13,106.67,28.0,24.0,240,8,,6.21,29.793306,,,,,,TRUE,,,,,SCT,2200,,,,,,,VFR,,,,,,,,,,,,METAR,8.0
UGSB 240730Z 24006KT CAVOK 14/10 Q1001 R13/70D NOSIG,UGSB,2018-03-24T07:30:00Z,41.62,41.6,14.0,10.0,240,6,,6.21,29.557087,,,,,,TRUE,,,,,CAVOK,,,,,,,,VFR,,,,,,,,,,,,METAR,32.0
UGKO 240730Z 25005KT 9999 SCT027 OVC048 18/10 Q0999 R07/09//70 NOSIG,UGKO,2018-03-24T07:30:00Z,42.18,42.48,18.0,10.0,250,5,,6.21,29.498032,,,,,,TRUE,,,,,SCT,2700,OVC,4800,,,,,VFR,,,,,,,,,,,,METAR,68.0
UGTB 240730Z VRB03KT 8000 SCT008 OVC010 09/06 Q1009 R31L/CLRD70 NOSIG,UGTB,2018-03-24T07:30:00Z,41.67,44.95,9.0,6.0,0,3,,4.97,29.793306,,,,,,TRUE,,,,,SCT,800,OVC,1000,,,,,MVFR,,,,,,,,,,,,METAR,495.0
LBWN 240730Z 30010KT 9000 -SN SCT011 OVC015 M01/M03 Q1005 R99/19//95 NOSIG,LBWN,2018-03-24T07:30:00Z,43.22,27.82,-1.0,-3.0,300,10,,5.59,29.675198,,,,,,TRUE,,,,-SN,SCT,1100,OVC,1500,,,,,MVFR,,,,,,,,,,,,SPECI,43.0
LBSF 240730Z 27004KT 9999 OVC026 M02/M05 Q1003 R99/29//95 NOSIG,LBSF,2018-03-24T07:30:00Z,42.7,23.42,-2.0,-5.0,270,4,,6.21,29.616142,,,,,,TRUE,,,,,OVC,2600,,,,,,,MVFR,,,,,,,,,,,,SPECI,530.0
VOBL 240730Z VRB05KT 8000 FEW015 31/13 Q1015 NOSIG,VOBL,2018-03-24T07:30:00Z,13.2,77.7,31.0,13.0,0,5,,4.97,29.970472,,,,,,TRUE,,,,,FEW,1500,,,,,,,MVFR,,,,,,,,,,,,METAR,915.0
LBBG 240730Z 01005KT 9999 OVC024 00/M03 Q1005 R99/29//95 NOSIG,LBBG,2018-03-24T07:30:00Z,42.57,27.52,0.0,-3.0,10,5,,6.21,29.675198,,,,,,TRUE,,,,,OVC,2400,,,,,,,MVFR,,,,,,,,,,,,SPECI,28.0
LFRS 240730Z AUTO 13009KT CAVOK 08/06 Q0993 NOSIG,LFRS,2018-03-24T07:30:00Z,47.17,-1.6,8.0,6.0,130,9,,6.21,29.320866,,,TRUE,,,TRUE,,,,,CAVOK,,,,,,,,VFR,,,,,,,,,,,,METAR,27.0
LFTH 240730Z AUTO 03005KT 350V080 9999 BKN027 OVC080 11/06 Q0999 BECMG 12017KT,LFTH,2018-03-24T07:30:00Z,43.1,6.15,11.0,6.0,30,5,,6.21,29.498032,,,TRUE,,,,,,,,BKN,2700,OVC,8000,,,,,MVFR,,,,,,,,,,,,SPECI,4.0
LFST 240730Z AUTO 01005KT 330V040 0350 0300 R23/0400N R05/0375N FG VV/// 01/01 Q1001 BECMG 9999 NSW BKN015,LFST,2018-03-24T07:30:00Z,48.53,7.62,1.0,1.0,10,5,,0.22,29.557087,,,TRUE,,,,,,,FG,OVX,0,,,,,,,LIFR,,,,,,,,,,,,SPECI,154.0
LFRG 240730Z AUTO 13007KT 100V170 9999 BKN007 OVC062 06/05 Q0997 TEMPO RA BECMG BKN015,LFRG,2018-03-24T07:30:00Z,49.37,0.15,6.0,5.0,130,7,,6.21,29.438976,,,TRUE,,,,,,,,BKN,700,OVC,6200,,,,,IFR,,,,,,,,,,,,SPECI,146.0
LFOT 240730Z AUTO 09006KT 9999 SCT032 OVC082 07/06 Q0995 TEMPO 2500 RA BKN006 SCT015TCU,LFOT,2018-03-24T07:30:00Z,47.43,0.72,7.0,6.0,90,6,,6.21,29.379921,,,TRUE,,,,,,,,SCT,3200,OVC,8200,,,,,VFR,,,,,,,,,,,,METAR,108.0
LFMH 240730Z AUTO 17008KT 6000 NSC 02/00 Q0997 NOSIG,LFMH,2018-03-24T07:30:00Z,45.52,4.28,2.0,0.0,170,8,,3.73,29.438976,,,TRUE,,,TRUE,,,,,CLR,,,,,,,,MVFR,,,,,,,,,,,,METAR,402.0
LFMD 240730Z AUTO 01004KT 320V060 9999 BKN052 OVC070 09/03 Q1001 BECMG 07015KT,LFMD,2018-03-24T07:30:00Z,43.53,6.95,9.0,3.0,10,4,,6.21,29.557087,,,TRUE,,,,,,,,BKN,5200,OVC,7000,,,,,VFR,,,,,,,,,,,,SPECI,9.0
LFGJ 240730Z AUTO VRB03KT 2700 R05/1000U BCFG VV/// 00/00 Q0998 BECMG CAVOK,LFGJ,2018-03-24T07:30:00Z,47.05,5.43,0.0,0.0,0,3,,1.68,29.468504,,,TRUE,,,,,,,BCFG,OVX,0,,,,,,,LIFR,,,,,,,,,,,,SPECI,196.0
LFBE 240730Z AUTO 18005KT 140V200 9999 OVC031 06/05 Q0997 TEMPO 4000 -SHRA BKN020TCU,LFBE,2018-03-24T07:30:00Z,44.82,0.52,6.0,5.0,180,5,,6.21,29.438976,,,TRUE,,,,,,,,OVC,3100,,,,,,,VFR,,,,,,,,,,,,SPECI,52.0
LFSX 240730Z AUTO 10004KT 060V120 9000 NCD 03/01 Q0998,LFSX,2018-03-24T07:30:00Z,47.77,6.33,3.0,1.0,100,4,,5.59,29.468504,,,TRUE,,,,,,,,CLR,,,,,,,,VFR,,,,,,,,,,,,METAR,273.0
LFSO 240730Z AUTO 09004KT 0300 R20/0350N FG VV/// 00/00 Q0999,LFSO,2018-03-24T07:30:00Z,48.57,5.97,0.0,0.0,90,4,,0.19,29.498032,,,TRUE,,,,,,,FG,OVX,0,,,,,,,LIFR,,,,,,,,,,,,METAR,350.0
LFSI 240730Z AUTO 10008KT CAVOK 04/02 Q0999,LFSI,2018-03-24T07:30:00Z,48.62,4.9,4.0,2.0,100,8,,6.21,29.498032,,,TRUE,,,,,,,,CAVOK,,,,,,,,VFR,,,,,,,,,,,,METAR,140.0
KCDD 240729Z AUTO 00000KT 10SM CLR M07/M13 A3040 RMK AO2,KCDD,2018-03-24T07:29:00Z,48.27,-92.48,-7.0,-13.0,0,0,,10.0,30.398623,,,TRUE,TRUE,,,,,,,CLR,,,,,,,,VFR,,,,,,,,,,,,SPECI,341.0
KBJC 240729Z AUTO 32007KT 10SM CLR 05/01 A3006 RMK AO2,KBJC,2018-03-24T07:29:00Z,39.9,-105.1,5.0,1.0,320,7,,10.0,30.059055,,,TRUE,TRUE,,,,,,,CLR,,,,,,,,VFR,,,,,,,,,,,,SPECI,1724.0
KOWB 240729Z AUTO 10015KT 7SM -RA SCT029 BKN075 OVC090 06/04 A3009 RMK AO2 PRESFR P0005,KOWB,2018-03-24T07:29:00Z,37.72,-87.17,6.0,4.0,100,15,,7.0,30.088583,,,TRUE,TRUE,,,,,,-RA,SCT,2900,BKN,7500,OVC,9000,,,VFR,,,,,,0.05,,,,,,METAR,124.0
EGVA 240729Z AUTO 05009KT M M SCT012 OVC029 M A2950 RMK AO2 RAE24 CIG 011V029 CIG 012 RWY09 SLPNO ALSTG ESTMD RVRNO $,EGVA,2018-03-24T07:29:00Z,51.67,-1.77,,,50,9,,,29.500984,,,TRUE,TRUE,TRUE,,,,,,SCT,1200,OVC,2900,,,,,,,,,,,,,,,,,SPECI,87.0
KPHP 240728Z AUTO 32011KT 10SM OVC016 04/02 A2996 RMK AO2 T00390022,KPHP,2018-03-24T07:28:00Z,44.05,-101.6,3.9,2.2,320,11,,10.0,29.958662,,,TRUE,TRUE,,,,,,,OVC,1600,,,,,,,MVFR,,,,,,,,,,,,METAR,672.0
CYMA 240728Z 02012G23KT 350V060 20SM SKC M11/M23 A2992 RMK WSHFT 0716 SLP182,CYMA,2018-03-24T07:28:00Z,63.62,-135.87,-11.0,-23.0,20,12,23,20.0,29.920275,1018.2,,,,,,,,,,SKC,,,,,,,,VFR,,,,,,,,,,,,SPECI,504.0
KGRK 240728Z AUTO 17012KT 10SM OVC014 19/16 A2989 RMK AO2 SLP114,KGRK,2018-03-24T07:28:00Z,31.07,-97.83,19.0,16.0,170,12,,10.0,29.890747,1011.4,,TRUE,TRUE,,,,,,,OVC,1400,,,,,,,MVFR,,,,,,,,,,,,SPECI,309.0
LTFE 240728Z 19008KT 9999 -TSRA FEW020CB SCT030 BKN090 11/07 Q1003 RESHRA BECMG TL0820 NSW RMK RWY10 23007KT,LTFE,2018-03-24T07:28:00Z,37.25,27.67,11.0,7.0,190,8,,6.21,29.616142,,,,,,,,,,-TSRA,FEW,2000,SCT,3000,BKN,9000,,,VFR,,,,,,,,,,,,SPECI,6.0
EHEH 240728Z AUTO 12007KT 060V220 9999 SCT025 OVC033 06/02 Q1002 BLU 12006KT 9999 BKN025 BKN030,EHEH,2018-03-24T07:28:00Z,51.45,5.38,6.0,2.0,120,7,,6.21,29.586615,,,TRUE,,,,,,,,SCT,2500,OVC,3300,BKN,2500,BKN,3000,VFR,,,,,,,,,,,,SPECI,22.0
LTAR 240728Z 19023KT 150V210 8000 -SHRA BKN030 BKN070 14/M01 Q1001 RMK RWY19 16022G33KT,LTAR,2018-03-24T07:28:00Z,39.8,36.9,14.0,-1.0,190,23,,4.97,29.557087,,,,,,,,,,-SHRA,BKN,3000,BKN,7000,,,,,MVFR,,,,,,,,,,,,SPECI,1271.0
FAGG 240728Z 24005KT 9999 -RA FEW009 SCT012 BKN028 16/16 Q1009,FAGG,2018-03-24T07:28:00Z,-34.0,22.37,16.0,16.0,240,5,,6.21,29.793306,,,,,,,,,,-RA,FEW,900,SCT,1200,BKN,2800,,,MVFR,,,,,,,,,,,,SPECI,193.0
KOYM 240727Z AUTO 00000KT 10SM CLR M06/M08 A3018 RMK AO2,KOYM,2018-03-24T07:27:00Z,,,-6.0,-8.0,0,0,,10.0,30.180119,,,TRUE,TRUE,,,,,,,CLR,,,,,,,,VFR,,,,,,,,,,,,METAR,
KQVF 240727Z AUTO 14010G15KT 040V180 9999 FEW032 SCT043 BKN055 OVC070 30/26 A2989 RMK AO2 WSHFT 25 SLPNO WND DATA ESTMD,KQVF,2018-03-24T07:27:00Z,,,30.0,26.0,140,10,15,6.21,29.890747,,,TRUE,TRUE,,,,,,,FEW,3200,SCT,4300,BKN,5500,OVC,7000,VFR,,,,,,,,,,,,SPECI,
PASM 240727Z AUTO 16009KT 1/2SM FZFG OVC002 M04/M04 A3002 RMK AO2 FZRANO,PASM,2018-03-24T07:27:00Z,62.07,-163.3,-4.0,-4.0,160,9,,0.5,30.02067,,,TRUE,TRUE,,,,TRUE,,FZFG,OVC,200,,,,,,,LIFR,,,,,,,,,,,,SPECI,92.0
KTTS 240726Z AUTO 00000KT 4SM BR CLR 09/09 A3019 RMK AO2 VIS 1 1/8 RWY15 SLP228 $,KTTS,2018-03-24T07:26:00Z,28.62,-80.72,9.0,9.0,0,0,,4.0,30.188976,1022.8,,TRUE,TRUE,TRUE,,,,,BR,CLR,,,,,,,,MVFR,,,,,,,,,,,,SPECI,3.0
ETEB 240726Z 07006KT 3600 BR CLR 01/01 A2957 RMK AO2A SLP045 FZRANO $,ETEB,2018-03-24T07:26:00Z,49.32,10.62,1.0,1.0,70,6,,2.24,29.568897,1004.5,,,TRUE,TRUE,,,TRUE,,BR,CLR,,,,,,,,IFR,,,,,,,,,,,,SPECI,467.0
CYQZ 240726Z AUTO 27003KT 140V290 9SM SCT075 BKN090 BKN110 M02/M03 A2968 RMK SLP077,CYQZ,2018-03-24T07:26:00Z,53.02,-122.52,-2.0,-3.0,270,3,,9.0,29.681103,1007.7,,TRUE,,,,,,,,SCT,7500,BKN,9000,BKN,11000,,,VFR,,,,,,,,,,,,SPECI,545.0
KSTK 240725Z AUTO 33010KT 10SM CLR 03/02 A2999 RMK AO2,KSTK,2018-03-24T07:25:00Z,40.62,-103.27,3.0,2.0,330,10,,10.0,29.991142,,,TRUE,TRUE,,,,,,,CLR,,,,,,,,VFR,,,,,,,,,,,,SPECI,1231.0
EHFS 240725Z AUTO 12013KT 9999 NSC 05/03 Q1000 W///H///,EHFS,2018-03-24T07:25:00Z,51.45,3.6,5.0,3.0,120,13,,6.21,29.52756,,,TRUE,,,,,,,,CLR,,,,,,,,VFR,,,,,,,,,,,,METAR,32.0
EBCV 240725Z AUTO 10008KT 9999 SCT070/// SCT093/// 06/02 Q1001 BLU,EBCV,2018-03-24T07:25:00Z,50.57,3.82,6.0,2.0,100,8,,6.21,29.557087,,,TRUE,,,,,,,,SCT,7000,SCT,9300,,,,,VFR,,,,,,,,,,,,SPECI,63.0
EBFS 240725Z AUTO 08005KT 9999 BKN023/// 03/00 Q1000 WHT,EBFS,2018-03-24T07:25:00Z,50.22,4.65,3.0,0.0,80,5,,6.21,29.52756,,,TRUE,,,,,,,,BKN,2300,,,,,,,MVFR,,,,,,,,,,,,SPECI,299.0
EBFN 240725Z AUTO 12010KT 9999 OVC059/// 06/03 Q1000 BLU,EBFN,2018-03-24T07:25:00Z,51.07,2.63,6.0,3.0,120,10,,6.21,29.52756,,,TRUE,,,,,,,,OVC,5900,,,,,,,VFR,,,,,,,,,,,,SPECI,9.0
EBDT 240725Z AUTO 14006KT 9999 BKN031/// 06/02 Q1002 BLU,EBDT,2018-03-24T07:25:00Z,51.02,5.07,6.0,2.0,140,6,,6.21,29.586615,,,TRUE,,,,,,,,BKN,3100,,,,,,,VFR,,,,,,,,,,,,SPECI,54.0
LTCE 240725Z 21024G38KT CAVOK 15/M04 Q1006 NOSIG RMK RWY08R 18028G38KT RWY26R 20029G40KT RWY08L 20028G40KT,LTCE,2018-03-24T07:25:00Z,39.95,41.17,15.0,-4.0,210,24,38,6.21,29.704725,,,,,,TRUE,,,,,CAVOK,,,,,,,,VFR,,,2.9,,,,,,,,,SPECI,1758.0
EHSC 240725Z AUTO 13013KT 9999 ///////// 05/03 Q1000 W04/H4,EHSC,2018-03-24T07:25:00Z,51.93,3.67,5.0,3.0,130,13,,6.21,29.52756,,,TRUE,,,,,,,,,,,,,,,,,,,,,,,,,,,,METAR,50.0
EHSA 240725Z AUTO 11011KT 9999 ///////// 05/04 Q1001 W04/H4,EHSA,2018-03-24T07:25:00Z,52.0,3.28,5.0,4.0,110,11,,6.21,29.557087,,,TRUE,,,,,,,,,,,,,,,,,,,,,,,,,,,,METAR,50.0
EHQE 240725Z AUTO 16011KT 6000 SCT015 SCT040 05/04 Q1001 W///H///,EHQE,2018-03-24T07:25:00Z,52.92,4.15,5.0,4.0,160,11,,3.73,29.557087,,,TRUE,,,,,,,,SCT,1500,SCT,4000,,,,,MVFR,,,,,,,,,,,,METAR,50.0
EHPG 240725Z AUTO 12012KT 070V150 7000 BKN021 OVC024 06/04 Q1001 W///H///,EHPG,2018-03-24T07:25:00Z,52.37,3.35,6.0,4.0,120,12,,4.35,29.557087,,,TRUE,,,,,,,,BKN,2100,OVC,2400,,,,,MVFR,,,,,,,,,,,,METAR,50.0
EHMG 240725Z AUTO 19014KT 4300 BR NCD 04/03 Q1001 W///H///,EHMG,2018-03-24T07:25:00Z,53.62,4.97,4.0,3.0,190,14,,2.67,29.557087,,,TRUE,,,,,,,BR,CLR,,,,,,,,IFR,,,,,,,,,,,,METAR,50.0
EHMA 240725Z AUTO 14011KT 3800 BR OVC030 05/04 Q1002 W///H///,EHMA,2018-03-24T07:25:00Z,53.5,5.95,5.0,4.0,140,11,,2.36,29.586615,,,TRUE,,,,,,,BR,OVC,3000,,,,,,,IFR,,,,,,,,,,,,METAR,50.0
EHKV 240725Z AUTO 16013KT 4700 BR FEW031 OVC046 06/04 Q1001 W///H///,EHKV,2018-03-24T07:25:00Z,53.27,3.63,6.0,4.0,160,13,,2.92,29.557087,,,TRUE,,,,,,,BR,FEW,3100,OVC,4600,,,,,IFR,,,,,,,,,,,,METAR,50.0
EHJR 240725Z AUTO 17014KT //// // ///////// 06/04 Q1001 RE// W05/H8,EHJR,2018-03-24T07:25:00Z,53.22,3.22,6.0,4.0,170,14,,,29.557087,,,TRUE,,,,,,,,,,,,,,,,,,,,,,,,,,,,METAR,50.0
EHJA 240725Z AUTO 17014KT 1200 BR FEW009/// BKN011/// 05/05 Q1000 W///H///,EHJA,2018-03-24T07:25:00Z,53.82,2.95,5.0,5.0,170,14,,0.75,29.52756,,,TRUE,,,,,,,BR,FEW,900,BKN,1100,,,,,LIFR,,,,,,,,,,,,METAR,50.0
EHHW 240725Z AUTO 18009KT 2300 BR ///////// 04/04 Q1002 W///H///,EHHW,2018-03-24T07:25:00Z,,,4.0,4.0,180,9,,1.43,29.586615,,,TRUE,,,,,,,BR,,,,,,,,,,,,,,,,,,,,,METAR,
EHFZ 240725Z AUTO 19016KT 2400 BR FEW001 BKN002 05/04 Q1001 W///H///,EHFZ,2018-03-24T07:25:00Z,54.12,4.02,5.0,4.0,190,16,,1.49,29.557087,,,TRUE,,,,,,,BR,FEW,100,BKN,200,,,,,LIFR,,,,,,,,,,,,METAR,50.0
EHFD 240725Z AUTO 20013KT 2500 BR BKN003/// OVC004/// 04/04 Q1001 W///H///,EHFD,2018-03-24T07:25:00Z,54.85,4.7,4.0,4.0,200,13,,1.55,29.557087,,,TRUE,,,,,,,BR,BKN,300,OVC,400,,,,,LIFR,,,,,,,,,,,,METAR,50.0
EHDV 240725Z AUTO 21016KT 170V240 //// // BKN000/// OVC003/// 05/05 Q1000 RE// W///H///,EHDV,2018-03-24T07:25:00Z,54.32,2.93,5.0,5.0,210,16,,,29.52756,,,TRUE,,,,,,,,BKN,0,OVC,300,,,,,,,,,,,,,,,,,METAR,50.0
EHAK 240725Z AUTO 20008KT 150V240 0200 DZRA OVC000/// 03/03 Q1000 REDZ W///H///,EHAK,2018-03-24T07:25:00Z,55.42,3.82,3.0,3.0,200,8,,0.12,29.52756,,,TRUE,,,,,,,DZ RA,OVC,0,,,,,,,LIFR,,,,,,,,,,,,METAR,50.0
PACZ 240725Z AUTO 17021KT 3/4SM -FZRA BR VV003 M02/M02 A2989 RMK AO2 SLP130,PACZ,2018-03-24T07:25:00Z,61.78,-166.03,-2.0,-2.0,170,21,,0.75,29.890747,1013.0,,TRUE,TRUE,,,,,,-FZRA BR,OVX,0,,,,,,,LIFR,,,,,,,,,,,300,SPECI,146.0
EHRD 240725Z AUTO 15005KT 9999 OVC021 06/03 Q1001 NOSIG,EHRD,2018-03-24T07:25:00Z,51.95,4.45,6.0,3.0,150,5,,6.21,29.557087,,,TRUE,,,TRUE,,,,,OVC,2100,,,,,,,MVFR,,,,,,,,,,,,METAR,-5.0
EHGG 240725Z AUTO 13003KT 100V170 3200 BR OVC010 05/05 Q1002 BECMG 6000 BKN016,EHGG,2018-03-24T07:25:00Z,53.12,6.57,5.0,5.0,130,3,,1.99,29.586615,,,TRUE,,,,,,,BR,OVC,1000,,,,,,,IFR,,,,,,,,,,,,METAR,4.0
EHBK 240725Z AUTO VRB02KT 9999 OVC025 05/01 Q1001 NOSIG,EHBK,2018-03-24T07:25:00Z,50.92,5.77,5.0,1.0,0,2,,6.21,29.557087,,,TRUE,,,TRUE,,,,,OVC,2500,,,,,,,MVFR,,,,,,,,,,,,METAR,116.0
EHAM 240725Z 12006KT 9000 OVC025 06/04 Q1002 NOSIG,EHAM,2018-03-24T07:25:00Z,52.32,4.78,6.0,4.0,120,6,,5.59,29.586615,,,,,,TRUE,,,,,OVC,2500,,,,,,,MVFR,,,,,,,,,,,,METAR,9.0
EHWO 240725Z AUTO 11003KT 080V140 9999 OVC021 06/03 Q1001 WHT,EHWO,2018-03-24T07:25:00Z,51.45,4.32,6.0,3.0,110,3,,6.21,29.557087,,,TRUE,,,,,,,,OVC,2100,,,,,,,MVFR,,,,,,,,,,,,METAR,17.0
EHVK 240725Z AUTO 12006KT 9999 OVC026 06/02 Q1002 BLU,EHVK,2018-03-24T07:25:00Z,51.63,5.7,6.0,2.0,120,6,,6.21,29.586615,,,TRUE,,,,,,,,OVC,2600,,,,,,,MVFR,,,,,,,,,,,,METAR,21.0
EHGR 240725Z AUTO 12004KT 090V150 9999 SCT028 BKN031 OVC039 06/03 Q1001 BLU,EHGR,2018-03-24T07:25:00Z,51.57,4.92,6.0,3.0,120,4,,6.21,29.557087,,,TRUE,,,,,,,,SCT,2800,BKN,3100,OVC,3900,,,VFR,,,,,,,,,,,,METAR,13.0
EHDL 240725Z AUTO 12007KT 080V200 9999 FEW016 SCT023 OVC027 06/02 Q1002 WHT,EHDL,2018-03-24T07:25:00Z,52.07,5.87,6.0,2.0,120,7,,6.21,29.586615,,,TRUE,,,,,,,,FEW,1600,SCT,2300,OVC,2700,,,MVFR,,,,,,,,,,,,METAR,52.0
KOTH 240725Z AUTO 14011KT 10SM -RA BR FEW005 BKN026 OVC100 03/02 A2994 RMK AO2 RAE01B23 P0000,KOTH,2018-03-24T07:25:00Z,43.42,-124.25,3.0,2.0,140,11,,10.0,29.940945,,,TRUE,TRUE,,,,,,-RA BR,FEW,500,BKN,2600,OVC,10000,,,MVFR,,,,,,0.005,,,,,,SPECI,4.0
SBMQ 240725Z 21003KT 9999 SCT013 OVC021 25/25 Q1010,SBMQ,2018-03-24T07:25:00Z,0.05,-51.07,25.0,25.0,210,3,,6.21,29.822834,,,,,,,,,,,SCT,1300,OVC,2100,,,,,MVFR,,,,,,,,,,,,METAR,15.0
EBBE 240725Z AUTO 11005KT 9999 BKN030/// 05/01 Q1001 BLU,EBBE,2018-03-24T07:25:00Z,50.75,4.77,5.0,1.0,110,5,,6.21,29.557087,,,TRUE,,,,,,,,BKN,3000,,,,,,,MVFR,,,,,,,,,,,,SPECI,127.0
KMIB 240724Z AUTO 15008KT 7/8SM R30/5500FT BR OVC006 M02/M02 A3001 RMK AO2 FZDZE08FZDZB10E24 SLP189 $,KMIB,2018-03-24T07:24:00Z,48.42,-101.33,-2.0,-2.0,150,8,,0.88,30.008858,1018.9,,TRUE,TRUE,TRUE,,,,,BR,OVC,600,,,,,,,LIFR,,,,,,,,,,,,SPECI,508.0
KCPW 240724Z AUTO 22014G19KT 10SM CLR M07/M09 A3026 RMK AO2,KCPW,2018-03-24T07:24:00Z,37.45,-106.8,-7.0,-9.0,220,14,19,10.0,30.259842,,,TRUE,TRUE,,,,,,,CLR,,,,,,,,VFR,,,,,,,,,,,,SPECI,3584.0
PAPH 240724Z AUTO 23003KT 3SM BR BKN005 M03/M03 A3015 RMK AO2 FZRANO,PAPH,2018-03-24T07:24:00Z,56.95,-158.62,-3.0,-3.0,230,3,,3.0,30.15059,,,TRUE,TRUE,,,,TRUE,,BR,BKN,500,,,,,,,IFR,,,,,,,,,,,,SPECI,29.0
CYOD 240723Z CCA 12004KT 1/2SM R31R/2800FT/D FZFG VV005 M04/M04 A2974 RMK FG8 SLP103,CYOD,2018-03-24T07:23:00Z,54.4,-110.28,-4.0,-4.0,120,4,,0.5,29.740158,1010.3,,,,,,,,,FZFG,OVX,0,,,,,,,LIFR,,,,,,,,,,,500,SPECI,544.0
KFOD 240723Z AUTO 10026G39KT 2 1/2SM UP BR OVC009 00/M01 A2992 RMK AO2 PK WND 09039/0714 P0009 FZRANO,KFOD,2018-03-24T07:23:00Z,42.53,-94.17,0.0,-1.0,100,26,39,2.5,29.920275,,,TRUE,TRUE,,,,TRUE,,BR UP,OVC,900,,,,,,,IFR,,,,,,0.09,,,,,,SPECI,355.0
KEVM 240723Z AUTO 10007KT 10SM CLR M06/M12 A3036 RMK AO2,KEVM,2018-03-24T07:23:00Z,47.42,-92.5,-6.0,-12.0,100,7,,10.0,30.360237,,,TRUE,TRUE,,,,,,,CLR,,,,,,,,VFR,,,,,,,,,,,,SPECI,421.0
YABA 240723Z AUTO 14004KT 110V170 9999 // SCT016 BKN036 BKN093 15/// Q1021,YABA,2018-03-24T07:23:00Z,-34.93,117.8,,,140,4,,6.21,30.147638,,,TRUE,,,,,,,,SCT,1600,BKN,3600,BKN,9300,,,VFR,,,,,,,,,,,,SPECI,69.0
FALE 240722Z VRB02KT CAVOK 25/16 Q1008 NOSIG,FALE,2018-03-24T07:22:00Z,-29.62,31.12,25.0,16.0,0,2,,6.21,29.763779,,,,,,TRUE,,,,,CAVOK,,,,,,,,VFR,,,,,,,,,,,,SPECI,109.0
CZCP 240722Z AUTO 32003KT 270V360 ////SM //// FEW008 M28/M31 A3028,CZCP,2018-03-24T07:22:00Z,70.17,-124.72,-28.0,-31.0,320,3,,,30.280512,,,TRUE,,,,,,,,FEW,800,,,,,,,,,,,,,,,,,,,SPECI,93.0
KMML 240721Z AUTO 10018KT 2SM -SN BR OVC004 M01/M01 A3005 RMK AO2 LTG DSNT SW P0000 FZRANO,KMML,2018-03-24T07:21:00Z,44.45,-95.82,-1.0,-1.0,100,18,,2.0,30.050198,,,TRUE,TRUE,,,,TRUE,,-SN BR,OVC,400,,,,,,,LIFR,,,,,,0.005,,,,,,SPECI,359.0
KMHV 240720Z AUTO 30015KT 10SM CLR 09/02 A2999 RMK A01,KMHV,2018-03-24T07:20:00Z,35.07,-118.15,9.0,2.0,300,15,,10.0,29.991142,,,TRUE,TRUE,,,,,,,CLR,,,,,,,,VFR,,,,,,,,,,,,METAR,849.0
KGZN 240720Z AUTO 19013G21KT 10SM FEW044 FEW050 FEW065 20/15 A2986 RMK AO2,KGZN,2018-03-24T07:20:00Z,32.37,-99.02,20.0,15.0,190,13,21,10.0,29.861221,,,TRUE,TRUE,,,,,,,FEW,4400,FEW,5000,FEW,6500,,,VFR,,,,,,,,,,,,METAR,522.0
K46U 240720Z AUTO 16005KT 10SM FEW060 00/M02 A2995 RMK A01,K46U,2018-03-24T07:20:00Z,43.18,-111.05,0.0,-2.0,160,5,,10.0,29.949802,,,TRUE,TRUE,,,,,,,FEW,6000,,,,,,,VFR,,,,,,,,,,,,METAR,1717.0
EGPU 240720Z AUTO 25007KT 9999 NCD 04/03 Q1000,EGPU,2018-03-24T07:20:00Z,56.5,-6.87,4.0,3.0,250,7,,6.21,29.52756,,,TRUE,,,,,,,,CLR,,,,,,,,VFR,,,,,,,,,,,,METAR,12.0
EGPI 240720Z AUTO VRB03KT 9999 NCD 04/04 Q1001,EGPI,2018-03-24T07:20:00Z,55.68,-6.25,4.0,4.0,0,3,,6.21,29.557087,,,TRUE,,,,,,,,CLR,,,,,,,,VFR,,,,,,,,,,,,METAR,18.0
KCEC 240720Z AUTO 22011KT 10SM BKN026 BKN036 08/03 A3004 RMK AO2 T00780028,KCEC,2018-03-24T07:20:00Z,41.77,-124.22,7.8,2.8,220,11,,10.0,30.041338,,,TRUE,TRUE,,,,,,,BKN,2600,BKN,3600,,,,,MVFR,,,,,,,,,,,,SPECI,17.0
LIRF 240720Z 03007KT CAVOK 07/M01 Q1002 NOSIG,LIRF,2018-03-24T07:20:00Z,41.78,12.22,7.0,-1.0,30,7,,6.21,29.586615,,,,,,TRUE,,,,,CAVOK,,,,,,,,VFR,,,,,,,,,,,,METAR,3.0
EGPB 240720Z 24021KT 9999 SCT015 06/04 Q0994 NOSIG,EGPB,2018-03-24T07:20:00Z,59.87,-1.3,6.0,4.0,240,21,,6.21,29.350393,,,,,,TRUE,,,,,SCT,1500,,,,,,,VFR,,,,,,,,,,,,METAR,5.0
EGHH 240720Z 08006KT 4500 -DZ BR BKN007 07/07 Q0997,EGHH,2018-03-24T07:20:00Z,50.78,-1.83,7.0,7.0,80,6,,2.8,29.438976,,,,,,,,,,-DZ BR,BKN,700,,,,,,,IFR,,,,,,,,,,,,METAR,11.0
LTBS 240720Z 06004KT 9999 SCT025 BKN080 12/10 Q1004 R012///95 NOSIG,LTBS,2018-03-24T07:20:00Z,36.7,28.77,12.0,10.0,60,4,,6.21,29.64567,,,,,,TRUE,,,,,SCT,2500,BKN,8000,,,,,VFR,,,,,,,,,,,,METAR,2.0
LTFJ 240720Z 03007KT 350V050 6000 -SHRA BKN004 BKN025 07/06 Q1001 NOSIG RMK RWY24 36006KT,LTFJ,2018-03-24T07:20:00Z,40.9,29.3,7.0,6.0,30,7,,3.73,29.557087,,,,,,TRUE,,,,-SHRA,BKN,400,BKN,2500,,,,,LIFR,,,,,,,,,,,,METAR,98.0
LTFC 240720Z 21010KT 9999 FEW025CB BKN030 09/03 Q1002 RMK RWY23 22009KT,LTFC,2018-03-24T07:20:00Z,37.87,30.38,9.0,3.0,210,10,,6.21,29.586615,,,,,,,,,,,FEW,2500,BKN,3000,,,,,MVFR,,,,,,,,,,,,METAR,864.0
LTCS 240720Z 11024KT 9000 FEW040 SCT100 BKN200 17/04 Q1004 RMK RWY22 13027KT,LTCS,2018-03-24T07:20:00Z,37.45,38.9,17.0,4.0,110,24,,5.59,29.64567,,,,,,,,,,,FEW,4000,SCT,10000,BKN,20000,,,VFR,,,,,,,,,,,,METAR,825.0
LTCG 240720Z 08004KT 020V110 6000 FEW035 BKN100 13/10 Q1000 TEMPO 3500 BR,LTCG,2018-03-24T07:20:00Z,41.0,39.8,13.0,10.0,80,4,,3.73,29.52756,,,,,,,,,,,FEW,3500,BKN,10000,,,,,MVFR,,,,,,,,,,,,METAR,30.0
LTBR 240720Z VRB02KT 4800 -SHRA BR FEW007 SCT030 BKN080 08/07 Q1000 BECMG TL0900 7000,LTBR,2018-03-24T07:20:00Z,40.25,29.57,8.0,7.0,0,2,,2.98,29.52756,,,,,,,,,,-SHRA BR,FEW,700,SCT,3000,BKN,8000,,,IFR,,,,,,,,,,,,METAR,232.0
LTBJ 240720Z 13011KT 9999 -SHRA FEW015 SCT030 BKN100 11/09 Q1001 R162///95 NOSIG,LTBJ,2018-03-24T07:20:00Z,38.28,27.15,11.0,9.0,130,11,,6.21,29.557087,,,,,,TRUE,,,,-SHRA,FEW,1500,SCT,3000,BKN,10000,,,VFR,,,,,,,,,,,,METAR,120.0
LTBA 240720Z 35014KT 330V030 4000 -SHRA BR SCT005 BKN022 07/05 Q1002 BECMG 6000,LTBA,2018-03-24T07:20:00Z,40.97,28.82,7.0,5.0,350,14,,2.49,29.586615,,,,,,,,,,-SHRA BR,SCT,500,BKN,2200,,,,,IFR,,,,,,,,,,,,METAR,37.0
LTAJ 240720Z 04008KT 8000 SCT040 BKN070 18/02 Q1003 NOSIG RMK RWY10 07007KT,LTAJ,2018-03-24T07:20:00Z,36.95,37.48,18.0,2.0,40,8,,4.97,29.616142,,,,,,TRUE,,,,,SCT,4000,BKN,7000,,,,,MVFR,,,,,,,,,,,,METAR,855.0
LTAI 240720Z VRB02KT 9999 BKN025 17/12 Q1000 NOSIG RMK RWY18C VRB01KT RWY36R VRB01KT RWY18L VRB01KT,LTAI,2018-03-24T07:20:00Z,36.9,30.8,17.0,12.0,0,2,,6.21,29.52756,,,,,,TRUE,,,,,BKN,2500,,,,,,,MVFR,,,,,,,,,,,,METAR,54.0
LTAF 240720Z 20016KT 9999 SCT035 BKN100 19/14 Q1001 NOSIG RMK RWY23 22016KT,LTAF,2018-03-24T07:20:00Z,36.97,35.28,19.0,14.0,200,16,,6.21,29.557087,,,,,,TRUE,,,,,SCT,3500,BKN,10000,,,,,VFR,,,,,,,,,,,,METAR,20.0
LTAC 240720Z 26010KT 9999 -SHRA BKN030 BKN080 08/04 Q0999 RESHRA NOSIG RMK RWY21L 26010KT RWY03L 26009KT 230V290 RWY21R 27009KT,LTAC,2018-03-24T07:20:00Z,40.12,32.97,8.0,4.0,260,10,,6.21,29.498032,,,,,,TRUE,,,,-SHRA,BKN,3000,BKN,8000,,,,,MVFR,,,,,,,,,,,,METAR,949.0
LTCJ 240720Z 15029G40KT 7000 BLDU FEW040 SCT100 BKN200 23/01 Q1004 RMK RWY20 16027G38KT,LTCJ,2018-03-24T07:20:00Z,37.93,41.12,23.0,1.0,150,29,40,4.35,29.64567,,,,,,,,,,BLDU,FEW,4000,SCT,10000,BKN,20000,,,MVFR,,,,,,,,,,,,METAR,540.0
LTCC 240720Z 14011KT CAVOK 23/03 Q1004 NOSIG RMK RWY16 14011KT,LTCC,2018-03-24T07:20:00Z,37.87,40.2,23.0,3.0,140,11,,6.21,29.64567,,,,,,TRUE,,,,,CAVOK,,,,,,,,VFR,,,,,,,,,,,,METAR,677.0
LTBU 240720Z 01021KT 8000 SCT008 BKN023 03/02 Q1001 RMK RWY23 02016KT,LTBU,2018-03-24T07:20:00Z,41.12,27.92,3.0,2.0,10,21,,4.97,29.557087,,,,,,,,,,,SCT,800,BKN,2300,,,,,MVFR,,,,,,,,,,,,METAR,173.0
LTAT 240720Z 10005KT 080V170 9999 SCT040 BKN100 18/03 Q1003 NOSIG RMK RWY03 13005KT,LTAT,2018-03-24T07:20:00Z,38.42,38.07,18.0,3.0,100,5,,6.21,29.616142,,,,,,TRUE,,,,,SCT,4000,BKN,10000,,,,,VFR,,,,,,,,,,,,METAR,849.0
LTAP 240720Z 28005KT 6000 -SHRA BKN030 BKN080 11/08 Q0998 NOSIG RMK RWY23 27006KT,LTAP,2018-03-24T07:20:00Z,40.83,35.52,11.0,8.0,280,5,,3.73,29.468504,,,,,,TRUE,,,,-SHRA,BKN,3000,BKN,8000,,,,,MVFR,,,,,,,,,,,,METAR,535.0
LTAG 240720Z 16015KT 7000 SCT017 BKN120 OVC170 19/14 Q1001 NOSIG,LTAG,2018-03-24T07:20:00Z,37.0,35.42,19.0,14.0,160,15,,4.35,29.557087,,,,,,TRUE,,,,,SCT,1700,BKN,12000,OVC,17000,,,MVFR,,,,,,,,,,,,METAR,66.0
ENDR 240720Z AUTO 17024G38KT 05/03 Q0984,ENDR,2018-03-24T07:20:00Z,64.35,7.8,5.0,3.0,170,24,38,,29.055119,,,TRUE,,,,,,,,,,,,,,,,,,,,,,,,,,,,METAR,50.0
LCEN 240720Z 30018KT 9999 FEW025 SCT100 BKN180 18/08 Q1005 NOSIG RMK RWY11 30017KT,LCEN,2018-03-24T07:20:00Z,35.13,33.5,18.0,8.0,300,18,,6.21,29.675198,,,,,,TRUE,,,,,FEW,2500,SCT,10000,BKN,18000,,,VFR,,,,,,,,,,,,METAR,91.0
ETHN 240720Z 11008KT 6000 FEW230 02/00 Q1001 WHT,ETHN,2018-03-24T07:20:00Z,49.38,9.97,2.0,0.0,110,8,,3.73,29.557087,,,,,,,,,,,FEW,23000,,,,,,,MVFR,,,,,,,,,,,,METAR,473.0
ETSL 240720Z AUTO 06009KT 4500 // ////// 01/M01 Q0999 ///,ETSL,2018-03-24T07:20:00Z,48.17,10.87,1.0,-1.0,60,9,,2.8,29.498032,,,TRUE,,,,,,,,,,,,,,,,,,,,,,,,,,,,METAR,562.0
ETSI 240720Z AUTO 07006KT //// // ////// 01/00 Q1002 ///,ETSI,2018-03-24T07:20:00Z,48.72,11.52,1.0,0.0,70,6,,,29.586615,,,TRUE,,,,,,,,,,,,,,,,,,,,,,,,,,,,METAR,370.0
ETSB 240720Z AUTO 08007KT 3200 // ////// 02/02 Q1000 ///,ETSB,2018-03-24T07:20:00Z,50.17,7.07,2.0,2.0,80,7,,1.99,29.52756,,,TRUE,,,,,,,,,,,,,,,,,,,,,,,,,,,,SPECI,486.0
ETSA 240720Z AUTO 07010KT 8000 // ////// 02/M02 Q0999 ///,ETSA,2018-03-24T07:20:00Z,48.07,10.9,2.0,-2.0,70,10,,4.97,29.498032,,,TRUE,,,,,,,,,,,,,,,,,,,,,,,,,,,,SPECI,628.0
ETNN 240720Z 12003KT 9999 SCT039 04/01 Q1002 BLU+,ETNN,2018-03-24T07:20:00Z,50.82,6.67,4.0,1.0,120,3,,6.21,29.586615,,,,,,,,,,,SCT,3900,,,,,,,VFR,,,,,,,,,,,,METAR,135.0
ETHA 240720Z AUTO 07007KT //// // ////// M00/M03 Q0998 ///,ETHA,2018-03-24T07:20:00Z,47.82,10.87,0.0,-3.0,70,7,,,29.468504,,,TRUE,,,,,,,,,,,,,,,,,,,,,,,,,,,,SPECI,760.0
ETWM 240720Z AUTO 14003KT 9999 // ////// 05/02 Q1003 ///,ETWM,2018-03-24T07:20:00Z,52.72,7.33,5.0,2.0,140,3,,6.21,29.616142,,,TRUE,,,,,,,,,,,,,,,,,,,,,,,,,,,,SPECI,21.0
ETNW 240720Z VRB02KT 4300 BR BKN050 06/04 Q1004 GRN,ETNW,2018-03-24T07:20:00Z,52.45,9.42,6.0,4.0,0,2,,2.67,29.64567,,,,,,,,,,BR,BKN,5000,,,,,,,IFR,,,,,,,,,,,,METAR,70.0
ETNT 240720Z 15003KT 3000 BR BKN015 05/04 Q1003 YLO,ETNT,2018-03-24T07:20:00Z,53.53,7.67,5.0,4.0,150,3,,1.86,29.616142,,,,,,,,,,BR,BKN,1500,,,,,,,IFR,,,,,,,,,,,,METAR,12.0
ETNS 240720Z AUTO 15005KT 5000 // ////// 04/03 Q1004 ///,ETNS,2018-03-24T07:20:00Z,54.47,9.52,4.0,3.0,150,5,,3.11,29.64567,,,TRUE,,,,,,,,,,,,,,,,,,,,,,,,,,,,SPECI,25.0
ETMN 240720Z 14003KT 1600 MIFG BR FEW018 OVC045 05/04 Q1003 YLO,ETMN,2018-03-24T07:20:00Z,53.77,8.67,5.0,4.0,140,3,,0.99,29.616142,,,,,,,,,,MIFG BR,FEW,1800,OVC,4500,,,,,LIFR,,,,,,,,,,,,METAR,31.0
ETML 240720Z AUTO 16011KT //// // ////// 02/01 Q1004 ///,ETML,2018-03-24T07:20:00Z,,,2.0,1.0,160,11,,,29.64567,,,TRUE,,,,,,,,,,,,,,,,,,,,,,,,,,,,METAR,
ETHS 240720Z 14003KT 6000 SCT020 BKN050 04/01 Q1004 WHT,ETHS,2018-03-24T07:20:00Z,52.92,10.18,4.0,1.0,140,3,,3.73,29.64567,,,,,,,,,,,SCT,2000,BKN,5000,,,,,MVFR,,,,,,,,,,,,METAR,88.0
ETHF 240720Z 10004KT 6000 SCT015 BKN048 04/02 Q1003 WHT,ETHF,2018-03-24T07:20:00Z,51.12,9.27,4.0,2.0,100,4,,3.73,29.616142,,,,,,,,,,,SCT,1500,BKN,4800,,,,,MVFR,,,,,,,,,,,,METAR,181.0
ETHC 240720Z 07004KT 6000 OVC050 04/02 Q1004 WHT,ETHC,2018-03-24T07:20:00Z,52.6,10.02,4.0,2.0,70,4,,3.73,29.64567,,,,,,,,,,,OVC,5000,,,,,,,MVFR,,,,,,,,,,,,METAR,52.0
ETHB 240720Z AUTO 01002KT 4900 // ////// 06/04 Q1003 ///,ETHB,2018-03-24T07:20:00Z,52.27,9.07,6.0,4.0,10,2,,3.04,29.616142,,,TRUE,,,,,,,,,,,,,,,,,,,,,,,,,,,,SPECI,78.0
ETGG 240720Z AUTO 21003KT //// // ////// 05/04 Q1003 ///,ETGG,2018-03-24T07:20:00Z,54.83,9.5,5.0,4.0,210,3,,,29.616142,,,TRUE,,,,,,,,,,,,,,,,,,,,,,,,,,,,SPECI,33.0
LGIR 240720Z 19004KT 9999 FEW020 15/07 Q1002 NOSIG,LGIR,2018-03-24T07:20:00Z,35.32,25.17,15.0,7.0,190,4,,6.21,29.586615,,,,,,TRUE,,,,,FEW,2000,,,,,,,VFR,,,,,,,,,,,,METAR,39.0
ENAL 240720Z 21027G38KT 9999 -DZ FEW015 SCT028 BKN040 06/03 Q0988,ENAL,2018-03-24T07:20:00Z,62.57,6.12,6.0,3.0,210,27,38,6.21,29.17323,,,,,,,,,,-DZ,FEW,1500,SCT,2800,BKN,4000,,,VFR,,,,,,,,,,,,METAR,22.0
LGSR 240720Z 26020KT 9999 SCT025 13/05 Q1002,LGSR,2018-03-24T07:20:00Z,36.4,25.48,13.0,5.0,260,20,,6.21,29.586615,,,,,,,,,,,SCT,2500,,,,,,,VFR,,,,,,,,,,,,METAR,40.0
LGBL 240720Z 30004KT 9999 FEW030 13/04 Q1000,LGBL,2018-03-24T07:20:00Z,39.22,22.8,13.0,4.0,300,4,,6.21,29.52756,,,,,,,,,,,FEW,3000,,,,,,,VFR,,,,,,,,,,,,METAR,26.0
EDFH 240720Z 13009KT 1900 BR BKN001 01/01 Q1000,EDFH,2018-03-24T07:20:00Z,49.95,7.27,1.0,1.0,130,9,,1.18,29.52756,,,,,,,,,,BR,BKN,100,,,,,,,LIFR,,,,,,,,,,,,METAR,498.0
EDFM 240720Z VRB02KT CAVOK 05/05 Q1002,EDFM,2018-03-24T07:20:00Z,49.47,8.52,5.0,5.0,0,2,,6.21,29.586615,,,,,,,,,,,CAVOK,,,,,,,,VFR,,,,,,,,,,,,METAR,100.0
LTAZ 240720Z VRB05KT 9999 BKN033 BKN080 14/03 Q0999 RMK RWY29 20024KT,LTAZ,2018-03-24T07:20:00Z,38.77,34.55,14.0,3.0,0,5,,6.21,29.498032,,,,,,,,,,,BKN,3300,BKN,8000,,,,,VFR,,,2.4,,,,,,,,,SPECI,945.0
CYSF 240719Z AUTO 15011G17KT 9SM -SN OVC018 M02/M05 A2971 RMK SLP078,CYSF,2018-03-24T07:19:00Z,59.25,-105.82,-2.0,-5.0,150,11,17,9.0,29.71063,1007.8,,TRUE,,,,,,,-SN,OVC,1800,,,,,,,MVFR,,,,,,,,,,,,SPECI,250.0
KCOE 240719Z AUTO 04004KT 7SM BKN001 BKN023 OVC035 01/00 A2979 RMK AO2 FZRANO,KCOE,2018-03-24T07:19:00Z,47.77,-116.82,1.0,0.0,40,4,,7.0,29.790354,,,TRUE,TRUE,,,,TRUE,,,BKN,100,BKN,2300,OVC,3500,,,LIFR,,,,,,,,,,,,METAR,707.0
PHNG 240719Z COR 08011G17KT 4SM -RA SCT018 BKN026 OVC050 23/20 A3001 RMK AO2 P0004 T02280200 $,PHNG,2018-03-24T07:19:00Z,21.43,-157.77,22.8,20.0,80,11,17,4.0,30.008858,,TRUE,,TRUE,TRUE,,,,,-RA,SCT,1800,BKN,2600,OVC,5000,,,MVFR,,,,,,0.04,,,,,,METAR,3.0
PAGL 240719Z AUTO 14007KT 10SM BKN018 M04/M06 A3004 RMK AO2 FZRANO,PAGL,2018-03-24T07:19:00Z,64.55,-163.03,-4.0,-6.0,140,7,,10.0,30.041338,,,TRUE,TRUE,,,,TRUE,,,BKN,1800,,,,,,,MVFR,,,,,,,,,,,,METAR,8.0
PAEH 240719Z AUTO 18012KT 130V200 10SM FEW012 00/M01 A3008 RMK AO2 SLP198,PAEH,2018-03-24T07:19:00Z,58.65,-162.07,0.0,-1.0,180,12,,10.0,30.079725,1019.8,,TRUE,TRUE,,,,,,,FEW,1200,,,,,,,VFR,,,,,,,,,,,,METAR,161.0
KEGE 240718Z 24004KT 10SM BKN008 OVC016 02/01 A3015 RMK AO2 FZRANO,KEGE,2018-03-24T07:18:00Z,39.63,-106.92,2.0,1.0,240,4,,10.0,30.15059,,,,TRUE,,,,TRUE,,,BKN,800,OVC,1600,,,,,IFR,,,,,,,,,,,,SPECI,1993.0
UTO8 M M M 235/-16/-18/2813+18/M/ PK WND 2918 0657Z 8022 80MM,UTO8,2018-03-24T07:18:00Z,,,,,,,,4.98,,,,,,,,,,,,,,,,,,,,,,,,,,,,,,,,METAR,
PAHP 240717Z AUTO 17014KT 10SM SCT009 M01/M02 A2993 RMK AO2 FZRANO,PAHP,2018-03-24T07:17:00Z,61.52,-166.15,-1.0,-2.0,170,14,,10.0,29.929134,,,TRUE,TRUE,,,,TRUE,,,SCT,900,,,,,,,VFR,,,,,,,,,,,,SPECI,5.0
CYYT 240716Z 28014G19KT 15SM SCT005 OVC015 M00/M01 A2965 RMK SF3SC5 SLP048,CYYT,2018-03-24T07:16:00Z,47.62,-52.72,0.0,-1.0,280,14,19,15.0,29.648623,1004.8,,,,,,,,,,SCT,500,OVC,1500,,,,,MVFR,,,,,,,,,,,,SPECI,140.0
CYXS 240716Z AUTO 17004KT 9SM SCT037 SCT090 SCT110 BKN140 M02/M02 A2964 RMK SLP075,CYXS,2018-03-24T07:16:00Z,53.9,-122.68,-2.0,-2.0,170,4,,9.0,29.639763,1007.5,,TRUE,,,,,,,,SCT,3700,SCT,9000,SCT,11000,BKN,14000,VFR,,,,,,,,,,,,SPECI,691.0
K40B 240716Z AUTO 00000KT M09/M10 A2995 RMK AO1 SLP164 T10881103 52005,K40B,2018-03-24T07:16:00Z,46.62,-69.52,-8.8,-10.3,0,0,,,29.949802,1016.4,,TRUE,TRUE,,,,,,,,,,,,,,,,0.5,,,,,,,,,,,SPECI,314.0
KGVE 240716Z AUTO 00000KT 10SM CLR M03/M06 A3021 RMK AO1,KGVE,2018-03-24T07:16:00Z,38.15,-78.17,-3.0,-6.0,0,0,,10.0,30.209646,,,TRUE,TRUE,,,,,,,CLR,,,,,,,,VFR,,,,,,,,,,,,METAR,138.0
KO22 240715Z AUTO 00000KT 10SM FEW055 02/02 A3013 RMK AO1,KO22,2018-03-24T07:15:00Z,38.03,-120.42,2.0,2.0,0,0,,10.0,30.129921,,,TRUE,TRUE,,,,,,,FEW,5500,,,,,,,VFR,,,,,,,,,,,,METAR,646.0
KX60 240715Z AUTO 00000KT 10SM 08/07 A3022 RMK A01,KX60,2018-03-24T07:15:00Z,29.35,-82.47,8.0,7.0,0,0,,10.0,30.221457,,,TRUE,TRUE,,,,,,,,,,,,,,,,,,,,,,,,,,,SPECI,23.0
MMQT 240715Z RTD 10005KT 8SM SKC 12/05 A3032,MMQT,2018-03-24T07:15:00Z,20.62,-100.18,12.0,5.0,100,5,,8.0,30.318897,,,,,,,,,,,SKC,,,,,,,,VFR,,,,,,,,,,,,METAR,1919.0
LHKE 240715Z 09006KT 6000 OVC013 00/M02 Q1006 BECMG 8000 BKN015 RMK GRN,LHKE,2018-03-24T07:15:00Z,46.92,19.75,0.0,-2.0,90,6,,3.73,29.704725,,,,,,,,,,,OVC,1300,,,,,,,MVFR,,,,,,,,,,,,METAR,115.0
LHDC 240715Z 13001KT 0150 FZFG VV001 M02/M03 Q1007 NOSIG,LHDC,2018-03-24T07:15:00Z,47.47,21.62,-2.0,-3.0,130,1,,0.09,29.734253,,,,,,TRUE,,,,FZFG,OVX,0,,,,,,,LIFR,,,,,,,,,,,100,METAR,112.0
LHPA 240715Z 05004KT 8000 NSC 02/M01 Q1005 NOSIG RMK BLU,LHPA,2018-03-24T07:15:00Z,47.35,17.5,2.0,-1.0,50,4,,4.97,29.675198,,,,,,TRUE,,,,,CLR,,,,,,,,MVFR,,,,,,,,,,,,METAR,148.0
LHUD 240715Z 14005KT 6000 BKN013 00/M01 Q1007,LHUD,2018-03-24T07:15:00Z,46.25,20.1,0.0,-1.0,140,5,,3.73,29.734253,,,,,,,,,,,BKN,1300,,,,,,,MVFR,,,,,,,,,,,,METAR,84.0
LHSM 240715Z 05003KT CAVOK 04/M00 Q1005,LHSM,2018-03-24T07:15:00Z,46.68,17.17,4.0,0.0,50,3,,6.21,29.675198,,,,,,,,,,,CAVOK,,,,,,,,VFR,,,,,,,,,,,,METAR,125.0
LHPR 240715Z 09003KT 050V110 7000 NSC 01/M01 Q1006 RMK WHT,LHPR,2018-03-24T07:15:00Z,47.63,17.82,1.0,-1.0,90,3,,4.35,29.704725,,,,,,,,,,,CLR,,,,,,,,MVFR,,,,,,,,,,,,METAR,129.0
LHPP 240715Z 08008KT 0300 FZFG VV003 M01/M01 Q1005,LHPP,2018-03-24T07:15:00Z,45.98,18.23,-1.0,-1.0,80,8,,0.19,29.675198,,,,,,,,,,FZFG,OVX,0,,,,,,,LIFR,,,,,,,,,,,300,METAR,305.0
KFTK 240714Z AUTO 06007KT 7SM -RA BKN034 OVC048 05/04 A3015 RMK AO2 PRESFR SLP216,KFTK,2018-03-24T07:14:00Z,37.88,-85.97,5.0,4.0,60,7,,7.0,30.15059,1021.6,,TRUE,TRUE,,,,,,-RA,BKN,3400,OVC,4800,,,,,VFR,,,,,,,,,,,,SPECI,230.0
KAPC 240713Z 25007KT 6SM RA BR FEW023 SCT029 OVC035 09/07 A3012 RMK AO2 WSHFT 0643 P0007 T00890072,KAPC,2018-03-24T07:13:00Z,38.2,-122.28,8.9,7.2,250,7,,6.0,30.121063,,,,TRUE,,,,,,RA BR,FEW,2300,SCT,2900,OVC,3500,,,VFR,,,,,,0.07,,,,,,SPECI,13.0
KAKR 240712Z AUTO 04003KT 10SM SCT015 M04/M07 A3026 RMK AO2 T10391072,KAKR,2018-03-24T07:12:00Z,41.03,-81.47,-3.9,-7.2,40,3,,10.0,30.259842,,,TRUE,TRUE,,,,,,,SCT,1500,,,,,,,VFR,,,,,,,,,,,,SPECI,363.0
PHHI 240711Z AUTO 00000KT 4SM +RA BR SCT009 SCT013 BKN021 OVC036 19/19 A3003 RMK AO2 CIG 021V040 SLP163 RVRNO $,PHHI,2018-03-24T07:11:00Z,21.48,-158.05,19.0,19.0,0,0,,4.0,30.029528,1016.3,,TRUE,TRUE,TRUE,,,,,+RA BR,SCT,900,SCT,1300,BKN,2100,OVC,3600,MVFR,,,,,,,,,,,,METAR,255.0
ETIC 240711Z AUTO 00000KT 9000 BR CLR 01/01 A2960 RMK AO2 SLP043 $,ETIC,2018-03-24T07:11:00Z,49.7,11.93,1.0,1.0,0,0,,5.59,29.601377,1004.3,,TRUE,TRUE,TRUE,,,,,BR,CLR,,,,,,,,VFR,,,,,,,,,,,,SPECI,415.0
OEKJ 24700Z 12006KT CAVOK 28/M09 Q1020,OEKJ,2018-03-24T07:10:16Z,24.07,47.58,28.0,-9.0,120,6,,6.21,,,,,,,,,,,,CAVOK,,,,,,,,VFR,,,,,,,,,,,,METAR,503.0
KRDM 240710Z AUTO 18003KT 7SM -SN FEW009 SCT025 BKN070 01/M01 A2967 RMK AO2 P0000 T00111006,KRDM,2018-03-24T07:10:00Z,44.25,-121.15,1.1,-0.6,180,3,,7.0,29.66929,,,TRUE,TRUE,,,,,,-SN,FEW,900,SCT,2500,BKN,7000,,,VFR,,,,,,0.005,,,,,,METAR,938.0
VCRI 240710Z 03006KT 350V070 CAVOK 32/21 Q1009 NOSIG,VCRI,2018-03-24T07:10:00Z,6.28,81.13,32.0,21.0,30,6,,6.21,29.793306,,,,,,TRUE,,,,,CAVOK,,,,,,,,VFR,,,,,,,,,,,,METAR,7.0
VCBI 240710Z 28008KT 240V310 9999 FEW018 31/24 Q1009 NOSIG,VCBI,2018-03-24T07:10:00Z,7.17,79.87,31.0,24.0,280,8,,6.21,29.793306,,,,,,TRUE,,,,,FEW,1800,,,,,,,VFR,,,,,,,,,,,,METAR,8.0
KOFF 240706Z 02006KT 6SM -RA BR BKN021 06/05 A2980 RMK AO2A CIG 008 RWY30 SLP098 $,KOFF,2018-03-24T07:06:00Z,41.12,-95.92,6.0,5.0,20,6,,6.0,29.799213,1009.8,,,TRUE,TRUE,,,,,-RA BR,BKN,2100,,,,,,,MVFR,,,,,,,,,,,,SPECI,319.0
PADM 240706Z AUTO 20008KT 10SM SCT011 M02/M03 A3008 RMK AO2 FZRANO,PADM,2018-03-24T07:06:00Z,61.87,-162.03,-2.0,-3.0,200,8,,10.0,30.079725,,,TRUE,TRUE,,,,TRUE,,,SCT,1100,,,,,,,VFR,,,,,,,,,,,,SPECI,31.0
KSKF 240706Z AUTO 15005KT 10SM OVC015 19/17 A2994 RMK AO2 SLP133 $,KSKF,2018-03-24T07:06:00Z,29.37,-98.57,19.0,17.0,150,5,,10.0,29.940945,1013.3,,TRUE,TRUE,TRUE,,,,,,OVC,1500,,,,,,,MVFR,,,,,,,,,,,,SPECI,210.0
MUCL 240705Z AUTO 07016KT 21/14 Q1020,MUCL,2018-03-24T07:05:00Z,21.63,-81.55,21.0,14.0,70,16,,,30.11811,,,TRUE,,,,,,,,,,,,,,,,,,,,,,,,,,,,METAR,5.0
CWHN 240703Z AUTO 20003KT 160V230 5/8SM OVC000 M03/M04 A2973 RMK ICG PAST HR,CWHN,2018-03-24T07:03:00Z,54.88,-109.97,-3.0,-4.0,200,3,,0.63,29.731298,,,TRUE,,,,,,,,OVC,0,,,,,,,LIFR,,,,,,,,,,,,SPECI,636.0
PAFS 240701Z AUTO 19003KT 10SM OVC055 M08/M14 A3000 RMK AO2 SLP178 T10831144 FZRANO,PAFS,2018-03-24T07:01:00Z,63.02,-154.35,-8.3,-14.4,190,3,,10.0,30.0,1017.8,,TRUE,TRUE,,,,TRUE,,,OVC,5500,,,,,,,VFR,,,,,,,,,,,,METAR,126.0
PAMO 240701Z AUTO 12011KT 1/4SM FZFG OVC003 M05/M06 A3000 RMK AO2 SLP169 T10501056 FZRANO,PAMO,2018-03-24T07:01:00Z,62.1,-163.68,-5.0,-5.6,120,11,,0.25,30.0,1016.9,,TRUE,TRUE,,,,TRUE,,FZFG,OVC,300,,,,,,,LIFR,,,,,,,,,,,,METAR,103.0
KPIA 240701Z 08016KT 3SM -SN BR BKN005 OVC009 00/M01 A3012 RMK AO2 P0000 T00001011 $,KPIA,2018-03-24T07:01:00Z,40.67,-89.68,0.0,-1.1,80,16,,3.0,30.121063,,,,TRUE,TRUE,,,,,-SN BR,BKN,500,OVC,900,,,,,IFR,,,,,,0.005,,,,,,SPECI,205.0
OEBH 240700Z 14012KT CAVOK 29/M01 Q1020 NOSIG,OEBH,2018-03-24T07:00:00Z,19.97,42.62,29.0,-1.0,140,12,,6.21,30.11811,,,,,,TRUE,,,,,CAVOK,,,,,,,,VFR,,,,,,,,,,,,METAR,1157.0
FNGI 240700Z VRB02KT 9000 FEW009 BKN018 21/20 Q1015,FNGI,2018-03-24T07:00:00Z,-17.05,15.68,21.0,20.0,0,2,,5.59,29.970472,,,,,,,,,,,FEW,900,BKN,1800,,,,,MVFR,,,,,,,,,,,,METAR,1087.0
FNBG 240700Z VRB03KT 9999 SCT020 BKN100 28/24 Q1009,FNBG,2018-03-24T07:00:00Z,-12.62,13.4,28.0,24.0,0,3,,6.21,29.793306,,,,,,,,,,,SCT,2000,BKN,10000,,,,,VFR,,,,,,,,,,,,METAR,36.0
FWKI 240700Z 09008KT 9999 BKN022 22/19 Q1019 NOSIG,FWKI,2018-03-24T07:00:00Z,-13.77,33.77,22.0,19.0,90,8,,6.21,30.088583,,,,,,TRUE,,,,,BKN,2200,,,,,,,MVFR,,,,,,,,,,,,METAR,1229.0
VTSH 240700Z 09010KT 9000 FEW020 32/25 Q1009 NOSIG,VTSH,2018-03-24T07:00:00Z,7.2,100.58,32.0,25.0,90,10,,5.59,29.793306,,,,,,TRUE,,,,,FEW,2000,,,,,,,VFR,,,,,,,,,,,,METAR,5.0
HEOW 240700Z 35032KT 0700 R01/0700 R19/0700 -SS 19/08 Q1015 TEMPO 0500,HEOW,2018-03-24T07:00:00Z,22.58,28.72,19.0,8.0,350,32,,0.43,29.970472,,,,,,,,,,SS,,,,,,,,,,,,,,,,,,,,,METAR,262.0
HEMA 240700Z 13016KT CAVOK 30/19 Q1006 NOSIG,HEMA,2018-03-24T07:00:00Z,25.55,34.58,30.0,19.0,130,16,,6.21,29.704725,,,,,,TRUE,,,,,CAVOK,,,,,,,,VFR,,,,,,,,,,,,METAR,77.0
HESG 240700Z 33016KT 4000 SA NSC 21/08 Q1013 TEMPO 2000,HESG,2018-03-24T07:00:00Z,26.33,31.75,21.0,8.0,330,16,,2.49,29.911417,,,,,,,,,,SA,CLR,,,,,,,,IFR,,,,,,,,,,,,METAR,70.0
HESC 240700Z 18012KT CAVOK 26/02 Q1015 NOSIG,HESC,2018-03-24T07:00:00Z,28.68,34.07,26.0,2.0,180,12,,6.21,29.970472,,,,,,TRUE,,,,,CAVOK,,,,,,,,VFR,,,,,,,,,,,,METAR,1332.0
HEBL 240700Z 33017KT 6000 NSC 27/06 Q1007 NOSIG,HEBL,2018-03-24T07:00:00Z,22.38,31.62,27.0,6.0,330,17,,3.73,29.734253,,,,,,TRUE,,,,,CLR,,,,,,,,MVFR,,,,,,,,,,,,METAR,188.0
HEBA 240700Z 26015KT 2000 SA NSC 17/07 Q1011 TEMPO 1200,HEBA,2018-03-24T07:00:00Z,30.92,29.7,17.0,7.0,260,15,,1.24,29.852362,,,,,,,,,,SA,CLR,,,,,,,,IFR,,,,,,,,,,,,METAR,54.0
HEAT 240700Z 33022KT 8000 NSC 19/08 Q1016 NOSIG,HEAT,2018-03-24T07:00:00Z,27.05,31.02,19.0,8.0,330,22,,4.97,30.0,,,,,,TRUE,,,,,CLR,,,,,,,,MVFR,,,,,,,,,,,,METAR,70.0
HESH 240700Z 12009KT CAVOK 29/16 Q1007 NOSIG,HESH,2018-03-24T07:00:00Z,27.97,34.38,29.0,16.0,120,9,,6.21,29.734253,,,,,,TRUE,,,,,CAVOK,,,,,,,,VFR,,,,,,,,,,,,METAR,50.0
HEPS 240700Z 35014KT CAVOK 18/13 Q1011 NOSIG,HEPS,2018-03-24T07:00:00Z,31.28,32.25,18.0,13.0,350,14,,6.21,29.852362,,,,,,TRUE,,,,,CAVOK,,,,,,,,VFR,,,,,,,,,,,,METAR,6.0
HEGN 240700Z 35029KT 4000 SA NSC 26/22 Q1007 TEMPO 2000,HEGN,2018-03-24T07:00:00Z,27.18,33.8,26.0,22.0,350,29,,2.49,29.734253,,,,,,,,,,SA,CLR,,,,,,,,IFR,,,,,,,,,,,,METAR,14.0
HESN 240700Z 36011KT 1200 R17/1200 R35/1200 SA NSC 30/04 Q1008 NOSIG,HESN,2018-03-24T07:00:00Z,23.97,32.82,30.0,4.0,360,11,,0.75,29.763779,,,,,,TRUE,,,,SA,CLR,,,,,,,,LIFR,,,,,,,,,,,,METAR,194.0
HELX 240700Z 31007KT 2000 DU NSC 25/16 Q1009 NOSIG,HELX,2018-03-24T07:00:00Z,25.67,32.7,25.0,16.0,310,7,,1.24,29.793306,,,,,,TRUE,,,,DU,CLR,,,,,,,,IFR,,,,,,,,,,,,METAR,88.0
HEAX 240700Z 30019KT 2000 SA NSC 18/05 Q1011 TEMPO 1200,HEAX,2018-03-24T07:00:00Z,31.18,29.93,18.0,5.0,300,19,,1.24,29.852362,,,,,,,,,,SA,CLR,,,,,,,,IFR,,,,,,,,,,,,METAR,7.0
HEMM 240700Z 26025KT 1500 R33/1500 SA NSC 16/06 Q1013 TEMPO 1200,HEMM,2018-03-24T07:00:00Z,31.32,27.22,16.0,6.0,260,25,,0.93,29.911417,,,,,,,,,,SA,CLR,,,,,,,,LIFR,,,,,,,,,,,,METAR,30.0
DIBK 240700Z VRB02KT 8000 OVC010 22/21 Q1013 NOSIG,DIBK,2018-03-24T07:00:00Z,7.72,-5.07,22.0,21.0,0,2,,4.97,29.911417,,,,,,TRUE,,,,,OVC,1000,,,,,,,MVFR,,,,,,,,,,,,SPECI,376.0
CWMZ 240700Z AUTO 03022G28KT M04/M12 RMK AO1 PK WND 03031/0606 SLP269 T10391123 50000,CWMZ,2018-03-24T07:00:00Z,45.02,-80.37,-3.9,-12.3,30,22,28,,,1026.9,,TRUE,TRUE,,,,,,,,,,,,,,,,0.0,,,,,,,,,,,METAR,191.0
CWKK 240700Z AUTO 08005KT M19/M22 RMK AO1 SOG 44 0000 SLP368 T11861215,CWKK,2018-03-24T07:00:00Z,49.72,-88.33,-18.6,-21.5,80,5,,,,1036.8,,TRUE,TRUE,,,,,,,,,,,,,,,,,,,,,,,,,,,METAR,260.0
CWDA 240700Z AUTO 34006KT M02/M02 RMK AO1 SLP121 T10241024 52028,CWDA,2018-03-24T07:00:00Z,50.72,-56.12,-2.4,-2.4,340,6,,,,1012.1,,TRUE,TRUE,,,,,,,,,,,,,,,,2.8,,,,,,,,,,,METAR,29.0
CZMU 240700Z AUTO 10010KT M02/M04 RMK AO1 SOG 31 T10181039,CZMU,2018-03-24T07:00:00Z,53.57,-112.3,-1.8,-3.9,100,10,,,,,,TRUE,TRUE,,,,,,,,,,,,,,,,,,,,,,,,,,,METAR,683.0
CWEF 240700Z AUTO 04021G26KT M01/M01 RMK AO1 PK WND 03026/0653 SLP072 T10101013 51009,CWEF,2018-03-24T07:00:00Z,47.22,-60.12,-1.0,-1.3,40,21,26,,,1007.2,,TRUE,TRUE,,,,,,,,,,,,,,,,0.9,,,,,,,,,,,METAR,26.0
CWPS 240700Z AUTO 30013KT M01/M07 RMK AO1 SLP247 T10131072 58006,CWPS,2018-03-24T07:00:00Z,42.57,-80.03,-1.3,-7.2,300,13,,,,1024.7,,TRUE,TRUE,,,,,,,,,,,,,,,,-0.6,,,,,,,,,,,METAR,175.0
CWNL 240700Z AUTO 04006KT M04/M13 RMK AO1 SLP307 T10441134 52011,CWNL,2018-03-24T07:00:00Z,45.62,-82.97,-4.4,-13.4,40,6,,,,1030.7,,TRUE,TRUE,,,,,,,,,,,,,,,,1.1,,,,,,,,,,,METAR,183.0
CWCI 240700Z AUTO M05/M10 RMK AO1 25 0622Z 0007 SLP329 T10531095,CWCI,2018-03-24T07:00:00Z,47.32,-85.82,-5.3,-9.5,,,,,,1032.9,,TRUE,TRUE,,,,,,,,,,,,,,,,,,,,,,,,,,,METAR,187.0
GUCY 240700Z 04004KT 9999 FEW015 25/22 Q1010 NOSIG,GUCY,2018-03-24T07:00:00Z,9.57,-13.62,25.0,22.0,40,4,,6.21,29.822834,,,,,,TRUE,,,,,FEW,1500,,,,,,,VFR,,,,,,,,,,,,METAR,26.0
NFKD 240700Z AUTO 09006KT //// 27/24 Q1013,NFKD,2018-03-24T07:00:00Z,-19.05,178.15,27.0,24.0,90,6,,,29.911417,,,TRUE,,,,,,,,,,,,,,,,,,,,,,,,,,,,METAR,33.0
NFNR 240700Z AUTO 04006KT //// 26/24 Q////,NFNR,2018-03-24T07:00:00Z,-12.5,177.05,26.0,24.0,40,6,,,,,,TRUE,,,,,,,,,,,,,,,,,,,,,,,,,,,,METAR,26.0
NFLA 240700Z AUTO 17001KT //// 24/// Q1011,NFLA,2018-03-24T07:00:00Z,,,,,170,1,,,29.852362,,,TRUE,,,,,,,,,,,,,,,,,,,,,,,,,,,,METAR,
FNUE 240700Z 18006KT CAVOK 19/17 Q1017,FNUE,2018-03-24T07:00:00Z,-11.77,19.9,19.0,17.0,180,6,,6.21,30.029528,,,,,,,,,,,CAVOK,,,,,,,,VFR,,,,,,,,,,,,METAR,1329.0
FNDU 240700Z 00000KT 9999 FEW033 21/// Q1014,FNDU,2018-03-24T07:00:00Z,-7.4,20.82,,,0,0,,6.21,29.940945,,,,,,,,,,,FEW,3300,,,,,,,VFR,,,0.0,,,,,,,,,METAR,747.0
FNSA 240700Z 00000KT 9999 FEW015 SCT120 21/20 Q1018,FNSA,2018-03-24T07:00:00Z,-9.68,20.43,21.0,20.0,0,0,,6.21,30.059055,,,,,,,,,,,FEW,1500,SCT,12000,,,,,VFR,,,,,,,,,,,,METAR,1093.0
FNUB 240700Z 31004KT 9999 FEW006 SCT020 19/// Q1011,FNUB,2018-03-24T07:00:00Z,-14.93,13.57,,,310,4,,6.21,29.852362,,,,,,,,,,,FEW,600,SCT,2000,,,,,VFR,,,,,,,,,,,,METAR,1761.0
FNUG 240700Z 00000KT 9999 SCT015 BKN070 21/20 Q1013,FNUG,2018-03-24T07:00:00Z,-7.6,15.28,21.0,20.0,0,0,,6.21,29.911417,,,,,,,,,,,SCT,1500,BKN,7000,,,,,VFR,,,,,,,,,,,,METAR,829.0
FNKU 240700Z 00000KT 9999 FEW008 16/15 Q1019,FNKU,2018-03-24T07:00:00Z,-12.37,16.93,16.0,15.0,0,0,,6.21,30.088583,,,,,,,,,,,FEW,800,,,,,,,VFR,,,,,,,,,,,,METAR,1699.0
FNCA 240700Z 00000KT 9999 FEW016 BKN230 26/23 Q1010,FNCA,2018-03-24T07:00:00Z,-5.58,12.18,26.0,23.0,0,0,,6.21,29.822834,,,,,,,,,,,FEW,1600,BKN,23000,,,,,VFR,,,,,,,,,,,,METAR,20.0
FNHU 240700Z 23005KT 9999 SCT006 BKN070 17/16 Q1020,FNHU,2018-03-24T07:00:00Z,-12.82,15.77,17.0,16.0,230,5,,6.21,30.11811,,,,,,,,,,,SCT,600,BKN,7000,,,,,VFR,,,,,,,,,,,,METAR,1701.0
FNMO 240700Z 00000KT 9999 FEW007 SCT250 21/18 Q1009,FNMO,2018-03-24T07:00:00Z,-15.27,12.15,21.0,18.0,0,0,,6.21,29.793306,,,,,,,,,,,FEW,700,SCT,25000,,,,,VFR,,,,,,,,,,,,METAR,64.0
CXAT 240700Z AUTO 11003KT M32/M37 RMK AO1 SOG 02 8003 SLP218 T13241368,CXAT,2018-03-24T07:00:00Z,73.0,-85.03,-32.4,-36.8,110,3,,,,1021.8,,TRUE,TRUE,,,,,,,,,,,,,,,,,,,,,,,,,,,METAR,19.0
CXWB 240700Z AUTO 30003KT M22/M24 RMK AO1 SLP171 T12161238 56017,CXWB,2018-03-24T07:00:00Z,65.88,-89.45,-21.6,-23.8,300,3,,,,1017.1,,TRUE,TRUE,,,,,,,,,,,,,,,,-1.7,,,,,,,,,,,METAR,18.0
HEIS 240700Z 28010KT 9999 SCT025 BKN100 18/14 Q1012,HEIS,2018-03-24T07:00:00Z,30.58,32.25,18.0,14.0,280,10,,6.21,29.88189,,,,,,,,,,,SCT,2500,BKN,10000,,,,,VFR,,,,,,,,,,,,METAR,3.0
HETR 240700Z 35014KT CAVOK 24/15 Q1009,HETR,2018-03-24T07:00:00Z,28.22,33.65,24.0,15.0,350,14,,6.21,29.793306,,,,,,,,,,,CAVOK,,,,,,,,VFR,,,,,,,,,,,,METAR,35.0
SBCA 240700Z 05018KT CAVOK 20/17 Q1014,SBCA,2018-03-24T07:00:00Z,-25.0,-53.5,20.0,17.0,50,18,,6.21,29.940945,,,,,,,,,,,CAVOK,,,,,,,,VFR,,,,,,,,,,,,METAR,754.0
TBPB 240700Z 10014KT 9999 FEW022 25/20 Q1013 NOSIG,TBPB,2018-03-24T07:00:00Z,13.07,-59.48,25.0,20.0,100,14,,6.21,29.911417,,,,,,TRUE,,,,,FEW,2200,,,,,,,VFR,,,,,,,,,,,,METAR,52.0
RMKS SH TO NE TO SE ,RMKS,2018-03-24T07:00:00Z,,,,,,,,,,,,,,,,,,,SH,,,,,,,,,,,,,,,,,,,,,METAR,
AGGH 240700Z 02006KT 9999 FEW016 FEW018CB BKN030 28/26 Q1006,AGGH,2018-03-24T07:00:00Z,-9.42,160.05,28.0,26.0,20,6,,6.21,29.704725,,,,,,,,,,,FEW,1600,FEW,1800,BKN,3000,,,MVFR,,,,,,,,,,,,METAR,9.0
UBBY 240700Z VRB02KT 9999 SCT006 OVC013 08/06 Q1011 R33/////// NOSIG RMK MT OBSC,UBBY,2018-03-24T07:00:00Z,41.57,46.67,8.0,6.0,0,2,,6.21,29.852362,,,,,,TRUE,,,,,SCT,600,OVC,1300,,,,,MVFR,,,,,,,,,,,,METAR,390.0
SBRP 240700Z 00000KT CAVOK 22/19 Q1014,SBRP,2018-03-24T07:00:00Z,-21.12,-47.77,22.0,19.0,0,0,,6.21,29.940945,,,,,,,,,,,CAVOK,,,,,,,,VFR,,,,,,,,,,,,METAR,549.0
SBVT 240700Z 34001KT 9999 FEW020 23/23 Q1016,SBVT,2018-03-24T07:00:00Z,-20.27,-40.27,23.0,23.0,340,1,,6.21,30.0,,,,,,,,,,,FEW,2000,,,,,,,VFR,,,,,,,,,,,,METAR,4.0
OLBA 240700Z 22016KT 5000 BR BKN018 19/15 Q1009 NOSIG,OLBA,2018-03-24T07:00:00Z,33.82,35.47,19.0,15.0,220,16,,3.11,29.793306,,,,,,TRUE,,,,BR,BKN,1800,,,,,,,MVFR,,,,,,,,,,,,METAR,19.0
"GLRB 240700Z 00000KT 8000 SCT012 FEW024CB 25/24 Q1009 RMK CB-S,BRVC",GLRB,2018-03-24T07:00:00Z,6.25,-10.33,25.0,24.0,0,0,,4.97,29.793306,,,,,,,,,,,SCT,1200,FEW,2400,,,,,MVFR,,,,,,,,,,,,METAR,18.0
SBJP 240700Z 24003KT 9999 SCT020 24/22 Q1011,SBJP,2018-03-24T07:00:00Z,-7.15,-34.95,24.0,22.0,240,3,,6.21,29.852362,,,,,,,,,,,SCT,2000,,,,,,,VFR,,,,,,,,,,,,METAR,66.0
SBGR 240700Z 08003KT 9999 BKN011 20/20 Q1017,SBGR,2018-03-24T07:00:00Z,-23.42,-46.47,20.0,20.0,80,3,,6.21,30.029528,,,,,,,,,,,BKN,1100,,,,,,,MVFR,,,,,,,,,,,,METAR,750.0
GQPP 240700Z 04020KT 7000 NSC 16/10 Q1018 NOSIG,GQPP,2018-03-24T07:00:00Z,20.92,-17.02,16.0,10.0,40,20,,4.35,30.059055,,,,,,TRUE,,,,,CLR,,,,,,,,MVFR,,,,,,,,,,,,METAR,3.0
FSIA 240700Z 35009KT CAVOK 30/24 Q1010 NOSIG,FSIA,2018-03-24T07:00:00Z,-4.67,55.52,30.0,24.0,350,9,,6.21,29.822834,,,,,,TRUE,,,,,CAVOK,,,,,,,,VFR,,,,,,,,,,,,METAR,3.0
SULS 240700Z 05003KT CAVOK 19/18 Q1006,SULS,2018-03-24T07:00:00Z,-34.87,-55.1,19.0,18.0,50,3,,6.21,29.704725,,,,,,,,,,,CAVOK,,,,,,,,VFR,,,,,,,,,,,,METAR,30.0
SCCY 240700Z AUTO 05004KT 320V070 CAVOK 02/01 Q1022,SCCY,2018-03-24T07:00:00Z,-45.57,-72.1,2.0,1.0,50,4,,6.21,30.177166,,,TRUE,,,,,,,,CAVOK,,,,,,,,VFR,,,,,,,,,,,,METAR,311.0
SCIC 240700Z AUTO 19009KT 9999 NCD 13/10 Q1019,SCIC,2018-03-24T07:00:00Z,-34.97,-71.22,13.0,10.0,190,9,,6.21,30.088583,,,TRUE,,,,,,,,CLR,,,,,,,,VFR,,,,,,,,,,,,METAR,242.0
SCRM 240700Z 27022KT 9999 SCT020 01/M02 Q0994,SCRM,2018-03-24T07:00:00Z,-62.18,-58.98,1.0,-2.0,270,22,,6.21,29.350393,,,,,,,,,,,SCT,2000,,,,,,,VFR,,,,,,,,,,,,METAR,45.0
SCPQ 240700Z AUTO VRB02KT //// R35/P2000N NCD 04/02 Q1024,SCPQ,2018-03-24T07:00:00Z,-42.33,-73.72,4.0,2.0,0,2,,1.24,30.236221,,,TRUE,,,,,,,,CLR,,,,,,,,IFR,,,,,,,,,,,,METAR,5.0
SCIP 240700Z 09003KT 9999 SCT025 SCT250 21/19 Q1023 NOSIG,SCIP,2018-03-24T07:00:00Z,-27.17,-109.43,21.0,19.0,90,3,,6.21,30.206694,,,,,,TRUE,,,,,SCT,2500,SCT,25000,,,,,VFR,,,,,,,,,,,,METAR,69.0
SCCI 240700Z 260054KT CAVOK 00/M02 Q1016 NOSIG,SCCI,2018-03-24T07:00:00Z,-53.0,-70.83,0.0,-2.0,260,54,,6.21,30.0,,,,,,TRUE,,,,,CAVOK,,,,,,,,VFR,,,,,,,,,,,,METAR,37.0
SCVD 240700Z AUTO 00000KT CAVOK 09/08 Q1024,SCVD,2018-03-24T07:00:00Z,-39.65,-73.07,9.0,8.0,0,0,,6.21,30.236221,,,TRUE,,,,,,,,CAVOK,,,,,,,,VFR,,,,,,,,,,,,METAR,14.0
SCTE 240700Z 22006KT CAVOK 07/06 Q1024 NOSIG,SCTE,2018-03-24T07:00:00Z,-41.42,-73.07,7.0,6.0,220,6,,6.21,30.236221,,,,,,TRUE,,,,,CAVOK,,,,,,,,VFR,,,,,,,,,,,,METAR,86.0
SCQP 240700Z 31002KT 9999 FEW044 11/09 Q1024,SCQP,2018-03-24T07:00:00Z,-38.92,-72.65,11.0,9.0,310,2,,6.21,30.236221,,,,,,,,,,,FEW,4400,,,,,,,VFR,,,,,,,,,,,,METAR,97.0
SCSE 240700Z 25006KT CAVOK 13/12 Q1015,SCSE,2018-03-24T07:00:00Z,-29.92,-71.2,13.0,12.0,250,6,,6.21,29.970472,,,,,,,,,,,CAVOK,,,,,,,,VFR,,,,,,,,,,,,METAR,146.0
SCDA 240700Z 18007KT CAVOK 19/13 Q1015,SCDA,2018-03-24T07:00:00Z,-20.52,-70.17,19.0,13.0,180,7,,6.21,29.970472,,,,,,,,,,,CAVOK,,,,,,,,VFR,,,,,,,,,,,,METAR,52.0
SCIE 240700Z 20005KT 170V240 CAVOK 09/08 Q1023,SCIE,2018-03-24T07:00:00Z,-36.77,-73.07,9.0,8.0,200,5,,6.21,30.206694,,,,,,,,,,,CAVOK,,,,,,,,VFR,,,,,,,,,,,,METAR,16.0
SCCF 240700Z 10008KT CAVOK 11/02 Q1027,SCCF,2018-03-24T07:00:00Z,-22.5,-68.9,11.0,2.0,100,8,,6.21,30.324802,,,,,,,,,,,CAVOK,,,,,,,,VFR,,,,,,,,,,,,METAR,2312.0
SCAR 240700Z 22002KT CAVOK 21/15 Q1014,SCAR,2018-03-24T07:00:00Z,-18.35,-70.32,21.0,15.0,220,2,,6.21,29.940945,,,,,,,,,,,CAVOK,,,,,,,,VFR,,,,,,,,,,,,METAR,59.0
SCFA 240700Z 09004KT CAVOK 16/12 Q1015 NOSIG,SCFA,2018-03-24T07:00:00Z,-23.42,-70.42,16.0,12.0,90,4,,6.21,29.970472,,,,,,TRUE,,,,,CAVOK,,,,,,,,VFR,,,,,,,,,,,,METAR,120.0
SECU 240700Z AUTO VRB02KT ////NDV SCT013 BKN090 OVC110 12/11 Q1026,SECU,2018-03-24T07:00:00Z,-2.87,-78.97,12.0,11.0,0,2,,,30.295275,,,TRUE,,,,,,,,SCT,1300,BKN,9000,OVC,11000,,,,,,,,,,,,,,,METAR,2531.0
SEGU 240700Z 31004KT 9999 FEW010 BKN023 BKN100 25/23 Q1012 NOSIG RMK A2988,SEGU,2018-03-24T07:00:00Z,-2.13,-79.87,25.0,23.0,310,4,,6.21,29.88189,,,,,,TRUE,,,,,FEW,1000,BKN,2300,BKN,10000,,,MVFR,,,,,,,,,,,,METAR,9.0
SELT 240700Z 32004KT 9999 FEW010 SCT100 07/06 Q1030,SELT,2018-03-24T07:00:00Z,-0.92,-78.62,7.0,6.0,320,4,,6.21,30.413385,,,,,,,,,,,FEW,1000,SCT,10000,,,,,VFR,,,,,,,,,,,,METAR,2785.0
SEMT 240700Z 13002KT 9999 BKN026 23/22 Q1012 RMK A2989,SEMT,2018-03-24T07:00:00Z,-0.95,-80.67,23.0,22.0,130,2,,6.21,29.88189,,,,,,,,,,,BKN,2600,,,,,,,MVFR,,,,,,,,,,,,METAR,14.0
SBKP 240700Z 11004KT CAVOK 21/19 Q1015,SBKP,2018-03-24T07:00:00Z,-23.0,-47.12,21.0,19.0,110,4,,6.21,29.970472,,,,,,,,,,,CAVOK,,,,,,,,VFR,,,,,,,,,,,,METAR,661.0
SBTE 240700Z 20004KT 9999 SCT015 BKN100 24/23 Q1010,SBTE,2018-03-24T07:00:00Z,-5.03,-42.82,24.0,23.0,200,4,,6.21,29.822834,,,,,,,,,,,SCT,1500,BKN,10000,,,,,VFR,,,,,,,,,,,,METAR,69.0
SEQM 240700Z 05002KT 9999 FEW030 BKN100 10/10 Q1027 NOSIG RMK A3032,SEQM,2018-03-24T07:00:00Z,-0.12,-78.35,10.0,10.0,50,2,,6.21,30.324802,,,,,,TRUE,,,,,FEW,3000,BKN,10000,,,,,VFR,,,,,,,,,,,,METAR,2400.0
SPCL 240700Z 01005KT 9999 SCT015 25/24 Q1010 RMK PP000,SPCL,2018-03-24T07:00:00Z,-8.38,-74.58,25.0,24.0,10,5,,6.21,29.822834,,,,,,,,,,,SCT,1500,,,,,,,VFR,,,,,,,,,,,,METAR,149.0
SPZO 240700Z 00000KT 9999 SCT043 BKN080 08/05 Q1030 RMK BR PP000,SPZO,2018-03-24T07:00:00Z,-13.55,-71.97,8.0,5.0,0,0,,6.21,30.413385,,,,,,,,,,,SCT,4300,BKN,8000,,,,,VFR,,,,,,,,,,,,METAR,3249.0
SPTN 240700Z VRB02KT 9999 BKN100 19/15 Q1016 RMK PP000,SPTN,2018-03-24T07:00:00Z,-18.07,-70.28,19.0,15.0,0,2,,6.21,30.0,,,,,,,,,,,BKN,10000,,,,,,,VFR,,,,,,,,,,,,METAR,458.0
SPSO 240700Z 00000KT CAVOK 20/19 Q1012 RMK PP000,SPSO,2018-03-24T07:00:00Z,-13.73,-76.22,20.0,19.0,0,0,,6.21,29.88189,,,,,,,,,,,CAVOK,,,,,,,,VFR,,,,,,,,,,,,METAR,10.0
SPRU 240700Z 14005KT 6000 OVC060 20/19 Q1012 RMK BR PP000,SPRU,2018-03-24T07:00:00Z,-8.08,-79.12,20.0,19.0,140,5,,3.73,29.88189,,,,,,,,,,,OVC,6000,,,,,,,MVFR,,,,,,,,,,,,METAR,30.0
SPQU 240700Z 27005KT 9999 BKN050 13/10 Q1027 RMK PP000,SPQU,2018-03-24T07:00:00Z,-16.33,-71.57,13.0,10.0,270,5,,6.21,30.324802,,,,,,,,,,,BKN,5000,,,,,,,VFR,,,,,,,,,,,,METAR,2554.0
SPQT 240700Z 00000KT 9999 BKN007 BKN100 24/23 Q1010 NOSIG RMK PP000,SPQT,2018-03-24T07:00:00Z,-3.78,-73.32,24.0,23.0,0,0,,6.21,29.822834,,,,,,TRUE,,,,,BKN,700,BKN,10000,,,,,IFR,,,,,,,,,,,,METAR,126.0
SPHI 240700Z 20006KT 9999 OVC050 22/19 Q1012 RMK PP000,SPHI,2018-03-24T07:00:00Z,-6.77,-79.82,22.0,19.0,200,6,,6.21,29.88189,,,,,,,,,,,OVC,5000,,,,,,,VFR,,,,,,,,,,,,METAR,34.0
OERK 240700Z 15006KT CAVOK 28/M09 Q1019 NOSIG,OERK,2018-03-24T07:00:00Z,24.95,46.72,28.0,-9.0,150,6,,6.21,30.088583,,,,,,TRUE,,,,,CAVOK,,,,,,,,VFR,,,,,,,,,,,,METAR,612.0
OEMA 240700Z 00000KT CAVOK 31/M01 Q1016 NOSIG,OEMA,2018-03-24T07:00:00Z,24.55,39.7,31.0,-1.0,0,0,,6.21,30.0,,,,,,TRUE,,,,,CAVOK,,,,,,,,VFR,,,,,,,,,,,,METAR,631.0
OEJN 240700Z 20004KT CAVOK 34/12 Q1008 NOSIG,OEJN,2018-03-24T07:00:00Z,21.68,39.15,34.0,12.0,200,4,,6.21,29.763779,,,,,,TRUE,,,,,CAVOK,,,,,,,,VFR,,,,,,,,,,,,METAR,15.0
OEDF 240700Z 00000KT CAVOK 28/M01 Q1015 NOSIG,OEDF,2018-03-24T07:00:00Z,26.47,49.8,28.0,-1.0,0,0,,6.21,29.970472,,,,,,TRUE,,,,,CAVOK,,,,,,,,VFR,,,,,,,,,,,,METAR,22.0
SBFI 240700Z 10005KT CAVOK 23/21 Q1010,SBFI,2018-03-24T07:00:00Z,-25.6,-54.48,23.0,21.0,100,5,,6.21,29.822834,,,,,,,,,,,CAVOK,,,,,,,,VFR,,,,,,,,,,,,METAR,243.0
SVMI 240700Z 09002KT 9999 FEW016 23/19 Q1011,SVMI,2018-03-24T07:00:00Z,10.58,-67.0,23.0,19.0,90,2,,6.21,29.852362,,,,,,,,,,,FEW,1600,,,,,,,VFR,,,,,,,,,,,,METAR,48.0
TAPA 240700Z 11007KT 9999 FEW018 25/20 Q1014 NOSIG,TAPA,2018-03-24T07:00:00Z,17.12,-61.78,25.0,20.0,110,7,,6.21,29.940945,,,,,,TRUE,,,,,FEW,1800,,,,,,,VFR,,,,,,,,,,,,METAR,14.0
SUMU 240700Z 33005KT CAVOK 20/19 Q1006 TEMPO TSRA,SUMU,2018-03-24T07:00:00Z,-34.82,-56.0,20.0,19.0,330,5,,6.21,29.704725,,,,,,,,,,,CAVOK,,,,,,,,VFR,,,,,,,,,,,,METAR,32.0
SBCG 240700Z 08006KT CAVOK 24/22 Q1012,SBCG,2018-03-24T07:00:00Z,-20.47,-54.67,24.0,22.0,80,6,,6.21,29.88189,,,,,,,,,,,CAVOK,,,,,,,,VFR,,,,,,,,,,,,METAR,567.0
SBPA 240700Z 08003KT CAVOK 22/21 Q1009,SBPA,2018-03-24T07:00:00Z,-30.0,-51.17,22.0,21.0,80,3,,6.21,29.793306,,,,,,,,,,,CAVOK,,,,,,,,VFR,,,,,,,,,,,,METAR,3.0
FIMP 240700Z 12010KT 9999 VCSH SCT015 30/25 Q1014,FIMP,2018-03-24T07:00:00Z,-20.42,57.67,30.0,25.0,120,10,,6.21,29.940945,,,,,,,,,,VCSH,SCT,1500,,,,,,,VFR,,,,,,,,,,,,METAR,57.0
FBSK 240700Z 02005KT 9999 BKN020 22/17 Q1016 NOSIG,FBSK,2018-03-24T07:00:00Z,-24.55,25.92,22.0,17.0,20,5,,6.21,30.0,,,,,,TRUE,,,,,BKN,2000,,,,,,,MVFR,,,,,,,,,,,,METAR,1005.0
SBRB 240700Z 34003KT CAVOK 23/21 Q1010,SBRB,2018-03-24T07:00:00Z,-10.0,-67.78,23.0,21.0,340,3,,6.21,29.822834,,,,,,,,,,,CAVOK,,,,,,,,VFR,,,,,,,,,,,,METAR,143.0
UBBQ 240700Z 33004KT 9999 OVC008 07/05 Q1008 R34/////// NOSIG RMK MT OBSC,UBBQ,2018-03-24T07:00:00Z,40.82,47.72,7.0,5.0,330,4,,6.21,29.763779,,,,,,TRUE,,,,,OVC,800,,,,,,,IFR,,,,,,,,,,,,METAR,338.0
SBGO 240700Z 30003KT CAVOK 20/19 Q1015,SBGO,2018-03-24T07:00:00Z,-16.62,-49.22,20.0,19.0,300,3,,6.21,29.970472,,,,,,,,,,,CAVOK,,,,,,,,VFR,,,,,,,,,,,,METAR,747.0
SPJC 240700Z 20003KT CAVOK 19/19 Q1013 NOSIG RMK PP000,SPJC,2018-03-24T07:00:00Z,-12.02,-77.12,19.0,19.0,200,3,,6.21,29.911417,,,,,,TRUE,,,,,CAVOK,,,,,,,,VFR,,,,,,,,,,,,METAR,13.0
MGPB 240700Z 00000KT 9999 BKN016 23/22 Q1018 A3006,MGPB,2018-03-24T07:00:00Z,15.72,-88.58,23.0,22.0,0,0,,6.21,30.059055,,,,,,,,,,,BKN,1600,,,,,,,MVFR,,,,,,,,,,,,METAR,10.0
MGHT 240700Z 13006KT 9999 OVC015 14/11 QFE 823.3,MGHT,2018-03-24T07:00:00Z,15.32,-91.5,14.0,11.0,130,6,,6.21,,,,,,,,,,,,OVC,1500,,,,,,,MVFR,,,,,,,,,,,,METAR,1901.0
MGMM 240700Z 10004KT CAVOK 21/19 Q1020 A3012,MGMM,2018-03-24T07:00:00Z,16.97,-89.87,21.0,19.0,100,4,,6.21,30.11811,,,,,,,,,,,CAVOK,,,,,,,,VFR,,,,,,,,,,,,METAR,123.0
SKSP 240700Z 03012KT 9999 BKN014 26/23 A2994,SKSP,2018-03-24T07:00:00Z,12.57,-81.72,26.0,23.0,30,12,,6.21,29.940945,,,,,,,,,,,BKN,1400,,,,,,,MVFR,,,,,,,,,,,,METAR,-2.0
SKCG 240700Z 02007KT 9999 FEW017 26/24 A2978,SKCG,2018-03-24T07:00:00Z,10.43,-75.52,26.0,24.0,20,7,,6.21,29.778543,,,,,,,,,,,FEW,1700,,,,,,,VFR,,,,,,,,,,,,METAR,1.0
SKBQ 240700Z 01010KT CAVOK 26/23 A2979,SKBQ,2018-03-24T07:00:00Z,10.9,-74.77,26.0,23.0,10,10,,6.21,29.790354,,,,,,,,,,,CAVOK,,,,,,,,VFR,,,,,,,,,,,,METAR,10.0
ORBI 240700Z 15017KT 9000 FEW040 27/08 Q1011 NOSIG,ORBI,2018-03-24T07:00:00Z,33.27,44.23,27.0,8.0,150,17,,5.59,29.852362,,,,,,TRUE,,,,,FEW,4000,,,,,,,VFR,,,,,,,,,,,,METAR,35.0
SBBR 240700Z 00000KT 9999 FEW010 BKN100 18/16 Q1016,SBBR,2018-03-24T07:00:00Z,-15.87,-47.92,18.0,16.0,0,0,,6.21,30.0,,,,,,,,,,,FEW,1000,BKN,10000,,,,,VFR,,,,,,,,,,,,METAR,1061.0
NCPY 240700Z AUTO 08009KT //// ////// 28/25 Q1010,NCPY,2018-03-24T07:00:00Z,-9.02,-158.07,28.0,25.0,80,9,,,29.822834,,,TRUE,,,,,,,,,,,,,,,,,,,,,,,,,,,,METAR,2.0
NCMH 240700Z AUTO NIL,NCMH,2018-03-24T07:00:00Z,-10.38,-161.0,,,,,,,,,,TRUE,,,,,,,,,,,,,,,,,,,,,,,,,,,,METAR,0.0
NCRG 240700Z 22002KT 9999 SCT018 BKN100 27/24 Q1013,NCRG,2018-03-24T07:00:00Z,-21.2,-159.82,27.0,24.0,220,2,,6.21,29.911417,,,,,,,,,,,SCT,1800,BKN,10000,,,,,VFR,,,,,,,,,,,,METAR,7.0
MGGT 240700Z 36010KT 9999 FEW006 OVC012 15/14 Q1027 A3033,MGGT,2018-03-24T07:00:00Z,14.57,-90.53,15.0,14.0,360,10,,6.21,30.324802,,,,,,,,,,,FEW,600,OVC,1200,,,,,MVFR,,,,,,,,,,,,METAR,1509.0
SBCJ 240700Z 00000KT CAVOK 20/19 Q1013,SBCJ,2018-03-24T07:00:00Z,-6.12,-50.0,20.0,19.0,0,0,,6.21,29.911417,,,,,,,,,,,CAVOK,,,,,,,,VFR,,,,,,,,,,,,METAR,621.0
SBLO 240700Z 14003KT CAVOK 22/20 Q1015,SBLO,2018-03-24T07:00:00Z,-23.32,-51.12,22.0,20.0,140,3,,6.21,29.970472,,,,,,,,,,,CAVOK,,,,,,,,VFR,,,,,,,,,,,,METAR,570.0
OPST 240700Z 31008KT 4000 HZ FEW040 SCT100 28/13 Q1016 NOSIG RH39,OPST,2018-03-24T07:00:00Z,32.53,74.37,28.0,13.0,310,8,,2.49,30.0,,,,,,TRUE,,,,HZ,FEW,4000,SCT,10000,,,,,IFR,,,,,,,,,,,,METAR,247.0
SBFL 240700Z 02009KT 9999 FEW014 BKN035 26/23 Q1013,SBFL,2018-03-24T07:00:00Z,-27.67,-48.53,26.0,23.0,20,9,,6.21,29.911417,,,,,,,,,,,FEW,1400,BKN,3500,,,,,VFR,,,,,,,,,,,,METAR,5.0
UBEE 240700Z 34003KT 9999 FEW010 OVC023 11/07 Q1009 R30/CLRD// NOSIG,UBEE,2018-03-24T07:00:00Z,40.63,47.15,11.0,7.0,340,3,,6.21,29.793306,,,,,,TRUE,,,,,FEW,1000,OVC,2300,,,,,MVFR,,,,,,,,,,,,SPECI,15.0
FQNP 240700Z /////KT 9999 BKN020 27/22 Q1014,FQNP,2018-03-24T07:00:00Z,-15.08,39.27,27.0,22.0,,,,6.21,29.940945,,,,,,,,,,,BKN,2000,,,,,,,MVFR,,,,,,,,,,,,METAR,441.0
TNCM 240700Z 09005KT 060V130 9999 FEW018 25/21 Q1015 A2997 ,TNCM,2018-03-24T07:00:00Z,18.05,-63.12,25.0,21.0,90,5,,6.21,29.970472,,,,,,,,,,,FEW,1800,,,,,,,VFR,,,,,,,,,,,,METAR,4.0
SBGL 240700Z 10003KT CAVOK 24/21 Q1013,SBGL,2018-03-24T07:00:00Z,-22.82,-43.25,24.0,21.0,100,3,,6.21,29.911417,,,,,,,,,,,CAVOK,,,,,,,,VFR,,,,,,,,,,,,METAR,6.0
SBRJ 240700Z 10002KT CAVOK 25/22 Q1013,SBRJ,2018-03-24T07:00:00Z,-22.88,-43.17,25.0,22.0,100,2,,6.21,29.911417,,,,,,,,,,,CAVOK,,,,,,,,VFR,,,,,,,,,,,,METAR,3.0
TNCC 240700Z 10010KT 9999 FEW016 26/22 Q1013 NOSIG,TNCC,2018-03-24T07:00:00Z,12.2,-68.97,26.0,22.0,100,10,,6.21,29.911417,,,,,,TRUE,,,,,FEW,1600,,,,,,,VFR,,,,,,,,,,,,METAR,9.0
MDSD 240700Z 01005KT 9999 SCT016 SCT070 22/20 Q1014,MDSD,2018-03-24T07:00:00Z,18.42,-69.67,22.0,20.0,10,5,,6.21,29.940945,,,,,,,,,,,SCT,1600,SCT,7000,,,,,VFR,,,,,,,,,,,,METAR,18.0
MDPC 240700Z 00000KT 9999 SCT018 21/21 Q1015,MDPC,2018-03-24T07:00:00Z,18.57,-68.37,21.0,21.0,0,0,,6.21,29.970472,,,,,,,,,,,SCT,1800,,,,,,,VFR,,,,,,,,,,,,METAR,12.0
MDST 240700Z 00000KT 9999 BKN016 21/21 Q1016 RERA,MDST,2018-03-24T07:00:00Z,19.4,-70.6,21.0,21.0,0,0,,6.21,30.0,,,,,,,,,,,BKN,1600,,,,,,,MVFR,,,,,,,,,,,,METAR,184.0
NFFN 240700Z 09003KT 9999 SCT025TCU SCT048 BKN120 26/24 Q1011 TEMPO 4000 TSRA,NFFN,2018-03-24T07:00:00Z,-17.75,177.45,26.0,24.0,90,3,,6.21,29.852362,,,,,,,,,,,SCT,2500,SCT,4800,BKN,12000,,,VFR,,,,,,,,,,,,METAR,18.0
FQBR 240700Z /////KT 9999 SCT018 SCT/// 29/25 Q1012,FQBR,2018-03-24T07:00:00Z,-19.8,34.88,29.0,25.0,,,,6.21,29.88189,,,,,,,,,,,SCT,1800,,,,,,,VFR,,,,,,,,,,,,METAR,16.0
NFNA 240700Z 10005KT 9999 SCT020 BKN300 27/24 Q1012,NFNA,2018-03-24T07:00:00Z,-18.05,178.57,27.0,24.0,100,5,,6.21,29.88189,,,,,,,,,,,SCT,2000,BKN,30000,,,,,VFR,,,,,,,,,,,,METAR,5.0
OKBK 240700Z 17002KT CAVOK 30/01 Q1015 NOSIG,OKBK,2018-03-24T07:00:00Z,29.22,47.97,30.0,1.0,170,2,,6.21,29.970472,,,,,,TRUE,,,,,CAVOK,,,,,,,,VFR,,,,,,,,,,,,METAR,55.0
LRCT 240700Z 14003KT 1000 BR SCT004 OVC015 M01/M02 Q1006 AMB AMB,LRCT,2018-03-24T07:00:00Z,46.5,23.88,-1.0,-2.0,140,3,,0.62,29.704725,,,,,,,,,,BR,SCT,400,OVC,1500,,,,,LIFR,,,,,,,,,,,,METAR,331.0
HAAB 240700Z 08010KT 9999 SCT025 20/09 Q1026,HAAB,2018-03-24T07:00:00Z,8.97,38.78,20.0,9.0,80,10,,6.21,30.295275,,,,,,,,,,,SCT,2500,,,,,,,VFR,,,,,,,,,,,,METAR,2355.0
SBCY 240700Z 30004KT CAVOK 25/23 Q1010,SBCY,2018-03-24T07:00:00Z,-15.65,-56.12,25.0,23.0,300,4,,6.21,29.822834,,,,,,,,,,,CAVOK,,,,,,,,VFR,,,,,,,,,,,,METAR,182.0
OJAQ 240700Z 31016KT 5000 BLDU NSC 27/14 Q1008 NOSIG,OJAQ,2018-03-24T07:00:00Z,29.62,35.02,27.0,14.0,310,16,,3.11,29.763779,,,,,,TRUE,,,,BLDU,CLR,,,,,,,,MVFR,,,,,,,,,,,,METAR,51.0
OSKL 240700Z 07016KT 4000 HZ SCT026 BKN100 21/02 Q1006,OSKL,2018-03-24T07:00:00Z,37.03,41.2,21.0,2.0,70,16,,2.49,29.704725,,,,,,,,,,HZ,SCT,2600,BKN,10000,,,,,IFR,,,,,,,,,,,,METAR,455.0
OSLK 240700Z 18010G20KT 3000 BR FEW026 SCT030 BKN100 19/17 Q1005,OSLK,2018-03-24T07:00:00Z,35.4,35.95,19.0,17.0,180,10,20,1.86,29.675198,,,,,,,,,,BR,FEW,2600,SCT,3000,BKN,10000,,,IFR,,,,,,,,,,,,METAR,48.0
OSDI 240700Z 24030KT 6000 23/04 Q1006,OSDI,2018-03-24T07:00:00Z,33.42,36.52,23.0,4.0,240,30,,3.73,29.704725,,,,,,,,,,,,,,,,,,,,,,,,,,,,,,,METAR,605.0
FDST 240700Z AUTO 08011G41KT //// // ////// 21/17 Q1012,FDST,2018-03-24T07:00:00Z,-26.43,31.95,21.0,17.0,80,11,41,,29.88189,,,TRUE,,,,,,,,,,,,,,,,,,,,,,,,,,,,METAR,667.0
FDLB 240700Z AUTO 06002KT //// // ////// 26/16 Q1014,FDLB,2018-03-24T07:00:00Z,,,26.0,16.0,60,2,,,29.940945,,,TRUE,,,,,,,,,,,,,,,,,,,,,,,,,,,,METAR,
CZPS 240700Z AUTO 20005KT M03/M08 RMK AO1 T10301084,CZPS,2018-03-24T07:00:00Z,52.43,-113.6,-3.0,-8.4,200,5,,,,,,TRUE,TRUE,,,,,,,,,,,,,,,,,,,,,,,,,,,METAR,965.0
CZOL 240700Z AUTO 14004KT M00/M03 RMK AO1 T10031030,CZOL,2018-03-24T07:00:00Z,53.65,-113.35,-0.3,-3.0,140,4,,,,,,TRUE,TRUE,,,,,,,,,,,,,,,,,,,,,,,,,,,METAR,665.0
CXVM 240700Z AUTO 12004KT M05/M06 RMK AO1 T10451063,CXVM,2018-03-24T07:00:00Z,53.35,-110.88,-4.5,-6.3,120,4,,,,,,TRUE,TRUE,,,,,,,,,,,,,,,,,,,,,,,,,,,METAR,623.0
CXPL 240700Z AUTO 16010KT M06/M07 RMK AO1 T10561068,CXPL,2018-03-24T07:00:00Z,51.13,-111.7,-5.6,-6.8,160,10,,,,,,TRUE,TRUE,,,,,,,,,,,,,,,,,,,,,,,,,,,METAR,750.0
CXOL 240700Z AUTO 22012KT M04/M09 RMK AO1 T10431086,CXOL,2018-03-24T07:00:00Z,51.77,-114.08,-4.3,-8.6,220,12,,,,,,TRUE,TRUE,,,,,,,,,,,,,,,,,,,,,,,,,,,METAR,1046.0
CXMO 240700Z AUTO 22015KT M01/M06 RMK AO1 PK WND 20021/0624 T10081062,CXMO,2018-03-24T07:00:00Z,51.67,-112.68,-0.8,-6.2,220,15,,,,,,TRUE,TRUE,,,,,,,,,,,,,,,,,,,,,,,,,,,METAR,836.0
CPRY 240700Z AUTO 19014KT 02/M03 RMK AO1 PK WND 18019/0650 T00191033,CPRY,2018-03-24T07:00:00Z,49.48,-112.68,1.9,-3.3,190,14,,,,,,TRUE,TRUE,,,,,,,,,,,,,,,,,,,,,,,,,,,METAR,937.0
CWIX 240700Z AUTO 28011KT M05/M09 RMK AO1 SLP203 T10531092 51014,CWIX,2018-03-24T07:00:00Z,48.6,-71.72,-5.3,-9.2,280,11,,,,1020.3,,TRUE,TRUE,,,,,,,,,,,,,,,,1.4,,,,,,,,,,,METAR,113.0
CWXA 240700Z AUTO 19001KT M02/M08 RMK AO1 SLP067 T10181078 51011,CWXA,2018-03-24T07:00:00Z,51.07,-115.07,-1.8,-7.8,190,1,,,,1006.7,,TRUE,TRUE,,,,,,,,,,,,,,,,1.1,,,,,,,,,,,METAR,1298.0
CXCS 240700Z AUTO 19017KT M00/M08 RMK AO1 PK WND 19022/0655 T10031078,CXCS,2018-03-24T07:00:00Z,51.93,-110.72,-0.3,-7.8,190,17,,,,,,TRUE,TRUE,,,,,,,,,,,,,,,,,,,,,,,,,,,METAR,772.0
CXCD 240700Z AUTO 30005KT M12/M16 RMK AO1 T11191157,CXCD,2018-03-24T07:00:00Z,56.32,-119.75,-11.9,-15.7,300,5,,,,,,TRUE,TRUE,,,,,,,,,,,,,,,,,,,,,,,,,,,METAR,630.0
CXBA 240700Z AUTO 14007KT M03/M06 RMK AO1 T10331059,CXBA,2018-03-24T07:00:00Z,52.12,-110.1,-3.3,-5.9,140,7,,,,,,TRUE,TRUE,,,,,,,,,,,,,,,,,,,,,,,,,,,METAR,687.0
CXAJ 240700Z AUTO 09002KT M04/M05 RMK AO1 SOG 38 T10411047,CXAJ,2018-03-24T07:00:00Z,54.77,-112.82,-4.1,-4.7,90,2,,,,,,TRUE,TRUE,,,,,,,,,,,,,,,,,,,,,,,,,,,METAR,574.0
CXAG 240700Z AUTO 12008KT M03/M04 RMK AO1 T10281044,CXAG,2018-03-24T07:00:00Z,53.92,-112.28,-2.8,-4.4,120,8,,,,,,TRUE,TRUE,,,,,,,,,,,,,,,,,,,,,,,,,,,METAR,625.0
SGES 240700Z 05004KT CAVOK 23/21 Q1010,SGES,2018-03-24T07:00:00Z,-25.45,-54.85,23.0,21.0,50,4,,6.21,29.822834,,,,,,,,,,,CAVOK,,,,,,,,VFR,,,,,,,,,,,,SPECI,849.0
SGAS 240700Z 06005KT CAVOK 25/24 Q1007,SGAS,2018-03-24T07:00:00Z,-25.25,-57.52,25.0,24.0,60,5,,6.21,29.734253,,,,,,,,,,,CAVOK,,,,,,,,VFR,,,,,,,,,,,,SPECI,101.0
WMKM 240700Z VRB04KT 9999 FEW020 SCT140 BKN270 33/22 Q1009,WMKM,2018-03-24T07:00:00Z,2.27,102.25,33.0,22.0,0,4,,6.21,29.793306,,,,,,,,,,,FEW,2000,SCT,14000,BKN,27000,,,VFR,,,,,,,,,,,,METAR,9.0
WMKL 240700Z 09008KT 060V120 9999 FEW022 SCT140 BKN270 33/22 Q1008,WMKL,2018-03-24T07:00:00Z,6.32,99.72,33.0,22.0,90,8,,6.21,29.763779,,,,,,,,,,,FEW,2200,SCT,14000,BKN,27000,,,VFR,,,,,,,,,,,,METAR,7.0
WMKD 240700Z VRB07KT 9999 SCT019 BKN280 31/24 Q1009 NOSIG,WMKD,2018-03-24T07:00:00Z,3.77,103.22,31.0,24.0,0,7,,6.21,29.793306,,,,,,TRUE,,,,,SCT,1900,BKN,28000,,,,,VFR,,,,,,,,,,,,METAR,16.0
FQMA 240700Z 36007KT 9999 BKN020 24/21 Q1011 NOSIG,FQMA,2018-03-24T07:00:00Z,-25.92,32.57,24.0,21.0,360,7,,6.21,29.852362,,,,,,TRUE,,,,,BKN,2000,,,,,,,MVFR,,,,,,,,,,,,METAR,44.0
RJFG 240700Z 29014KT CAVOK 15/06 Q1021,RJFG,2018-03-24T07:00:00Z,30.62,130.98,15.0,6.0,290,14,,6.21,30.147638,,,,,,,,,,,CAVOK,,,,,,,,VFR,,,,,,,,,,,,METAR,237.0
RJEB 240700Z 11006KT 9999 FEW050 01/M04 Q1012,RJEB,2018-03-24T07:00:00Z,44.3,143.4,1.0,-4.0,110,6,,6.21,29.88189,,,,,,,,,,,FEW,5000,,,,,,,VFR,,,,,,,,,,,,METAR,25.0
RJDT 240700Z 26007KT 200V300 CAVOK 15/M02 Q1020,RJDT,2018-03-24T07:00:00Z,34.27,129.32,15.0,-2.0,260,7,,6.21,30.11811,,,,,,,,,,,CAVOK,,,,,,,,VFR,,,,,,,,,,,,METAR,66.0
RJDC 240700Z 28011KT 9999 FEW035 16/01 Q1020,RJDC,2018-03-24T07:00:00Z,33.92,131.27,16.0,1.0,280,11,,6.21,30.11811,,,,,,,,,,,FEW,3500,,,,,,,VFR,,,,,,,,,,,,METAR,8.0
RJCW 240700Z 21022KT 9999 FEW015 BKN025 04/M00 Q1010,RJCW,2018-03-24T07:00:00Z,45.38,141.8,4.0,0.0,210,22,,6.21,29.822834,,,,,,,,,,,FEW,1500,BKN,2500,,,,,MVFR,,,,,,,,,,,,METAR,11.0
RJBT 240700Z 01007KT 330V040 9999 FEW040 SCT050 13/02 Q1017,RJBT,2018-03-24T07:00:00Z,35.5,134.8,13.0,2.0,10,7,,6.21,30.029528,,,,,,,,,,,FEW,4000,SCT,5000,,,,,VFR,,,,,,,,,,,,METAR,210.0
RJBE 240700Z 22006KT 9999 FEW030 13/04 Q1018,RJBE,2018-03-24T07:00:00Z,34.63,135.23,13.0,4.0,220,6,,6.21,30.059055,,,,,,,,,,,FEW,3000,,,,,,,VFR,,,,,,,,,,,,METAR,5.0
RJBD 240700Z VRB04KT 9999 FEW030 14/05 Q1019,RJBD,2018-03-24T07:00:00Z,33.67,135.37,14.0,5.0,0,4,,6.21,30.088583,,,,,,,,,,,FEW,3000,,,,,,,VFR,,,,,,,,,,,,METAR,108.0
RJAF 240700Z 28008KT 240V330 9999 FEW060 SCT130 BKN140 14/M11 Q1014,RJAF,2018-03-24T07:00:00Z,36.17,137.92,14.0,-11.0,280,8,,6.21,29.940945,,,,,,,,,,,FEW,6000,SCT,13000,BKN,14000,,,VFR,,,,,,,,,,,,METAR,660.0
RJOR 240700Z 28017KT 9999 FEW030 13/06 Q1018,RJOR,2018-03-24T07:00:00Z,35.52,134.17,13.0,6.0,280,17,,6.21,30.059055,,,,,,,,,,,FEW,3000,,,,,,,VFR,,,,,,,,,,,,METAR,18.0
RJNW 240700Z 23013KT 200V270 9999 FEW020 SCT030 BKN/// 11/04 Q1017,RJNW,2018-03-24T07:00:00Z,37.3,136.97,11.0,4.0,230,13,,6.21,30.029528,,,,,,,,,,,FEW,2000,SCT,3000,,,,,VFR,,,,,,,,,,,,METAR,219.0
CXTN 240700Z AUTO 00000KT M31/M34 RMK AO1 SLP260 T13081338 58009,CXTN,2018-03-24T07:00:00Z,69.2,-122.35,-30.8,-33.8,0,0,,,,1026.0,,TRUE,TRUE,,,,,,,,,,,,,,,,-0.9,,,,,,,,,,,METAR,552.0
CXLL 240700Z AUTO 36007G15KT M12/M14 RMK AO1 SOG 65 6003 SLP174 T11151135,CXLL,2018-03-24T07:00:00Z,61.12,-122.85,-11.5,-13.5,360,7,15,,,1017.4,,TRUE,TRUE,,,,,,,,,,,,,,,,,,,,,,,,,,,METAR,183.0
CXLC 240700Z AUTO 01017G22KT M19/M22 RMK AO1 SOG 27 6037 PK WND 01022/0657 SLP101 T11941220,CXLC,2018-03-24T07:00:00Z,63.6,-113.85,-19.4,-22.0,10,17,22,,,1010.1,,TRUE,TRUE,,,,,,,,,,,,,,,,,,,,,,,,,,,METAR,373.0
CXCH 240700Z AUTO M01/M01 RMK AO1 SOG 13 T10121005,CXCH,2018-03-24T07:00:00Z,46.63,-60.95,-1.2,-0.5,,,,,,,,TRUE,TRUE,,,,,,,,,,,,,,,,,,,,,,,,,,,METAR,44.0
CWXC 240700Z AUTO 36008KT M04/M08 RMK AO1 SLP175 T10411082 51009,CWXC,2018-03-24T07:00:00Z,48.88,-71.03,-4.1,-8.2,360,8,,,,1017.5,,TRUE,TRUE,,,,,,,,,,,,,,,,0.9,,,,,,,,,,,METAR,300.0
CWVT 240700Z AUTO 18006KT M01/M02 RMK AO1 SOG 34 8006 SLP110 T10081021,CWVT,2018-03-24T07:00:00Z,55.82,-108.42,-0.8,-2.1,180,6,,,,1011.0,,TRUE,TRUE,,,,,,,,,,,,,,,,,,,,,,,,,,,METAR,434.0
CWEK 240700Z AUTO 20009KT 05/01 RMK AO1 SLP074 T00520010 50003,CWEK,2018-03-24T07:00:00Z,54.58,-130.7,5.2,1.0,200,9,,,,1007.4,,TRUE,TRUE,,,,,,,,,,,,,,,,0.3,,,,,,,,,,,METAR,8.0
CWND 240700Z AUTO 12001KT M26/M29 RMK AO1 SLP275 T12641291 57007,CWND,2018-03-24T07:00:00Z,69.63,-135.43,-26.4,-29.1,120,1,,,,1027.5,,TRUE,TRUE,,,,,,,,,,,,,,,,-0.7,,,,,,,,,,,METAR,12.0
FZAA 240700Z 00000KT 6000 FEW016 BKN110 24/23 Q1013 NOSIG,FZAA,2018-03-24T07:00:00Z,-4.38,15.45,24.0,23.0,0,0,,3.73,29.911417,,,,,,TRUE,,,,,FEW,1600,BKN,11000,,,,,MVFR,,,,,,,,,,,,METAR,312.0
RKSM 240700Z 31007KT 4800 HZ FEW030 14/06 A3014,RKSM,2018-03-24T07:00:00Z,37.42,127.12,14.0,6.0,310,7,,2.98,30.138779,,,,,,,,,,HZ,FEW,3000,,,,,,,IFR,,,,,,,,,,,,METAR,20.0
NSFA 240700Z 11004KT 9999 SCT018 BKN120 26/25 Q1011,NSFA,2018-03-24T07:00:00Z,-13.83,-172.0,26.0,25.0,110,4,,6.21,29.852362,,,,,,,,,,,SCT,1800,BKN,12000,,,,,VFR,,,,,,,,,,,,METAR,5.0
HKNW 240700Z 08005KT 9999 SCT024 22/14 Q1021,HKNW,2018-03-24T07:00:00Z,-1.32,36.82,22.0,14.0,80,5,,6.21,30.147638,,,,,,,,,,,SCT,2400,,,,,,,VFR,,,,,,,,,,,,METAR,1679.0
HBBA 240700Z 00000KT 9999 FEW025 BKN100 25/19 Q 1014 NOSIG,HBBA,2018-03-24T07:00:00Z,-3.32,29.32,25.0,19.0,0,0,,6.21,,,,,,,TRUE,,,,,FEW,2500,BKN,10000,,,,,VFR,,,,,,,,,,,,SPECI,783.0
SKCL 240700Z 24003KT 9000 SCT020 OVC100 21/20 A2999 RMK HZ,SKCL,2018-03-24T07:00:00Z,3.53,-76.37,21.0,20.0,240,3,,5.59,29.991142,,,,,,,,,,,SCT,2000,OVC,10000,,,,,VFR,,,,,,,,,,,,METAR,969.0
SBAN 240700Z 03005KT 9999 BKN006 17/17 Q1017,SBAN,2018-03-24T07:00:00Z,-16.22,-48.97,17.0,17.0,30,5,,6.21,30.029528,,,,,,,,,,,BKN,600,,,,,,,IFR,,,,,,,,,,,,METAR,1137.0
SBMG 240700Z 10001KT CAVOK 21/20 Q1012,SBMG,2018-03-24T07:00:00Z,-23.48,-52.02,21.0,20.0,100,1,,6.21,29.88189,,,,,,,,,,,CAVOK,,,,,,,,VFR,,,,,,,,,,,,METAR,542.0
SBUR 240700Z 07009KT CAVOK 22/18 Q1015,SBUR,2018-03-24T07:00:00Z,-19.77,-47.97,22.0,18.0,70,9,,6.21,29.970472,,,,,,,,,,,CAVOK,,,,,,,,VFR,,,,,,,,,,,,METAR,807.0
SBSR 240700Z 12004KT CAVOK 25/19 Q1014,SBSR,2018-03-24T07:00:00Z,-20.8,-49.4,25.0,19.0,120,4,,6.21,29.940945,,,,,,,,,,,CAVOK,,,,,,,,VFR,,,,,,,,,,,,METAR,543.0
SBSC 240700Z 04006KT CAVOK 25/23 Q1014,SBSC,2018-03-24T07:00:00Z,-22.92,-43.72,25.0,23.0,40,6,,6.21,29.940945,,,,,,,,,,,CAVOK,,,,,,,,VFR,,,,,,,,,,,,METAR,3.0
SBDN 240700Z 11014KT CAVOK 24/20 Q1012,SBDN,2018-03-24T07:00:00Z,-22.18,-51.43,24.0,20.0,110,14,,6.21,29.88189,,,,,,,,,,,CAVOK,,,,,,,,VFR,,,,,,,,,,,,METAR,435.0
SADF 240700Z 20006KT CAVOK 18/13 Q1008,SADF,2018-03-24T07:00:00Z,-34.45,-58.58,18.0,13.0,200,6,,6.21,29.763779,,,,,,,,,,,CAVOK,,,,,,,,VFR,,,,,,,,,,,,METAR,4.0
FKKN 240700Z 08004KT CAVOK 20/18 Q1017,FKKN,2018-03-24T07:00:00Z,7.33,13.57,20.0,18.0,80,4,,6.21,30.029528,,,,,,,,,,,CAVOK,,,,,,,,VFR,,,,,,,,,,,,METAR,1104.0
FKKR 240700Z 28004KT CAVOK 28/21 Q1010 NOSIG,FKKR,2018-03-24T07:00:00Z,9.32,13.37,28.0,21.0,280,4,,6.21,29.822834,,,,,,TRUE,,,,,CAVOK,,,,,,,,VFR,,,,,,,,,,,,METAR,244.0
FEFT 240700Z 32006KT 0800 FG VV/// 21/20 Q1010,FEFT,2018-03-24T07:00:00Z,4.25,15.8,21.0,20.0,320,6,,0.5,29.822834,,,,,,,,,,FG,OVX,0,,,,,,,LIFR,,,,,,,,,,,,METAR,583.0
FCPP 240700Z 08005KT 050V110 9999 SCT013 28/25 Q1010 NOSIG,FCPP,2018-03-24T07:00:00Z,-4.82,11.9,28.0,25.0,80,5,,6.21,29.822834,,,,,,TRUE,,,,,SCT,1300,,,,,,,VFR,,,,,,,,,,,,METAR,17.0
FKYS 240700Z /////KT 9999 TS FEW006 FEW020CB 21/19 Q1015 BECMG NSW,FKYS,2018-03-24T07:00:00Z,3.82,11.52,21.0,19.0,,,,6.21,29.970472,,,,,,,,,,TS,FEW,600,FEW,2000,,,,,VFR,,,,,,,,,,,,METAR,760.0
FKKD 240700Z 11003KT 070V140 8000 SCT008 BKN013 FEW016CB 25/24 Q1011 NOSIG,FKKD,2018-03-24T07:00:00Z,4.0,9.72,25.0,24.0,110,3,,4.97,29.852362,,,,,,TRUE,,,,,SCT,800,BKN,1300,FEW,1600,,,MVFR,,,,,,,,,,,,METAR,9.0
FEFF 240700Z 00000KT 9999 FEW006 24/21 Q1011 NOSIG,FEFF,2018-03-24T07:00:00Z,4.4,18.52,24.0,21.0,0,0,,6.21,29.852362,,,,,,TRUE,,,,,FEW,600,,,,,,,VFR,,,,,,,,,,,,METAR,366.0
FCBB 240700Z 25006KT 220V280 9999 FEW010 BKN020 25/22 Q1013 NOSIG,FCBB,2018-03-24T07:00:00Z,-4.25,15.25,25.0,22.0,250,6,,6.21,29.911417,,,,,,TRUE,,,,,FEW,1000,BKN,2000,,,,,MVFR,,,,,,,,,,,,METAR,316.0
FGBT 240700Z 00000KT 9999 FEW010 FEW020CB 26/26 Q1011,FGBT,2018-03-24T07:00:00Z,1.88,9.8,26.0,26.0,0,0,,6.21,29.852362,,,,,,,,,,,FEW,1000,FEW,2000,,,,,VFR,,,,,,,,,,,,METAR,8.0
FGSL 240700Z 21003KT 170V230 9999 FEW010 25/22 Q1011 NOSIG,FGSL,2018-03-24T07:00:00Z,3.75,8.72,25.0,22.0,210,3,,6.21,29.852362,,,,,,TRUE,,,,,FEW,1000,,,,,,,VFR,,,,,,,,,,,,METAR,56.0
FAPN 240700Z AUTO 02005KT //// // ////// 24/18 Q1016,FAPN,2018-03-24T07:00:00Z,-25.33,27.17,24.0,18.0,20,5,,,30.0,,,TRUE,,,,,,,,,,,,,,,,,,,,,,,,,,,,METAR,1039.0
GOGG 240700Z 01006KT 1000 DU NSC 26/05 Q1010,GOGG,2018-03-24T07:00:00Z,12.55,-16.27,26.0,5.0,10,6,,0.62,29.822834,,,,,,,,,,DU,CLR,,,,,,,,LIFR,,,,,,,,,,,,METAR,23.0
YSNW 240700Z AUTO 03009KT 9999 // NCD 25/17 Q1013,YSNW,2018-03-24T07:00:00Z,-34.95,150.52,25.0,17.0,30,9,,6.21,29.911417,,,TRUE,,,,,,,,CLR,,,,,,,,VFR,,,,,,,,,,,,METAR,110.0
YESP 240700Z AUTO 19010KT 9999 // NCD 17/10 Q1020,YESP,2018-03-24T07:00:00Z,-33.68,121.82,17.0,10.0,190,10,,6.21,30.11811,,,TRUE,,,,,,,,CLR,,,,,,,,VFR,,,,,,,,,,,,METAR,143.0
YEML 240700Z AUTO 09012KT 9999 // NCD 28/18 Q1013,YEML,2018-03-24T07:00:00Z,-23.57,148.18,28.0,18.0,90,12,,6.21,29.911417,,,TRUE,,,,,,,,CLR,,,,,,,,VFR,,,,,,,,,,,,METAR,190.0
YCOM 240700Z AUTO 30007KT 9999 // SCT073 BKN090 18/11 Q1015,YCOM,2018-03-24T07:00:00Z,-36.3,148.97,18.0,11.0,300,7,,6.21,29.970472,,,TRUE,,,,,,,,SCT,7300,BKN,9000,,,,,VFR,,,,,,,,,,,,METAR,941.0
YCNM 240700Z AUTO 01004KT 310V060 //// // ////// 32/08 Q1013,YCNM,2018-03-24T07:00:00Z,-30.98,148.38,32.0,8.0,10,4,,,29.911417,,,TRUE,,,,,,,,,,,,,,,,,,,,,,,,,,,,METAR,184.0
YCDU 240700Z AUTO 23016KT 9999 // NCD 22/17 Q1012,YCDU,2018-03-24T07:00:00Z,-32.12,133.7,22.0,17.0,230,16,,6.21,29.88189,,,TRUE,,,,,,,,CLR,,,,,,,,VFR,,,,,,,,,,,,METAR,15.0
YPBO 240700Z AUTO 35009KT 330V070 9999 // NCD 40/04 Q1008,YPBO,2018-03-24T07:00:00Z,-23.2,117.75,40.0,4.0,350,9,,6.21,29.763779,,,TRUE,,,,,,,,CLR,,,,,,,,VFR,,,,,,,,,,,,METAR,1292.0
YOLD 240700Z AUTO 35009KT 9999 // NCD 36/10 Q1009,YOLD,2018-03-24T07:00:00Z,-30.48,136.88,36.0,10.0,350,9,,6.21,29.793306,,,TRUE,,,,,,,,CLR,,,,,,,,VFR,,,,,,,,,,,,METAR,105.0
YNWN 240700Z AUTO 01011KT 360V090 9999 // NCD 40/01 Q1009,YNWN,2018-03-24T07:00:00Z,-23.42,119.8,40.0,1.0,10,11,,6.21,29.793306,,,TRUE,,,,,,,,CLR,,,,,,,,VFR,,,,,,,,,,,,METAR,525.0
YNTN 240700Z AUTO 10008KT 9999 // SCT033 29/21 Q1004,YNTN,2018-03-24T07:00:00Z,-17.68,141.07,29.0,21.0,100,8,,6.21,29.64567,,,TRUE,,,,,,,,SCT,3300,,,,,,,VFR,,,,,,,,,,,,METAR,22.0
YNBR 240700Z AUTO 19001KT 9999 // NCD 32/11 Q1014,YNBR,2018-03-24T07:00:00Z,-30.32,149.83,32.0,11.0,190,1,,6.21,29.940945,,,TRUE,,,,,,,,CLR,,,,,,,,VFR,,,,,,,,,,,,METAR,240.0
YNAR 240700Z AUTO 31012KT //// // ////// 32/09 Q1010,YNAR,2018-03-24T07:00:00Z,-34.7,146.52,32.0,9.0,310,12,,,29.822834,,,TRUE,,,,,,,,,,,,,,,,,,,,,,,,,,,,METAR,145.0
YMTG 240700Z AUTO 19007KT 9999 // SCT110 25/13 Q1007,YMTG,2018-03-24T07:00:00Z,-37.75,140.78,25.0,13.0,190,7,,6.21,29.734253,,,TRUE,,,,,,,,SCT,11000,,,,,,,VFR,,,,,,,,,,,,METAR,65.0
SKBO 240700Z VRB02KT 9999 -DZ BKN017 12/11 A3029,SKBO,2018-03-24T07:00:00Z,4.7,-74.12,12.0,11.0,0,2,,6.21,30.28937,,,,,,,,,,-DZ,BKN,1700,,,,,,,MVFR,,,,,,,,,,,,METAR,2548.0
SKRG 240700Z 00000KT 5000 BR SCT008 BKN080 14/14 A3026 RERA,SKRG,2018-03-24T07:00:00Z,6.17,-75.42,14.0,14.0,0,0,,3.11,30.259842,,,,,,,,,,BR,SCT,800,BKN,8000,,,,,MVFR,,,,,,,,,,,,METAR,2137.0
YBPN 240700Z AUTO 14009KT 9000 // SCT024 BKN042 BKN065 25/24 Q1010,YBPN,2018-03-24T07:00:00Z,-20.5,148.55,25.0,24.0,140,9,,5.59,29.822834,,,TRUE,,,,,,,,SCT,2400,BKN,4200,BKN,6500,,,VFR,,,,,,,,,,,,METAR,25.0
YBOK 240700Z AUTO 06012KT 9999 // NCD 25/14 Q1017,YBOK,2018-03-24T07:00:00Z,-27.42,151.72,25.0,14.0,60,12,,6.21,30.029528,,,TRUE,,,,,,,,CLR,,,,,,,,VFR,,,,,,,,,,,,METAR,407.0
YBNA 240700Z AUTO 36004KT 9999 // NCD 24/20 Q1017,YBNA,2018-03-24T07:00:00Z,-28.83,153.57,24.0,20.0,360,4,,6.21,30.029528,,,TRUE,,,,,,,,CLR,,,,,,,,VFR,,,,,,,,,,,,METAR,2.0
YBMK 240700Z AUTO 13017KT 8000 // SCT017 SCT040 SCT063 26/24 Q1010,YBMK,2018-03-24T07:00:00Z,-21.17,149.17,26.0,24.0,130,17,,4.97,29.822834,,,TRUE,,,,,,,,SCT,1700,SCT,4000,SCT,6300,,,MVFR,,,,,,,,,,,,METAR,31.0
YBHI 240700Z AUTO 36008KT 300V360 9999 // NCD 33/08 Q1010,YBHI,2018-03-24T07:00:00Z,-32.0,141.47,33.0,8.0,360,8,,6.21,29.822834,,,TRUE,,,,,,,,CLR,,,,,,,,VFR,,,,,,,,,,,,METAR,292.0
YLIS 240700Z AUTO 04008KT 9999 // BKN063 OVC072 23/20 Q1017,YLIS,2018-03-24T07:00:00Z,-28.83,153.27,23.0,20.0,40,8,,6.21,30.029528,,,TRUE,,,,,,,,BKN,6300,OVC,7200,,,,,VFR,,,,,,,,,,,,METAR,11.0
YLEC 240700Z AUTO 34005KT //// // ////// 34/08 Q1011,YLEC,2018-03-24T07:00:00Z,-30.6,138.43,34.0,8.0,340,5,,,29.852362,,,TRUE,,,,,,,,,,,,,,,,,,,,,,,,,,,,METAR,262.0
YKRY 240700Z AUTO 10010KT 9999 // NCD 24/16 Q1017,YKRY,2018-03-24T07:00:00Z,-26.57,151.83,24.0,16.0,100,10,,6.21,30.029528,,,TRUE,,,,,,,,CLR,,,,,,,,VFR,,,,,,,,,,,,METAR,434.0
YHUG 240700Z AUTO 08013KT 9999 // OVC043 28/17 Q1010,YHUG,2018-03-24T07:00:00Z,-20.82,144.23,28.0,17.0,80,13,,6.21,29.822834,,,TRUE,,,,,,,,OVC,4300,,,,,,,VFR,,,,,,,,,,,,METAR,318.0
YGTH 240700Z AUTO 30009KT 9999 // NCD 34/09 Q1010,YGTH,2018-03-24T07:00:00Z,-34.25,146.07,34.0,9.0,300,9,,6.21,29.822834,,,TRUE,,,,,,,,CLR,,,,,,,,VFR,,,,,,,,,,,,METAR,134.0
YGTE 240700Z AUTO 20006KT 9999 // SCT030 SCT053 SCT064 27/25 Q1003,YGTE,2018-03-24T07:00:00Z,-13.97,136.45,27.0,25.0,200,6,,6.21,29.616142,,,TRUE,,,,,,,,SCT,3000,SCT,5300,SCT,6400,,,VFR,,,,,,,,,,,,METAR,14.0
FQIN 240700Z 34004KT 9999 FEW025 29/23 Q1013,FQIN,2018-03-24T07:00:00Z,-23.87,35.37,29.0,23.0,340,4,,6.21,29.911417,,,,,,,,,,,FEW,2500,,,,,,,VFR,,,,,,,,,,,,METAR,15.0
CWDQ 240700Z AUTO 34013G18KT M05/M11 RMK AO1 SOG 50 1012 PK WND 34018/0657 SLP216 T10481107,CWDQ,2018-03-24T07:00:00Z,47.42,-72.78,-4.8,-10.7,340,13,18,,,1021.6,,TRUE,TRUE,,,,,,,,,,,,,,,,,,,,,,,,,,,METAR,169.0
CWWS 240700Z AUTO 14012KT M04/M09 RMK AO1 SOG 84 8013 SLP255 T10411088,CWWS,2018-03-24T07:00:00Z,52.82,-97.62,-4.1,-8.8,140,12,,,,1025.5,,TRUE,TRUE,,,,,,,,,,,,,,,,,,,,,,,,,,,METAR,223.0
CXSE 240700Z AUTO 27007KT M37/M41 RMK AO1 SOG 49 5000 SLP259 T13721413,CXSE,2018-03-24T07:00:00Z,73.77,-105.28,-37.2,-41.3,270,7,,,,1025.9,,TRUE,TRUE,,,,,,,,,,,,,,,,,,,,,,,,,,,METAR,11.0
CXRB 240700Z AUTO M34/M37 RMK AO1 SOG 03 6002 SLP218 T13361369,CXRB,2018-03-24T07:00:00Z,74.72,-94.98,-33.6,-36.9,,,,,,1021.8,,TRUE,TRUE,,,,,,,,,,,,,,,,,,,,,,,,,,,METAR,68.0
CXDK 240700Z AUTO M10/M16 RMK AO1 SLP161 T11021155 58002,CXDK,2018-03-24T07:00:00Z,61.27,-124.47,-10.2,-15.5,,,,,,1016.1,,TRUE,TRUE,,,,,,,,,,,,,,,,-0.2,,,,,,,,,,,METAR,283.0
CWFF 240700Z AUTO 17019G24KT M02/M04 RMK AO1 SOG 24 8019 PK WND 17025/0623 SLP160 T10181035,CWFF,2018-03-24T07:00:00Z,52.82,-104.58,-1.8,-3.5,170,19,24,,,1016.0,,TRUE,TRUE,,,,,,,,,,,,,,,,,,,,,,,,,,,METAR,490.0
CWEZ 240700Z AUTO 14012KT 06/02 RMK AO1 SLP079 T00600022 58002,CWEZ,2018-03-24T07:00:00Z,48.78,-123.05,6.0,2.2,140,12,,,,1007.9,,TRUE,TRUE,,,,,,,,,,,,,,,,-0.2,,,,,,,,,,,METAR,7.0
CZDB 240700Z AUTO 33008G15KT M01/M02 RMK AO1 SOG 07 8002 SLP115 T10061022,CZDB,2018-03-24T07:00:00Z,45.42,-63.47,-0.6,-2.2,330,8,15,,,1011.5,,TRUE,TRUE,,,,,,,,,,,,,,,,,,,,,,,,,,,METAR,38.0
CXNP 240700Z AUTO 01008KT M01/M01 RMK AO1 SOG 55 1004 SLP131 T10071010,CXNP,2018-03-24T07:00:00Z,45.75,-64.23,-0.7,-1.0,10,8,,,,1013.1,,TRUE,TRUE,,,,,,,,,,,,,,,,,,,,,,,,,,,METAR,20.0
CWBY 240700Z AUTO 05008KT M00/M05 RMK AO1 SOG 77 1013 SLP162 T10041051,CWBY,2018-03-24T07:00:00Z,49.82,-64.28,-0.4,-5.1,50,8,,,,1016.2,,TRUE,TRUE,,,,,,,,,,,,,,,,,,,,,,,,,,,METAR,53.0
CWDO 240700Z AUTO 02002KT M02/M03 RMK AO1 8PAST HR SOG 76 1028 SLP073 P0003 T10221027 50008,CWDO,2018-03-24T07:00:00Z,49.67,-54.78,-2.2,-2.7,20,2,,,,1007.3,,TRUE,TRUE,,,,,,,,,,,,,,,,0.8,,,,,0.03,,,,,,METAR,92.0
CWDM 240700Z AUTO 02014KT M03/M07 RMK AO1 SOG 51 1018 PK WND 01019/0620 SLP152 T10291069,CWDM,2018-03-24T07:00:00Z,50.47,-59.62,-2.9,-6.9,20,14,,,,1015.2,,TRUE,TRUE,,,,,,,,,,,,,,,,,,,,,,,,,,,METAR,6.0
CWWK 240700Z AUTO 04003KT 04/02 RMK AO1 SLP090 T00410016 58006,CWWK,2018-03-24T07:00:00Z,49.02,-122.78,4.1,1.6,40,3,,,,1009.0,,TRUE,TRUE,,,,,,,,,,,,,,,,-0.6,,,,,,,,,,,METAR,15.0
CXEG 240700Z AUTO M01/M04 RMK AO1 T10061036,CXEG,2018-03-24T07:00:00Z,53.3,-113.6,-0.6,-3.6,,,,,,,,TRUE,TRUE,,,,,,,,,,,,,,,,,,,,,,,,,,,METAR,715.0
CXDE 240700Z AUTO 33009KT M19/M21 RMK AO1 SLP231 T11871210 57009,CXDE,2018-03-24T07:00:00Z,65.22,-123.43,-18.7,-21.0,330,9,,,,1023.1,,TRUE,TRUE,,,,,,,,,,,,,,,,-0.9,,,,,,,,,,,METAR,213.0
CWIK 240700Z AUTO 16013KT M03/M04 RMK AO1 SOG 15 6009 PK WND 15020/0605 SLP186 T10251039,CWIK,2018-03-24T07:00:00Z,50.37,-102.58,-2.5,-3.9,160,13,,,,1018.6,,TRUE,TRUE,,,,,,,,,,,,,,,,,,,,,,,,,,,SPECI,602.0
HDAM 240700Z 10008KT 9999 FEW023 31/22 Q1014,HDAM,2018-03-24T07:00:00Z,11.55,43.17,31.0,22.0,100,8,,6.21,29.940945,,,,,,,,,,,FEW,2300,,,,,,,VFR,,,,,,,,,,,,SPECI,49.0
WMKE 240700Z 05007KT 010V100 9999 SCT018 SCT140 BKN260 29/24 Q1010,WMKE,2018-03-24T07:00:00Z,4.53,103.43,29.0,24.0,50,7,,6.21,29.822834,,,,,,,,,,,SCT,1800,SCT,14000,BKN,26000,,,VFR,,,,,,,,,,,,METAR,5.0
WMKB 240700Z 07004KT 9999 SCT020 BKN280 34/25 Q1008 NOSIG,WMKB,2018-03-24T07:00:00Z,5.47,100.37,34.0,25.0,70,4,,6.21,29.763779,,,,,,TRUE,,,,,SCT,2000,BKN,28000,,,,,VFR,,,,,,,,,,,,METAR,4.0
FYOW 240700Z AUTO 02002KT //// // ////// 22/18 Q1016,FYOW,2018-03-24T07:00:00Z,-20.43,16.67,22.0,18.0,20,2,,,30.0,,,TRUE,,,,,,,,,,,,,,,,,,,,,,,,,,,,METAR,1481.0
FYML 240700Z AUTO 25003KT //// // ////// 25/10 Q1016,FYML,2018-03-24T07:00:00Z,-24.6,17.93,25.0,10.0,250,3,,,30.0,,,TRUE,,,,,,,,,,,,,,,,,,,,,,,,,,,,METAR,1113.0
FYGB 240700Z AUTO 31001KT //// // ////// 22/18 Q1019,FYGB,2018-03-24T07:00:00Z,-22.5,18.97,22.0,18.0,310,1,,,30.088583,,,TRUE,,,,,,,,,,,,,,,,,,,,,,,,,,,,METAR,1442.0
HSNN 240700Z 26012KT 8000 31/05 Q1010,HSNN,2018-03-24T07:00:00Z,12.05,24.97,31.0,5.0,260,12,,4.97,29.822834,,,,,,,,,,,,,,,,,,,,,,,,,,,,,,,METAR,658.0
HSOB 240700Z 32011KT CAVOK 35/M06 Q1009,HSOB,2018-03-24T07:00:00Z,13.17,30.22,35.0,-6.0,320,11,,6.21,29.793306,,,,,,,,,,,CAVOK,,,,,,,,VFR,,,,,,,,,,,,METAR,574.0
HSPN 240700Z 26006KT CAVOK 27/20 Q1009,HSPN,2018-03-24T07:00:00Z,19.42,37.22,27.0,20.0,260,6,,6.21,29.793306,,,,,,,,,,,CAVOK,,,,,,,,VFR,,,,,,,,,,,,METAR,138.0
VTCH 240700Z 21004KT 5000 HZ FEW025 35/12 Q1010,VTCH,2018-03-24T07:00:00Z,19.3,97.98,35.0,12.0,210,4,,3.11,29.822834,,,,,,,,,,HZ,FEW,2500,,,,,,,MVFR,,,,,,,,,,,,METAR,269.0
HCMM 240700Z 15007KT 9999 BKN022 30/26 Q1011 NOSIG,HCMM,2018-03-24T07:00:00Z,2.02,45.35,30.0,26.0,150,7,,6.21,29.852362,,,,,,TRUE,,,,,BKN,2200,,,,,,,MVFR,,,,,,,,,,,,METAR,9.0
HCMH 240700Z 13014KT CAVOK 27/08 Q1020 NOSIG,HCMH,2018-03-24T07:00:00Z,9.5,44.07,27.0,8.0,130,14,,6.21,30.11811,,,,,,TRUE,,,,,CAVOK,,,,,,,,VFR,,,,,,,,,,,,METAR,1326.0
HCMF 240700Z 02010KT CAVOK 27/22 Q1011 NOSIG,HCMF,2018-03-24T07:00:00Z,11.27,49.17,27.0,22.0,20,10,,6.21,29.852362,,,,,,TRUE,,,,,CAVOK,,,,,,,,VFR,,,,,,,,,,,,METAR,2.0
HKMO 240700Z 20005KT 9999 BKN023 30/24 Q1012 NOSIG,HKMO,2018-03-24T07:00:00Z,-4.02,39.62,30.0,24.0,200,5,,6.21,29.88189,,,,,,TRUE,,,,,BKN,2300,,,,,,,MVFR,,,,,,,,,,,,SPECI,55.0
RPMR 240700Z 01008KT 9999 FEW018CB SCT250 35/20 Q1008 NOSIG RMK A2977 CB NW,RPMR,2018-03-24T07:00:00Z,6.05,125.1,35.0,20.0,10,8,,6.21,29.763779,,,,,,TRUE,,,,,FEW,1800,SCT,25000,,,,,VFR,,,,,,,,,,,,METAR,154.0
RPVD 240700Z 04006KT 9999 VCSH SCT015 BKN080 29/24 Q1009 RMK A2980 VCSH NW,RPVD,2018-03-24T07:00:00Z,9.33,123.3,29.0,24.0,40,6,,6.21,29.793306,,,,,,,,,,VCSH,SCT,1500,BKN,8000,,,,,VFR,,,,,,,,,,,,METAR,8.0
RPVP 240700Z 09018G24KT 9999 FEW017CB 31/24 Q1010 RMK A2983 CB W,RPVP,2018-03-24T07:00:00Z,9.75,118.72,31.0,24.0,90,18,24,6.21,29.822834,,,,,,,,,,,FEW,1700,,,,,,,VFR,,,,,,,,,,,,METAR,16.0
RPLC 240700Z 09004KT 9999 SCT020 BKN100 30/17 Q1014 NOSIG RMK A2994,RPLC,2018-03-24T07:00:00Z,15.17,120.58,30.0,17.0,90,4,,6.21,29.940945,,,,,,TRUE,,,,,SCT,2000,BKN,10000,,,,,VFR,,,,,,,,,,,,METAR,196.0
UTFF 240700Z 07006KT 030V100 9999 NSC 18/07 Q1022 R99/CLRD70,UTFF,2018-03-24T07:00:00Z,40.37,71.77,18.0,7.0,70,6,,6.21,30.177166,,,,,,,,,,,CLR,,,,,,,,VFR,,,,,,,,,,,,METAR,577.0
UTSB 240700Z 06004KT CAVOK 16/08 Q1020 R01/CLRD70 NOSIG,UTSB,2018-03-24T07:00:00Z,39.77,64.48,16.0,8.0,60,4,,6.21,30.11811,,,,,,TRUE,,,,,CAVOK,,,,,,,,VFR,,,,,,,,,,,,METAR,226.0
UTFN 240700Z 08006KT 040V120 9999 NSC 18/06 Q1022 R28/CLRD70 NOSIG,UTFN,2018-03-24T07:00:00Z,40.98,71.57,18.0,6.0,80,6,,6.21,30.177166,,,,,,TRUE,,,,,CLR,,,,,,,,VFR,,,,,,,,,,,,METAR,490.0
WMKN 240700Z 07005KT 010V140 9999 FEW018 BKN300 31/24 Q1010,WMKN,2018-03-24T07:00:00Z,5.37,103.08,31.0,24.0,70,5,,6.21,29.822834,,,,,,,,,,,FEW,1800,BKN,30000,,,,,VFR,,,,,,,,,,,,METAR,6.0
WMKI 240700Z 28007KT 240V320 9999 SCT020 BKN280 32/24 Q1008,WMKI,2018-03-24T07:00:00Z,4.57,101.08,32.0,24.0,280,7,,6.21,29.763779,,,,,,,,,,,SCT,2000,BKN,28000,,,,,VFR,,,,,,,,,,,,METAR,39.0
WMKC 240700Z 10012KT 050V150 9999 SCT018 SCT140 BKN280 30/25 Q1010,WMKC,2018-03-24T07:00:00Z,6.17,102.27,30.0,25.0,100,12,,6.21,29.822834,,,,,,,,,,,SCT,1800,SCT,14000,BKN,28000,,,VFR,,,,,,,,,,,,METAR,5.0
WMKA 240700Z 07007KT 350V130 9999 FEW017CB SCT020 BKN280 34/23 Q1008,WMKA,2018-03-24T07:00:00Z,6.2,100.4,34.0,23.0,70,7,,6.21,29.763779,,,,,,,,,,,FEW,1700,SCT,2000,BKN,28000,,,VFR,,,,,,,,,,,,METAR,5.0
WMBA 240700Z VRB04KT 9999 FEW017CB SCT150 BKN280 32/25 Q1008,WMBA,2018-03-24T07:00:00Z,4.22,100.7,32.0,25.0,0,4,,6.21,29.763779,,,,,,,,,,,FEW,1700,SCT,15000,BKN,28000,,,VFR,,,,,,,,,,,,METAR,8.0
WMAU 240700Z 01008KT 290V060 9999 SCT018 SCT140 BKN270 30/24 Q//// QFF1010,WMAU,2018-03-24T07:00:00Z,2.38,103.88,30.0,24.0,10,8,,6.21,,,,,,,,,,,,SCT,1800,SCT,14000,BKN,27000,,,VFR,,,,,,,,,,,,METAR,45.0
VEJT 240700Z 04007KT 6000 SCT020 FEW030TCU BKN090 23/18 Q1013 TEMPO TSRA,VEJT,2018-03-24T07:00:00Z,,,23.0,18.0,40,7,,3.73,29.911417,,,,,,,,,,,SCT,2000,FEW,3000,BKN,9000,,,MVFR,,,,,,,,,,,,METAR,
VRMM 240700Z 34005KT 9999 SCT018TCU 31/25 Q1010 NOSIG,VRMM,2018-03-24T07:00:00Z,4.2,73.52,31.0,25.0,340,5,,6.21,29.822834,,,,,,TRUE,,,,,SCT,1800,,,,,,,VFR,,,,,,,,,,,,METAR,2.0
VOHB 240700Z 10011KT CAVOK 32/10 Q1016,VOHB,2018-03-24T07:00:00Z,15.37,75.08,32.0,10.0,100,11,,6.21,30.0,,,,,,,,,,,CAVOK,,,,,,,,VFR,,,,,,,,,,,,METAR,661.0
FMNN 240700Z 00000KT 9999 BKN020 28/// Q1012,FMNN,2018-03-24T07:00:00Z,-13.32,48.32,,,0,0,,6.21,29.88189,,,,,,,,,,,BKN,2000,,,,,,,MVFR,,,,,,,,,,,,METAR,9.0
VAJB 240700Z 36003KT 6000 NSC 33/07 Q1015,VAJB,2018-03-24T07:00:00Z,23.18,80.05,33.0,7.0,360,3,,3.73,29.970472,,,,,,,,,,,CLR,,,,,,,,MVFR,,,,,,,,,,,,METAR,494.0
VAAU 240700Z 32004KT 6000 NSC 34/10 Q1015 NOSIG,VAAU,2018-03-24T07:00:00Z,19.85,75.4,34.0,10.0,320,4,,3.73,29.970472,,,,,,TRUE,,,,,CLR,,,,,,,,MVFR,,,,,,,,,,,,METAR,579.0
CWZV 240700Z AUTO 34003KT 04/ RMK AO1 SLP092 T0038 53010,CWZV,2018-03-24T07:00:00Z,51.93,-131.02,3.8,,340,3,,,,1009.2,,TRUE,TRUE,,,,,,,,,,,,,,,,1.0,,,,,,,,,,,METAR,92.0
CWZL 240700Z AUTO 27004KT 03/01 RMK AO1 SLP095 T00330013 52007,CWZL,2018-03-24T07:00:00Z,53.03,-131.6,3.3,1.3,270,4,,,,1009.5,,TRUE,TRUE,,,,,,,,,,,,,,,,0.7,,,,,,,,,,,METAR,17.0
CWJO 240700Z AUTO 28014KT M03/M09 RMK AO1 PK WND 29021/0629 SLP202 T10331086 52011,CWJO,2018-03-24T07:00:00Z,48.43,-71.15,-3.3,-8.6,280,14,,,,1020.2,,TRUE,TRUE,,,,,,,,,,,,,,,,1.1,,,,,,,,,,,METAR,133.0
CWHP 240700Z AUTO 03019KT M01/M04 RMK AO1 PK WND 03023/0644 SLP145 T10131035 52014,CWHP,2018-03-24T07:00:00Z,49.07,-61.7,-1.3,-3.5,30,19,,,,1014.5,,TRUE,TRUE,,,,,,,,,,,,,,,,1.4,,,,,,,,,,,METAR,4.0
CWWX 240700Z AUTO 08019KT M03/M09 RMK AO1 PK WND 08026/0643 SLP286 T10291092 53002,CWWX,2018-03-24T07:00:00Z,45.32,-81.73,-2.9,-9.2,80,19,,,,1028.6,,TRUE,TRUE,,,,,,,,,,,,,,,,0.2,,,,,,,,,,,METAR,181.0
CWRU 240700Z AUTO 11015G21KT 03/01 RMK AO1 2PAST HR 3016 PK WND 11026/0617 SLP060 P0001 T00310010 50002,CWRU,2018-03-24T07:00:00Z,50.12,-127.93,3.1,1.0,110,15,21,,,1006.0,,TRUE,TRUE,,,,,,,,,,,,,,,,0.2,,,,,0.01,,,,,,METAR,98.0
CWQS 240700Z AUTO 32007KT 06/01 RMK AO1 SLP088 T00600008 51007,CWQS,2018-03-24T07:00:00Z,53.32,-132.77,6.0,0.8,320,7,,,,1008.8,,TRUE,TRUE,,,,,,,,,,,,,,,,0.7,,,,,,,,,,,METAR,14.0
CWME 240700Z AUTO 14004KT 03/M00 RMK AO1 SLP090 T00291001 51007,CWME,2018-03-24T07:00:00Z,52.18,-127.47,2.9,-0.1,140,4,,,,1009.0,,TRUE,TRUE,,,,,,,,,,,,,,,,0.7,,,,,,,,,,,METAR,32.0
CWWL 240700Z AUTO 32006KT 06/ RMK AO1 SLP087 T0057 52008,CWWL,2018-03-24T07:00:00Z,53.5,-130.63,5.7,,320,6,,,,1008.7,,TRUE,TRUE,,,,,,,,,,,,,,,,0.8,,,,,,,,,,,METAR,17.0
CXYH 240700Z AUTO M10/M14 RMK AO1 SOG 38 2001 SLP162 T11041143,CXYH,2018-03-24T07:00:00Z,61.25,-123.75,-10.4,-14.3,,,,,,1016.2,,TRUE,TRUE,,,,,,,,,,,,,,,,,,,,,,,,,,,METAR,204.0
CXPA 240700Z AUTO 33005KT M09/M13 RMK AO1 T10931130,CXPA,2018-03-24T07:00:00Z,55.62,-118.3,-9.3,-13.0,330,5,,,,,,TRUE,TRUE,,,,,,,,,,,,,,,,,,,,,,,,,,,METAR,621.0
CXOY 240700Z AUTO 18013KT M03/M06 RMK AO1 T10341062,CXOY,2018-03-24T07:00:00Z,51.38,-110.35,-3.4,-6.2,180,13,,,,,,TRUE,TRUE,,,,,,,,,,,,,,,,,,,,,,,,,,,METAR,767.0
CXHR 240700Z AUTO 20018KT M03/M07 RMK AO1 PK WND 20023/0630 T10261066,CXHR,2018-03-24T07:00:00Z,51.18,-112.5,-2.6,-6.6,200,18,,,,,,TRUE,TRUE,,,,,,,,,,,,,,,,,,,,,,,,,,,METAR,971.0
CXDP 240700Z AUTO 11015KT M00/M03 RMK AO1 PK WND 10018/0652 T10041027,CXDP,2018-03-24T07:00:00Z,54.32,-113.95,-0.4,-2.7,110,15,,,,,,TRUE,TRUE,,,,,,,,,,,,,,,,,,,,,,,,,,,METAR,614.0
CXBR 240700Z AUTO 19003KT M02/M04 RMK AO1 T10211038,CXBR,2018-03-24T07:00:00Z,49.62,-113.82,-2.1,-3.8,190,3,,,,,,TRUE,TRUE,,,,,,,,,,,,,,,,,,,,,,,,,,,METAR,1073.0
CXAF 240700Z AUTO 15010KT M02/M04 RMK AO1 T10171041,CXAF,2018-03-24T07:00:00Z,54.28,-112.97,-1.7,-4.1,150,10,,,,,,TRUE,TRUE,,,,,,,,,,,,,,,,,,,,,,,,,,,METAR,664.0
CXSC 240700Z AUTO 17007KT M01/M04 RMK AO1 T10061036,CXSC,2018-03-24T07:00:00Z,50.3,-110.08,-0.6,-3.6,170,7,,,,,,TRUE,TRUE,,,,,,,,,,,,,,,,,,,,,,,,,,,METAR,800.0
CWOE 240700Z AUTO 08008KT M03/M03 RMK AO1 SOG 33 8009 SLP137 T10291031,CWOE,2018-03-24T07:00:00Z,49.12,-110.47,-2.9,-3.1,80,8,,,,1013.7,,TRUE,TRUE,,,,,,,,,,,,,,,,,,,,,,,,,,,METAR,935.0
CXTV 240700Z AUTO 29003KT M30/M33 RMK AO1 SOG 35 7008 SLP300 T13031334,CXTV,2018-03-24T07:00:00Z,68.75,-133.5,-30.3,-33.4,290,3,,,,1030.0,,TRUE,TRUE,,,,,,,,,,,,,,,,,,,,,,,,,,,METAR,85.0
CXTH 240700Z AUTO 14016KT M01/M03 RMK AO1 PK WND 14018/0656 T10141032,CXTH,2018-03-24T07:00:00Z,53.63,-111.68,-1.4,-3.2,140,16,,,,,,TRUE,TRUE,,,,,,,,,,,,,,,,,,,,,,,,,,,METAR,678.0
CXFM 240700Z AUTO 16014KT M00/M04 RMK AO1 PK WND 16017/0654 T10031035,CXFM,2018-03-24T07:00:00Z,49.48,-111.48,-0.3,-3.5,160,14,,,,,,TRUE,TRUE,,,,,,,,,,,,,,,,,,,,,,,,,,,METAR,881.0
CXDB 240700Z AUTO 18007KT M02/M05 RMK AO1 PK WND 17021/0618 T10161051,CXDB,2018-03-24T07:00:00Z,49.05,-112.82,-1.6,-5.1,180,7,,,,,,TRUE,TRUE,,,,,,,,,,,,,,,,,,,,,,,,,,,METAR,1310.0
CXAK 240700Z AUTO 19014KT M02/M07 RMK AO1 PK WND 17017/0608 T10171068,CXAK,2018-03-24T07:00:00Z,52.35,-112.6,-1.7,-6.8,190,14,,,,,,TRUE,TRUE,,,,,,,,,,,,,,,,,,,,,,,,,,,METAR,795.0
VAPR 240700Z 10005KT 6000 NSC 34/09 Q1013,VAPR,2018-03-24T07:00:00Z,21.63,69.67,34.0,9.0,100,5,,3.73,29.911417,,,,,,,,,,,CLR,,,,,,,,MVFR,,,,,,,,,,,,METAR,7.0
FYKM 240700Z 00000KT 9999 BKN020 25/20 Q1017,FYKM,2018-03-24T07:00:00Z,-17.63,24.18,25.0,20.0,0,0,,6.21,30.029528,,,,,,,,,,,BKN,2000,,,,,,,MVFR,,,,,,,,,,,,METAR,958.0
FDMY 240700Z AUTO 00000KT //// // ////// 23/18 Q1022,FDMY,2018-03-24T07:00:00Z,-25.87,31.52,23.0,18.0,0,0,,,30.177166,,,TRUE,,,,,,,,,,,,,,,,,,,,,,,,,,,,METAR,480.0
OEGS 240700Z 18012KT CAVOK 30/07 Q1016,OEGS,2018-03-24T07:00:00Z,26.3,43.77,30.0,7.0,180,12,,6.21,30.0,,,,,,,,,,,CAVOK,,,,,,,,VFR,,,,,,,,,,,,METAR,650.0
OEGN 240700Z 17007KT CAVOK 33/24 Q1011 NOSIG,OEGN,2018-03-24T07:00:00Z,16.88,42.57,33.0,24.0,170,7,,6.21,29.852362,,,,,,TRUE,,,,,CAVOK,,,,,,,,VFR,,,,,,,,,,,,METAR,3.0
OEDM 240700Z 15008KT CAVOK 29/M03 Q1018,OEDM,2018-03-24T07:00:00Z,24.45,44.12,29.0,-3.0,150,8,,6.21,30.059055,,,,,,,,,,,CAVOK,,,,,,,,VFR,,,,,,,,,,,,METAR,922.0
OEBA 240700Z 14010KT CAVOK 25/02 Q1022 NOSIG,OEBA,2018-03-24T07:00:00Z,20.3,41.62,25.0,2.0,140,10,,6.21,30.177166,,,,,,TRUE,,,,,CAVOK,,,,,,,,VFR,,,,,,,,,,,,METAR,1656.0
OEAR 240700Z 00000KT CAVOK 33/16 Q1011,OEAR,2018-03-24T07:00:00Z,,,33.0,16.0,0,0,,6.21,29.852362,,,,,,,,,,,CAVOK,,,,,,,,VFR,,,,,,,,,,,,METAR,
OEAO 240700Z 18008KT CAVOK 31/06 Q1013,OEAO,2018-03-24T07:00:00Z,26.48,38.12,31.0,6.0,180,8,,6.21,29.911417,,,,,,,,,,,CAVOK,,,,,,,,VFR,,,,,,,,,,,,METAR,624.0
OEAH 240700Z 06005KT 8000 NSC 28/M05 Q1015 NOSIG,OEAH,2018-03-24T07:00:00Z,25.27,49.47,28.0,-5.0,60,5,,4.97,29.970472,,,,,,TRUE,,,,,CLR,,,,,,,,MVFR,,,,,,,,,,,,METAR,172.0
OEAB 240700Z 07011KT CAVOK 22/M05 Q1026 NOSIG,OEAB,2018-03-24T07:00:00Z,18.22,42.63,22.0,-5.0,70,11,,6.21,30.295275,,,,,,TRUE,,,,,CAVOK,,,,,,,,VFR,,,,,,,,,,,,METAR,2084.0
FQNC 240700Z 14006KT 090V200 9999 BKN020 30/24 Q1013,FQNC,2018-03-24T07:00:00Z,-14.48,40.72,30.0,24.0,140,6,,6.21,29.911417,,,,,,,,,,,BKN,2000,,,,,,,MVFR,,,,,,,,,,,,METAR,125.0
FBSP 240700Z 00000KT 9999 OVC020 24/21 Q1016,FBSP,2018-03-24T07:00:00Z,-22.05,27.82,24.0,21.0,0,0,,6.21,30.0,,,,,,,,,,,OVC,2000,,,,,,,MVFR,,,,,,,,,,,,METAR,892.0
FBMN 240700Z 04005KT CAVOK 25/21 Q1016,FBMN,2018-03-24T07:00:00Z,-19.97,23.42,25.0,21.0,40,5,,6.21,30.0,,,,,,,,,,,CAVOK,,,,,,,,VFR,,,,,,,,,,,,METAR,900.0
FBKE 240700Z 05007KT 010V070 9999 FEW015 SCT070 24/19 Q1017,FBKE,2018-03-24T07:00:00Z,-17.82,25.17,24.0,19.0,50,7,,6.21,30.029528,,,,,,,,,,,FEW,1500,SCT,7000,,,,,VFR,,,,,,,,,,,,METAR,1000.0
FBFT 240700Z VRB02KT 9999 BKN015 22/20 Q1017,FBFT,2018-03-24T07:00:00Z,-21.17,27.48,22.0,20.0,0,2,,6.21,30.029528,,,,,,,,,,,BKN,1500,,,,,,,MVFR,,,,,,,,,,,,METAR,1000.0
VTUW 240700Z 12005KT 060V180 CAVOK 31/17 Q1012 NOSIG,VTUW,2018-03-24T07:00:00Z,17.38,104.63,31.0,17.0,120,5,,6.21,29.88189,,,,,,TRUE,,,,,CAVOK,,,,,,,,VFR,,,,,,,,,,,,METAR,184.0
VTUV 240700Z VRB04KT 9000 NSC 32/18 Q1011 NOSIG,VTUV,2018-03-24T07:00:00Z,16.12,103.78,32.0,18.0,0,4,,5.59,29.852362,,,,,,TRUE,,,,,CLR,,,,,,,,VFR,,,,,,,,,,,,METAR,138.0
VTUU 240700Z VRB02KT 7000 NSC 32/20 Q1011 NOSIG,VTUU,2018-03-24T07:00:00Z,15.25,104.87,32.0,20.0,0,2,,4.35,29.852362,,,,,,TRUE,,,,,CLR,,,,,,,,MVFR,,,,,,,,,,,,METAR,127.0
VTUQ 240700Z VRB05KT 8000 FEW030 34/19 Q1012 NOSIG,VTUQ,2018-03-24T07:00:00Z,14.95,102.32,34.0,19.0,0,5,,4.97,29.88189,,,,,,TRUE,,,,,FEW,3000,,,,,,,MVFR,,,,,,,,,,,,METAR,234.0
VTUO 240700Z 06007KT 020V130 7000 FEW030 33/20 Q1012 A2989 NOSIG,VTUO,2018-03-24T07:00:00Z,15.23,103.25,33.0,20.0,60,7,,4.35,29.88189,,,,,,TRUE,,,,,FEW,3000,,,,,,,MVFR,,,,,,,,,,,,METAR,183.0
VTUL 240700Z VRB04KT 6000 FEW030 32/19 Q1012 NOSIG,VTUL,2018-03-24T07:00:00Z,17.43,101.72,32.0,19.0,0,4,,3.73,29.88189,,,,,,TRUE,,,,,FEW,3000,,,,,,,MVFR,,,,,,,,,,,,METAR,254.0
VTUK 240700Z VRB04KT 8000 NSC 33/22 Q1012 NOSIG,VTUK,2018-03-24T07:00:00Z,16.47,102.78,33.0,22.0,0,4,,4.97,29.88189,,,,,,TRUE,,,,,CLR,,,,,,,,MVFR,,,,,,,,,,,,METAR,204.0
VTUI 240700Z VRB04KT CAVOK 30/18 Q1012 NOSIG,VTUI,2018-03-24T07:00:00Z,17.2,104.12,30.0,18.0,0,4,,6.21,29.88189,,,,,,TRUE,,,,,CAVOK,,,,,,,,VFR,,,,,,,,,,,,METAR,172.0
VTUD 240700Z VRB03KT CAVOK 32/17 Q1012 NOSIG,VTUD,2018-03-24T07:00:00Z,17.37,102.78,32.0,17.0,0,3,,6.21,29.88189,,,,,,TRUE,,,,,CAVOK,,,,,,,,VFR,,,,,,,,,,,,METAR,182.0
NCAI 240700Z AUTO 33002KT //// ////// 26/26 Q1014,NCAI,2018-03-24T07:00:00Z,-18.82,-159.77,26.0,26.0,330,2,,,29.940945,,,TRUE,,,,,,,,,,,,,,,,,,,,,,,,,,,,METAR,6.0
NIUE 240700Z AUTO 13001KT //// ////// 25/25 Q1013.0,NIUE,2018-03-24T07:00:00Z,-19.07,-169.92,25.0,25.0,130,1,,,29.911417,,,TRUE,,,,,,,,,,,,,,,,,,,,,,,,,,,,METAR,20.0
VTSP 240700Z 07006KT 8000 FEW020 BKN100 31/22 Q1009 NOSIG,VTSP,2018-03-24T07:00:00Z,8.12,98.32,31.0,22.0,70,6,,4.97,29.793306,,,,,,TRUE,,,,,FEW,2000,BKN,10000,,,,,MVFR,,,,,,,,,,,,METAR,10.0
VTSG 240700Z 10009KT 060V130 9999 SCT020 34/23 Q1009,VTSG,2018-03-24T07:00:00Z,8.1,98.98,34.0,23.0,100,9,,6.21,29.793306,,,,,,,,,,,SCT,2000,,,,,,,VFR,,,,,,,,,,,,METAR,25.0
VTCT 240700Z 08006KT 040V120 6000 NSC 31/22 Q1011,VTCT,2018-03-24T07:00:00Z,19.95,99.88,31.0,22.0,80,6,,3.73,29.852362,,,,,,,,,,,CLR,,,,,,,,MVFR,,,,,,,,,,,,METAR,390.0
OEGT 240700Z 18018KT 8000 NSC 24/03 Q1005,OEGT,2018-03-24T07:00:00Z,31.42,37.27,24.0,3.0,180,18,,4.97,29.675198,,,,,,,,,,,CLR,,,,,,,,MVFR,,,,,,,,,,,,METAR,499.0
OEHL 240700Z 18018KT 9000 NSC 29/M01 Q1017,OEHL,2018-03-24T07:00:00Z,27.42,41.67,29.0,-1.0,180,18,,5.59,30.029528,,,,,,,,,,,CLR,,,,,,,,VFR,,,,,,,,,,,,METAR,1013.0
OESH 240700Z 11012KT CAVOK 30/06 Q1017 NOSIG,OESH,2018-03-24T07:00:00Z,17.47,47.12,30.0,6.0,110,12,,6.21,30.029528,,,,,,TRUE,,,,,CAVOK,,,,,,,,VFR,,,,,,,,,,,,METAR,722.0
OERR 240700Z 21020KT 3000 BLDU SKC 31/09 Q1010 NOSIG,OERR,2018-03-24T07:00:00Z,30.88,41.12,31.0,9.0,210,20,,1.86,29.822834,,,,,,TRUE,,,,BLDU,SKC,,,,,,,,IFR,,,,,,,,,,,,METAR,552.0
OERF 240700Z 19021KT 4000 BLDU SKC 31/M09 Q1013,OERF,2018-03-24T07:00:00Z,29.62,43.47,31.0,-9.0,190,21,,2.49,29.911417,,,,,,,,,,BLDU,SKC,,,,,,,,IFR,,,,,,,,,,,,METAR,447.0
OEPA 240700Z 18010KT CAVOK 29/11 Q1016 NOSIG,OEPA,2018-03-24T07:00:00Z,28.32,46.12,29.0,11.0,180,10,,6.21,30.0,,,,,,TRUE,,,,,CAVOK,,,,,,,,VFR,,,,,,,,,,,,METAR,355.0
OENG 240700Z 09005KT CAVOK 26/M04 Q1021 NOSIG,OENG,2018-03-24T07:00:00Z,17.62,44.42,26.0,-4.0,90,5,,6.21,30.147638,,,,,,TRUE,,,,,CAVOK,,,,,,,,VFR,,,,,,,,,,,,METAR,1203.0
OEMK 240700Z 00000KT CAVOK 32/17 Q1010,OEMK,2018-03-24T07:00:00Z,21.43,40.0,32.0,17.0,0,0,,6.21,29.822834,,,,,,,,,,,CAVOK,,,,,,,,VFR,,,,,,,,,,,,METAR,369.0
OEKM 240700Z 11014KT CAVOK 24/M06 Q1025 NOSIG,OEKM,2018-03-24T07:00:00Z,18.3,42.78,24.0,-6.0,110,14,,6.21,30.265747,,,,,,TRUE,,,,,CAVOK,,,,,,,,VFR,,,,,,,,,,,,METAR,2054.0
OESK 240700Z 18019KT 7000 NSC 31/M04 Q1013,OESK,2018-03-24T07:00:00Z,29.77,40.1,31.0,-4.0,180,19,,4.35,29.911417,,,,,,,,,,,CLR,,,,,,,,MVFR,,,,,,,,,,,,METAR,684.0
OETB 240700Z 16017KT 6000 NSC 31/00 Q1010 TEMPO 3000 BLDU,OETB,2018-03-24T07:00:00Z,28.37,36.62,31.0,0.0,160,17,,3.73,29.822834,,,,,,,,,,,CLR,,,,,,,,MVFR,,,,,,,,,,,,METAR,770.0
OETF 240700Z 13018KT CAVOK 28/M04 Q1021 NOSIG,OETF,2018-03-24T07:00:00Z,21.47,40.53,28.0,-4.0,130,18,,6.21,30.147638,,,,,,TRUE,,,,,CAVOK,,,,,,,,VFR,,,,,,,,,,,,METAR,1449.0
OETR 240700Z 16016KT CAVOK 28/04 Q1009,OETR,2018-03-24T07:00:00Z,31.7,38.73,28.0,4.0,160,16,,6.21,29.793306,,,,,,,,,,,CAVOK,,,,,,,,VFR,,,,,,,,,,,,METAR,855.0
OEWD 240700Z 11010KT CAVOK 29/10 Q1017 NOSIG,OEWD,2018-03-24T07:00:00Z,20.5,45.2,29.0,10.0,110,10,,6.21,30.029528,,,,,,TRUE,,,,,CAVOK,,,,,,,,VFR,,,,,,,,,,,,METAR,617.0
OEWJ 240700Z 15013KT CAVOK 32/16 Q1007 NOSIG,OEWJ,2018-03-24T07:00:00Z,26.18,36.47,32.0,16.0,150,13,,6.21,29.734253,,,,,,TRUE,,,,,CAVOK,,,,,,,,VFR,,,,,,,,,,,,METAR,16.0
OEYN 240700Z 09005KT CAVOK 34/12 Q1007 NOSIG,OEYN,2018-03-24T07:00:00Z,24.13,38.07,34.0,12.0,90,5,,6.21,29.734253,,,,,,TRUE,,,,,CAVOK,,,,,,,,VFR,,,,,,,,,,,,METAR,8.0
VTPP 240700Z 24006KT 7000 NSC 34/19 Q1010,VTPP,2018-03-24T07:00:00Z,16.78,100.28,34.0,19.0,240,6,,4.35,29.822834,,,,,,,,,,,CLR,,,,,,,,MVFR,,,,,,,,,,,,METAR,44.0
VTPO 240700Z 21005KT 4000 HZ FEW022 34/19 Q1010,VTPO,2018-03-24T07:00:00Z,17.23,99.82,34.0,19.0,210,5,,2.49,29.822834,,,,,,,,,,HZ,FEW,2200,,,,,,,IFR,,,,,,,,,,,,METAR,54.0
VTPM 240700Z 17004KT 110V240 6000 FEW040 35/17 Q1010,VTPM,2018-03-24T07:00:00Z,16.67,98.53,35.0,17.0,170,4,,3.73,29.822834,,,,,,,,,,,FEW,4000,,,,,,,MVFR,,,,,,,,,,,,METAR,197.0
VTCP 240700Z 22006KT 180V280 4000 HZ FEW030 65/16 Q1010 NOSIG,VTCP,2018-03-24T07:00:00Z,18.13,100.17,0.0,16.0,220,6,,2.49,29.822834,,,,,,TRUE,,,,HZ,FEW,3000,,,,,,,IFR,,,,,,,,,,,,METAR,162.0
VTCN 240700Z VRB04KT 7000 NSC 34/16 Q1010 NOSIG,VTCN,2018-03-24T07:00:00Z,18.82,100.77,34.0,16.0,0,4,,4.35,29.822834,,,,,,TRUE,,,,,CLR,,,,,,,,MVFR,,,,,,,,,,,,METAR,201.0
VTCL 240700Z VRB03KT 7000 SCT025 35/20 Q1011,VTCL,2018-03-24T07:00:00Z,18.27,99.52,35.0,20.0,0,3,,4.35,29.852362,,,,,,,,,,,SCT,2500,,,,,,,MVFR,,,,,,,,,,,,METAR,242.0
VTBO 240700Z 24012KT 6000 FEW023 32/23 Q1010,VTBO,2018-03-24T07:00:00Z,12.28,102.32,32.0,23.0,240,12,,3.73,29.822834,,,,,,,,,,,FEW,2300,,,,,,,MVFR,,,,,,,,,,,,METAR,32.0
VTST 240700Z 08012KT 9999 SCT020 33/23 Q1008 NOSIG,VTST,2018-03-24T07:00:00Z,7.52,99.62,33.0,23.0,80,12,,6.21,29.763779,,,,,,TRUE,,,,,SCT,2000,,,,,,,VFR,,,,,,,,,,,,METAR,16.0
VTSR 240700Z 10008G23KT 020V160 9000 -RA FEW029 BKN100 31/23 Q1009 NOSIG,VTSR,2018-03-24T07:00:00Z,9.78,98.58,31.0,23.0,100,8,23,5.59,29.793306,,,,,,TRUE,,,,-RA,FEW,2900,BKN,10000,,,,,VFR,,,,,,,,,,,,METAR,8.0
VTSK 240700Z 12008KT 9999 FEW020 SCT025 BKN080 29/21 Q1008,VTSK,2018-03-24T07:00:00Z,6.77,101.15,29.0,21.0,120,8,,6.21,29.763779,,,,,,,,,,,FEW,2000,SCT,2500,BKN,8000,,,VFR,,,,,,,,,,,,METAR,9.0
GGOV 240700Z 23003KT 4000 DU NSC 24/23 Q1009 BECMG 1500,GGOV,2018-03-24T07:00:00Z,11.87,-15.65,24.0,23.0,230,3,,2.49,29.793306,,,,,,,,,,DU,CLR,,,,,,,,IFR,,,,,,,,,,,,METAR,36.0
DBBB 240700Z 00000KT 9999 FEW009 24/23 Q1010 NOSIG,DBBB,2018-03-24T07:00:00Z,6.33,2.37,24.0,23.0,0,0,,6.21,29.822834,,,,,,TRUE,,,,,FEW,900,,,,,,,VFR,,,,,,,,,,,,METAR,9.0
FTTJ 240700Z 33007KT 0900 R05/0900 DU NSC 27/M05 Q1010 NOSIG,FTTJ,2018-03-24T07:00:00Z,12.12,15.02,27.0,-5.0,330,7,,0.56,29.822834,,,,,,TRUE,,,,DU,CLR,,,,,,,,LIFR,,,,,,,,,,,,SPECI,295.0
FTTA 240700Z 30010KT CAVOK 29/17 Q1011,FTTA,2018-03-24T07:00:00Z,9.15,18.37,29.0,17.0,300,10,,6.21,29.852362,,,,,,,,,,,CAVOK,,,,,,,,VFR,,,,,,,,,,,,METAR,365.0
FTTD 240700Z 22006KT CAVOK 25/20 Q1011,FTTD,2018-03-24T07:00:00Z,8.62,16.07,25.0,20.0,220,6,,6.21,29.852362,,,,,,,,,,,CAVOK,,,,,,,,VFR,,,,,,,,,,,,METAR,422.0
FTTY 240700Z 04027KT 0200 SS NSC 24/06 Q1011,FTTY,2018-03-24T07:00:00Z,18.0,19.17,24.0,6.0,40,27,,0.12,29.852362,,,,,,,,,,SS,CLR,,,,,,,,LIFR,,,,,,,,,,,,METAR,234.0
FTTC 240700Z 22008KT CAVOK 36/05 Q1009,FTTC,2018-03-24T07:00:00Z,13.83,20.85,36.0,5.0,220,8,,6.21,29.793306,,,,,,,,,,,CAVOK,,,,,,,,VFR,,,,,,,,,,,,METAR,549.0
CYWE 240700Z AUTO 03010G15KT 9SM OVC100 M22/M25 A2982 RMK SLP144,CYWE,2018-03-24T07:00:00Z,64.18,-114.08,-22.0,-25.0,30,10,15,9.0,29.819881,1014.4,,TRUE,,,,,,,,OVC,10000,,,,,,,VFR,,,,,,,,,,,,METAR,371.0
CYVM 240700Z AUTO 20011KT 9SM CLR M32/M36 A3023 RMK SLP239,CYVM,2018-03-24T07:00:00Z,67.53,-64.02,-32.0,-36.0,200,11,,9.0,30.230314,1023.9,,TRUE,,,,,,,,CLR,,,,,,,,VFR,,,,,,,,,,,,METAR,6.0
CYRT 240700Z 22019G25KT 15SM IC SCT045 BKN150 M16/M19 A3011 RMK SC3AC3 SLP202,CYRT,2018-03-24T07:00:00Z,62.82,-92.12,-16.0,-19.0,220,19,25,15.0,30.109253,1020.2,,,,,,,,,IC,SCT,4500,BKN,15000,,,,,VFR,,,,,,,,,,,,METAR,32.0
CYHY 240700Z 32012KT 1 1/2SM -SN DRSN VV014 M13/M15 A2973 RMK SN8 SLP085,CYHY,2018-03-24T07:00:00Z,60.82,-115.77,-13.0,-15.0,320,12,,1.5,29.731298,1008.5,,,,,,,,,-SN DRSN,OVX,0,,,,,,,LIFR,,,,,,,,,,,1400,METAR,166.0
CYHK 240700Z AUTO 01011KT 9SM CLR M34/M38 A3009 RMK SLP201,CYHK,2018-03-24T07:00:00Z,68.62,-95.83,-34.0,-38.0,10,11,,9.0,30.088583,1020.1,,TRUE,,,,,,,,CLR,,,,,,,,VFR,,,,,,,,,,,,METAR,46.0
CYFS 240700Z 34014G22KT 8SM -SN DRSN OVC045 M13/M17 A2996 RMK SC8 SLP166,CYFS,2018-03-24T07:00:00Z,61.75,-121.22,-13.0,-17.0,340,14,22,8.0,29.958662,1016.6,,,,,,,,,-SN DRSN,OVC,4500,,,,,,,VFR,,,,,,,,,,,,METAR,169.0
CYCO 240700Z 25007KT 8SM -SG FEW008 OVC037 M25/M28 A3026 RMK SF1SC7 SLP252,CYCO,2018-03-24T07:00:00Z,67.82,-115.15,-25.0,-28.0,250,7,,8.0,30.259842,1025.2,,,,,,,,,-SG,FEW,800,OVC,3700,,,,,VFR,,,,,,,,,,,,METAR,22.0
CYCB 240700Z 31003KT 220V350 15SM FEW005 FEW065 M35/M39 A3022 RMK SF1SC1 SLP242,CYCB,2018-03-24T07:00:00Z,69.08,-105.12,-35.0,-39.0,310,3,,15.0,30.221457,1024.2,,,,,,,,,,FEW,500,FEW,6500,,,,,VFR,,,,,,,,,,,,METAR,27.0
DFOO 240700Z 04004KT 1200 DU NSC 23/M06 Q1013,DFOO,2018-03-24T07:00:00Z,11.17,-4.32,23.0,-6.0,40,4,,0.75,29.911417,,,,,,,,,,DU,CLR,,,,,,,,LIFR,,,,,,,,,,,,METAR,460.0
DFFD 240700Z 05007KT 1600 R04/1200 DU NSC 25/M10 Q1013 TEMPO 1400 DU,DFFD,2018-03-24T07:00:00Z,12.33,-1.52,25.0,-10.0,50,7,,0.99,29.911417,,,,,,,,,,DU,CLR,,,,,,,,LIFR,,,,,,,,,,,,METAR,306.0
DNEN 240700Z 00000KT 5000 HZ FEW009 25/21 Q1011,DNEN,2018-03-24T07:00:00Z,6.47,7.53,25.0,21.0,0,0,,3.11,29.852362,,,,,,,,,,HZ,FEW,900,,,,,,,MVFR,,,,,,,,,,,,METAR,137.0
ZYHB 240700Z 33008G13MPS 280V350 CAVOK 14/M09 Q1011 BECMG TL0830 34003MPS,ZYHB,2018-03-24T07:00:00Z,45.62,126.25,14.0,-9.0,330,16,25,6.21,29.852362,,,,,,,,,,,CAVOK,,,,,,,,VFR,,,,,,,,,,,,METAR,140.0
ZYCC 240700Z 27006MPS 9000 NSC 17/M09 Q1012 NOSIG,ZYCC,2018-03-24T07:00:00Z,43.98,125.68,17.0,-9.0,270,12,,5.59,29.88189,,,,,,TRUE,,,,,CLR,,,,,,,,VFR,,,,,,,,,,,,METAR,238.0
ZUCK 240700Z 19002MPS 5000 -RA BR FEW010 SCT020 OVC050 15/13 Q1016 NOSIG,ZUCK,2018-03-24T07:00:00Z,29.72,106.63,15.0,13.0,190,4,,3.11,30.0,,,,,,TRUE,,,,-RA BR,FEW,1000,SCT,2000,OVC,5000,,,MVFR,,,,,,,,,,,,METAR,416.0
ZSOF 240700Z 10003MPS 070V160 CAVOK 24/07 Q1018 NOSIG,ZSOF,2018-03-24T07:00:00Z,31.98,116.97,24.0,7.0,100,6,,6.21,30.059055,,,,,,TRUE,,,,,CAVOK,,,,,,,,VFR,,,,,,,,,,,,METAR,63.0
ZSNJ 240700Z VRB02MPS 9000 NSC 24/05 Q1019 NOSIG,ZSNJ,2018-03-24T07:00:00Z,31.75,118.87,24.0,5.0,0,4,,5.59,30.088583,,,,,,TRUE,,,,,CLR,,,,,,,,VFR,,,,,,,,,,,,METAR,33.0
ZLLL 240700Z 17004MPS 120V200 CAVOK 15/M09 Q1019 NOSIG,ZLLL,2018-03-24T07:00:00Z,36.52,103.62,15.0,-9.0,170,8,,6.21,30.088583,,,,,,TRUE,,,,,CAVOK,,,,,,,,VFR,,,,,,,,,,,,METAR,1947.0
ZJSY 240700Z 15006MPS 130V190 9999 FEW033 27/19 Q1014 NOSIG,ZJSY,2018-03-24T07:00:00Z,18.3,109.42,27.0,19.0,150,12,,6.21,29.940945,,,,,,TRUE,,,,,FEW,3300,,,,,,,VFR,,,,,,,,,,,,METAR,27.0
ZJHK 240700Z 07007MPS 9999 SCT033 BKN046 24/19 Q1015 NOSIG,ZJHK,2018-03-24T07:00:00Z,19.93,110.47,24.0,19.0,70,14,,6.21,29.970472,,,,,,TRUE,,,,,SCT,3300,BKN,4600,,,,,VFR,,,,,,,,,,,,METAR,23.0
ZHHH 240700Z 16005MPS CAVOK 22/11 Q1018 NOSIG,ZHHH,2018-03-24T07:00:00Z,30.78,114.22,22.0,11.0,160,10,,6.21,30.059055,,,,,,TRUE,,,,,CAVOK,,,,,,,,VFR,,,,,,,,,,,,METAR,33.0
ZHCC 240700Z 04005MPS 360V080 7000 NSC 21/04 Q1021 NOSIG,ZHCC,2018-03-24T07:00:00Z,34.52,113.83,21.0,4.0,40,10,,4.35,30.147638,,,,,,TRUE,,,,,CLR,,,,,,,,MVFR,,,,,,,,,,,,METAR,151.0
ZGHA 240700Z 13002MPS 090V180 5000 -RA BR SCT050 15/13 Q1019 NOSIG,ZGHA,2018-03-24T07:00:00Z,28.18,113.22,15.0,13.0,130,4,,3.11,30.088583,,,,,,TRUE,,,,-RA BR,SCT,5000,,,,,,,MVFR,,,,,,,,,,,,METAR,66.0
ZBHH 240700Z 23002MPS 170V300 CAVOK 16/M12 Q1022 NOSIG,ZBHH,2018-03-24T07:00:00Z,40.85,111.82,16.0,-12.0,230,4,,6.21,30.177166,,,,,,TRUE,,,,,CAVOK,,,,,,,,VFR,,,,,,,,,,,,METAR,1065.0
LERT 240700Z 32017G27KT 9999 FEW032 11/05 Q1014 NOSIG,LERT,2018-03-24T07:00:00Z,36.63,-6.33,11.0,5.0,320,17,27,6.21,29.940945,,,,,,TRUE,,,,,FEW,3200,,,,,,,VFR,,,,,,,,,,,,METAR,26.0
UWOR 240700Z 20005MPS CAVOK M05/M09 Q1014 R25/420145 NOSIG RMK QFE737/0982,UWOR,2018-03-24T07:00:00Z,51.07,58.6,-5.0,-9.0,200,10,,6.21,29.940945,,,,,,TRUE,,,,,CAVOK,,,,,,,,VFR,,,,,,,,,,,,METAR,277.0
UWLW 240700Z 24006MPS 8000 NSC M02/M07 Q1003 R20/820555 NOSIG RMK QFE747,UWLW,2018-03-24T07:00:00Z,54.4,48.8,-2.0,-7.0,240,12,,4.97,29.616142,,,,,,TRUE,,,,,CLR,,,,,,,,MVFR,,,,,,,,,,,,METAR,66.0
VLLB 240700Z 18002 9999 FEW020 26/18 Q1016 NOSIG,VLLB,2018-03-24T07:00:00Z,19.9,102.17,26.0,18.0,180,2,,6.21,30.0,,,,,,TRUE,,,,,FEW,2000,,,,,,,VFR,,,,,,,,,,,,METAR,291.0
VLSK 240700Z 36002KT 9000 SCT020 FEW100 31/19 Q1013 NOSIG,VLSK,2018-03-24T07:00:00Z,16.55,104.75,31.0,19.0,360,2,,5.59,29.911417,,,,,,TRUE,,,,,SCT,2000,FEW,10000,,,,,VFR,,,,,,,,,,,,METAR,155.0
VLPS 240700Z 22004KT 5000 HZ FEW020 32/21 Q1011 NOSIG,VLPS,2018-03-24T07:00:00Z,15.13,105.78,32.0,21.0,220,4,,3.11,29.852362,,,,,,TRUE,,,,HZ,FEW,2000,,,,,,,MVFR,,,,,,,,,,,,METAR,107.0
VLLN 240700Z 09002KT 5000 FU SCT020 OVC100 26/20 Q1015 NOSIG,VLLN,2018-03-24T07:00:00Z,20.97,101.4,26.0,20.0,90,2,,3.11,29.970472,,,,,,TRUE,,,,FU,SCT,2000,OVC,10000,,,,,MVFR,,,,,,,,,,,,METAR,600.0
DNMM 240700Z 00000KT 4000 HZ FEW009 25/23 Q1012 TEMPO 3000 HZ,DNMM,2018-03-24T07:00:00Z,6.57,3.32,25.0,23.0,0,0,,2.49,29.88189,,,,,,,,,,HZ,FEW,900,,,,,,,IFR,,,,,,,,,,,,SPECI,38.0
DNGO 240700Z 00000KT CAVOK 25/20 Q1010,DNGO,2018-03-24T07:00:00Z,10.28,11.15,25.0,20.0,0,0,,6.21,29.822834,,,,,,,,,,,CAVOK,,,,,,,,VFR,,,,,,,,,,,,METAR,505.0
DNKT 240700Z 07005KT 1500 HZ NSC 23/M05 Q1014,DNKT,2018-03-24T07:00:00Z,13.0,7.67,23.0,-5.0,70,5,,0.93,29.940945,,,,,,,,,,HZ,CLR,,,,,,,,LIFR,,,,,,,,,,,,METAR,503.0
DNIL 240700Z 23005KT 9999 FEW010 24/21 Q1012,DNIL,2018-03-24T07:00:00Z,8.47,4.48,24.0,21.0,230,5,,6.21,29.88189,,,,,,,,,,,FEW,1000,,,,,,,VFR,,,,,,,,,,,,METAR,305.0
DNMN 240700Z 10004KT CAVOK 24/20 Q1007,DNMN,2018-03-24T07:00:00Z,9.65,6.47,24.0,20.0,100,4,,6.21,29.734253,,,,,,,,,,,CAVOK,,,,,,,,VFR,,,,,,,,,,,,METAR,254.0
DRRM 240700Z 08010KT 0500 DU NSC 24/M13 Q1013,DRRM,2018-03-24T07:00:00Z,13.5,7.12,24.0,-13.0,80,10,,0.31,29.911417,,,,,,,,,,DU,CLR,,,,,,,,LIFR,,,,,,,,,,,,METAR,373.0
DRRN 240700Z 04008KT 1800 DU NSC 23/M16 Q1012 TEMPO 1200,DRRN,2018-03-24T07:00:00Z,13.47,2.17,23.0,-16.0,40,8,,1.12,29.88189,,,,,,,,,,DU,CLR,,,,,,,,IFR,,,,,,,,,,,,SPECI,227.0
DRRT 240700Z 04010KT 8000 NSC 22/M05 Q1012,DRRT,2018-03-24T07:00:00Z,14.9,5.25,22.0,-5.0,40,10,,4.97,29.88189,,,,,,,,,,,CLR,,,,,,,,MVFR,,,,,,,,,,,,METAR,391.0
DRZR 240700Z 02016KT 3000 DU NSC 23/M08 Q1013,DRZR,2018-03-24T07:00:00Z,13.77,8.97,23.0,-8.0,20,16,,1.86,29.911417,,,,,,,,,,DU,CLR,,,,,,,,IFR,,,,,,,,,,,,METAR,453.0
DRZA 240700Z 35003KT 020V310 3500 DU NSC 20/M06 Q1014,DRZA,2018-03-24T07:00:00Z,16.97,8.0,20.0,-6.0,350,3,,2.17,29.940945,,,,,,,,,,DU,CLR,,,,,,,,IFR,,,,,,,,,,,,METAR,502.0
DGAA 240700Z 09004KT 6000 -RA FEW010 24/23 Q1010 TEMPO TSRA,DGAA,2018-03-24T07:00:00Z,5.58,-0.17,24.0,23.0,90,4,,3.73,29.822834,,,,,,,,,,-RA,FEW,1000,,,,,,,MVFR,,,,,,,,,,,,SPECI,69.0
DXNG 240700Z 30003KT CAVOK 23/21 Q1014 NOSIG,DXNG,2018-03-24T07:00:00Z,9.77,1.1,23.0,21.0,300,3,,6.21,29.940945,,,,,,TRUE,,,,,CAVOK,,,,,,,,VFR,,,,,,,,,,,,METAR,343.0
DXXX 240700Z 26003KT 9999 FEW009 24/23 Q1010 NOSIG,DXXX,2018-03-24T07:00:00Z,6.17,1.25,24.0,23.0,260,3,,6.21,29.822834,,,,,,TRUE,,,,,FEW,900,,,,,,,VFR,,,,,,,,,,,,METAR,25.0
VVCT 240700Z 08007KT 010V130 9999 SCT017 33/21 Q1009 NOSIG,VVCT,2018-03-24T07:00:00Z,10.08,105.72,33.0,21.0,80,7,,6.21,29.793306,,,,,,TRUE,,,,,SCT,1700,,,,,,,VFR,,,,,,,,,,,,METAR,3.0
GABS 240700Z 05013KT 1000 DU NSC 23/M14 Q1014 NOSIG,GABS,2018-03-24T07:00:00Z,12.52,-7.95,23.0,-14.0,50,13,,0.62,29.940945,,,,,,TRUE,,,,DU,CLR,,,,,,,,LIFR,,,,,,,,,,,,METAR,381.0
ORMM 240700Z 13007KT 3000 DU NSC 30/05 Q1014 NOSIG,ORMM,2018-03-24T07:00:00Z,30.57,47.67,30.0,5.0,130,7,,1.86,29.940945,,,,,,TRUE,,,,DU,CLR,,,,,,,,IFR,,,,,,,,,,,,METAR,2.0
GOOY 240700Z 02011KT 4000 DU NSC 20/14 Q1012,GOOY,2018-03-24T07:00:00Z,14.72,-17.5,20.0,14.0,20,11,,2.49,29.88189,,,,,,,,,,DU,CLR,,,,,,,,IFR,,,,,,,,,,,,METAR,24.0
CYDQ 240700Z AUTO 01007KT 9SM -SN OVC032 M10/M12 A2973 RMK SLP116,CYDQ,2018-03-24T07:00:00Z,55.75,-120.17,-10.0,-12.0,10,7,,9.0,29.731298,1011.6,,TRUE,,,,,,,-SN,OVC,3200,,,,,,,VFR,,,,,,,,,,,,METAR,655.0
CYDB 240700Z AUTO 29005KT 9SM CLR M12/M17 A2980 RMK SLP157,CYDB,2018-03-24T07:00:00Z,61.37,-139.05,-12.0,-17.0,290,5,,9.0,29.799213,1015.7,,TRUE,,,,,,,,CLR,,,,,,,,VFR,,,,,,,,,,,,METAR,801.0
CYYG 240700Z 35010G16KT 320V020 4SM -SN BR OVC007 M01/M02 A2985 RMK SF8 VIS VRB 2-6 SLP113,CYYG,2018-03-24T07:00:00Z,46.27,-63.12,-1.0,-2.0,350,10,16,4.0,29.84941,1011.3,,,,,,,,,-SN BR,OVC,700,,,,,,,IFR,,,,,,,,,,,,METAR,54.0
CYSJ 240700Z 00000KT 15SM OVC078 M02/M03 A2993 RMK AC8 SLP142,CYSJ,2018-03-24T07:00:00Z,45.32,-65.87,-2.0,-3.0,0,0,,15.0,29.929134,1014.2,,,,,,,,,,OVC,7800,,,,,,,VFR,,,,,,,,,,,,METAR,109.0
CYGW 240700Z AUTO 14004KT 9SM CLR M28/M31 A3074 RMK SLP413,CYGW,2018-03-24T07:00:00Z,55.27,-77.77,-28.0,-31.0,140,4,,9.0,30.741142,1041.3,,TRUE,,,,,,,,CLR,,,,,,,,VFR,,,,,,,,,,,,METAR,12.0
CYDF 240700Z 04009KT 8SM -SN OVC019 M01/M03 A2984 RMK SC8 SLP107,CYDF,2018-03-24T07:00:00Z,49.22,-57.4,-1.0,-3.0,40,9,,8.0,29.840551,1010.7,,,,,,,,,-SN,OVC,1900,,,,,,,MVFR,,,,,,,,,,,,METAR,22.0
CYCX 240700Z 07003KT 15SM OVC076 M01/M03 A2995 RMK AC8 DA-1676FT SLP142,CYCX,2018-03-24T07:00:00Z,45.82,-66.42,-1.0,-3.0,70,3,,15.0,29.949802,1014.2,,,,,,,,,,OVC,7600,,,,,,,VFR,,,,,,,,,,,,METAR,51.0
LEGA 240700Z 33016KT 9999 SCT040 05/00 Q1007,LEGA,2018-03-24T07:00:00Z,37.12,-3.62,5.0,0.0,330,16,,6.21,29.734253,,,,,,,,,,,SCT,4000,,,,,,,VFR,,,,,,,,,,,,METAR,686.0
GOTT 240700Z 02008KT 360V060 1000 DU NSC 27/M01 Q1006,GOTT,2018-03-24T07:00:00Z,13.73,-13.65,27.0,-1.0,20,8,,0.62,29.704725,,,,,,,,,,DU,CLR,,,,,,,,LIFR,,,,,,,,,,,,METAR,50.0
GOSS 240700Z 06006KT 6000 NSC 21/02 Q1012,GOSS,2018-03-24T07:00:00Z,16.05,-16.43,21.0,2.0,60,6,,3.73,29.88189,,,,,,,,,,,CLR,,,,,,,,MVFR,,,,,,,,,,,,METAR,4.0
VTSC 240700Z 10012KT 9999 FEW020 SCT080 29/24 Q1010 NOSIG,VTSC,2018-03-24T07:00:00Z,6.52,101.75,29.0,24.0,100,12,,6.21,29.822834,,,,,,TRUE,,,,,FEW,2000,SCT,8000,,,,,VFR,,,,,,,,,,,,METAR,6.0
VTSB 240700Z 07008KT 020V110 9000 FEW020 31/24 Q1010,VTSB,2018-03-24T07:00:00Z,9.12,99.13,31.0,24.0,70,8,,5.59,29.822834,,,,,,,,,,,FEW,2000,,,,,,,VFR,,,,,,,,,,,,METAR,11.0
VTSE 240700Z 11011KT 080V150 8000 SCT020 BKN100 31/26 Q1010 NOSIG,VTSE,2018-03-24T07:00:00Z,10.72,99.37,31.0,26.0,110,11,,4.97,29.822834,,,,,,TRUE,,,,,SCT,2000,BKN,10000,,,,,MVFR,,,,,,,,,,,,METAR,5.0
VTSF 240700Z 09009KT 050V140 8000 FEW016CB SCT018 32/24 Q1010 NOSIG,VTSF,2018-03-24T07:00:00Z,8.53,99.95,32.0,24.0,90,9,,4.97,29.822834,,,,,,TRUE,,,,,FEW,1600,SCT,1800,,,,,MVFR,,,,,,,,,,,,METAR,4.0
CYUA 240700Z AUTO 10004KT ////SM //// OVC003 M25/M28 A3040,CYUA,2018-03-24T07:00:00Z,68.95,-137.28,-25.0,-28.0,100,4,,,30.398623,,,TRUE,,,,,,,,OVC,300,,,,,,,,,,,,,,,,,,,METAR,38.0
CYRV 240700Z AUTO 00000KT 9SM FEW030 OVC070 01/00 A2979 RMK SLP106,CYRV,2018-03-24T07:00:00Z,50.97,-118.17,1.0,0.0,0,0,,9.0,29.790354,1010.6,,TRUE,,,,,,,,FEW,3000,OVC,7000,,,,,VFR,,,,,,,,,,,,METAR,443.0
CYQD 240700Z 16010KT 15SM -SN OVC018 M01/M07 A3009 RMK SC8 CIG PROJECTOR 1800 FT SLP209,CYQD,2018-03-24T07:00:00Z,53.97,-101.08,-1.0,-7.0,160,10,,15.0,30.088583,1020.9,,,,,,,,,-SN,OVC,1800,,,,,,,MVFR,,,,,,,,,,,,METAR,271.0
CYPR 240700Z AUTO 08007KT 9SM SCT060 BKN130 BKN160 01/01 A2977 RMK SLP082,CYPR,2018-03-24T07:00:00Z,54.28,-130.42,1.0,1.0,80,7,,9.0,29.769686,1008.2,,TRUE,,,,,,,,SCT,6000,BKN,13000,BKN,16000,,,VFR,,,,,,,,,,,,METAR,34.0
CYKY 240700Z 15006KT 15SM FEW170 FEW240 M05/M07 A2980 RMK AC2CI1 CI TR SLP127,CYKY,2018-03-24T07:00:00Z,51.52,-109.17,-5.0,-7.0,150,6,,15.0,29.799213,1012.7,,,,,,,,,,FEW,17000,FEW,24000,,,,,VFR,,,,,,,,,,,,METAR,694.0
CYIV 240700Z 14011KT 15SM SKC M09/M15 A3038 RMK SLP309,CYIV,2018-03-24T07:00:00Z,53.85,-94.65,-9.0,-15.0,140,11,,15.0,30.380905,1030.9,,,,,,,,,,SKC,,,,,,,,VFR,,,,,,,,,,,,METAR,237.0
CYEV 240700Z 08005KT 10SM -SN BKN005 M26/M29 A3040 RMK SF5 AURBO SLP305,CYEV,2018-03-24T07:00:00Z,68.32,-133.5,-26.0,-29.0,80,5,,10.0,30.398623,1030.5,,,,,,,,,-SN,BKN,500,,,,,,,IFR,,,,,,,,,,,,METAR,68.0
WBKW 240700Z 12008KT 070V170 9999 FEW017 SCT140 BKN300 31/26 Q1008,WBKW,2018-03-24T07:00:00Z,4.32,118.12,31.0,26.0,120,8,,6.21,29.763779,,,,,,,,,,,FEW,1700,SCT,14000,BKN,30000,,,VFR,,,,,,,,,,,,METAR,20.0
WBKT 240700Z 07009KT 350V120 9999 SCT013 SCT140 OVC260 30/25 Q1008,WBKT,2018-03-24T07:00:00Z,6.92,116.82,30.0,25.0,70,9,,6.21,29.763779,,,,,,,,,,,SCT,1300,SCT,14000,OVC,26000,,,VFR,,,,,,,,,,,,METAR,5.0
WBKS 240700Z 04008KT 010V070 9000 -RA FEW009 SCT030 BKN240 28/25 Q1008,WBKS,2018-03-24T07:00:00Z,5.9,118.07,28.0,25.0,40,8,,5.59,29.763779,,,,,,,,,,-RA,FEW,900,SCT,3000,BKN,24000,,,VFR,,,,,,,,,,,,METAR,13.0
WBKL 240700Z 03008KT 350V070 9999 -TSRA FEW010 FEW014CB SCT130 BKN280 27/25 Q1007,WBKL,2018-03-24T07:00:00Z,5.28,115.25,27.0,25.0,30,8,,6.21,29.734253,,,,,,,,,,-TSRA,FEW,1000,FEW,1400,SCT,13000,BKN,28000,VFR,,,,,,,,,,,,METAR,30.0
WBGY 240700Z VRB03KT 9999 SCT022 BKN150 31/24 Q1007,WBGY,2018-03-24T07:00:00Z,1.22,111.43,31.0,24.0,0,3,,6.21,29.734253,,,,,,,,,,,SCT,2200,BKN,15000,,,,,VFR,,,,,,,,,,,,METAR,34.0
WBGS 240700Z VRB05KT 6000 -TSRA FEW015CB SCT016 BKN150 25/23 Q1009,WBGS,2018-03-24T07:00:00Z,2.27,111.98,25.0,23.0,0,5,,3.73,29.793306,,,,,,,,,,-TSRA,FEW,1500,SCT,1600,BKN,15000,,,MVFR,,,,,,,,,,,,METAR,8.0
WBGR 240700Z VRB02KT 9999 FEW015CB SCT016 BKN150 26/25 Q1007,WBGR,2018-03-24T07:00:00Z,4.32,113.97,26.0,25.0,0,2,,6.21,29.734253,,,,,,,,,,,FEW,1500,SCT,1600,BKN,15000,,,VFR,,,,,,,,,,,,METAR,18.0
ROMY 240700Z 07008KT 030V100 9999 FEW046 21/09 Q1020,ROMY,2018-03-24T07:00:00Z,24.77,125.27,21.0,9.0,70,8,,6.21,30.11811,,,,,,,,,,,FEW,4600,,,,,,,VFR,,,,,,,,,,,,METAR,41.0
RJKA 240700Z 36012KT 9999 FEW045 20/08 Q1021,RJKA,2018-03-24T07:00:00Z,28.42,129.72,20.0,8.0,360,12,,6.21,30.147638,,,,,,,,,,,FEW,4500,,,,,,,VFR,,,,,,,,,,,,METAR,7.0
RJCN 240700Z 20009KT CAVOK 06/M03 Q1013,RJCN,2018-03-24T07:00:00Z,43.57,144.97,6.0,-3.0,200,9,,6.21,29.911417,,,,,,,,,,,CAVOK,,,,,,,,VFR,,,,,,,,,,,,METAR,70.0
UUBC 240700Z 36003MPS 320V030 9999 BKN019 M02/M05 Q1005 R31/190055 NOSIG RMK QFE737/0983,UUBC,2018-03-24T07:00:00Z,54.55,36.37,-2.0,-5.0,360,6,,6.21,29.675198,,,,,,TRUE,,,,,BKN,1900,,,,,,,MVFR,,,,,,,,,,,,METAR,199.0
CYXC 240700Z 16009KT 25SM FEW010 FEW050 BKN110 00/M03 A2977 RMK SF1SC1AC5 SLP110,CYXC,2018-03-24T07:00:00Z,49.6,-115.77,0.0,-3.0,160,9,,25.0,29.769686,1011.0,,,,,,,,,,FEW,1000,FEW,5000,BKN,11000,,,VFR,,,,,,,,,,,,METAR,939.0
CYZP 240700Z AUTO 27007KT 9SM SCT140 03/00 A2979 RMK SLP090,CYZP,2018-03-24T07:00:00Z,53.25,-131.82,3.0,0.0,270,7,,9.0,29.790354,1009.0,,TRUE,,,,,,,,SCT,14000,,,,,,,VFR,,,,,,,,,,,,METAR,6.0
CWEU 240700Z 08002KT 15SM FEW050 M42/M46 A3036 RMK SC2 SLP285,CWEU,2018-03-24T07:00:00Z,80.0,-85.92,-42.0,-46.0,80,2,,15.0,30.360237,1028.5,,,,,,,,,,FEW,5000,,,,,,,VFR,,,,,,,,,,,,METAR,10.0
CYZT 240700Z 16007KT 15SM SCT012 BKN070 02/01 A2978 RMK SC4AC3 SLP086,CYZT,2018-03-24T07:00:00Z,50.67,-127.37,2.0,1.0,160,7,,15.0,29.778543,1008.6,,,,,,,,,,SCT,1200,BKN,7000,,,,,VFR,,,,,,,,,,,,METAR,22.0
CWFD 240700Z AUTO VRB02KT ////SM //// BKN022 BKN034 ///// A////,CWFD,2018-03-24T07:00:00Z,66.57,-61.58,,,0,2,,,,,,TRUE,,,,,,,,BKN,2200,BKN,3400,,,,,,,,,,,,,,,,,METAR,393.0
CWKP 240700Z AUTO 27008KT M26/ A3015 RMK SLP262,CWKP,2018-03-24T07:00:00Z,69.67,-121.67,-26.0,,270,8,,,30.15059,1026.2,,TRUE,,,,,,,,,,,,,,,,,,,,,,,,,,,,METAR,330.0
OMRK 240700Z 10013KT CAVOK 34/01 Q1016 A3001,OMRK,2018-03-24T07:00:00Z,25.62,55.92,34.0,1.0,100,13,,6.21,30.0,,,,,,,,,,,CAVOK,,,,,,,,VFR,,,,,,,,,,,,METAR,31.0
CWRH 240700Z AUTO ///// M21/ A3018 RMK SLP277,CWRH,2018-03-24T07:00:00Z,61.57,-64.65,-21.0,,,,,,30.180119,1027.7,,TRUE,,,,,,,,,,,,,,,,,,,,,,,,,,,,METAR,369.0
CWTU 240700Z AUTO ///// A2997,CWTU,2018-03-24T07:00:00Z,54.72,-58.35,,,,,,,29.970472,,,TRUE,,,,,,,,,,,,,,,,,,,,,,,,,,,,METAR,683.0
CYQX 240700Z 35014G20KT 2SM -SN DRSN BKN004 OVC015 M01/M01 A2969 RMK SN2SF5SC1 CIG VRB 3-5 SLP063,CYQX,2018-03-24T07:00:00Z,48.95,-54.58,-1.0,-1.0,350,14,20,2.0,29.68996,1006.3,,,,,,,,,-SN DRSN,BKN,400,OVC,1500,,,,,LIFR,,,,,,,,,,,,METAR,151.0
CYQQ 240700Z 00000KT 20SM FEW015 SCT030 BKN230 03/02 A2979 RMK SC2SC2CI3 SLP090,CYQQ,2018-03-24T07:00:00Z,49.72,-124.9,3.0,2.0,0,0,,20.0,29.790354,1009.0,,,,,,,,,,FEW,1500,SCT,3000,BKN,23000,,,VFR,,,,,,,,,,,,METAR,24.0
CYQM 240700Z 36010KT 15SM -SN BKN006 OVC014 M01/M02 A2991 RMK SF6SC2 SLP135,CYQM,2018-03-24T07:00:00Z,46.12,-64.67,-1.0,-2.0,360,10,,15.0,29.911417,1013.5,,,,,,,,,-SN,BKN,600,OVC,1400,,,,,IFR,,,,,,,,,,,,METAR,71.0
CYQG 240700Z 35004KT 15SM SKC M04/M07 A3030 RMK SLP271,CYQG,2018-03-24T07:00:00Z,42.27,-82.97,-4.0,-7.0,350,4,,15.0,30.301182,1027.1,,,,,,,,,,SKC,,,,,,,,VFR,,,,,,,,,,,,METAR,190.0
CYQB 240700Z 36004KT 300V050 15SM BKN073 M01/M08 A3003 RMK AC7 SLP175,CYQB,2018-03-24T07:00:00Z,46.78,-71.37,-1.0,-8.0,360,4,,15.0,30.029528,1017.5,,,,,,,,,,BKN,7300,,,,,,,VFR,,,,,,,,,,,,METAR,73.0
CYOW 240700Z 32012KT 15SM BKN210 M03/M10 A3019 RMK CI6 SLP231,CYOW,2018-03-24T07:00:00Z,45.32,-75.67,-3.0,-10.0,320,12,,15.0,30.188976,1023.1,,,,,,,,,,BKN,21000,,,,,,,VFR,,,,,,,,,,,,METAR,114.0
CYMX 240700Z 34008KT 25SM BKN180 OVC210 M01/M10 A3012 RMK AC7CI1 SLP206,CYMX,2018-03-24T07:00:00Z,45.67,-74.02,-1.0,-10.0,340,8,,25.0,30.121063,1020.6,,,,,,,,,,BKN,18000,OVC,21000,,,,,VFR,,,,,,,,,,,,METAR,82.0
CYJT 240700Z 03008G17KT 12SM -SN OVC019 00/M03 A2981 RMK SC8 SLP096,CYJT,2018-03-24T07:00:00Z,48.55,-58.57,0.0,-3.0,30,8,17,12.0,29.811024,1009.6,,,,,,,,,-SN,OVC,1900,,,,,,,MVFR,,,,,,,,,,,,METAR,26.0
CYHZ 240700Z 32012KT 10SM -SHSN OVC009 M01/M01 A2984 RMK ST8 CVCTV CLD EMBD SLP112,CYHZ,2018-03-24T07:00:00Z,44.87,-63.5,-1.0,-1.0,320,12,,10.0,29.840551,1011.2,,,,,,,,,-SHSN,OVC,900,,,,,,,IFR,,,,,,,,,,,,METAR,145.0
CYGL 240700Z VRB02KT 15SM SKC M22/M26 A3060 RMK SLP388,CYGL,2018-03-24T07:00:00Z,53.62,-77.7,-22.0,-26.0,0,2,,15.0,30.59941,1038.8,,,,,,,,,,SKC,,,,,,,,VFR,,,,,,,,,,,,METAR,195.0
CYFC 240700Z AUTO 06002KT 9SM OVC080 M01/M03 A2995 RMK SLP143,CYFC,2018-03-24T07:00:00Z,45.87,-66.52,-1.0,-3.0,60,2,,9.0,29.949802,1014.3,,TRUE,,,,,,,,OVC,8000,,,,,,,VFR,,,,,,,,,,,,METAR,20.0
CYZF 240700Z 01018G26KT 1 1/2SM -SN DRSN OVC016 M15/M18 A2969 RMK SN4SC4 SLP079,CYZF,2018-03-24T07:00:00Z,62.47,-114.45,-15.0,-18.0,10,18,26,1.5,29.68996,1007.9,,,,,,,,,-SN DRSN,OVC,1600,,,,,,,IFR,,,,,,,,,,,,METAR,206.0
CWXR 240700Z AUTO 30010KT M26/ A3027 RMK SLP265,CWXR,2018-03-24T07:00:00Z,69.27,-119.22,-26.0,,300,10,,,30.268702,1026.5,,TRUE,,,,,,,,,,,,,,,,,,,,,,,,,,,,METAR,69.0
CWYM 240700Z AUTO ///// M28/ A2990 RMK SLP219,CWYM,2018-03-24T07:00:00Z,64.95,-63.57,-28.0,,,,,,29.899607,1021.9,,TRUE,,,,,,,,,,,,,,,,,,,,,,,,,,,,METAR,583.0
CZPC 240700Z AUTO 22007KT 210V350 9SM FEW130 BKN170 BKN190 00/M06 A2973 RMK SLP102,CZPC,2018-03-24T07:00:00Z,49.52,-114.0,0.0,-6.0,220,7,,9.0,29.731298,1010.2,,TRUE,,,,,,,,FEW,13000,BKN,17000,BKN,19000,,,VFR,,,,,,,,,,,,METAR,1190.0
CZUM 240700Z AUTO 07011KT 4SM -SN OVC025 M09/M12 A3010 RMK SLP226,CZUM,2018-03-24T07:00:00Z,53.53,-64.08,-9.0,-12.0,70,11,,4.0,30.100393,1022.6,,TRUE,,,,,,,-SN,OVC,2500,,,,,,,MVFR,,,,,,,,,,,,METAR,440.0
CYBK 240700Z 35007KT 3SM -SN OVC025 M16/M19 A3004 RMK SC8 SLP175,CYBK,2018-03-24T07:00:00Z,64.28,-96.07,-16.0,-19.0,350,7,,3.0,30.041338,1017.5,,,,,,,,,-SN,OVC,2500,,,,,,,MVFR,,,,,,,,,,,,METAR,18.0
CYBQ 240700Z AUTO 19011KT 9SM FEW130 M09/M15 A3006 RMK SLP208,CYBQ,2018-03-24T07:00:00Z,58.7,-98.5,-9.0,-15.0,190,11,,9.0,30.059055,1020.8,,TRUE,,,,,,,,FEW,13000,,,,,,,VFR,,,,,,,,,,,,METAR,262.0
CYET 240700Z AUTO 28005KT 9SM OVC150 M04/M06 A2959 RMK SLP058,CYET,2018-03-24T07:00:00Z,53.57,-116.47,-4.0,-6.0,280,5,,9.0,29.589567,1005.8,,TRUE,,,,,,,,OVC,15000,,,,,,,VFR,,,,,,,,,,,,METAR,925.0
CYGX 240700Z 18011G16KT 15SM SKC M10/M20 A3033 RMK SLP289,CYGX,2018-03-24T07:00:00Z,56.35,-94.7,-10.0,-20.0,180,11,16,15.0,30.33071,1028.9,,,,,,,,,,SKC,,,,,,,,VFR,,,,,,,,,,,,METAR,145.0
CYMM 240700Z AUTO 25006KT 9SM BKN200 BKN220 M05/M06 A2971 RMK SLP085,CYMM,2018-03-24T07:00:00Z,56.65,-111.22,-5.0,-6.0,250,6,,9.0,29.71063,1008.5,,TRUE,,,,,,,,BKN,20000,BKN,22000,,,,,VFR,,,,,,,,,,,,METAR,369.0
CYNE 240700Z AUTO 14009G15KT 9SM M04/M11 A3023 RMK CLD MISG SLP255,CYNE,2018-03-24T07:00:00Z,53.97,-97.82,-4.0,-11.0,140,9,15,9.0,30.230314,1025.5,,TRUE,,,,,,,,,,,,,,,,,,,,,,,,,,,,METAR,223.0
CYPA 240700Z 18016KT 8SM -SN OVC010 M01/M03 A2991 RMK SC8 BR SLP157,CYPA,2018-03-24T07:00:00Z,53.22,-105.67,-1.0,-3.0,180,16,,8.0,29.911417,1015.7,,,,,,,,,-SN,OVC,1000,,,,,,,MVFR,,,,,,,,,,,,METAR,428.0
CYQF 240700Z 21013KT 15SM FEW120 M00/M07 A2962 RMK AC2 SLP068,CYQF,2018-03-24T07:00:00Z,52.17,-113.9,0.0,-7.0,210,13,,15.0,29.619095,1006.8,,,,,,,,,,FEW,12000,,,,,,,VFR,,,,,,,,,,,,METAR,905.0
CYQL 240700Z AUTO 20011G21KT 9SM CLR 01/M04 A2976 RMK SLP108,CYQL,2018-03-24T07:00:00Z,49.63,-112.8,1.0,-4.0,200,11,21,9.0,29.760826,1010.8,,TRUE,,,,,,,,CLR,,,,,,,,VFR,,,,,,,,,,,,METAR,929.0
CYQR 240700Z 15016KT 5SM DRSN OVC004 M02/M02 A2992 RMK SC8 OCNL BLSN CIG VRB 3-5 SLP165,CYQR,2018-03-24T07:00:00Z,50.43,-104.67,-2.0,-2.0,150,16,,5.0,29.920275,1016.5,,,,,,,,,DRSN,OVC,400,,,,,,,LIFR,,,,,,,,,,,,METAR,577.0
CYYQ 240700Z 19016G22KT 15SM BKN240 M14/M21 A3029 RMK CC6 SLP261,CYYQ,2018-03-24T07:00:00Z,58.75,-94.07,-14.0,-21.0,190,16,22,15.0,30.28937,1026.1,,,,,,,,,,BKN,24000,,,,,,,VFR,,,,,,,,,,,,METAR,29.0
CYYJ 240700Z 28007KT 15SM -SHRA FEW007 BKN018 OVC042 04/03 A2978 RMK SF2SC3SC3 CVCTV CLD EMBD SLP085,CYYJ,2018-03-24T07:00:00Z,48.63,-123.42,4.0,3.0,280,7,,15.0,29.778543,1008.5,,,,,,,,,-SHRA,FEW,700,BKN,1800,OVC,4200,,,MVFR,,,,,,,,,,,,METAR,19.0
CYYC 240700Z 22008KT 15SM BKN200 00/M09 A2966 RMK CI5 SLP079,CYYC,2018-03-24T07:00:00Z,51.12,-114.02,0.0,-9.0,220,8,,15.0,29.660433,1007.9,,,,,,,,,,BKN,20000,,,,,,,VFR,,,,,,,,,,,,METAR,1084.0
CYVR 240700Z 08007KT 20SM FEW028 BKN041 OVC140 06/01 A2978 RMK SC2SC4AS2 SLP086,CYVR,2018-03-24T07:00:00Z,49.17,-123.17,6.0,1.0,80,7,,20.0,29.778543,1008.6,,,,,,,,,,FEW,2800,BKN,4100,OVC,14000,,,VFR,,,,,,,,,,,,METAR,2.0
CYUL 240700Z 33006KT 15SM FEW180 BKN230 M00/M10 A3012 RMK AC1CI5 SLP203,CYUL,2018-03-24T07:00:00Z,45.47,-73.73,0.0,-10.0,330,6,,15.0,30.121063,1020.3,,,,,,,,,,FEW,18000,BKN,23000,,,,,VFR,,,,,,,,,,,,METAR,36.0
CYTR 240700Z 36008KT 15SM SKC M02/M10 A3023 RMK SLP241,CYTR,2018-03-24T07:00:00Z,44.12,-77.52,-2.0,-10.0,360,8,,15.0,30.230314,1024.1,,,,,,,,,,SKC,,,,,,,,VFR,,,,,,,,,,,,METAR,86.0
CYYZ 240700Z 36013KT 15SM SKC M03/M10 A3025 RMK SLP253,CYYZ,2018-03-24T07:00:00Z,43.67,-79.62,-3.0,-10.0,360,13,,15.0,30.250984,1025.3,,,,,,,,,,SKC,,,,,,,,VFR,,,,,,,,,,,,METAR,173.0
CYZX 240700Z 28002KT 8SM -SHSN OVC020 M00/M01 A2993 RMK SC8 SLP138,CYZX,2018-03-24T07:00:00Z,44.98,-64.92,0.0,-1.0,280,2,,8.0,29.929134,1013.8,,,,,,,,,-SHSN,OVC,2000,,,,,,,MVFR,,,,,,,,,,,,METAR,28.0
CYZV 240700Z 05003KT 040V110 15SM BKN032 OVC060 M01/M03 A3001 RMK SC7SC1 SLP168,CYZV,2018-03-24T07:00:00Z,50.22,-66.27,-1.0,-3.0,50,3,,15.0,30.008858,1016.8,,,,,,,,,,BKN,3200,OVC,6000,,,,,VFR,,,,,,,,,,,,METAR,55.0
CYVC 240700Z 13010G16KT 10SM -SN DRSN OVC012 M03/M04 A2989 RMK SC8 SLP147,CYVC,2018-03-24T07:00:00Z,55.15,-105.27,-3.0,-4.0,130,10,16,10.0,29.890747,1014.7,,,,,,,,,-SN DRSN,OVC,1200,,,,,,,MVFR,,,,,,,,,,,,METAR,379.0
CYYN 240700Z AUTO 21008KT 9SM CLR M06/M09 A2985 RMK SLP146,CYYN,2018-03-24T07:00:00Z,50.27,-107.67,-6.0,-9.0,210,8,,9.0,29.84941,1014.6,,TRUE,,,,,,,,CLR,,,,,,,,VFR,,,,,,,,,,,,METAR,818.0
CZVL 240700Z AUTO 13007KT 9SM FEW080 SCT092 BKN120 BKN140 01/M03 A2959 RMK SLP047,CZVL,2018-03-24T07:00:00Z,53.67,-113.85,1.0,-3.0,130,7,,9.0,29.589567,1004.7,,TRUE,,,,,,,,FEW,8000,SCT,9200,BKN,12000,BKN,14000,VFR,,,,,,,,,,,,METAR,686.0
CYAH 240700Z AUTO 03007KT 9SM CLR M21/M25 A3045 RMK SLP345,CYAH,2018-03-24T07:00:00Z,53.75,-73.67,-21.0,-25.0,30,7,,9.0,30.448818,1034.5,,TRUE,,,,,,,,CLR,,,,,,,,VFR,,,,,,,,,,,,METAR,306.0
CYBX 240700Z 03018KT 8SM DRSN OVC079 M03/M05 A2992 RMK AC8 SLP136,CYBX,2018-03-24T07:00:00Z,51.45,-57.17,-3.0,-5.0,30,18,,8.0,29.920275,1013.6,,,,,,,,,DRSN,OVC,7900,,,,,,,VFR,,,,,,,,,,,,METAR,35.0
CYGV 240700Z AUTO 04012G17KT 9SM BKN065 OVC100 M01/M06 A3002 RMK SLP171,CYGV,2018-03-24T07:00:00Z,50.27,-63.62,-1.0,-6.0,40,12,17,9.0,30.02067,1017.1,,TRUE,,,,,,,,BKN,6500,OVC,10000,,,,,VFR,,,,,,,,,,,,METAR,33.0
CYMH 240700Z AUTO 36013G19KT 9SM OVC060 M03/M05 A2995 RMK SLP144,CYMH,2018-03-24T07:00:00Z,52.28,-55.85,-3.0,-5.0,360,13,19,9.0,29.949802,1014.4,,TRUE,,,,,,,,OVC,6000,,,,,,,VFR,,,,,,,,,,,,METAR,11.0
CYNM 240700Z AUTO 32012KT 9SM CLR M18/M20 A3043 RMK ICG SLP334,CYNM,2018-03-24T07:00:00Z,49.77,-77.82,-18.0,-20.0,320,12,,9.0,30.431103,1033.4,,TRUE,,,,,,,,CLR,,,,,,,,VFR,,,,,,,,,,,,METAR,281.0
CYOY 240700Z AUTO 01008KT 9SM OVC058 OVC094 M02/M10 A3002 RMK SLP175,CYOY,2018-03-24T07:00:00Z,46.88,-71.5,-2.0,-10.0,10,8,,9.0,30.02067,1017.5,,TRUE,,,,,,,,OVC,5800,OVC,9400,,,,,VFR,,,,,,,,,,,,METAR,168.0
CYPH 240700Z AUTO 25004KT 9SM CLR M22/M25 A3068 RMK SLP396,CYPH,2018-03-24T07:00:00Z,58.45,-78.08,-22.0,-25.0,250,4,,9.0,30.679134,1039.6,,TRUE,,,,,,,,CLR,,,,,,,,VFR,,,,,,,,,,,,METAR,3.0
CYPX 240700Z AUTO 19009KT 9SM CLR M26/M29 A3059 RMK SLP366,CYPX,2018-03-24T07:00:00Z,60.03,-77.27,-26.0,-29.0,190,9,,9.0,30.590551,1036.6,,TRUE,,,,,,,,CLR,,,,,,,,VFR,,,,,,,,,,,,METAR,23.0
CYUY 240700Z 36006KT 15SM -SN SCT015 M15/M18 A3044 RMK SC3 SLP333,CYUY,2018-03-24T07:00:00Z,48.2,-78.82,-15.0,-18.0,360,6,,15.0,30.43996,1033.3,,,,,,,,,-SN,SCT,1500,,,,,,,VFR,,,,,,,,,,,,METAR,301.0
CYWK 240700Z AUTO 02015G20KT 3/4SM -SN VV015 M13/M15 A3004 RMK SLP214,CYWK,2018-03-24T07:00:00Z,52.92,-66.87,-13.0,-15.0,20,15,20,0.75,30.041338,1021.4,,TRUE,,,,,,,-SN,OVX,0,,,,,,,LIFR,,,,,,,,,,,1500,METAR,551.0
CYBW 240700Z AUTO 24012KT 9SM BKN190 M03/M09 A2966 RMK SLP086,CYBW,2018-03-24T07:00:00Z,51.1,-114.37,-3.0,-9.0,240,12,,9.0,29.660433,1008.6,,TRUE,,,,,,,,BKN,19000,,,,,,,VFR,,,,,,,,,,,,METAR,1200.0
CWVD 240700Z AUTO 00000KT M30/ A2988 RMK SLP216,CWVD,2018-03-24T07:00:00Z,67.52,-63.77,-30.0,,0,0,,,29.878937,1021.6,,TRUE,,,,,,,,,,,,,,,,,,,,,,,,,,,,METAR,573.0
CYCY 240700Z AUTO 27006KT 9SM CLR M35/M39 A3015 RMK SLP217,CYCY,2018-03-24T07:00:00Z,70.47,-68.52,-35.0,-39.0,270,6,,9.0,30.15059,1021.7,,TRUE,,,,,,,,CLR,,,,,,,,VFR,,,,,,,,,,,,METAR,26.0
CYED 240700Z AUTO 14002KT 9SM FEW087 M01/M06 A2960 RMK SLP050,CYED,2018-03-24T07:00:00Z,53.67,-113.47,-1.0,-6.0,140,2,,9.0,29.601377,1005.0,,TRUE,,,,,,,,FEW,8700,,,,,,,VFR,,,,,,,,,,,,METAR,688.0
CYEK 240700Z AUTO 20020G26KT 9SM CLR M14/M18 A3017 RMK SLP219,CYEK,2018-03-24T07:00:00Z,61.1,-94.07,-14.0,-18.0,200,20,26,9.0,30.171259,1021.9,,TRUE,,,,,,,,CLR,,,,,,,,VFR,,,,,,,,,,,,METAR,10.0
CYIO 240700Z AUTO 16006KT 9SM CLR M35/M38 A3015 RMK SLP223,CYIO,2018-03-24T07:00:00Z,72.67,-77.97,-35.0,-38.0,160,6,,9.0,30.15059,1022.3,,TRUE,,,,,,,,CLR,,,,,,,,VFR,,,,,,,,,,,,METAR,57.0
CYPE 240700Z 29008KT 15SM OVC040 M11/M15 A2972 RMK SC8 SLP104,CYPE,2018-03-24T07:00:00Z,56.22,-117.45,-11.0,-15.0,290,8,,15.0,29.719488,1010.4,,,,,,,,,,OVC,4000,,,,,,,VFR,,,,,,,,,,,,METAR,571.0
CYSM 240700Z 16006KT 2SM -FZRA -SN VV020 M03/M04 A2954 RMK SN8 ICE ON INDICATOR SLP018,CYSM,2018-03-24T07:00:00Z,60.03,-111.97,-3.0,-4.0,160,6,,2.0,29.53937,1001.8,,,,,,,,,-FZRA -SN,OVX,0,,,,,,,LIFR,,,,,,,,,,,2000,METAR,203.0
CYTH 240700Z 16004KT 120V200 15SM SCT200 M07/M14 A3021 RMK CI4 SLP252,CYTH,2018-03-24T07:00:00Z,55.78,-97.87,-7.0,-14.0,160,4,,15.0,30.209646,1025.2,,,,,,,,,,SCT,20000,,,,,,,VFR,,,,,,,,,,,,METAR,218.0
CYUS 240700Z AUTO 07016KT ////SM //// OVC017 M34/M39 A3005,CYUS,2018-03-24T07:00:00Z,68.82,-93.42,-34.0,-39.0,70,16,,,30.050198,,,TRUE,,,,,,,,OVC,1700,,,,,,,,,,,,,,,,,,,METAR,42.0
CYXH 240700Z AUTO 20005KT 9SM BKN210 01/M04 A2981 RMK SLP116,CYXH,2018-03-24T07:00:00Z,50.02,-110.72,1.0,-4.0,200,5,,9.0,29.811024,1011.6,,TRUE,,,,,,,,BKN,21000,,,,,,,VFR,,,,,,,,,,,,METAR,716.0
CWCA 240700Z 36016G22KT 10SM -SN DRSN OVC018 M04/M05 A3007 RMK SC8 SLP184,CWCA,2018-03-24T07:00:00Z,53.7,-57.02,-4.0,-5.0,360,16,22,10.0,30.070866,1018.4,,,,,,,,,-SN DRSN,OVC,1800,,,,,,,MVFR,,,,,,,,,,,,METAR,14.0
CWIL 240700Z AUTO 35011KT ////SM NCD ///// A////,CWIL,2018-03-24T07:00:00Z,68.32,-100.07,,,350,11,,,,,,TRUE,,,,,,,,CLR,,,,,,,,,,,,,,,,,,,,METAR,36.0
CWKM 240700Z AUTO 09023KT M25/ A3035 RMK SLP285,CWKM,2018-03-24T07:00:00Z,69.6,-140.17,-25.0,,90,23,,,30.351377,1028.5,,TRUE,,,,,,,,,,,,,,,,,,,,,,,,,,,,METAR,13.0
CWKW 240700Z AUTO ///// A3014,CWKW,2018-03-24T07:00:00Z,59.97,-64.17,,,,,,,30.138779,,,TRUE,,,,,,,,,,,,,,,,,,,,,,,,,,,,METAR,551.0
CWLI 240700Z AUTO 32007KT ////SM //// OVC011 M26/M28 A3034,CWLI,2018-03-24T07:00:00Z,69.58,-130.9,-26.0,-28.0,320,7,,,30.339567,,,TRUE,,,,,,,,OVC,1100,,,,,,,,,,,,,,,,,,,METAR,102.0
CWLY 240700Z AUTO 00000KT 9SM CLR 01/M02 A2979 RMK SLP095,CWLY,2018-03-24T07:00:00Z,50.22,-121.58,1.0,-2.0,0,0,,9.0,29.790354,1009.5,,TRUE,,,,,,,,CLR,,,,,,,,VFR,,,,,,,,,,,,METAR,229.0
CWOB 240700Z AUTO 26004KT ////SM //// BKN130 OVC150 M21/M26 A3007,CWOB,2018-03-24T07:00:00Z,63.32,-64.15,-21.0,-26.0,260,4,,,30.070866,,,TRUE,,,,,,,,BKN,13000,OVC,15000,,,,,,,,,,,,,,,,,METAR,367.0
CWPX 240700Z AUTO ///// ////SM //// NCD M33/M37 A3011,CWPX,2018-03-24T07:00:00Z,69.02,-107.82,-33.0,-37.0,,,,,30.109253,,,TRUE,,,,,,,,CLR,,,,,,,,,,,,,,,,,,,,METAR,165.0
CWRX 240700Z AUTO 14010KT ////SM //// ////// M26/M29 A3011,CWRX,2018-03-24T07:00:00Z,69.07,-79.02,-26.0,-29.0,140,10,,,30.109253,,,TRUE,,,,,,,,,,,,,,,,,,,,,,,,,,,,METAR,41.0
CWUP 240700Z AUTO ///// M30/ A2996 RMK SLP209,CWUP,2018-03-24T07:00:00Z,68.47,-66.82,-30.0,,,,,,29.958662,1020.9,,TRUE,,,,,,,,,,,,,,,,,,,,,,,,,,,,METAR,390.0
CWUW 240700Z AUTO 15008KT ////SM //// FEW044 SCT055 BKN065 M32/M36 A2991,CWUW,2018-03-24T07:00:00Z,68.65,-71.17,-32.0,-36.0,150,8,,,29.911417,,,TRUE,,,,,,,,FEW,4400,SCT,5500,BKN,6500,,,,,,,,,,,,,,,METAR,527.0
CWVH 240700Z AUTO 10005KT M24/ A3031 RMK SLP306,CWVH,2018-03-24T07:00:00Z,68.9,-133.93,-24.0,,100,5,,,30.31004,1030.6,,TRUE,,,,,,,,,,,,,,,,,,,,,,,,,,,,METAR,261.0
CWZZ 240700Z AUTO ///// ////SM //// FEW004 M21/M23 A3017,CWZZ,2018-03-24T07:00:00Z,58.32,-62.57,-21.0,-23.0,,,,,30.171259,,,TRUE,,,,,,,,FEW,400,,,,,,,,,,,,,,,,,,,METAR,483.0
CZBF 240700Z VRB02KT 2SM -SN VV012 M01/M01 A2997 RMK SN8 SLP154,CZBF,2018-03-24T07:00:00Z,47.62,-65.75,-1.0,-1.0,0,2,,2.0,29.970472,1015.4,,,,,,,,,-SN,OVX,0,,,,,,,LIFR,,,,,,,,,,,1200,METAR,59.0
CYAM 240700Z 05010KT 15SM FEW170 M07/M16 A3045 RMK AC1 SLP325,CYAM,2018-03-24T07:00:00Z,46.47,-84.52,-7.0,-16.0,50,10,,15.0,30.448818,1032.5,,,,,,,,,,FEW,17000,,,,,,,VFR,,,,,,,,,,,,METAR,192.0
CYGP 240700Z 26003KT 8SM -SN OVC030 M01/M02 A2998 RMK SC8 SLP157,CYGP,2018-03-24T07:00:00Z,48.77,-64.47,-1.0,-2.0,260,3,,8.0,29.97933,1015.7,,,,,,,,,-SN,OVC,3000,,,,,,,MVFR,,,,,,,,,,,,METAR,33.0
CYHD 240700Z AUTO 12008KT 9SM CLR M08/M16 A3041 RMK SLP328,CYHD,2018-03-24T07:00:00Z,49.82,-92.75,-8.0,-16.0,120,8,,9.0,30.410433,1032.8,,TRUE,,,,,,,,CLR,,,,,,,,VFR,,,,,,,,,,,,METAR,413.0
CYHU 240700Z AUTO 34011KT 9SM SCT170 BKN200 M01/M08 A3011 RMK SLP198,CYHU,2018-03-24T07:00:00Z,45.52,-73.42,-1.0,-8.0,340,11,,9.0,30.109253,1019.8,,TRUE,,,,,,,,SCT,17000,BKN,20000,,,,,VFR,,,,,,,,,,,,METAR,27.0
CYMO 240700Z AUTO 33006KT 9SM CLR M22/M23 A3068 RMK SLP392,CYMO,2018-03-24T07:00:00Z,51.28,-80.62,-22.0,-23.0,330,6,,9.0,30.679134,1039.2,,TRUE,,,,,,,,CLR,,,,,,,,VFR,,,,,,,,,,,,METAR,10.0
CYNA 240700Z AUTO 02011G16KT 9SM OVC130 M02/M06 A3000 RMK SLP162,CYNA,2018-03-24T07:00:00Z,50.17,-61.82,-2.0,-6.0,20,11,16,9.0,30.0,1016.2,,TRUE,,,,,,,,OVC,13000,,,,,,,VFR,,,,,,,,,,,,METAR,11.0
CYPQ 240700Z AUTO 35006KT 9SM CLR M04/M10 A3023 RMK SLP248,CYPQ,2018-03-24T07:00:00Z,44.22,-78.37,-4.0,-10.0,350,6,,9.0,30.230314,1024.8,,TRUE,,,,,,,,CLR,,,,,,,,VFR,,,,,,,,,,,,METAR,191.0
CYQT 240700Z 09011KT 15SM SKC M09/M15 A3052 RMK SLP351,CYQT,2018-03-24T07:00:00Z,48.37,-89.32,-9.0,-15.0,90,11,,15.0,30.519686,1035.1,,,,,,,,,,SKC,,,,,,,,VFR,,,,,,,,,,,,METAR,199.0
CYRJ 240700Z 31017G24KT 20SM BKN060 M06/M11 A3013 RMK SC7 SLP215,CYRJ,2018-03-24T07:00:00Z,48.52,-72.27,-6.0,-11.0,310,17,24,20.0,30.129921,1021.5,,,,,,,,,,BKN,6000,,,,,,,VFR,,,,,,,,,,,,METAR,179.0
CYTL 240700Z AUTO 16012KT 9SM CLR M17/M23 A3057 RMK SLP376,CYTL,2018-03-24T07:00:00Z,53.82,-89.88,-17.0,-23.0,160,12,,9.0,30.569881,1037.6,,TRUE,,,,,,,,CLR,,,,,,,,VFR,,,,,,,,,,,,METAR,224.0
CYTS 240700Z 33006KT 15SM SKC M18/M20 A3050 RMK SLP357,CYTS,2018-03-24T07:00:00Z,48.57,-81.37,-18.0,-20.0,330,6,,15.0,30.499016,1035.7,,,,,,,,,,SKC,,,,,,,,VFR,,,,,,,,,,,,METAR,295.0
CYTZ 240700Z AUTO 36009KT 310V020 9SM CLR M01/M10 A3026 RMK SLP253,CYTZ,2018-03-24T07:00:00Z,43.63,-79.4,-1.0,-10.0,360,9,,9.0,30.259842,1025.3,,TRUE,,,,,,,,CLR,,,,,,,,VFR,,,,,,,,,,,,METAR,77.0
CYVP 240700Z 24003KT 15SM SKC M26/M29 A3057 RMK SLP361,CYVP,2018-03-24T07:00:00Z,58.12,-68.42,-26.0,-29.0,240,3,,15.0,30.569881,1036.1,,,,,,,,,,SKC,,,,,,,,VFR,,,,,,,,,,,,METAR,60.0
CYVV 240700Z 04009G16KT 15SM SKC M04/M11 A3032 RMK SLP280,CYVV,2018-03-24T07:00:00Z,44.75,-81.08,-4.0,-11.0,40,9,16,15.0,30.318897,1028.0,,,,,,,,,,SKC,,,,,,,,VFR,,,,,,,,,,,,METAR,222.0
CYEG 240700Z 17008KT 15SM BKN100 BKN210 M00/M05 A2959 RMK AC5CI2 VIRGA SLP051,CYEG,2018-03-24T07:00:00Z,53.28,-113.57,0.0,-5.0,170,8,,15.0,29.589567,1005.1,,,,,,,,,,BKN,10000,BKN,21000,,,,,VFR,,,,,,,,,,,,METAR,723.0
CYBG 240700Z 27015KT 25SM OVC070 M04/M09 A3009 RMK AC8 SLP199,CYBG,2018-03-24T07:00:00Z,48.33,-70.98,-4.0,-9.0,270,15,,25.0,30.088583,1019.9,,,,,,,,,,OVC,7000,,,,,,,VFR,,,,,,,,,,,,METAR,159.0
CYZY 240700Z AUTO VRB02KT 9SM SCT033 BKN065 BKN086 OVC120 M07/M07 A2961 RMK SLP072,CYZY,2018-03-24T07:00:00Z,55.28,-123.12,-7.0,-7.0,0,2,,9.0,29.610237,1007.2,,TRUE,,,,,,,,SCT,3300,BKN,6500,BKN,8600,OVC,12000,VFR,,,,,,,,,,,,METAR,690.0
CYYF 240700Z 01004KT 330V050 15SM FEW055 BKN150 M01/M03 A2978 RMK SC2AC4 SLP100,CYYF,2018-03-24T07:00:00Z,49.47,-119.58,-1.0,-3.0,10,4,,15.0,29.778543,1010.0,,,,,,,,,,FEW,5500,BKN,15000,,,,,VFR,,,,,,,,,,,,METAR,344.0
CYYE 240700Z 31007KT 1 1/2SM -SN BKN022 OVC038 M13/M15 A2987 RMK SN2SC4SC2 SLP149,CYYE,2018-03-24T07:00:00Z,58.82,-122.57,-13.0,-15.0,310,7,,1.5,29.870079,1014.9,,,,,,,,,-SN,BKN,2200,OVC,3800,,,,,IFR,,,,,,,,,,,,METAR,382.0
CYFB 240700Z 00000KT 15SM IC OVC035 M24/M28 A3033 RMK SC8 SLP277,CYFB,2018-03-24T07:00:00Z,63.75,-68.55,-24.0,-28.0,0,0,,15.0,30.33071,1027.7,,,,,,,,,IC,OVC,3500,,,,,,,VFR,,,,,,,,,,,,METAR,34.0
CYBN 240700Z AUTO 00000KT 9SM CLR M04/M12 A3028 RMK SLP266,CYBN,2018-03-24T07:00:00Z,44.27,-79.92,-4.0,-12.0,0,0,,9.0,30.280512,1026.6,,TRUE,,,,,,,,CLR,,,,,,,,VFR,,,,,,,,,,,,METAR,223.0
CYBC 240700Z AUTO 34005KT 9SM CLR M02/M09 A2999 RMK SLP157,CYBC,2018-03-24T07:00:00Z,49.12,-68.2,-2.0,-9.0,340,5,,9.0,29.991142,1015.7,,TRUE,,,,,,,,CLR,,,,,,,,VFR,,,,,,,,,,,,METAR,22.0
CYAT 240700Z AUTO /////KT 9SM CLR M24/M27 A3077 RMK WND MISG SLP422,CYAT,2018-03-24T07:00:00Z,52.93,-82.43,-24.0,-27.0,,,,9.0,30.77067,1042.2,,TRUE,,,,,,,,CLR,,,,,,,,VFR,,,,,,,,,,,,METAR,9.0
CYZR 240700Z AUTO 29004KT 9SM CLR M03/M04 A3031 RMK SLP273,CYZR,2018-03-24T07:00:00Z,43.0,-82.3,-3.0,-4.0,290,4,,9.0,30.31004,1027.3,,TRUE,,,,,,,,CLR,,,,,,,,VFR,,,,,,,,,,,,METAR,181.0
CYZE 240700Z AUTO 03011G16KT 9SM CLR M08/M14 A3041 RMK SLP312,CYZE,2018-03-24T07:00:00Z,45.87,-82.57,-8.0,-14.0,30,11,16,9.0,30.410433,1031.2,,TRUE,,,,,,,,CLR,,,,,,,,VFR,,,,,,,,,,,,METAR,193.0
CYYY 240700Z 24004KT 30SM FEW070 M04/M07 A3000 RMK AC1 SLP164,CYYY,2018-03-24T07:00:00Z,48.6,-68.22,-4.0,-7.0,240,4,,30.0,30.0,1016.4,,,,,,,,,,FEW,7000,,,,,,,VFR,,,,,,,,,,,,METAR,52.0
CYWA 240700Z AUTO 34015KT 9SM CLR M06/M13 A3031 RMK SLP271,CYWA,2018-03-24T07:00:00Z,45.95,-77.32,-6.0,-13.0,340,15,,9.0,30.31004,1027.1,,TRUE,,,,,,,,CLR,,,,,,,,VFR,,,,,,,,,,,,METAR,130.0
CYER 240700Z AUTO 18009KT 9SM CLR M20/M25 A3065 RMK SLP382,CYER,2018-03-24T07:00:00Z,56.02,-87.68,-20.0,-25.0,180,9,,9.0,30.649607,1038.2,,TRUE,,,,,,,,CLR,,,,,,,,VFR,,,,,,,,,,,,METAR,16.0
CYGQ 240700Z 06007KT 15SM SKC M17/M21 A3057 RMK SLP383,CYGQ,2018-03-24T07:00:00Z,49.77,-86.92,-17.0,-21.0,60,7,,15.0,30.569881,1038.3,,,,,,,,,,SKC,,,,,,,,VFR,,,,,,,,,,,,METAR,351.0
CYHM 240700Z 33007KT 15SM SKC M05/M08 A3025 RMK SLP255,CYHM,2018-03-24T07:00:00Z,43.17,-79.93,-5.0,-8.0,330,7,,15.0,30.250984,1025.5,,,,,,,,,,SKC,,,,,,,,VFR,,,,,,,,,,,,METAR,238.0
CYKF 240700Z AUTO 32006KT 9SM CLR M05/M07 A3025 RMK SLP258,CYKF,2018-03-24T07:00:00Z,43.47,-80.38,-5.0,-7.0,320,6,,9.0,30.250984,1025.8,,TRUE,,,,,,,,CLR,,,,,,,,VFR,,,,,,,,,,,,METAR,317.0
CYKP 240700Z AUTO 11003KT 070V160 9SM CLR M19/M23 A3068 RMK SLP415,CYKP,2018-03-24T07:00:00Z,51.67,-85.9,-19.0,-23.0,110,3,,9.0,30.679134,1041.5,,TRUE,,,,,,,,CLR,,,,,,,,VFR,,,,,,,,,,,,METAR,179.0
CYKZ 240700Z 35012KT 15SM SKC M03/M11 A3025 RMK SLP252,CYKZ,2018-03-24T07:00:00Z,43.87,-79.37,-3.0,-11.0,350,12,,15.0,30.250984,1025.2,,,,,,,,,,SKC,,,,,,,,VFR,,,,,,,,,,,,METAR,198.0
CYLH 240700Z AUTO 07005KT 9SM CLR M21/M25 A3063 RMK SLP402,CYLH,2018-03-24T07:00:00Z,52.2,-87.93,-21.0,-25.0,70,5,,9.0,30.628937,1040.2,,TRUE,,,,,,,,CLR,,,,,,,,VFR,,,,,,,,,,,,METAR,254.0
CYOO 240700Z AUTO 35009KT 9SM CLR M03/M09 A3024 RMK SLP249,CYOO,2018-03-24T07:00:00Z,43.92,-78.9,-3.0,-9.0,350,9,,9.0,30.239174,1024.9,,TRUE,,,,,,,,CLR,,,,,,,,VFR,,,,,,,,,,,,METAR,139.0
CYQA 240700Z AUTO 36006KT 310V030 9SM CLR M06/M14 A3026 RMK SLP262,CYQA,2018-03-24T07:00:00Z,44.97,-79.28,-6.0,-14.0,360,6,,9.0,30.259842,1026.2,,TRUE,,,,,,,,CLR,,,,,,,,VFR,,,,,,,,,,,,METAR,282.0
CYQK 240700Z 13010G19KT 15SM SCT210 M05/M13 A3034 RMK CI4 SLP297,CYQK,2018-03-24T07:00:00Z,49.77,-94.37,-5.0,-13.0,130,10,19,15.0,30.339567,1029.7,,,,,,,,,,SCT,21000,,,,,,,VFR,,,,,,,,,,,,METAR,411.0
CYRB 240700Z 10002KT 15SM IC FEW060 M35/M39 A3016 RMK SC1 SC TR SLP229,CYRB,2018-03-24T07:00:00Z,74.72,-94.97,-35.0,-39.0,100,2,,15.0,30.159449,1022.9,,,,,,,,,IC,FEW,6000,,,,,,,VFR,,,,,,,,,,,,METAR,67.0
CYRQ 240700Z AUTO 35012G20KT 330V030 9SM BKN180 BKN200 M01/M09 A3008 RMK SLP189,CYRQ,2018-03-24T07:00:00Z,46.35,-72.68,-1.0,-9.0,350,12,20,9.0,30.079725,1018.9,,TRUE,,,,,,,,BKN,18000,BKN,20000,,,,,VFR,,,,,,,,,,,,METAR,61.0
CYSB 240700Z 01014G19KT 15SM SCT210 M11/M17 A3037 RMK CI4 SLP308,CYSB,2018-03-24T07:00:00Z,46.63,-80.8,-11.0,-17.0,10,14,19,15.0,30.369095,1030.8,,,,,,,,,,SCT,21000,,,,,,,VFR,,,,,,,,,,,,METAR,348.0
CYSC 240700Z AUTO VRB02KT 9SM FEW080 M04/M08 A3001 RMK SLP173,CYSC,2018-03-24T07:00:00Z,45.43,-71.68,-4.0,-8.0,0,2,,9.0,30.008858,1017.3,,TRUE,,,,,,,,FEW,8000,,,,,,,VFR,,,,,,,,,,,,METAR,241.0
CYVO 240700Z AUTO 35015KT 9SM -SN OVC015 M14/M16 A3036 RMK SLP312,CYVO,2018-03-24T07:00:00Z,48.07,-77.77,-14.0,-16.0,350,15,,9.0,30.360237,1031.2,,TRUE,,,,,,,-SN,OVC,1500,,,,,,,MVFR,,,,,,,,,,,,METAR,337.0
CYVQ 240700Z 29011KT 20SM -SN DRSN FEW024 BKN039 M20/M23 A3030 RMK SC1SC5 SLP271,CYVQ,2018-03-24T07:00:00Z,65.27,-126.78,-20.0,-23.0,290,11,,20.0,30.301182,1027.1,,,,,,,,,-SN DRSN,FEW,2400,BKN,3900,,,,,VFR,,,,,,,,,,,,METAR,74.0
CYXL 240700Z 13005KT 080V150 15SM FEW210 M08/M17 A3045 RMK CI2 SLP340,CYXL,2018-03-24T07:00:00Z,50.12,-91.9,-8.0,-17.0,130,5,,15.0,30.448818,1034.0,,,,,,,,,,FEW,21000,,,,,,,VFR,,,,,,,,,,,,METAR,390.0
CYXU 240700Z 34006KT 15SM SKC M05/M07 A3027 RMK FROIN SLP265,CYXU,2018-03-24T07:00:00Z,43.02,-81.15,-5.0,-7.0,340,6,,15.0,30.268702,1026.5,,,,,,,,,,SKC,,,,,,,,VFR,,,,,,,,,,,,METAR,278.0
CYYB 240700Z AUTO 36007KT 320V040 9SM CLR M11/M16 A3032 RMK SLP294,CYYB,2018-03-24T07:00:00Z,46.35,-79.42,-11.0,-16.0,360,7,,9.0,30.318897,1029.4,,TRUE,,,,,,,,CLR,,,,,,,,VFR,,,,,,,,,,,,METAR,371.0
CYYH 240700Z 01008KT 15SM IC FEW012 FEW030 FEW080 M36/M40 A3009 RMK SC1SC1AC1 AC TR FROIN SLP196,CYYH,2018-03-24T07:00:00Z,69.53,-93.57,-36.0,-40.0,10,8,,15.0,30.088583,1019.6,,,,,,,,,IC,FEW,1200,FEW,3000,FEW,8000,,,VFR,,,,,,,,,,,,METAR,28.0
CYYU 240700Z 02004KT 15SM SKC M20/M22 A3059 RMK SLP384,CYYU,2018-03-24T07:00:00Z,49.42,-82.47,-20.0,-22.0,20,4,,15.0,30.590551,1038.4,,,,,,,,,,SKC,,,,,,,,VFR,,,,,,,,,,,,METAR,227.0
CYYW 240700Z AUTO 13003KT 9SM CLR M16/M20 A3057 RMK SLP388,CYYW,2018-03-24T07:00:00Z,50.3,-88.9,-16.0,-20.0,130,3,,9.0,30.569881,1038.8,,TRUE,,,,,,,,CLR,,,,,,,,VFR,,,,,,,,,,,,METAR,351.0
CZMD 240700Z AUTO 15003KT 100V220 9SM CLR M13/M22 A3050 RMK SLP357,CZMD,2018-03-24T07:00:00Z,53.43,-91.77,-13.0,-22.0,150,3,,9.0,30.499016,1035.7,,TRUE,,,,,,,,CLR,,,,,,,,VFR,,,,,,,,,,,,METAR,278.0
MYNN 240700Z 35005KT 9999 FEW020 20/11 A3017,MYNN,2018-03-24T07:00:00Z,25.03,-77.47,20.0,11.0,350,5,,6.21,30.171259,,,,,,,,,,,FEW,2000,,,,,,,VFR,,,,,,,,,,,,METAR,3.0
YBUD 240700Z AUTO 13009KT 9999 // NCD 25/20 Q1014,YBUD,2018-03-24T07:00:00Z,-24.9,152.32,25.0,20.0,130,9,,6.21,29.940945,,,TRUE,,,,,,,,CLR,,,,,,,,VFR,,,,,,,,,,,,METAR,82.0
YCAR 240700Z AUTO 31018KT 9999 // NCD 30/23 Q1008,YCAR,2018-03-24T07:00:00Z,-24.88,113.67,30.0,23.0,310,18,,6.21,29.763779,,,TRUE,,,,,,,,CLR,,,,,,,,VFR,,,,,,,,,,,,METAR,8.0
YBWX 240700Z AUTO 23015KT //// // ////// 33/24 Q1007,YBWX,2018-03-24T07:00:00Z,-20.88,115.4,33.0,24.0,230,15,,,29.734253,,,TRUE,,,,,,,,,,,,,,,,,,,,,,,,,,,,METAR,6.0
YCAS 240700Z AUTO 14004KT //// // ////// 21/20 Q1017,YCAS,2018-03-24T07:00:00Z,-28.88,153.07,21.0,20.0,140,4,,,30.029528,,,TRUE,,,,,,,,,,,,,,,,,,,,,,,,,,,,METAR,26.0
YCBB 240700Z AUTO 15008KT //// // ////// 26/12 Q1016,YCBB,2018-03-24T07:00:00Z,-31.33,149.27,26.0,12.0,150,8,,,30.0,,,TRUE,,,,,,,,,,,,,,,,,,,,,,,,,,,,METAR,645.0
YCBA 240700Z AUTO 31007KT 9999 // NCD 33/09 Q1012,YCBA,2018-03-24T07:00:00Z,-31.53,145.8,33.0,9.0,310,7,,6.21,29.88189,,,TRUE,,,,,,,,CLR,,,,,,,,VFR,,,,,,,,,,,,METAR,221.0
YCBP 240700Z AUTO 05004KT 9999 // NCD 35/08 Q1010,YCBP,2018-03-24T07:00:00Z,-29.03,134.72,35.0,8.0,50,4,,6.21,29.822834,,,TRUE,,,,,,,,CLR,,,,,,,,VFR,,,,,,,,,,,,METAR,226.0
YWGT 240700Z AUTO 06005KT 030V090 9999 SHRA SCT026 SCT057 SCT074 20/18 Q1012,YWGT,2018-03-24T07:00:00Z,-36.42,146.3,20.0,18.0,60,5,,6.21,29.88189,,,TRUE,,,,,,,SHRA,SCT,2600,SCT,5700,SCT,7400,,,VFR,,,,,,,,,,,,METAR,153.0
YTRE 240700Z AUTO 05014KT 9999 // NCD 24/19 Q1015,YTRE,2018-03-24T07:00:00Z,-31.88,152.52,24.0,19.0,50,14,,6.21,29.970472,,,TRUE,,,,,,,,CLR,,,,,,,,VFR,,,,,,,,,,,,METAR,12.0
YTNK 240700Z AUTO 17010KT 130V190 9999 // NCD 33/11 Q1007,YTNK,2018-03-24T07:00:00Z,-19.63,134.18,33.0,11.0,170,10,,6.21,29.734253,,,TRUE,,,,,,,,CLR,,,,,,,,VFR,,,,,,,,,,,,METAR,377.0
YTEF 240700Z AUTO 09010KT 9999 // NCD 40/08 Q1007,YTEF,2018-03-24T07:00:00Z,-21.72,122.23,40.0,8.0,90,10,,6.21,29.734253,,,TRUE,,,,,,,,CLR,,,,,,,,VFR,,,,,,,,,,,,METAR,296.0
YSWG 240700Z AUTO 00000KT 9999 // NCD 29/12 Q1010,YSWG,2018-03-24T07:00:00Z,-35.13,147.47,29.0,12.0,0,0,,6.21,29.822834,,,TRUE,,,,,,,,CLR,,,,,,,,VFR,,,,,,,,,,,,METAR,213.0
YWHA 240700Z AUTO 31017G29KT 9999 // SCT120 36/08 Q1006,YWHA,2018-03-24T07:00:00Z,-33.07,137.52,36.0,8.0,310,17,29,6.21,29.704725,,,TRUE,,,,,,,,SCT,12000,,,,,,,VFR,,,,,,,,,,,,METAR,13.0
LBPG 240700Z 12006KT 4000 SN BKN005 OVC011 01/00 Q1003,LBPG,2018-03-24T07:00:00Z,42.28,24.72,1.0,0.0,120,6,,2.49,29.616142,,,,,,,,,,SN,BKN,500,OVC,1100,,,,,IFR,,,,,,,,,,,,METAR,58.0
LBIA 240700Z 09004KT 2900 -SN BKN009 OVC023 00/00 Q1004,LBIA,2018-03-24T07:00:00Z,42.45,26.35,0.0,0.0,90,4,,1.8,29.64567,,,,,,,,,,-SN,BKN,900,OVC,2300,,,,,IFR,,,,,,,,,,,,METAR,155.0
LBPL 240700Z 04002KT 1500 -SN SCT010 OVC017 M01/M01 Q1007,LBPL,2018-03-24T07:00:00Z,43.45,24.5,-1.0,-1.0,40,2,,0.93,29.734253,,,,,,,,,,-SN,SCT,1000,OVC,1700,,,,,LIFR,,,,,,,,,,,,METAR,101.0
SKLT 240700Z 23003KT 9999 -RA SCT010 BKN080 25/25 A2984,SKLT,2018-03-24T07:00:00Z,-4.2,-69.93,25.0,25.0,230,3,,6.21,29.840551,,,,,,,,,,-RA,SCT,1000,BKN,8000,,,,,VFR,,,,,,,,,,,,METAR,84.0
OPMT 240700Z 31004KT 4000 HZ SCT120 29/15 Q1016 NOSIG,OPMT,2018-03-24T07:00:00Z,30.18,71.42,29.0,15.0,310,4,,2.49,30.0,,,,,,TRUE,,,,HZ,SCT,12000,,,,,,,IFR,,,,,,,,,,,,METAR,123.0
OMSJ 240700Z 09008KT 030V100 CAVOK 33/03 Q1016,OMSJ,2018-03-24T07:00:00Z,25.32,55.52,33.0,3.0,90,8,,6.21,30.0,,,,,,,,,,,CAVOK,,,,,,,,VFR,,,,,,,,,,,,METAR,33.0
OMFJ 240700Z 10009KT 070V140 8000 NSC 28/20 Q1017 RMK A3005,OMFJ,2018-03-24T07:00:00Z,25.1,56.32,28.0,20.0,100,9,,4.97,30.029528,,,,,,,,,,,CLR,,,,,,,,MVFR,,,,,,,,,,,,METAR,28.0
OMDW 240700Z 08007KT 030V120 CAVOK 30/11 Q1017 NOSIG,OMDW,2018-03-24T07:00:00Z,24.9,55.17,30.0,11.0,80,7,,6.21,30.029528,,,,,,TRUE,,,,,CAVOK,,,,,,,,VFR,,,,,,,,,,,,METAR,25.0
OMDB 240700Z 08008G19KT 010V120 CAVOK 32/05 Q1016 NOSIG,OMDB,2018-03-24T07:00:00Z,25.25,55.37,32.0,5.0,80,8,19,6.21,30.0,,,,,,TRUE,,,,,CAVOK,,,,,,,,VFR,,,,,,,,,,,,METAR,5.0
OMAL 240700Z 18007KT 150V220 CAVOK 30/12 Q1017 NOSIG,OMAL,2018-03-24T07:00:00Z,24.25,55.6,30.0,12.0,180,7,,6.21,30.029528,,,,,,TRUE,,,,,CAVOK,,,,,,,,VFR,,,,,,,,,,,,METAR,262.0
OMAD 240700Z 07006KT 010V120 7000 NSC 27/20 Q1015 TEMPO VRB02KT,OMAD,2018-03-24T07:00:00Z,24.42,54.47,27.0,20.0,70,6,,4.35,29.970472,,,,,,,,,,,CLR,,,,,,,,MVFR,,,,,,,,,,,,METAR,3.0
OMAA 240700Z 07007KT 030V110 8000 NSC 28/19 Q1015 TEMPO VRB02KT,OMAA,2018-03-24T07:00:00Z,24.42,54.63,28.0,19.0,70,7,,4.97,29.970472,,,,,,,,,,,CLR,,,,,,,,MVFR,,,,,,,,,,,,METAR,27.0
PLCH 240700Z 12006KT 9999 FEW020 26/24 Q1010,PLCH,2018-03-24T07:00:00Z,1.98,-157.35,26.0,24.0,120,6,,6.21,29.822834,,,,,,,,,,,FEW,2000,,,,,,,VFR,,,,,,,,,,,,METAR,3.0
GMFM 240700Z 24019KT 8000 SCT013 BKN016 12/09 Q1015 NOSIG,GMFM,2018-03-24T07:00:00Z,33.87,-5.52,12.0,9.0,240,19,,4.97,29.970472,,,,,,TRUE,,,,,SCT,1300,BKN,1600,,,,,MVFR,,,,,,,,,,,,METAR,549.0
GMFK 240700Z 30009KT CAVOK 12/M06 Q1012 NOSIG,GMFK,2018-03-24T07:00:00Z,31.95,-4.4,12.0,-6.0,300,9,,6.21,29.88189,,,,,,TRUE,,,,,CAVOK,,,,,,,,VFR,,,,,,,,,,,,METAR,1045.0
GMAT 240700Z 36012KT 8000 SCT016 15/14 Q1021 NOSIG,GMAT,2018-03-24T07:00:00Z,28.43,-11.15,15.0,14.0,360,12,,4.97,30.147638,,,,,,TRUE,,,,,SCT,1600,,,,,,,MVFR,,,,,,,,,,,,METAR,200.0
GMAG 240700Z 01014KT 9999 BKN016 14/11 Q1019 BECMG 36016G26KT,GMAG,2018-03-24T07:00:00Z,29.03,-10.05,14.0,11.0,10,14,,6.21,30.088583,,,,,,,,,,,BKN,1600,,,,,,,MVFR,,,,,,,,,,,,METAR,333.0
SBCT 240700Z 09003KT 9999 BKN011 19/19 Q1018,SBCT,2018-03-24T07:00:00Z,-25.52,-49.17,19.0,19.0,90,3,,6.21,30.059055,,,,,,,,,,,BKN,1100,,,,,,,MVFR,,,,,,,,,,,,METAR,908.0
UKON 240700Z 02007MPS 9999 SCT026CB BKN100 M01/M03 Q1004 NOSIG,UKON,2018-03-24T07:00:00Z,47.05,31.92,-1.0,-3.0,20,14,,6.21,29.64567,,,,,,TRUE,,,,,SCT,2600,BKN,10000,,,,,VFR,,,,,,,,,,,,METAR,56.0
GMTN 240700Z 27016KT 8000 SCT010 BKN016 12/08 Q1012 NOSIG,GMTN,2018-03-24T07:00:00Z,35.57,-5.32,12.0,8.0,270,16,,4.97,29.88189,,,,,,TRUE,,,,,SCT,1000,BKN,1600,,,,,MVFR,,,,,,,,,,,,METAR,10.0
GMTA 240700Z 32025G43KT 6000 -RA SCT010 SCT016 OVC080 12/12 Q1009 NOSIG,GMTA,2018-03-24T07:00:00Z,35.17,-3.85,12.0,12.0,320,25,43,3.73,29.793306,,,,,,TRUE,,,,-RA,SCT,1000,SCT,1600,OVC,8000,,,MVFR,,,,,,,,,,,,METAR,14.0
GMMZ 240700Z 28018KT CAVOK 15/M05 Q1014 NOSIG,GMMZ,2018-03-24T07:00:00Z,30.92,-6.9,15.0,-5.0,280,18,,6.21,29.940945,,,,,,TRUE,,,,,CAVOK,,,,,,,,VFR,,,,,,,,,,,,METAR,1140.0
GMMW 240700Z 23016KT 9999 FEW020 BKN070 17/05 Q1006 NOSIG,GMMW,2018-03-24T07:00:00Z,34.98,-3.02,17.0,5.0,230,16,,6.21,29.704725,,,,,,TRUE,,,,,FEW,2000,BKN,7000,,,,,VFR,,,,,,,,,,,,METAR,175.0
GMML 240700Z 03011KT 6000 OVC017 16/14 Q1023 NOSIG,GMML,2018-03-24T07:00:00Z,27.13,-13.23,16.0,14.0,30,11,,3.73,30.206694,,,,,,TRUE,,,,,OVC,1700,,,,,,,MVFR,,,,,,,,,,,,METAR,6.0
GMMI 240700Z AUTO 14002KT 9999NDV ////// 14/12 Q1020 NOSIG,GMMI,2018-03-24T07:00:00Z,31.4,-9.68,14.0,12.0,140,2,,,30.11811,,,TRUE,,,TRUE,,,,,,,,,,,,,,,,,,,,,,,,,METAR,8.0
GMMD 240700Z 20002KT 9999 FEW026 SCT100 09/09 Q1020 NOSIG,GMMD,2018-03-24T07:00:00Z,32.4,-6.32,9.0,9.0,200,2,,6.21,30.11811,,,,,,TRUE,,,,,FEW,2600,SCT,10000,,,,,VFR,,,,,,,,,,,,METAR,509.0
GMFO 240700Z 22024G35KT 9999 SCT033 BKN086 12/08 Q1007 NOSIG,GMFO,2018-03-24T07:00:00Z,34.77,-1.92,12.0,8.0,220,24,35,6.21,29.734253,,,,,,TRUE,,,,,SCT,3300,BKN,8600,,,,,VFR,,,,,,,,,,,,METAR,470.0
CZSJ 240700Z AUTO 11006KT 9SM CLR M11/M17 A3044 RMK SLP333,CZSJ,2018-03-24T07:00:00Z,53.07,-93.35,-11.0,-17.0,110,6,,9.0,30.43996,1033.3,,TRUE,,,,,,,,CLR,,,,,,,,VFR,,,,,,,,,,,,METAR,290.0
MKJS 240700Z 09006KT 9999 FEW022 25/21 Q1015,MKJS,2018-03-24T07:00:00Z,18.5,-77.92,25.0,21.0,90,6,,6.21,29.970472,,,,,,,,,,,FEW,2200,,,,,,,VFR,,,,,,,,,,,,METAR,1.0
DTTZ 240700Z 26011KT 8000 SCT040 12/03 Q1007 NOSIG,DTTZ,2018-03-24T07:00:00Z,33.92,8.08,12.0,3.0,260,11,,4.97,29.734253,,,,,,TRUE,,,,,SCT,4000,,,,,,,MVFR,,,,,,,,,,,,METAR,93.0
DTTX 240700Z 25003KT 210V290 8000 FEW033 12/00 Q1006 NOSIG,DTTX,2018-03-24T07:00:00Z,34.72,10.67,12.0,0.0,250,3,,4.97,29.704725,,,,,,TRUE,,,,,FEW,3300,,,,,,,MVFR,,,,,,,,,,,,METAR,23.0
DTTG 240700Z 23013KT 6000 FEW030 12/M04 Q1007 NOSIG,DTTG,2018-03-24T07:00:00Z,33.73,9.92,12.0,-4.0,230,13,,3.73,29.734253,,,,,,TRUE,,,,,FEW,3000,,,,,,,MVFR,,,,,,,,,,,,METAR,5.0
DTTF 240700Z 01004KT 9999 FEW033 09/03 Q1006 NOSIG,DTTF,2018-03-24T07:00:00Z,34.42,8.82,9.0,3.0,10,4,,6.21,29.704725,,,,,,TRUE,,,,,FEW,3300,,,,,,,VFR,,,,,,,,,,,,METAR,314.0
DTKA 240700Z 22005KT 9999 SCT020 12/06 Q1003,DTKA,2018-03-24T07:00:00Z,36.98,8.88,12.0,6.0,220,5,,6.21,29.616142,,,,,,,,,,,SCT,2000,,,,,,,VFR,,,,,,,,,,,,METAR,21.0
DTTB 240700Z 00000KT 9999 SCT020 09/09 Q1003,DTTB,2018-03-24T07:00:00Z,37.25,9.8,9.0,9.0,0,0,,6.21,29.616142,,,,,,,,,,,SCT,2000,,,,,,,VFR,,,,,,,,,,,,METAR,3.0
DTTL 240700Z VRB03KT 8000 SCT020 10/10 Q1004,DTTL,2018-03-24T07:00:00Z,36.85,11.07,10.0,10.0,0,3,,4.97,29.64567,,,,,,,,,,,SCT,2000,,,,,,,MVFR,,,,,,,,,,,,METAR,30.0
DTTK 240700Z 24004KT CAVOK 12/03 Q1005,DTTK,2018-03-24T07:00:00Z,35.67,10.08,12.0,3.0,240,4,,6.21,29.675198,,,,,,,,,,,CAVOK,,,,,,,,VFR,,,,,,,,,,,,METAR,68.0
DTTD 240700Z 27016KT 8000 NSC 12/M11 Q1009 NOSIG,DTTD,2018-03-24T07:00:00Z,32.32,10.4,12.0,-11.0,270,16,,4.97,29.793306,,,,,,TRUE,,,,,CLR,,,,,,,,MVFR,,,,,,,,,,,,METAR,301.0
DTTN 240700Z 18007KT 9999 FEW020 08/05 Q1004,DTTN,2018-03-24T07:00:00Z,36.47,8.8,8.0,5.0,180,7,,6.21,29.64567,,,,,,,,,,,FEW,2000,,,,,,,VFR,,,,,,,,,,,,METAR,144.0
DTTR 240700Z 21014KT 8000 SCT040 12/M11 Q1011,DTTR,2018-03-24T07:00:00Z,31.7,9.27,12.0,-11.0,210,14,,4.97,29.852362,,,,,,,,,,,SCT,4000,,,,,,,MVFR,,,,,,,,,,,,METAR,259.0
LEBT 240700Z AUTO 29009KT 240V330 9999 NCD 09/M01 Q0997,LEBT,2018-03-24T07:00:00Z,39.58,-0.45,9.0,-1.0,290,9,,6.21,29.438976,,,TRUE,,,,,,,,CLR,,,,,,,,VFR,,,,,,,,,,,,METAR,50.0
VOVZ 240700Z 20009KT 4000 HZ SCT018 34/26 Q1010 NOSIG,VOVZ,2018-03-24T07:00:00Z,17.75,83.22,34.0,26.0,200,9,,2.49,29.822834,,,,,,TRUE,,,,HZ,SCT,1800,,,,,,,IFR,,,,,,,,,,,,METAR,5.0
LELO 240700Z 28011KT 9999 FEW050 04/01 Q0998,LELO,2018-03-24T07:00:00Z,42.45,-2.32,4.0,1.0,280,11,,6.21,29.468504,,,,,,,,,,,FEW,5000,,,,,,,VFR,,,,,,,,,,,,METAR,363.0
VOSM 240700Z 26005KT 5000 HZ FEW020 34/23 Q1010,VOSM,2018-03-24T07:00:00Z,,,34.0,23.0,260,5,,3.11,29.822834,,,,,,,,,,HZ,FEW,2000,,,,,,,MVFR,,,,,,,,,,,,METAR,
TLPL 250700Z 11013KT 9999 VCSH FEW024 26/21 Q1013 NOSIG,TLPL,2018-03-24T07:00:00Z,13.75,-60.95,26.0,21.0,110,13,,6.21,29.911417,,,,,,TRUE,,,,VCSH,FEW,2400,,,,,,,VFR,,,,,,,,,,,,METAR,3.0
UBBL 240700Z VRB02KT 8000 OVC005 10/09 Q1010 R33/CLRD// NOSIG RMK MT OBSC,UBBL,2018-03-24T07:00:00Z,38.75,48.82,10.0,9.0,0,2,,4.97,29.822834,,,,,,TRUE,,,,,OVC,500,,,,,,,IFR,,,,,,,,,,,,METAR,10.0
ORER 240700Z 13015KT 6000 SCT030 BKN080 24/02 Q1013 NOSIG,ORER,2018-03-24T07:00:00Z,36.23,43.97,24.0,2.0,130,15,,3.73,29.911417,,,,,,TRUE,,,,,SCT,3000,BKN,8000,,,,,MVFR,,,,,,,,,,,,METAR,409.0
ORNI 240700Z 17014KT 8000 NSC 29/M02 Q1012 NOSIG,ORNI,2018-03-24T07:00:00Z,31.98,44.4,29.0,-2.0,170,14,,4.97,29.88189,,,,,,TRUE,,,,,CLR,,,,,,,,MVFR,,,,,,,,,,,,METAR,53.0
VEJS 240700Z 08006KT 3500 HZ FEW020 34/21 Q1011,VEJS,2018-03-24T07:00:00Z,22.82,86.17,34.0,21.0,80,6,,2.17,29.852362,,,,,,,,,,HZ,FEW,2000,,,,,,,IFR,,,,,,,,,,,,METAR,142.0
VASU 240700Z 08012KT 5000 FU NSC 38/08 Q1011,VASU,2018-03-24T07:00:00Z,21.12,72.73,38.0,8.0,80,12,,3.11,29.852362,,,,,,,,,,FU,CLR,,,,,,,,MVFR,,,,,,,,,,,,METAR,5.0
VOBM 240700Z 02005KT CAVOK 34/16 Q1016,VOBM,2018-03-24T07:00:00Z,15.85,74.62,34.0,16.0,20,5,,6.21,30.0,,,,,,,,,,,CAVOK,,,,,,,,VFR,,,,,,,,,,,,METAR,758.0
VABO 240700Z 05008KT 6000 NSC 36/07 Q1012 NOSIG,VABO,2018-03-24T07:00:00Z,22.33,73.22,36.0,7.0,50,8,,3.73,29.88189,,,,,,TRUE,,,,,CLR,,,,,,,,MVFR,,,,,,,,,,,,METAR,39.0
VGEG 240700Z 27004KT 4000 HZ FEW120 32/22 Q1011 NOSIG,VGEG,2018-03-24T07:00:00Z,22.27,91.82,32.0,22.0,270,4,,2.49,29.852362,,,,,,TRUE,,,,HZ,FEW,12000,,,,,,,IFR,,,,,,,,,,,,METAR,6.0
WSAP 240700Z 06009KT 9999 VCSH FEW017TCU SCT300 32/23 Q1009,WSAP,2018-03-24T07:00:00Z,1.37,103.92,32.0,23.0,60,9,,6.21,29.793306,,,,,,,,,,VCSH,FEW,1700,SCT,30000,,,,,VFR,,,,,,,,,,,,METAR,32.0
WSSL 240700Z 04013KT 360V060 9999 VCSH FEW015 FEW018TCU FEW020CB BKN300 31/22 Q1009 RMK 0630Z Q1009,WSSL,2018-03-24T07:00:00Z,1.42,103.87,31.0,22.0,40,13,,6.21,29.793306,,,,,,,,,,VCSH,FEW,1500,FEW,1800,FEW,2000,BKN,30000,VFR,,,,,,,,,,,,METAR,14.0
UTAA 240700Z 13014KT 8000 SCT100 OVC230 20/08 Q1015 R88/CLRD70 NOSIG,UTAA,2018-03-24T07:00:00Z,37.98,58.37,20.0,8.0,130,14,,4.97,29.970472,,,,,,TRUE,,,,,SCT,10000,OVC,23000,,,,,MVFR,,,,,,,,,,,,SPECI,210.0
UTAM 240700Z 16006KT CAVOK 19/11 Q1019 NOSIG,UTAM,2018-03-24T07:00:00Z,37.62,61.9,19.0,11.0,160,6,,6.21,30.088583,,,,,,TRUE,,,,,CAVOK,,,,,,,,VFR,,,,,,,,,,,,METAR,222.0
UTAK 240700Z 15020G30KT 9999 OVC003 11/09 Q1010 R16R/CLRD70 NOSIG,UTAK,2018-03-24T07:00:00Z,40.05,53.0,11.0,9.0,150,20,30,6.21,29.822834,,,,,,TRUE,,,,,OVC,300,,,,,,,LIFR,,,,,,,,,,,,SPECI,85.0
UTAV 240700Z 07010KT 9999 SCT050 BKN100 19/07 Q1019 R31/CLRD70 NOSIG,UTAV,2018-03-24T07:00:00Z,39.08,63.62,19.0,7.0,70,10,,6.21,30.088583,,,,,,TRUE,,,,,SCT,5000,BKN,10000,,,,,VFR,,,,,,,,,,,,SPECI,192.0
UTAT 240700Z 14014KT CAVOK 07/M02 Q1019 R08/CLRD70 NOSIG,UTAT,2018-03-24T07:00:00Z,41.77,59.83,7.0,-2.0,140,14,,6.21,30.088583,,,,,,TRUE,,,,,CAVOK,,,,,,,,VFR,,,,,,,,,,,,SPECI,83.0
TNCA 240700Z 08010KT 9999 FEW017 26/23 Q1012 A2989 NOSIG,TNCA,2018-03-24T07:00:00Z,12.5,-70.0,26.0,23.0,80,10,,6.21,29.88189,,,,,,TRUE,,,,,FEW,1700,,,,,,,VFR,,,,,,,,,,,,METAR,18.0
LQMO 240700Z 12003KT 080V140 9999 FEW045 05/M04 Q1000,LQMO,2018-03-24T07:00:00Z,43.28,17.83,5.0,-4.0,120,3,,6.21,29.52756,,,,,,,,,,,FEW,4500,,,,,,,VFR,,,,,,,,,,,,METAR,48.0
BIRK 240700Z VRB02KT 9999 FEW028 M02/M06 Q0992,BIRK,2018-03-24T07:00:00Z,64.13,-21.93,-2.0,-6.0,0,2,,6.21,29.291338,,,,,,,,,,,FEW,2800,,,,,,,VFR,,,,,,,,,,,,METAR,61.0
BIEG 240700Z 18005KT 4000 BR BKN004 OVC010 M01/M02 Q0990,BIEG,2018-03-24T07:00:00Z,65.27,-14.4,-1.0,-2.0,180,5,,2.49,29.232283,,,,,,,,,,BR,BKN,400,OVC,1000,,,,,LIFR,,,,,,,,,,,,METAR,38.0
BIAR 240700Z VRB02KT CAVOK M05/M07 Q0991 R01/090095,BIAR,2018-03-24T07:00:00Z,65.67,-18.07,-5.0,-7.0,0,2,,6.21,29.26181,,,,,,,,,,,CAVOK,,,,,,,,VFR,,,,,,,,,,,,SPECI,27.0
KNEL 240700Z AUTO 30005KT 10SM CLR 00/M06 A3009 RMK AO2 SLP187 T00001061 $,KNEL,2018-03-24T07:00:00Z,40.02,-74.33,0.0,-6.1,300,5,,10.0,30.088583,1018.7,,TRUE,TRUE,TRUE,,,,,,CLR,,,,,,,,VFR,,,,,,,,,,,,METAR,31.0
FAOR 240700Z 32010KT 290V350 9999 BKN010 BKN016 16/13 Q1020 NOSIG,FAOR,2018-03-24T07:00:00Z,-26.12,28.22,16.0,13.0,320,10,,6.21,30.11811,,,,,,TRUE,,,,,BKN,1000,BKN,1600,,,,,MVFR,,,,,,,,,,,,METAR,1700.0
FAKN 240700Z 24002KT 9999 FEW015 20/17 Q1016 NOSIG,FAKN,2018-03-24T07:00:00Z,-25.38,31.1,20.0,17.0,240,2,,6.21,30.0,,,,,,TRUE,,,,,FEW,1500,,,,,,,VFR,,,,,,,,,,,,METAR,862.0
FAHS 240700Z AUTO 28004KT //// // ////// ///// Q1014,FAHS,2018-03-24T07:00:00Z,-24.37,31.02,,,280,4,,,29.940945,,,TRUE,,,,,,,,,,,,,,,,,,,,,,,,,,,,METAR,500.0
FAEL 240700Z 26010KT CAVOK 22/15 Q1008,FAEL,2018-03-24T07:00:00Z,-33.02,27.82,22.0,15.0,260,10,,6.21,29.763779,,,,,,,,,,,CAVOK,,,,,,,,VFR,,,,,,,,,,,,METAR,125.0
FACT 240700Z 30006KT 9999 FEW035 17/12 Q1011 NOSIG,FACT,2018-03-24T07:00:00Z,-33.97,18.6,17.0,12.0,300,6,,6.21,29.852362,,,,,,TRUE,,,,,FEW,3500,,,,,,,VFR,,,,,,,,,,,,METAR,42.0
GMMC 240700Z 22012KT 8000 RA SCT016 SCT026 BKN100 14/12 Q1017,GMMC,2018-03-24T07:00:00Z,33.57,-7.67,14.0,12.0,220,12,,4.97,30.029528,,,,,,,,,,RA,SCT,1600,SCT,2600,BKN,10000,,,MVFR,,,,,,,,,,,,METAR,62.0
GMMB 240700Z AUTO 18012KT //// R32/P2000N ////// 13/13 Q1019 NOSIG,GMMB,2018-03-24T07:00:00Z,33.65,-7.22,13.0,13.0,180,12,,1.24,30.088583,,,TRUE,,,TRUE,,,,,,,,,,,,,,,,,,,,,,,,,METAR,191.0
LKPD 240700Z VRB02KT 4000 BR NSC 02/01 Q1005 NOSIG RMK GRN GRN,LKPD,2018-03-24T07:00:00Z,50.02,15.73,2.0,1.0,0,2,,2.49,29.675198,,,,,,TRUE,,,,BR,CLR,,,,,,,,IFR,,,,,,,,,,,,METAR,226.0
LKNA 240700Z 01002KT 3000 BR SCT029 OVC044 01/M01 Q1004 NOSIG RMK YLO YLO,LKNA,2018-03-24T07:00:00Z,49.17,16.12,1.0,-1.0,10,2,,1.86,29.64567,,,,,,TRUE,,,,BR,SCT,2900,OVC,4400,,,,,IFR,,,,,,,,,,,,METAR,472.0
LKLN 240700Z AUTO VRB02KT 6000 NCD 01/M00 Q1004,LKLN,2018-03-24T07:00:00Z,49.68,13.27,1.0,0.0,0,2,,3.73,29.64567,,,TRUE,,,,,,,,CLR,,,,,,,,MVFR,,,,,,,,,,,,METAR,362.0
LKKB 240700Z VRB02KT 7000 FEW048 BKN150 01/M00 Q1005 NOSIG,LKKB,2018-03-24T07:00:00Z,50.12,14.53,1.0,0.0,0,2,,4.35,29.675198,,,,,,TRUE,,,,,FEW,4800,BKN,15000,,,,,MVFR,,,,,,,,,,,,METAR,286.0
LKCV 240700Z VRB01KT 6000 NSC 02/00 Q1005 NOSIG RMK WHT WHT,LKCV,2018-03-24T07:00:00Z,49.93,15.38,2.0,0.0,0,1,,3.73,29.675198,,,,,,TRUE,,,,,CLR,,,,,,,,MVFR,,,,,,,,,,,,METAR,242.0
FAPP 240700Z 32003KT 8000 -RA SCT005 OVC010 19/18 Q1018 NOSIG,FAPP,2018-03-24T07:00:00Z,-23.83,29.45,19.0,18.0,320,3,,4.97,30.059055,,,,,,TRUE,,,,-RA,SCT,500,OVC,1000,,,,,MVFR,,,,,,,,,,,,METAR,1242.0
FAMM 240700Z 01007KT 9999 SCT025 21/17 Q1018 NOSIG,FAMM,2018-03-24T07:00:00Z,-25.8,25.52,21.0,17.0,10,7,,6.21,30.059055,,,,,,TRUE,,,,,SCT,2500,,,,,,,VFR,,,,,,,,,,,,METAR,1277.0
FALA 240700Z 32005KT 260V360 9000 BKN015 18/15 Q1019 NOSIG,FALA,2018-03-24T07:00:00Z,-25.92,27.92,18.0,15.0,320,5,,5.59,30.088583,,,,,,TRUE,,,,,BKN,1500,,,,,,,MVFR,,,,,,,,,,,,METAR,1377.0
LIBG 240700Z 00000KT CAVOK 08/02 Q1000,LIBG,2018-03-24T07:00:00Z,40.52,17.38,8.0,2.0,0,0,,6.21,29.52756,,,,,,,,,,,CAVOK,,,,,,,,VFR,,,,,,,,,,,,SPECI,69.0
OEDR 240700Z 09006KT CAVOK 29/04 Q1014 NOSIG,OEDR,2018-03-24T07:00:00Z,26.27,50.17,29.0,4.0,90,6,,6.21,29.940945,,,,,,TRUE,,,,,CAVOK,,,,,,,,VFR,,,,,,,,,,,,METAR,17.0
RKNY 240700Z 26015KT 8000 NSC 17/M03 Q1015 NOSIG,RKNY,2018-03-24T07:00:00Z,38.07,128.67,17.0,-3.0,260,15,,4.97,29.970472,,,,,,TRUE,,,,,CLR,,,,,,,,MVFR,,,,,,,,,,,,METAR,74.0
RKJB 240700Z 29006KT 250V320 3700 HZ FEW030 15/07 Q1022 NOSIG,RKJB,2018-03-24T07:00:00Z,34.98,126.38,15.0,7.0,290,6,,2.3,30.177166,,,,,,TRUE,,,,HZ,FEW,3000,,,,,,,IFR,,,,,,,,,,,,METAR,2.0
RKTN 240700Z 32016KT 9000 NSC 17/02 Q1018 NOSIG,RKTN,2018-03-24T07:00:00Z,35.88,128.65,17.0,2.0,320,16,,5.59,30.059055,,,,,,TRUE,,,,,CLR,,,,,,,,VFR,,,,,,,,,,,,METAR,35.0
RKTU 240700Z 23010KT 8000 SCT030 17/05 Q1019 NOSIG,RKTU,2018-03-24T07:00:00Z,36.7,127.5,17.0,5.0,230,10,,4.97,30.088583,,,,,,TRUE,,,,,SCT,3000,,,,,,,MVFR,,,,,,,,,,,,METAR,66.0
RKPK 240700Z 20014KT 9000 NSC 17/01 Q1019 NOSIG,RKPK,2018-03-24T07:00:00Z,35.17,128.92,17.0,1.0,200,14,,5.59,30.088583,,,,,,TRUE,,,,,CLR,,,,,,,,VFR,,,,,,,,,,,,METAR,15.0
RKPC 240700Z 28008KT 250V310 3500 HZ NSC 15/07 Q1023 NOSIG,RKPC,2018-03-24T07:00:00Z,33.5,126.48,15.0,7.0,280,8,,2.17,30.206694,,,,,,TRUE,,,,HZ,CLR,,,,,,,,IFR,,,,,,,,,,,,METAR,27.0
RKSS 240700Z 22007KT 3500 HZ FEW015 SCT035 10/03 Q1021 NOSIG,RKSS,2018-03-24T07:00:00Z,37.53,126.78,10.0,3.0,220,7,,2.17,30.147638,,,,,,TRUE,,,,HZ,FEW,1500,SCT,3500,,,,,IFR,,,,,,,,,,,,METAR,19.0
FMSD 240700Z 06018KT 9999 FEW020 29/22 Q1013,FMSD,2018-03-24T07:00:00Z,-25.02,46.95,29.0,22.0,60,18,,6.21,29.911417,,,,,,,,,,,FEW,2000,,,,,,,VFR,,,,,,,,,,,,METAR,9.0
FMNM 240700Z 14006KT 9999 FEW020CB 31/21 Q1011 NOSIG,FMNM,2018-03-24T07:00:00Z,-15.67,46.35,31.0,21.0,140,6,,6.21,29.852362,,,,,,TRUE,,,,,FEW,2000,,,,,,,VFR,,,,,,,,,,,,METAR,18.0
FMMT 240700Z 20004KT 9999 VCSH FEW007 SCT017TCU BKN033 26/24 Q1015 TEMPO 4000 RA,FMMT,2018-03-24T07:00:00Z,-18.12,49.38,26.0,24.0,200,4,,6.21,29.970472,,,,,,,,,,VCSH,FEW,700,SCT,1700,BKN,3300,,,VFR,,,,,,,,,,,,METAR,6.0
MKJP 240700Z 15003KT 9999 FEW022 FEW024CB 26/22 Q1014,MKJP,2018-03-24T07:00:00Z,17.92,-76.78,26.0,22.0,150,3,,6.21,29.940945,,,,,,,,,,,FEW,2200,FEW,2400,,,,,VFR,,,,,,,,,,,,METAR,3.0
UMMG 240700Z 00000MPS 6000 NSC 00/M01 Q1009 NOSIG,UMMG,2018-03-24T07:00:00Z,53.6,24.05,0.0,-1.0,0,0,,3.73,29.793306,,,,,,TRUE,,,,,CLR,,,,,,,,MVFR,,,,,,,,,,,,METAR,135.0
UMII 240700Z 04002MPS 9999 BKN026 M04/M08 Q1008 NOSIG,UMII,2018-03-24T07:00:00Z,55.13,30.35,-4.0,-8.0,40,4,,6.21,29.763779,,,,,,TRUE,,,,,BKN,2600,,,,,,,MVFR,,,,,,,,,,,,METAR,208.0
SBPL 240700Z 08003KT 9000 -RA FEW015 BKN025 BKN070 24/23 Q1013,SBPL,2018-03-24T07:00:00Z,-9.37,-40.57,24.0,23.0,80,3,,5.59,29.911417,,,,,,,,,,-RA,FEW,1500,BKN,2500,BKN,7000,,,MVFR,,,,,,,,,,,,METAR,375.0
LETO 240700Z 29015KT 9999 FEW050 04/M01 Q1002 NOSIG,LETO,2018-03-24T07:00:00Z,40.47,-3.47,4.0,-1.0,290,15,,6.21,29.586615,,,,,,TRUE,,,,,FEW,5000,,,,,,,VFR,,,,,,,,,,,,METAR,608.0
LELC 240700Z 31014G24KT 270V340 CAVOK 12/01 Q1000 NOSIG,LELC,2018-03-24T07:00:00Z,37.77,-0.8,12.0,1.0,310,14,24,6.21,29.52756,,,,,,TRUE,,,,,CAVOK,,,,,,,,VFR,,,,,,,,,,,,METAR,3.0
LEBZ 240700Z 28011KT CAVOK 07/04 Q1011,LEBZ,2018-03-24T07:00:00Z,38.87,-6.82,7.0,4.0,280,11,,6.21,29.852362,,,,,,,,,,,CAVOK,,,,,,,,VFR,,,,,,,,,,,,METAR,192.0
LEAB 240700Z 30016KT 9999 FEW020 03/00 Q1002 NOSIG,LEAB,2018-03-24T07:00:00Z,38.95,-1.85,3.0,0.0,300,16,,6.21,29.586615,,,,,,TRUE,,,,,FEW,2000,,,,,,,VFR,,,,,,,,,,,,METAR,704.0
OITZ 240700Z 15017KT 3500 DU NSC 19/M03 Q1019,OITZ,2018-03-24T07:00:00Z,36.77,48.37,19.0,-3.0,150,17,,2.17,30.088583,,,,,,,,,,DU,CLR,,,,,,,,IFR,,,,,,,,,,,,METAR,1663.0
OISY 240700Z 16004KT CAVOK 18/M07 Q1026,OISY,2018-03-24T07:00:00Z,30.7,51.55,18.0,-7.0,160,4,,6.21,30.295275,,,,,,,,,,,CAVOK,,,,,,,,VFR,,,,,,,,,,,,METAR,1811.0
OISL 240700Z 00000KT CAVOK 28/02 Q1019,OISL,2018-03-24T07:00:00Z,27.67,54.37,28.0,2.0,0,0,,6.21,30.088583,,,,,,,,,,,CAVOK,,,,,,,,VFR,,,,,,,,,,,,METAR,805.0
OINR 240700Z 10008KT 4000 BR SCT011 BKN080 13/11 Q1008,OINR,2018-03-24T07:00:00Z,36.88,50.67,13.0,11.0,100,8,,2.49,29.763779,,,,,,,,,,BR,SCT,1100,BKN,8000,,,,,IFR,,,,,,,,,,,,METAR,-20.0
OINN 240700Z 06006KT 4000 BR OVC007 12/11 Q1010,OINN,2018-03-24T07:00:00Z,36.67,51.47,12.0,11.0,60,6,,2.49,29.822834,,,,,,,,,,BR,OVC,700,,,,,,,IFR,,,,,,,,,,,,METAR,-19.0
OIKQ 240700Z 12010KT 8000 NSC 30/19 Q1015,OIKQ,2018-03-24T07:00:00Z,26.75,55.9,30.0,19.0,120,10,,4.97,29.970472,,,,,,,,,,,CLR,,,,,,,,MVFR,,,,,,,,,,,,METAR,12.0
OIAM 240700Z 12008KT CAVOK 28/14 Q1014,OIAM,2018-03-24T07:00:00Z,30.55,49.15,28.0,14.0,120,8,,6.21,29.940945,,,,,,,,,,,CAVOK,,,,,,,,VFR,,,,,,,,,,,,METAR,4.0
OIAG 240700Z 15014KT CAVOK 30/07 Q1015,OIAG,2018-03-24T07:00:00Z,30.77,49.67,30.0,7.0,150,14,,6.21,29.970472,,,,,,,,,,,CAVOK,,,,,,,,VFR,,,,,,,,,,,,METAR,29.0
OITP 240700Z 27004KT 9999 SCT025 BKN080 10/07 Q1008,OITP,2018-03-24T07:00:00Z,39.6,47.88,10.0,7.0,270,4,,6.21,29.763779,,,,,,,,,,,SCT,2500,BKN,8000,,,,,VFR,,,,,,,,,,,,METAR,77.0
OISR 240700Z 08006KT CAVOK 29/12 Q1018,OISR,2018-03-24T07:00:00Z,27.37,53.2,29.0,12.0,80,6,,6.21,30.059055,,,,,,,,,,,CAVOK,,,,,,,,VFR,,,,,,,,,,,,METAR,408.0
OISF 240700Z 14004KT CAVOK 23/01 Q1021,OISF,2018-03-24T07:00:00Z,28.9,53.72,23.0,1.0,140,4,,6.21,30.147638,,,,,,,,,,,CAVOK,,,,,,,,VFR,,,,,,,,,,,,METAR,1383.0
OIIS 240700Z 00000KT 2000 DU NSC 21/M01 Q1020,OIIS,2018-03-24T07:00:00Z,35.38,53.67,21.0,-1.0,0,0,,1.24,30.11811,,,,,,,,,,DU,CLR,,,,,,,,IFR,,,,,,,,,,,,METAR,1115.0
OICM 240700Z 14014KT CAVOK 31/01 Q1012,OICM,2018-03-24T07:00:00Z,,,31.0,1.0,140,14,,6.21,29.88189,,,,,,,,,,,CAVOK,,,,,,,,VFR,,,,,,,,,,,,METAR,
OIAH 240700Z 13006KT CAVOK 29/M00 Q1020,OIAH,2018-03-24T07:00:00Z,30.33,50.83,29.0,0.0,130,6,,6.21,30.11811,,,,,,,,,,,CAVOK,,,,,,,,VFR,,,,,,,,,,,,METAR,738.0
OITM 240700Z 17012KT 5000 DU FEW040 OVC090 21/M05 Q1016,OITM,2018-03-24T07:00:00Z,37.35,46.15,21.0,-5.0,170,12,,3.11,30.0,,,,,,,,,,DU,FEW,4000,OVC,9000,,,,,MVFR,,,,,,,,,,,,METAR,1340.0
OITK 240700Z 16017KT 8000 FEW035 SCT170 21/M01 Q1011,OITK,2018-03-24T07:00:00Z,38.42,44.98,21.0,-1.0,160,17,,4.97,29.852362,,,,,,,,,,,FEW,3500,SCT,17000,,,,,MVFR,,,,,,,,,,,,METAR,1107.0
OINE 240700Z 06006KT 8000 NSC 28/13 Q1010,OINE,2018-03-24T07:00:00Z,37.38,55.45,28.0,13.0,60,6,,4.97,29.822834,,,,,,,,,,,CLR,,,,,,,,MVFR,,,,,,,,,,,,METAR,130.0
OIMQ 240700Z 00000KT CAVOK 21/04 Q1023,OIMQ,2018-03-24T07:00:00Z,35.23,58.47,21.0,4.0,0,0,,6.21,30.206694,,,,,,,,,,,CAVOK,,,,,,,,VFR,,,,,,,,,,,,METAR,1140.0
OIMD 240700Z 00000KT CAVOK 23/M01 Q1019,OIMD,2018-03-24T07:00:00Z,34.38,58.63,23.0,-1.0,0,0,,6.21,30.088583,,,,,,,,,,,CAVOK,,,,,,,,VFR,,,,,,,,,,,,METAR,1100.0
OIMC 240700Z 00000KT CAVOK 22/08 Q1020,OIMC,2018-03-24T07:00:00Z,36.5,61.07,22.0,8.0,0,0,,6.21,30.11811,,,,,,,,,,,CAVOK,,,,,,,,VFR,,,,,,,,,,,,METAR,288.0
OIIK 240700Z 15006KT 6000 NSC 18/03 Q1020,OIIK,2018-03-24T07:00:00Z,36.25,50.05,18.0,3.0,150,6,,3.73,30.11811,,,,,,,,,,,CLR,,,,,,,,MVFR,,,,,,,,,,,,METAR,1278.0
OIBQ 240700Z 09006KT 7000 NSC 23/21 Q1015,OIBQ,2018-03-24T07:00:00Z,29.27,50.32,23.0,21.0,90,6,,4.35,29.970472,,,,,,,,,,,CLR,,,,,,,,MVFR,,,,,,,,,,,,METAR,6.0
OIBL 240700Z 09010KT 8000 NSC 28/14 Q1016,OIBL,2018-03-24T07:00:00Z,26.53,54.82,28.0,14.0,90,10,,4.97,30.0,,,,,,,,,,,CLR,,,,,,,,MVFR,,,,,,,,,,,,METAR,14.0
OIZI 240700Z 26006KT CAVOK 29/01 Q1019,OIZI,2018-03-24T07:00:00Z,27.23,60.72,29.0,1.0,260,6,,6.21,30.088583,,,,,,,,,,,CAVOK,,,,,,,,VFR,,,,,,,,,,,,METAR,591.0
OIZB 240700Z 36014KT CAVOK 27/05 Q1018,OIZB,2018-03-24T07:00:00Z,31.1,61.55,27.0,5.0,360,14,,6.21,30.059055,,,,,,,,,,,CAVOK,,,,,,,,VFR,,,,,,,,,,,,METAR,489.0
OING 240700Z 07010KT 4500 BR NSC 20/16 Q1010,OING,2018-03-24T07:00:00Z,36.9,54.4,20.0,16.0,70,10,,2.8,29.822834,,,,,,,,,,BR,CLR,,,,,,,,IFR,,,,,,,,,,,,METAR,155.0
OIBS 240700Z 04014KT 8000 NSC 26/20 Q1016,OIBS,2018-03-24T07:00:00Z,25.9,54.55,26.0,20.0,40,14,,4.97,30.0,,,,,,,,,,,CLR,,,,,,,,MVFR,,,,,,,,,,,,METAR,14.0
OIBJ 240700Z 10006KT CAVOK 28/09 Q1020,OIBJ,2018-03-24T07:00:00Z,27.82,52.35,28.0,9.0,100,6,,6.21,30.11811,,,,,,,,,,,CAVOK,,,,,,,,VFR,,,,,,,,,,,,METAR,663.0
OIZJ 240700Z 11006KT 5000 BR NSC 26/23 Q1015,OIZJ,2018-03-24T07:00:00Z,25.65,57.8,26.0,23.0,110,6,,3.11,29.970472,,,,,,,,,,BR,CLR,,,,,,,,MVFR,,,,,,,,,,,,METAR,4.0
OIMN 240700Z 35004KT 8000 NSC 18/05 Q1020,OIMN,2018-03-24T07:00:00Z,37.48,57.3,18.0,5.0,350,4,,4.97,30.11811,,,,,,,,,,,CLR,,,,,,,,MVFR,,,,,,,,,,,,METAR,1074.0
OIMB 240700Z 17004KT CAVOK 21/M06 Q1025,OIMB,2018-03-24T07:00:00Z,32.9,59.28,21.0,-6.0,170,4,,6.21,30.265747,,,,,,,,,,,CAVOK,,,,,,,,VFR,,,,,,,,,,,,METAR,1491.0
OIIP 240700Z 12010KT 5000 HZ FEW040 SCT200 21/M05 Q1021,OIIP,2018-03-24T07:00:00Z,35.78,50.83,21.0,-5.0,120,10,,3.11,30.147638,,,,,,,,,,HZ,FEW,4000,SCT,20000,,,,,MVFR,,,,,,,,,,,,METAR,1271.0
OIFS 240700Z 30004KT 9999 FEW040 17/M11 Q1027,OIFS,2018-03-24T07:00:00Z,32.32,50.85,17.0,-11.0,300,4,,6.21,30.324802,,,,,,,,,,,FEW,4000,,,,,,,VFR,,,,,,,,,,,,METAR,2078.0
OIBV 240700Z 12008KT 100V160 8000 NSC 30/10 Q1015,OIBV,2018-03-24T07:00:00Z,26.82,53.35,30.0,10.0,120,8,,4.97,29.970472,,,,,,,,,,,CLR,,,,,,,,MVFR,,,,,,,,,,,,METAR,24.0
OIBA 240700Z 06016KT 6000 NSC 26/21 Q1014,OIBA,2018-03-24T07:00:00Z,25.88,55.03,26.0,21.0,60,16,,3.73,29.940945,,,,,,,,,,,CLR,,,,,,,,MVFR,,,,,,,,,,,,METAR,7.0
OIYY 240700Z 14004KT CAVOK 24/M11 Q1024,OIYY,2018-03-24T07:00:00Z,31.9,54.28,24.0,-11.0,140,4,,6.21,30.236221,,,,,,,,,,,CAVOK,,,,,,,,VFR,,,,,,,,,,,,METAR,1236.0
OINZ 240700Z 03004KT 4000 HZ SCT023 BKN080 17/13 Q1009,OINZ,2018-03-24T07:00:00Z,36.63,53.2,17.0,13.0,30,4,,2.49,29.793306,,,,,,,,,,HZ,SCT,2300,BKN,8000,,,,,IFR,,,,,,,,,,,,METAR,11.0
OIIE 240700Z 10006KT 7000 NSC 22/M07 Q1020,OIIE,2018-03-24T07:00:00Z,35.42,51.15,22.0,-7.0,100,6,,4.35,30.11811,,,,,,,,,,,CLR,,,,,,,,MVFR,,,,,,,,,,,,METAR,1008.0
OIAA 240700Z 13008KT 7000 NSC 31/07 Q1013,OIAA,2018-03-24T07:00:00Z,30.37,48.25,31.0,7.0,130,8,,4.35,29.911417,,,,,,,,,,,CLR,,,,,,,,MVFR,,,,,,,,,,,,METAR,11.0
OICS 240700Z 20004KT 7000 NSC 17/M01 Q1020,OICS,2018-03-24T07:00:00Z,35.25,47.02,17.0,-1.0,200,4,,4.35,30.11811,,,,,,,,,,,CLR,,,,,,,,MVFR,,,,,,,,,,,,METAR,1373.0
OICK 240700Z 33002KT 7000 NSC 20/01 Q1021,OICK,2018-03-24T07:00:00Z,33.43,48.28,20.0,1.0,330,2,,4.35,30.147638,,,,,,,,,,,CLR,,,,,,,,MVFR,,,,,,,,,,,,METAR,1155.0
OIBB 240700Z 18004KT 8000 NSC 26/16 Q1015 A2998,OIBB,2018-03-24T07:00:00Z,28.97,50.82,26.0,16.0,180,4,,4.97,29.970472,,,,,,,,,,,CLR,,,,,,,,MVFR,,,,,,,,,,,,METAR,19.0
SAZS 240700Z 27007KT 9999 SCT030 05/M04 Q1020,SAZS,2018-03-24T07:00:00Z,-41.13,-71.17,5.0,-4.0,270,7,,6.21,30.11811,,,,,,,,,,,SCT,3000,,,,,,,VFR,,,,,,,,,,,,METAR,840.0
SAZN 240700Z 27008KT CAVOK 12/05 Q1017,SAZN,2018-03-24T07:00:00Z,-38.95,-68.15,12.0,5.0,270,8,,6.21,30.029528,,,,,,,,,,,CAVOK,,,,,,,,VFR,,,,,,,,,,,,METAR,271.0
SAZM 240700Z 29003KT 8000 NSC 12/12 Q1007,SAZM,2018-03-24T07:00:00Z,-37.92,-57.57,12.0,12.0,290,3,,4.97,29.734253,,,,,,,,,,,CLR,,,,,,,,MVFR,,,,,,,,,,,,METAR,21.0
SAWG 240700Z 25010KT CAVOK 01/M02 Q1017,SAWG,2018-03-24T07:00:00Z,-51.62,-69.32,1.0,-2.0,250,10,,6.21,30.029528,,,,,,,,,,,CAVOK,,,,,,,,VFR,,,,,,,,,,,,METAR,19.0
SASJ 240700Z 18004KT 8000 BKN030 20/19 Q1010,SASJ,2018-03-24T07:00:00Z,-24.37,-65.1,20.0,19.0,180,4,,4.97,29.822834,,,,,,,,,,,BKN,3000,,,,,,,MVFR,,,,,,,,,,,,METAR,1167.0
SASA 240700Z 00000KT 9999 FEW010 BKN020 18/16 Q1012,SASA,2018-03-24T07:00:00Z,-24.85,-65.47,18.0,16.0,0,0,,6.21,29.88189,,,,,,,,,,,FEW,1000,BKN,2000,,,,,MVFR,,,,,,,,,,,,METAR,1216.0
SARP 240700Z 07003KT 9999 FEW045CB 26/23 Q1009,SARP,2018-03-24T07:00:00Z,-27.38,-55.97,26.0,23.0,70,3,,6.21,29.793306,,,,,,,,,,,FEW,4500,,,,,,,VFR,,,,,,,,,,,,METAR,125.0
SARL 240700Z 05009KT 9999 TS SCT020 FEW045 OVC100 27/24 Q1005,SARL,2018-03-24T07:00:00Z,-29.67,-57.13,27.0,24.0,50,9,,6.21,29.675198,,,,,,,,,,TS,SCT,2000,FEW,4500,OVC,10000,,,VFR,,,,,,,,,,,,METAR,70.0
SARI 240700Z 05005KT CAVOK 23/23 Q1010,SARI,2018-03-24T07:00:00Z,-25.72,-54.47,23.0,23.0,50,5,,6.21,29.822834,,,,,,,,,,,CAVOK,,,,,,,,VFR,,,,,,,,,,,,METAR,270.0
SARF 240700Z 05008KT CAVOK 27/25 Q1005,SARF,2018-03-24T07:00:00Z,-26.22,-58.22,27.0,25.0,50,8,,6.21,29.675198,,,,,,,,,,,CAVOK,,,,,,,,VFR,,,,,,,,,,,,METAR,60.0
SAOC 240700Z 27006KT CAVOK 17/08 Q1013,SAOC,2018-03-24T07:00:00Z,-33.12,-64.27,17.0,8.0,270,6,,6.21,29.911417,,,,,,,,,,,CAVOK,,,,,,,,VFR,,,,,,,,,,,,METAR,421.0
SANT 240700Z 34005KT 8000 NSC 21/20 Q1008,SANT,2018-03-24T07:00:00Z,-26.85,-65.08,21.0,20.0,340,5,,4.97,29.763779,,,,,,,,,,,CLR,,,,,,,,MVFR,,,,,,,,,,,,METAR,450.0
SAME 240700Z 16008KT 9999 FEW045CB 19/04 Q1015,SAME,2018-03-24T07:00:00Z,-32.82,-68.77,19.0,4.0,160,8,,6.21,29.970472,,,,,,,,,,,FEW,4500,,,,,,,VFR,,,,,,,,,,,,METAR,704.0
SAEZ 240700Z 23002KT CAVOK 14/12 Q1008,SAEZ,2018-03-24T07:00:00Z,-34.82,-58.52,14.0,12.0,230,2,,6.21,29.763779,,,,,,,,,,,CAVOK,,,,,,,,VFR,,,,,,,,,,,,METAR,20.0
SACO 240700Z 20008KT 9999 BKN040 21/06 Q1012,SACO,2018-03-24T07:00:00Z,-31.32,-64.22,21.0,6.0,200,8,,6.21,29.88189,,,,,,,,,,,BKN,4000,,,,,,,VFR,,,,,,,,,,,,METAR,474.0
SABE 240700Z 19006KT CAVOK 20/13 Q1008,SABE,2018-03-24T07:00:00Z,-34.57,-58.42,20.0,13.0,190,6,,6.21,29.763779,,,,,,,,,,,CAVOK,,,,,,,,VFR,,,,,,,,,,,,METAR,6.0
SAAR 240700Z 18007KT CAVOK 19/10 Q1008,SAAR,2018-03-24T07:00:00Z,-32.92,-60.77,19.0,10.0,180,7,,6.21,29.763779,,,,,,,,,,,CAVOK,,,,,,,,VFR,,,,,,,,,,,,METAR,25.0
MNMG 240700Z 08014KT 9999 FEW023 26/20 Q1013 A2993 NOSIG,MNMG,2018-03-24T07:00:00Z,12.15,-86.17,26.0,20.0,80,14,,6.21,29.911417,,,,,,TRUE,,,,,FEW,2300,,,,,,,VFR,,,,,,,,,,,,METAR,59.0
YBDV 240700Z AUTO 05007KT 010V090 //// // ////// 33/18 Q1009,YBDV,2018-03-24T07:00:00Z,-25.9,139.35,33.0,18.0,50,7,,,29.793306,,,TRUE,,,,,,,,,,,,,,,,,,,,,,,,,,,,METAR,47.0
YBCV 240700Z AUTO 10008KT 9999 // SCT074 32/12 Q1012,YBCV,2018-03-24T07:00:00Z,-26.38,146.27,32.0,12.0,100,8,,6.21,29.88189,,,TRUE,,,,,,,,SCT,7400,,,,,,,VFR,,,,,,,,,,,,METAR,304.0
YAYE 240700Z AUTO 16011G22KT 9999 // NCD 36/02 Q1011,YAYE,2018-03-24T07:00:00Z,-25.18,130.98,36.0,2.0,160,11,22,6.21,29.852362,,,TRUE,,,,,,,,CLR,,,,,,,,VFR,,,,,,,,,,,,METAR,496.0
YARG 240700Z AUTO 01007KT 9999 // SCT110 37/10 Q1006,YARG,2018-03-24T07:00:00Z,-16.63,128.45,37.0,10.0,10,7,,6.21,29.704725,,,TRUE,,,,,,,,SCT,11000,,,,,,,VFR,,,,,,,,,,,,METAR,165.0
YMOR 240700Z AUTO 33005KT 9999 // NCD 32/12 Q1014,YMOR,2018-03-24T07:00:00Z,-29.5,149.85,32.0,12.0,330,5,,6.21,29.940945,,,TRUE,,,,,,,,CLR,,,,,,,,VFR,,,,,,,,,,,,METAR,214.0
YMIA 240700Z AUTO 32009KT 9999 // SCT105 SCT125 35/06 Q1007,YMIA,2018-03-24T07:00:00Z,-34.23,142.08,35.0,6.0,320,9,,6.21,29.734253,,,TRUE,,,,,,,,SCT,10500,SCT,12500,,,,,VFR,,,,,,,,,,,,METAR,51.0
YMEN 240700Z AUTO 36013KT 9999 // OVC115 23/17 Q1008,YMEN,2018-03-24T07:00:00Z,-37.72,144.9,23.0,17.0,360,13,,6.21,29.763779,,,TRUE,,,,,,,,OVC,11500,,,,,,,VFR,,,,,,,,,,,,METAR,86.0
YMEK 240700Z AUTO 32011KT 310V050 9999 // NCD 41/03 Q1010,YMEK,2018-03-24T07:00:00Z,-26.62,118.55,41.0,3.0,320,11,,6.21,29.822834,,,TRUE,,,,,,,,CLR,,,,,,,,VFR,,,,,,,,,,,,METAR,522.0
YMDG 240700Z AUTO 32006KT 290V360 9999 // NCD 28/13 Q1015,YMDG,2018-03-24T07:00:00Z,-32.57,149.62,28.0,13.0,320,6,,6.21,29.970472,,,TRUE,,,,,,,,CLR,,,,,,,,VFR,,,,,,,,,,,,METAR,471.0
YMAY 240700Z AUTO 16008KT 9999 // SCT053 SCT071 BKN088 20/17 Q1013,YMAY,2018-03-24T07:00:00Z,-36.07,146.93,20.0,17.0,160,8,,6.21,29.911417,,,TRUE,,,,,,,,SCT,5300,SCT,7100,BKN,8800,,,VFR,,,,,,,,,,,,METAR,171.0
YLRE 240700Z AUTO 07012KT 9999 // BKN115 32/16 Q1010,YLRE,2018-03-24T07:00:00Z,-23.43,144.28,32.0,16.0,70,12,,6.21,29.822834,,,TRUE,,,,,,,,BKN,11500,,,,,,,VFR,,,,,,,,,,,,METAR,193.0
LEMO 240700Z 25008KT 9999 SCT050 08/05 Q1013 NOSIG,LEMO,2018-03-24T07:00:00Z,37.17,-5.62,8.0,5.0,250,8,,6.21,29.911417,,,,,,TRUE,,,,,SCT,5000,,,,,,,VFR,,,,,,,,,,,,METAR,88.0
SAWH 240700Z 36005KT 9999 SCT035 SCT100 03/M00 Q1013,SAWH,2018-03-24T07:00:00Z,-54.85,-68.3,3.0,0.0,360,5,,6.21,29.911417,,,,,,,,,,,SCT,3500,SCT,10000,,,,,VFR,,,,,,,,,,,,METAR,14.0
FAPE 240700Z 25018KT 9999 FEW018 21/17 Q1007 NOSIG,FAPE,2018-03-24T07:00:00Z,-33.97,25.6,21.0,17.0,250,18,,6.21,29.734253,,,,,,TRUE,,,,,FEW,1800,,,,,,,VFR,,,,,,,,,,,,METAR,60.0
ZBSJ 240700Z 14003MPS 040V190 CAVOK 23/M06 Q1020 NOSIG,ZBSJ,2018-03-24T07:00:00Z,38.28,114.7,23.0,-6.0,140,6,,6.21,30.11811,,,,,,TRUE,,,,,CAVOK,,,,,,,,VFR,,,,,,,,,,,,METAR,71.0
FAWK 240700Z AUTO 33005KT //// // ////// ///// Q1020,FAWK,2018-03-24T07:00:00Z,-25.82,28.22,,,330,5,,,30.11811,,,TRUE,,,,,,,,,,,,,,,,,,,,,,,,,,,,METAR,1500.0
FAWB 240700Z AUTO 31003KT //// // ////// 20/17 Q1018,FAWB,2018-03-24T07:00:00Z,-25.63,28.22,20.0,17.0,310,3,,,30.059055,,,TRUE,,,,,,,,,,,,,,,,,,,,,,,,,,,,METAR,1248.0
FAUP 240700Z 33011KT 9999 FEW040 24/07 Q1011 NOSIG,FAUP,2018-03-24T07:00:00Z,-28.38,21.27,24.0,7.0,330,11,,6.21,29.852362,,,,,,TRUE,,,,,FEW,4000,,,,,,,VFR,,,,,,,,,,,,METAR,836.0
ZUUU 240700Z 07003MPS 010V100 4000 -SHRA BR FEW010 BKN040 17/15 Q1017 NOSIG,ZUUU,2018-03-24T07:00:00Z,30.58,103.95,17.0,15.0,70,6,,2.49,30.029528,,,,,,TRUE,,,,-SHRA BR,FEW,1000,BKN,4000,,,,,IFR,,,,,,,,,,,,METAR,508.0
ZUGY 240700Z 23002MPS 180V290 6000 BKN015 OVC033 16/11 Q1017 NOSIG,ZUGY,2018-03-24T07:00:00Z,26.53,106.8,16.0,11.0,230,4,,3.73,30.029528,,,,,,TRUE,,,,,BKN,1500,OVC,3300,,,,,MVFR,,,,,,,,,,,,METAR,1074.0
ZSQD 240700Z 22005MPS 4000 HZ NSC 19/07 Q1021 NOSIG,ZSQD,2018-03-24T07:00:00Z,36.27,120.38,19.0,7.0,220,10,,2.49,30.147638,,,,,,TRUE,,,,HZ,CLR,,,,,,,,IFR,,,,,,,,,,,,METAR,77.0
ZSNB 240700Z VRB02MPS CAVOK 24/04 Q1019 NOSIG,ZSNB,2018-03-24T07:00:00Z,29.83,121.47,24.0,4.0,0,4,,6.21,30.088583,,,,,,TRUE,,,,,CAVOK,,,,,,,,VFR,,,,,,,,,,,,METAR,4.0
ZSFZ 240700Z 06005MPS CAVOK 21/11 Q1020 NOSIG,ZSFZ,2018-03-24T07:00:00Z,25.93,119.67,21.0,11.0,60,10,,6.21,30.11811,,,,,,TRUE,,,,,CAVOK,,,,,,,,VFR,,,,,,,,,,,,METAR,85.0
ZSAM 240700Z 10005MPS 070V130 CAVOK 24/07 Q1018 NOSIG,ZSAM,2018-03-24T07:00:00Z,24.53,118.13,24.0,7.0,100,10,,6.21,30.059055,,,,,,TRUE,,,,,CAVOK,,,,,,,,VFR,,,,,,,,,,,,METAR,18.0
ZPPP 240700Z 25009MPS 220V280 9999 FEW026 22/M00 Q1018 NOSIG,ZPPP,2018-03-24T07:00:00Z,25.0,102.75,22.0,0.0,250,17,,6.21,30.059055,,,,,,TRUE,,,,,FEW,2600,,,,,,,VFR,,,,,,,,,,,,METAR,1892.0
ZLXY 240700Z 05005MPS 010V080 6000 NSC 20/06 Q1019 NOSIG,ZLXY,2018-03-24T07:00:00Z,34.43,108.75,20.0,6.0,50,10,,3.73,30.088583,,,,,,TRUE,,,,,CLR,,,,,,,,MVFR,,,,,,,,,,,,METAR,479.0
ZGSZ 240700Z 21004MPS 7000 SCT027 23/19 Q1017 NOSIG,ZGSZ,2018-03-24T07:00:00Z,22.63,113.8,23.0,19.0,210,8,,4.35,30.029528,,,,,,TRUE,,,,,SCT,2700,,,,,,,MVFR,,,,,,,,,,,,METAR,18.0
ZGOW 240700Z 12005MPS 9999 SCT033 26/06 Q1018 NOSIG,ZGOW,2018-03-24T07:00:00Z,23.55,116.5,26.0,6.0,120,10,,6.21,30.059055,,,,,,TRUE,,,,,SCT,3300,,,,,,,VFR,,,,,,,,,,,,METAR,3.0
ZGNN 240700Z 16002MPS 8000 -RA SCT008 OVC030 20/19 Q1016 NOSIG,ZGNN,2018-03-24T07:00:00Z,22.62,108.17,20.0,19.0,160,4,,4.97,30.0,,,,,,TRUE,,,,-RA,SCT,800,OVC,3000,,,,,MVFR,,,,,,,,,,,,METAR,73.0
ZGKL 240700Z 00000MPS 3000 -RA BR BKN033 OVC050 17/16 Q1017 BECMG TL0800 2500,ZGKL,2018-03-24T07:00:00Z,25.22,110.03,17.0,16.0,0,0,,1.86,30.029528,,,,,,,,,,-RA BR,BKN,3300,OVC,5000,,,,,IFR,,,,,,,,,,,,METAR,166.0
FQQL 240700Z 02006KT 9999 SCT020 29/24 Q1012,FQQL,2018-03-24T07:00:00Z,-17.87,36.87,29.0,24.0,20,6,,6.21,29.88189,,,,,,,,,,,SCT,2000,,,,,,,VFR,,,,,,,,,,,,METAR,16.0
FQPB 240700Z 24005KT 9999 BKN020 BKN/// 28/25 Q1013,FQPB,2018-03-24T07:00:00Z,-12.97,40.5,28.0,25.0,240,5,,6.21,29.911417,,,,,,,,,,,BKN,2000,,,,,,,MVFR,,,,,,,,,,,,METAR,50.0
FQCH 240700Z 34008KT 9999 BKN015 24/21 Q1017,FQCH,2018-03-24T07:00:00Z,-19.15,33.43,24.0,21.0,340,8,,6.21,30.029528,,,,,,,,,,,BKN,1500,,,,,,,MVFR,,,,,,,,,,,,METAR,732.0
FYWE 240700Z 00000KT 9999 FEW035 20/12 Q1020,FYWE,2018-03-24T07:00:00Z,-22.62,17.08,20.0,12.0,0,0,,6.21,30.11811,,,,,,,,,,,FEW,3500,,,,,,,VFR,,,,,,,,,,,,METAR,1700.0
ZWSH 240700Z VRB02MPS CAVOK 21/M14 Q1018 NOSIG,ZWSH,2018-03-24T07:00:00Z,39.55,76.02,21.0,-14.0,0,4,,6.21,30.059055,,,,,,TRUE,,,,,CAVOK,,,,,,,,VFR,,,,,,,,,,,,METAR,1380.0
AYPY 240700Z 20010KT 9999 SCT050 31/23 Q1004 RMK: CB TO NW/N,AYPY,2018-03-24T07:00:00Z,-9.42,147.22,31.0,23.0,200,10,,6.21,29.64567,,,,,,,,,,,SCT,5000,,,,,,,VFR,,,,,,,,,,,,METAR,47.0
YRMD 240700Z AUTO 08010KT 9999 // NCD 29/20 Q1008,YRMD,2018-03-24T07:00:00Z,-20.7,143.12,29.0,20.0,80,10,,6.21,29.763779,,,TRUE,,,,,,,,CLR,,,,,,,,VFR,,,,,,,,,,,,METAR,207.0
CWYY 240700Z AUTO 08001KT 01/M01 RMK AO1 SLP096 T00131006 56009,CWYY,2018-03-24T07:00:00Z,49.03,-119.43,1.3,-0.6,80,1,,,,1009.6,,TRUE,TRUE,,,,,,,,,,,,,,,,-0.9,,,,,,,,,,,METAR,283.0
UAKD 240700Z 26008MPS 9999 BKN015CB M04/M06 Q1019 R22/99//40 NOSIG RMK QFE731/0975,UAKD,2018-03-24T07:00:00Z,47.7,67.73,-4.0,-6.0,260,16,,6.21,30.088583,,,,,,TRUE,,,,,BKN,1500,,,,,,,MVFR,,,,,,,,,,,,METAR,381.0
UMBB 240700Z 10003MPS 7000 NSC 01/M01 Q1009 NOSIG,UMBB,2018-03-24T07:00:00Z,52.12,23.9,1.0,-1.0,100,6,,4.35,29.793306,,,,,,TRUE,,,,,CLR,,,,,,,,MVFR,,,,,,,,,,,,METAR,143.0
SARC 240700Z 02008KT 9999 FEW056CB 28/24 Q1005,SARC,2018-03-24T07:00:00Z,-27.43,-58.77,28.0,24.0,20,8,,6.21,29.675198,,,,,,,,,,,FEW,5600,,,,,,,VFR,,,,,,,,,,,,METAR,62.0
UCFL 240700Z 10003MPS 070V150 9999 BKN130 10/01 Q1020 R07/CLRD70 RMK G/O,UCFL,2018-03-24T07:00:00Z,42.58,76.7,10.0,1.0,100,6,,6.21,30.11811,,,,,,,,,,,BKN,13000,,,,,,,VFR,,,,,,,,,,,,METAR,1648.0
SBSG 240700Z 25004KT 220V280 9999 FEW019 24/23 Q1010,SBSG,2018-03-24T07:00:00Z,-5.77,-35.37,24.0,23.0,250,4,,6.21,29.822834,,,,,,,,,,,FEW,1900,,,,,,,VFR,,,,,,,,,,,,METAR,83.0
SBBE 240700Z 16005KT 4000 BR OVC004 24/23 Q1010,SBBE,2018-03-24T07:00:00Z,-1.37,-48.47,24.0,23.0,160,5,,2.49,29.822834,,,,,,,,,,BR,OVC,400,,,,,,,LIFR,,,,,,,,,,,,METAR,16.0
SAWE 240700Z 23005KT CAVOK M01/M02 Q1014,SAWE,2018-03-24T07:00:00Z,-53.78,-67.75,-1.0,-2.0,230,5,,6.21,29.940945,,,,,,,,,,,CAVOK,,,,,,,,VFR,,,,,,,,,,,,METAR,22.0
SARE 240700Z 36004KT 9999 FEW056CB SCT100 27/24 Q1004,SARE,2018-03-24T07:00:00Z,-27.43,-59.03,27.0,24.0,360,4,,6.21,29.64567,,,,,,,,,,,FEW,5600,SCT,10000,,,,,VFR,,,,,,,,,,,,METAR,52.0
FOON 240700Z 00000KT 9999 SCT004 24/23 Q1013,FOON,2018-03-24T07:00:00Z,-1.63,13.42,24.0,23.0,0,0,,6.21,29.911417,,,,,,,,,,,SCT,400,,,,,,,VFR,,,,,,,,,,,,SPECI,441.0
FOOG 240700Z 00000KT 9999 FEW010 FEW020CB 28/24 Q1011,FOOG,2018-03-24T07:00:00Z,-0.7,8.75,28.0,24.0,0,0,,6.21,29.852362,,,,,,,,,,,FEW,1000,FEW,2000,,,,,VFR,,,,,,,,,,,,SPECI,4.0
OPRN 240700Z 31016KT CAVOK NSC 28/13 Q1017 NOSIG RMK A3006,OPRN,2018-03-24T07:00:00Z,33.62,73.08,28.0,13.0,310,16,,6.21,30.029528,,,,,,TRUE,,,,,CLR,,,,,,,,VFR,,,,,,,,,,,,METAR,508.0
OPNH 240700Z 13508KT 6000 NSC 36/12 Q1014 NOSIG,OPNH,2018-03-24T07:00:00Z,26.22,68.37,36.0,12.0,135,8,,3.73,29.940945,,,,,,TRUE,,,,,CLR,,,,,,,,MVFR,,,,,,,,,,,,METAR,38.0
UMOO 240700Z 02002MPS 8000 NSC M05/M07 Q1007 NOSIG,UMOO,2018-03-24T07:00:00Z,53.95,30.1,-5.0,-7.0,20,4,,4.97,29.734253,,,,,,TRUE,,,,,CLR,,,,,,,,MVFR,,,,,,,,,,,,METAR,194.0
FDJR 240700Z AUTO 33005KT //// // ////// 23/13 Q1014,FDJR,2018-03-24T07:00:00Z,-27.17,31.43,23.0,13.0,330,5,,,29.940945,,,TRUE,,,,,,,,,,,,,,,,,,,,,,,,,,,,METAR,701.0
SLLP 240700Z 35003KT 9999 FEW070 BKN200 06/02 Q1035,SLLP,2018-03-24T07:00:00Z,-16.52,-68.17,6.0,2.0,350,3,,6.21,30.561024,,,,,,,,,,,FEW,7000,BKN,20000,,,,,VFR,,,,,,,,,,,,METAR,4014.0
SLCB 240700Z 00000KT 9999 NSC 13/11 Q1019,SLCB,2018-03-24T07:00:00Z,-17.42,-66.18,13.0,11.0,0,0,,6.21,30.088583,,,,,,,,,,,CLR,,,,,,,,VFR,,,,,,,,,,,,METAR,2548.0
SLVR 240700Z 36010G20KT 9999 FEW013 BKN023 25/23 Q1008,SLVR,2018-03-24T07:00:00Z,-17.63,-63.12,25.0,23.0,360,10,20,6.21,29.763779,,,,,,,,,,,FEW,1300,BKN,2300,,,,,MVFR,,,,,,,,,,,,METAR,373.0
FAJB 240700Z AUTO 32001KT //// // ////// 17/14 Q1019,FAJB,2018-03-24T07:00:00Z,-26.15,28.0,17.0,14.0,320,1,,,30.088583,,,TRUE,,,,,,,,,,,,,,,,,,,,,,,,,,,,METAR,1626.0
FAVV 240700Z AUTO /////KT //// // ////// 19/15 Q1018,FAVV,2018-03-24T07:00:00Z,-26.57,27.97,19.0,15.0,,,,,30.059055,,,TRUE,,,,,,,,,,,,,,,,,,,,,,,,,,,,METAR,1483.0
RJTO 240700Z 22006KT 190V260 9999 FEW025 BKN/// 15/07 Q1017,RJTO,2018-03-24T07:00:00Z,34.77,139.37,15.0,7.0,220,6,,6.21,30.029528,,,,,,,,,,,FEW,2500,,,,,,,VFR,,,,,,,,,,,,METAR,41.0
CWZO 240700Z AUTO 00014KT RMK AO1,CWZO,2018-03-24T07:00:00Z,48.55,-123.23,,,0,14,,,,,,TRUE,TRUE,,,,,,,,,,,,,,,,,,,,,,,,,,,METAR,1.0
WMKJ 240700Z 05010KT 350V080 9999 FEW017CB SCT018 BKN280 33/24 Q1008,WMKJ,2018-03-24T07:00:00Z,1.62,103.67,33.0,24.0,50,10,,6.21,29.763779,,,,,,,,,,,FEW,1700,SCT,1800,BKN,28000,,,VFR,,,,,,,,,,,,METAR,40.0
WBGB 240700Z 35010KT 260V040 9999 SCT014 FEW015CB BKN150 29/28 Q1008,WBGB,2018-03-24T07:00:00Z,3.12,113.02,29.0,28.0,350,10,,6.21,29.763779,,,,,,,,,,,SCT,1400,FEW,1500,BKN,15000,,,VFR,,,,,,,,,,,,METAR,5.0
EIME 240700Z 33003KT 9999 FEW007 SCT042 03/02 Q1002,EIME,2018-03-24T07:00:00Z,53.3,-6.45,3.0,2.0,330,3,,6.21,29.586615,,,,,,,,,,,FEW,700,SCT,4200,,,,,VFR,,,,,,,,,,,,METAR,93.0
TGPY 240700Z 00000KT 9999 FEW019 25/21 Q1013,TGPY,2018-03-24T07:00:00Z,12.0,-61.78,25.0,21.0,0,0,,6.21,29.911417,,,,,,,,,,,FEW,1900,,,,,,,VFR,,,,,,,,,,,,METAR,7.0
FMCH 250700Z VRB02KT 9999 FEW020CB SCT030 31/23 Q1013 NOSIG,FMCH,2018-03-24T07:00:00Z,-11.52,43.27,31.0,23.0,0,2,,6.21,29.911417,,,,,,TRUE,,,,,FEW,2000,SCT,3000,,,,,VFR,,,,,,,,,,,,METAR,29.0
NGTA 240700Z 09016KT 9999 SCT019 28/26 Q1008,NGTA,2018-03-24T07:00:00Z,1.37,173.13,28.0,26.0,90,16,,6.21,29.763779,,,,,,,,,,,SCT,1900,,,,,,,VFR,,,,,,,,,,,,METAR,2.0
WMSA 240700Z VRB05KT 9999 FEW016 BKN280 34/21 Q1008,WMSA,2018-03-24T07:00:00Z,3.13,101.55,34.0,21.0,0,5,,6.21,29.763779,,,,,,,,,,,FEW,1600,BKN,28000,,,,,VFR,,,,,,,,,,,,METAR,27.0
RJFK 240700Z 31013KT 9999 FEW040 BKN/// 17/00 Q1020,RJFK,2018-03-24T07:00:00Z,31.8,130.72,17.0,0.0,310,13,,6.21,30.11811,,,,,,,,,,,FEW,4000,,,,,,,VFR,,,,,,,,,,,,METAR,275.0
RJOO 240700Z 21008KT 150V250 9999 FEW035 15/M04 Q1018 RMK 1CU035 A3006,RJOO,2018-03-24T07:00:00Z,34.77,135.43,15.0,-4.0,210,8,,6.21,30.059055,,,,,,,,,,,FEW,3500,,,,,,,VFR,,,,,,,,,,,,METAR,15.0
RJSN 240700Z 27009KT 9999 FEW030 BKN/// 10/03 Q1018,RJSN,2018-03-24T07:00:00Z,37.95,139.12,10.0,3.0,270,9,,6.21,30.059055,,,,,,,,,,,FEW,3000,,,,,,,VFR,,,,,,,,,,,,METAR,4.0
LIPU 240700Z VRB03KT CAVOK 06/01 Q1004,LIPU,2018-03-24T07:00:00Z,45.38,11.83,6.0,1.0,0,3,,6.21,29.64567,,,,,,,,,,,CAVOK,,,,,,,,VFR,,,,,,,,,,,,SPECI,14.0
RJFU 240700Z 34010KT CAVOK 15/05 Q1021,RJFU,2018-03-24T07:00:00Z,32.92,129.92,15.0,5.0,340,10,,6.21,30.147638,,,,,,,,,,,CAVOK,,,,,,,,VFR,,,,,,,,,,,,METAR,5.0
RJFT 240700Z 25006KT 200V340 9999 FEW040 17/01 Q1021,RJFT,2018-03-24T07:00:00Z,32.82,130.83,17.0,1.0,250,6,,6.21,30.147638,,,,,,,,,,,FEW,4000,,,,,,,VFR,,,,,,,,,,,,METAR,196.0
RJNK 240700Z 25013KT 9999 FEW030 SCT120 BKN210 13/M03 Q1018,RJNK,2018-03-24T07:00:00Z,36.37,136.42,13.0,-3.0,250,13,,6.21,30.059055,,,,,,,,,,,FEW,3000,SCT,12000,BKN,21000,,,VFR,,,,,,,,,,,,METAR,9.0
RJOB 240700Z 22012KT 9999 FEW025 14/04 Q1017,RJOB,2018-03-24T07:00:00Z,34.75,133.83,14.0,4.0,220,12,,6.21,30.029528,,,,,,,,,,,FEW,2500,,,,,,,VFR,,,,,,,,,,,,METAR,242.0
RJOA 240700Z 20007KT 160V250 9999 FEW020 13/04 Q1018,RJOA,2018-03-24T07:00:00Z,34.42,132.92,13.0,4.0,200,7,,6.21,30.059055,,,,,,,,,,,FEW,2000,,,,,,,VFR,,,,,,,,,,,,METAR,6.0
RJOT 240700Z 23007KT 9999 FEW025 15/M00 Q1018,RJOT,2018-03-24T07:00:00Z,34.22,134.02,15.0,0.0,230,7,,6.21,30.059055,,,,,,,,,,,FEW,2500,,,,,,,VFR,,,,,,,,,,,,METAR,188.0
RJSS 240700Z 14010KT 9999 FEW030 BKN/// 10/01 Q1018,RJSS,2018-03-24T07:00:00Z,38.12,140.92,10.0,1.0,140,10,,6.21,30.059055,,,,,,,,,,,FEW,3000,,,,,,,VFR,,,,,,,,,,,,METAR,5.0
LPOV 240700Z 34019G39KT 9999 SCT015 10/06 Q1010,LPOV,2018-03-24T07:00:00Z,40.92,-8.65,10.0,6.0,340,19,39,6.21,29.822834,,,,,,,,,,,SCT,1500,,,,,,,VFR,,,,,,,,,,,,METAR,17.0
RJCH 240700Z 23016KT 9999 FEW030 08/01 Q1015,RJCH,2018-03-24T07:00:00Z,41.77,140.82,8.0,1.0,230,16,,6.21,29.970472,,,,,,,,,,,FEW,3000,,,,,,,VFR,,,,,,,,,,,,METAR,36.0
LPMR 240700Z 34010KT 9999 SCT022 SCT035 10/06 Q1013,LPMR,2018-03-24T07:00:00Z,39.82,-8.87,10.0,6.0,340,10,,6.21,29.911417,,,,,,,,,,,SCT,2200,SCT,3500,,,,,VFR,,,,,,,,,,,,METAR,54.0
RORS 240700Z 07009KT 9999 SCT044 21/10 Q1020,RORS,2018-03-24T07:00:00Z,24.82,125.15,21.0,10.0,70,9,,6.21,30.11811,,,,,,,,,,,SCT,4400,,,,,,,VFR,,,,,,,,,,,,METAR,16.0
ROYN 240700Z AUTO 08009KT 030V110 9999 NCD 22/10 Q1019,ROYN,2018-03-24T07:00:00Z,24.47,122.97,22.0,10.0,80,9,,6.21,30.088583,,,TRUE,,,,,,,,CLR,,,,,,,,VFR,,,,,,,,,,,,METAR,17.0
RORY 240700Z AUTO 01005KT 350V050 9999 FEW041 20/11 Q1022,RORY,2018-03-24T07:00:00Z,27.05,128.4,20.0,11.0,10,5,,6.21,30.177166,,,TRUE,,,,,,,,FEW,4100,,,,,,,VFR,,,,,,,,,,,,METAR,16.0
RJFO 240700Z 19006KT CAVOK 14/06 Q1020,RJFO,2018-03-24T07:00:00Z,33.47,131.72,14.0,6.0,190,6,,6.21,30.11811,,,,,,,,,,,CAVOK,,,,,,,,VFR,,,,,,,,,,,,METAR,8.0
LPMT 240700Z 26006KT 230V290 9999 FEW035 SCT048 10/06 Q1015,LPMT,2018-03-24T07:00:00Z,38.7,-9.05,10.0,6.0,260,6,,6.21,29.970472,,,,,,,,,,,FEW,3500,SCT,4800,,,,,VFR,,,,,,,,,,,,METAR,11.0
RJNT 240700Z 28008KT 9999 FEW030 BKN140 BKN/// 13/03 Q1018,RJNT,2018-03-24T07:00:00Z,36.63,137.17,13.0,3.0,280,8,,6.21,30.059055,,,,,,,,,,,FEW,3000,BKN,14000,,,,,VFR,,,,,,,,,,,,METAR,27.0
RJCM 240700Z 07006KT 9999 FEW060 SCT090 03/M06 Q1012,RJCM,2018-03-24T07:00:00Z,43.88,144.17,3.0,-6.0,70,6,,6.21,29.88189,,,,,,,,,,,FEW,6000,SCT,9000,,,,,VFR,,,,,,,,,,,,METAR,36.0
RJCK 240700Z 17010KT 9999 FEW030 03/M07 Q1013,RJCK,2018-03-24T07:00:00Z,43.02,144.18,3.0,-7.0,170,10,,6.21,29.911417,,,,,,,,,,,FEW,3000,,,,,,,VFR,,,,,,,,,,,,METAR,98.0
RJAH 240700Z 12010KT 9999 FEW040 SCT170 BKN230 13/03 Q1017,RJAH,2018-03-24T07:00:00Z,36.17,140.42,13.0,3.0,120,10,,6.21,30.029528,,,,,,,,,,,FEW,4000,SCT,17000,BKN,23000,,,VFR,,,,,,,,,,,,METAR,35.0
RJSK 240700Z 26008KT 210V300 9999 FEW030 BKN/// 09/M00 Q1017,RJSK,2018-03-24T07:00:00Z,39.62,140.22,9.0,0.0,260,8,,6.21,30.029528,,,,,,,,,,,FEW,3000,,,,,,,VFR,,,,,,,,,,,,METAR,96.0
RJFR 240700Z 34012KT 9999 FEW030 16/02 Q1020,RJFR,2018-03-24T07:00:00Z,33.82,131.03,16.0,2.0,340,12,,6.21,30.11811,,,,,,,,,,,FEW,3000,,,,,,,VFR,,,,,,,,,,,,METAR,6.0
RJEC 240700Z 27006KT 9999 FEW050 05/M05 Q1012,RJEC,2018-03-24T07:00:00Z,43.67,142.43,5.0,-5.0,270,6,,6.21,29.88189,,,,,,,,,,,FEW,5000,,,,,,,VFR,,,,,,,,,,,,METAR,211.0
RJFM 240700Z 11008KT 9999 FEW020 18/04 Q1019,RJFM,2018-03-24T07:00:00Z,31.87,131.43,18.0,4.0,110,8,,6.21,30.088583,,,,,,,,,,,FEW,2000,,,,,,,VFR,,,,,,,,,,,,METAR,9.0
RJOK 240700Z 13005KT 100V160 9999 FEW030 16/03 Q1018,RJOK,2018-03-24T07:00:00Z,33.52,133.67,16.0,3.0,130,5,,6.21,30.059055,,,,,,,,,,,FEW,3000,,,,,,,VFR,,,,,,,,,,,,METAR,10.0
RJOM 240700Z 20009KT 9999 FEW030 14/05 Q1020,RJOM,2018-03-24T07:00:00Z,33.82,132.68,14.0,5.0,200,9,,6.21,30.11811,,,,,,,,,,,FEW,3000,,,,,,,VFR,,,,,,,,,,,,METAR,7.0
RJSF 240700Z 36005KT 9999 FEW050 SCT070 BKN/// 11/M00 Q1016,RJSF,2018-03-24T07:00:00Z,37.22,140.42,11.0,0.0,360,5,,6.21,30.0,,,,,,,,,,,FEW,5000,SCT,7000,,,,,VFR,,,,,,,,,,,,METAR,375.0
RJSA 240700Z 20013KT 9999 FEW030 SCT045 08/M03 Q1015,RJSA,2018-03-24T07:00:00Z,40.72,140.68,8.0,-3.0,200,13,,6.21,29.970472,,,,,,,,,,,FEW,3000,SCT,4500,,,,,VFR,,,,,,,,,,,,METAR,201.0
RJNS 240700Z 24011KT 200V270 9999 FEW030 SCT180 BKN/// 16/M04 Q1016,RJNS,2018-03-24T07:00:00Z,34.8,138.18,16.0,-4.0,240,11,,6.21,30.0,,,,,,,,,,,FEW,3000,SCT,18000,,,,,VFR,,,,,,,,,,,,METAR,135.0
CYQH 240700Z 12007KT 10SM -SN SCT020 OVC028 M09/M11 A2972 RMK SC4SC4 SLP116,CYQH,2018-03-24T07:00:00Z,60.12,-128.82,-9.0,-11.0,120,7,,10.0,29.719488,1011.6,,,,,,,,,-SN,SCT,2000,OVC,2800,,,,,MVFR,,,,,,,,,,,,METAR,690.0
CYLW 240700Z AUTO 35009KT 9SM OVC055 00/00 A2977 RMK SLP098,CYLW,2018-03-24T07:00:00Z,49.95,-119.37,0.0,0.0,350,9,,9.0,29.769686,1009.8,,TRUE,,,,,,,,OVC,5500,,,,,,,VFR,,,,,,,,,,,,METAR,430.0
CYKA 240700Z 00000KT 20SM SCT170 01/M03 A2978 RMK AC3 SLP099,CYKA,2018-03-24T07:00:00Z,50.7,-120.45,1.0,-3.0,0,0,,20.0,29.778543,1009.9,,,,,,,,,,SCT,17000,,,,,,,VFR,,,,,,,,,,,,METAR,346.0
CYIN 240700Z AUTO 20004KT 180V250 9SM OVC160 M04/M11 A2964 RMK SLP076,CYIN,2018-03-24T07:00:00Z,51.27,-121.68,-4.0,-11.0,200,4,,9.0,29.639763,1007.6,,TRUE,,,,,,,,OVC,16000,,,,,,,VFR,,,,,,,,,,,,METAR,1128.0
CYDL 240700Z AUTO 00000KT 9SM -SN OVC065 M12/M14 A2965 RMK SLP088,CYDL,2018-03-24T07:00:00Z,58.42,-130.02,-12.0,-14.0,0,0,,9.0,29.648623,1008.8,,TRUE,,,,,,,-SN,OVC,6500,,,,,,,VFR,,,,,,,,,,,,METAR,816.0
CBBC 240700Z AUTO 19002KT 9SM CLR M00/M01 A2978 RMK SLP087,CBBC,2018-03-24T07:00:00Z,52.18,-128.15,0.0,-1.0,190,2,,9.0,29.778543,1008.7,,TRUE,,,,,,,,CLR,,,,,,,,VFR,,,,,,,,,,,,METAR,43.0
CYWG 240700Z 15017G26KT 15SM OVC056 01/M06 A3023 RMK SC8 SLP249,CYWG,2018-03-24T07:00:00Z,49.88,-97.22,1.0,-6.0,150,17,26,15.0,30.230314,1024.9,,,,,,,,,,OVC,5600,,,,,,,VFR,,,,,,,,,,,,METAR,239.0
RPLI 240700Z 35008KT 8000 FEW019 BKN290 31/17 Q1010 NOSIG RMK A2983,RPLI,2018-03-24T07:00:00Z,18.17,120.52,31.0,17.0,350,8,,4.97,29.822834,,,,,,TRUE,,,,,FEW,1900,BKN,29000,,,,,MVFR,,,,,,,,,,,,METAR,5.0
RPLB 240700Z 08012KT 9999 FEW020 SCT300 32/16 Q1011 NOSIG RMK A2985,RPLB,2018-03-24T07:00:00Z,14.8,120.27,32.0,16.0,80,12,,6.21,29.852362,,,,,,TRUE,,,,,FEW,2000,SCT,30000,,,,,VFR,,,,,,,,,,,,METAR,17.0
"RPMD 240700Z 36010KT 310V020 9999 FEW015CB SCTN090 BKN290 31/23 Q1008 RETS RERA RMK A2977 CB N,SSE AND SW",RPMD,2018-03-24T07:00:00Z,7.12,125.65,31.0,23.0,360,10,,6.21,29.763779,,,,,,,,,,RA,FEW,1500,BKN,29000,,,,,VFR,,,,,,,,,,,,METAR,18.0
RPVM 240700Z 03015KT 9999 FEW020 BKN100 28/24 Q1010 RESHRA NOSIG A2983,RPVM,2018-03-24T07:00:00Z,10.32,123.98,28.0,24.0,30,15,,6.21,29.822834,,,,,,TRUE,,,,,FEW,2000,BKN,10000,,,,,VFR,,,,,,,,,,,,METAR,10.0
RPLL 240700Z 10013KT 060V130 9999 FEW023 30/17 Q1012 NOSIG RMK A2988,RPLL,2018-03-24T07:00:00Z,14.52,121.0,30.0,17.0,100,13,,6.21,29.88189,,,,,,TRUE,,,,,FEW,2300,,,,,,,VFR,,,,,,,,,,,,METAR,21.0
TTPP 240700Z 00000KT 9999 FEW015 ///// Q1012 NOSIG,TTPP,2018-03-24T07:00:00Z,10.58,-61.35,,,0,0,,6.21,29.88189,,,,,,TRUE,,,,,FEW,1500,,,,,,,VFR,,,,,,,,,,,,SPECI,15.0
OIFK 240700Z 00000KT 8000 NSC 24/M05 Q1019,OIFK,2018-03-24T07:00:00Z,33.9,51.58,24.0,-5.0,0,0,,4.97,30.088583,,,,,,,,,,,CLR,,,,,,,,MVFR,,,,,,,,,,,,METAR,982.0
YAYT 240700Z 00000KT CAVOK 23/03 Q1021,YAYT,2018-03-24T07:00:00Z,,,23.0,3.0,0,0,,6.21,30.147638,,,,,,,,,,,CAVOK,,,,,,,,VFR,,,,,,,,,,,,METAR,
SESG 240700Z 16004KT 9000 NSC 23/M06 Q1021,SESG,2018-03-24T07:00:00Z,,,23.0,-6.0,160,4,,5.59,30.147638,,,,,,,,,,,CLR,,,,,,,,VFR,,,,,,,,,,,,METAR,
OISA 240700Z 00000KT CAVOK 20/M15 Q1027,OISA,2018-03-24T07:00:00Z,31.03,52.78,20.0,-15.0,0,0,,6.21,30.324802,,,,,,,,,,,CAVOK,,,,,,,,VFR,,,,,,,,,,,,METAR,2004.0
OINK 240700Z 04012KT 6000 SCT025 27/14 Q1008,OINK,2018-03-24T07:00:00Z,37.25,55.1,27.0,14.0,40,12,,3.73,29.763779,,,,,,,,,,,SCT,2500,,,,,,,MVFR,,,,,,,,,,,,METAR,33.0
OINB 240700Z 01004KT 8000 OVC020 15/12 Q1009,OINB,2018-03-24T07:00:00Z,36.72,52.65,15.0,12.0,10,4,,4.97,29.793306,,,,,,,,,,,OVC,2000,,,,,,,MVFR,,,,,,,,,,,,METAR,-15.0
RJAW 240700Z 03015KT 9999 SCT015 21/13 Q1017 RMK 3CU015 A3004,RJAW,2018-03-24T07:00:00Z,24.77,141.32,21.0,13.0,30,15,,6.21,30.029528,,,,,,,,,,,SCT,1500,,,,,,,VFR,,,,,,,,,,,,METAR,116.0
RJFS 240700Z 17009KT 040V190 9999 FEW040 15/09 Q1021,RJFS,2018-03-24T07:00:00Z,33.15,130.3,15.0,9.0,170,9,,6.21,30.147638,,,,,,,,,,,FEW,4000,,,,,,,VFR,,,,,,,,,,,,METAR,5.0
ROIG 240700Z 07009KT 040V110 9999 SCT045 21/09 Q1020,ROIG,2018-03-24T07:00:00Z,24.32,124.17,21.0,9.0,70,9,,6.21,30.11811,,,,,,,,,,,SCT,4500,,,,,,,VFR,,,,,,,,,,,,METAR,7.0
RJOH 240700Z 25022KT 9999 FEW040 15/02 Q1018,RJOH,2018-03-24T07:00:00Z,35.47,133.25,15.0,2.0,250,22,,6.21,30.059055,,,,,,,,,,,FEW,4000,,,,,,,VFR,,,,,,,,,,,,METAR,9.0
RJOC 240700Z 25018KT 9999 FEW030 14/04 Q1018,RJOC,2018-03-24T07:00:00Z,35.42,132.87,14.0,4.0,250,18,,6.21,30.059055,,,,,,,,,,,FEW,3000,,,,,,,VFR,,,,,,,,,,,,METAR,5.0
RJCB 240700Z VRB02KT 9999 FEW060 04/M03 Q1013,RJCB,2018-03-24T07:00:00Z,42.72,143.22,4.0,-3.0,0,2,,6.21,29.911417,,,,,,,,,,,FEW,6000,,,,,,,VFR,,,,,,,,,,,,METAR,152.0
UHMA 240700Z 15006MPS 9999 SCT013 BKN100 M05/M06 Q0992 RMK END R01/15008MPS MT OBSC QFE740/0987,UHMA,2018-03-24T07:00:00Z,64.73,177.73,-5.0,-6.0,150,12,,6.21,29.291338,,,,,,,,,,,SCT,1300,BKN,10000,,,,,VFR,,,,,,,,,,,,METAR,62.0
UHPP 240700Z 35005MPS 9999 NSC M02/M15 Q1004 R34L/CLRD70 NOSIG RMK QFE749/0999,UHPP,2018-03-24T07:00:00Z,53.17,158.45,-2.0,-15.0,350,10,,6.21,29.64567,,,,,,TRUE,,,,,CLR,,,,,,,,VFR,,,,,,,,,,,,METAR,40.0
FAOB 240700Z AUTO 35005KT //// // ////// 20/12 Q1009,FAOB,2018-03-24T07:00:00Z,-34.6,20.27,20.0,12.0,350,5,,,29.793306,,,TRUE,,,,,,,,,,,,,,,,,,,,,,,,,,,,METAR,75.0
FALW 240700Z AUTO 24003KT //// // ////// 17/12 Q1010,FALW,2018-03-24T07:00:00Z,-32.97,18.17,17.0,12.0,240,3,,,29.822834,,,TRUE,,,,,,,,,,,,,,,,,,,,,,,,,,,,METAR,0.0
FABL 240700Z 02003KT 340V070 9999 SCT015 17/15 Q1017 NOSIG,FABL,2018-03-24T07:00:00Z,-29.1,26.3,17.0,15.0,20,3,,6.21,30.029528,,,,,,TRUE,,,,,SCT,1500,,,,,,,VFR,,,,,,,,,,,,METAR,1348.0
CWDZ 240700Z AUTO 21013KT 02/M06 RMK AO1 PK WND 22022/0646 T00181058,CWDZ,2018-03-24T07:00:00Z,51.42,-112.67,1.8,-5.8,210,13,,,,,,TRUE,TRUE,,,,,,,,,,,,,,,,,,,,,,,,,,,METAR,678.0
CWDK 240700Z AUTO 20007KT M01/M06 RMK AO1 SOG 05 8015 SLP101 T10051059,CWDK,2018-03-24T07:00:00Z,50.02,-113.62,-0.5,-5.9,200,7,,,,1010.1,,TRUE,TRUE,,,,,,,,,,,,,,,,,,,,,,,,,,,METAR,1012.0
CWDJ 240700Z AUTO 15008KT M02/M03 RMK AO1 SOG 14 8012 SLP160 T10171031,CWDJ,2018-03-24T07:00:00Z,50.4,-104.58,-1.7,-3.1,150,8,,,,1016.0,,TRUE,TRUE,,,,,,,,,,,,,,,,,,,,,,,,,,,METAR,573.0
CWCO 240700Z AUTO 02010KT M03/M11 RMK AO1 PK WND 00018/0647 SLP274 T10301113 50002,CWCO,2018-03-24T07:00:00Z,44.45,-80.17,-3.0,-11.3,20,10,,,,1027.4,,TRUE,TRUE,,,,,,,,,,,,,,,,0.2,,,,,,,,,,,METAR,221.0
CWCJ 240700Z AUTO 06007G15KT M12/M17 RMK AO1 SOG 51 3007 PK WND 06021/0608 SLP359 T11221174,CWCJ,2018-03-24T07:00:00Z,48.6,-86.28,-12.2,-17.4,60,7,15,,,1035.9,,TRUE,TRUE,,,,,,,,,,,,,,,,,,,,,,,,,,,METAR,206.0
CWCF 240700Z AUTO 12013G20KT M02/M11 RMK AO1 SOG 11 8011 PK WND 13020/0657 SLP261 T10191106,CWCF,2018-03-24T07:00:00Z,52.35,-97.03,-1.9,-10.6,120,13,20,,,1026.1,,TRUE,TRUE,,,,,,,,,,,,,,,,,,,,,,,,,,,METAR,222.0
CWBS 240700Z AUTO 34009KT M00/M08 RMK AO1 T10021080,CWBS,2018-03-24T07:00:00Z,46.18,-72.92,-0.2,-8.0,340,9,,,,,,TRUE,TRUE,,,,,,,,,,,,,,,,,,,,,,,,,,,METAR,16.0
CWBO 240700Z AUTO 17002KT M03/M06 RMK AO1 SOG 12 6010 SLP099 T10311055,CWBO,2018-03-24T07:00:00Z,50.53,-111.83,-3.1,-5.5,170,2,,,,1009.9,,TRUE,TRUE,,,,,,,,,,,,,,,,,,,,,,,,,,,METAR,747.0
CWBA 240700Z AUTO 36009G15KT M10/M15 RMK AO1 SOG 47 T11011154,CWBA,2018-03-24T07:00:00Z,46.72,-79.1,-10.1,-15.4,360,9,15,,,,,TRUE,TRUE,,,,,,,,,,,,,,,,,,,,,,,,,,,METAR,181.0
CWAV 240700Z AUTO 16003KT M04/M07 RMK AO1 SOG 40 0000 SLP071 T10401068,CWAV,2018-03-24T07:00:00Z,51.77,-114.67,-4.0,-6.8,160,3,,,,1007.1,,TRUE,TRUE,,,,,,,,,,,,,,,,,,,,,,,,,,,METAR,1114.0
CWAQ 240700Z AUTO 15004KT M08/M08 RMK AO1 2PAST HR SOG 01 3006 SLP165 P0001 T10771075 50002,CWAQ,2018-03-24T07:00:00Z,49.05,-105.48,-7.7,-7.5,150,4,,,,1016.5,,TRUE,TRUE,,,,,,,,,,,,,,,,0.2,,,,,0.01,,,,,,METAR,756.0
CWAF 240700Z AUTO 32014KT 01/M06 RMK AO1 PK WND 34019/0615 T00141058,CWAF,2018-03-24T07:00:00Z,48.07,-69.53,1.4,-5.8,320,14,,,,,,TRUE,TRUE,,,,,,,,,,,,,,,,,,,,,,,,,,,METAR,5.0
OIHH 240700Z 00000KT 6000 NSC 22/M04 Q1022,OIHH,2018-03-24T07:00:00Z,34.87,48.55,22.0,-4.0,0,0,,3.73,30.177166,,,,,,,,,,,CLR,,,,,,,,MVFR,,,,,,,,,,,,METAR,1757.0
CZZJ 240700Z AUTO 28003KT M03/M06 RMK AO1 SOG 28 0000 SLP058 T10281055,CZZJ,2018-03-24T07:00:00Z,53.58,-116.47,-2.8,-5.5,280,3,,,,1005.8,,TRUE,TRUE,,,,,,,,,,,,,,,,,,,,,,,,,,,METAR,927.0
CZTB 240700Z AUTO 10008KT M08/M16 RMK AO1 SOG 26 3008 SLP349 T10821161,CZTB,2018-03-24T07:00:00Z,48.37,-89.32,-8.2,-16.1,100,8,,,,1034.9,,TRUE,TRUE,,,,,,,,,,,,,,,,,,,,,,,,,,,METAR,199.0
CZMJ 240700Z AUTO 15008KT M05/M06 RMK AO1 SOG 09 8011 SLP159 T10511059,CZMJ,2018-03-24T07:00:00Z,50.33,-105.57,-5.1,-5.9,150,8,,,,1015.9,,TRUE,TRUE,,,,,,,,,,,,,,,,,,,,,,,,,,,METAR,577.0
CZKD 240700Z AUTO 16008KT M09/M15 RMK AO1 SOG 54 6028 SLP259 T10911147,CZKD,2018-03-24T07:00:00Z,56.03,-96.52,-9.1,-14.7,160,8,,,,1025.9,,TRUE,TRUE,,,,,,,,,,,,,,,,,,,,,,,,,,,METAR,183.0
CXZV 240700Z AUTO 10002KT M01/M02 RMK AO1 SOG 110 1012 SLP166 T10061015,CXZV,2018-03-24T07:00:00Z,50.22,-66.25,-0.6,-1.5,100,2,,,,1016.6,,TRUE,TRUE,,,,,,,,,,,,,,,,,,,,,,,,,,,METAR,52.0
CXVN 240700Z AUTO 01009KT M00/M06 RMK AO1 SOG 00 8001 SLP247 T10021055,CXVN,2018-03-24T07:00:00Z,43.18,-79.4,-0.2,-5.5,10,9,,,,1024.7,,TRUE,TRUE,,,,,,,,,,,,,,,,,,,,,,,,,,,METAR,79.0
CXTO 240700Z AUTO M01/M10 RMK AO1 SLP247 T10101104 50002,CXTO,2018-03-24T07:00:00Z,43.67,-79.4,-1.0,-10.4,,,,,,1024.7,,TRUE,TRUE,,,,,,,,,,,,,,,,0.2,,,,,,,,,,,METAR,113.0
CXTD 240700Z AUTO 31008KT M01/M02 RMK AO1 SOG 00 7004 SLP090 T10131015,CXTD,2018-03-24T07:00:00Z,45.62,-61.68,-1.3,-1.5,310,8,,,,1009.0,,TRUE,TRUE,,,,,,,,,,,,,,,,,,,,,,,,,,,METAR,68.0
CXRL 240700Z AUTO 10003KT M08/M08 RMK AO1 T10811081,CXRL,2018-03-24T07:00:00Z,54.5,-111.7,-8.1,-8.1,100,3,,,,,,TRUE,TRUE,,,,,,,,,,,,,,,,,,,,,,,,,,,METAR,585.0
CXLB 240700Z AUTO 29007KT 01/01 RMK AO1 SLP117 T00050005 58002,CXLB,2018-03-24T07:00:00Z,44.37,-64.3,0.5,0.5,290,7,,,,1011.7,,TRUE,TRUE,,,,,,,,,,,,,,,,-0.2,,,,,,,,,,,METAR,4.0
CXKM 240700Z AUTO 17014KT M01/M06 RMK AO1 PK WND 17018/0654 T10101060,CXKM,2018-03-24T07:00:00Z,52.82,-111.85,-1.0,-6.0,170,14,,,,,,TRUE,TRUE,,,,,,,,,,,,,,,,,,,,,,,,,,,METAR,675.0
CXKI 240700Z AUTO M16/M19 RMK AO1 SOG 34 2007 SLP340 T11631189,CXKI,2018-03-24T07:00:00Z,48.22,-80.0,-16.3,-18.9,,,,,,1034.0,,TRUE,TRUE,,,,,,,,,,,,,,,,,,,,,,,,,,,METAR,324.0
CXFR 240700Z AUTO 32003KT M12/M15 RMK AO1 T11191148,CXFR,2018-03-24T07:00:00Z,56.08,-118.43,-11.9,-14.8,320,3,,,,,,TRUE,TRUE,,,,,,,,,,,,,,,,,,,,,,,,,,,METAR,655.0
CXCP 240700Z AUTO 17001KT M05/M06 RMK AO1 T10481057,CXCP,2018-03-24T07:00:00Z,50.28,-113.35,-4.8,-5.7,170,1,,,,,,TRUE,TRUE,,,,,,,,,,,,,,,,,,,,,,,,,,,METAR,1006.0
CWBU 240700Z AUTO 18017G23KT M01/M03 RMK AO1 SOG 23 8024 PK WND 17025/0634 SLP166 T10121033,CWBU,2018-03-24T07:00:00Z,53.33,-104.02,-1.2,-3.3,180,17,23,,,1016.6,,TRUE,TRUE,,,,,,,,,,,,,,,,,,,,,,,,,,,METAR,373.0
CWWF 240700Z AUTO 16009KT M02/M03 RMK AO1 SOG 14 8007 SLP170 T10221031,CWWF,2018-03-24T07:00:00Z,49.7,-103.8,-2.2,-3.1,160,9,,,,1017.0,,TRUE,TRUE,,,,,,,,,,,,,,,,,,,,,,,,,,,METAR,589.0
CWWA 240700Z AUTO 07003KT 04/M01 RMK AO1 SLP085 T00351013 56005,CWWA,2018-03-24T07:00:00Z,49.35,-123.17,3.5,-1.3,70,3,,,,1008.5,,TRUE,TRUE,,,,,,,,,,,,,,,,-0.5,,,,,,,,,,,METAR,178.0
CWVU 240700Z AUTO 32003KT 03/M01 RMK AO1 SLP148 T00291006 50000,CWVU,2018-03-24T07:00:00Z,44.28,-66.33,2.9,-0.6,320,3,,,,1014.8,,TRUE,TRUE,,,,,,,,,,,,,,,,0.0,,,,,,,,,,,METAR,16.0
CWVQ 240700Z AUTO 33007KT M02/M08 RMK AO1 SOG 10 1011 SLP204 T10161082,CWVQ,2018-03-24T07:00:00Z,45.42,-73.92,-1.6,-8.2,330,7,,,,1020.4,,TRUE,TRUE,,,,,,,,,,,,,,,,,,,,,,,,,,,METAR,39.0
CWVP 240700Z AUTO 17005KT M02/M10 RMK AO1 SOG 44 8003 SLP124 T10191097,CWVP,2018-03-24T07:00:00Z,49.63,-109.52,-1.9,-9.7,170,5,,,,1012.4,,TRUE,TRUE,,,,,,,,,,,,,,,,,,,,,,,,,,,METAR,1271.0
CWVN 240700Z AUTO 22009KT M03/M04 RMK AO1 SOG 08 2008 SLP164 T10291037,CWVN,2018-03-24T07:00:00Z,49.07,-107.57,-2.9,-3.7,220,9,,,,1016.4,,TRUE,TRUE,,,,,,,,,,,,,,,,,,,,,,,,,,,METAR,785.0
CWVI 240700Z AUTO 14011KT 01/M03 RMK AO1 PK WND 15017/0637 SLP060 T00071033 58031,CWVI,2018-03-24T07:00:00Z,53.52,-112.1,0.7,-3.3,140,11,,,,1006.0,,TRUE,TRUE,,,,,,,,,,,,,,,,-3.1,,,,,,,,,,,METAR,639.0
CWUX 240700Z AUTO 27013KT M04/M09 RMK AO1 PK WND 26019/0601 SLP191 T10411092 52015,CWUX,2018-03-24T07:00:00Z,48.3,-70.93,-4.1,-9.2,270,13,,,,1019.1,,TRUE,TRUE,,,,,,,,,,,,,,,,1.5,,,,,,,,,,,METAR,135.0
CWUS 240700Z AUTO 30006KT M00/M03 RMK AO1 SLP097 T10041029 56005,CWUS,2018-03-24T07:00:00Z,49.57,-119.65,-0.4,-2.9,300,6,,,,1009.7,,TRUE,TRUE,,,,,,,,,,,,,,,,-0.5,,,,,,,,,,,METAR,454.0
CWTY 240700Z AUTO 36004KT M01/M08 RMK AO1 SLP186 T10101080 52010,CWTY,2018-03-24T07:00:00Z,46.35,-72.52,-1.0,-8.0,360,4,,,,1018.6,,TRUE,TRUE,,,,,,,,,,,,,,,,1.0,,,,,,,,,,,METAR,6.0
CWTT 240700Z AUTO 35005KT M01/M07 RMK AO1 T10081071,CWTT,2018-03-24T07:00:00Z,45.27,-72.17,-0.8,-7.1,350,5,,,,,,TRUE,TRUE,,,,,,,,,,,,,,,,,,,,,,,,,,,METAR,209.0
CWTN 240700Z AUTO 36008KT 01/M07 RMK AO1 SLP170 T00101074 52009,CWTN,2018-03-24T07:00:00Z,47.07,-70.78,1.0,-7.4,360,8,,,,1017.0,,TRUE,TRUE,,,,,,,,,,,,,,,,0.9,,,,,,,,,,,METAR,6.0
CWTG 240700Z AUTO 05007KT M01/M02 RMK AO1 SLP155 T10141015 53012,CWTG,2018-03-24T07:00:00Z,49.32,-67.37,-1.4,-1.5,50,7,,,,1015.5,,TRUE,TRUE,,,,,,,,,,,,,,,,1.2,,,,,,,,,,,METAR,5.0
CWTA 240700Z AUTO 01007KT M00/M09 RMK AO1 SOG 67 1010 SLP198 T10011094,CWTA,2018-03-24T07:00:00Z,45.5,-73.58,-0.1,-9.4,10,7,,,,1019.8,,TRUE,TRUE,,,,,,,,,,,,,,,,,,,,,,,,,,,METAR,63.0
DAUI 240700Z 00000KT CAVOK 04/M14 Q1017,DAUI,2018-03-24T07:00:00Z,27.25,2.52,4.0,-14.0,0,0,,6.21,30.029528,,,,,,,,,,,CAVOK,,,,,,,,VFR,,,,,,,,,,,,METAR,269.0
DAUE 240700Z 22008KT CAVOK 10/M04 Q1013,DAUE,2018-03-24T07:00:00Z,30.57,2.87,10.0,-4.0,220,8,,6.21,29.911417,,,,,,,,,,,CAVOK,,,,,,,,VFR,,,,,,,,,,,,METAR,397.0
DAOY 240700Z 29016KT CAVOK 05/01 Q1009,DAOY,2018-03-24T07:00:00Z,33.72,1.08,5.0,1.0,290,16,,6.21,29.793306,,,,,,,,,,,CAVOK,,,,,,,,VFR,,,,,,,,,,,,METAR,1347.0
DAOV 240700Z 25015KT 9999 BKN030 12/11 Q1005,DAOV,2018-03-24T07:00:00Z,35.2,0.15,12.0,11.0,250,15,,6.21,29.675198,,,,,,,,,,,BKN,3000,,,,,,,MVFR,,,,,,,,,,,,METAR,514.0
DAUT 240700Z 21017KT CAVOK 12/M05 Q1013,DAUT,2018-03-24T07:00:00Z,29.25,0.27,12.0,-5.0,210,17,,6.21,29.911417,,,,,,,,,,,CAVOK,,,,,,,,VFR,,,,,,,,,,,,METAR,312.0
DAUO 240700Z 26004KT 5000 FEW040 SCT100 10/02 Q1007,DAUO,2018-03-24T07:00:00Z,33.5,6.78,10.0,2.0,260,4,,3.11,29.734253,,,,,,,,,,,FEW,4000,SCT,10000,,,,,MVFR,,,,,,,,,,,,METAR,63.0
DAUK 240700Z 21004KT 4000 HZ SCT040 SCT100 11/02 Q1008,DAUK,2018-03-24T07:00:00Z,33.08,6.12,11.0,2.0,210,4,,2.49,29.763779,,,,,,,,,,HZ,SCT,4000,SCT,10000,,,,,IFR,,,,,,,,,,,,METAR,85.0
DATM 240700Z 03008KT CAVOK 08/M06 Q1017,DATM,2018-03-24T07:00:00Z,21.38,0.92,8.0,-6.0,30,8,,6.21,30.029528,,,,,,,,,,,CAVOK,,,,,,,,VFR,,,,,,,,,,,,METAR,396.0
DAFH 240700Z 22016KT 9999 BKN030 10/01 Q1009,DAFH,2018-03-24T07:00:00Z,32.93,3.32,10.0,1.0,220,16,,6.21,29.793306,,,,,,,,,,,BKN,3000,,,,,,,MVFR,,,,,,,,,,,,METAR,774.0
DABT 240700Z 05002KT 9999 SCT026 BKN200 03/02 Q1004,DABT,2018-03-24T07:00:00Z,35.75,6.32,3.0,2.0,50,2,,6.21,29.64567,,,,,,,,,,,SCT,2600,BKN,20000,,,,,VFR,,,,,,,,,,,,METAR,823.0
DAAV 240700Z 16008KT 9999 FEW023 SCT033 BKN090 12/06 Q1001,DAAV,2018-03-24T07:00:00Z,36.8,5.88,12.0,6.0,160,8,,6.21,29.557087,,,,,,,,,,,FEW,2300,SCT,3300,BKN,9000,,,VFR,,,,,,,,,,,,METAR,11.0
DAAP 240700Z 21008KT CAVOK 08/04 Q1017,DAAP,2018-03-24T07:00:00Z,26.72,8.62,8.0,4.0,210,8,,6.21,30.029528,,,,,,,,,,,CAVOK,,,,,,,,VFR,,,,,,,,,,,,METAR,558.0
DAAJ 240700Z 36002KT CAVOK 07/M06 Q1019,DAAJ,2018-03-24T07:00:00Z,24.28,9.47,7.0,-6.0,360,2,,6.21,30.088583,,,,,,,,,,,CAVOK,,,,,,,,VFR,,,,,,,,,,,,METAR,968.0
DAAE 240700Z 24007KT 9000 -RA FEW020 SCT040 BKN090 11/08 Q1001,DAAE,2018-03-24T07:00:00Z,36.72,5.07,11.0,8.0,240,7,,5.59,29.557087,,,,,,,,,,-RA,FEW,2000,SCT,4000,BKN,9000,,,VFR,,,,,,,,,,,,METAR,2.0
DAAD 240700Z 26009KT 8000 SCT030 BKN100 12/09 Q1005 RERA,DAAD,2018-03-24T07:00:00Z,35.32,4.2,12.0,9.0,260,9,,4.97,29.675198,,,,,,,,,,,SCT,3000,BKN,10000,,,,,MVFR,,,,,,,,,,,,METAR,461.0
CWJH 240700Z AUTO 17004KT M04/ RMK AO1 7PAST HR SOG 62 8028 SLP164 P0003 T1041 50007,CWJH,2018-03-24T07:00:00Z,56.32,-103.27,-4.1,,170,4,,,,1016.4,,TRUE,TRUE,,,,,,,,,,,,,,,,0.7,,,,,0.03,,,,,,METAR,344.0
CWJB 240700Z AUTO 32005KT M00/ RMK AO1 SOG 57 T1002,CWJB,2018-03-24T07:00:00Z,46.78,-71.27,-0.2,,320,5,,,,,,TRUE,TRUE,,,,,,,,,,,,,,,,,,,,,,,,,,,METAR,91.0
CWIZ 240700Z AUTO 34003KT M01/M08 RMK AO1 SOG 06 T10101082,CWIZ,2018-03-24T07:00:00Z,45.28,-73.33,-1.0,-8.2,340,3,,,,,,TRUE,TRUE,,,,,,,,,,,,,,,,,,,,,,,,,,,METAR,45.0
CWIW 240700Z AUTO 17006KT M01/M02 RMK AO1 SOG 16 8018 SLP151 T10051019,CWIW,2018-03-24T07:00:00Z,51.67,-105.4,-0.5,-1.9,170,6,,,,1015.1,,TRUE,TRUE,,,,,,,,,,,,,,,,,,,,,,,,,,,METAR,526.0
CWIT 240700Z AUTO 28003KT M01/M08 RMK AO1 SOG 03 1013 SLP196 T10111082,CWIT,2018-03-24T07:00:00Z,45.17,-73.67,-1.1,-8.2,280,3,,,,1019.6,,TRUE,TRUE,,,,,,,,,,,,,,,,,,,,,,,,,,,METAR,52.0
CWIP 240700Z AUTO 12002KT 00/ RMK AO1 T0000,CWIP,2018-03-24T07:00:00Z,50.17,-66.43,0.0,,120,2,,,,,,TRUE,TRUE,,,,,,,,,,,,,,,,,,,,,,,,,,,METAR,25.0
CWIJ 240700Z AUTO 03013KT M26/M28 RMK AO1 SOG 46 8011 PK WND 04017/0628 SLP195 T12581275,CWIJ,2018-03-24T07:00:00Z,65.77,-111.23,-25.8,-27.5,30,13,,,,1019.5,,TRUE,TRUE,,,,,,,,,,,,,,,,,,,,,,,,,,,METAR,500.0
CWII 240700Z AUTO 12016G21KT M01/M07 RMK AO1 PK WND 12021/0607 T10061072,CWII,2018-03-24T07:00:00Z,50.7,-96.57,-0.6,-7.2,120,16,21,,,,,TRUE,TRUE,,,,,,,,,,,,,,,,,,,,,,,,,,,METAR,220.0
CWIG 240700Z AUTO 07005KT RMK AO1,CWIG,2018-03-24T07:00:00Z,47.07,-70.53,,,70,5,,,,,,TRUE,TRUE,,,,,,,,,,,,,,,,,,,,,,,,,,,METAR,18.0
CWID 240700Z AUTO 34008KT M14/M16 RMK AO1 PK WND 35017/0625 SLP110 T11371160 56019,CWID,2018-03-24T07:00:00Z,61.32,-117.6,-13.7,-16.0,340,8,,,,1011.0,,TRUE,TRUE,,,,,,,,,,,,,,,,-1.9,,,,,,,,,,,METAR,161.0
CWHV 240700Z AUTO 33001KT M02/M08 RMK AO1 SLP159 T10211079 52006,CWHV,2018-03-24T07:00:00Z,46.2,-70.77,-2.1,-7.9,330,1,,,,1015.9,,TRUE,TRUE,,,,,,,,,,,,,,,,0.6,,,,,,,,,,,METAR,229.0
CWHT 240700Z AUTO 04004KT M07/M18 RMK AO1 SOG 24 0001 SLP136 T10741176,CWHT,2018-03-24T07:00:00Z,60.77,-137.58,-7.4,-17.6,40,4,,,,1013.6,,TRUE,TRUE,,,,,,,,,,,,,,,,,,,,,,,,,,,METAR,599.0
CWHQ 240700Z AUTO 33005KT M01/M08 RMK AO1 T10131075,CWHQ,2018-03-24T07:00:00Z,46.68,-71.97,-1.3,-7.5,330,5,,,,,,TRUE,TRUE,,,,,,,,,,,,,,,,,,,,,,,,,,,METAR,55.0
CWHL 240700Z AUTO 05004KT 04/02 RMK AO1 SLP079 T00430020 50006,CWHL,2018-03-24T07:00:00Z,54.17,-130.35,4.3,2.0,50,4,,,,1007.9,,TRUE,TRUE,,,,,,,,,,,,,,,,0.6,,,,,,,,,,,METAR,5.0
CWHI 240700Z AUTO 23017KT M04/M08 RMK AO1 PK WND 20029/0620 T10411078,CWHI,2018-03-24T07:00:00Z,51.7,-113.22,-4.1,-7.8,230,17,,,,,,TRUE,TRUE,,,,,,,,,,,,,,,,,,,,,,,,,,,METAR,907.0
CWGY 240700Z AUTO 13012KT M03/M08 RMK AO1 SLP114 T10291076 58014,CWGY,2018-03-24T07:00:00Z,51.67,-110.2,-2.9,-7.6,130,12,,,,1011.4,,TRUE,TRUE,,,,,,,,,,,,,,,,-1.4,,,,,,,,,,,METAR,707.0
CWGX 240700Z AUTO 18011KT M10/M19 RMK AO1 SOG 30 6030 SLP288 T11011192,CWGX,2018-03-24T07:00:00Z,56.35,-94.7,-10.1,-19.2,180,11,,,,1028.8,,TRUE,TRUE,,,,,,,,,,,,,,,,,,,,,,,,,,,METAR,145.0
CWGW 240700Z AUTO 19001KT M01/M02 RMK AO1 SOG 34 7008 SLP119 T10131020,CWGW,2018-03-24T07:00:00Z,49.75,-114.9,-1.3,-2.0,190,1,,,,1011.9,,TRUE,TRUE,,,,,,,,,,,,,,,,,,,,,,,,,,,METAR,1137.0
CWGT 240700Z AUTO 15005KT 05/02 RMK AO1 SLP087 T00520017 53007,CWGT,2018-03-24T07:00:00Z,49.48,-124.43,5.2,1.7,150,5,,,,1008.7,,TRUE,TRUE,,,,,,,,,,,,,,,,0.7,,,,,,,,,,,METAR,5.0
CWGR 240700Z AUTO 03004KT M01/M02 RMK AO1 SLP102 T10131022 53008,CWGR,2018-03-24T07:00:00Z,47.42,-61.8,-1.3,-2.2,30,4,,,,1010.2,,TRUE,TRUE,,,,,,,,,,,,,,,,0.8,,,,,,,,,,,METAR,60.0
CWGM 240700Z AUTO 23009G15KT 01/M06 RMK AO1 PK WND 21019/0611 T00081057,CWGM,2018-03-24T07:00:00Z,49.13,-113.78,0.8,-5.7,230,9,15,,,,,TRUE,TRUE,,,,,,,,,,,,,,,,,,,,,,,,,,,METAR,1296.0
CWGL 240700Z AUTO 01009KT M04/M13 RMK AO1 SLP252 T10401134 50003,CWGL,2018-03-24T07:00:00Z,44.52,-79.22,-4.0,-13.4,10,9,,,,1025.2,,TRUE,TRUE,,,,,,,,,,,,,,,,0.3,,,,,,,,,,,METAR,221.0
CWGD 240700Z AUTO 05007KT M03/M07 RMK AO1 SLP269 T10331073 55004,CWGD,2018-03-24T07:00:00Z,43.77,-81.72,-3.3,-7.3,50,7,,,,1026.9,,TRUE,TRUE,,,,,,,,,,,,,,,,-0.4,,,,,,,,,,,METAR,214.0
CWGB 240700Z AUTO 10009G17KT 05/03 RMK AO1 PK WND 08017/0659 SLP083 T00510032 52002,CWGB,2018-03-24T07:00:00Z,49.35,-124.17,5.1,3.2,100,9,17,,,1008.3,,TRUE,TRUE,,,,,,,,,,,,,,,,0.2,,,,,,,,,,,METAR,5.0
CWFQ 240700Z AUTO 34005KT M01/M08 RMK AO1 SOG 31 1010 SLP181 T10121081,CWFQ,2018-03-24T07:00:00Z,45.03,-72.82,-1.2,-8.1,340,5,,,,1018.1,,TRUE,TRUE,,,,,,,,,,,,,,,,,,,,,,,,,,,METAR,152.0
CWFJ 240700Z AUTO 17005KT M00/M07 RMK AO1 T10031068,CWFJ,2018-03-24T07:00:00Z,49.2,-113.27,-0.3,-6.8,170,5,,,,,,TRUE,TRUE,,,,,,,,,,,,,,,,,,,,,,,,,,,METAR,1136.0
CWEW 240700Z AUTO 33008KT M01/M09 RMK AO1 SOG 11 1009 SLP204 T10081091,CWEW,2018-03-24T07:00:00Z,45.82,-73.43,-0.8,-9.1,330,8,,,,1020.4,,TRUE,TRUE,,,,,,,,,,,,,,,,,,,,,,,,,,,METAR,21.0
CWEL 240700Z AUTO 09011KT 05/02 RMK AO1 SLP085 T00460023 52001,CWEL,2018-03-24T07:00:00Z,49.22,-123.78,4.6,2.3,90,11,,,,1008.5,,TRUE,TRUE,,,,,,,,,,,,,,,,0.1,,,,,,,,,,,METAR,5.0
CWEB 240700Z AUTO 09006KT 02/01 RMK AO1 SLP087 T00200012 51010,CWEB,2018-03-24T07:00:00Z,49.38,-126.55,2.0,1.2,90,6,,,,1008.7,,TRUE,TRUE,,,,,,,,,,,,,,,,1.0,,,,,,,,,,,METAR,7.0
CXVW 240700Z AUTO 01006KT M11/M13 RMK AO1 T11051129,CXVW,2018-03-24T07:00:00Z,55.1,-117.2,-10.5,-12.9,10,6,,,,,,TRUE,TRUE,,,,,,,,,,,,,,,,,,,,,,,,,,,METAR,698.0
CXSP 240700Z AUTO 10004KT M04/M04 RMK AO1 T10401035,CXSP,2018-03-24T07:00:00Z,54.02,-111.27,-4.0,-3.5,100,4,,,,,,TRUE,TRUE,,,,,,,,,,,,,,,,,,,,,,,,,,,METAR,649.0
CXSL 240700Z AUTO 13006KT M02/M03 RMK AO1 T10201033,CXSL,2018-03-24T07:00:00Z,54.28,-112.5,-2.0,-3.3,130,6,,,,,,TRUE,TRUE,,,,,,,,,,,,,,,,,,,,,,,,,,,METAR,680.0
CXHD 240700Z AUTO 14013KT M03/M05 RMK AO1 T10271054,CXHD,2018-03-24T07:00:00Z,53.18,-112.25,-2.7,-5.4,140,13,,,,,,TRUE,TRUE,,,,,,,,,,,,,,,,,,,,,,,,,,,METAR,688.0
CPXL 240700Z AUTO 16005KT M00/M03 RMK AO1 T10031031,CPXL,2018-03-24T07:00:00Z,49.87,-111.38,-0.3,-3.1,160,5,,,,,,TRUE,TRUE,,,,,,,,,,,,,,,,,,,,,,,,,,,METAR,799.0
CPSV 240700Z AUTO 19014KT 02/M04 RMK AO1 PK WND 18017/0655 T00201035,CPSV,2018-03-24T07:00:00Z,49.92,-110.92,2.0,-3.5,190,14,,,,,,TRUE,TRUE,,,,,,,,,,,,,,,,,,,,,,,,,,,METAR,766.0
CPST 240700Z AUTO 20016KT M02/M07 RMK AO1 PK WND 20018/0657 T10241067,CPST,2018-03-24T07:00:00Z,51.03,-113.28,-2.4,-6.7,200,16,,,,,,TRUE,TRUE,,,,,,,,,,,,,,,,,,,,,,,,,,,METAR,967.0
CPRO 240700Z AUTO 17010KT M04/M06 RMK AO1 T10361057,CPRO,2018-03-24T07:00:00Z,50.83,-112.05,-3.6,-5.7,170,10,,,,,,TRUE,TRUE,,,,,,,,,,,,,,,,,,,,,,,,,,,METAR,714.0
CPFI 240700Z AUTO 21010KT 01/M02 RMK AO1 PK WND 19017/0608 T00111022,CPFI,2018-03-24T07:00:00Z,49.8,-112.03,1.1,-2.2,210,10,,,,,,TRUE,TRUE,,,,,,,,,,,,,,,,,,,,,,,,,,,METAR,833.0
CWMQ 240700Z AUTO 18013G19KT 02/M06 RMK AO1 PK WND 19019/0658 SLP123 T00221058 58011,CWMQ,2018-03-24T07:00:00Z,49.9,-109.47,2.2,-5.8,180,13,19,,,1012.3,,TRUE,TRUE,,,,,,,,,,,,,,,,-1.1,,,,,,,,,,,METAR,767.0
CWMM 240700Z AUTO 02002KT 04/02 RMK AO1 SOG 00 5006 SLP089 T00370020,CWMM,2018-03-24T07:00:00Z,49.22,-122.68,3.7,2.0,20,2,,,,1008.9,,TRUE,TRUE,,,,,,,,,,,,,,,,,,,,,,,,,,,METAR,5.0
CWMJ 240700Z AUTO 34004KT M07/M12 RMK AO1 SOG 30 3016 SLP252 T10681124,CWMJ,2018-03-24T07:00:00Z,46.27,-76.0,-6.8,-12.4,340,4,,,,1025.2,,TRUE,TRUE,,,,,,,,,,,,,,,,,,,,,,,,,,,METAR,200.0
CWLM 240700Z AUTO 30006KT 05/02 RMK AO1 SLP080 T00470015 55002,CWLM,2018-03-24T07:00:00Z,48.42,-123.32,4.7,1.5,300,6,,,,1008.0,,TRUE,TRUE,,,,,,,,,,,,,,,,-0.2,,,,,,,,,,,METAR,70.0
CWLE 240700Z AUTO 22009KT M10/M11 RMK AO1 SOG 06 8002 SLP144 T11021109,CWLE,2018-03-24T07:00:00Z,50.95,-107.15,-10.2,-10.9,220,9,,,,1014.4,,TRUE,TRUE,,,,,,,,,,,,,,,,,,,,,,,,,,,METAR,665.0
CWLC 240700Z AUTO 20003KT 05/01 RMK AO1 T00500007,CWLC,2018-03-24T07:00:00Z,54.3,-130.62,5.0,0.7,200,3,,,,,,TRUE,TRUE,,,,,,,,,,,,,,,,,,,,,,,,,,,METAR,27.0
CWKX 240700Z AUTO 00000KT M12/M14 RMK AO1 SOG 32 8004 SLP103 T11171136,CWKX,2018-03-24T07:00:00Z,58.43,-130.02,-11.7,-13.6,0,0,,,,1010.3,,TRUE,TRUE,,,,,,,,,,,,,,,,,,,,,,,,,,,METAR,793.0
CWKH 240700Z AUTO 02/M01 RMK AO1 SLP067 T00161013 55001,CWKH,2018-03-24T07:00:00Z,48.57,-123.55,1.6,-1.3,,,,,,1006.7,,TRUE,TRUE,,,,,,,,,,,,,,,,-0.1,,,,,,,,,,,METAR,366.0
CWKG 240700Z AUTO 01002KT M01/M02 RMK AO1 SOG 36 8003 SLP129 T10121017,CWKG,2018-03-24T07:00:00Z,44.43,-65.2,-1.2,-1.7,10,2,,,,1012.9,,TRUE,TRUE,,,,,,,,,,,,,,,,,,,,,,,,,,,METAR,165.0
CWJX 240700Z AUTO 18008KT M01/M05 RMK AO1 SOG 10 8007 SLP122 T10141048,CWJX,2018-03-24T07:00:00Z,50.88,-109.5,-1.4,-4.8,180,8,,,,1012.2,,TRUE,TRUE,,,,,,,,,,,,,,,,,,,,,,,,,,,METAR,672.0
CWJW 240700Z AUTO 15002KT M04/M06 RMK AO1 SLP067 T10421059 56001,CWJW,2018-03-24T07:00:00Z,52.93,-118.03,-4.2,-5.9,150,2,,,,1006.7,,TRUE,TRUE,,,,,,,,,,,,,,,,-0.1,,,,,,,,,,,METAR,1020.0
CWJV 240700Z AUTO 10008KT M00/M00 RMK AO1 SLP098 T10031004 56006,CWJV,2018-03-24T07:00:00Z,50.22,-119.18,-0.3,-0.4,100,8,,,,1009.8,,TRUE,TRUE,,,,,,,,,,,,,,,,-0.6,,,,,,,,,,,METAR,556.0
CWJT 240700Z AUTO 34001KT M04/M11 RMK AO1 SLP221 T10411108 52010,CWJT,2018-03-24T07:00:00Z,46.07,-74.57,-4.1,-10.8,340,1,,,,1022.1,,TRUE,TRUE,,,,,,,,,,,,,,,,1.0,,,,,,,,,,,METAR,239.0
CWJR 240700Z AUTO 28001KT 01/M01 RMK AO1 SLP121 T00081007 58006,CWJR,2018-03-24T07:00:00Z,49.07,-116.5,0.8,-0.7,280,1,,,,1012.1,,TRUE,TRUE,,,,,,,,,,,,,,,,-0.6,,,,,,,,,,,METAR,646.0
CWJI 240700Z AUTO 18004KT M05/M06 RMK AO1 2PAST HR SOG 10 5002 SLP159 P0001 T10541055 50002,CWJI,2018-03-24T07:00:00Z,49.72,-105.92,-5.4,-5.5,180,4,,,,1015.9,,TRUE,TRUE,,,,,,,,,,,,,,,,0.2,,,,,0.01,,,,,,METAR,724.0
CWDV 240700Z AUTO 10003KT M11/M18 RMK AO1 SOG 44 3004 SLP337 T11091177,CWDV,2018-03-24T07:00:00Z,49.02,-90.47,-10.9,-17.7,100,3,,,,1033.7,,TRUE,TRUE,,,,,,,,,,,,,,,,,,,,,,,,,,,METAR,489.0
CWWZ 240700Z AUTO 01015KT 01/M05 RMK AO1 PK WND 01019/0655 SLP248 T00081054 50001,CWWZ,2018-03-24T07:00:00Z,43.25,-79.22,0.8,-5.4,10,15,,,,1024.8,,TRUE,TRUE,,,,,,,,,,,,,,,,0.1,,,,,,,,,,,METAR,79.0
CWPO 240700Z AUTO 13013KT M02/M03 RMK AO1 2PAST HR SOG 05 8006 PK WND 13021/0601 SLP224 P0001 T10221032 50002,CWPO,2018-03-24T07:00:00Z,49.2,-98.9,-2.2,-3.2,130,13,,,,1022.4,,TRUE,TRUE,,,,,,,,,,,,,,,,0.2,,,,,0.01,,,,,,METAR,470.0
CWLS 240700Z AUTO 36003KT M07/M09 RMK AO1 SLP266 T10661089 53001,CWLS,2018-03-24T07:00:00Z,43.97,-80.75,-6.6,-8.9,360,3,,,,1026.6,,TRUE,TRUE,,,,,,,,,,,,,,,,0.1,,,,,,,,,,,METAR,415.0
CWBE 240700Z AUTO 03007KT M06/M16 RMK AO1 PK WND 03018/0623 SLP318 T10601157 53005,CWBE,2018-03-24T07:00:00Z,45.98,-81.48,-6.0,-15.7,30,7,,,,1031.8,,TRUE,TRUE,,,,,,,,,,,,,,,,0.5,,,,,,,,,,,METAR,196.0
CTCK 240700Z AUTO 32006KT M02/M09 RMK AO1 SOG 14 2013 SLP218 T10181090,CTCK,2018-03-24T07:00:00Z,45.25,-74.97,-1.8,-9.0,320,6,,,,1021.8,,TRUE,TRUE,,,,,,,,,,,,,,,,,,,,,,,,,,,METAR,85.0
CWSS 240700Z AUTO 00000KT M01/M03 RMK AO1 SOG 24 2006 SLP139 T10121032,CWSS,2018-03-24T07:00:00Z,45.2,-67.25,-1.2,-3.2,0,0,,,,1013.9,,TRUE,TRUE,,,,,,,,,,,,,,,,,,,,,,,,,,,METAR,26.0
CWRN 240700Z AUTO 29010KT M00/M01 RMK AO1 SLP077 T10021008 58005,CWRN,2018-03-24T07:00:00Z,45.35,-60.98,-0.2,-0.8,290,10,,,,1007.7,,TRUE,TRUE,,,,,,,,,,,,,,,,-0.5,,,,,,,,,,,METAR,8.0
CWHO 240700Z AUTO 34021G27KT M12/M14 RMK AO1 PK WND 35029/0616 SLP269 T11221139 53024,CWHO,2018-03-24T07:00:00Z,55.45,-60.22,-12.2,-13.9,340,21,27,,,1026.9,,TRUE,TRUE,,,,,,,,,,,,,,,,2.4,,,,,,,,,,,METAR,8.0
CWER 240700Z AUTO 36008KT RMK AO1,CWER,2018-03-24T07:00:00Z,47.0,-70.82,,,360,8,,,,,,TRUE,TRUE,,,,,,,,,,,,,,,,,,,,,,,,,,,METAR,5.0
CWEP 240700Z AUTO 36013KT M00/M00 RMK AO1 2PAST HR SOG 03 1001 PK WND 35018/0622 SLP092 P0001 T10031002 50002,CWEP,2018-03-24T07:00:00Z,46.45,-61.97,-0.3,-0.2,360,13,,,,1009.2,,TRUE,TRUE,,,,,,,,,,,,,,,,0.2,,,,,0.01,,,,,,METAR,11.0
CWNH 240700Z AUTO 36010KT M00/M07 RMK AO1 SOG 51 1010 SLP167 T10041070,CWNH,2018-03-24T07:00:00Z,47.78,-69.53,-0.4,-7.0,360,10,,,,1016.7,,TRUE,TRUE,,,,,,,,,,,,,,,,,,,,,,,,,,,METAR,148.0
CWSF 240700Z AUTO 00000KT M01/M02 RMK AO1 SOG 31 3007 SLP162 T10061017,CWSF,2018-03-24T07:00:00Z,49.25,-65.32,-0.6,-1.7,0,0,,,,1016.2,,TRUE,TRUE,,,,,,,,,,,,,,,,,,,,,,,,,,,METAR,29.0
CWRA 240700Z AUTO 24016G21KT RMK AO1 PK WND 24025/0600 53020,CWRA,2018-03-24T07:00:00Z,46.63,-53.07,,,240,16,21,,,,,TRUE,TRUE,,,,,,,,,,,,,,,,2.0,,,,,,,,,,,METAR,28.0
CWWE 240700Z AUTO 32006KT M00/01 RMK AO1 4PAST HR SOG 02 8004 SLP125 P0002 T10020005 50004,CWWE,2018-03-24T07:00:00Z,43.97,-64.67,-0.2,0.5,320,6,,,,1012.5,,TRUE,TRUE,,,,,,,,,,,,,,,,0.4,,,,,0.02,,,,,,METAR,9.0
CWPK 240700Z AUTO 32006KT M10/M14 RMK AO1 SOG 57 1009 SLP246 T11011138,CWPK,2018-03-24T07:00:00Z,47.92,-74.62,-10.1,-13.8,320,6,,,,1024.6,,TRUE,TRUE,,,,,,,,,,,,,,,,,,,,,,,,,,,METAR,442.0
CWZW 240700Z AUTO 29007KT M06/M11 RMK AO1 SOG 48 1006 SLP100 T10611110,CWZW,2018-03-24T07:00:00Z,60.17,-132.73,-6.1,-11.0,290,7,,,,1010.0,,TRUE,TRUE,,,,,,,,,,,,,,,,,,,,,,,,,,,METAR,705.0
CWZG 240700Z AUTO 23004KT M03/M08 RMK AO1 SOG 24 8001 SLP074 T10331078,CWZG,2018-03-24T07:00:00Z,51.2,-115.53,-3.3,-7.8,230,4,,,,1007.4,,TRUE,TRUE,,,,,,,,,,,,,,,,,,,,,,,,,,,METAR,1397.0
CWLP 240700Z AUTO 12018KT 05/02 RMK AO1 PK WND 12022/0643 SLP082 T00530022 51010,CWLP,2018-03-24T07:00:00Z,50.93,-127.63,5.3,2.2,120,18,,,,1008.2,,TRUE,TRUE,,,,,,,,,,,,,,,,1.0,,,,,,,,,,,METAR,17.0
CWJD 240700Z AUTO 17008KT M02/M08 RMK AO1 SOG 48 6020 SLP236 T10191081,CWJD,2018-03-24T07:00:00Z,53.17,-99.27,-1.9,-8.1,170,8,,,,1023.6,,TRUE,TRUE,,,,,,,,,,,,,,,,,,,,,,,,,,,METAR,223.0
CWEQ 240700Z AUTO 15008KT 00/M04 RMK AO1 SOG 29 8016 SLP207 T00001042,CWEQ,2018-03-24T07:00:00Z,52.12,-101.22,0.0,-4.2,150,8,,,,1020.7,,TRUE,TRUE,,,,,,,,,,,,,,,,,,,,,,,,,,,METAR,335.0
CWRM 240700Z AUTO 20005KT M00/M08 RMK AO1 SOG 39 5002 SLP051 T10031079,CWRM,2018-03-24T07:00:00Z,52.42,-114.92,-0.3,-7.9,200,5,,,,1005.1,,TRUE,TRUE,,,,,,,,,,,,,,,,,,,,,,,,,,,METAR,988.0
CWOY 240700Z AUTO 16017G22KT M02/M04 RMK AO1 SOG 18 8018 PK WND 17022/0646 SLP165 T10221039,CWOY,2018-03-24T07:00:00Z,51.77,-104.2,-2.2,-3.9,160,17,22,,,1016.5,,TRUE,TRUE,,,,,,,,,,,,,,,,,,,,,,,,,,,METAR,560.0
CWKO 240700Z AUTO 19010KT M05/M05 RMK AO1 SOG 17 3004 SLP164 T10461052,CWKO,2018-03-24T07:00:00Z,49.17,-105.97,-4.6,-5.2,190,10,,,,1016.4,,TRUE,TRUE,,,,,,,,,,,,,,,,,,,,,,,,,,,METAR,917.0
CWEH 240700Z AUTO 15002KT M04/ RMK AO1 SOG 86 0004 SLP141 T1036,CWEH,2018-03-24T07:00:00Z,49.42,-108.97,-3.6,,150,2,,,,1014.1,,TRUE,TRUE,,,,,,,,,,,,,,,,,,,,,,,,,,,METAR,1078.0
CWDC 240700Z AUTO 14004KT M03/M04 RMK AO1 2PAST HR SOG 57 6029 SLP052 P0001 T10281038 50002,CWDC,2018-03-24T07:00:00Z,59.57,-108.47,-2.8,-3.8,140,4,,,,1005.2,,TRUE,TRUE,,,,,,,,,,,,,,,,0.2,,,,,0.01,,,,,,METAR,318.0
CWLB 240700Z AUTO 06003KT M06/M06 RMK AO1 SOG 14 8012 SLP085 T10581058,CWLB,2018-03-24T07:00:00Z,54.77,-112.02,-5.8,-5.8,60,3,,,,1008.5,,TRUE,TRUE,,,,,,,,,,,,,,,,,,,,,,,,,,,METAR,567.0
CWCT 240700Z AUTO 17019KT M02/M07 RMK AO1 SOG 14 6021 PK WND 16023/0647 SLP092 T10221068,CWCT,2018-03-24T07:00:00Z,52.07,-111.47,-2.2,-6.8,170,19,,,,1009.2,,TRUE,TRUE,,,,,,,,,,,,,,,,,,,,,,,,,,,METAR,791.0
CXWN 240700Z AUTO 11003KT 01/M08 RMK AO1 SLP246 T00141079 57007,CXWN,2018-03-24T07:00:00Z,49.88,-97.13,1.4,-7.9,110,3,,,,1024.6,,TRUE,TRUE,,,,,,,,,,,,,,,,-0.7,,,,,,,,,,,METAR,230.0
CXTP 240700Z AUTO 32006KT M01/M02 RMK AO1 SOG 35 1018 SLP042 T10141018,CXTP,2018-03-24T07:00:00Z,48.55,-53.97,-1.4,-1.8,320,6,,,,1004.2,,TRUE,TRUE,,,,,,,,,,,,,,,,,,,,,,,,,,,METAR,107.0
CXSH 240700Z AUTO 34012G19KT M02/M10 RMK AO1 PK WND 35019/0656 SLP187 T10161103 51004,CXSH,2018-03-24T07:00:00Z,46.58,-72.73,-1.6,-10.3,340,12,19,,,1018.7,,TRUE,TRUE,,,,,,,,,,,,,,,,0.4,,,,,,,,,,,METAR,110.0
CXRH 240700Z AUTO 34003KT M02/ RMK AO1 T1019,CXRH,2018-03-24T07:00:00Z,49.57,-57.88,-1.9,,340,3,,,,,,TRUE,TRUE,,,,,,,,,,,,,,,,,,,,,,,,,,,METAR,68.0
CXOX 240700Z AUTO 14011KT M03/M04 RMK AO1 SOG 59 8027 SLP140 T10251042,CXOX,2018-03-24T07:00:00Z,55.15,-105.27,-2.5,-4.2,140,11,,,,1014.0,,TRUE,TRUE,,,,,,,,,,,,,,,,,,,,,,,,,,,METAR,379.0
CXNM 240700Z AUTO 07008KT M03/M03 RMK AO1 SOG 113 T10321031,CXNM,2018-03-24T07:00:00Z,46.82,-60.67,-3.2,-3.1,70,8,,,,,,TRUE,TRUE,,,,,,,,,,,,,,,,,,,,,,,,,,,METAR,439.0
CXMY 240700Z AUTO M01/M01 RMK AO1 T10051011,CXMY,2018-03-24T07:00:00Z,44.98,-62.48,-0.5,-1.1,,,,,,,,TRUE,TRUE,,,,,,,,,,,,,,,,,,,,,,,,,,,METAR,40.0
CXMM 240700Z AUTO 25006KT M05/M06 RMK AO1 SOG 33 2009 SLP076 T10471062,CXMM,2018-03-24T07:00:00Z,56.65,-111.22,-4.7,-6.2,250,6,,,,1007.6,,TRUE,TRUE,,,,,,,,,,,,,,,,,,,,,,,,,,,METAR,369.0
CXMD 240700Z AUTO 14016KT M02/M03 RMK AO1 SOG 02 8007 PK WND 14023/0612 SLP236 T10201028,CXMD,2018-03-24T07:00:00Z,49.22,-98.08,-2.0,-2.8,140,16,,,,1023.6,,TRUE,TRUE,,,,,,,,,,,,,,,,,,,,,,,,,,,METAR,301.0
CXIB 240700Z AUTO 01004KT M00/M02 RMK AO1 6PAST HR SOG 23 2008 SLP072 P0002 T10021015 50006,CXIB,2018-03-24T07:00:00Z,46.67,-60.38,-0.2,-1.5,10,4,,,,1007.2,,TRUE,TRUE,,,,,,,,,,,,,,,,0.6,,,,,0.02,,,,,,METAR,8.0
CXHF 240700Z AUTO M04/M10 RMK AO1 T10431096,CXHF,2018-03-24T07:00:00Z,45.83,-75.65,-4.3,-9.6,,,,,,,,TRUE,TRUE,,,,,,,,,,,,,,,,,,,,,,,,,,,METAR,190.0
CXHA 240700Z AUTO 35001KT M06/M08 RMK AO1 SLP271 T10601078 56008,CXHA,2018-03-24T07:00:00Z,42.03,-82.9,-6.0,-7.8,350,1,,,,1027.1,,TRUE,TRUE,,,,,,,,,,,,,,,,-0.8,,,,,,,,,,,METAR,191.0
CXGH 240700Z AUTO 13013KT M01/M05 RMK AO1 PK WND 15018/0606 T10111054,CXGH,2018-03-24T07:00:00Z,50.63,-97.0,-1.1,-5.4,130,13,,,,,,TRUE,TRUE,,,,,,,,,,,,,,,,,,,,,,,,,,,METAR,217.0
CXET 240700Z AUTO 33005KT M05/M12 RMK AO1 SOG 03 0002 SLP261 T10501119,CXET,2018-03-24T07:00:00Z,44.23,-79.78,-5.0,-11.9,330,5,,,,1026.1,,TRUE,TRUE,,,,,,,,,,,,,,,,,,,,,,,,,,,METAR,251.0
CXEC 240700Z AUTO 17005KT 01/M03 RMK AO1 SOG 25 8029 SLP047 T00091034,CXEC,2018-03-24T07:00:00Z,53.57,-113.52,0.9,-3.4,170,5,,,,1004.7,,TRUE,TRUE,,,,,,,,,,,,,,,,,,,,,,,,,,,METAR,671.0
CXEA 240700Z AUTO 09006KT M06/M14 RMK AO1 SOG 47 3006 SLP325 T10631140,CXEA,2018-03-24T07:00:00Z,50.63,-93.22,-6.3,-14.0,90,6,,,,1032.5,,TRUE,TRUE,,,,,,,,,,,,,,,,,,,,,,,,,,,METAR,355.0
CXDW 240700Z AUTO 14016G21KT M02/M03 RMK AO1 2PAST HR SOG 08 6007 PK WND 13023/0615 SLP239 P0001 T10211026 50002,CXDW,2018-03-24T07:00:00Z,49.4,-98.32,-2.1,-2.6,140,16,21,,,1023.9,,TRUE,TRUE,,,,,,,,,,,,,,,,0.2,,,,,0.01,,,,,,METAR,341.0
CXDI 240700Z AUTO 33002KT M05/M07 RMK AO1 SLP254 T10461074 58004,CXDI,2018-03-24T07:00:00Z,42.87,-80.55,-4.6,-7.4,330,2,,,,1025.4,,TRUE,TRUE,,,,,,,,,,,,,,,,-0.4,,,,,,,,,,,METAR,232.0
CXCK 240700Z AUTO 29002KT M16/M18 RMK AO1 SOG 53 8005 SLP151 T11631184,CXCK,2018-03-24T07:00:00Z,62.12,-136.2,-16.3,-18.4,290,2,,,,1015.1,,TRUE,TRUE,,,,,,,,,,,,,,,,,,,,,,,,,,,METAR,540.0
CXCA 240700Z AUTO 29002KT M11/M16 RMK AO1 SOG 30 1006 SLP369 T11081158,CXCA,2018-03-24T07:00:00Z,49.15,-88.35,-10.8,-15.8,290,2,,,,1036.9,,TRUE,TRUE,,,,,,,,,,,,,,,,,,,,,,,,,,,METAR,228.0
CXBO 240700Z AUTO 36003KT RMK AO1,CXBO,2018-03-24T07:00:00Z,46.83,-71.2,,,360,3,,,,,,TRUE,TRUE,,,,,,,,,,,,,,,,,,,,,,,,,,,METAR,100.0
CXKT 240700Z AUTO 33005KT M00/M01 RMK AO1 SOG 36 8001 SLP126 T10011011,CXKT,2018-03-24T07:00:00Z,45.07,-64.48,-0.1,-1.1,330,5,,,,1012.6,,TRUE,TRUE,,,,,,,,,,,,,,,,,,,,,,,,,,,METAR,49.0
CXBK 240700Z AUTO 15014KT M02/M02 RMK AO1 SOG 18 8011 SLP145 T10171021,CXBK,2018-03-24T07:00:00Z,50.2,-104.7,-1.7,-2.1,150,14,,,,1014.5,,TRUE,TRUE,,,,,,,,,,,,,,,,,,,,,,,,,,,METAR,580.0
CZSP 240700Z AUTO 35009KT M01/M02 RMK AO1 SOG 05 2003 SLP109 T10141019,CZSP,2018-03-24T07:00:00Z,46.45,-62.58,-1.4,-1.9,350,9,,,,1010.9,,TRUE,TRUE,,,,,,,,,,,,,,,,,,,,,,,,,,,METAR,30.0
CZCR 240700Z AUTO 28001KT M01/M03 RMK AO1 SOG 98 1011 SLP157 T10131033,CZCR,2018-03-24T07:00:00Z,47.97,-66.32,-1.3,-3.3,280,1,,,,1015.7,,TRUE,TRUE,,,,,,,,,,,,,,,,,,,,,,,,,,,METAR,38.0
CWXI 240700Z AUTO 04019KT M03/M04 RMK AO1 SOG 27 1026 PK WND 03023/0637 SLP124 T10271044,CWXI,2018-03-24T07:00:00Z,51.02,-57.1,-2.7,-4.4,40,19,,,,1012.4,,TRUE,TRUE,,,,,,,,,,,,,,,,,,,,,,,,,,,METAR,6.0
CWBK 240700Z AUTO 31012KT M01/M01 RMK AO1 2PAST HR SOG 05 1002 SLP100 P0001 T10101014 50002,CWBK,2018-03-24T07:00:00Z,45.77,-62.67,-1.0,-1.4,310,12,,,,1010.0,,TRUE,TRUE,,,,,,,,,,,,,,,,0.2,,,,,0.01,,,,,,METAR,2.0
CERM 240700Z AUTO 31002KT M09/M11 RMK AO1 SOG 74 3006 SLP155 T10921106,CERM,2018-03-24T07:00:00Z,47.42,-68.32,-9.2,-10.6,310,2,,,,1015.5,,TRUE,TRUE,,,,,,,,,,,,,,,,,,,,,,,,,,,METAR,154.0
CAHR 240700Z AUTO 35013G18KT M02/M02 RMK AO1 SOG 20 0003 PK WND 00018/0629 SLP110 T10151021,CAHR,2018-03-24T07:00:00Z,46.35,-63.17,-1.5,-2.1,350,13,18,,,1011.0,,TRUE,TRUE,,,,,,,,,,,,,,,,,,,,,,,,,,,METAR,53.0
CMFM 240700Z AUTO 36005KT M07/M10 RMK AO1 SOG 96 1005 SLP166 T10691095,CMFM,2018-03-24T07:00:00Z,47.32,-71.15,-6.9,-9.5,360,5,,,,1016.6,,TRUE,TRUE,,,,,,,,,,,,,,,,,,,,,,,,,,,METAR,672.0
CWPZ 240700Z AUTO 00000KT M09/M10 RMK AO1 SOG 60 1002 SLP070 T10851095,CWPZ,2018-03-24T07:00:00Z,54.38,-125.97,-8.5,-9.5,0,0,,,,1007.0,,TRUE,TRUE,,,,,,,,,,,,,,,,,,,,,,,,,,,METAR,713.0
CWPR 240700Z AUTO 33001KT M04/M07 RMK AO1 SOG 25 5000 SLP098 T10401066,CWPR,2018-03-24T07:00:00Z,49.47,-120.52,-4.0,-6.6,330,1,,,,1009.8,,TRUE,TRUE,,,,,,,,,,,,,,,,,,,,,,,,,,,METAR,700.0
CWPE 240700Z AUTO 02002KT 01/M02 RMK AO1 SOG 02 1005 SLP140 T00091020,CWPE,2018-03-24T07:00:00Z,45.07,-66.47,0.9,-2.0,20,2,,,,1014.0,,TRUE,TRUE,,,,,,,,,,,,,,,,,,,,,,,,,,,METAR,1.0
CWPD 240700Z AUTO 01007KT M09/M10 RMK AO1 SLP169 T10881102 52002,CWPD,2018-03-24T07:00:00Z,47.57,-71.22,-8.8,-10.2,10,7,,,,1016.9,,TRUE,TRUE,,,,,,,,,,,,,,,,0.2,,,,,,,,,,,METAR,803.0
CWOD 240700Z AUTO 31013KT M07/M11 RMK AO1 SOG 24 1009 PK WND 32019/0622 SLP209 T10651110,CWOD,2018-03-24T07:00:00Z,48.85,-72.55,-6.5,-11.0,310,13,,,,1020.9,,TRUE,TRUE,,,,,,,,,,,,,,,,,,,,,,,,,,,METAR,137.0
CWOC 240700Z AUTO 02002KT 01/M02 RMK AO1 SLP151 T00051024 51008,CWOC,2018-03-24T07:00:00Z,48.02,-65.32,0.5,-2.4,20,2,,,,1015.1,,TRUE,TRUE,,,,,,,,,,,,,,,,0.8,,,,,,,,,,,METAR,47.0
CWNQ 240700Z AUTO 35006KT 01/M09 RMK AO1 SLP187 T00051089 51009,CWNQ,2018-03-24T07:00:00Z,46.22,-72.65,0.5,-8.9,350,6,,,,1018.7,,TRUE,TRUE,,,,,,,,,,,,,,,,0.9,,,,,,,,,,,METAR,10.0
CWNP 240700Z AUTO 13003KT 01/M02 RMK AO1 SOG 38 5006 SLP099 T00131015,CWNP,2018-03-24T07:00:00Z,50.27,-117.82,1.3,-1.5,130,3,,,,1009.9,,TRUE,TRUE,,,,,,,,,,,,,,,,,,,,,,,,,,,METAR,524.0
CWNM 240700Z AUTO 08003KT 02/02 RMK AO1 SOG 00 8008 SLP107 T00210016,CWNM,2018-03-24T07:00:00Z,49.5,-117.28,2.1,1.6,80,3,,,,1010.7,,TRUE,TRUE,,,,,,,,,,,,,,,,,,,,,,,,,,,METAR,535.0
CWNK 240700Z AUTO 14017G23KT M03/M04 RMK AO1 PK WND 15023/0609 T10321038,CWNK,2018-03-24T07:00:00Z,49.5,-98.03,-3.2,-3.8,140,17,23,,,,,TRUE,TRUE,,,,,,,,,,,,,,,,,,,,,,,,,,,METAR,268.0
CWNE 240700Z AUTO 36011KT M01/M02 RMK AO1 SLP127 T10101018 51006,CWNE,2018-03-24T07:00:00Z,47.07,-64.0,-1.0,-1.8,360,11,,,,1012.7,,TRUE,TRUE,,,,,,,,,,,,,,,,0.6,,,,,,,,,,,METAR,15.0
CWNZ 240700Z AUTO 01003KT M23/M25 RMK AO1 SOG 70 8003 SLP394 T12291252,CWNZ,2018-03-24T07:00:00Z,49.75,-84.17,-22.9,-25.2,10,3,,,,1039.4,,TRUE,TRUE,,,,,,,,,,,,,,,,,,,,,,,,,,,METAR,256.0
CWNC 240700Z AUTO 01004KT M02/M10 RMK AO1 SOG 00 0005 SLP238 T10161104,CWNC,2018-03-24T07:00:00Z,43.95,-78.17,-1.6,-10.4,10,4,,,,1023.8,,TRUE,TRUE,,,,,,,,,,,,,,,,,,,,,,,,,,,METAR,78.0
CWWB 240700Z AUTO 01/M08 RMK AO1 SLP257 T00051081 51004,CWWB,2018-03-24T07:00:00Z,43.3,-79.78,0.5,-8.1,,,,,,1025.7,,TRUE,TRUE,,,,,,,,,,,,,,,,0.4,,,,,,,,,,,METAR,76.0
CWPC 240700Z AUTO 33005KT M03/M08 RMK AO1 SLP249 T10251079 58002,CWPC,2018-03-24T07:00:00Z,42.87,-79.25,-2.5,-7.9,330,5,,,,1024.9,,TRUE,TRUE,,,,,,,,,,,,,,,,-0.2,,,,,,,,,,,METAR,184.0
CXKE 240700Z AUTO 32007KT M02/M10 RMK AO1 SOG 06 1011 SLP224 T10231097,CXKE,2018-03-24T07:00:00Z,45.0,-75.63,-2.3,-9.7,320,7,,,,1022.4,,TRUE,TRUE,,,,,,,,,,,,,,,,,,,,,,,,,,,METAR,99.0
CXKA 240700Z AUTO 36004KT M22/M24 RMK AO1 SOG 69 1001 SLP385 T12161237,CXKA,2018-03-24T07:00:00Z,49.4,-82.45,-21.6,-23.7,360,4,,,,1038.5,,TRUE,TRUE,,,,,,,,,,,,,,,,,,,,,,,,,,,METAR,218.0
CXHM 240700Z AUTO 28003KT M03/ RMK AO1 SLP253 T1033 50003,CXHM,2018-03-24T07:00:00Z,43.28,-79.9,-3.3,,280,3,,,,1025.3,,TRUE,TRUE,,,,,,,,,,,,,,,,0.3,,,,,,,,,,,METAR,107.0
CWZS 240700Z AUTO 36002KT M03/M06 RMK AO1 SLP150 T10311056 53008,CWZS,2018-03-24T07:00:00Z,48.47,-67.43,-3.1,-5.6,360,2,,,,1015.0,,TRUE,TRUE,,,,,,,,,,,,,,,,0.8,,,,,,,,,,,METAR,166.0
CWZA 240700Z AUTO 04007KT 03/01 RMK AO1 SLP090 T00290012 58005,CWZA,2018-03-24T07:00:00Z,49.25,-121.77,2.9,1.2,40,7,,,,1009.0,,TRUE,TRUE,,,,,,,,,,,,,,,,-0.5,,,,,,,,,,,METAR,15.0
CWYL 240700Z AUTO 26009KT M05/M08 RMK AO1 SOG 132 0003 SLP070 T10501078,CWYL,2018-03-24T07:00:00Z,51.45,-116.32,-5.0,-7.8,260,9,,,,1007.0,,TRUE,TRUE,,,,,,,,,,,,,,,,,,,,,,,,,,,METAR,1615.0
CWYJ 240700Z AUTO 34002KT 05/03 RMK AO1 SLP081 T00460027 55001,CWYJ,2018-03-24T07:00:00Z,48.45,-123.3,4.6,2.7,340,2,,,,1008.1,,TRUE,TRUE,,,,,,,,,,,,,,,,-0.1,,,,,,,,,,,METAR,39.0
CWXL 240700Z AUTO 18008KT M01/M04 RMK AO1 T10051038,CWXL,2018-03-24T07:00:00Z,49.73,-111.45,-0.5,-3.8,180,8,,,,,,TRUE,TRUE,,,,,,,,,,,,,,,,,,,,,,,,,,,METAR,817.0
CWST 240700Z AUTO 07001KT M03/M07 RMK AO1 SOG 28 1010 SLP163 T10301070,CWST,2018-03-24T07:00:00Z,47.35,-70.02,-3.0,-7.0,70,1,,,,1016.3,,TRUE,TRUE,,,,,,,,,,,,,,,,,,,,,,,,,,,METAR,31.0
CWSR 240700Z AUTO 18010KT M01/M03 RMK AO1 SOG 20 7012 SLP118 T10111028,CWSR,2018-03-24T07:00:00Z,53.37,-107.53,-1.1,-2.8,180,10,,,,1011.8,,TRUE,TRUE,,,,,,,,,,,,,,,,,,,,,,,,,,,METAR,584.0
CWSP 240700Z AUTO 31002KT 04/01 RMK AO1 SLP086 T00440008 51001,CWSP,2018-03-24T07:00:00Z,48.38,-123.92,4.4,0.8,310,2,,,,1008.6,,TRUE,TRUE,,,,,,,,,,,,,,,,0.1,,,,,,,,,,,METAR,21.0
CWSL 240700Z AUTO 00000KT M00/M00 RMK AO1 SOG 12 6005 SLP106 T10031003,CWSL,2018-03-24T07:00:00Z,50.7,-119.27,-0.3,-0.3,0,0,,,,1010.6,,TRUE,TRUE,,,,,,,,,,,,,,,,,,,,,,,,,,,METAR,351.0
CWSK 240700Z AUTO 31001KT 01/01 RMK AO1 SLP095 T00060006 58002,CWSK,2018-03-24T07:00:00Z,49.78,-123.17,0.6,0.6,310,1,,,,1009.5,,TRUE,TRUE,,,,,,,,,,,,,,,,-0.2,,,,,,,,,,,METAR,60.0
CWSG 240700Z AUTO 22002KT M02/M04 RMK AO1 SLP153 T10171043 52005,CWSG,2018-03-24T07:00:00Z,49.12,-66.65,-1.7,-4.3,220,2,,,,1015.3,,TRUE,TRUE,,,,,,,,,,,,,,,,0.5,,,,,,,,,,,METAR,5.0
CWSD 240700Z AUTO 01013KT M01/M02 RMK AO1 SOG 56 0005 PK WND 01018/0643 SLP125 T10081018,CWSD,2018-03-24T07:00:00Z,46.42,-63.85,-0.8,-1.8,10,13,,,,1012.5,,TRUE,TRUE,,,,,,,,,,,,,,,,,,,,,,,,,,,METAR,24.0
CWRZ 240700Z AUTO 03012KT 00/M02 RMK AO1 PK WND 02018/0634 SLP146 T00001016 53013,CWRZ,2018-03-24T07:00:00Z,48.42,-64.32,0.0,-1.6,30,12,,,,1014.6,,TRUE,TRUE,,,,,,,,,,,,,,,,1.3,,,,,,,,,,,METAR,16.0
CWRY 240700Z AUTO 16008KT M02/M04 RMK AO1 SOG 24 8010 SLP114 T10231043,CWRY,2018-03-24T07:00:00Z,49.12,-112.03,-2.3,-4.3,160,8,,,,1011.4,,TRUE,TRUE,,,,,,,,,,,,,,,,,,,,,,,,,,,METAR,1050.0
CWRT 240700Z AUTO 00000KT M02/M02 RMK AO1 T10211024,CWRT,2018-03-24T07:00:00Z,49.62,-114.47,-2.1,-2.4,0,0,,,,,,TRUE,TRUE,,,,,,,,,,,,,,,,,,,,,,,,,,,METAR,1303.0
CWRK 240700Z AUTO 01006KT M06/M15 RMK AO1 SOG 06 0006 SLP248 T10571147,CWRK,2018-03-24T07:00:00Z,45.07,-77.87,-5.7,-14.7,10,6,,,,1024.8,,TRUE,TRUE,,,,,,,,,,,,,,,,,,,,,,,,,,,METAR,331.0
CWRJ 240700Z AUTO 24002KT M12/M13 RMK AO1 2PAST HR SOG 14 5001 SLP142 P0001 T11191131 50002,CWRJ,2018-03-24T07:00:00Z,51.57,-107.92,-11.9,-13.1,240,2,,,,1014.2,,TRUE,TRUE,,,,,,,,,,,,,,,,0.2,,,,,0.01,,,,,,METAR,586.0
CWQV 240700Z AUTO 28013KT M00/M06 RMK AO1 PK WND 29019/0639 T10031058,CWQV,2018-03-24T07:00:00Z,48.27,-70.12,-0.3,-5.8,280,13,,,,,,TRUE,TRUE,,,,,,,,,,,,,,,,,,,,,,,,,,,METAR,1.0
CWQR 240700Z AUTO 05016KT M00/ RMK AO1 PK WND 04019/0654 T1002,CWQR,2018-03-24T07:00:00Z,50.22,-64.22,-0.2,,50,16,,,,,,TRUE,TRUE,,,,,,,,,,,,,,,,,,,,,,,,,,,METAR,9.0
CWQP 240700Z AUTO 36009KT M02/M09 RMK AO1 SOG 01 0006 SLP235 T10201094,CWQP,2018-03-24T07:00:00Z,43.83,-77.15,-2.0,-9.4,360,9,,,,1023.5,,TRUE,TRUE,,,,,,,,,,,,,,,,,,,,,,,,,,,METAR,79.0
CWQO 240700Z AUTO 35007KT M00/M05 RMK AO1 T10011048,CWQO,2018-03-24T07:00:00Z,48.42,-68.9,-0.1,-4.8,350,7,,,,,,TRUE,TRUE,,,,,,,,,,,,,,,,,,,,,,,,,,,METAR,1.0
CWQK 240700Z AUTO 30004KT 05/M00 RMK AO1 SLP084 T00511001 55000,CWQK,2018-03-24T07:00:00Z,48.3,-123.53,5.1,-0.1,300,4,,,,1008.4,,TRUE,TRUE,,,,,,,,,,,,,,,,0.0,,,,,,,,,,,METAR,5.0
CWQH 240700Z AUTO 31002KT M01/M07 RMK AO1 SOG 16 T10101066,CWQH,2018-03-24T07:00:00Z,45.37,-71.82,-1.0,-6.6,310,2,,,,,,TRUE,TRUE,,,,,,,,,,,,,,,,,,,,,,,,,,,METAR,181.0
CZSM 240700Z AUTO 15003KT M03/M04 RMK AO1 6PAST HR SOG 61 7021 SLP013 P0002 T10271037 50006,CZSM,2018-03-24T07:00:00Z,60.03,-111.93,-2.7,-3.7,150,3,,,,1001.3,,TRUE,TRUE,,,,,,,,,,,,,,,,0.6,,,,,0.02,,,,,,METAR,203.0
CZHY 240700Z AUTO 33009KT M13/M14 RMK AO1 2PAST HR SOG 33 6012 SLP078 P0001 T11291138 50002,CZHY,2018-03-24T07:00:00Z,60.83,-115.78,-12.9,-13.8,330,9,,,,1007.8,,TRUE,TRUE,,,,,,,,,,,,,,,,0.2,,,,,0.01,,,,,,METAR,164.0
CZEV 240700Z AUTO 09005KT M26/M29 RMK AO1 SOG 51 8007 SLP305 T12631290,CZEV,2018-03-24T07:00:00Z,68.32,-133.52,-26.3,-29.0,90,5,,,,1030.5,,TRUE,TRUE,,,,,,,,,,,,,,,,,,,,,,,,,,,METAR,103.0
CWMT 240700Z AUTO 01010G17KT M16/M20 RMK AO1 PK WND 02019/0625 SLP143 T11591203 56021,CWMT,2018-03-24T07:00:00Z,63.13,-117.25,-15.9,-20.3,10,10,17,,,1014.3,,TRUE,TRUE,,,,,,,,,,,,,,,,-2.1,,,,,,,,,,,METAR,271.0
VELP 240700Z 02007KT 4000 HZ FEW018 32/16 Q1010 NOSIG,VELP,2018-03-24T07:00:00Z,23.83,92.62,32.0,16.0,20,7,,2.49,29.822834,,,,,,TRUE,,,,HZ,FEW,1800,,,,,,,IFR,,,,,,,,,,,,METAR,291.0
FDSK 240700Z 03006KT 9999 FEW020 22/19 Q1012 NOSIG,FDSK,2018-03-24T07:00:00Z,-26.35,31.72,22.0,19.0,30,6,,6.21,29.88189,,,,,,TRUE,,,,,FEW,2000,,,,,,,VFR,,,,,,,,,,,,METAR,324.0
CZEL 240700Z AUTO 33004KT M07/M09 RMK AO1 SLP260 T10661087 51001,CZEL,2018-03-24T07:00:00Z,43.65,-80.42,-6.6,-8.7,330,4,,,,1026.0,,TRUE,TRUE,,,,,,,,,,,,,,,,0.1,,,,,,,,,,,METAR,376.0
CXZC 240700Z AUTO 32005KT M21/M22 RMK AO1 SOG 51 1005 SLP393 T12061223,CXZC,2018-03-24T07:00:00Z,51.3,-80.62,-20.6,-22.3,320,5,,,,1039.3,,TRUE,TRUE,,,,,,,,,,,,,,,,,,,,,,,,,,,METAR,9.0
CXBI 240700Z AUTO 36008KT M05/M13 RMK AO1 SOG 01 0002 SLP261 T10491133,CXBI,2018-03-24T07:00:00Z,44.48,-79.55,-4.9,-13.3,360,8,,,,1026.1,,TRUE,TRUE,,,,,,,,,,,,,,,,,,,,,,,,,,,METAR,289.0
CTRA 240700Z AUTO 12006KT M06/M16 RMK AO1 SOG 38 1010 SLP304 T10571157,CTRA,2018-03-24T07:00:00Z,49.67,-93.73,-5.7,-15.7,120,6,,,,1030.4,,TRUE,TRUE,,,,,,,,,,,,,,,,,,,,,,,,,,,METAR,435.0
CTNK 240700Z AUTO 36003KT M08/M15 RMK AO1 SOG 21 0005 SLP258 T10791152,CTNK,2018-03-24T07:00:00Z,45.53,-78.27,-7.9,-15.2,360,3,,,,1025.8,,TRUE,TRUE,,,,,,,,,,,,,,,,,,,,,,,,,,,METAR,410.0
DAUL 240700Z 26018KT 8000 SCT030 SCT080 12/M00 Q1008,DAUL,2018-03-24T07:00:00Z,33.77,2.92,12.0,0.0,260,18,,4.97,29.763779,,,,,,,,,,,SCT,3000,SCT,8000,,,,,MVFR,,,,,,,,,,,,METAR,765.0
DAOI 240700Z 23020KT 8000 -RA FEW023 BKN026 13/09 Q1002,DAOI,2018-03-24T07:00:00Z,36.22,1.32,13.0,9.0,230,20,,4.97,29.586615,,,,,,,,,,-RA,FEW,2300,BKN,2600,,,,,MVFR,,,,,,,,,,,,METAR,143.0
DAAY 240700Z 26016KT 7000 FEW026 SCT100 09/04 Q1012,DAAY,2018-03-24T07:00:00Z,33.53,-0.25,9.0,4.0,260,16,,4.35,29.88189,,,,,,,,,,,FEW,2600,SCT,10000,,,,,MVFR,,,,,,,,,,,,METAR,1149.0
DAOL 240700Z 24014KT 8000 FEW020 BKN026 13/11 Q1004,DAOL,2018-03-24T07:00:00Z,35.53,-0.52,13.0,11.0,240,14,,4.97,29.64567,,,,,,,,,,,FEW,2000,BKN,2600,,,,,MVFR,,,,,,,,,,,,METAR,112.0
DAUZ 240700Z 26005KT CAVOK 07/M11 Q1016,DAUZ,2018-03-24T07:00:00Z,28.05,9.62,7.0,-11.0,260,5,,6.21,30.0,,,,,,,,,,,CAVOK,,,,,,,,VFR,,,,,,,,,,,,METAR,562.0
DAUU 240700Z 26006KT 7000 FEW046 SCT100 15/M04 Q1009,DAUU,2018-03-24T07:00:00Z,31.92,5.4,15.0,-4.0,260,6,,4.35,29.793306,,,,,,,,,,,FEW,4600,SCT,10000,,,,,MVFR,,,,,,,,,,,,METAR,141.0
DAUG 240700Z 25009KT 5000 NSC 13/M02 Q1010,DAUG,2018-03-24T07:00:00Z,32.37,3.82,13.0,-2.0,250,9,,3.11,29.822834,,,,,,,,,,,CLR,,,,,,,,MVFR,,,,,,,,,,,,METAR,450.0
DAUB 240700Z 23004KT 9999 SCT040 BKN100 13/06 Q1006,DAUB,2018-03-24T07:00:00Z,34.78,5.72,13.0,6.0,230,4,,6.21,29.704725,,,,,,,,,,,SCT,4000,BKN,10000,,,,,VFR,,,,,,,,,,,,METAR,87.0
DAUA 240700Z 18011KT CAVOK 10/M14 Q1015,DAUA,2018-03-24T07:00:00Z,27.83,-0.18,10.0,-14.0,180,11,,6.21,29.970472,,,,,,,,,,,CAVOK,,,,,,,,VFR,,,,,,,,,,,,METAR,263.0
DAOR 240700Z 35003KT CAVOK 09/M03 Q1012,DAOR,2018-03-24T07:00:00Z,31.65,-2.27,9.0,-3.0,350,3,,6.21,29.88189,,,,,,,,,,,CAVOK,,,,,,,,VFR,,,,,,,,,,,,METAR,773.0
DAOF 240700Z 28016KT CAVOK 11/M01 Q1015,DAOF,2018-03-24T07:00:00Z,27.7,-8.17,11.0,-1.0,280,16,,6.21,29.970472,,,,,,,,,,,CAVOK,,,,,,,,VFR,,,,,,,,,,,,METAR,431.0
DAOB 240700Z 24020KT 9000 -RA SCT020 BKN023 06/05 Q1005,DAOB,2018-03-24T07:00:00Z,35.33,1.47,6.0,5.0,240,20,,5.59,29.675198,,,,,,,,,,-RA,SCT,2000,BKN,2300,,,,,MVFR,,,,,,,,,,,,METAR,989.0
DABS 240700Z 14006KT 9999 FEW040 04/01 Q1006,DABS,2018-03-24T07:00:00Z,35.43,8.12,4.0,1.0,140,6,,6.21,29.704725,,,,,,,,,,,FEW,4000,,,,,,,VFR,,,,,,,,,,,,METAR,813.0
DAAS 240700Z 20004KT 5000 SCT010 BKN026 04/01 Q1003,DAAS,2018-03-24T07:00:00Z,36.18,5.33,4.0,1.0,200,4,,3.11,29.616142,,,,,,,,,,,SCT,1000,BKN,2600,,,,,MVFR,,,,,,,,,,,,METAR,1038.0
LERI 240700Z 31014KT 280V340 9999 FEW060 11/00 Q1001 NOSIG,LERI,2018-03-24T07:00:00Z,37.95,-1.22,11.0,0.0,310,14,,6.21,29.557087,,,,,,TRUE,,,,,FEW,6000,,,,,,,VFR,,,,,,,,,,,,METAR,75.0
LEGT 240700Z 29020G31KT 9999 FEW035 04/M03 Q1003,LEGT,2018-03-24T07:00:00Z,40.28,-3.72,4.0,-3.0,290,20,31,6.21,29.616142,,,,,,,,,,,FEW,3500,,,,,,,VFR,,,,,,,,,,,,METAR,612.0
CYYD 240700Z AUTO VRB02KT 9SM OVC085 M03/M03 A2965 RMK SLP062,CYYD,2018-03-24T07:00:00Z,54.82,-127.18,-3.0,-3.0,0,2,,9.0,29.648623,1006.2,,TRUE,,,,,,,,OVC,8500,,,,,,,VFR,,,,,,,,,,,,METAR,523.0
CYXY 240700Z 27008KT 15SM SKC M12/M17 A2977 RMK SLP138,CYXY,2018-03-24T07:00:00Z,60.72,-135.07,-12.0,-17.0,270,8,,15.0,29.769686,1013.8,,,,,,,,,,SKC,,,,,,,,VFR,,,,,,,,,,,,METAR,703.0
CYXT 240700Z 15006KT 15SM FEW060 OVC110 01/M01 A2973 RMK SC2AS6 SLP078,CYXT,2018-03-24T07:00:00Z,54.47,-128.57,1.0,-1.0,150,6,,15.0,29.731298,1007.8,,,,,,,,,,FEW,6000,OVC,11000,,,,,VFR,,,,,,,,,,,,METAR,217.0
CYXJ 240700Z 35010KT 6SM -SN BKN030 OVC063 M13/M17 A2975 RMK SC5SC3 SLP130,CYXJ,2018-03-24T07:00:00Z,56.25,-120.73,-13.0,-17.0,350,10,,6.0,29.749016,1013.0,,,,,,,,,-SN,BKN,3000,OVC,6300,,,,,MVFR,,,,,,,,,,,,METAR,695.0
CYWL 240700Z 13009KT 15SM FEW170 M03/M06 A2965 RMK AC2 SLP082,CYWL,2018-03-24T07:00:00Z,52.18,-122.07,-3.0,-6.0,130,9,,15.0,29.648623,1008.2,,,,,,,,,,FEW,17000,,,,,,,VFR,,,,,,,,,,,,METAR,940.0
CYQU 240700Z 33004KT 25SM BKN027 OVC150 M09/M12 A2970 RMK SC7AC1 SLP105,CYQU,2018-03-24T07:00:00Z,55.18,-118.88,-9.0,-12.0,330,4,,25.0,29.698818,1010.5,,,,,,,,,,BKN,2700,OVC,15000,,,,,MVFR,,,,,,,,,,,,METAR,669.0
VOPC 240700Z 16005KT 5000 HZ SCT020 32/20 Q1011 NOSIG,VOPC,2018-03-24T07:00:00Z,11.97,79.82,32.0,20.0,160,5,,3.11,29.852362,,,,,,TRUE,,,,HZ,SCT,2000,,,,,,,MVFR,,,,,,,,,,,,METAR,36.0
VABP 240700Z 31005KT CAVOK 33/05 Q1016 NOSIG,VABP,2018-03-24T07:00:00Z,23.27,77.33,33.0,5.0,310,5,,6.21,30.0,,,,,,TRUE,,,,,CAVOK,,,,,,,,VFR,,,,,,,,,,,,METAR,523.0
NVVV 240700Z 09004KT 9999 SCT020 BKN110 26/24 Q1010 RMK NIL,NVVV,2018-03-24T07:00:00Z,-17.68,168.3,26.0,24.0,90,4,,6.21,29.822834,,,,,,,,,,,SCT,2000,BKN,11000,,,,,VFR,,,,,,,,,,,,METAR,21.0
GOSM 240700Z 10002KT 6000 NSC 23/M02 Q1012,GOSM,2018-03-24T07:00:00Z,15.6,-13.33,23.0,-2.0,100,2,,3.73,29.88189,,,,,,,,,,,CLR,,,,,,,,MVFR,,,,,,,,,,,,METAR,17.0
OTHH 240700Z 08005KT 020V120 9000 FEW012 24/18 Q1015 NOSIG,OTHH,2018-03-24T07:00:00Z,25.25,51.6,24.0,18.0,80,5,,5.59,29.970472,,,,,,TRUE,,,,,FEW,1200,,,,,,,VFR,,,,,,,,,,,,METAR,0.0
OTBD 240700Z 06006KT 020V100 9000 FEW012 25/17 Q1015 NOSIG,OTBD,2018-03-24T07:00:00Z,25.25,51.57,25.0,17.0,60,6,,5.59,29.970472,,,,,,TRUE,,,,,FEW,1200,,,,,,,VFR,,,,,,,,,,,,METAR,10.0
RJTI 240700Z 13011KT 9999 FEW030 BKN/// 14/07 Q1016,RJTI,2018-03-24T07:00:00Z,35.63,139.83,14.0,7.0,130,11,,6.21,30.0,,,,,,,,,,,FEW,3000,,,,,,,VFR,,,,,,,,,,,,SPECI,8.0
RJTF 240700Z 15011KT 120V180 9999 FEW030 BKN/// 15/04 Q1016,RJTF,2018-03-24T07:00:00Z,35.67,139.52,15.0,4.0,150,11,,6.21,30.0,,,,,,,,,,,FEW,3000,,,,,,,VFR,,,,,,,,,,,,SPECI,44.0
RJSY 240700Z 25008KT 9999 FEW040 BKN/// 10/01 Q1018,RJSY,2018-03-24T07:00:00Z,38.82,139.77,10.0,1.0,250,8,,6.21,30.059055,,,,,,,,,,,FEW,4000,,,,,,,VFR,,,,,,,,,,,,METAR,22.0
RJSR 240700Z 25011KT 200V270 9999 FEW035 BKN040 09/00 Q1017,RJSR,2018-03-24T07:00:00Z,40.18,140.37,9.0,0.0,250,11,,6.21,30.029528,,,,,,,,,,,FEW,3500,BKN,4000,,,,,VFR,,,,,,,,,,,,METAR,87.0
RJSI 240700Z 26006KT 220V340 9999 FEW040 BKN/// 11/M01 Q1017,RJSI,2018-03-24T07:00:00Z,39.42,141.12,11.0,-1.0,260,6,,6.21,30.029528,,,,,,,,,,,FEW,4000,,,,,,,VFR,,,,,,,,,,,,SPECI,93.0
RJSC 240700Z 36012KT 9999 FEW070 BKN/// 10/01 Q1017,RJSC,2018-03-24T07:00:00Z,38.42,140.37,10.0,1.0,360,12,,6.21,30.029528,,,,,,,,,,,FEW,7000,,,,,,,VFR,,,,,,,,,,,,SPECI,108.0
RJOY 240700Z 28009KT 250V310 9999 FEW035 15/M01 Q1018,RJOY,2018-03-24T07:00:00Z,34.6,135.58,15.0,-1.0,280,9,,6.21,30.059055,,,,,,,,,,,FEW,3500,,,,,,,VFR,,,,,,,,,,,,METAR,13.0
RJOW 240700Z 27011KT 9999 FEW040 14/05 Q1020,RJOW,2018-03-24T07:00:00Z,34.67,131.8,14.0,5.0,270,11,,6.21,30.11811,,,,,,,,,,,FEW,4000,,,,,,,VFR,,,,,,,,,,,,METAR,54.0
KNGU 240659Z 33015KT 10SM CLR 04/M06 A3021 RMK AO2 SLP229 T00441061,KNGU,2018-03-24T06:59:00Z,36.92,-76.27,4.4,-6.1,330,15,,10.0,30.209646,1022.9,,,TRUE,,,,,,,CLR,,,,,,,,VFR,,,,,,,,,,,,METAR,5.0
KNOZ 240659Z AUTO 12007KT 10SM CLR 18/05 A2993 RMK AO2 SLP085 T01830050 402780172,KNOZ,2018-03-24T06:59:00Z,32.5,-114.45,18.3,5.0,120,7,,10.0,29.929134,1008.5,,TRUE,TRUE,,,,,,,CLR,,,,,,,,VFR,,,,27.8,17.2,,,,,,,METAR,103.0
MUCF 240659Z AUTO 06006KT 14/12 Q1021,MUCF,2018-03-24T06:59:00Z,22.13,-80.4,14.0,12.0,60,6,,,30.147638,,,TRUE,,,,,,,,,,,,,,,,,,,,,,,,,,,,METAR,39.0
KCNB 240659Z AUTO 12015G21KT 030V140 3/4SM SN OVC003 00/00 A3007 RMK AO2 P0003,KCNB,2018-03-24T06:59:00Z,44.73,-96.27,0.0,0.0,120,15,21,0.75,30.070866,,,TRUE,TRUE,,,,,,SN,OVC,300,,,,,,,LIFR,,,,,,0.03,,,,,,SPECI,364.0
OAIX 240658Z 26004KT 9999 FEW220 BKN270 19/M04 A3024 RMK AO2A SLP174 T01931041,OAIX,2018-03-24T06:58:00Z,34.95,69.27,19.3,-4.1,260,4,,6.21,30.239174,1017.4,,,TRUE,,,,,,,FEW,22000,BKN,27000,,,,,VFR,,,,,,,,,,,,METAR,1492.0
KNTD 240658Z AUTO 00000KT 10SM CLR 12/09 A3006 RMK AO2 SLP179 T01170089 VISNO N $,KNTD,2018-03-24T06:58:00Z,34.12,-119.12,11.7,8.9,0,0,,10.0,30.059055,1017.9,,TRUE,TRUE,TRUE,,,,,,CLR,,,,,,,,VFR,,,,,,,,,,,,METAR,4.0
KMRH 240658Z AUTO 32009KT 10SM CLR 07/M01 A3017 RMK AO2 SLP218 T00671011,KMRH,2018-03-24T06:58:00Z,34.73,-76.65,6.7,-1.1,320,9,,10.0,30.171259,1021.8,,TRUE,TRUE,,,,,,,CLR,,,,,,,,VFR,,,,,,,,,,,,METAR,3.0
KMEI 240658Z AUTO 18009KT 10SM OVC070 17/11 A3010 RMK AO2 SLP188 T01670111,KMEI,2018-03-24T06:58:00Z,32.33,-88.75,16.7,11.1,180,9,,10.0,30.100393,1018.8,,TRUE,TRUE,,,,,,,OVC,7000,,,,,,,VFR,,,,,,,,,,,,METAR,89.0
MUVR 240658Z 14005KT 8000 FEW025 11/10 Q1021,MUVR,2018-03-24T06:58:00Z,23.03,-81.43,11.0,10.0,140,5,,4.97,30.147638,,,,,,,,,,,FEW,2500,,,,,,,MVFR,,,,,,,,,,,,METAR,65.0
KSLI 240658Z AUTO 17004KT 10SM CLR 12/11 A3005 RMK AO2 SLP179 T01210105,KSLI,2018-03-24T06:58:00Z,33.77,-118.03,12.1,10.5,170,4,,10.0,30.050198,1017.9,,TRUE,TRUE,,,,,,,CLR,,,,,,,,VFR,,,,,,,,,,,,METAR,11.0
KCVS 240658Z AUTO 29009KT 10SM CLR 14/M02 A2998 RMK AO2 SLP101 T01431018 402980101 $,KCVS,2018-03-24T06:58:00Z,34.37,-103.32,14.3,-1.8,290,9,,10.0,29.97933,1010.1,,TRUE,TRUE,TRUE,,,,,,CLR,,,,,,,,VFR,,,,29.8,10.1,,,,,,,METAR,1309.0
KAFF 240658Z AUTO 01007KT 10SM CLR 05/M06 A3004 RMK AO2 SLP137 T00451064 401980043,KAFF,2018-03-24T06:58:00Z,38.97,-104.82,4.5,-6.4,10,7,,10.0,30.041338,1013.7,,TRUE,TRUE,,,,,,,CLR,,,,,,,,VFR,,,,19.8,4.3,,,,,,,METAR,2003.0
K9L2 240658Z AUTO 22006KT 10SM CLR 10/04 A3001 RMK AO2 SLP155 T00950043 $,K9L2,2018-03-24T06:58:00Z,34.97,-117.87,9.5,4.3,220,6,,10.0,30.008858,1015.5,,TRUE,TRUE,TRUE,,,,,,CLR,,,,,,,,VFR,,,,,,,,,,,,METAR,701.0
KLUF 240658Z AUTO 08003KT 10SM CLR 18/M01 A2991 RMK AO2 SLP120 T01841015 402840176 VISNO RWY21 $,KLUF,2018-03-24T06:58:00Z,33.52,-112.37,18.4,-1.5,80,3,,10.0,29.911417,1012.0,,TRUE,TRUE,TRUE,,,,,,CLR,,,,,,,,VFR,,,,28.4,17.6,,,,,,,METAR,332.0
K1OW 240658Z AUTO 33012KT 10SM CLR 00/M01 A3001 RMK AO2 SLP160 T10011009 401831001 PWINO FZRANO $,K1OW,2018-03-24T06:58:00Z,,,-0.1,-0.9,330,12,,10.0,30.008858,1016.0,,TRUE,TRUE,TRUE,,,TRUE,TRUE,,CLR,,,,,,,,VFR,,,,18.3,-0.1,,,,,,,METAR,
K0J4 240658Z AUTO 00000KT 10SM CLR 09/07 A3020 RMK AO2 SLP224 T00890067 $,K0J4,2018-03-24T06:58:00Z,31.05,-86.32,8.9,6.7,0,0,,10.0,30.200787,1022.4,,TRUE,TRUE,TRUE,,,,,,CLR,,,,,,,,VFR,,,,,,,,,,,,METAR,96.0
KEUF 240658Z AUTO 19003KT 10SM BKN095 08/06 A3017 RMK AO2 SLP214 T00780061,KEUF,2018-03-24T06:58:00Z,31.95,-85.13,7.8,6.1,190,3,,10.0,30.171259,1021.4,,TRUE,TRUE,,,,,,,BKN,9500,,,,,,,VFR,,,,,,,,,,,,METAR,87.0
KINS 240658Z AUTO 04007KT 10SM CLR 10/M03 A2990 RMK AO2 SLP102 T00961033 $,KINS,2018-03-24T06:58:00Z,36.58,-115.67,9.6,-3.3,40,7,,10.0,29.899607,1010.2,,TRUE,TRUE,TRUE,,,,,,CLR,,,,,,,,VFR,,,,,,,,,,,,METAR,955.0
KGOV 240658Z AUTO 00000KT 9SM CLR M08/M10 A3035 RMK AO2 SLP301 T10841102 $,KGOV,2018-03-24T06:58:00Z,44.68,-84.73,-8.4,-10.2,0,0,,9.0,30.351377,1030.1,,TRUE,TRUE,TRUE,,,,,,CLR,,,,,,,,VFR,,,,,,,,,,,,METAR,353.0
KCWN 240658Z AUTO 22006KT 10SM CLR 08/M07 A2999 RMK AO2 SLP017 T00751071 401750064 $,KCWN,2018-03-24T06:58:00Z,38.75,-104.85,7.5,-7.1,220,6,,10.0,29.991142,1001.7,,TRUE,TRUE,TRUE,,,,,,CLR,,,,,,,,VFR,,,,17.5,6.4,,,,,,,METAR,2040.0
K4MR 240658Z AUTO 29012KT 10SM CLR 14/M01 A2999 RMK AO2 SLP103 T01361014 402950126 $,K4MR,2018-03-24T06:58:00Z,34.3,-103.8,13.6,-1.4,290,12,,10.0,29.991142,1010.3,,TRUE,TRUE,TRUE,,,,,,CLR,,,,,,,,VFR,,,,29.5,12.6,,,,,,,METAR,1326.0
KMUO 240658Z AUTO 20004KT 10SM FEW150 03/00 A2982 RMK AO2 SLP105 T00310000 401331006 $,KMUO,2018-03-24T06:58:00Z,43.03,-115.87,3.1,0.0,200,4,,10.0,29.819881,1010.5,,TRUE,TRUE,TRUE,,,,,,FEW,15000,,,,,,,VFR,,,,13.3,-0.6,,,,,,,METAR,913.0
KLSV 240658Z AUTO 24004KT 10SM CLR 17/M06 A2990 RMK AO2 SLP112 T01651059,KLSV,2018-03-24T06:58:00Z,36.22,-115.02,16.5,-5.9,240,4,,10.0,29.899607,1011.2,,TRUE,TRUE,,,,,,,CLR,,,,,,,,VFR,,,,,,,,,,,,METAR,570.0
KHMN 240658Z AUTO 28004KT 10SM CLR 14/M06 A3007 RMK AO2 SLP123 T01381064 402950136 $,KHMN,2018-03-24T06:58:00Z,32.85,-106.08,13.8,-6.4,280,4,,10.0,30.070866,1012.3,,TRUE,TRUE,TRUE,,,,,,CLR,,,,,,,,VFR,,,,29.5,13.6,,,,,,,METAR,1248.0
KHIF 240658Z AUTO 15004KT 10SM CLR 06/M02 A2989 RMK AO2 SLP110 T00601021 401140027,KHIF,2018-03-24T06:58:00Z,41.12,-111.97,6.0,-2.1,150,4,,10.0,29.890747,1011.0,,TRUE,TRUE,,,,,,,CLR,,,,,,,,VFR,,,,11.4,2.7,,,,,,,METAR,1459.0
KGXF 240658Z AUTO 16005KT 10SM CLR 19/M04 A2992 RMK AO2 SLP123 T01851042 402910179,KGXF,2018-03-24T06:58:00Z,32.87,-112.72,18.5,-4.2,160,5,,10.0,29.920275,1012.3,,TRUE,TRUE,,,,,,,CLR,,,,,,,,VFR,,,,29.1,17.9,,,,,,,METAR,262.0
KGRF 240658Z AUTO 22003KT 10SM -RA FEW012 OVC022 04/04 A2977 RMK AO2 SLP087 P0002 T00370037 RVRNO $,KGRF,2018-03-24T06:58:00Z,47.07,-122.57,3.7,3.7,220,3,,10.0,29.769686,1008.7,,TRUE,TRUE,TRUE,,,,,-RA,FEW,1200,OVC,2200,,,,,MVFR,,,,,,0.02,,,,,,METAR,92.0
KFHU 240658Z AUTO 00000KT 10SM CLR 16/00 A3013 RMK AO2 SLP139 T01611003 402620139,KFHU,2018-03-24T06:58:00Z,31.58,-110.35,16.1,-0.3,0,0,,10.0,30.129921,1013.9,,TRUE,TRUE,,,,,,,CLR,,,,,,,,VFR,,,,26.2,13.9,,,,,,,METAR,1438.0
KFCS 240658Z AUTO 20007KT 10SM CLR 06/M06 A3001 RMK AO2 SLP144 T00611062 402070055 $,KFCS,2018-03-24T06:58:00Z,38.67,-104.77,6.1,-6.2,200,7,,10.0,30.008858,1014.4,,TRUE,TRUE,TRUE,,,,,,CLR,,,,,,,,VFR,,,,20.7,5.5,,,,,,,METAR,1789.0
KEDW 240658Z AUTO 29003KT 10SM CLR 09/06 A3000 RMK AO2 SLP154 T00920063,KEDW,2018-03-24T06:58:00Z,34.88,-117.87,9.2,6.3,290,3,,10.0,30.0,1015.4,,TRUE,TRUE,,,,,,,CLR,,,,,,,,VFR,,,,,,,,,,,,METAR,702.0
KDMA 240658Z AUTO 14005KT 10SM CLR 17/03 A3002 RMK AO2 SLP133 T01650032 402730138 $,KDMA,2018-03-24T06:58:00Z,32.17,-110.87,16.5,3.2,140,5,,10.0,30.02067,1013.3,,TRUE,TRUE,TRUE,,,,,,CLR,,,,,,,,VFR,,,,27.3,13.8,,,,,,,METAR,824.0
KBAB 240658Z AUTO 14013KT 10SM BKN085 09/05 A3008 RMK AO2 SLP189 T00920052 $,KBAB,2018-03-24T06:58:00Z,39.12,-121.42,9.2,5.2,140,13,,10.0,30.079725,1018.9,,TRUE,TRUE,TRUE,,,,,,BKN,8500,,,,,,,VFR,,,,,,,,,,,,METAR,34.0
KROG 240658Z AUTO 18012KT 10SM OVC032 19/13 A2977 RMK AO2 SLP070 T01890133,KROG,2018-03-24T06:58:00Z,36.37,-94.08,18.9,13.3,180,12,,10.0,29.769686,1007.0,,TRUE,TRUE,,,,,,,OVC,3200,,,,,,,VFR,,,,,,,,,,,,METAR,415.0
PAFB 240658Z AUTO 07010KT 10SM CLR M07/M18 A2996 RMK AO2 SLP155 T10681182,PAFB,2018-03-24T06:58:00Z,64.83,-147.62,-6.8,-18.2,70,10,,10.0,29.958662,1015.5,,TRUE,TRUE,,,,,,,CLR,,,,,,,,VFR,,,,,,,,,,,,METAR,137.0
KT70 240658Z AUTO 17008KT 10SM CLR 21/16 A2986 RMK AO2 SLP100 T02050155,KT70,2018-03-24T06:58:00Z,29.12,-100.48,20.5,15.5,170,8,,10.0,29.861221,1010.0,,TRUE,TRUE,,,,,,,CLR,,,,,,,,VFR,,,,,,,,,,,,METAR,298.0
KLOR 240658Z AUTO 00000KT 10SM BKN090 09/07 A3018 RMK AO2 SLP203 T00910069,KLOR,2018-03-24T06:58:00Z,31.35,-85.75,9.1,6.9,0,0,,10.0,30.180119,1020.3,,TRUE,TRUE,,,,,,,BKN,9000,,,,,,,VFR,,,,,,,,,,,,METAR,74.0
KHUA 240658Z AUTO 17006KT 10SM OVC080 12/04 A3008 RMK AO2 SLP186 T01210040 $,KHUA,2018-03-24T06:58:00Z,34.68,-86.68,12.1,4.0,170,6,,10.0,30.079725,1018.6,,TRUE,TRUE,TRUE,,,,,,OVC,8000,,,,,,,VFR,,,,,,,,,,,,METAR,209.0
KHLR 240658Z AUTO 18014KT 10SM OVC016 18/16 A2987 RMK AO2 SLP107 T01830159,KHLR,2018-03-24T06:58:00Z,31.13,-97.72,18.3,15.9,180,14,,10.0,29.870079,1010.7,,TRUE,TRUE,,,,,,,OVC,1600,,,,,,,MVFR,,,,,,,,,,,,METAR,283.0
KRIV 240658Z AUTO 00000KT 10SM CLR 09/09 A3005 RMK AO2 SLP173 T00940094,KRIV,2018-03-24T06:58:00Z,33.87,-117.27,9.4,9.4,0,0,,10.0,30.050198,1017.3,,TRUE,TRUE,,,,,,,CLR,,,,,,,,VFR,,,,,,,,,,,,METAR,469.0
KPOE 240658Z AUTO 17010KT 10SM OVC020 18/16 A3001 RMK AO2 OVC V BKN SLP162 T01790162,KPOE,2018-03-24T06:58:00Z,31.05,-93.2,17.9,16.2,170,10,,10.0,30.008858,1016.2,,TRUE,TRUE,,,,,,,OVC,2000,,,,,,,MVFR,,,,,,,,,,,,METAR,101.0
PWAK 240658Z AUTO 08016G20KT 9999 FEW029 BKN049 25/20 A2999 RMK AO2 SLP162,PWAK,2018-03-24T06:58:00Z,19.28,166.65,25.0,20.0,80,16,20,6.21,29.991142,1016.2,,TRUE,TRUE,,,,,,,FEW,2900,BKN,4900,,,,,VFR,,,,,,,,,,,,METAR,4.0
PAFR 240658Z AUTO 03003KT 10SM CLR M09/M13 A2976 RMK AO2 SLP089 T10911134,PAFR,2018-03-24T06:58:00Z,61.27,-149.65,-9.1,-13.4,30,3,,10.0,29.760826,1008.9,,TRUE,TRUE,,,,,,,CLR,,,,,,,,VFR,,,,,,,,,,,,METAR,115.0
KFEW 240658Z AUTO M 10SM CLR M01/M01 A3005 RMK AO2 SLP167 T10061011 401621006 $,KFEW,2018-03-24T06:58:00Z,41.13,-104.87,-0.6,-1.1,,,,10.0,30.050198,1016.7,,TRUE,TRUE,TRUE,,,,,,CLR,,,,,,,,VFR,,,,16.2,-0.6,,,,,,,METAR,1878.0
KBKF 240658Z 06008KT 10SM FEW110 SCT220 03/M01 A3004 RMK AO2A SLP142 T00261012 402130025,KBKF,2018-03-24T06:58:00Z,39.72,-104.75,2.6,-1.2,60,8,,10.0,30.041338,1014.2,,,TRUE,,,,,,,FEW,11000,SCT,22000,,,,,VFR,,,,21.3,2.5,,,,,,,SPECI,1726.0
KGFA 240658Z AUTO 13011KT 10SM FEW033 SCT075 BKN210 02/01 A2986 RMK AO2 RAB19E34SHRAB34E46 SLP131 T00160007 401141024 $,KGFA,2018-03-24T06:58:00Z,47.5,-111.17,1.6,0.7,130,11,,10.0,29.861221,1013.1,,TRUE,TRUE,TRUE,,,,,,FEW,3300,SCT,7500,BKN,21000,,,VFR,,,,11.4,-2.4,,,,,,,SPECI,1075.0
KBIF 240658Z AUTO 33005KT 10SM CLR 18/M02 A3004 RMK AO2 SLP113 T01751022 402970140 $,KBIF,2018-03-24T06:58:00Z,31.85,-106.38,17.5,-2.2,330,5,,10.0,30.041338,1011.3,,TRUE,TRUE,TRUE,,,,,,CLR,,,,,,,,VFR,,,,29.7,14.0,,,,,,,METAR,1203.0
KFLG 240657Z AUTO 00000KT 10SM CLR M02/M08 A3013 RMK AO2 SLP167 T10221078 401331022,KFLG,2018-03-24T06:57:00Z,35.13,-111.67,-2.2,-7.8,0,0,,10.0,30.129921,1016.7,,TRUE,TRUE,,,,,,,CLR,,,,,,,,VFR,,,,13.3,-2.2,,,,,,,METAR,2134.0
KNJM 240657Z AUTO 34005KT 10SM CLR 03/M02 A3019 RMK AO2 SLP225 T00331022 $,KNJM,2018-03-24T06:57:00Z,34.67,-77.02,3.3,-2.2,340,5,,10.0,30.188976,1022.5,,TRUE,TRUE,TRUE,,,,,,CLR,,,,,,,,VFR,,,,,,,,,,,,METAR,7.0
KNSI 240657Z AUTO 30020G27KT CLR 11/ A3007 RMK AO2 PK WND 30031/0625 SLP178 T0106 $,KNSI,2018-03-24T06:57:00Z,33.22,-119.45,10.6,,300,20,27,,30.070866,1017.8,,TRUE,TRUE,TRUE,,,,,,CLR,,,,,,,,,,,,,,,,,,,,METAR,154.0
PAJC 240657Z AUTO 26010KT 10SM CLR 02/M03 RMK AO2 SLPNO T00171033 FZRANO $,PAJC,2018-03-24T06:57:00Z,56.32,-158.37,1.7,-3.3,260,10,,10.0,,,,TRUE,TRUE,TRUE,,,TRUE,,,CLR,,,,,,,,VFR,,,,,,,,,,,,METAR,15.0
EQYG 240657Z AUTO 26012KT 10SM CLR 14/06 A2967 RMK AO2 SLP042 T01440056 $ ,EQYG,2018-03-24T06:57:00Z,,,14.4,5.6,260,12,,10.0,29.66929,1004.2,,TRUE,TRUE,TRUE,,,,,,CLR,,,,,,,,VFR,,,,,,,,,,,,METAR,
KNYL 240657Z AUTO 17006KT 10SM CLR 19/06 A2991 RMK AO2 SLP125 T01890056 402780183,KNYL,2018-03-24T06:57:00Z,32.63,-114.62,18.9,5.6,170,6,,10.0,29.911417,1012.5,,TRUE,TRUE,,,,,,,CLR,,,,,,,,VFR,,,,27.8,18.3,,,,,,,SPECI,65.0
KP60 240656Z AUTO 28004KT M03/M04 A2996 RMK AO1 SLP148 P0001 T10331044 400221050,KP60,2018-03-24T06:56:00Z,44.55,-110.42,-3.3,-4.4,280,4,,,29.958662,1014.8,,TRUE,TRUE,,,,,,,,,,,,,,,,,,,2.2,-5.0,0.01,,,,,,SPECI,2388.0
KNQI 240656Z AUTO 16016G21KT 10SM OVC021 22/19 A2993 RMK AO2 SLP131 T02170189,KNQI,2018-03-24T06:56:00Z,27.5,-97.82,21.7,18.9,160,16,21,10.0,29.929134,1013.1,,TRUE,TRUE,,,,,,,OVC,2100,,,,,,,MVFR,,,,,,,,,,,,METAR,15.0
KMEH 240656Z AUTO 00000KT 10SM FEW080 SCT100 M01/M02 A2967 RMK AO2 SLP063 I1001 T10111022,KMEH,2018-03-24T06:56:00Z,45.52,-118.42,-1.1,-2.2,0,0,,10.0,29.66929,1006.3,,TRUE,TRUE,,,,,,,FEW,8000,SCT,10000,,,,,VFR,,,,,,,,,,,,METAR,1136.0
KWMC 240656Z AUTO 31005KT 10SM CLR 03/M08 A2987 RMK AO2 SLP109 T00331078,KWMC,2018-03-24T06:56:00Z,40.9,-117.8,3.3,-7.8,310,5,,10.0,29.870079,1010.9,,TRUE,TRUE,,,,,,,CLR,,,,,,,,VFR,,,,,,,,,,,,METAR,1310.0
KBZN 240656Z AUTO 10006KT 10SM CLR 02/M05 A2984 RMK AO2 SLP110 T00171050 401331006,KBZN,2018-03-24T06:56:00Z,45.78,-111.17,1.7,-5.0,100,6,,10.0,29.840551,1011.0,,TRUE,TRUE,,,,,,,CLR,,,,,,,,VFR,,,,13.3,-0.6,,,,,,,METAR,1361.0
KNSE 240656Z AUTO 10003KT 10SM CLR 08/08 A3017 RMK AO2 SLP203 T00780078 $,KNSE,2018-03-24T06:56:00Z,30.73,-87.02,7.8,7.8,100,3,,10.0,30.171259,1020.3,,TRUE,TRUE,TRUE,,,,,,CLR,,,,,,,,VFR,,,,,,,,,,,,METAR,61.0
KSZL 240656Z 12012KT 8SM -RA OVC028 10/08 A2970 RMK AO2A SLP060 P0001 T01020080 $,KSZL,2018-03-24T06:56:00Z,38.72,-93.53,10.2,8.0,120,12,,8.0,29.698818,1006.0,,,TRUE,TRUE,,,,,-RA,OVC,2800,,,,,,,MVFR,,,,,,0.01,,,,,,METAR,265.0
KNGP 240656Z AUTO 17018G24KT 10SM BKN023 22/ A2994 RMK AO2 PK WND 17026/0630 SLP139 T0222 $,KNGP,2018-03-24T06:56:00Z,27.68,-97.27,22.2,,170,18,24,10.0,29.940945,1013.9,,TRUE,TRUE,TRUE,,,,,,BKN,2300,,,,,,,MVFR,,,,,,,,,,,,METAR,6.0
K8D3 240656Z AUTO 12017KT M01/M02 A3009 RMK AO1 PK WND 12026/0624 SLP210 P0004 T10111017,K8D3,2018-03-24T06:56:00Z,45.67,-96.98,-1.1,-1.7,120,17,,,30.088583,1021.0,,TRUE,TRUE,,,,,,,,,,,,,,,,,,,,,0.04,,,,,,METAR,354.0
K2WX 240656Z AUTO 31010KT 02/M01 A2990 RMK AO1 SLP151 T00171011 400440011,K2WX,2018-03-24T06:56:00Z,45.6,-103.55,1.7,-1.1,310,10,,,29.899607,1015.1,,TRUE,TRUE,,,,,,,,,,,,,,,,,,,4.4,1.1,,,,,,,METAR,915.0
OTBH 240656Z 10004KT 8000 HZ CLR 25/15 A3000 RMK AO2A SLP160 T02500153 $,OTBH,2018-03-24T06:56:00Z,25.12,51.32,25.0,15.3,100,4,,4.97,30.0,1016.0,,,TRUE,TRUE,,,,,HZ,CLR,,,,,,,,MVFR,,,,,,,,,,,,METAR,40.0
KPRN 240656Z AUTO 19004KT 10SM FEW085 11/06 A3015 RMK AO2 SLP208 T01110061,KPRN,2018-03-24T06:56:00Z,31.85,-86.62,11.1,6.1,190,4,,10.0,30.15059,1020.8,,TRUE,TRUE,,,,,,,FEW,8500,,,,,,,VFR,,,,,,,,,,,,METAR,138.0
OAJL 240656Z 05003KT 9999 FEW160 25/07 A3010 RMK AO2A SLP163 T02520065,OAJL,2018-03-24T06:56:00Z,34.42,70.47,25.2,6.5,50,3,,6.21,30.100393,1016.3,,,TRUE,,,,,,,FEW,16000,,,,,,,VFR,,,,,,,,,,,,METAR,580.0
KRCA 240656Z AUTO 34008KT 10SM CLR 01/01 A2995 RMK AO2 SLP152 T00070007 401440007 $,KRCA,2018-03-24T06:56:00Z,44.13,-103.08,0.7,0.7,340,8,,10.0,29.949802,1015.2,,TRUE,TRUE,TRUE,,,,,,CLR,,,,,,,,VFR,,,,14.4,0.7,,,,,,,METAR,999.0
KPSM 240656Z 00000KT 10SM OVC060 01/M04 A2997 RMK AO2A SLP152 T00121039,KPSM,2018-03-24T06:56:00Z,43.07,-70.82,1.2,-3.9,0,0,,10.0,29.970472,1015.2,,,TRUE,,,,,,,OVC,6000,,,,,,,VFR,,,,,,,,,,,,METAR,31.0
KMUI 240656Z AUTO 00000KT 10SM CLR 01/M09 A3016 RMK AO2 SLP220 T00111095,KMUI,2018-03-24T06:56:00Z,40.42,-76.57,1.1,-9.5,0,0,,10.0,30.159449,1022.0,,TRUE,TRUE,,,,,,,CLR,,,,,,,,VFR,,,,,,,,,,,,METAR,149.0
KHRT 240656Z 20006KT 10SM CLR 17/11 A3016 RMK AO2A SLP215 T01710114 $,KHRT,2018-03-24T06:56:00Z,30.42,-86.67,17.1,11.4,200,6,,10.0,30.159449,1021.5,,,TRUE,TRUE,,,,,,CLR,,,,,,,,VFR,,,,,,,,,,,,METAR,12.0
KFFO 240656Z AUTO 00000KT 10SM CLR M01/M07 A3026 RMK AO2 SLP257 T10111073,KFFO,2018-03-24T06:56:00Z,39.82,-84.03,-1.1,-7.3,0,0,,10.0,30.259842,1025.7,,TRUE,TRUE,,,,,,,CLR,,,,,,,,VFR,,,,,,,,,,,,METAR,251.0
KDAA 240656Z AUTO 30006KT 10SM CLR 01/M07 A3021 RMK AO2 SLP234 T00131070 $,KDAA,2018-03-24T06:56:00Z,38.72,-77.17,1.3,-7.0,300,6,,10.0,30.209646,1023.4,,TRUE,TRUE,TRUE,,,,,,CLR,,,,,,,,VFR,,,,,,,,,,,,METAR,21.0
KCEF 240656Z AUTO 34003KT 10SM CLR M01/M08 A3002 RMK AO2 SLP174 T10081085,KCEF,2018-03-24T06:56:00Z,42.2,-72.52,-0.8,-8.5,340,3,,10.0,30.02067,1017.4,,TRUE,TRUE,,,,,,,CLR,,,,,,,,VFR,,,,,,,,,,,,METAR,75.0
BGTL 240656Z AUTO 11007KT 9999 CLR M32/M36 A3004 RMK AO2 SLP167 T13171359 TSNO $,BGTL,2018-03-24T06:56:00Z,76.53,-68.7,-31.7,-35.9,110,7,,6.21,30.041338,1016.7,,TRUE,TRUE,TRUE,,TRUE,,,,CLR,,,,,,,,VFR,,,,,,,,,,,,SPECI,77.0
KQRH 240656Z AUTO VRB05G12KT 9999 CLR 29/21 A2995 RMK AO2 SLP129 WND DATA ESTMD T02940205,KQRH,2018-03-24T06:56:00Z,,,29.4,20.5,0,5,12,6.21,29.949802,1012.9,,TRUE,TRUE,,,,,,,CLR,,,,,,,,VFR,,,,,,,,,,,,METAR,
KQND 240656Z AUTO 00000KT 1000 DU CLR 27/M03 A2991 RMK AO2 SLPNO WND DATA ESTMD T02741034,KQND,2018-03-24T06:56:00Z,,,27.4,-3.4,0,0,,0.62,29.911417,,,TRUE,TRUE,,,,,,DU,CLR,,,,,,,,LIFR,,,,,,,,,,,,METAR,
KQN3 240656Z AUTO 01005G13KT 2600 HZ CLR 23/M15 A2989 RMK AO2 SLP116 WND DATA ESTMD T02331151,KQN3,2018-03-24T06:56:00Z,,,23.3,-15.1,10,5,13,1.62,29.890747,1011.6,,TRUE,TRUE,,,,,,HZ,CLR,,,,,,,,IFR,,,,,,,,,,,,METAR,
KQDG 240656Z AUTO 12006KT 9999 SCT060 07/03 A3004 RMK AO2 SLP175 T00730029 PWINO $,KQDG,2018-03-24T06:56:00Z,,,7.3,2.9,120,6,,6.21,30.041338,1017.5,,TRUE,TRUE,TRUE,,,,TRUE,,SCT,6000,,,,,,,VFR,,,,,,,,,,,,METAR,
KQD3 240656Z AUTO 11007G13KT 9999 CLR 30/17 A2998 RMK AO2 SLP118 WND DATA ESTMD T03030174,KQD3,2018-03-24T06:56:00Z,,,30.3,17.4,110,7,13,6.21,29.97933,1011.8,,TRUE,TRUE,,,,,,,CLR,,,,,,,,VFR,,,,,,,,,,,,METAR,
KNUW 240656Z 00000KT 10SM FEW035 BKN075 OVC110 06/02 A2981 RMK AO2 SLP093 T00560022 $,KNUW,2018-03-24T06:56:00Z,48.35,-122.65,5.6,2.2,0,0,,10.0,29.811024,1009.3,,,TRUE,TRUE,,,,,,FEW,3500,BKN,7500,OVC,11000,,,VFR,,,,,,,,,,,,METAR,14.0
KNBC 240656Z AUTO 27004KT 10SM FEW075 BKN095 OVC120 12/06 A3018 RMK AO2 SLP218 T01220061 $,KNBC,2018-03-24T06:56:00Z,32.47,-80.72,12.2,6.1,270,4,,10.0,30.180119,1021.8,,TRUE,TRUE,TRUE,,,,,,FEW,7500,BKN,9500,OVC,12000,,,VFR,,,,,,,,,,,,METAR,12.0
KP28 240656Z AUTO 32010KT 14/10 A2972 RMK AO1 SLP055 T01440100,KP28,2018-03-24T06:56:00Z,37.28,-98.55,14.4,10.0,320,10,,,29.719488,1005.5,,TRUE,TRUE,,,,,,,,,,,,,,,,,,,,,,,,,,,METAR,469.0
RJTY 240656Z AUTO 21011KT 10SM FEW180 15/04 A3004 RMK AO2 SLP178 T01470041 FZRANO $,RJTY,2018-03-24T06:56:00Z,35.75,139.33,14.7,4.1,210,11,,10.0,30.041338,1017.8,,TRUE,TRUE,TRUE,,,TRUE,,,FEW,18000,,,,,,,VFR,,,,,,,,,,,,METAR,139.0
KGRD 240656Z AUTO 00000KT 10SM OVC070 10/03 A3019 RMK AO2 SLP221 T01000033,KGRD,2018-03-24T06:56:00Z,34.25,-82.15,10.0,3.3,0,0,,10.0,30.188976,1022.1,,TRUE,TRUE,,,,,,,OVC,7000,,,,,,,VFR,,,,,,,,,,,,METAR,185.0
KGON 240656Z AUTO 32008KT 10SM CLR 03/M06 A3001 RMK AO2 SLP161 T00281056,KGON,2018-03-24T06:56:00Z,41.33,-72.05,2.8,-5.6,320,8,,10.0,30.008858,1016.1,,TRUE,TRUE,,,,,,,CLR,,,,,,,,VFR,,,,,,,,,,,,METAR,3.0
KELZ 240656Z AUTO 30008KT CLR A3015 RMK AO2 SLPNO,KELZ,2018-03-24T06:56:00Z,42.1,-77.98,,,300,8,,,30.15059,,,TRUE,TRUE,,,,,,,CLR,,,,,,,,,,,,,,,,,,,,METAR,646.0
KEKO 240656Z AUTO VRB03KT 10SM SCT075 OVC090 03/M01 A2983 RMK AO2 SLP092 T00281011,KEKO,2018-03-24T06:56:00Z,40.82,-115.78,2.8,-1.1,0,3,,10.0,29.828741,1009.2,,TRUE,TRUE,,,,,,,SCT,7500,OVC,9000,,,,,VFR,,,,,,,,,,,,METAR,1547.0
KEED 240656Z AUTO 00000KT 10SM CLR 20/M03 A2990 RMK AO2 SLP104 T02001028,KEED,2018-03-24T06:56:00Z,34.77,-114.62,20.0,-2.8,0,0,,10.0,29.899607,1010.4,,TRUE,TRUE,,,,,,,CLR,,,,,,,,VFR,,,,,,,,,,,,METAR,302.0
KEAU 240656Z AUTO 11012G23KT 10SM CLR M01/M11 A3027 RMK AO2 SLP261 T10111106,KEAU,2018-03-24T06:56:00Z,44.87,-91.47,-1.1,-10.6,110,12,23,10.0,30.268702,1026.1,,TRUE,TRUE,,,,,,,CLR,,,,,,,,VFR,,,,,,,,,,,,METAR,276.0
KOFK 240656Z AUTO 07006KT 5SM -RA BR OVC006 03/03 A2984 RMK AO2 RAE00B44 SLP111 P0000 T00330033,KOFK,2018-03-24T06:56:00Z,41.98,-97.43,3.3,3.3,70,6,,5.0,29.840551,1011.1,,TRUE,TRUE,,,,,,-RA BR,OVC,600,,,,,,,IFR,,,,,,0.005,,,,,,METAR,470.0
KNUQ 240656Z 18003KT 10SM BKN080 11/04 A3015 RMK AO2 SLP211 T01110044,KNUQ,2018-03-24T06:56:00Z,37.4,-122.05,11.1,4.4,180,3,,10.0,30.15059,1021.1,,,TRUE,,,,,,,BKN,8000,,,,,,,VFR,,,,,,,,,,,,METAR,12.0
KMOB 240656Z 15005KT 10SM CLR 14/12 A3016 RMK AO2 SLP209 T01440122 $,KMOB,2018-03-24T06:56:00Z,30.68,-88.25,14.4,12.2,150,5,,10.0,30.159449,1020.9,,,TRUE,TRUE,,,,,,CLR,,,,,,,,VFR,,,,,,,,,,,,METAR,63.0
KMDT 240656Z 32008KT 10SM CLR 01/M08 A3018 RMK AO2 SLP222 T00111078,KMDT,2018-03-24T06:56:00Z,40.2,-76.77,1.1,-7.8,320,8,,10.0,30.180119,1022.2,,,TRUE,,,,,,,CLR,,,,,,,,VFR,,,,,,,,,,,,METAR,95.0
KLWS 240656Z AUTO 00000KT 10SM CLR 03/02 A2979 RMK AO2 SLP093 T00330017,KLWS,2018-03-24T06:56:00Z,46.37,-117.02,3.3,1.7,0,0,,10.0,29.790354,1009.3,,TRUE,TRUE,,,,,,,CLR,,,,,,,,VFR,,,,,,,,,,,,METAR,438.0
KBIH 240656Z AUTO 16006KT 10SM CLR 06/M08 A2987 RMK AO2 SLP096 T00561083,KBIH,2018-03-24T06:56:00Z,37.37,-118.35,5.6,-8.3,160,6,,10.0,29.870079,1009.6,,TRUE,TRUE,,,,,,,CLR,,,,,,,,VFR,,,,,,,,,,,,METAR,1253.0
KBED 240656Z AUTO 31005KT 10SM OVC095 02/M07 A2999 RMK AO2 SLP168 T00171067,KBED,2018-03-24T06:56:00Z,42.47,-71.3,1.7,-6.7,310,5,,10.0,29.991142,1016.8,,TRUE,TRUE,,,,,,,OVC,9500,,,,,,,VFR,,,,,,,,,,,,METAR,50.0
KART 240656Z AUTO 01004KT 10SM CLR M02/M08 A3018 RMK AO2 SLP226 T10221078,KART,2018-03-24T06:56:00Z,43.98,-76.03,-2.2,-7.8,10,4,,10.0,30.180119,1022.6,,TRUE,TRUE,,,,,,,CLR,,,,,,,,VFR,,,,,,,,,,,,METAR,100.0
KAND 240656Z AUTO 00000KT 10SM OVC070 11/05 A3017 RMK AO2 SLP213 T01060050,KAND,2018-03-24T06:56:00Z,34.5,-82.72,10.6,5.0,0,0,,10.0,30.171259,1021.3,,TRUE,TRUE,,,,,,,OVC,7000,,,,,,,VFR,,,,,,,,,,,,METAR,239.0
TJSJ 240656Z 00000KT 10SM CLR 24/22 A2996 RMK AO2 SLP145 T02390222,TJSJ,2018-03-24T06:56:00Z,18.43,-66.02,23.9,22.2,0,0,,10.0,29.958662,1014.5,,,TRUE,,,,,,,CLR,,,,,,,,VFR,,,,,,,,,,,,METAR,21.0
KWJF 240656Z AUTO 29004KT 10SM CLR 08/04 A3003 RMK AO2 SLP168 T00780044,KWJF,2018-03-24T06:56:00Z,34.72,-118.22,7.8,4.4,290,4,,10.0,30.029528,1016.8,,TRUE,TRUE,,,,,,,CLR,,,,,,,,VFR,,,,,,,,,,,,METAR,715.0
KVPZ 240656Z AUTO 09010KT 10SM CLR 00/M06 A3026 RMK AO2 SLP253 T00001061,KVPZ,2018-03-24T06:56:00Z,41.45,-87.0,0.0,-6.1,90,10,,10.0,30.259842,1025.3,,TRUE,TRUE,,,,,,,CLR,,,,,,,,VFR,,,,,,,,,,,,METAR,231.0
KDUG 240656Z AUTO 00000KT 10SM CLR 14/01 A3010 RMK AO2 SLP138 T01390006 402830111,KDUG,2018-03-24T06:56:00Z,31.47,-109.58,13.9,0.6,0,0,,10.0,30.100393,1013.8,,TRUE,TRUE,,,,,,,CLR,,,,,,,,VFR,,,,28.3,11.1,,,,,,,METAR,1265.0
KDAY 240656Z 08008KT 10SM SCT250 M01/M06 A3025 RMK AO2 SLP252 T10111056,KDAY,2018-03-24T06:56:00Z,39.9,-84.22,-1.1,-5.6,80,8,,10.0,30.250984,1025.2,,,TRUE,,,,,,,SCT,25000,,,,,,,VFR,,,,,,,,,,,,METAR,305.0
KCXY 240656Z AUTO 27005KT 10SM CLR 02/M08 A3019 RMK AO2 SLP227 T00171078,KCXY,2018-03-24T06:56:00Z,40.22,-76.85,1.7,-7.8,270,5,,10.0,30.188976,1022.7,,TRUE,TRUE,,,,,,,CLR,,,,,,,,VFR,,,,,,,,,,,,METAR,106.0
KCHS 240656Z 26006KT 10SM BKN100 11/07 A3016 RMK AO2 SLP213 T01110072,KCHS,2018-03-24T06:56:00Z,32.9,-80.03,11.1,7.2,260,6,,10.0,30.159449,1021.3,,,TRUE,,,,,,,BKN,10000,,,,,,,VFR,,,,,,,,,,,,METAR,13.0
KCAE 240656Z 35003KT 10SM OVC075 13/M01 A3018 RMK AO2 SLP220 T01331006,KCAE,2018-03-24T06:56:00Z,33.93,-81.12,13.3,-0.6,350,3,,10.0,30.180119,1022.0,,,TRUE,,,,,,,OVC,7500,,,,,,,VFR,,,,,,,,,,,,METAR,70.0
KTPH 240656Z AUTO 00000KT 10SM CLR 04/M01 A2990 RMK AO2 SLP106 T00391011,KTPH,2018-03-24T06:56:00Z,38.05,-117.08,3.9,-1.1,0,0,,10.0,29.899607,1010.6,,TRUE,TRUE,,,,,,,CLR,,,,,,,,VFR,,,,,,,,,,,,METAR,1652.0
KSHV 240656Z 19012KT 10SM SCT021 BKN027 OVC220 19/16 A2993 RMK AO2 SLP133 T01940156,KSHV,2018-03-24T06:56:00Z,32.45,-93.83,19.4,15.6,190,12,,10.0,29.929134,1013.3,,,TRUE,,,,,,,SCT,2100,BKN,2700,OVC,22000,,,MVFR,,,,,,,,,,,,METAR,83.0
KSFO 240656Z 14007KT 10SM FEW030 SCT060 BKN080 11/06 A3013 RMK AO2 SLP202 T01110061 $,KSFO,2018-03-24T06:56:00Z,37.62,-122.37,11.1,6.1,140,7,,10.0,30.129921,1020.2,,,TRUE,TRUE,,,,,,FEW,3000,SCT,6000,BKN,8000,,,VFR,,,,,,,,,,,,METAR,3.0
KSDF 240656Z 09008KT 10SM -RA OVC055 06/M02 A3020 RMK AO2 RAB32 SLP227 P0000 T00611022,KSDF,2018-03-24T06:56:00Z,38.18,-85.73,6.1,-2.2,90,8,,10.0,30.200787,1022.7,,,TRUE,,,,,,-RA,OVC,5500,,,,,,,VFR,,,,,,0.005,,,,,,METAR,146.0
KSBP 240656Z AUTO 00000KT 10SM CLR 08/06 A3012 RMK AO2 SLP200 T00830056,KSBP,2018-03-24T06:56:00Z,35.23,-120.63,8.3,5.6,0,0,,10.0,30.121063,1020.0,,TRUE,TRUE,,,,,,,CLR,,,,,,,,VFR,,,,,,,,,,,,METAR,59.0
KLNR 240656Z AUTO 07013KT 10SM CLR M01/M08 A3026 RMK AO2 SLP250 T10061078,KLNR,2018-03-24T06:56:00Z,43.22,-90.18,-0.6,-7.8,70,13,,10.0,30.259842,1025.0,,TRUE,TRUE,,,,,,,CLR,,,,,,,,VFR,,,,,,,,,,,,METAR,217.0
KLAS 240656Z 17006KT 10SM FEW250 16/M06 A2990 RMK AO2 SLP114 T01611061,KLAS,2018-03-24T06:56:00Z,36.07,-115.17,16.1,-6.1,170,6,,10.0,29.899607,1011.4,,,TRUE,,,,,,,FEW,25000,,,,,,,VFR,,,,,,,,,,,,METAR,636.0
KJXN 240656Z AUTO 05004KT 10SM CLR M04/M09 A3030 RMK AO2 SLP273 T10391094,KJXN,2018-03-24T06:56:00Z,42.27,-84.47,-3.9,-9.4,50,4,,10.0,30.301182,1027.3,,TRUE,TRUE,,,,,,,CLR,,,,,,,,VFR,,,,,,,,,,,,METAR,305.0
KJMS 240656Z AUTO 13015KT 10SM UP OVC008 M02/M02 A3007 RMK AO2 UPB30SNE30 CIG 006V011 SLP201 P0000 T10171022,KJMS,2018-03-24T06:56:00Z,46.93,-98.67,-1.7,-2.2,130,15,,10.0,30.070866,1020.1,,TRUE,TRUE,,,,,,UP,OVC,800,,,,,,,IFR,,,,,,0.005,,,,,,METAR,455.0
KJAX 240656Z 00000KT 10SM BKN170 BKN250 09/06 A3021 RMK AO2 SLP229 T00890061,KJAX,2018-03-24T06:56:00Z,30.5,-81.68,8.9,6.1,0,0,,10.0,30.209646,1022.9,,,TRUE,,,,,,,BKN,17000,BKN,25000,,,,,VFR,,,,,,,,,,,,METAR,10.0
KISP 240656Z AUTO 33009KT 10SM OVC070 03/M03 A3005 RMK AO2 SLP175 T00281033,KISP,2018-03-24T06:56:00Z,40.8,-73.1,2.8,-3.3,330,9,,10.0,30.050198,1017.5,,TRUE,TRUE,,,,,,,OVC,7000,,,,,,,VFR,,,,,,,,,,,,METAR,43.0
KINW 240656Z AUTO 36005KT 10SM CLR 08/M08 A3006 RMK AO2 SLP137 T00831083 402170078,KINW,2018-03-24T06:56:00Z,35.03,-110.72,8.3,-8.3,360,5,,10.0,30.059055,1013.7,,TRUE,TRUE,,,,,,,CLR,,,,,,,,VFR,,,,21.7,7.8,,,,,,,METAR,1490.0
KIGX 240656Z AUTO 32003KT 10SM CLR 03/M04 A3021 RMK AO2 SLP229 T00281039,KIGX,2018-03-24T06:56:00Z,35.93,-79.07,2.8,-3.9,320,3,,10.0,30.209646,1022.9,,TRUE,TRUE,,,,,,,CLR,,,,,,,,VFR,,,,,,,,,,,,METAR,155.0
KHYA 240656Z AUTO 00000KT 10SM OVC085 00/M03 A2994 RMK AO2 SLP141 T00001028 $,KHYA,2018-03-24T06:56:00Z,41.67,-70.27,0.0,-2.8,0,0,,10.0,29.940945,1014.1,,TRUE,TRUE,TRUE,,,,,,OVC,8500,,,,,,,VFR,,,,,,,,,,,,METAR,22.0
KHWV 240656Z AUTO 33009KT 10SM OVC100 03/M04 A3005 RMK AO2 SLP177 T00331039,KHWV,2018-03-24T06:56:00Z,40.82,-72.87,3.3,-3.9,330,9,,10.0,30.050198,1017.7,,TRUE,TRUE,,,,,,,OVC,10000,,,,,,,VFR,,,,,,,,,,,,METAR,21.0
KHPN 240656Z 32009KT 10SM CLR 01/M06 A3005 RMK AO2 SLP182 T00111061,KHPN,2018-03-24T06:56:00Z,41.07,-73.7,1.1,-6.1,320,9,,10.0,30.050198,1018.2,,,TRUE,,,,,,,CLR,,,,,,,,VFR,,,,,,,,,,,,METAR,121.0
KDOV 240656Z AUTO 30011KT 10SM CLR 02/M06 A3015 RMK AO2 SLP213 T00181063 $,KDOV,2018-03-24T06:56:00Z,39.12,-75.47,1.8,-6.3,300,11,,10.0,30.15059,1021.3,,TRUE,TRUE,TRUE,,,,,,CLR,,,,,,,,VFR,,,,,,,,,,,,METAR,9.0
KNXP 240656Z AUTO 27011KT 10SM CLR 15/02 A3003 RMK AO2 SLP142 T01500017,KNXP,2018-03-24T06:56:00Z,34.28,-116.17,15.0,1.7,270,11,,10.0,30.029528,1014.2,,TRUE,TRUE,,,,,,,CLR,,,,,,,,VFR,,,,,,,,,,,,METAR,626.0
KGNR 240656Z AUTO 33006KT M02/M09 A2990 RMK AO1 SLP143 T10171089,KGNR,2018-03-24T06:56:00Z,45.47,-69.55,-1.7,-8.9,330,6,,,29.899607,1014.3,,TRUE,TRUE,,,,,,,,,,,,,,,,,,,,,,,,,,,METAR,427.0
KGNA 240656Z AUTO 06015G25KT M03/M09 A3048 RMK AO1 SLP336 T10281089,KGNA,2018-03-24T06:56:00Z,47.75,-90.35,-2.8,-8.9,60,15,25,,30.481298,1033.6,,TRUE,TRUE,,,,,,,,,,,,,,,,,,,,,,,,,,,METAR,185.0
KABH 240656Z AUTO 02009KT A3002 RMK AO2 SLPNO $,KABH,2018-03-24T06:56:00Z,38.75,-104.3,,,20,9,,,30.02067,,,TRUE,TRUE,TRUE,,,,,,,,,,,,,,,,,,,,,,,,,,METAR,1840.0
KNYG 240656Z AUTO 35008KT 10SM CLR 03/M07 A3023 RMK AO2 SLP239 T00281067 $,KNYG,2018-03-24T06:56:00Z,38.5,-77.28,2.8,-6.7,350,8,,10.0,30.230314,1023.9,,TRUE,TRUE,TRUE,,,,,,CLR,,,,,,,,VFR,,,,,,,,,,,,METAR,4.0
KNLC 240656Z AUTO 31005KT 10SM SCT050 11/06 A3012 RMK AO2 SLP200 T01060061,KNLC,2018-03-24T06:56:00Z,36.32,-119.95,10.6,6.1,310,5,,10.0,30.121063,1020.0,,TRUE,TRUE,,,,,,,SCT,5000,,,,,,,VFR,,,,,,,,,,,,METAR,72.0
KNFE 240656Z AUTO 32004KT 10SM CLR 06/M06 A3019 RMK AO2 SLP225 T00561056,KNFE,2018-03-24T06:56:00Z,36.7,-76.13,5.6,-5.6,320,4,,10.0,30.188976,1022.5,,TRUE,TRUE,,,,,,,CLR,,,,,,,,VFR,,,,,,,,,,,,METAR,5.0
KNID 240656Z AUTO 17008KT 10SM CLR 12/M10 A2995 RMK AO2 SLP137 T01171100 PNO $,KNID,2018-03-24T06:56:00Z,35.67,-117.67,11.7,-10.0,170,8,,10.0,29.949802,1013.7,,TRUE,TRUE,TRUE,,,,,,CLR,,,,,,,,VFR,,,,,,,,,,,,METAR,696.0
KNTU 240656Z 34011G19KT 10SM CLR 04/M05 A3018 RMK AO2 SLP223 T00391050,KNTU,2018-03-24T06:56:00Z,36.82,-76.02,3.9,-5.0,340,11,19,10.0,30.180119,1022.3,,,TRUE,,,,,,,CLR,,,,,,,,VFR,,,,,,,,,,,,METAR,7.0
KNCA 240656Z AUTO 00000KT 10SM CLR 01/M01 A3019 RMK AO2 SLP225 T00111006,KNCA,2018-03-24T06:56:00Z,34.72,-77.45,1.1,-0.6,0,0,,10.0,30.188976,1022.5,,TRUE,TRUE,,,,,,,CLR,,,,,,,,VFR,,,,,,,,,,,,METAR,8.0
K79J 240656Z AUTO 00000KT 10SM OVC085 11/08 A3018 RMK AO2 SLP215 T01110078,K79J,2018-03-24T06:56:00Z,31.32,-86.4,11.1,7.8,0,0,,10.0,30.180119,1021.5,,TRUE,TRUE,,,,,,,OVC,8500,,,,,,,VFR,,,,,,,,,,,,METAR,94.0
KNPA 240656Z AUTO 19007KT 10SM CLR 17/12 A3016 RMK AO2 SLP215 T01670122,KNPA,2018-03-24T06:56:00Z,30.35,-87.32,16.7,12.2,190,7,,10.0,30.159449,1021.5,,TRUE,TRUE,,,,,,,CLR,,,,,,,,VFR,,,,,,,,,,,,METAR,9.0
KNDZ 240656Z AUTO 00000KT 10SM CLR 10/08 A3017 RMK AO2 SLP204 T01000083 $,KNDZ,2018-03-24T06:56:00Z,30.7,-87.02,10.0,8.3,0,0,,10.0,30.171259,1020.4,,TRUE,TRUE,TRUE,,,,,,CLR,,,,,,,,VFR,,,,,,,,,,,,METAR,54.0
KD07 240656Z AUTO 31010KT 02/02 A2994 RMK AO1 SLP165 T00170017 400330006,KD07,2018-03-24T06:56:00Z,45.03,-102.02,1.7,1.7,310,10,,,29.940945,1016.5,,TRUE,TRUE,,,,,,,,,,,,,,,,,,,3.3,0.6,,,,,,,METAR,784.0
KSPD 240656Z AUTO 32010KT 06/03 A2996 RMK AO1 SLP096 T00610028 402890061,KSPD,2018-03-24T06:56:00Z,37.28,-102.62,6.1,2.8,320,10,,,29.958662,1009.6,,TRUE,TRUE,,,,,,,,,,,,,,,,,,,28.9,6.1,,,,,,,METAR,1335.0
KHFF 240656Z AUTO 23005KT 10SM BKN120 02/00 A3019 RMK AO2 SLP240 T00231002 $,KHFF,2018-03-24T06:56:00Z,35.02,-79.5,2.3,-0.2,230,5,,10.0,30.188976,1024.0,,TRUE,TRUE,TRUE,,,,,,BKN,12000,,,,,,,VFR,,,,,,,,,,,,METAR,115.0
KXMR 240656Z AUTO 00000KT 10SM CLR 10/07 A3020 RMK AO2 SLP230 T00950071 FZRANO $,KXMR,2018-03-24T06:56:00Z,28.47,-80.57,9.5,7.1,0,0,,10.0,30.200787,1023.0,,TRUE,TRUE,TRUE,,,TRUE,,,CLR,,,,,,,,VFR,,,,,,,,,,,,METAR,3.0
KVOK 240656Z AUTO 09010KT 10SM CLR M02/M08 A3029 RMK AO2 SLP270 T10221083,KVOK,2018-03-24T06:56:00Z,43.92,-90.27,-2.2,-8.3,90,10,,10.0,30.28937,1027.0,,TRUE,TRUE,,,,,,,CLR,,,,,,,,VFR,,,,,,,,,,,,METAR,277.0
KMTC 240656Z AUTO 35006KT 10SM CLR M06/M06 A3030 RMK AO2 SLP273 T10621065,KMTC,2018-03-24T06:56:00Z,42.62,-82.82,-6.2,-6.5,350,6,,10.0,30.301182,1027.3,,TRUE,TRUE,,,,,,,CLR,,,,,,,,VFR,,,,,,,,,,,,METAR,177.0
KLFI 240656Z AUTO 33009KT 10SM CLR 03/M06 A3020 RMK AO2 SLP234 T00331064,KLFI,2018-03-24T06:56:00Z,37.07,-76.37,3.3,-6.4,330,9,,10.0,30.200787,1023.4,,TRUE,TRUE,,,,,,,CLR,,,,,,,,VFR,,,,,,,,,,,,METAR,3.0
KHST 240656Z AUTO 00000KT 10SM CLR 15/07 A3018 RMK AO2 SLP223 T01480071,KHST,2018-03-24T06:56:00Z,25.47,-80.37,14.8,7.1,0,0,,10.0,30.180119,1022.3,,TRUE,TRUE,,,,,,,CLR,,,,,,,,VFR,,,,,,,,,,,,METAR,2.0
KHOP 240656Z AUTO 10010KT 10SM OVC070 07/07 A3005 RMK AO2 RAE0558DZB0558E13 SLP178 P0000 T00710070,KHOP,2018-03-24T06:56:00Z,36.67,-87.5,7.1,7.0,100,10,,10.0,30.050198,1017.8,,TRUE,TRUE,,,,,,,OVC,7000,,,,,,,VFR,,,,,,0.005,,,,,,METAR,174.0
KGUS 240656Z AUTO 09009KT 10SM OVC140 01/M07 A3024 RMK AO2 SLP250 T00111074 RVRNO $,KGUS,2018-03-24T06:56:00Z,40.63,-86.15,1.1,-7.4,90,9,,10.0,30.239174,1025.0,,TRUE,TRUE,TRUE,,,,,,OVC,14000,,,,,,,VFR,,,,,,,,,,,,METAR,247.0
KGTB 240656Z AUTO 35005KT 10SM CLR M03/M09 A3015 RMK AO2 SLP218 T10301095,KGTB,2018-03-24T06:56:00Z,44.07,-75.72,-3.0,-9.5,350,5,,10.0,30.15059,1021.8,,TRUE,TRUE,,,,,,,CLR,,,,,,,,VFR,,,,,,,,,,,,METAR,207.0
KEND 240656Z AUTO 20010KT 10SM CLR 17/16 A2967 RMK AO2 SLP040 T01650155 VISNO RWY35C $,KEND,2018-03-24T06:56:00Z,36.32,-97.92,16.5,15.5,200,10,,10.0,29.66929,1004.0,,TRUE,TRUE,TRUE,,,,,,CLR,,,,,,,,VFR,,,,,,,,,,,,METAR,398.0
KBAD 240656Z AUTO 18015G25KT 10SM OVC023 20/15 A2994 RMK AO2 SLP140 T01950147,KBAD,2018-03-24T06:56:00Z,32.5,-93.67,19.5,14.7,180,15,25,10.0,29.940945,1014.0,,TRUE,TRUE,,,,,,,OVC,2300,,,,,,,MVFR,,,,,,,,,,,,METAR,51.0
KP53 240656Z AUTO 18004KT M12/M13 A3044 RMK AO1 SLP322 T11171133,KP53,2018-03-24T06:56:00Z,46.42,-86.65,-11.7,-13.3,180,4,,,30.43996,1032.2,,TRUE,TRUE,,,,,,,,,,,,,,,,,,,,,,,,,,,METAR,187.0
KNMM 240656Z AUTO 19005KT 10SM BKN070 16/11 A3010 RMK AO2 SLP201 T01610106,KNMM,2018-03-24T06:56:00Z,32.53,-88.57,16.1,10.6,190,5,,10.0,30.100393,1020.1,,TRUE,TRUE,,,,,,,BKN,7000,,,,,,,VFR,,,,,,,,,,,,METAR,97.0
KALK 240656Z AUTO 21007KT 10SM CLR 15/00 A3013 RMK AO2 SLP122 T01500000 402560128 $,KALK,2018-03-24T06:56:00Z,31.6,-110.43,15.0,0.0,210,7,,10.0,30.129921,1012.2,,TRUE,TRUE,TRUE,,,,,,CLR,,,,,,,,VFR,,,,25.6,12.8,,,,,,,METAR,1453.0
PHBK 240656Z AUTO 14003KT 10SM -RA SCT048 BKN055 OVC120 19/19 A3004 RMK AO2 SLP174 T01940194 PNO $,PHBK,2018-03-24T06:56:00Z,22.03,-159.78,19.4,19.4,140,3,,10.0,30.041338,1017.4,,TRUE,TRUE,TRUE,,,,,-RA,SCT,4800,BKN,5500,OVC,12000,,,VFR,,,,,,,,,,,,METAR,8.0
KNRS 240656Z 00000KT 6SM OVC016 13/12 A3009 RMK AO2 SLP189 T01280117 PNO $,KNRS,2018-03-24T06:56:00Z,32.57,-117.12,12.8,11.7,0,0,,6.0,30.088583,1018.9,,,TRUE,TRUE,,,,,,OVC,1600,,,,,,,MVFR,,,,,,,,,,,,METAR,7.0
KWRB 240656Z 00000KT 10SM FEW090 FEW130 BKN220 12/06 A3017 RMK AO2A SLP218 T01150060,KWRB,2018-03-24T06:56:00Z,32.62,-83.58,11.5,6.0,0,0,,10.0,30.171259,1021.8,,,TRUE,,,,,,,FEW,9000,FEW,13000,BKN,22000,,,VFR,,,,,,,,,,,,METAR,90.0
KRND 240656Z AUTO 18011KT 10SM OVC012 20/18 A2996 RMK AO2 SLP139 T01970175,KRND,2018-03-24T06:56:00Z,29.52,-98.27,19.7,17.5,180,11,,10.0,29.958662,1013.9,,TRUE,TRUE,,,,,,,OVC,1200,,,,,,,MVFR,,,,,,,,,,,,METAR,232.0
KCIU 240656Z AUTO 05010KT 10SM CLR M07/M13 A3043 RMK AO2 SLP334 T10671133 FZRANO,KCIU,2018-03-24T06:56:00Z,46.25,-84.47,-6.7,-13.3,50,10,,10.0,30.431103,1033.4,,TRUE,TRUE,,,,TRUE,,,CLR,,,,,,,,VFR,,,,,,,,,,,,METAR,244.0
KCGZ 240656Z AUTO 00000KT 10SM 16/M01 A2996 RMK AO2 SLP137 T01561011 402780156 $,KCGZ,2018-03-24T06:56:00Z,32.95,-111.77,15.6,-1.1,0,0,,10.0,29.958662,1013.7,,TRUE,TRUE,TRUE,,,,,,,,,,,,,,,,,,27.8,15.6,,,,,,,METAR,446.0
KBVX 240656Z AUTO 19012G16KT 10SM OVC050 19/12 A2986 RMK AO2 SLP110 T01940117,KBVX,2018-03-24T06:56:00Z,35.73,-91.65,19.4,11.7,190,12,16,10.0,29.861221,1011.0,,TRUE,TRUE,,,,,,,OVC,5000,,,,,,,VFR,,,,,,,,,,,,METAR,141.0
KBTP 240656Z AUTO 00000KT 10SM CLR M04/M07 A3023 RMK AO2 SLP259 T10441072 FZRANO,KBTP,2018-03-24T06:56:00Z,40.77,-79.95,-4.4,-7.2,0,0,,10.0,30.230314,1025.9,,TRUE,TRUE,,,,TRUE,,,CLR,,,,,,,,VFR,,,,,,,,,,,,METAR,380.0
KBOK 240656Z AUTO 24004KT 10SM BKN025 BKN035 BKN060 05/02 A3000 RMK AO2 SLPNO T00500017,KBOK,2018-03-24T06:56:00Z,42.07,-124.28,5.0,1.7,240,4,,10.0,30.0,,,TRUE,TRUE,,,,,,,BKN,2500,BKN,3500,BKN,6000,,,MVFR,,,,,,,,,,,,METAR,140.0
KBLM 240656Z AUTO 30008KT 10SM CLR 01/M06 RMK AO2 SLPNO T00061061 FZRANO $,KBLM,2018-03-24T06:56:00Z,40.17,-74.12,0.6,-6.1,300,8,,10.0,,,,TRUE,TRUE,TRUE,,,TRUE,,,CLR,,,,,,,,VFR,,,,,,,,,,,,METAR,48.0
KBID 240656Z AUTO 32007KT 10SM CLR 03/M04 A3000 RMK AO2 SLP162 T00281044,KBID,2018-03-24T06:56:00Z,41.17,-71.58,2.8,-4.4,320,7,,10.0,30.0,1016.2,,TRUE,TRUE,,,,,,,CLR,,,,,,,,VFR,,,,,,,,,,,,METAR,33.0
KBHB 240656Z AUTO 35003KT 10SM BKN075 M02/M02 A2996 RMK AO2 SLP148 T10171022 FZRANO PNO $,KBHB,2018-03-24T06:56:00Z,44.45,-68.37,-1.7,-2.2,350,3,,10.0,29.958662,1014.8,,TRUE,TRUE,TRUE,,,TRUE,,,BKN,7500,,,,,,,VFR,,,,,,,,,,,,METAR,26.0
KAWO 240656Z AUTO 01004KT 10SM BKN060 OVC075 03/02 A2979 RMK AO2 SLP092 T00280022,KAWO,2018-03-24T06:56:00Z,48.17,-122.17,2.8,2.2,10,4,,10.0,29.790354,1009.2,,TRUE,TRUE,,,,,,,BKN,6000,OVC,7500,,,,,VFR,,,,,,,,,,,,METAR,42.0
KAUO 240656Z AUTO 20006KT 10SM BKN090 12/05 A3017 RMK AO2 SLP239 T01170050,KAUO,2018-03-24T06:56:00Z,32.62,-85.42,11.7,5.0,200,6,,10.0,30.171259,1023.9,,TRUE,TRUE,,,,,,,BKN,9000,,,,,,,VFR,,,,,,,,,,,,METAR,236.0
KASH 240656Z AUTO 32008KT 10SM SCT065 OVC095 03/M06 A3001 RMK AO2 SLP172 T00281061,KASH,2018-03-24T06:56:00Z,42.78,-71.52,2.8,-6.1,320,8,,10.0,30.008858,1017.2,,TRUE,TRUE,,,,,,,SCT,6500,OVC,9500,,,,,VFR,,,,,,,,,,,,METAR,61.0
KARG 240656Z AUTO 19009KT 7SM BKN060 17/10 A2988 RMK AO2 SLP117 T01720100,KARG,2018-03-24T06:56:00Z,36.12,-90.92,17.2,10.0,190,9,,7.0,29.878937,1011.7,,TRUE,TRUE,,,,,,,BKN,6000,,,,,,,VFR,,,,,,,,,,,,METAR,83.0
KAJO 240656Z AUTO 07003KT 10SM CLR 11/09 A3005 RMK AO2 SLP188 T01060094 $,KAJO,2018-03-24T06:56:00Z,33.9,-117.6,10.6,9.4,70,3,,10.0,30.050198,1018.8,,TRUE,TRUE,TRUE,,,,,,CLR,,,,,,,,VFR,,,,,,,,,,,,METAR,163.0
KAFJ 240656Z AUTO 00000KT 10SM CLR M05/M07 A3025 RMK AO2 SLP257 T10501072 FZRANO,KAFJ,2018-03-24T06:56:00Z,40.12,-80.27,-5.0,-7.2,0,0,,10.0,30.250984,1025.7,,TRUE,TRUE,,,,TRUE,,,CLR,,,,,,,,VFR,,,,,,,,,,,,METAR,361.0
KADF 240656Z AUTO 20011KT 10SM FEW032 18/13 A2991 RMK AO2 SLP129 T01830133,KADF,2018-03-24T06:56:00Z,34.1,-93.07,18.3,13.3,200,11,,10.0,29.911417,1012.9,,TRUE,TRUE,,,,,,,FEW,3200,,,,,,,VFR,,,,,,,,,,,,METAR,56.0
K7N0 240656Z AUTO 16007KT 10SM CLR 19/15 A3011 RMK AO2 SLP196 T01890150,K7N0,2018-03-24T06:56:00Z,29.95,-90.07,18.9,15.0,160,7,,10.0,30.109253,1019.6,,TRUE,TRUE,,,,,,,CLR,,,,,,,,VFR,,,,,,,,,,,,METAR,0.0
K1M4 240656Z AUTO 20007KT 10SM BKN070 13/07 A3009 RMK AO2 SLP209 T01330067,K1M4,2018-03-24T06:56:00Z,34.28,-87.6,13.3,6.7,200,7,,10.0,30.088583,1020.9,,TRUE,TRUE,,,,,,,BKN,7000,,,,,,,VFR,,,,,,,,,,,,METAR,284.0
PFNO 240656Z AUTO 08008KT 10SM OVC075 M07/M12 A3006 RMK AO2 SLP181 T10671117 FZRANO,PFNO,2018-03-24T06:56:00Z,66.82,-161.02,-6.7,-11.7,80,8,,10.0,30.059055,1018.1,,TRUE,TRUE,,,,TRUE,,,OVC,7500,,,,,,,VFR,,,,,,,,,,,,METAR,17.0
KSGT 240656Z AUTO 19015KT 10SM FEW060 18/12 A2991 RMK AO2 SLP129 T01830122,KSGT,2018-03-24T06:56:00Z,34.6,-91.57,18.3,12.2,190,15,,10.0,29.911417,1012.9,,TRUE,TRUE,,,,,,,FEW,6000,,,,,,,VFR,,,,,,,,,,,,METAR,68.0
KSGJ 240656Z AUTO 24006KT 10SM CLR 11/07 A3022 RMK AO2 SLP233 T01060067,KSGJ,2018-03-24T06:56:00Z,29.97,-81.32,10.6,6.7,240,6,,10.0,30.221457,1023.3,,TRUE,TRUE,,,,,,,CLR,,,,,,,,VFR,,,,,,,,,,,,METAR,3.0
KSFM 240656Z AUTO 32004KT 10SM 02/M07 A2998 RMK AO2 SLP158 T00221067 FZRANO $,KSFM,2018-03-24T06:56:00Z,43.38,-70.72,2.2,-6.7,320,4,,10.0,29.97933,1015.8,,TRUE,TRUE,TRUE,,,TRUE,,,,,,,,,,,,,,,,,,,,,,,METAR,74.0
KSDY 240656Z AUTO 22003KT 7SM OVC021 01/00 A2998 RMK AO2 SLP177 T00060000 FZRANO,KSDY,2018-03-24T06:56:00Z,47.7,-104.2,0.6,0.0,220,3,,7.0,29.97933,1017.7,,TRUE,TRUE,,,,TRUE,,,OVC,2100,,,,,,,MVFR,,,,,,,,,,,,METAR,605.0
KRUT 240656Z AUTO 00000KT 10SM FEW065 OVC085 M01/M05 A3004 RMK AO2 SLP196 T10111050 FZRANO $,KRUT,2018-03-24T06:56:00Z,43.52,-72.95,-1.1,-5.0,0,0,,10.0,30.041338,1019.6,,TRUE,TRUE,TRUE,,,TRUE,,,FEW,6500,OVC,8500,,,,,VFR,,,,,,,,,,,,METAR,240.0
KRKD 240656Z AUTO 01004KT 10SM OVC090 03/M07 A2994 RMK AO2 SLP142 T00281067,KRKD,2018-03-24T06:56:00Z,44.07,-69.08,2.8,-6.7,10,4,,10.0,29.940945,1014.2,,TRUE,TRUE,,,,,,,OVC,9000,,,,,,,VFR,,,,,,,,,,,,METAR,17.0
KPWT 240656Z AUTO 21004KT 8SM RA BKN023 OVC028 03/02 A2978 RMK AO2 RAB16 SLP103 T00280022,KPWT,2018-03-24T06:56:00Z,47.5,-122.75,2.8,2.2,210,4,,8.0,29.778543,1010.3,,TRUE,TRUE,,,,,,RA,BKN,2300,OVC,2800,,,,,MVFR,,,,,,,,,,,,METAR,147.0
KPWG 240656Z AUTO 18015G20KT 10SM OVC019 19/16 A2991 RMK AO2 SLP136 T01940161,KPWG,2018-03-24T06:56:00Z,31.47,-97.32,19.4,16.1,180,15,20,10.0,29.911417,1013.6,,TRUE,TRUE,,,,,,,OVC,1900,,,,,,,MVFR,,,,,,,,,,,,METAR,180.0
KPVG 240656Z AUTO VRB03KT 10SM CLR A3021 RMK AO2 SLPNO FZRANO PNO $,KPVG,2018-03-24T06:56:00Z,36.78,-76.45,,,0,3,,10.0,30.209646,,,TRUE,TRUE,TRUE,,,TRUE,,,CLR,,,,,,,,VFR,,,,,,,,,,,,METAR,7.0
KPVC 240656Z AUTO 31004KT 10SM CLR 02/M01 A2997 RMK AO2 SLP148 T00221006 FZRANO,KPVC,2018-03-24T06:56:00Z,42.07,-70.22,2.2,-0.6,310,4,,10.0,29.970472,1014.8,,TRUE,TRUE,,,,TRUE,,,CLR,,,,,,,,VFR,,,,,,,,,,,,METAR,2.0
KPTV 240656Z AUTO 10005KT 10SM SCT040 08/06 A3012 RMK AO2 SLP215 T00830061 401610078,KPTV,2018-03-24T06:56:00Z,36.02,-119.07,8.3,6.1,100,5,,10.0,30.121063,1021.5,,TRUE,TRUE,,,,,,,SCT,4000,,,,,,,VFR,,,,16.1,7.8,,,,,,,METAR,135.0
KPTN 240656Z AUTO 17004KT 10SM FEW032 18/17 A3009 RMK AO2 SLP190 T01780167,KPTN,2018-03-24T06:56:00Z,29.72,-91.32,17.8,16.7,170,4,,10.0,30.088583,1019.0,,TRUE,TRUE,,,,,,,FEW,3200,,,,,,,VFR,,,,,,,,,,,,METAR,3.0
KPQI 240656Z AUTO 00000KT 10SM CLR M07/M09 A2995 RMK AO2 SLP188 T10671089 FZRANO,KPQI,2018-03-24T06:56:00Z,46.67,-68.03,-6.7,-8.9,0,0,,10.0,29.949802,1018.8,,TRUE,TRUE,,,,TRUE,,,CLR,,,,,,,,VFR,,,,,,,,,,,,METAR,146.0
KPIB 240656Z AUTO 17004KT 10SM CLR 13/11 A3013 RMK AO2 SLP201 T01280111,KPIB,2018-03-24T06:56:00Z,31.47,-89.32,12.8,11.1,170,4,,10.0,30.129921,1020.1,,TRUE,TRUE,,,,,,,CLR,,,,,,,,VFR,,,,,,,,,,,,METAR,91.0
KOTG 240656Z AUTO 10025G29KT 8SM UP OVC005 00/M01 A2996 RMK AO2 PK WND 09035/0612 UPB42 SLP167 P0000 T00001006 FZRANO,KOTG,2018-03-24T06:56:00Z,43.63,-95.57,0.0,-0.6,100,25,29,8.0,29.958662,1016.7,,TRUE,TRUE,,,,TRUE,,UP,OVC,500,,,,,,,IFR,,,,,,0.005,,,,,,METAR,480.0
KOLU 240656Z AUTO 05007KT 9SM -RA BKN006 OVC037 04/03 A2983 RMK AO2 SLP110 P0000 T00440033,KOLU,2018-03-24T06:56:00Z,41.45,-97.32,4.4,3.3,50,7,,9.0,29.828741,1011.0,,TRUE,TRUE,,,,,,-RA,BKN,600,OVC,3700,,,,,IFR,,,,,,0.005,,,,,,METAR,440.0
KOKK 240656Z AUTO 09008KT 10SM CLR 01/M07 A3025 RMK AO2 SLP252 T00061067 FZRANO,KOKK,2018-03-24T06:56:00Z,40.53,-86.07,0.6,-6.7,90,8,,10.0,30.250984,1025.2,,TRUE,TRUE,,,,TRUE,,,CLR,,,,,,,,VFR,,,,,,,,,,,,METAR,253.0
KOCH 240656Z AUTO 19014G20KT 10SM 19/17 A2997 RMK AO2 SLP150 T01940167 $,KOCH,2018-03-24T06:56:00Z,31.57,-94.72,19.4,16.7,190,14,20,10.0,29.970472,1015.0,,TRUE,TRUE,TRUE,,,,,,,,,,,,,,,,,,,,,,,,,,METAR,108.0
KOAJ 240656Z AUTO 00000KT 10SM CLR M02/M03 A3020 RMK AO2 SLP231 T10221033 FZRANO,KOAJ,2018-03-24T06:56:00Z,34.82,-77.62,-2.2,-3.3,0,0,,10.0,30.200787,1023.1,,TRUE,TRUE,,,,TRUE,,,CLR,,,,,,,,VFR,,,,,,,,,,,,METAR,29.0
PAWG 240656Z AUTO 14003KT 10SM BKN044 OVC075 M01/M03 A2976 RMK AO2 SLP079 T10111028 FZRANO TSNO $,PAWG,2018-03-24T06:56:00Z,56.48,-132.37,-1.1,-2.8,140,3,,10.0,29.760826,1007.9,,TRUE,TRUE,TRUE,,TRUE,TRUE,,,BKN,4400,OVC,7500,,,,,VFR,,,,,,,,,,,,METAR,11.0
PAVD 240656Z AUTO 09005KT 10SM CLR M03/M09 A2979 RMK AO2 SLP115 0551Z WEA: NONE TWR WND 05004KT T10331094 PWINO FZRANO $,PAVD,2018-03-24T06:56:00Z,61.13,-146.25,-3.3,-9.4,90,5,,10.0,29.790354,1011.5,,TRUE,TRUE,TRUE,,,TRUE,TRUE,,CLR,,,,,,,,VFR,,,,,,,,,,,,METAR,37.0
PAVC 240656Z AUTO 28003KT 10SM CLR 02/M05 A3017 RMK AO2 SLP221 T00171050 PWINO FZRANO $,PAVC,2018-03-24T06:56:00Z,55.12,-162.27,1.7,-5.0,280,3,,10.0,30.171259,1022.1,,TRUE,TRUE,TRUE,,,TRUE,TRUE,,CLR,,,,,,,,VFR,,,,,,,,,,,,METAR,47.0
PAUN 240656Z AUTO 13005KT 10SM CLR M08/M09 A3006 RMK AO2 SLP184 T10831094 FZRANO,PAUN,2018-03-24T06:56:00Z,63.88,-160.8,-8.3,-9.4,130,5,,10.0,30.059055,1018.4,,TRUE,TRUE,,,,TRUE,,,CLR,,,,,,,,VFR,,,,,,,,,,,,METAR,6.0
PATG 240656Z AUTO 36004KT 10SM CLR M04/M07 A3012 RMK AO2 SLP298 T10441067 FZRANO,PATG,2018-03-24T06:56:00Z,59.05,-160.38,-4.4,-6.7,360,4,,10.0,30.121063,1029.8,,TRUE,TRUE,,,,TRUE,,,CLR,,,,,,,,VFR,,,,,,,,,,,,METAR,4.0
PATE 240656Z AUTO 15022KT 10SM CLR M03/M06 A2989 RMK AO2 PK WND 15026/0653 WSHFT 0543 SLP129 T10281061 FZRANO,PATE,2018-03-24T06:56:00Z,65.23,-166.33,-2.8,-6.1,150,22,,10.0,29.890747,1012.9,,TRUE,TRUE,,,,TRUE,,,CLR,,,,,,,,VFR,,,,,,,,,,,,METAR,90.0
PASX 240656Z AUTO 00000KT 10SM CLR M06/M13 A2983 RMK AO2 SLP111 T10561133 FZRANO,PASX,2018-03-24T06:56:00Z,60.48,-151.03,-5.6,-13.3,0,0,,10.0,29.828741,1011.1,,TRUE,TRUE,,,,TRUE,,,CLR,,,,,,,,VFR,,,,,,,,,,,,METAR,32.0
PASL 240656Z AUTO 00000KT 10SM CLR M04/M06 A3009 RMK AO2 SLP186 T10441061 FZRANO,PASL,2018-03-24T06:56:00Z,61.72,-157.15,-4.4,-6.1,0,0,,10.0,30.088583,1018.6,,TRUE,TRUE,,,,TRUE,,,CLR,,,,,,,,VFR,,,,,,,,,,,,METAR,55.0
PASK 240656Z AUTO 08006KT 10SM OVC065 M09/M12 A3008 RMK AO2 SLP184 T10891122 FZRANO $,PASK,2018-03-24T06:56:00Z,66.6,-160.0,-8.9,-12.2,80,6,,10.0,30.079725,1018.4,,TRUE,TRUE,TRUE,,,TRUE,,,OVC,6500,,,,,,,VFR,,,,,,,,,,,,METAR,8.0
PASD 240656Z AUTO 00000KT 10SM CLR 00/M02 A3016 RMK AO2 SLP215 T00001017 FZRANO,PASD,2018-03-24T06:56:00Z,55.33,-160.5,0.0,-1.7,0,0,,10.0,30.159449,1021.5,,TRUE,TRUE,,,,TRUE,,,CLR,,,,,,,,VFR,,,,,,,,,,,,METAR,7.0
PASA 240656Z AUTO 17010KT 10SM UP FEW015 M02/M03 A2976 RMK AO2 UPE13B50SNB13E50 SLP079 P0000 T10171033 FZRANO $,PASA,2018-03-24T06:56:00Z,63.68,-170.5,-1.7,-3.3,170,10,,10.0,29.760826,1007.9,,TRUE,TRUE,TRUE,,,TRUE,,UP,FEW,1500,,,,,,,VFR,,,,,,0.005,,,,,,METAR,16.0
PARY 240656Z AUTO 00000KT 10SM CLR M08/M16 A3000 RMK AO2 SLP187 T10781156 FZRANO,PARY,2018-03-24T06:56:00Z,64.73,-155.47,-7.8,-15.6,0,0,,10.0,30.0,1018.7,,TRUE,TRUE,,,,TRUE,,,CLR,,,,,,,,VFR,,,,,,,,,,,,METAR,199.0
PARC 240656Z AUTO 35004KT 10SM CLR M21/M23 A3009 RMK AO2 SLP279 T12061233 FZRANO,PARC,2018-03-24T06:56:00Z,68.12,-145.58,-20.6,-23.3,350,4,,10.0,30.088583,1027.9,,TRUE,TRUE,,,,TRUE,,,CLR,,,,,,,,VFR,,,,,,,,,,,,METAR,636.0
PAPO 240656Z AUTO 14019KT 10SM CLR M06/M08 A2998 RMK AO2 SLP152 T10611078 FZRANO,PAPO,2018-03-24T06:56:00Z,68.35,-166.8,-6.1,-7.8,140,19,,10.0,29.97933,1015.2,,TRUE,TRUE,,,,TRUE,,,CLR,,,,,,,,VFR,,,,,,,,,,,,METAR,6.0
PAPN 240656Z AUTO 30010KT 10SM CLR M01/M02 A3011 RMK AO2 SLP197 T10111022 FZRANO,PAPN,2018-03-24T06:56:00Z,57.58,-157.57,-1.1,-2.2,300,10,,10.0,30.109253,1019.7,,TRUE,TRUE,,,,TRUE,,,CLR,,,,,,,,VFR,,,,,,,,,,,,METAR,18.0
PAPM 240656Z AUTO 04005KT 10SM CLR M03/M04 A3010 RMK AO2 SLP196 T10281039 FZRANO,PAPM,2018-03-24T06:56:00Z,59.02,-161.82,-2.8,-3.9,40,5,,10.0,30.100393,1019.6,,TRUE,TRUE,,,,TRUE,,,CLR,,,,,,,,VFR,,,,,,,,,,,,METAR,5.0
PAPG 240656Z AUTO 18003KT 10SM BKN070 M02/M02 A2976 RMK AO2 SLP080 T10171022 FZRANO,PAPG,2018-03-24T06:56:00Z,56.82,-132.97,-1.7,-2.2,180,3,,10.0,29.760826,1008.0,,TRUE,TRUE,,,,TRUE,,,BKN,7000,,,,,,,VFR,,,,,,,,,,,,METAR,15.0
PAOU 240656Z AUTO 5SM BR CLR 02/01 A3015 RMK AO2 SLP211 T00170006 FZRANO $,PAOU,2018-03-24T06:56:00Z,56.0,-161.17,1.7,0.6,,,,5.0,30.15059,1021.1,,TRUE,TRUE,TRUE,,,TRUE,,BR,CLR,,,,,,,,MVFR,,,,,,,,,,,,METAR,4.0
PAOO 240656Z AUTO 13015KT 9SM -SN BKN008 OVC017 M01/M02 A2998 RMK AO2 UPB12E32SNB0559E12B32 SLP165 P0000 T10111017 FZRANO,PAOO,2018-03-24T06:56:00Z,60.53,-165.12,-1.1,-1.7,130,15,,9.0,29.97933,1016.5,,TRUE,TRUE,,,,TRUE,,-SN,BKN,800,OVC,1700,,,,,IFR,,,,,,0.005,,,,,,METAR,18.0
PANW 240656Z AUTO 34007KT 10SM CLR M02/M09 A3006 RMK AO2 SLP197 T10171094 FZRANO,PANW,2018-03-24T06:56:00Z,59.45,-157.37,-1.7,-9.4,340,7,,10.0,30.059055,1019.7,,TRUE,TRUE,,,,TRUE,,,CLR,,,,,,,,VFR,,,,,,,,,,,,METAR,92.0
PAMK 240656Z AUTO 15009KT 10SM CLR M04/M07 A3004 RMK AO2 SLP177 T10441072 FZRANO $,PAMK,2018-03-24T06:56:00Z,63.48,-162.12,-4.4,-7.2,150,9,,10.0,30.041338,1017.7,,TRUE,TRUE,TRUE,,,TRUE,,,CLR,,,,,,,,VFR,,,,,,,,,,,,METAR,28.0
PAMH 240656Z AUTO 00000KT 10SM CLR M11/M17 A2997 RMK AO2 SLP997 T11061172 FZRANO,PAMH,2018-03-24T06:56:00Z,63.9,-152.32,-10.6,-17.2,0,0,,10.0,29.970472,999.7,,TRUE,TRUE,,,,TRUE,,,CLR,,,,,,,,VFR,,,,,,,,,,,,METAR,214.0
PAMB 240656Z AUTO 28005KT 10SM CLR M02/M08 A3010 RMK AO2 SLP198 T10221083 FZRANO $,PAMB,2018-03-24T06:56:00Z,58.98,-159.05,-2.2,-8.3,280,5,,10.0,30.100393,1019.8,,TRUE,TRUE,TRUE,,,TRUE,,,CLR,,,,,,,,VFR,,,,,,,,,,,,METAR,16.0
PALG 240656Z 00000KT 10SM BKN040 M06/M07 A3008 RMK AO2 SLP301 PWINO FZRANO TSNO RVRNO,PALG,2018-03-24T06:56:00Z,61.53,-160.33,-6.0,-7.0,0,0,,10.0,30.079725,1030.1,,,TRUE,,,TRUE,TRUE,TRUE,,BKN,4000,,,,,,,VFR,,,,,,,,,,,,METAR,17.0
KIWD 240656Z AUTO 08008KT 10SM CLR M08/M12 A3037 RMK AO2 SLP303 T10781122 FZRANO,KIWD,2018-03-24T06:56:00Z,46.52,-90.12,-7.8,-12.2,80,8,,10.0,30.369095,1030.3,,TRUE,TRUE,,,,TRUE,,,CLR,,,,,,,,VFR,,,,,,,,,,,,METAR,375.0
KITH 240656Z AUTO 32005KT 10SM CLR M03/M06 A3014 RMK AO2 SLP220 T10281061,KITH,2018-03-24T06:56:00Z,42.47,-76.45,-2.8,-6.1,320,5,,10.0,30.138779,1022.0,,TRUE,TRUE,,,,,,,CLR,,,,,,,,VFR,,,,,,,,,,,,METAR,335.0
KISM 240656Z AUTO 00000KT 10SM CLR 10/08 A3022 RMK AO2 SLP237 T01000078,KISM,2018-03-24T06:56:00Z,28.28,-81.43,10.0,7.8,0,0,,10.0,30.221457,1023.7,,TRUE,TRUE,,,,,,,CLR,,,,,,,,VFR,,,,,,,,,,,,METAR,25.0
KILE 240656Z AUTO 17012KT 10SM OVC019 19/17 A2991 RMK AO2 SLP138 T01940167 PNO $,KILE,2018-03-24T06:56:00Z,31.07,-97.67,19.4,16.7,170,12,,10.0,29.911417,1013.8,,TRUE,TRUE,TRUE,,,,,,OVC,1900,,,,,,,MVFR,,,,,,,,,,,,METAR,258.0
KHYI 240656Z 19012KT 10SM BKN016 19/17 A2996 RMK AO2 SLP138 T01940172 $,KHYI,2018-03-24T06:56:00Z,29.88,-97.87,19.4,17.2,190,12,,10.0,29.958662,1013.8,,,TRUE,TRUE,,,,,,BKN,1600,,,,,,,MVFR,,,,,,,,,,,,METAR,182.0
KHND 240656Z AUTO 20005KT 10SM CLR 14/M06 A2994 RMK AO2 SLP130 T01441056 $,KHND,2018-03-24T06:56:00Z,35.98,-115.13,14.4,-5.6,200,5,,10.0,29.940945,1013.0,,TRUE,TRUE,TRUE,,,,,,CLR,,,,,,,,VFR,,,,,,,,,,,,METAR,749.0
KHEZ 240656Z AUTO 17010KT 10SM CLR 17/13 A3005 RMK AO2 SLP177 T01670133,KHEZ,2018-03-24T06:56:00Z,31.62,-91.3,16.7,13.3,170,10,,10.0,30.050198,1017.7,,TRUE,TRUE,,,,,,,CLR,,,,,,,,VFR,,,,,,,,,,,,METAR,83.0
KHEF 240656Z AUTO 34006KT 10SM CLR 01/M07 A3023 RMK AO2 SLP248 T00061072 FZRANO PNO $,KHEF,2018-03-24T06:56:00Z,38.72,-77.52,0.6,-7.2,340,6,,10.0,30.230314,1024.8,,TRUE,TRUE,TRUE,,,TRUE,,,CLR,,,,,,,,VFR,,,,,,,,,,,,METAR,59.0
KHDN 240656Z AUTO 11007KT 10SM CLR M01/M02 A3011 RMK AO2 SLP206 T10061017 FZRANO,KHDN,2018-03-24T06:56:00Z,40.47,-107.22,-0.6,-1.7,110,7,,10.0,30.109253,1020.6,,TRUE,TRUE,,,,TRUE,,,CLR,,,,,,,,VFR,,,,,,,,,,,,METAR,2012.0
KGXY 240656Z AUTO 02015G18KT 10SM CLR 05/02 A3002 RMK AO2 SLP164 T00500022 401940039,KGXY,2018-03-24T06:56:00Z,40.42,-104.62,5.0,2.2,20,15,18,10.0,30.02067,1016.4,,TRUE,TRUE,,,,,,,CLR,,,,,,,,VFR,,,,19.4,3.9,,,,,,,METAR,1420.0
KGUC 240656Z AUTO 00000KT 10SM FEW055 BKN070 M02/M03 A3015 RMK AO2 SLP207 T10171033 FZRANO,KGUC,2018-03-24T06:56:00Z,38.52,-106.92,-1.7,-3.3,0,0,,10.0,30.15059,1020.7,,TRUE,TRUE,,,,TRUE,,,FEW,5500,BKN,7000,,,,,VFR,,,,,,,,,,,,METAR,2339.0
KGTU 240656Z AUTO 18018G25KT 10SM OVC017 20/17 A2994 RMK AO2 SLP135 T02000167,KGTU,2018-03-24T06:56:00Z,30.68,-97.68,20.0,16.7,180,18,25,10.0,29.940945,1013.5,,TRUE,TRUE,,,,,,,OVC,1700,,,,,,,MVFR,,,,,,,,,,,,METAR,240.0
KGTR 240656Z AUTO 19010KT 10SM CLR 15/09 A3007 RMK AO2 SLP182 T01500089,KGTR,2018-03-24T06:56:00Z,33.45,-88.57,15.0,8.9,190,10,,10.0,30.070866,1018.2,,TRUE,TRUE,,,,,,,CLR,,,,,,,,VFR,,,,,,,,,,,,METAR,80.0
KGPZ 240656Z AUTO VRB05KT 10SM CLR M05/M12 A3032 RMK AO2 SLP289 T10501117 FZRANO,KGPZ,2018-03-24T06:56:00Z,47.22,-93.52,-5.0,-11.7,0,5,,10.0,30.318897,1028.9,,TRUE,TRUE,,,,TRUE,,,CLR,,,,,,,,VFR,,,,,,,,,,,,METAR,413.0
KGDV 240656Z AUTO 29004KT 10SM OVC011 00/M02 A2998 RMK AO2 SLP176 T00001022 400390000 FZRANO,KGDV,2018-03-24T06:56:00Z,47.12,-104.78,0.0,-2.2,290,4,,10.0,29.97933,1017.6,,TRUE,TRUE,,,,TRUE,,,OVC,1100,,,,,,,MVFR,,,,3.9,,,,,,,,METAR,749.0
KGBD 240656Z AUTO 32014G18KT 10SM CLR 10/08 A2974 RMK AO2 SLP066 T01000083,KGBD,2018-03-24T06:56:00Z,38.35,-98.87,10.0,8.3,320,14,18,10.0,29.740158,1006.6,,TRUE,TRUE,,,,,,,CLR,,,,,,,,VFR,,,,,,,,,,,,METAR,575.0
KGAI 240656Z AUTO 32003KT 10SM CLR M01/M07 A3020 RMK AO2 SLP257 T10111067 FZRANO,KGAI,2018-03-24T06:56:00Z,39.17,-77.17,-1.1,-6.7,320,3,,10.0,30.200787,1025.7,,TRUE,TRUE,,,,TRUE,,,CLR,,,,,,,,VFR,,,,,,,,,,,,METAR,165.0
KGAD 240656Z AUTO 00000KT 10SM CLR 08/08 A3013 RMK AO2 SLP207 T00830078,KGAD,2018-03-24T06:56:00Z,33.97,-86.07,8.3,7.8,0,0,,10.0,30.129921,1020.7,,TRUE,TRUE,,,,,,,CLR,,,,,,,,VFR,,,,,,,,,,,,METAR,173.0
PAHX 240656Z AUTO 00000KT 10SM CLR M06/M08 A3007 RMK AO2 SLP183 T10611078 FZRANO,PAHX,2018-03-24T06:56:00Z,62.7,-159.57,-6.1,-7.8,0,0,,10.0,30.070866,1018.3,,TRUE,TRUE,,,,TRUE,,,CLR,,,,,,,,VFR,,,,,,,,,,,,METAR,24.0
KYKN 240656Z AUTO 06011KT 8SM -RA OVC005 02/01 A2991 RMK AO2 RAE01B34UPB01E34 SLP151 P0004 T00170011 FZRANO,KYKN,2018-03-24T06:56:00Z,42.92,-97.37,1.7,1.1,60,11,,8.0,29.911417,1015.1,,TRUE,TRUE,,,,TRUE,,-RA,OVC,500,,,,,,,IFR,,,,,,0.04,,,,,,METAR,398.0
KY50 240656Z AUTO 07009KT 10SM CLR M03/M08 A3033 RMK AO2 SLP301 T10281078,KY50,2018-03-24T06:56:00Z,44.03,-89.3,-2.8,-7.8,70,9,,10.0,30.33071,1030.1,,TRUE,TRUE,,,,,,,CLR,,,,,,,,VFR,,,,,,,,,,,,METAR,262.0
KWVL 240656Z AUTO 34006KT 10SM BKN075 BKN090 01/M08 A2991 RMK AO2 SLP159 T00061078 FZRANO,KWVL,2018-03-24T06:56:00Z,44.52,-69.67,0.6,-7.8,340,6,,10.0,29.911417,1015.9,,TRUE,TRUE,,,,TRUE,,,BKN,7500,BKN,9000,,,,,VFR,,,,,,,,,,,,METAR,101.0
KVIS 240656Z AUTO 00000KT 10SM CLR 09/07 A3012 RMK AO2 SLP208 T00890072,KVIS,2018-03-24T06:56:00Z,36.32,-119.4,8.9,7.2,0,0,,10.0,30.121063,1020.8,,TRUE,TRUE,,,,,,,CLR,,,,,,,,VFR,,,,,,,,,,,,METAR,89.0
KVBT 240656Z AUTO 18011G18KT 10SM OVC031 19/14 A2978 RMK AO2 SLP077 T01890139,KVBT,2018-03-24T06:56:00Z,36.35,-94.22,18.9,13.9,180,11,18,10.0,29.778543,1007.7,,TRUE,TRUE,,,,,,,OVC,3100,,,,,,,VFR,,,,,,,,,,,,METAR,395.0
KUDG 240656Z AUTO 02003KT 10SM SCT090 OVC110 06/03 A3021 RMK AO2 SLP237 T00560033,KUDG,2018-03-24T06:56:00Z,34.45,-79.88,5.6,3.3,20,3,,10.0,30.209646,1023.7,,TRUE,TRUE,,,,,,,SCT,9000,OVC,11000,,,,,VFR,,,,,,,,,,,,METAR,59.0
KUCP 240656Z AUTO 00000KT 10SM FEW014 M07/M09 A3026 RMK AO2 SLP276 T10721089,KUCP,2018-03-24T06:56:00Z,41.03,-80.42,-7.2,-8.9,0,0,,10.0,30.259842,1027.6,,TRUE,TRUE,,,,,,,FEW,1400,,,,,,,VFR,,,,,,,,,,,,METAR,327.0
KTVF 240656Z AUTO 12013KT 10SM FEW048 OVC065 M01/M07 A3024 RMK AO2 SLP257 T10111072 FZRANO,KTVF,2018-03-24T06:56:00Z,48.07,-96.17,-1.1,-7.2,120,13,,10.0,30.239174,1025.7,,TRUE,TRUE,,,,TRUE,,,FEW,4800,OVC,6500,,,,,VFR,,,,,,,,,,,,METAR,340.0
KSUE 240656Z AUTO 35004KT 10SM CLR M06/M09 A3039 RMK AO2 SLP318 T10611094 FZRANO,KSUE,2018-03-24T06:56:00Z,44.85,-87.42,-6.1,-9.4,350,4,,10.0,30.389763,1031.8,,TRUE,TRUE,,,,TRUE,,,CLR,,,,,,,,VFR,,,,,,,,,,,,METAR,221.0
KSRC 240656Z AUTO 20013G19KT 10SM OVC055 19/13 A2989 RMK AO2 SLP127 T01940128,KSRC,2018-03-24T06:56:00Z,35.22,-91.73,19.4,12.8,200,13,19,10.0,29.890747,1012.7,,TRUE,TRUE,,,,,,,OVC,5500,,,,,,,VFR,,,,,,,,,,,,METAR,80.0
KSOP 240656Z AUTO 00000KT 10SM BKN120 01/M01 A3021 RMK AO2 SLP250 T00111006 FZRANO,KSOP,2018-03-24T06:56:00Z,35.22,-79.4,1.1,-0.6,0,0,,10.0,30.209646,1025.0,,TRUE,TRUE,,,,TRUE,,,BKN,12000,,,,,,,VFR,,,,,,,,,,,,METAR,141.0
KSMN 240656Z AUTO 00000KT 10SM CLR 01/M04 A2982 RMK AO2 SLP111 T00061039 401220000 FZRANO,KSMN,2018-03-24T06:56:00Z,45.12,-113.87,0.6,-3.9,0,0,,10.0,29.819881,1011.1,,TRUE,TRUE,,,,TRUE,,,CLR,,,,,,,,VFR,,,,12.2,,,,,,,,METAR,1233.0
KSLG 240656Z AUTO 18014G24KT 10SM OVC030 19/14 A2976 RMK AO2 SLP071 T01890139,KSLG,2018-03-24T06:56:00Z,36.2,-94.47,18.9,13.9,180,14,24,10.0,29.760826,1007.1,,TRUE,TRUE,,,,,,,OVC,3000,,,,,,,MVFR,,,,,,,,,,,,METAR,300.0
KSKX 240656Z AUTO 00000KT 10SM CLR 00/M06 A3018 RMK AO2 SLP203 T00001056 401331017 FZRANO $,KSKX,2018-03-24T06:56:00Z,36.45,-105.67,0.0,-5.6,0,0,,10.0,30.180119,1020.3,,TRUE,TRUE,TRUE,,,TRUE,,,CLR,,,,,,,,VFR,,,,13.3,-1.7,,,,,,,METAR,2161.0
KSGU 240656Z AUTO 00000KT 10SM CLR 12/04 A2997 RMK AO2 SLP135 T01220044 402000100,KSGU,2018-03-24T06:56:00Z,37.07,-113.52,12.2,4.4,0,0,,10.0,29.970472,1013.5,,TRUE,TRUE,,,,,,,CLR,,,,,,,,VFR,,,,20.0,10.0,,,,,,,METAR,896.0
KMYR 240656Z AUTO 00000KT 10SM OVC110 06/03 A3020 RMK AO2 SLP227 T00560028,KMYR,2018-03-24T06:56:00Z,33.67,-78.92,5.6,2.8,0,0,,10.0,30.200787,1022.7,,TRUE,TRUE,,,,,,,OVC,11000,,,,,,,VFR,,,,,,,,,,,,METAR,8.0
KMVN 240656Z AUTO 10014G20KT 10SM OVC007 06/04 A3004 RMK AO2 RAE51 SLP174 P0000 T00560044,KMVN,2018-03-24T06:56:00Z,38.32,-88.87,5.6,4.4,100,14,20,10.0,30.041338,1017.4,,TRUE,TRUE,,,,,,,OVC,700,,,,,,,IFR,,,,,,0.005,,,,,,METAR,146.0
KMTW 240656Z AUTO 06007KT 10SM CLR M01/M06 A3035 RMK AO2 SLP304 T10111056 FZRANO,KMTW,2018-03-24T06:56:00Z,44.12,-87.67,-1.1,-5.6,60,7,,10.0,30.351377,1030.4,,TRUE,TRUE,,,,TRUE,,,CLR,,,,,,,,VFR,,,,,,,,,,,,METAR,198.0
KMRF 240656Z AUTO 01007KT 10SM CLR 10/M08 A3010 RMK AO2 SLP141 T01001078 403060072,KMRF,2018-03-24T06:56:00Z,30.37,-104.02,10.0,-7.8,10,7,,10.0,30.100393,1014.1,,TRUE,TRUE,,,,,,,CLR,,,,,,,,VFR,,,,30.6,7.2,,,,,,,METAR,1481.0
KMQY 240656Z AUTO 09005KT 10SM -RA OVC080 08/07 A3010 RMK AO2 SLP144 P0001 T00780067,KMQY,2018-03-24T06:56:00Z,36.02,-86.52,7.8,6.7,90,5,,10.0,30.100393,1014.4,,TRUE,TRUE,,,,,,-RA,OVC,8000,,,,,,,VFR,,,,,,0.01,,,,,,METAR,166.0
KMNM 240656Z AUTO 00000KT 10SM CLR M06/M11 A3041 RMK AO2 SLP322 T10611106 FZRANO $,KMNM,2018-03-24T06:56:00Z,45.12,-87.62,-6.1,-10.6,0,0,,10.0,30.410433,1032.2,,TRUE,TRUE,TRUE,,,TRUE,,,CLR,,,,,,,,VFR,,,,,,,,,,,,METAR,191.0
KMJX 240656Z AUTO 31006KT 10SM CLR 01/M06 A3011 RMK AO2 SLP202 T00061056 FZRANO,KMJX,2018-03-24T06:56:00Z,39.93,-74.3,0.6,-5.6,310,6,,10.0,30.109253,1020.2,,TRUE,TRUE,,,,TRUE,,,CLR,,,,,,,,VFR,,,,,,,,,,,,METAR,25.0
KMBL 240656Z AUTO 10005KT 10SM CLR M04/M08 A3037 RMK AO2 SLP306 T10391078 FZRANO,KMBL,2018-03-24T06:56:00Z,44.27,-86.25,-3.9,-7.8,100,5,,10.0,30.369095,1030.6,,TRUE,TRUE,,,,TRUE,,,CLR,,,,,,,,VFR,,,,,,,,,,,,METAR,189.0
KM19 240656Z AUTO 18015KT 10SM 18/12 A2988 RMK AO2 SLP122 T01780117 $,KM19,2018-03-24T06:56:00Z,35.65,-91.17,17.8,11.7,180,15,,10.0,29.878937,1012.2,,TRUE,TRUE,TRUE,,,,,,,,,,,,,,,,,,,,,,,,,,METAR,73.0
KLZU 240656Z AUTO 00000KT 10SM OVC080 11/05 A3016 RMK AO2 SLP220 T01060050,KLZU,2018-03-24T06:56:00Z,33.98,-83.97,10.6,5.0,0,0,,10.0,30.159449,1022.0,,TRUE,TRUE,,,,,,,OVC,8000,,,,,,,VFR,,,,,,,,,,,,METAR,323.0
KLRD 240656Z AUTO 16011KT 10SM OVC017 22/18 A2991 RMK AO2 SLP130 T02170178,KLRD,2018-03-24T06:56:00Z,27.55,-99.47,21.7,17.8,160,11,,10.0,29.911417,1013.0,,TRUE,TRUE,,,,,,,OVC,1700,,,,,,,MVFR,,,,,,,,,,,,METAR,155.0
KLPC 240656Z AUTO 00000KT 10SM CLR 07/04 A3013 RMK AO2 SLP208 T00720044,KLPC,2018-03-24T06:56:00Z,34.67,-120.47,7.2,4.4,0,0,,10.0,30.129921,1020.8,,TRUE,TRUE,,,,,,,CLR,,,,,,,,VFR,,,,,,,,,,,,METAR,27.0
KLGD 240656Z AUTO 21011KT 10SM CLR 04/M02 A2970 RMK AO2 SLP202 T00441022,KLGD,2018-03-24T06:56:00Z,45.27,-118.0,4.4,-2.2,210,11,,10.0,29.698818,1020.2,,TRUE,TRUE,,,,,,,CLR,,,,,,,,VFR,,,,,,,,,,,,METAR,827.0
KLEW 240656Z AUTO 32006KT 10SM OVC070 02/M07 A2997 RMK AO2 SLP166 T00221072 FZRANO,KLEW,2018-03-24T06:56:00Z,44.03,-70.27,2.2,-7.2,320,6,,10.0,29.970472,1016.6,,TRUE,TRUE,,,,TRUE,,,OVC,7000,,,,,,,VFR,,,,,,,,,,,,METAR,88.0
KLCI 240656Z AUTO 26003KT 10SM OVC070 01/M07 A3000 RMK AO2 SLP178 T00061072 FZRANO,KLCI,2018-03-24T06:56:00Z,43.57,-71.42,0.6,-7.2,260,3,,10.0,30.0,1017.8,,TRUE,TRUE,,,,TRUE,,,OVC,7000,,,,,,,VFR,,,,,,,,,,,,METAR,166.0
KLBL 240656Z AUTO 33010KT 10SM CLR 10/06 A2987 RMK AO2 SLP091 T01000056,KLBL,2018-03-24T06:56:00Z,37.03,-100.97,10.0,5.6,330,10,,10.0,29.870079,1009.1,,TRUE,TRUE,,,,,,,CLR,,,,,,,,VFR,,,,,,,,,,,,METAR,879.0
KJHW 240656Z AUTO 35006KT 10SM CLR M05/M08 A3018 RMK AO2 SLP248 T10501083 FZRANO,KJHW,2018-03-24T06:56:00Z,42.13,-79.27,-5.0,-8.3,350,6,,10.0,30.180119,1024.8,,TRUE,TRUE,,,,TRUE,,,CLR,,,,,,,,VFR,,,,,,,,,,,,METAR,525.0
KJAC 240656Z AUTO 15005KT 10SM FEW050 OVC065 00/M01 A2996 RMK AO2 SLP158 T00001011 400560000 FZRANO,KJAC,2018-03-24T06:56:00Z,43.62,-110.73,0.0,-1.1,150,5,,10.0,29.958662,1015.8,,TRUE,TRUE,,,,TRUE,,,FEW,5000,OVC,6500,,,,,VFR,,,,5.6,,,,,,,,METAR,1961.0
PAKP 240656Z AUTO 18009KT 10SM CLR M12/M15 A2999 RMK AO2 SLP222 T11171150 FZRANO,PAKP,2018-03-24T06:56:00Z,68.13,-151.73,-11.7,-15.0,180,9,,10.0,29.991142,1022.2,,TRUE,TRUE,,,,TRUE,,,CLR,,,,,,,,VFR,,,,,,,,,,,,METAR,642.0
PAKK 240656Z AUTO 00000KT 10SM CLR M06/M07 A3001 RMK AO2 SLP177 T10611067 FZRANO,PAKK,2018-03-24T06:56:00Z,64.93,-161.15,-6.1,-6.7,0,0,,10.0,30.008858,1017.7,,TRUE,TRUE,,,,TRUE,,,CLR,,,,,,,,VFR,,,,,,,,,,,,METAR,47.0
PAKI 240656Z AUTO 16013KT 10SM FEW017 OVC090 M03/M04 A3002 RMK AO2 SLP168 T10331039 FZRANO,PAKI,2018-03-24T06:56:00Z,59.93,-164.03,-3.3,-3.9,160,13,,10.0,30.02067,1016.8,,TRUE,TRUE,,,,TRUE,,,FEW,1700,OVC,9000,,,,,VFR,,,,,,,,,,,,METAR,4.0
PAKF 240656Z AUTO 18008KT 10SM CLR 02/M02 A3014 RMK AO2 SLP304 T00221022 FZRANO,PAKF,2018-03-24T06:56:00Z,54.85,-163.42,2.2,-2.2,180,8,,10.0,30.138779,1030.4,,TRUE,TRUE,,,,TRUE,,,CLR,,,,,,,,VFR,,,,,,,,,,,,METAR,6.0
PAJZ 240656Z AUTO 32006KT 8SM CLR M04/M08 A3010 RMK AO2 SLP200 T10391083 FZRANO $,PAJZ,2018-03-24T06:56:00Z,59.73,-157.27,-3.9,-8.3,320,6,,8.0,30.100393,1020.0,,TRUE,TRUE,TRUE,,,TRUE,,,CLR,,,,,,,,VFR,,,,,,,,,,,,METAR,82.0
PAIN 240656Z AUTO 00000KT 10SM CLR M07/M14 A2986 RMK AO2 SLP156 T10721144 FZRANO,PAIN,2018-03-24T06:56:00Z,63.73,-148.92,-7.2,-14.4,0,0,,10.0,29.861221,1015.6,,TRUE,TRUE,,,,TRUE,,,CLR,,,,,,,,VFR,,,,,,,,,,,,METAR,524.0
PAIK 240656Z AUTO 00000KT 10SM OVC070 M07/M13 A3008 RMK AO2 SLP192 T10671133 FZRANO,PAIK,2018-03-24T06:56:00Z,66.98,-160.43,-6.7,-13.3,0,0,,10.0,30.079725,1019.2,,TRUE,TRUE,,,,TRUE,,,OVC,7000,,,,,,,VFR,,,,,,,,,,,,METAR,51.0
PAII 240656Z AUTO 31005KT 10SM CLR M02/M03 A3010 RMK AO2 SLP194 T10171033 FZRANO,PAII,2018-03-24T06:56:00Z,58.18,-157.38,-1.7,-3.3,310,5,,10.0,30.100393,1019.4,,TRUE,TRUE,,,,TRUE,,,CLR,,,,,,,,VFR,,,,,,,,,,,,METAR,30.0
PAIG 240656Z AUTO 27005KT 10SM CLR M04/M07 A3004 RMK AO2 SLP184 T10391067 FZRANO $,PAIG,2018-03-24T06:56:00Z,59.32,-155.9,-3.9,-6.7,270,5,,10.0,30.041338,1018.4,,TRUE,TRUE,TRUE,,,TRUE,,,CLR,,,,,,,,VFR,,,,,,,,,,,,METAR,28.0
PAHY 240656Z AUTO 10SM -RA OVC010 03/02 A2973 RMK AO2 SLP167 P0002 T00280022 $,PAHY,2018-03-24T06:56:00Z,55.2,-132.83,2.8,2.2,,,,10.0,29.731298,1016.7,,TRUE,TRUE,TRUE,,,,,-RA,OVC,1000,,,,,,,MVFR,,,,,,0.02,,,,,,METAR,1.0
PAHL 240656Z AUTO 06007KT 10SM OVC090 M08/M14 A3005 RMK AO2 SLP186 T10781144 FZRANO,PAHL,2018-03-24T06:56:00Z,65.7,-156.35,-7.8,-14.4,60,7,,10.0,30.050198,1018.6,,TRUE,TRUE,,,,TRUE,,,OVC,9000,,,,,,,VFR,,,,,,,,,,,,METAR,65.0
PAGS 240656Z AUTO 34004KT 10SM CLR M02/M04 A2977 RMK AO2 SLP082 T10221039 FZRANO,PAGS,2018-03-24T06:56:00Z,58.42,-135.73,-2.2,-3.9,340,4,,10.0,29.769686,1008.2,,TRUE,TRUE,,,,TRUE,,,CLR,,,,,,,,VFR,,,,,,,,,,,,METAR,9.0
PAGN 240656Z AUTO 00000KT 10SM CLR M01/M04 A2977 RMK AO2 SLP072 T10111039 FZRANO,PAGN,2018-03-24T06:56:00Z,57.5,-134.58,-1.1,-3.9,0,0,,10.0,29.769686,1007.2,,TRUE,TRUE,,,,TRUE,,,CLR,,,,,,,,VFR,,,,,,,,,,,,METAR,2.0
PAGM 240656Z AUTO 10SM CLR M03/M04 A2973 RMK AO2 SLP073 T10331044 FZRANO $,PAGM,2018-03-24T06:56:00Z,63.77,-171.73,-3.3,-4.4,,,,10.0,29.731298,1007.3,,TRUE,TRUE,TRUE,,,TRUE,,,CLR,,,,,,,,VFR,,,,,,,,,,,,METAR,8.0
PAGH 240656Z AUTO 10007KT 10SM BKN090 M04/M12 A3008 RMK AO2 SLP193 T10391117 FZRANO,PAGH,2018-03-24T06:56:00Z,66.88,-157.17,-3.9,-11.7,100,7,,10.0,30.079725,1019.3,,TRUE,TRUE,,,,TRUE,,,BKN,9000,,,,,,,VFR,,,,,,,,,,,,METAR,60.0
PAGA 240656Z AUTO 27007KT 10SM CLR M11/M15 A3006 RMK AO2 SLP183 T11061150 FZRANO,PAGA,2018-03-24T06:56:00Z,64.73,-156.93,-10.6,-15.0,270,7,,10.0,30.059055,1018.3,,TRUE,TRUE,,,,TRUE,,,CLR,,,,,,,,VFR,,,,,,,,,,,,METAR,46.0
PAFM 240656Z AUTO 00000KT 10SM SCT070 BKN100 M04/M12 A3010 RMK AO2 SLP209 T10441117 FZRANO,PAFM,2018-03-24T06:56:00Z,67.1,-157.85,-4.4,-11.7,0,0,,10.0,30.100393,1020.9,,TRUE,TRUE,,,,TRUE,,,SCT,7000,BKN,10000,,,,,VFR,,,,,,,,,,,,METAR,88.0
PAFE 240656Z AUTO 07005KT 10SM SCT060 M03/M04 A2978 RMK AO2 SLP095 T10281044 FZRANO,PAFE,2018-03-24T06:56:00Z,56.97,-133.92,-2.8,-4.4,70,5,,10.0,29.778543,1009.5,,TRUE,TRUE,,,,TRUE,,,SCT,6000,,,,,,,VFR,,,,,,,,,,,,METAR,9.0
PAEM 240656Z AUTO 16010KT 4SM -SN BR OVC004 M05/M06 A2998 RMK AO2 UPB02E29SNE02B29 SLP214 P0000 T10501056 FZRANO,PAEM,2018-03-24T06:56:00Z,62.78,-164.48,-5.0,-5.6,160,10,,4.0,29.97933,1021.4,,TRUE,TRUE,,,,TRUE,,-SN BR,OVC,400,,,,,,,LIFR,,,,,,0.005,,,,,,METAR,3.0
PADU 240656Z AUTO 18004KT 10SM FEW110 03/M01 A3008 RMK AO2 RAB07E27 SLP192 P0000 T00331011,PADU,2018-03-24T06:56:00Z,53.9,-166.53,3.3,-1.1,180,4,,10.0,30.079725,1019.2,,TRUE,TRUE,,,,,,,FEW,11000,,,,,,,VFR,,,,,,0.005,,,,,,METAR,4.0
PADL 240656Z AUTO 00000KT 10SM CLR M03/M08 A3009 RMK AO2 SLP194 T10281078 FZRANO,PADL,2018-03-24T06:56:00Z,59.05,-158.5,-2.8,-7.8,0,0,,10.0,30.088583,1019.4,,TRUE,TRUE,,,,TRUE,,,CLR,,,,,,,,VFR,,,,,,,,,,,,METAR,26.0
PABV 240656Z AUTO 06005KT 10SM CLR M04/M11 A2981 RMK AO2 SLPNO T10391106 FZRANO $,PABV,2018-03-24T06:56:00Z,61.42,-149.52,-3.9,-10.6,60,5,,10.0,29.811024,,,TRUE,TRUE,TRUE,,,TRUE,,,CLR,,,,,,,,VFR,,,,,,,,,,,,METAR,29.0
PABL 240656Z AUTO 16008KT 10SM OVC011 M05/M07 A3005 RMK AO2 SLP179 T10501067 FZRANO,PABL,2018-03-24T06:56:00Z,65.98,-161.15,-5.0,-6.7,160,8,,10.0,30.050198,1017.9,,TRUE,TRUE,,,,TRUE,,,OVC,1100,,,,,,,MVFR,,,,,,,,,,,,METAR,7.0
PPIZ 240656Z AUTO 08006KT 10SM OVC065 M11/M13 A3004 RMK AO2 SLP175 T11111133 FZRANO TSNO,PPIZ,2018-03-24T06:56:00Z,69.73,-163.0,-11.1,-13.3,80,6,,10.0,30.041338,1017.5,,TRUE,TRUE,,,TRUE,TRUE,,,OVC,6500,,,,,,,VFR,,,,,,,,,,,,METAR,8.0
PFYU 240656Z AUTO 04005KT 10SM CLR M15/M21 RMK AO2 SLPNO T11501206 FZRANO $,PFYU,2018-03-24T06:56:00Z,66.57,-145.27,-15.0,-20.6,40,5,,10.0,,,,TRUE,TRUE,TRUE,,,TRUE,,,CLR,,,,,,,,VFR,,,,,,,,,,,,METAR,131.0
PFKT 240656Z AUTO 13018KT 10SM CLR M04/M08 A2992 RMK AO2 SLP134 T10441083 FZRANO,PFKT,2018-03-24T06:56:00Z,65.33,-166.47,-4.4,-8.3,130,18,,10.0,29.920275,1013.4,,TRUE,TRUE,,,,TRUE,,,CLR,,,,,,,,VFR,,,,,,,,,,,,METAR,9.0
PFEL 240656Z AUTO 00000KT 10SM OVC026 M05/M06 A3005 RMK AO2 SLP177 T10501056 FZRANO,PFEL,2018-03-24T06:56:00Z,64.62,-162.27,-5.0,-5.6,0,0,,10.0,30.050198,1017.7,,TRUE,TRUE,,,,TRUE,,,OVC,2600,,,,,,,MVFR,,,,,,,,,,,,METAR,49.0
PFCL 240656Z AUTO 28009KT 10SM CLR M02/M06 A3010 RMK AO2 SLP185 T10221061 FZRANO TSNO,PFCL,2018-03-24T06:56:00Z,58.83,-158.53,-2.2,-6.1,280,9,,10.0,30.100393,1018.5,,TRUE,TRUE,,,TRUE,TRUE,,,CLR,,,,,,,,VFR,,,,,,,,,,,,METAR,24.0
PAZK 240656Z AUTO 36003KT 10SM CLR M09/M17 A2968 RMK AO2 SLP122 T10941172 FZRANO,PAZK,2018-03-24T06:56:00Z,61.93,-147.17,-9.4,-17.2,360,3,,10.0,29.681103,1012.2,,TRUE,TRUE,,,,TRUE,,,CLR,,,,,,,,VFR,,,,,,,,,,,,METAR,1003.0
PAWN 240656Z AUTO 13003KT 10SM FEW034 OVC110 M06/M12 A3006 RMK AO2 SLP193 T10561122 FZRANO $,PAWN,2018-03-24T06:56:00Z,67.57,-162.98,-5.6,-12.2,130,3,,10.0,30.059055,1019.3,,TRUE,TRUE,TRUE,,,TRUE,,,FEW,3400,OVC,11000,,,,,VFR,,,,,,,,,,,,METAR,30.0
KFNL 240656Z AUTO 04007KT 10SM CLR 04/01 A3003 RMK AO2 SLP148 T00390006 402000039,KFNL,2018-03-24T06:56:00Z,40.45,-105.02,3.9,0.6,40,7,,10.0,30.029528,1014.8,,TRUE,TRUE,,,,,,,CLR,,,,,,,,VFR,,,,20.0,3.9,,,,,,,METAR,1529.0
KFLP 240656Z AUTO 11004KT 10SM OVC045 17/12 A2984 RMK AO2 SLP098 T01670122 TSNO,KFLP,2018-03-24T06:56:00Z,36.28,-92.58,16.7,12.2,110,4,,10.0,29.840551,1009.8,,TRUE,TRUE,,,TRUE,,,,OVC,4500,,,,,,,VFR,,,,,,,,,,,,METAR,219.0
KFKL 240656Z AUTO 34003KT 10SM CLR M05/M07 A3021 RMK AO2 SLP251 T10501067 FZRANO,KFKL,2018-03-24T06:56:00Z,41.37,-79.87,-5.0,-6.7,340,3,,10.0,30.209646,1025.1,,TRUE,TRUE,,,,TRUE,,,CLR,,,,,,,,VFR,,,,,,,,,,,,METAR,469.0
KFCI 240656Z AUTO 36007KT 10SM CLR 03/M08 A3022 RMK AO2 SLP253 T00281083 $,KFCI,2018-03-24T06:56:00Z,37.4,-77.52,2.8,-8.3,360,7,,10.0,30.221457,1025.3,,TRUE,TRUE,TRUE,,,,,,CLR,,,,,,,,VFR,,,,,,,,,,,,METAR,72.0
KEWK 240656Z AUTO 23011KT 10SM CLR 17/13 A2963 RMK AO2 SLP022 T01670133 PNO $,KEWK,2018-03-24T06:56:00Z,38.03,-97.27,16.7,13.3,230,11,,10.0,29.630905,1002.2,,TRUE,TRUE,TRUE,,,,,,CLR,,,,,,,,VFR,,,,,,,,,,,,METAR,467.0
KEUL 240656Z AUTO 12006KT 10SM CLR 03/M01 A2979 RMK AO2 SLP092 T00331011 401221011,KEUL,2018-03-24T06:56:00Z,43.62,-116.62,3.3,-1.1,120,6,,10.0,29.790354,1009.2,,TRUE,TRUE,,,,,,,CLR,,,,,,,,VFR,,,,12.2,-1.1,,,,,,,METAR,740.0
KESC 240656Z AUTO 02007KT 10SM CLR M06/M11 A3042 RMK AO2 SLP330 T10561106 FZRANO,KESC,2018-03-24T06:56:00Z,45.75,-87.08,-5.6,-10.6,20,7,,10.0,30.41929,1033.0,,TRUE,TRUE,,,,TRUE,,,CLR,,,,,,,,VFR,,,,,,,,,,,,METAR,187.0
KENV 240656Z AUTO 00000KT 10SM FEW100 08/M03 A2985 RMK AO2 SLP100 T00781033 401610044,KENV,2018-03-24T06:56:00Z,40.72,-114.02,7.8,-3.3,0,0,,10.0,29.84941,1010.0,,TRUE,TRUE,,,,,,,FEW,10000,,,,,,,VFR,,,,16.1,4.4,,,,,,,METAR,1292.0
KEKY 240656Z AUTO 18005KT 10SM CLR 13/06 A3011 RMK AO2 SLP213 T01280056,KEKY,2018-03-24T06:56:00Z,33.32,-86.93,12.8,5.6,180,5,,10.0,30.109253,1021.3,,TRUE,TRUE,,,,,,,CLR,,,,,,,,VFR,,,,,,,,,,,,METAR,213.0
KEKQ 240656Z AUTO 11003KT 10SM -RA OVC060 04/03 A3018 RMK AO2 SLP248 T00440028 PNO $,KEKQ,2018-03-24T06:56:00Z,36.85,-84.85,4.4,2.8,110,3,,10.0,30.180119,1024.8,,TRUE,TRUE,TRUE,,,,,-RA,OVC,6000,,,,,,,VFR,,,,,,,,,,,,METAR,294.0
KEHR 240656Z AUTO 10013G20KT 9SM -RA FEW008 BKN045 OVC065 06/04 A3008 RMK AO2 SLP197 P0013 T00560044,KEHR,2018-03-24T06:56:00Z,37.82,-87.67,5.6,4.4,100,13,20,9.0,30.079725,1019.7,,TRUE,TRUE,,,,,,-RA,FEW,800,BKN,4500,OVC,6500,,,VFR,,,,,,0.13,,,,,,METAR,117.0
KEEN 240656Z AUTO 00000KT 10SM CLR M03/M06 A3003 RMK AO2 SLP190 T10331056 FZRANO,KEEN,2018-03-24T06:56:00Z,42.88,-72.27,-3.3,-5.6,0,0,,10.0,30.029528,1019.0,,TRUE,TRUE,,,,TRUE,,,CLR,,,,,,,,VFR,,,,,,,,,,,,METAR,149.0
KEAR 240656Z AUTO 02011KT 6SM BR OVC006 06/05 A2982 RMK AO2 SLP098 T00560050,KEAR,2018-03-24T06:56:00Z,40.72,-99.0,5.6,5.0,20,11,,6.0,29.819881,1009.8,,TRUE,TRUE,,,,,,BR,OVC,600,,,,,,,IFR,,,,,,,,,,,,METAR,649.0
KDYR 240656Z AUTO 14007KT 10SM OVC070 14/07 A2995 RMK AO2 SLP155 T01390067 PNO $,KDYR,2018-03-24T06:56:00Z,36.0,-89.4,13.9,6.7,140,7,,10.0,29.949802,1015.5,,TRUE,TRUE,TRUE,,,,,,OVC,7000,,,,,,,VFR,,,,,,,,,,,,METAR,103.0
KDWU 240656Z AUTO 00000KT 10SM CLR M02/M04 A3027 RMK AO2 SLP254 T10221044 FZRANO,KDWU,2018-03-24T06:56:00Z,38.55,-82.73,-2.2,-4.4,0,0,,10.0,30.268702,1025.4,,TRUE,TRUE,,,,TRUE,,,CLR,,,,,,,,VFR,,,,,,,,,,,,METAR,166.0
KDIJ 240656Z AUTO 00000KT 10SM FEW080 M03/M04 A2994 RMK AO2 SLPNO T10281039 400501028,KDIJ,2018-03-24T06:56:00Z,43.75,-111.1,-2.8,-3.9,0,0,,10.0,29.940945,,,TRUE,TRUE,,,,,,,FEW,8000,,,,,,,VFR,,,,5.0,-2.8,,,,,,,METAR,1899.0
KCVO 240656Z AUTO 19007KT 10SM -RA FEW004 BKN037 OVC065 02/02 A2985 RMK AO2 SLP110 P0000 T00220017 FZRANO,KCVO,2018-03-24T06:56:00Z,44.5,-123.27,2.2,1.7,190,7,,10.0,29.84941,1011.0,,TRUE,TRUE,,,,TRUE,,-RA,FEW,400,BKN,3700,OVC,6500,,,VFR,,,,,,0.005,,,,,,METAR,75.0
KCVN 240656Z AUTO 28010KT 10SM CLR 11/M01 A2998 RMK AO2 SLP118 T01111011 403000094,KCVN,2018-03-24T06:56:00Z,34.42,-103.07,11.1,-1.1,280,10,,10.0,29.97933,1011.8,,TRUE,TRUE,,,,,,,CLR,,,,,,,,VFR,,,,30.0,9.4,,,,,,,METAR,1284.0
KCTB 240656Z AUTO 15009KT 10SM CLR 00/M03 A2979 RMK AO2 SLP105 T00001033 400781011,KCTB,2018-03-24T06:56:00Z,48.6,-112.37,0.0,-3.3,150,9,,10.0,29.790354,1010.5,,TRUE,TRUE,,,,,,,CLR,,,,,,,,VFR,,,,7.8,-1.1,,,,,,,METAR,1175.0
KCOD 240656Z AUTO 23006KT 10SM BKN080 04/M08 A2991 RMK AO2 SLP125 T00441078 401330006,KCOD,2018-03-24T06:56:00Z,44.52,-109.02,4.4,-7.8,230,6,,10.0,29.911417,1012.5,,TRUE,TRUE,,,,,,,BKN,8000,,,,,,,VFR,,,,13.3,0.6,,,,,,,METAR,1553.0
KXNO 240656Z AUTO 33005KT 10SM OVC075 13/M02 M RMK AO2 SLPNO T01251018 $,KXNO,2018-03-24T06:56:00Z,33.62,-81.07,12.5,-1.8,330,5,,10.0,,,,TRUE,TRUE,TRUE,,,,,,OVC,7500,,,,,,,VFR,,,,,,,,,,,,METAR,98.0
KVAD 240656Z AUTO 00000KT 10SM CLR 09/05 A3019 RMK AO2 SLP225 T00910053 $,KVAD,2018-03-24T06:56:00Z,30.97,-83.2,9.1,5.3,0,0,,10.0,30.188976,1022.5,,TRUE,TRUE,TRUE,,,,,,CLR,,,,,,,,VFR,,,,,,,,,,,,METAR,71.0
KTIK 240656Z AUTO 20016KT 10SM CLR 20/15 A2971 RMK AO2 PK WND 19029/13 SLP057 T02010147,KTIK,2018-03-24T06:56:00Z,35.42,-97.37,20.1,14.7,200,16,,10.0,29.71063,1005.7,,TRUE,TRUE,,,,,,,CLR,,,,,,,,VFR,,,,,,,,,,,,METAR,394.0
KTDR 240656Z AUTO 00000KT 10SM CLR 11/09 A3019 RMK AO2 SLP227 T01080092 $,KTDR,2018-03-24T06:56:00Z,30.05,-85.52,10.8,9.2,0,0,,10.0,30.188976,1022.7,,TRUE,TRUE,TRUE,,,,,,CLR,,,,,,,,VFR,,,,,,,,,,,,METAR,5.0
KTBN 240656Z AUTO 12012KT 10SM BKN039 OVC065 11/08 A2983 RMK AO2 SLP102 T01110078 $,KTBN,2018-03-24T06:56:00Z,37.72,-92.12,11.1,7.8,120,12,,10.0,29.828741,1010.2,,TRUE,TRUE,TRUE,,,,,,BKN,3900,OVC,6500,,,,,VFR,,,,,,,,,,,,METAR,353.0
KPOB 240656Z AUTO 00000KT 10SM SCT130 BKN170 01/M02 A3020 RMK AO2 SLP231 T00081016 $,KPOB,2018-03-24T06:56:00Z,35.17,-79.02,0.8,-1.6,0,0,,10.0,30.200787,1023.1,,TRUE,TRUE,TRUE,,,,,,SCT,13000,BKN,17000,,,,,VFR,,,,,,,,,,,,METAR,66.0
KPAM 240656Z AUTO 00000KT 10SM CLR 11/09 A3019 RMK AO2 SLP226 T01050093 $,KPAM,2018-03-24T06:56:00Z,30.07,-85.57,10.5,9.3,0,0,,10.0,30.188976,1022.6,,TRUE,TRUE,TRUE,,,,,,CLR,,,,,,,,VFR,,,,,,,,,,,,METAR,5.0
KOZR 240656Z AUTO 22004KT 10SM CLR 11/07 A3018 RMK AO2 SLP222 T01140071,KOZR,2018-03-24T06:56:00Z,31.28,-85.72,11.4,7.1,220,4,,10.0,30.180119,1022.2,,TRUE,TRUE,,,,,,,CLR,,,,,,,,VFR,,,,,,,,,,,,METAR,93.0
KMXF 240656Z AUTO 16003KT 10SM BKN090 12/06 A3014 RMK AO2 SLP209 T01180063 $,KMXF,2018-03-24T06:56:00Z,32.37,-86.37,11.8,6.3,160,3,,10.0,30.138779,1020.9,,TRUE,TRUE,TRUE,,,,,,BKN,9000,,,,,,,VFR,,,,,,,,,,,,METAR,51.0
KMMT 240656Z AUTO 00000KT 10SM OVC080 11/M02 A3017 RMK AO2 SLP219 T01141024 $,KMMT,2018-03-24T06:56:00Z,33.92,-80.78,11.4,-2.4,0,0,,10.0,30.171259,1021.9,,TRUE,TRUE,TRUE,,,,,,OVC,8000,,,,,,,VFR,,,,,,,,,,,,METAR,77.0
KMGE 240656Z AUTO 00000KT 10SM BKN110 11/04 A3015 RMK AO2 SLP209 T01060043 $,KMGE,2018-03-24T06:56:00Z,33.92,-84.52,10.6,4.3,0,0,,10.0,30.15059,1020.9,,TRUE,TRUE,TRUE,,,,,,BKN,11000,,,,,,,VFR,,,,,,,,,,,,METAR,326.0
KMCF 240656Z AUTO 00000KT 10SM CLR 10/08 A3022 RMK AO2 SLP237 T01020076 FZRANO $,KMCF,2018-03-24T06:56:00Z,27.85,-82.52,10.2,7.6,0,0,,10.0,30.221457,1023.7,,TRUE,TRUE,TRUE,,,TRUE,,,CLR,,,,,,,,VFR,,,,,,,,,,,,METAR,4.0
KLTS 240656Z AUTO 00000KT 10SM CLR 20/11 A2975 RMK AO2 SLP062 T01960106 $,KLTS,2018-03-24T06:56:00Z,34.67,-99.27,19.6,10.6,0,0,,10.0,29.749016,1006.2,,TRUE,TRUE,TRUE,,,,,,CLR,,,,,,,,VFR,,,,,,,,,,,,METAR,420.0
KLSF 240656Z AUTO 12003KT 10SM BKN120 07/07 A3016 RMK AO2 SLP218 T00690068,KLSF,2018-03-24T06:56:00Z,32.32,-84.97,6.9,6.8,120,3,,10.0,30.159449,1021.8,,TRUE,TRUE,,,,,,,BKN,12000,,,,,,,VFR,,,,,,,,,,,,METAR,71.0
KCOF 240656Z AUTO 30003KT 10SM CLR 15/11 A3020 RMK AO2 SLP231 T01470111,KCOF,2018-03-24T06:56:00Z,28.23,-80.6,14.7,11.1,300,3,,10.0,30.200787,1023.1,,TRUE,TRUE,,,,,,,CLR,,,,,,,,VFR,,,,,,,,,,,,METAR,3.0
KSSC 240656Z AUTO 05006KT 10SM OVC090 09/01 A3015 RMK AO2 SLP211 T00900007,KSSC,2018-03-24T06:56:00Z,33.97,-80.47,9.0,0.7,50,6,,10.0,30.15059,1021.1,,TRUE,TRUE,,,,,,,OVC,9000,,,,,,,VFR,,,,,,,,,,,,METAR,74.0
KLRF 240656Z AUTO 19009G17KT 10SM BKN055 19/12 A2988 RMK AO2 SLP119 T01940124,KLRF,2018-03-24T06:56:00Z,34.92,-92.15,19.4,12.4,190,9,17,10.0,29.878937,1011.9,,TRUE,TRUE,,,,,,,BKN,5500,,,,,,,VFR,,,,,,,,,,,,METAR,95.0
KLHW 240656Z AUTO 00000KT 10SM BKN100 10/06 A3018 RMK AO2 SLP223 T00990061 $,KLHW,2018-03-24T06:56:00Z,31.87,-81.57,9.9,6.1,0,0,,10.0,30.180119,1022.3,,TRUE,TRUE,TRUE,,,,,,BKN,10000,,,,,,,VFR,,,,,,,,,,,,METAR,14.0
KIAB 240656Z AUTO 26011KT 10SM CLR 18/14 A2962 RMK AO2 SLP023 T01770136,KIAB,2018-03-24T06:56:00Z,37.62,-97.27,17.7,13.6,260,11,,10.0,29.619095,1002.3,,TRUE,TRUE,,,,,,,CLR,,,,,,,,VFR,,,,,,,,,,,,METAR,418.0
KGSB 240656Z AUTO 02003KT 10SM CLR 01/M03 A3018 RMK AO2 SLP223 T00131028 $,KGSB,2018-03-24T06:56:00Z,35.32,-77.97,1.3,-2.8,20,3,,10.0,30.180119,1022.3,,TRUE,TRUE,TRUE,,,,,,CLR,,,,,,,,VFR,,,,,,,,,,,,METAR,33.0
KDYS 240656Z AUTO 19021G27KT 10SM CLR 21/16 A2984 RMK AO2 PK WND 19033/22 SLP067 T02130156 $,KDYS,2018-03-24T06:56:00Z,32.42,-99.83,21.3,15.6,190,21,27,10.0,29.840551,1006.7,,TRUE,TRUE,TRUE,,,,,,CLR,,,,,,,,VFR,,,,,,,,,,,,METAR,545.0
KCBM 240656Z AUTO 19009KT 10SM CLR 15/09 A3005 RMK AO2 SLP178 T01530090 TSNO $,KCBM,2018-03-24T06:56:00Z,33.63,-88.45,15.3,9.0,190,9,,10.0,30.050198,1017.8,,TRUE,TRUE,TRUE,,TRUE,,,,CLR,,,,,,,,VFR,,,,,,,,,,,,METAR,67.0
ETOU 240656Z AUTO 09007KT 9999 CLR 05/03 A2959 RMK AO2 SLP027 T00460034 $,ETOU,2018-03-24T06:56:00Z,50.03,8.32,4.6,3.4,90,7,,6.21,29.589567,1002.7,,TRUE,TRUE,TRUE,,,,,,CLR,,,,,,,,VFR,,,,,,,,,,,,METAR,141.0
ETAD 240656Z AUTO 06007KT 9999 CLR 02/02 A2953 RMK AO2 SLP005 T00220022 $,ETAD,2018-03-24T06:56:00Z,49.98,6.7,2.2,2.2,60,7,,6.21,29.530512,1000.5,,TRUE,TRUE,TRUE,,,,,,CLR,,,,,,,,VFR,,,,,,,,,,,,METAR,365.0
ROTM 240656Z VRB06KT 9999 SCT050 19/09 A3018 RMK SLP207 STNPR29875 T01890089,ROTM,2018-03-24T06:56:00Z,26.27,127.75,18.9,8.9,0,6,,6.21,30.180119,1020.7,,,,,,,,,,SCT,5000,,,,,,,VFR,,,,,,,,,,,,METAR,75.0
RODN 240656Z AUTO 03007KT 10SM OVC048 20/10 A3017 RMK AO2 SLP224 T02000098 $,RODN,2018-03-24T06:56:00Z,26.35,127.77,20.0,9.8,30,7,,10.0,30.171259,1022.4,,TRUE,TRUE,TRUE,,,,,,OVC,4800,,,,,,,VFR,,,,,,,,,,,,METAR,45.0
RKSG 240656Z 30008KT 3SM HZ CLR 12/10 A3015 RMK AO2A SLP214 T01230102 PWINO $,RKSG,2018-03-24T06:56:00Z,36.97,127.02,12.3,10.2,300,8,,3.0,30.15059,1021.4,,,TRUE,TRUE,,,,TRUE,HZ,CLR,,,,,,,,MVFR,,,,,,,,,,,,METAR,16.0
RKJK 240656Z AUTO 24006KT 6SM HZ FEW070 SCT090 SCT100 BKN140 BKN160 OVC190 10/08 A3019 RMK AO2 SLP228 T01020076,RKJK,2018-03-24T06:56:00Z,35.9,126.62,10.2,7.6,240,6,,6.0,30.188976,1022.8,,TRUE,TRUE,,,,,,HZ,FEW,7000,SCT,9000,SCT,10000,BKN,14000,VFR,,,,,,,,,,,,METAR,9.0
PAEI 240656Z 01008KT 10SM CLR M08/M18 A2993 RMK AO2A SLP149 T10771179 RVRNO $,PAEI,2018-03-24T06:56:00Z,64.67,-147.1,-7.7,-17.9,10,8,,10.0,29.929134,1014.9,,,TRUE,TRUE,,,,,,CLR,,,,,,,,VFR,,,,,,,,,,,,METAR,167.0
PAED 240656Z AUTO 01004KT 10SM CLR M04/M13 A2978 RMK AO2 SLP083 T10411128,PAED,2018-03-24T06:56:00Z,61.25,-149.8,-4.1,-12.8,10,4,,10.0,29.778543,1008.3,,TRUE,TRUE,,,,,,,CLR,,,,,,,,VFR,,,,,,,,,,,,METAR,59.0
KSVN 240656Z AUTO 26003KT 10SM BKN100 BKN120 10/06 A3016 RMK AO2 SLP216 T01040064 $,KSVN,2018-03-24T06:56:00Z,32.02,-81.15,10.4,6.4,260,3,,10.0,30.159449,1021.6,,TRUE,TRUE,TRUE,,,,,,BKN,10000,BKN,12000,,,,,VFR,,,,,,,,,,,,METAR,13.0
KFSI 240656Z AUTO 21009KT 10SM CLR 20/17 A2974 RMK AO2 SLP064 T02010169,KFSI,2018-03-24T06:56:00Z,34.65,-98.4,20.1,16.9,210,9,,10.0,29.740158,1006.4,,TRUE,TRUE,,,,,,,CLR,,,,,,,,VFR,,,,,,,,,,,,METAR,362.0
KEGI 240656Z AUTO 00000KT 10SM CLR 07/05 A3017 RMK AO2 SLP218 T00690052 $,KEGI,2018-03-24T06:56:00Z,30.63,-86.52,6.9,5.2,0,0,,10.0,30.171259,1021.8,,TRUE,TRUE,TRUE,,,,,,CLR,,,,,,,,VFR,,,,,,,,,,,,METAR,59.0
KBIX 240656Z AUTO 17009KT 10SM CLR 18/15 A3013 RMK AO2 SLP206 T01840153,KBIX,2018-03-24T06:56:00Z,30.42,-88.92,18.4,15.3,170,9,,10.0,30.129921,1020.6,,TRUE,TRUE,,,,,,,CLR,,,,,,,,VFR,,,,,,,,,,,,METAR,10.0
KNJK 240656Z AUTO 28010KT 10SM CLR 19/06 A2994 RMK AO2 SLP152 T01940061 $,KNJK,2018-03-24T06:56:00Z,32.82,-115.67,19.4,6.1,280,10,,10.0,29.940945,1015.2,,TRUE,TRUE,TRUE,,,,,,CLR,,,,,,,,VFR,,,,,,,,,,,,METAR,-13.0
PMDY 240656Z AUTO 35008KT 10SM BKN017 BKN025 BKN035 17/14 A3014 RMK AO2 SLP205 T01670144,PMDY,2018-03-24T06:56:00Z,28.22,-177.37,16.7,14.4,350,8,,10.0,30.138779,1020.5,,TRUE,TRUE,,,,,,,BKN,1700,BKN,2500,BKN,3500,,,MVFR,,,,,,,,,,,,METAR,4.0
PHNY 240656Z AUTO 12007KT 10SM OVC100 20/18 A3006 RMK AO2 SLP163 T02000178,PHNY,2018-03-24T06:56:00Z,20.77,-156.93,20.0,17.8,120,7,,10.0,30.059055,1016.3,,TRUE,TRUE,,,,,,,OVC,10000,,,,,,,VFR,,,,,,,,,,,,METAR,399.0
KWRI 240656Z AUTO 30007KT 10SM CLR 01/M06 A3008 RMK AO2 SLP187 T00101059 $,KWRI,2018-03-24T06:56:00Z,40.02,-74.58,1.0,-5.9,300,7,,10.0,30.079725,1018.7,,TRUE,TRUE,TRUE,,,,,,CLR,,,,,,,,VFR,,,,,,,,,,,,METAR,41.0
KADW 240656Z AUTO 32008KT 10SM CLR 02/M07 A3019 RMK AO2 SLP232 T00161067,KADW,2018-03-24T06:56:00Z,38.82,-76.87,1.6,-6.7,320,8,,10.0,30.188976,1023.2,,TRUE,TRUE,,,,,,,CLR,,,,,,,,VFR,,,,,,,,,,,,METAR,86.0
KSMP 240656Z AUTO VRB03KT 10SM FEW016 OVC036 M03/M04 A2962 RMK AO2 SNB34E50 SLP057 P0000 T10281039 400111044,KSMP,2018-03-24T06:56:00Z,47.28,-121.33,-2.8,-3.9,0,3,,10.0,29.619095,1005.7,,TRUE,TRUE,,,,,,,FEW,1600,OVC,3600,,,,,VFR,,,,1.1,-4.4,0.005,,,,,,SPECI,1208.0
KSFZ 240656Z AUTO 10SM OVC085 02/M07 A2998 RMK AO2 SLP101 T00221067 FZRANO TSNO $,KSFZ,2018-03-24T06:56:00Z,41.92,-71.5,2.2,-6.7,,,,10.0,29.97933,1010.1,,TRUE,TRUE,TRUE,,TRUE,TRUE,,,OVC,8500,,,,,,,VFR,,,,,,,,,,,,METAR,134.0
KFAF 240656Z AUTO 33011G19KT 10SM CLR 04/M07 A3018 RMK AO2 SLP223 T00431069 $,KFAF,2018-03-24T06:56:00Z,37.12,-76.62,4.3,-6.9,330,11,19,10.0,30.180119,1022.3,,TRUE,TRUE,TRUE,,,,,,CLR,,,,,,,,VFR,,,,,,,,,,,,SPECI,4.0
KPVU 240656Z AUTO 16017KT 10SM OVC095 07/M01 A2995 RMK AO2 SLP132 T00721006 401390044,KPVU,2018-03-24T06:56:00Z,40.22,-111.72,7.2,-0.6,160,17,,10.0,29.949802,1013.2,,TRUE,TRUE,,,,,,,OVC,9500,,,,,,,VFR,,,,13.9,4.4,,,,,,,METAR,1369.0
KNXF 240656Z AUTO 06003KT 10SM BKN012 12/11 A3007 RMK AO2 SLP269 T01220111,KNXF,2018-03-24T06:56:00Z,33.28,-117.45,12.2,11.1,60,3,,10.0,30.070866,1026.9,,TRUE,TRUE,,,,,,,BKN,1200,,,,,,,MVFR,,,,,,,,,,,,METAR,27.0
KNOG 240656Z AUTO 18013G21KT 10SM OVC019 22/18 A2993 RMK AO2 SLP115 T02170183,KNOG,2018-03-24T06:56:00Z,27.9,-98.05,21.7,18.3,180,13,21,10.0,29.929134,1011.5,,TRUE,TRUE,,,,,,,OVC,1900,,,,,,,MVFR,,,,,,,,,,,,METAR,78.0
LICF 240655Z 22002KT 9999 -RA FEW015TCU SCT030 08/07 Q1000 RERA RMK BKN BKN080 QUK 2 QUL 0 VIS MAR 10 KM MON E CIME INC NC MON W GEN INC VAR RAPID VIS MIN 9999,LICF,2018-03-24T06:55:00Z,38.2,15.55,8.0,7.0,220,2,,6.21,29.52756,,,,,,,,,,-RA,FEW,1500,SCT,3000,,,,,VFR,,,,,,,,,,,,METAR,51.0
MUHA 240655Z 25002KT 9999 FEW025 12/11 Q1021,MUHA,2018-03-24T06:55:00Z,22.97,-82.42,12.0,11.0,250,2,,6.21,30.147638,,,,,,,,,,,FEW,2500,,,,,,,VFR,,,,,,,,,,,,METAR,64.0
KDRA 240655Z AUTO 21018G25KT 10SM CLR 14/M06 A2991 RMK AO2 PK WND 21029/0556 SLP100 T01441056,KDRA,2018-03-24T06:55:00Z,36.62,-116.03,14.4,-5.6,210,18,25,10.0,29.911417,1010.0,,TRUE,TRUE,,,,,,,CLR,,,,,,,,VFR,,,,,,,,,,,,METAR,1006.0
KCVC 240655Z AUTO 00000KT 10SM SCT085 OVC110 12/07 A3016 RMK AO2,KCVC,2018-03-24T06:55:00Z,33.63,-83.85,12.0,7.0,0,0,,10.0,30.159449,,,TRUE,TRUE,,,,,,,SCT,8500,OVC,11000,,,,,VFR,,,,,,,,,,,,METAR,247.0
KCKC 240655Z AUTO 09007KT 10SM CLR M08/M14 A3041 RMK AO2,KCKC,2018-03-24T06:55:00Z,47.83,-90.37,-8.0,-14.0,90,7,,10.0,30.410433,,,TRUE,TRUE,,,,,,,CLR,,,,,,,,VFR,,,,,,,,,,,,METAR,548.0
KMWN 240655Z 35007KT 100SM FEW005 SCT020 SCT050 SCT100 BKN250 M13/M17 RMK,KMWN,2018-03-24T06:55:00Z,44.27,-71.3,-13.0,-17.0,350,7,,99.0,,,,,,,,,,,,FEW,500,SCT,2000,SCT,5000,SCT,10000,VFR,,,,,,,,,,,,METAR,1910.0
KRDR 240655Z 15014KT 3SM -SN BR OVC011 M02/M02 A3018 RMK VIS 2 1/4 RWY17 SLP237 P0007 T10171018 $,KRDR,2018-03-24T06:55:00Z,47.97,-97.4,-1.7,-1.8,150,14,,3.0,30.180119,1023.7,,,,TRUE,,,,,-SN BR,OVC,1100,,,,,,,MVFR,,,,,,0.07,,,,,,METAR,278.0
KDLF 240655Z 14012KT 10SM BKN200 22/16 A2989 RMK AO2A SLP111 T02150164,KDLF,2018-03-24T06:55:00Z,29.37,-100.77,21.5,16.4,140,12,,10.0,29.890747,1011.1,,,TRUE,,,,,,,BKN,20000,,,,,,,VFR,,,,,,,,,,,,METAR,330.0
RJOI 240655Z 16006KT 9999 FEW040 16/06 A3009 RMK SLP189 T01560061,RJOI,2018-03-24T06:55:00Z,34.13,132.22,15.6,6.1,160,6,,6.21,30.088583,1018.9,,,,,,,,,,FEW,4000,,,,,,,VFR,,,,,,,,,,,,METAR,2.0
PALU 240655Z AUTO 15006KT 10SM BKN120 M02/M08 A2999 RMK AO2 SLP155 T10201082,PALU,2018-03-24T06:55:00Z,68.88,-166.1,-2.0,-8.2,150,6,,10.0,29.991142,1015.5,,TRUE,TRUE,,,,,,,BKN,12000,,,,,,,VFR,,,,,,,,,,,,METAR,3.0
PAIM 240655Z AUTO 05014G23KT 10SM CLR M07/M17 A3000 RMK AO2 SLP189 T10721168,PAIM,2018-03-24T06:55:00Z,66.0,-153.7,-7.2,-16.8,50,14,23,10.0,30.0,1018.9,,TRUE,TRUE,,,,,,,CLR,,,,,,,,VFR,,,,,,,,,,,,METAR,389.0
KCMA 240655Z AUTO 08003KT 10SM CLR 11/08 A3005 RMK AO2 SLP184 T01110078,KCMA,2018-03-24T06:55:00Z,34.22,-119.1,11.1,7.8,80,3,,10.0,30.050198,1018.4,,TRUE,TRUE,,,,,,,CLR,,,,,,,,VFR,,,,,,,,,,,,METAR,23.0
KCAO 240655Z AUTO 32009KT 10SM CLR 10/M08 A2996 RMK AO2 SLP092 T01001078 402670094,KCAO,2018-03-24T06:55:00Z,36.45,-103.15,10.0,-7.8,320,9,,10.0,29.958662,1009.2,,TRUE,TRUE,,,,,,,CLR,,,,,,,,VFR,,,,26.7,9.4,,,,,,,METAR,1514.0
KANJ 240655Z AUTO 04007KT 10SM CLR M05/M15 A3044 RMK AO2 SLP318 T10501150,KANJ,2018-03-24T06:55:00Z,46.47,-84.37,-5.0,-15.0,40,7,,10.0,30.43996,1031.8,,TRUE,TRUE,,,,,,,CLR,,,,,,,,VFR,,,,,,,,,,,,METAR,218.0
KAAT 240655Z AUTO 18010KT 10SM OVC043 02/M04 A2982 RMK AO2 SLP100 T00221044,KAAT,2018-03-24T06:55:00Z,41.48,-120.57,2.2,-4.4,180,10,,10.0,29.819881,1010.0,,TRUE,TRUE,,,,,,,OVC,4300,,,,,,,VFR,,,,,,,,,,,,METAR,1331.0
KSCK 240655Z AUTO 11003KT 10SM SCT080 09/05 A3012 RMK AO2 SLP200 T00890050,KSCK,2018-03-24T06:55:00Z,37.88,-121.22,8.9,5.0,110,3,,10.0,30.121063,1020.0,,TRUE,TRUE,,,,,,,SCT,8000,,,,,,,VFR,,,,,,,,,,,,METAR,10.0
KRNO 240655Z 21010KT 10SM FEW060 04/M08 A2993 RMK AO2 SLP120 T00391083,KRNO,2018-03-24T06:55:00Z,39.5,-119.77,3.9,-8.3,210,10,,10.0,29.929134,1012.0,,,TRUE,,,,,,,FEW,6000,,,,,,,VFR,,,,,,,,,,,,METAR,1342.0
KIRK 240655Z AUTO 10016G26KT 4SM -RA BR OVC006 05/05 A2990 RMK AO2 PK WND 11031/0644 RAB33 SLP131 P0001 T00500050,KIRK,2018-03-24T06:55:00Z,40.1,-92.55,5.0,5.0,100,16,26,4.0,29.899607,1013.1,,TRUE,TRUE,,,,,,-RA BR,OVC,600,,,,,,,IFR,,,,,,0.01,,,,,,METAR,293.0
KINL 240655Z AUTO 11012KT 10SM CLR M04/M13 A3036 RMK AO2 SLP301 T10441133,KINL,2018-03-24T06:55:00Z,48.57,-93.4,-4.4,-13.3,110,12,,10.0,30.360237,1030.1,,TRUE,TRUE,,,,,,,CLR,,,,,,,,VFR,,,,,,,,,,,,METAR,360.0
KGPI 240655Z AUTO 00000KT 10SM CLR M02/M03 A2977 RMK AO2 SLP103 T10221033 400721022,KGPI,2018-03-24T06:55:00Z,48.32,-114.25,-2.2,-3.3,0,0,,10.0,29.769686,1010.3,,TRUE,TRUE,,,,,,,CLR,,,,,,,,VFR,,,,7.2,-2.2,,,,,,,METAR,908.0
KUGN 240655Z AUTO 08005KT 10SM CLR 01/M02 A3026 RMK AO2 SLP258 T00111017,KUGN,2018-03-24T06:55:00Z,42.42,-87.87,1.1,-1.7,80,5,,10.0,30.259842,1025.8,,TRUE,TRUE,,,,,,,CLR,,,,,,,,VFR,,,,,,,,,,,,METAR,222.0
KMKG 240655Z AUTO 09008KT 10SM CLR M02/M08 A3034 RMK AO2 SLP282 T10171078,KMKG,2018-03-24T06:55:00Z,43.17,-86.23,-1.7,-7.8,90,8,,10.0,30.339567,1028.2,,TRUE,TRUE,,,,,,,CLR,,,,,,,,VFR,,,,,,,,,,,,METAR,191.0
KLLJ 240655Z AUTO 00000KT 10SM CLR 00/M06 A2982 RMK AO2 SLP094 T00001056 401001028,KLLJ,2018-03-24T06:55:00Z,44.52,-114.22,0.0,-5.6,0,0,,10.0,29.819881,1009.4,,TRUE,TRUE,,,,,,,CLR,,,,,,,,VFR,,,,10.0,-2.8,,,,,,,METAR,1536.0
KLIC 240655Z AUTO 33008KT 10SM CLR 02/00 A3001 RMK AO2 SLP121 T00220000 402560011,KLIC,2018-03-24T06:55:00Z,39.27,-103.67,2.2,0.0,330,8,,10.0,30.008858,1012.1,,TRUE,TRUE,,,,,,,CLR,,,,,,,,VFR,,,,25.6,1.1,,,,,,,METAR,1630.0
KEAT 240655Z AUTO 12008KT 10SM OVC075 04/M02 A2973 RMK AO2 SLP073 T00391017,KEAT,2018-03-24T06:55:00Z,47.4,-120.2,3.9,-1.7,120,8,,10.0,29.731298,1007.3,,TRUE,TRUE,,,,,,,OVC,7500,,,,,,,VFR,,,,,,,,,,,,METAR,377.0
KDLH 240655Z 09013KT 10SM CLR M05/M09 A3033 RMK AO2 PK WND 10027/0625 SLP295 T10501094,KDLH,2018-03-24T06:55:00Z,46.85,-92.2,-5.0,-9.4,90,13,,10.0,30.33071,1029.5,,,TRUE,,,,,,,CLR,,,,,,,,VFR,,,,,,,,,,,,METAR,435.0
KCNK 240655Z AUTO 01012G19KT 10SM OVC017 11/07 A2968 RMK AO2 SLP045 T01060072,KCNK,2018-03-24T06:55:00Z,39.55,-97.65,10.6,7.2,10,12,19,10.0,29.681103,1004.5,,TRUE,TRUE,,,,,,,OVC,1700,,,,,,,MVFR,,,,,,,,,,,,METAR,447.0
KNFG 240655Z AUTO 00000KT 10SM BKN011 OVC018 12/12 A3007 RMK AO2 SLP180 T01220117,KNFG,2018-03-24T06:55:00Z,33.28,-117.33,12.2,11.7,0,0,,10.0,30.070866,1018.0,,TRUE,TRUE,,,,,,,BKN,1100,OVC,1800,,,,,MVFR,,,,,,,,,,,,METAR,24.0
KVPS 240655Z 00000KT 10SM FEW250 10/07 A3016 RMK AO2A SLP220 T00980072 $,KVPS,2018-03-24T06:55:00Z,30.47,-86.52,9.8,7.2,0,0,,10.0,30.159449,1022.0,,,TRUE,TRUE,,,,,,FEW,25000,,,,,,,VFR,,,,,,,,,,,,METAR,26.0
KWWD 240655Z AUTO 32007G14KT 10SM CLR 03/M04 A3014 RMK AO2 SLP207 T00281039,KWWD,2018-03-24T06:55:00Z,39.02,-74.92,2.8,-3.9,320,7,14,10.0,30.138779,1020.7,,TRUE,TRUE,,,,,,,CLR,,,,,,,,VFR,,,,,,,,,,,,METAR,7.0
KQZF 240655Z AUTO 09006KT 1 1/4SM HZ BKN004 OVC006 25/M08 A2996 RMK AO2 SLP126 WND DATA ESTMD T02481080 $,KQZF,2018-03-24T06:55:00Z,,,24.8,-8.0,90,6,,1.25,29.958662,1012.6,,TRUE,TRUE,TRUE,,,,,HZ,BKN,400,OVC,600,,,,,LIFR,,,,,,,,,,,,METAR,
RKSO 240655Z 27010KT 2 3/4SM HZ SCT030 12/07 A3015 RMK AO2A SLP213 $,RKSO,2018-03-24T06:55:00Z,37.07,127.02,12.0,7.0,270,10,,2.75,30.15059,1021.3,,,TRUE,TRUE,,,,,HZ,SCT,3000,,,,,,,IFR,,,,,,,,,,,,METAR,12.0
PATL 240655Z AUTO 00000KT 10SM BKN100 M06/M11 A3001 RMK AO2 SLP187 T10571115,PATL,2018-03-24T06:55:00Z,62.9,-155.97,-5.7,-11.5,0,0,,10.0,30.008858,1018.7,,TRUE,TRUE,,,,,,,BKN,10000,,,,,,,VFR,,,,,,,,,,,,METAR,294.0
PATC 240655Z AUTO 17034KT 8SM BKN010 M03/M04 A2984 RMK AO2 PK WND 16041/0639 SLP109 T10281039 $,PATC,2018-03-24T06:55:00Z,65.57,-167.92,-2.8,-3.9,170,34,,8.0,29.840551,1010.9,,TRUE,TRUE,TRUE,,,,,,BKN,1000,,,,,,,MVFR,,,,,,,,,,,,METAR,83.0
TXKF 240655Z 27020KT 9999 FEW036 SCT050 BKN063 16/07 Q1012 ,TXKF,2018-03-24T06:55:00Z,32.37,-64.68,16.0,7.0,270,20,,6.21,29.88189,,,,,,,,,,,FEW,3600,SCT,5000,BKN,6300,,,VFR,,,,,,,,,,,,METAR,6.0
KBYS 240655Z AUTO VRB03KT 10SM CLR 13/00 A2999 RMK AO2 SLP147 WND DATA ESTMD T01280003,KBYS,2018-03-24T06:55:00Z,35.28,-116.62,12.8,0.3,0,3,,10.0,29.991142,1014.7,,TRUE,TRUE,,,,,,,CLR,,,,,,,,VFR,,,,,,,,,,,,METAR,716.0
OAHR 240655Z 00000KT CAVOK 18/05 Q1024 RMK A3026 BLU,OAHR,2018-03-24T06:55:00Z,34.22,62.22,18.0,5.0,0,0,,6.21,30.236221,,,,,,,,,,,CAVOK,,,,,,,,VFR,,,,,,,,,,,,METAR,964.0
LIQC 240655Z 04003KT 9999 SCT026 07/02 Q1000 RMK SCT QUK 2 QUL 1 NE VIS MAR 15 KM VIS MIN 9999,LIQC,2018-03-24T06:55:00Z,40.55,14.2,7.0,2.0,40,3,,6.21,29.52756,,,,,,,,,,,SCT,2600,,,,,,,VFR,,,,,,,,,,,,METAR,269.0
KFBL 240655Z AUTO 08013G17KT 10SM CLR 02/M07 A3014 RMK AO2,KFBL,2018-03-24T06:55:00Z,44.33,-93.32,2.0,-7.0,80,13,17,10.0,30.138779,,,TRUE,TRUE,,,,,,,CLR,,,,,,,,VFR,,,,,,,,,,,,METAR,322.0
LIBN 240655Z 32006KT CAVOK 08/04 Q1000 RMK SCT SCT120 VIS MIN 9999 WIND THR14 33006KT WIND THR32 32005KT BLU,LIBN,2018-03-24T06:55:00Z,40.22,18.13,8.0,4.0,320,6,,6.21,29.52756,,,,,,,,,,,CAVOK,,,,,,,,VFR,,,,,,,,,,,,METAR,61.0
LIBQ 240655Z 26002KT 9999 BKN005 M02/M05 Q0995 RMK BKN MON LIB VAL NIL VIS MIN 9999,LIBQ,2018-03-24T06:55:00Z,39.32,16.38,-2.0,-5.0,260,2,,6.21,29.379921,,,,,,,,,,,BKN,500,,,,,,,IFR,,,,,,,,,,,,METAR,1720.0
LIBV 240655Z 29005KT 9999 SCT030 05/01 Q0998 RMK OVC BKN080 VIS MIN 9999 WIND THR32 31006KT WIND THR14 30006KT BLU,LIBV,2018-03-24T06:55:00Z,40.77,16.92,5.0,1.0,290,5,,6.21,29.468504,,,,,,,,,,,SCT,3000,,,,,,,VFR,,,,,,,,,,,,METAR,350.0
LIBY 240655Z 35006KT 9999 FEW020 08/04 Q0999 RMK BKN BKN080 QUK 1 QUL 1 N VIS MAR 15 KM VIS MIN 9999,LIBY,2018-03-24T06:55:00Z,39.82,18.35,8.0,4.0,350,6,,6.21,29.498032,,,,,,,,,,,FEW,2000,,,,,,,VFR,,,,,,,,,,,,METAR,112.0
LICZ 240655Z /////KT 9999 SCT080 08/04 Q1002 RMK SCT VIS MIN 9999 WIND THR28 26010KT WIND THR10 26008KT A2962 BLU,LICZ,2018-03-24T06:55:00Z,37.38,14.92,8.0,4.0,,,,6.21,29.586615,,,,,,,,,,,SCT,8000,,,,,,,VFR,,,,,,,,,,,,METAR,22.0
LIEB 240655Z 32007KT CAVOK 06/M06 Q1001 RMK SKC QUK 2 QUL 0 VIS MAR 30 KM MON LIB VIS MIN 9999,LIEB,2018-03-24T06:55:00Z,39.93,9.72,6.0,-6.0,320,7,,6.21,29.557087,,,,,,,,,,,CAVOK,,,,,,,,VFR,,,,,,,,,,,,METAR,156.0
LIED 240655Z 33003KT 9999 FEW006 05/04 Q1002 RMK SCT SCT200 VIS MIN 9999 WIND THR35 35002KT WIND THR17 /////KT BLU,LIED,2018-03-24T06:55:00Z,39.35,8.97,5.0,4.0,330,3,,6.21,29.586615,,,,,,,,,,,FEW,600,,,,,,,VFR,,,,,,,,,,,,METAR,28.0
LIMH 240655Z /////KT CAVOK M09/M30 Q0994 RMK SKC MON LIB VAL S MAR CLD VIS MIN 9999,LIMH,2018-03-24T06:55:00Z,45.93,7.7,-9.0,-30.0,,,,6.21,29.350393,,,,,,,,,,,CAVOK,,,,,,,,VFR,,,,,,,,,,,,METAR,3488.0
LIMK 240655Z 02008KT 9999 FEW010 BKN040 01/M02 Q1001 RMK BKN VAL FOSCHIA VIS MIN 9999,LIMK,2018-03-24T06:55:00Z,45.02,7.72,1.0,-2.0,20,8,,6.21,29.557087,,,,,,,,,,,FEW,1000,BKN,4000,,,,,VFR,,,,,,,,,,,,METAR,710.0
LIMY 240655Z 26006KT 3500 BR NSC 02/00 Q1001 RMK BKN BKN070 VAL FOSCHIA VIS MIN 2500NE,LIMY,2018-03-24T06:55:00Z,44.25,7.78,2.0,0.0,260,6,,2.17,29.557087,,,,,,,,,,BR,CLR,,,,,,,,IFR,,,,,,,,,,,,METAR,1742.0
LIMV 240655Z /////KT 9999 SCT015 03/02 Q1002 RMK OVC BKN070 MON LIB VAL NIL VIS MIN 9999,LIMV,2018-03-24T06:55:00Z,44.55,8.92,3.0,2.0,,,,6.21,29.586615,,,,,,,,,,,SCT,1500,,,,,,,VFR,,,,,,,,,,,,METAR,475.0
LIMU 240655Z 02006KT 9999 SCT020 09/06 Q1001 RMK SCT QUK 2 QUL 1 SE VIS MAR 25 KM VIS MIN 9999,LIMU,2018-03-24T06:55:00Z,43.95,8.17,9.0,6.0,20,6,,6.21,29.557087,,,,,,,,,,,SCT,2000,,,,,,,VFR,,,,,,,,,,,,METAR,221.0
LIPA 240655Z 04004KT 9999 FEW050 03/02 Q1003 RMK FEW VIS MIN 9999 WIND THR05 /////KT WIND THR23 /////KT A2964 BLU,LIPA,2018-03-24T06:55:00Z,46.02,12.58,3.0,2.0,40,4,,6.21,29.616142,,,,,,,,,,,FEW,5000,,,,,,,VFR,,,,,,,,,,,,METAR,126.0
LIPL 240655Z 06007KT 9999 BKN080 05/00 Q1003 RMK BKN VIS MIN 9999 WIND THR31 06008KT WIND THR13 07008KT BLU,LIPL,2018-03-24T06:55:00Z,45.42,10.27,5.0,0.0,60,7,,6.21,29.616142,,,,,,,,,,,BKN,8000,,,,,,,VFR,,,,,,,,,,,,METAR,92.0
LIPS 240655Z 07004KT 9000 BKN070 02/M01 Q1004 RMK BKN VIS MIN 9000 WIND THR26 07003KT WIND THR08 07003KT BLU,LIPS,2018-03-24T06:55:00Z,45.67,12.08,2.0,-1.0,70,4,,5.59,29.64567,,,,,,,,,,,BKN,7000,,,,,,,VFR,,,,,,,,,,,,METAR,41.0
LIQO 240655Z 07014KT CAVOK 03/M04 Q1000 RMK SKC VAL NIL NC VIS MIN 9999,LIQO,2018-03-24T06:55:00Z,42.37,11.17,3.0,-4.0,70,14,,6.21,29.52756,,,,,,,,,,,CAVOK,,,,,,,,VFR,,,,,,,,,,,,METAR,632.0
LIRE 240655Z 03009KT CAVOK 06/02 Q1001 RMK SKC VIS MIN 9999 WIND THR13 04009KT WIND THR31 03009KT BLU,LIRE,2018-03-24T06:55:00Z,41.63,12.42,6.0,2.0,30,9,,6.21,29.557087,,,,,,,,,,,CAVOK,,,,,,,,VFR,,,,,,,,,,,,METAR,12.0
LIRK 240655Z AUTO /////KT //// ///// Q////,LIRK,2018-03-24T06:55:00Z,42.47,12.97,,,,,,,,,,TRUE,,,,,,,,,,,,,,,,,,,,,,,,,,,,METAR,1875.0
LIVR 240655Z 35003KT CAVOK M10/M13 Q0996 RMK SKC MON LIB VIS MIN 9999,LIVR,2018-03-24T06:55:00Z,46.28,11.77,-10.0,-13.0,350,3,,6.21,29.409449,,,,,,,,,,,CAVOK,,,,,,,,VFR,,,,,,,,,,,,METAR,2006.0
LIVT 240655Z 00000KT CAVOK 07/02 Q1003 RMK FEW FEW070 QUK 1 QUL 0 VIS MAR 20 KM VIS MIN 9999,LIVT,2018-03-24T06:55:00Z,45.68,13.75,7.0,2.0,0,0,,6.21,29.616142,,,,,,,,,,,CAVOK,,,,,,,,VFR,,,,,,,,,,,,METAR,20.0
LIVP 240655Z 23006KT CAVOK M09/M10 Q0996 RMK BKN SCT060 MON LIB VAL MAR CLD VIS MIN 9999,LIVP,2018-03-24T06:55:00Z,46.15,11.03,-9.0,-10.0,230,6,,6.21,29.409449,,,,,,,,,,,CAVOK,,,,,,,,VFR,,,,,,,,,,,,METAR,2129.0
LIVO 240655Z 00000KT CAVOK M03/M03 Q1001 RMK SKC VIS MIN 9999,LIVO,2018-03-24T06:55:00Z,46.5,13.57,-3.0,-3.0,0,0,,6.21,29.557087,,,,,,,,,,,CAVOK,,,,,,,,VFR,,,,,,,,,,,,METAR,778.0
LIVF 240655Z 05002KT 9999 SCT020 01/M02 Q1001 RMK SCT MON S W CIME INC NC VAL NIL VIS MIN 9999,LIVF,2018-03-24T06:55:00Z,43.52,12.72,1.0,-2.0,50,2,,6.21,29.557087,,,,,,,,,,,SCT,2000,,,,,,,VFR,,,,,,,,,,,,METAR,574.0
LIVE 240655Z 03003KT CAVOK M09/M12 Q0998 RMK SKC VIS MIN 9999,LIVE,2018-03-24T06:55:00Z,46.85,10.5,-9.0,-12.0,30,3,,6.21,29.468504,,,,,,,,,,,CAVOK,,,,,,,,VFR,,,,,,,,,,,,METAR,1800.0
LIVD 240655Z /////KT CAVOK M07/M09 Q1002 RMK SKC VIS MIN 9999,LIVD,2018-03-24T06:55:00Z,46.72,12.22,-7.0,-9.0,,,,6.21,29.586615,,,,,,,,,,,CAVOK,,,,,,,,VFR,,,,,,,,,,,,METAR,1226.0
LIVC 240655Z 34007KT CAVOK M06/M07 Q0998 RMK SKC MON LIB VAL NIL VIS MIN 9999,LIVC,2018-03-24T06:55:00Z,44.2,10.68,-6.0,-7.0,340,7,,6.21,29.468504,,,,,,,,,,,CAVOK,,,,,,,,VFR,,,,,,,,,,,,METAR,2173.0
LIRX 240655Z 06007KT CAVOK 04/00 Q1001 RMK SKC VIS MIN 9999 VIS MAR 30 KM,LIRX,2018-03-24T06:55:00Z,42.73,10.38,4.0,0.0,60,7,,6.21,29.557087,,,,,,,,,,,CAVOK,,,,,,,,VFR,,,,,,,,,,,,METAR,297.0
LIRT 240655Z 29004KT 9999 SCT006 SCT036 M04/M06 Q0998 RMK BKN MON LIB VAL NIL VIS MIN 9999,LIRT,2018-03-24T06:55:00Z,41.03,15.22,-4.0,-6.0,290,4,,6.21,29.468504,,,,,,,,,,,SCT,600,SCT,3600,,,,,VFR,,,,,,,,,,,,METAR,1093.0
KMCJ 240655Z AUTO 17007G14KT 130V230 9SM BKN018 BKN024 21/18 A2999 RMK A01,KMCJ,2018-03-24T06:55:00Z,29.72,-95.4,21.0,18.0,170,7,14,9.0,29.991142,,,TRUE,TRUE,,,,,,,BKN,1800,BKN,2400,,,,,MVFR,,,,,,,,,,,,METAR,69.0
KNBG 240655Z AUTO 17007KT 10SM CLR 18/17 A3010 RMK AO2 SLP193 T01780167 PWINO $,KNBG,2018-03-24T06:55:00Z,29.82,-90.02,17.8,16.7,170,7,,10.0,30.100393,1019.3,,TRUE,TRUE,TRUE,,,,TRUE,,CLR,,,,,,,,VFR,,,,,,,,,,,,SPECI,1.0
LICT 240655Z 30009KT 9999 SCT022 11/07 Q1002 RMK BKN SCT070 VIS MIN 9999 WIND THR13 29010KT BLU,LICT,2018-03-24T06:55:00Z,37.92,12.5,11.0,7.0,300,9,,6.21,29.586615,,,,,,,,,,,SCT,2200,,,,,,,VFR,,,,,,,,,,,,METAR,7.0
LICG 240655Z 25013KT 9999 FEW015 09/07 Q1004 RMK SCT VIS MIN 9999 WIND THR08 /////KT WIND THR21 27013KT BLU,LICG,2018-03-24T06:55:00Z,36.82,11.97,9.0,7.0,250,13,,6.21,29.64567,,,,,,,,,,,FEW,1500,,,,,,,VFR,,,,,,,,,,,,METAR,191.0
LIRV 240655Z 08005KT CAVOK 02/M01 Q1001 RMK SKC MON E SE LIB NC VIS MIN 9999 BLU,LIRV,2018-03-24T06:55:00Z,42.42,12.07,2.0,-1.0,80,5,,6.21,29.557087,,,,,,,,,,,CAVOK,,,,,,,,VFR,,,,,,,,,,,,METAR,300.0
LIRS 240655Z 14003KT CAVOK 05/M01 Q1002 RMK SKC VIS MIN 9999 WIND THR03 10003KT WIND THR21 17003KT BLU,LIRS,2018-03-24T06:55:00Z,42.75,11.07,5.0,-1.0,140,3,,6.21,29.586615,,,,,,,,,,,CAVOK,,,,,,,,VFR,,0.3,,,,,,,,,,METAR,7.0
LIRM 240655Z /////KT 9999 SCT080 07/05 Q1001,LIRM,2018-03-24T06:55:00Z,41.03,14.07,7.0,5.0,,,,6.21,29.557087,,,,,,,,,,,SCT,8000,,,,,,,VFR,,,,,,,,,,,,METAR,10.0
LIPF 240655Z 04005KT CAVOK 04/01 Q1004 RMK FEW FEW090 VIS MIN 9999,LIPF,2018-03-24T06:55:00Z,44.82,11.62,4.0,1.0,40,5,,6.21,29.64567,,,,,,,,,,,CAVOK,,,,,,,,VFR,,,,,,,,,,,,METAR,10.0
LIPC 240655Z 00000KT CAVOK 03/02 Q1004 RMK SCT SCT200 VIS MIN 9999 WIND THR11 26001KT WIND THR29 /////KT BLU,LIPC,2018-03-24T06:55:00Z,44.22,12.3,3.0,2.0,0,0,,6.21,29.64567,,,,,,,,,,,CAVOK,,,,,,,,VFR,,,,,,,,,,,,METAR,10.0
LIMS 240655Z 00000KT 7000 SCT040 02/02 Q1002 RMK BKN SCT090 VIS MIN 7000 WIND THR30 12001KT WHT,LIMS,2018-03-24T06:55:00Z,44.92,9.72,2.0,2.0,0,0,,4.35,29.586615,,,,,,,,,,,SCT,4000,,,,,,,MVFR,,,,,,,,,,,,METAR,138.0
TNCE 240655Z AUTO 08007KT 050V110 //// // ///////// 24/20 Q1014 RE//,TNCE,2018-03-24T06:55:00Z,17.47,-62.97,24.0,20.0,80,7,,,29.940945,,,TRUE,,,,,,,,,,,,,,,,,,,,,,,,,,,,METAR,39.0
TNCB 240655Z AUTO 08011KT 9999 // FEW016/// 25/22 Q1012 RE//,TNCB,2018-03-24T06:55:00Z,12.13,-68.28,25.0,22.0,80,11,,6.21,29.88189,,,TRUE,,,,,,,,FEW,1600,,,,,,,VFR,,,,,,,,,,,,METAR,6.0
OAKN 240655Z 06005KT 9999 BKN220 24/02 A3018 RMK AO2A SLP177 Q1022 PA3065 DA4878,OAKN,2018-03-24T06:55:00Z,31.5,65.83,24.0,2.0,60,5,,6.21,30.180119,1017.7,,,TRUE,,,,,,,BKN,22000,,,,,,,VFR,,,,,,,,,,,,METAR,1010.0
OPLA 240655Z 34008KT 6000 FEW100 SCT200 29/11 Q1016 A29.99 BECMG 7000,OPLA,2018-03-24T06:55:00Z,31.52,74.4,29.0,11.0,340,8,,3.73,30.0,,,,,,,,,,,FEW,10000,SCT,20000,,,,,MVFR,,,,,,,,,,,,METAR,217.0
OPKC 240655Z 28006KT 6000 NSC 32/08 Q1016 NOSIG,OPKC,2018-03-24T06:55:00Z,24.88,67.17,32.0,8.0,280,6,,3.73,30.0,,,,,,TRUE,,,,,CLR,,,,,,,,MVFR,,,,,,,,,,,,METAR,22.0
KRSP 240654Z AUTO 35007G15KT CLR M03/M08 A3011 RMK AO2 SLP220 T10331083 PWINO FZRANO $,KRSP,2018-03-24T06:54:00Z,39.65,-77.47,-3.3,-8.3,350,7,15,,30.109253,1022.0,,TRUE,TRUE,TRUE,,,TRUE,TRUE,,CLR,,,,,,,,,,,,,,,,,,,,METAR,561.0
K1V4 240654Z AUTO M01/M04 A3000 RMK AO1 SLP169 T10111044,K1V4,2018-03-24T06:54:00Z,44.42,-72.02,-1.1,-4.4,,,,,30.0,1016.9,,TRUE,TRUE,,,,,,,,,,,,,,,,,,,,,,,,,,,METAR,210.0
KMTP 240654Z AUTO 33010KT 04/M02 A3001 RMK AO1 SLP162 T00441022 $,KMTP,2018-03-24T06:54:00Z,41.07,-71.92,4.4,-2.2,330,10,,,30.008858,1016.2,,TRUE,TRUE,TRUE,,,,,,,,,,,,,,,,,,,,,,,,,,METAR,2.0
PGSN 240654Z 07020KT 10SM SCT020 30/22 A2983 RMK AO2 SLP121 T03000222 $,PGSN,2018-03-24T06:54:00Z,15.12,145.72,30.0,22.2,70,20,,10.0,29.828741,1012.1,,,TRUE,TRUE,,,,,,SCT,2000,,,,,,,VFR,,,,,,,,,,,,SPECI,65.0
PHOG 240654Z 08006KT 10SM FEW040 BKN055 23/18 A3000 RMK AO2 SLP164 T02330183 $,PHOG,2018-03-24T06:54:00Z,20.9,-156.43,23.3,18.3,80,6,,10.0,30.0,1016.4,,,TRUE,TRUE,,,,,,FEW,4000,BKN,5500,,,,,VFR,,,,,,,,,,,,METAR,12.0
PHMK 240654Z AUTO 02003KT 10SM FEW022 BKN050 OVC110 23/18 A3002 RMK AO2 SLP167 T02280183 TSNO,PHMK,2018-03-24T06:54:00Z,21.15,-157.1,22.8,18.3,20,3,,10.0,30.02067,1016.7,,TRUE,TRUE,,,TRUE,,,,FEW,2200,BKN,5000,OVC,11000,,,VFR,,,,,,,,,,,,SPECI,141.0
PAKN 240654Z 31004KT 10SM CLR M03/M05 A3003 RMK AO2 SLP170 T10281050,PAKN,2018-03-24T06:54:00Z,58.68,-156.65,-2.8,-5.0,310,4,,10.0,30.029528,1017.0,,,TRUE,,,,,,,CLR,,,,,,,,VFR,,,,,,,,,,,,METAR,17.0
PAHN 240654Z AUTO 33010KT 10SM CLR 02/M11 A2979 RMK AO2 SLP090 T00171106 TSNO,PAHN,2018-03-24T06:54:00Z,59.25,-135.52,1.7,-10.6,330,10,,10.0,29.790354,1009.0,,TRUE,TRUE,,,TRUE,,,,CLR,,,,,,,,VFR,,,,,,,,,,,,METAR,5.0
KWAL 240654Z AUTO 32008KT 10SM CLR 03/M05 A3016 RMK AO2 SLP210 T00331050 $,KWAL,2018-03-24T06:54:00Z,37.93,-75.47,3.3,-5.0,320,8,,10.0,30.159449,1021.0,,TRUE,TRUE,TRUE,,,,,,CLR,,,,,,,,VFR,,,,,,,,,,,,METAR,14.0
KVTA 240654Z AUTO 00000KT 10SM CLR M04/M07 A3027 RMK AO2 SLP257 T10391072,KVTA,2018-03-24T06:54:00Z,40.02,-82.47,-3.9,-7.2,0,0,,10.0,30.268702,1025.7,,TRUE,TRUE,,,,,,,CLR,,,,,,,,VFR,,,,,,,,,,,,METAR,268.0
KVSF 240654Z AUTO 00000KT 10SM CLR M04/M08 A3003 RMK AO2 SLP176 T10391078,KVSF,2018-03-24T06:54:00Z,43.35,-72.52,-3.9,-7.8,0,0,,10.0,30.029528,1017.6,,TRUE,TRUE,,,,,,,CLR,,,,,,,,VFR,,,,,,,,,,,,METAR,175.0
KVAY 240654Z AUTO 32004KT 10SM CLR 02/M07 A3012 RMK AO2 SLP201 T00171067,KVAY,2018-03-24T06:54:00Z,39.93,-74.83,1.7,-6.7,320,4,,10.0,30.121063,1020.1,,TRUE,TRUE,,,,,,,CLR,,,,,,,,VFR,,,,,,,,,,,,METAR,15.0
KUZA 240654Z AUTO 00000KT 10SM OVC080 07/01 A3020 RMK AO2 SLP225 T00720011,KUZA,2018-03-24T06:54:00Z,34.98,-81.05,7.2,1.1,0,0,,10.0,30.200787,1022.5,,TRUE,TRUE,,,,,,,OVC,8000,,,,,,,VFR,,,,,,,,,,,,METAR,202.0
KUIN 240654Z AUTO 11020G27KT 5SM -RA BR OVC009 04/03 A2995 RMK AO2 PK WND 10027/0652 CIG 006V011 SLP145 P0004 T00440033,KUIN,2018-03-24T06:54:00Z,39.95,-91.2,4.4,3.3,110,20,27,5.0,29.949802,1014.5,,TRUE,TRUE,,,,,,-RA BR,OVC,900,,,,,,,IFR,,,,,,0.04,,,,,,METAR,234.0
KTAD 240654Z AUTO 35013KT 10SM CLR 11/M08 A3002 RMK AO2 SLP100 T01061083 402330072,KTAD,2018-03-24T06:54:00Z,37.27,-104.33,10.6,-8.3,350,13,,10.0,30.02067,1010.0,,TRUE,TRUE,,,,,,,CLR,,,,,,,,VFR,,,,23.3,7.2,,,,,,,METAR,1756.0
KSYR 240654Z 31005KT 10SM FEW070 M02/M07 A3017 RMK AO2 SLP216 T10221072,KSYR,2018-03-24T06:54:00Z,43.12,-76.1,-2.2,-7.2,310,5,,10.0,30.171259,1021.6,,,TRUE,,,,,,,FEW,7000,,,,,,,VFR,,,,,,,,,,,,METAR,127.0
KSUS 240654Z AUTO 10010KT 7SM -RA OVC007 07/06 A2994 RMK AO2 RAB50 SLP140 P0000 T00670061,KSUS,2018-03-24T06:54:00Z,38.65,-90.65,6.7,6.1,100,10,,7.0,29.940945,1014.0,,TRUE,TRUE,,,,,,-RA,OVC,700,,,,,,,IFR,,,,,,0.005,,,,,,METAR,141.0
KSLC 240654Z 11010KT 10SM CLR 10/M01 A2990 RMK AO2 SLP103 T01001006 401610067,KSLC,2018-03-24T06:54:00Z,40.77,-111.97,10.0,-0.6,110,10,,10.0,29.899607,1010.3,,,TRUE,,,,,,,CLR,,,,,,,,VFR,,,,16.1,6.7,,,,,,,METAR,1286.0
KSJN 240654Z AUTO 19004KT 10SM CLR 07/M02 A3012 RMK AO2 SLP139 T00721017 402060067 TSNO,KSJN,2018-03-24T06:54:00Z,34.52,-109.38,7.2,-1.7,190,4,,10.0,30.121063,1013.9,,TRUE,TRUE,,,TRUE,,,,CLR,,,,,,,,VFR,,,,20.6,6.7,,,,,,,METAR,1745.0
KSET 240654Z AUTO 11014KT 5SM BR OVC007 06/05 A2997 RMK AO2 SLP147 T00610050,KSET,2018-03-24T06:54:00Z,38.93,-90.43,6.1,5.0,110,14,,5.0,29.970472,1014.7,,TRUE,TRUE,,,,,,BR,OVC,700,,,,,,,IFR,,,,,,,,,,,,METAR,134.0
KSBY 240654Z AUTO 31008KT 10SM CLR 02/M04 A3016 RMK AO2 SLP215 T00171044,KSBY,2018-03-24T06:54:00Z,38.33,-75.5,1.7,-4.4,310,8,,10.0,30.159449,1021.5,,TRUE,TRUE,,,,,,,CLR,,,,,,,,VFR,,,,,,,,,,,,METAR,19.0
KSBN 240654Z AUTO 11007KT 10SM CLR M01/M09 A3029 RMK AO2 SLP264 T10061089 $,KSBN,2018-03-24T06:54:00Z,41.7,-86.32,-0.6,-8.9,110,7,,10.0,30.28937,1026.4,,TRUE,TRUE,TRUE,,,,,,CLR,,,,,,,,VFR,,,,,,,,,,,,METAR,237.0
KRST 240654Z AUTO 10017G27KT 10SM OVC110 01/M06 A3014 RMK AO2 PK WND 11027/0649 SLP219 T00061061,KRST,2018-03-24T06:54:00Z,43.9,-92.5,0.6,-6.1,100,17,27,10.0,30.138779,1021.9,,TRUE,TRUE,,,,,,,OVC,11000,,,,,,,VFR,,,,,,,,,,,,METAR,403.0
KROC 240654Z 32004KT 10SM CLR M01/M06 A3021 RMK AO2 SLP240 T10111056,KROC,2018-03-24T06:54:00Z,43.12,-77.68,-1.1,-5.6,320,4,,10.0,30.209646,1024.0,,,TRUE,,,,,,,CLR,,,,,,,,VFR,,,,,,,,,,,,METAR,178.0
KROA 240654Z 32005KT 10SM CLR 03/M09 A3021 RMK AO2 SLP234 T00331089,KROA,2018-03-24T06:54:00Z,37.32,-79.97,3.3,-8.9,320,5,,10.0,30.209646,1023.4,,,TRUE,,,,,,,CLR,,,,,,,,VFR,,,,,,,,,,,,METAR,362.0
KRIC 240654Z 35010KT 10SM CLR 02/M08 A3022 RMK AO2 SLP239 T00221078,KRIC,2018-03-24T06:54:00Z,37.52,-77.32,2.2,-7.8,350,10,,10.0,30.221457,1023.9,,,TRUE,,,,,,,CLR,,,,,,,,VFR,,,,,,,,,,,,METAR,50.0
KRFD 240654Z 07011KT 10SM OVC140 00/M05 A3023 RMK AO2 SLP243 T00001050,KRFD,2018-03-24T06:54:00Z,42.2,-89.1,0.0,-5.0,70,11,,10.0,30.230314,1024.3,,,TRUE,,,,,,,OVC,14000,,,,,,,VFR,,,,,,,,,,,,METAR,221.0
KRDG 240654Z 32008KT 10SM CLR 01/M07 A3015 RMK AO2 SLP216 T00061072,KRDG,2018-03-24T06:54:00Z,40.37,-75.97,0.6,-7.2,320,8,,10.0,30.15059,1021.6,,,TRUE,,,,,,,CLR,,,,,,,,VFR,,,,,,,,,,,,METAR,109.0
KRBL 240654Z AUTO 18015KT 10SM OVC110 09/06 A3001 RMK AO2 RAE08 SLP162 P0001 T00890061,KRBL,2018-03-24T06:54:00Z,40.15,-122.25,8.9,6.1,180,15,,10.0,30.008858,1016.2,,TRUE,TRUE,,,,,,,OVC,11000,,,,,,,VFR,,,,,,0.01,,,,,,METAR,104.0
KPTW 240654Z AUTO 32005KT 10SM CLR 00/M09 A3015 RMK AO2 SLP209 T00001094,KPTW,2018-03-24T06:54:00Z,40.23,-75.55,0.0,-9.4,320,5,,10.0,30.15059,1020.9,,TRUE,TRUE,,,,,,,CLR,,,,,,,,VFR,,,,,,,,,,,,METAR,92.0
KPSF 240654Z AUTO 25006KT 10SM FEW070 M01/M07 A3002 RMK AO2 SLP170 T10061067,KPSF,2018-03-24T06:54:00Z,42.43,-73.28,-0.6,-6.7,250,6,,10.0,30.02067,1017.0,,TRUE,TRUE,,,,,,,FEW,7000,,,,,,,VFR,,,,,,,,,,,,METAR,355.0
KPNE 240654Z AUTO 32009KT 10SM CLR 02/M07 A3014 RMK AO2 SLP206 T00221072,KPNE,2018-03-24T06:54:00Z,40.08,-75.02,2.2,-7.2,320,9,,10.0,30.138779,1020.6,,TRUE,TRUE,,,,,,,CLR,,,,,,,,VFR,,,,,,,,,,,,METAR,28.0
KPHL 240654Z 34012KT 10SM CLR 02/M08 A3014 RMK AO2 SLP205 T00221078 $,KPHL,2018-03-24T06:54:00Z,39.87,-75.23,2.2,-7.8,340,12,,10.0,30.138779,1020.5,,,TRUE,TRUE,,,,,,CLR,,,,,,,,VFR,,,,,,,,,,,,METAR,18.0
KPHF 240654Z AUTO 32005KT 10SM CLR 02/M06 A3021 RMK AO2 SLP228 T00221061,KPHF,2018-03-24T06:54:00Z,37.13,-76.5,2.2,-6.1,320,5,,10.0,30.209646,1022.8,,TRUE,TRUE,,,,,,,CLR,,,,,,,,VFR,,,,,,,,,,,,METAR,12.0
KCRW 240654Z 00000KT 10SM CLR M01/M06 A3023 RMK AO2 SLP243 T10061061,KCRW,2018-03-24T06:54:00Z,38.38,-81.58,-0.6,-6.1,0,0,,10.0,30.230314,1024.3,,,TRUE,,,,,,,CLR,,,,,,,,VFR,,,,,,,,,,,,METAR,309.0
KCOS 240654Z 29009KT 270V340 10SM FEW080 07/M06 A3003 RMK AO2 SLP130 T00671056 402110061,KCOS,2018-03-24T06:54:00Z,38.82,-104.68,6.7,-5.6,290,9,,10.0,30.029528,1013.0,,,TRUE,,,,,,,FEW,8000,,,,,,,VFR,,,,21.1,6.1,,,,,,,METAR,1856.0
KCEU 240654Z AUTO 00000KT 10SM OVC070 11/02 A3018 RMK AO2 SLP215 T01110017,KCEU,2018-03-24T06:54:00Z,34.67,-82.88,11.1,1.7,0,0,,10.0,30.180119,1021.5,,TRUE,TRUE,,,,,,,OVC,7000,,,,,,,VFR,,,,,,,,,,,,METAR,268.0
KCAR 240654Z AUTO 36004KT 10SM CLR M04/M11 A2993 RMK AO2 SLP147 T10441106,KCAR,2018-03-24T06:54:00Z,46.87,-68.02,-4.4,-10.6,360,4,,10.0,29.929134,1014.7,,TRUE,TRUE,,,,,,,CLR,,,,,,,,VFR,,,,,,,,,,,,METAR,191.0
KBWI 240654Z 31005KT 10SM CLR 01/M07 A3019 RMK AO2 SLP222 T00111067,KBWI,2018-03-24T06:54:00Z,39.17,-76.68,1.1,-6.7,310,5,,10.0,30.188976,1022.2,,,TRUE,,,,,,,CLR,,,,,,,,VFR,,,,,,,,,,,,METAR,59.0
KBUY 240654Z AUTO 00000KT 10SM CLR 00/M03 A3019 RMK AO2 SLP226 T00001033,KBUY,2018-03-24T06:54:00Z,36.05,-79.47,0.0,-3.3,0,0,,10.0,30.188976,1022.6,,TRUE,TRUE,,,,,,,CLR,,,,,,,,VFR,,,,,,,,,,,,METAR,180.0
KBUF 240654Z 25003KT 10SM CLR M02/M06 A3023 RMK AO2 SLP245 T10221061,KBUF,2018-03-24T06:54:00Z,42.93,-78.73,-2.2,-6.1,250,3,,10.0,30.230314,1024.5,,,TRUE,,,,,,,CLR,,,,,,,,VFR,,,,,,,,,,,,METAR,211.0
KBTV 240654Z 33012KT 10SM FEW070 OVC085 01/M07 A3008 RMK AO2 SLP190 T00111072,KBTV,2018-03-24T06:54:00Z,44.47,-73.15,1.1,-7.2,330,12,,10.0,30.079725,1019.0,,,TRUE,,,,,,,FEW,7000,OVC,8500,,,,,VFR,,,,,,,,,,,,METAR,105.0
KBOS 240654Z 31007KT 10SM CLR 03/M06 A2999 RMK AO2 SLP155 T00281061,KBOS,2018-03-24T06:54:00Z,42.37,-71.02,2.8,-6.1,310,7,,10.0,29.991142,1015.5,,,TRUE,,,,,,,CLR,,,,,,,,VFR,,,,,,,,,,,,METAR,6.0
KBFL 240654Z AUTO 10003KT 10SM CLR 12/07 A3011 RMK AO2 SLP193 T01170067,KBFL,2018-03-24T06:54:00Z,35.43,-119.05,11.7,6.7,100,3,,10.0,30.109253,1019.3,,TRUE,TRUE,,,,,,,CLR,,,,,,,,VFR,,,,,,,,,,,,METAR,151.0
KAVP 240654Z 00000KT 10SM FEW050 OVC070 M02/M09 A3012 RMK AO2 SLP208 T10171089,KAVP,2018-03-24T06:54:00Z,41.33,-75.72,-1.7,-8.9,0,0,,10.0,30.121063,1020.8,,,TRUE,,,,,,,FEW,5000,OVC,7000,,,,,VFR,,,,,,,,,,,,METAR,291.0
KAVL 240654Z AUTO 34007KT 10SM FEW042 OVC050 06/M04 A3017 RMK AO2 SLP212 T00611039,KAVL,2018-03-24T06:54:00Z,35.43,-82.53,6.1,-3.9,340,7,,10.0,30.171259,1021.2,,TRUE,TRUE,,,,,,,FEW,4200,OVC,5000,,,,,VFR,,,,,,,,,,,,METAR,670.0
KAUW 240654Z AUTO 08010KT 10SM CLR M04/M11 A3031 RMK AO2 SLP282 T10441111,KAUW,2018-03-24T06:54:00Z,44.93,-89.62,-4.4,-11.1,80,10,,10.0,30.31004,1028.2,,TRUE,TRUE,,,,,,,CLR,,,,,,,,VFR,,,,,,,,,,,,METAR,362.0
KAPN 240654Z AUTO 04007KT 10SM CLR M07/M11 A3039 RMK AO2 SLP301 T10671106,KAPN,2018-03-24T06:54:00Z,45.07,-83.57,-6.7,-10.6,40,7,,10.0,30.389763,1030.1,,TRUE,TRUE,,,,,,,CLR,,,,,,,,VFR,,,,,,,,,,,,METAR,210.0
KAKQ 240654Z AUTO 34003KT 10SM CLR 02/M06 A3022 RMK AO2 SLP234 T00221061,KAKQ,2018-03-24T06:54:00Z,36.98,-77.0,2.2,-6.1,340,3,,10.0,30.221457,1023.4,,TRUE,TRUE,,,,,,,CLR,,,,,,,,VFR,,,,,,,,,,,,METAR,34.0
KAKH 240654Z AUTO 00000KT 10SM BKN080 OVC100 09/M02 A3019 RMK AO2 SLP225 T00891022,KAKH,2018-03-24T06:54:00Z,35.2,-81.15,8.9,-2.2,0,0,,10.0,30.188976,1022.5,,TRUE,TRUE,,,,,,,BKN,8000,OVC,10000,,,,,VFR,,,,,,,,,,,,METAR,243.0
KACY 240654Z 32009KT 10SM CLR 01/M05 A3010 RMK AO2 SLP195 T00111050,KACY,2018-03-24T06:54:00Z,39.45,-74.57,1.1,-5.0,320,9,,10.0,30.100393,1019.5,,,TRUE,,,,,,,CLR,,,,,,,,VFR,,,,,,,,,,,,METAR,23.0
KAAO 240654Z AUTO 23014KT 10SM CLR 18/15 A2962 RMK AO2 SLP021 T01780150,KAAO,2018-03-24T06:54:00Z,37.75,-97.22,17.8,15.0,230,14,,10.0,29.619095,1002.1,,TRUE,TRUE,,,,,,,CLR,,,,,,,,VFR,,,,,,,,,,,,METAR,434.0
KISW 240654Z AUTO 09010KT 10SM CLR M03/M10 A3032 RMK AO2 SLP280 T10281100 TSNO,KISW,2018-03-24T06:54:00Z,44.37,-89.83,-2.8,-10.0,90,10,,10.0,30.318897,1028.0,,TRUE,TRUE,,,TRUE,,,,CLR,,,,,,,,VFR,,,,,,,,,,,,METAR,307.0
KIPT 240654Z AUTO 27008KT 10SM CLR M01/M08 A3017 RMK AO2 SLP222 T10111083,KIPT,2018-03-24T06:54:00Z,41.25,-76.92,-1.1,-8.3,270,8,,10.0,30.171259,1022.2,,TRUE,TRUE,,,,,,,CLR,,,,,,,,VFR,,,,,,,,,,,,METAR,164.0
KINT 240654Z AUTO 35005KT 10SM CLR 04/M06 A3020 RMK AO2 SLP228 T00441061,KINT,2018-03-24T06:54:00Z,36.13,-80.22,4.4,-6.1,350,5,,10.0,30.200787,1022.8,,TRUE,TRUE,,,,,,,CLR,,,,,,,,VFR,,,,,,,,,,,,METAR,291.0
KIND 240654Z 10009KT 10SM OVC095 04/M06 A3021 RMK AO2 SLP233 T00441061,KIND,2018-03-24T06:54:00Z,39.72,-86.3,4.4,-6.1,100,9,,10.0,30.209646,1023.3,,,TRUE,,,,,,,OVC,9500,,,,,,,VFR,,,,,,,,,,,,METAR,241.0
KIMT 240654Z AUTO 00000KT 10SM CLR M08/M12 A3036 RMK AO2 SLP301 T10781117,KIMT,2018-03-24T06:54:00Z,45.82,-88.12,-7.8,-11.7,0,0,,10.0,30.360237,1030.1,,TRUE,TRUE,,,,,,,CLR,,,,,,,,VFR,,,,,,,,,,,,METAR,349.0
KILN 240654Z AUTO 07007KT 10SM CLR M02/M05 A3023 RMK AO2 SLP258 T10171050,KILN,2018-03-24T06:54:00Z,39.43,-83.8,-1.7,-5.0,70,7,,10.0,30.230314,1025.8,,TRUE,TRUE,,,,,,,CLR,,,,,,,,VFR,,,,,,,,,,,,METAR,322.0
KHWD 240654Z AUTO 18006KT 10SM OVC034 12/04 A3013 RMK AO2 SLP213 T01170044,KHWD,2018-03-24T06:54:00Z,37.67,-122.12,11.7,4.4,180,6,,10.0,30.129921,1021.3,,TRUE,TRUE,,,,,,,OVC,3400,,,,,,,VFR,,,,,,,,,,,,METAR,21.0
KGSO 240654Z 00000KT 10SM SCT170 03/M05 A3019 RMK AO2 SLP225 T00281050,KGSO,2018-03-24T06:54:00Z,36.1,-79.95,2.8,-5.0,0,0,,10.0,30.188976,1022.5,,,TRUE,,,,,,,SCT,17000,,,,,,,VFR,,,,,,,,,,,,METAR,275.0
KGED 240654Z AUTO 31005KT 10SM CLR 02/M06 A3016 RMK AO2 SLP212 T00221056,KGED,2018-03-24T06:54:00Z,38.68,-75.37,2.2,-5.6,310,5,,10.0,30.159449,1021.2,,TRUE,TRUE,,,,,,,CLR,,,,,,,,VFR,,,,,,,,,,,,METAR,19.0
KGCN 240654Z AUTO 00000KT 10SM CLR M02/M04 A3011 RMK AO2 SLP173 T10221039 401331028,KGCN,2018-03-24T06:54:00Z,35.95,-112.15,-2.2,-3.9,0,0,,10.0,30.109253,1017.3,,TRUE,TRUE,,,,,,,CLR,,,,,,,,VFR,,,,13.3,-2.8,,,,,,,METAR,2016.0
KGCK 240654Z AUTO 33013KT 10SM CLR 09/06 A2986 RMK AO2 SLP085 T00890061,KGCK,2018-03-24T06:54:00Z,37.92,-100.72,8.9,6.1,330,13,,10.0,29.861221,1008.5,,TRUE,TRUE,,,,,,,CLR,,,,,,,,VFR,,,,,,,,,,,,METAR,877.0
KFZY 240654Z AUTO 36007KT 10SM CLR 00/M08 A3018 RMK AO2 SLP225 T00001078,KFZY,2018-03-24T06:54:00Z,43.35,-76.38,0.0,-7.8,360,7,,10.0,30.180119,1022.5,,TRUE,TRUE,,,,,,,CLR,,,,,,,,VFR,,,,,,,,,,,,METAR,138.0
KFWA 240654Z 08008KT 10SM BKN220 M02/M07 A3029 RMK AO2 SLP264 T10171067 $,KFWA,2018-03-24T06:54:00Z,40.98,-85.18,-1.7,-6.7,80,8,,10.0,30.28937,1026.4,,,TRUE,TRUE,,,,,,BKN,22000,,,,,,,VFR,,,,,,,,,,,,METAR,248.0
KFIG 240654Z AUTO 00000KT 10SM CLR M03/M08 A3017 RMK AO2 SLP234 T10331078,KFIG,2018-03-24T06:54:00Z,41.05,-78.42,-3.3,-7.8,0,0,,10.0,30.171259,1023.4,,TRUE,TRUE,,,,,,,CLR,,,,,,,,VFR,,,,,,,,,,,,METAR,462.0
KEWN 240654Z AUTO 36006KT 10SM CLR 03/M03 A3019 RMK AO2 SLP224 T00331028 $,KEWN,2018-03-24T06:54:00Z,35.07,-77.05,3.3,-2.8,360,6,,10.0,30.188976,1022.4,,TRUE,TRUE,TRUE,,,,,,CLR,,,,,,,,VFR,,,,,,,,,,,,METAR,3.0
KEUG 240654Z AUTO 20011KT 10SM OVC050 02/01 A2987 RMK AO2 RAE30UPB30E38SNE30 SLP116 P0000 T00170011,KEUG,2018-03-24T06:54:00Z,44.13,-123.22,1.7,1.1,200,11,,10.0,29.870079,1011.6,,TRUE,TRUE,,,,,,,OVC,5000,,,,,,,VFR,,,,,,0.005,,,,,,METAR,114.0
KECG 240654Z AUTO 34008KT 10SM CLR 05/M02 A3019 RMK AO2 SLP224 T00501017,KECG,2018-03-24T06:54:00Z,36.27,-76.18,5.0,-1.7,340,8,,10.0,30.188976,1022.4,,TRUE,TRUE,,,,,,,CLR,,,,,,,,VFR,,,,,,,,,,,,METAR,11.0
KDYL 240654Z AUTO 34004KT 10SM CLR 01/M08 A3011 RMK AO2 SLP201 T00061078,KDYL,2018-03-24T06:54:00Z,40.33,-75.12,0.6,-7.8,340,4,,10.0,30.109253,1020.1,,TRUE,TRUE,,,,,,,CLR,,,,,,,,VFR,,,,,,,,,,,,METAR,117.0
KDSV 240654Z AUTO 00000KT 10SM CLR M03/M07 A3021 RMK AO2 SLP245 T10281072,KDSV,2018-03-24T06:54:00Z,42.57,-77.72,-2.8,-7.2,0,0,,10.0,30.209646,1024.5,,TRUE,TRUE,,,,,,,CLR,,,,,,,,VFR,,,,,,,,,,,,METAR,198.0
KDSM 240654Z 10019G38KT 6SM -RA BR OVC008 02/00 A2989 RMK AO2 PK WND 11038/0649 PRESFR SLP128 P0000 T00170000,KDSM,2018-03-24T06:54:00Z,41.53,-93.67,1.7,0.0,100,19,38,6.0,29.890747,1012.8,,,TRUE,,,,,,-RA BR,OVC,800,,,,,,,IFR,,,,,,0.005,,,,,,METAR,295.0
KDEC 240654Z AUTO 09017KT 7SM -RA BKN032 OVC065 02/02 A3010 RMK AO2 SLP196 P0004 T00220017,KDEC,2018-03-24T06:54:00Z,39.83,-88.85,2.2,1.7,90,17,,7.0,30.100393,1019.6,,TRUE,TRUE,,,,,,-RA,BKN,3200,OVC,6500,,,,,VFR,,,,,,0.04,,,,,,METAR,207.0
KDDH 240654Z AUTO 27003KT 10SM BKN055 OVC075 01/M07 A3004 RMK AO2 SLP178 T00061072,KDDH,2018-03-24T06:54:00Z,42.9,-73.25,0.6,-7.2,270,3,,10.0,30.041338,1017.8,,TRUE,TRUE,,,,,,,BKN,5500,OVC,7500,,,,,VFR,,,,,,,,,,,,METAR,244.0
KORH 240654Z AUTO 33011G18KT 10SM BKN060 OVC080 01/M08 A2997 RMK AO2 SLP159 T00061083 $,KORH,2018-03-24T06:54:00Z,42.27,-71.87,0.6,-8.3,330,11,18,10.0,29.970472,1015.9,,TRUE,TRUE,TRUE,,,,,,BKN,6000,OVC,8000,,,,,VFR,,,,,,,,,,,,METAR,304.0
KOLS 240654Z AUTO 16006KT 10SM CLR 17/02 A3010 RMK AO2 SLP132 T01670022 402780122,KOLS,2018-03-24T06:54:00Z,31.42,-110.85,16.7,2.2,160,6,,10.0,30.100393,1013.2,,TRUE,TRUE,,,,,,,CLR,,,,,,,,VFR,,,,27.8,12.2,,,,,,,METAR,1184.0
KOLM 240654Z AUTO 00000KT 9SM -RA BKN020 OVC028 04/03 A2978 RMK AO2 SLP084 P0001 T00390033,KOLM,2018-03-24T06:54:00Z,46.97,-122.9,3.9,3.3,0,0,,9.0,29.778543,1008.4,,TRUE,TRUE,,,,,,-RA,BKN,2000,OVC,2800,,,,,MVFR,,,,,,0.01,,,,,,METAR,58.0
KOFP 240654Z AUTO 32003KT 10SM CLR 02/M08 A3024 RMK AO2 SLP239 T00221078,KOFP,2018-03-24T06:54:00Z,37.7,-77.43,2.2,-7.8,320,3,,10.0,30.239174,1023.9,,TRUE,TRUE,,,,,,,CLR,,,,,,,,VFR,,,,,,,,,,,,METAR,62.0
KMVL 240654Z AUTO 00000KT 10SM M03/M06 A3004 RMK AO2 SLP182 T10281056 $,KMVL,2018-03-24T06:54:00Z,44.53,-72.62,-2.8,-5.6,0,0,,10.0,30.041338,1018.2,,TRUE,TRUE,TRUE,,,,,,,,,,,,,,,,,,,,,,,,,,METAR,234.0
KMRY 240654Z AUTO 10007KT 10SM CLR 09/04 A3016 RMK AO2 SLP227 T00890044,KMRY,2018-03-24T06:54:00Z,36.58,-121.85,8.9,4.4,100,7,,10.0,30.159449,1022.7,,TRUE,TRUE,,,,,,,CLR,,,,,,,,VFR,,,,,,,,,,,,METAR,66.0
KMOT 240654Z AUTO 14011KT 6SM BR OVC007 M01/M02 A3002 RMK AO2 CIG 005V010 SLP188 I1001 T10111022,KMOT,2018-03-24T06:54:00Z,48.25,-101.27,-1.1,-2.2,140,11,,6.0,30.02067,1018.8,,TRUE,TRUE,,,,,,BR,OVC,700,,,,,,,IFR,,,,,,,,,,,,METAR,519.0
KMKC 240654Z 07006KT 10SM OVC027 11/07 A2970 RMK AO2 LTG DSNT N AND NE SLP054 T01110067,KMKC,2018-03-24T06:54:00Z,39.12,-94.6,11.1,6.7,70,6,,10.0,29.698818,1005.4,,,TRUE,,,,,,,OVC,2700,,,,,,,MVFR,,,,,,,,,,,,METAR,227.0
KMIV 240654Z AUTO 32006KT 10SM CLR 02/M07 A3013 RMK AO2 SLP202 T00171067,KMIV,2018-03-24T06:54:00Z,39.37,-75.08,1.7,-6.7,320,6,,10.0,30.129921,1020.2,,TRUE,TRUE,,,,,,,CLR,,,,,,,,VFR,,,,,,,,,,,,METAR,23.0
KMGJ 240654Z AUTO 33008KT 10SM OVC080 02/M07 A3008 RMK AO2 SLP187 T00171067,KMGJ,2018-03-24T06:54:00Z,41.52,-74.27,1.7,-6.7,330,8,,10.0,30.079725,1018.7,,TRUE,TRUE,,,,,,,OVC,8000,,,,,,,VFR,,,,,,,,,,,,METAR,108.0
KMFI 240654Z AUTO 10010G18KT 10SM CLR M03/M11 A3029 RMK AO2 SLP271 T10331106 TSNO,KMFI,2018-03-24T06:54:00Z,44.63,-90.18,-3.3,-10.6,100,10,18,10.0,30.28937,1027.1,,TRUE,TRUE,,,TRUE,,,,CLR,,,,,,,,VFR,,,,,,,,,,,,METAR,389.0
KMEM 240654Z 18009KT 10SM OVC065 18/08 A2995 RMK AO2 SLP140 T01830083,KMEM,2018-03-24T06:54:00Z,35.07,-89.98,18.3,8.3,180,9,,10.0,29.949802,1014.0,,,TRUE,,,,,,,OVC,6500,,,,,,,VFR,,,,,,,,,,,,METAR,86.0
KLYH 240654Z AUTO 00000KT 10SM CLR 01/M07 A3020 RMK AO2 SLP230 T00061072,KLYH,2018-03-24T06:54:00Z,37.32,-79.2,0.6,-7.2,0,0,,10.0,30.200787,1023.0,,TRUE,TRUE,,,,,,,CLR,,,,,,,,VFR,,,,,,,,,,,,METAR,295.0
KLWM 240654Z AUTO 32003KT 10SM OVC095 03/M06 A3001 RMK AO2 SLP161 T00331061,KLWM,2018-03-24T06:54:00Z,42.72,-71.13,3.3,-6.1,320,3,,10.0,30.008858,1016.1,,TRUE,TRUE,,,,,,,OVC,9500,,,,,,,VFR,,,,,,,,,,,,METAR,54.0
KLEX 240654Z 08009KT 10SM OVC070 06/M06 A3020 RMK AO2 SLP227 T00561061,KLEX,2018-03-24T06:54:00Z,38.03,-84.6,5.6,-6.1,80,9,,10.0,30.200787,1022.7,,,TRUE,,,,,,,OVC,7000,,,,,,,VFR,,,,,,,,,,,,METAR,300.0
KLBT 240654Z AUTO 00000KT 10SM BKN120 01/M01 A3020 RMK AO2 SLP226 T00111006,KLBT,2018-03-24T06:54:00Z,34.6,-79.07,1.1,-0.6,0,0,,10.0,30.200787,1022.6,,TRUE,TRUE,,,,,,,BKN,12000,,,,,,,VFR,,,,,,,,,,,,METAR,37.0
KLAF 240654Z AUTO 07010KT 10SM OVC110 03/M06 A3022 RMK AO2 SLP238 T00281061,KLAF,2018-03-24T06:54:00Z,40.42,-86.93,2.8,-6.1,70,10,,10.0,30.221457,1023.8,,TRUE,TRUE,,,,,,,OVC,11000,,,,,,,VFR,,,,,,,,,,,,METAR,182.0
KJST 240654Z AUTO 32007KT 10SM CLR M06/M09 A3013 RMK AO2 SLP234 T10561094,KJST,2018-03-24T06:54:00Z,40.32,-78.83,-5.6,-9.4,320,7,,10.0,30.129921,1023.4,,TRUE,TRUE,,,,,,,CLR,,,,,,,,VFR,,,,,,,,,,,,METAR,694.0
KJAN 240654Z 17010KT 10SM CLR 16/11 A3005 RMK AO2 SLP174 T01560111,KJAN,2018-03-24T06:54:00Z,32.32,-90.08,15.6,11.1,170,10,,10.0,30.050198,1017.4,,,TRUE,,,,,,,CLR,,,,,,,,VFR,,,,,,,,,,,,METAR,91.0
KIZG 240654Z AUTO 00000KT 10SM OVC090 M02/M05 A2998 RMK AO2 SLP157 T10171050,KIZG,2018-03-24T06:54:00Z,43.98,-70.95,-1.7,-5.0,0,0,,10.0,29.97933,1015.7,,TRUE,TRUE,,,,,,,OVC,9000,,,,,,,VFR,,,,,,,,,,,,METAR,135.0
PGUM 240654Z 08017KT 10SM FEW027 SCT036 29/24 A2982 RMK AO2 SLP089 T02940239 $,PGUM,2018-03-24T06:54:00Z,13.48,144.8,29.4,23.9,80,17,,10.0,29.819881,1008.9,,,TRUE,TRUE,,,,,,FEW,2700,SCT,3600,,,,,VFR,,,,,,,,,,,,SPECI,91.0
KTQE 240654Z AUTO 02005KT 4SM RA BR BKN012 OVC020 04/03 A2985 RMK AO2 SLP106 P0016 T00390033,KTQE,2018-03-24T06:54:00Z,41.77,-96.18,3.9,3.3,20,5,,4.0,29.84941,1010.6,,TRUE,TRUE,,,,,,RA BR,BKN,1200,OVC,2000,,,,,MVFR,,,,,,0.16,,,,,,METAR,312.0
KWLD 240654Z AUTO 20011KT 10SM CLR 17/15 A2965 RMK AO2 SLP032 T01720150,KWLD,2018-03-24T06:54:00Z,37.17,-97.03,17.2,15.0,200,11,,10.0,29.648623,1003.2,,TRUE,TRUE,,,,,,,CLR,,,,,,,,VFR,,,,,,,,,,,,METAR,350.0
K6R6 240653Z AUTO 36006KT 18/14 A2992 RMK AO1 SLP100 T01830144,K6R6,2018-03-24T06:53:00Z,30.05,-102.22,18.3,14.4,360,6,,,29.920275,1010.0,,TRUE,TRUE,,,,,,,,,,,,,,,,,,,,,,,,,,,METAR,701.0
KNUI 240653Z AUTO VRB03KT 10SM CLR 03/M06 A3019 RMK AO2 SLP221 T00331061,KNUI,2018-03-24T06:53:00Z,38.15,-76.43,3.3,-6.1,0,3,,10.0,30.188976,1022.1,,TRUE,TRUE,,,,,,,CLR,,,,,,,,VFR,,,,,,,,,,,,METAR,7.0
KCQC 240653Z AUTO 27020KT 10SM CLR 07/M11 A3011 RMK AO2 PK WND 27028/0641 SLP126 T00671106 402060067,KCQC,2018-03-24T06:53:00Z,35.0,-105.67,6.7,-10.6,270,20,,10.0,30.109253,1012.6,,TRUE,TRUE,,,,,,,CLR,,,,,,,,VFR,,,,20.6,6.7,,,,,,,METAR,2160.0
KIWI 240653Z AUTO 00000KT 10SM OVC090 01/M07 A2997 RMK AO2 SLP150 T00111067,KIWI,2018-03-24T06:53:00Z,43.97,-69.72,1.1,-6.7,0,0,,10.0,29.970472,1015.0,,TRUE,TRUE,,,,,,,OVC,9000,,,,,,,VFR,,,,,,,,,,,,METAR,20.0
KGLR 240653Z AUTO 05009KT 10SM CLR M04/M10 A3034 RMK AO2 SLP293 T10441100,KGLR,2018-03-24T06:53:00Z,45.02,-84.68,-4.4,-10.0,50,9,,10.0,30.339567,1029.3,,TRUE,TRUE,,,,,,,CLR,,,,,,,,VFR,,,,,,,,,,,,METAR,407.0
KBTM 240653Z AUTO 11005KT 10SM CLR M01/M04 A2981 RMK AO2 SLP102 T10061044 400891006,KBTM,2018-03-24T06:53:00Z,45.97,-112.5,-0.6,-4.4,110,5,,10.0,29.811024,1010.2,,TRUE,TRUE,,,,,,,CLR,,,,,,,,VFR,,,,8.9,-0.6,,,,,,,METAR,1688.0
KNHK 240652Z AUTO 33013KT 10SM CLR 03/M04 A3019 RMK AO2 SLP222 T00281044,KNHK,2018-03-24T06:52:00Z,38.27,-76.4,2.8,-4.4,330,13,,10.0,30.188976,1022.2,,TRUE,TRUE,,,,,,,CLR,,,,,,,,VFR,,,,,,,,,,,,METAR,12.0
KNFW 240652Z AUTO 18015KT 10SM CLR 20/16 A2986 RMK AO2 SLP094 T02000156 $,KNFW,2018-03-24T06:52:00Z,32.78,-97.43,20.0,15.6,180,15,,10.0,29.861221,1009.4,,TRUE,TRUE,TRUE,,,,,,CLR,,,,,,,,VFR,,,,,,,,,,,,METAR,198.0
PTTP 240652Z 06004KT 15SM FEW018 SCT130 BKN300 26/23 A2976 RMK SLP078 T02640227,PTTP,2018-03-24T06:52:00Z,6.97,158.22,26.4,22.7,60,4,,15.0,29.760826,1007.8,,,,,,,,,,FEW,1800,SCT,13000,BKN,30000,,,VFR,,,,,,,,,,,,SPECI,2.0
MUHG 240651Z 02004KT 9000 BKN030 18/15 Q1019,MUHG,2018-03-24T06:51:00Z,20.77,-76.32,18.0,15.0,20,4,,5.59,30.088583,,,,,,,,,,,BKN,3000,,,,,,,MVFR,,,,,,,,,,,,METAR,106.0
KBVE 240651Z AUTO 17007KT 7SM CLR 19/16 A3013 RMK AO2 SLP204 T01940156,KBVE,2018-03-24T06:51:00Z,29.32,-89.4,19.4,15.6,170,7,,7.0,30.129921,1020.4,,TRUE,TRUE,,,,,,,CLR,,,,,,,,VFR,,,,,,,,,,,,METAR,1.0
NSTU 240651Z VRB03KT 10SM SCT019 SCT040 BKN120 28/25 A2986 RMK SLP113 T02750253,NSTU,2018-03-24T06:51:00Z,-14.33,-170.72,27.5,25.3,0,3,,10.0,29.861221,1011.3,,,,,,,,,,SCT,1900,SCT,4000,BKN,12000,,,VFR,,,,,,,,,,,,SPECI,3.0
KOCF 240651Z AUTO 00000KT 10SM CLR 08/07 A3023 RMK AO2 SLP240 T00780067,KOCF,2018-03-24T06:51:00Z,29.17,-82.22,7.8,6.7,0,0,,10.0,30.230314,1024.0,,TRUE,TRUE,,,,,,,CLR,,,,,,,,VFR,,,,,,,,,,,,METAR,27.0
KGDP 240651Z AUTO 26026G35KT 10SM CLR 19/M03 A3005 RMK AO2 PK WND 28043/0627 SLP092 T01941028 402720161,KGDP,2018-03-24T06:51:00Z,31.83,-104.82,19.4,-2.8,260,26,35,10.0,30.050198,1009.2,,TRUE,TRUE,,,,,,,CLR,,,,,,,,VFR,,,,27.2,16.1,,,,,,,SPECI,1692.0
AZUH 240651Z 22012KT 7000 NSC 23/M09 Q1011,AZUH,2018-03-24T06:51:00Z,39.18,45.45,23.0,-9.0,220,12,,4.35,29.852362,,,,,,,,,,,CLR,,,,,,,,MVFR,,,,,,,,,,,,METAR,855.0
OITU 240651Z 06006KT 6000 FEW040 SCT180 16/M03 Q1011,OITU,2018-03-24T06:51:00Z,39.33,44.43,16.0,-3.0,60,6,,3.73,29.852362,,,,,,,,,,,FEW,4000,SCT,18000,,,,,MVFR,,,,,,,,,,,,METAR,1364.0
ESOK 240650Z 20011KT 5000 BR OVC004 00/M00 Q0999,ESOK,2018-03-24T06:50:00Z,59.45,13.33,0.0,0.0,200,11,,3.11,29.498032,,,,,,,,,,BR,OVC,400,,,,,,,LIFR,,,,,,,,,,,,METAR,107.0
LCRA 240650Z 27022KT 9999 FEW028 OVC100 18/10 Q1006 NOSIG,LCRA,2018-03-24T06:50:00Z,34.57,32.97,18.0,10.0,270,22,,6.21,29.704725,,,,,,TRUE,,,,,FEW,2800,OVC,10000,,,,,VFR,,,,,,,,,,,,METAR,23.0
MUCU 240650Z 36011KT 9000 FEW020 20/15 Q1017,MUCU,2018-03-24T06:50:00Z,19.97,-75.83,20.0,15.0,360,11,,5.59,30.029528,,,,,,,,,,,FEW,2000,,,,,,,VFR,,,,,,,,,,,,METAR,76.0
MUCM 240650Z 03008KT 9000 SKC 18/11 Q1020,MUCM,2018-03-24T06:50:00Z,21.42,-77.85,18.0,11.0,30,8,,5.59,30.11811,,,,,,,,,,,SKC,,,,,,,,VFR,,,,,,,,,,,,METAR,122.0
MUCC 240650Z 04011KT 9000 FEW020 20/12 Q1021,MUCC,2018-03-24T06:50:00Z,22.47,-78.33,20.0,12.0,40,11,,5.59,30.147638,,,,,,,,,,,FEW,2000,,,,,,,VFR,,,,,,,,,,,,METAR,4.0
MUSC 240650Z VRB01KT 8000 FEW020 11/09 Q1021,MUSC,2018-03-24T06:50:00Z,22.5,-79.95,11.0,9.0,0,1,,4.97,30.147638,,,,,,,,,,,FEW,2000,,,,,,,MVFR,,,,,,,,,,,,METAR,103.0
LTFH 240650Z 29006KT 6000 -SHRA SCT006 BKN027 OVC090 10/08 Q1000 NOSIG,LTFH,2018-03-24T06:50:00Z,41.27,36.55,10.0,8.0,290,6,,3.73,29.52756,,,,,,TRUE,,,,-SHRA,SCT,600,BKN,2700,OVC,9000,,,MVFR,,,,,,,,,,,,METAR,5.0
LTDA 240650Z 24010KT 9999 FEW040 BKN180 21/09 Q1003 BECMG 24015G25KT,LTDA,2018-03-24T06:50:00Z,36.37,36.28,21.0,9.0,240,10,,6.21,29.616142,,,,,,,,,,,FEW,4000,BKN,18000,,,,,VFR,,,,,,,,,,,,METAR,82.0
LTCI 240650Z 18022G32KT 7000 BLDU SCT035 BKN070 19/M03 Q1012 NOSIG,LTCI,2018-03-24T06:50:00Z,38.45,43.32,19.0,-3.0,180,22,32,4.35,29.88189,,,,,,TRUE,,,,BLDU,SCT,3500,BKN,7000,,,,,MVFR,,,,,,,,,,,,METAR,1661.0
LTCF 240650Z 21015KT 9999 BKN035 BKN070 14/M04 Q1010,LTCF,2018-03-24T06:50:00Z,40.57,43.12,14.0,-4.0,210,15,,6.21,29.822834,,,,,,,,,,,BKN,3500,BKN,7000,,,,,VFR,,,,,,,,,,,,METAR,1795.0
LTCD 240650Z 07026KT 9999 SCT040 BKN100 17/M03 Q1002 NOSIG,LTCD,2018-03-24T06:50:00Z,39.72,39.5,17.0,-3.0,70,26,,6.21,29.586615,,,,,,TRUE,,,,,SCT,4000,BKN,10000,,,,,VFR,,,,,,,,,,,,METAR,1215.0
LTCA 240650Z 10010KT 350V160 9999 SCT035 BKN100 BKN200 19/M00 Q1004 NOSIG,LTCA,2018-03-24T06:50:00Z,38.6,39.27,19.0,0.0,100,10,,6.21,29.64567,,,,,,TRUE,,,,,SCT,3500,BKN,10000,BKN,20000,,,VFR,,,,,,,,,,,,METAR,882.0
LTBY 240650Z 29005KT 9999 SCT040 BKN100 08/01 Q0999,LTBY,2018-03-24T06:50:00Z,39.82,30.52,8.0,1.0,290,5,,6.21,29.498032,,,,,,,,,,,SCT,4000,BKN,10000,,,,,VFR,,,,,,,,,,,,METAR,789.0
LTAY 240650Z 28006KT 9000 -SHRA FEW015 SCT033 BKN090 06/05 Q1003,LTAY,2018-03-24T06:50:00Z,37.77,29.68,6.0,5.0,280,6,,5.59,29.616142,,,,,,,,,,-SHRA,FEW,1500,SCT,3300,BKN,9000,,,VFR,,,,,,,,,,,,METAR,849.0
LTFG 240650Z 23012KT 200V260 9999 BKN030 17/11 Q1004,LTFG,2018-03-24T06:50:00Z,36.3,32.3,17.0,11.0,230,12,,6.21,29.64567,,,,,,,,,,,BKN,3000,,,,,,,MVFR,,,,,,,,,,,,METAR,95.0
LTFD 240650Z 02007KT 8000 -SHRA SCT030 BKN090 09/08 Q1000 RETSRA,LTFD,2018-03-24T06:50:00Z,39.55,27.02,9.0,8.0,20,7,,4.97,29.52756,,,,,,,,,,-SHRA,SCT,3000,BKN,9000,,,,,MVFR,,,,,,,,,,,,METAR,16.0
LTCW 240650Z 18018G36KT 090V250 9999 SCT030 BKN080 15/M02 Q1018,LTCW,2018-03-24T06:50:00Z,37.55,44.23,15.0,-2.0,180,18,36,6.21,30.059055,,,,,,,,,,,SCT,3000,BKN,8000,,,,,VFR,,,,,,,,,,,,METAR,1856.0
LTCV 240650Z 11019KT CAVOK 22/03 Q1009,LTCV,2018-03-24T06:50:00Z,37.37,42.07,22.0,3.0,110,19,,6.21,29.793306,,,,,,,,,,,CAVOK,,,,,,,,VFR,,,,,,,,,,,,METAR,621.0
LTCU 240650Z 15011KT 9999 SCT035 BKN100 19/M01 Q1007,LTCU,2018-03-24T06:50:00Z,38.87,40.58,19.0,-1.0,150,11,,6.21,29.734253,,,,,,,,,,,SCT,3500,BKN,10000,,,,,VFR,,,,,,,,,,,,METAR,1061.0
LTCT 240650Z 30003KT 230V020 9999 SCT100 18/02 Q1008,LTCT,2018-03-24T06:50:00Z,39.98,43.87,18.0,2.0,300,3,,6.21,29.763779,,,,,,,,,,,SCT,10000,,,,,,,VFR,,,,,,,,,,,,METAR,946.0
LTCR 240650Z 09014KT 9999 SCT035 BKN090 20/04 Q1006,LTCR,2018-03-24T06:50:00Z,37.22,40.63,20.0,4.0,90,14,,6.21,29.704725,,,,,,,,,,,SCT,3500,BKN,9000,,,,,VFR,,,,,,,,,,,,METAR,527.0
LTCP 240650Z 08012KT 9999 SCT040 BKN100 BKN200 17/03 Q1004,LTCP,2018-03-24T06:50:00Z,37.73,38.47,17.0,3.0,80,12,,6.21,29.64567,,,,,,,,,,,SCT,4000,BKN,10000,BKN,20000,,,VFR,,,,,,,,,,,,METAR,676.0
LTCO 240650Z VRB02KT 9999 FEW030 BKN090 15/M03 Q1010,LTCO,2018-03-24T06:50:00Z,39.65,43.03,15.0,-3.0,0,2,,6.21,29.822834,,,,,,,,,,,FEW,3000,BKN,9000,,,,,VFR,,,,,,,,,,,,METAR,1665.0
LTCN 240650Z 22007KT 200V270 9999 FEW035 BKN100 15/06 Q1001 NOSIG,LTCN,2018-03-24T06:50:00Z,37.53,36.95,15.0,6.0,220,7,,6.21,29.557087,,,,,,TRUE,,,,,FEW,3500,BKN,10000,,,,,VFR,,,,,,,,,,,,METAR,526.0
LTCM 240650Z 30005KT 7000 -SHRA SCT006 BKN030 08/06 Q1000,LTCM,2018-03-24T06:50:00Z,42.02,35.07,8.0,6.0,300,5,,4.35,29.52756,,,,,,,,,,-SHRA,SCT,600,BKN,3000,,,,,MVFR,,,,,,,,,,,,METAR,8.0
LTCK 240650Z 18024KT 9999 SCT035 BKN080 19/M03 Q1008,LTCK,2018-03-24T06:50:00Z,38.75,41.67,19.0,-3.0,180,24,,6.21,29.763779,,,,,,,,,,,SCT,3500,BKN,8000,,,,,VFR,,,,,,,,,,,,METAR,1266.0
LTCB 240650Z VRB02KT 4500 BR FEW015 SCT035 BKN090 12/09 Q0999,LTCB,2018-03-24T06:50:00Z,39.72,43.03,12.0,9.0,0,2,,2.8,29.498032,,,,,,,,,,BR,FEW,1500,SCT,3500,BKN,9000,,,IFR,,,,,,,,,,,,METAR,1632.0
LTBH 240650Z 03010KT 9999 FEW010 SCT035 BKN100 09/08 Q0999,LTBH,2018-03-24T06:50:00Z,40.13,26.42,9.0,8.0,30,10,,6.21,29.498032,,,,,,,,,,,FEW,1000,SCT,3500,BKN,10000,,,VFR,,,,,,,,,,,,METAR,3.0
LTAS 240650Z 36006KT 330V030 8000 FEW011 SCT032 BKN100 08/06 Q1001,LTAS,2018-03-24T06:50:00Z,41.52,32.08,8.0,6.0,360,6,,4.97,29.557087,,,,,,,,,,,FEW,1100,SCT,3200,BKN,10000,,,MVFR,,,,,,,,,,,,METAR,136.0
LTBQ 240650Z 01004KT 330V030 6000 2300E BR BKN008 BKN018 08/08 Q1001 RESHRA NOSIG,LTBQ,2018-03-24T06:50:00Z,40.72,30.07,8.0,8.0,10,4,,3.73,29.557087,,,,,,TRUE,,,,BR,BKN,800,BKN,1800,,,,,IFR,,,,,,,,,,,,METAR,50.0
LTBF 240650Z 36006KT 9999 SCT035 BKN100 08/07 Q1001 NOSIG,LTBF,2018-03-24T06:50:00Z,39.62,27.92,8.0,7.0,360,6,,6.21,29.557087,,,,,,TRUE,,,,,SCT,3500,BKN,10000,,,,,VFR,,,,,,,,,,,,METAR,102.0
LTAN 240650Z 21018G29KT 9999 FEW040 14/M03 Q0998 NOSIG,LTAN,2018-03-24T06:50:00Z,37.97,32.53,14.0,-3.0,210,18,29,6.21,29.468504,,,,,,TRUE,,,,,FEW,4000,,,,,,,VFR,,,,,,,,,,,,METAR,1006.0
EGYD 240650Z 36005KT 9999 FEW039 BKN250 05/04 Q0999 BLU,EGYD,2018-03-24T06:50:00Z,53.03,-0.5,5.0,4.0,360,5,,6.21,29.498032,,,,,,,,,,,FEW,3900,BKN,25000,,,,,VFR,,,,,,,,,,,,METAR,67.0
EGXW 240650Z 01007KT 9999 SCT035 BKN050 BKN120 06/04 Q0999 BLU,EGXW,2018-03-24T06:50:00Z,53.18,-0.52,6.0,4.0,10,7,,6.21,29.498032,,,,,,,,,,,SCT,3500,BKN,5000,BKN,12000,,,VFR,,,,,,,,,,,,METAR,70.0
EGXV 240650Z AUTO 35003KT 9999 -RA FEW033/// BKN080/// 05/04 Q1000,EGXV,2018-03-24T06:50:00Z,53.87,-0.45,5.0,4.0,350,3,,6.21,29.52756,,,TRUE,,,,,,,-RA,FEW,3300,BKN,8000,,,,,VFR,,,,,,,,,,,,METAR,6.0
EGXC 240650Z 07002KT 9999 FEW030 SCT050 OVC100 06/04 Q0999 BLU,EGXC,2018-03-24T06:50:00Z,53.1,-0.17,6.0,4.0,70,2,,6.21,29.498032,,,,,,,,,,,FEW,3000,SCT,5000,OVC,10000,,,VFR,,,,,,,,,,,,METAR,7.0
EGVO 240650Z 08004KT 3400 RA OVC003 06/06 Q0997 YLO2,EGVO,2018-03-24T06:50:00Z,51.23,-0.95,6.0,6.0,80,4,,2.11,29.438976,,,,,,,,,,RA,OVC,300,,,,,,,LIFR,,,,,,,,,,,,METAR,123.0
EGVN 240650Z 05007KT 9999 -RA FEW010 OVC022 05/04 Q0998 WHT NOSIG,EGVN,2018-03-24T06:50:00Z,51.77,-1.58,5.0,4.0,50,7,,6.21,29.468504,,,,,,TRUE,,,,-RA,FEW,1000,OVC,2200,,,,,MVFR,,,,,,,,,,,,METAR,88.0
EGQS 240650Z 21009KT 9999 FEW020CB BKN220 03/M01 Q0998 BLU,EGQS,2018-03-24T06:50:00Z,57.72,-3.32,3.0,-1.0,210,9,,6.21,29.468504,,,,,,,,,,,FEW,2000,BKN,22000,,,,,VFR,,,,,,,,,,,,METAR,13.0
EGQL 240650Z 27007KT CAVOK 03/01 Q1000 BLU,EGQL,2018-03-24T06:50:00Z,56.38,-2.87,3.0,1.0,270,7,,6.21,29.52756,,,,,,,,,,,CAVOK,,,,,,,,VFR,,,,,,,,,,,,METAR,12.0
LXGB 240650Z 29020G34KT 9999 FEW025 11/07 Q1011,LXGB,2018-03-24T06:50:00Z,36.13,-5.33,11.0,7.0,290,20,34,6.21,29.852362,,,,,,,,,,,FEW,2500,,,,,,,VFR,,,,,,,,,,,,METAR,5.0
ENSB 240650Z 11010KT 9999 FEW020 M14/M20 Q1014 RMK WIND 1400FT 06010KT,ENSB,2018-03-24T06:50:00Z,78.25,15.47,-14.0,-20.0,110,10,,6.21,29.940945,,,,,,,,,,,FEW,2000,,,,,,,VFR,,,,,,,,,,,,METAR,29.0
ENVR 240650Z 04031KT CAVOK M01/M06 Q0990,ENVR,2018-03-24T06:50:00Z,67.65,12.72,-1.0,-6.0,40,31,,6.21,29.232283,,,,,,,,,,,CAVOK,,,,,,,,VFR,,,,,,,,,,,,METAR,4.0
PTKK 240650Z 13006KT 12SM -SHRA SCT012CB BKN120 OVC280 27/26 A2971 RMK SHRAB30 CB ALQDS MOV NW SLP062 T02740262,PTKK,2018-03-24T06:50:00Z,7.47,151.85,27.4,26.2,130,6,,12.0,29.71063,1006.2,,,,,,,,,-SHRA,SCT,1200,BKN,12000,OVC,28000,,,VFR,,,,,,,,,,,,SPECI,2.0
KEFD 240650Z 18011KT 10SM BKN018 BKN250 21/18 A3001,KEFD,2018-03-24T06:50:00Z,29.6,-95.17,21.0,18.0,180,11,,10.0,30.008858,,,,,,,,,,,BKN,1800,BKN,25000,,,,,MVFR,,,,,,,,,,,,METAR,10.0
EGDR 240650Z AUTO 06017KT 6000 // OVC003/// 07/07 Q0995,EGDR,2018-03-24T06:50:00Z,50.08,-5.25,7.0,7.0,60,17,,3.73,29.379921,,,TRUE,,,,,,,,OVC,300,,,,,,,LIFR,,,,,,,,,,,,METAR,82.0
EGDM 240650Z AUTO 07006KT 4700 BR SCT003/// BKN025/// 06/06 Q0997 RERA,EGDM,2018-03-24T06:50:00Z,51.17,-1.75,6.0,6.0,70,6,,2.92,29.438976,,,TRUE,,,,,,,BR,SCT,300,BKN,2500,,,,,IFR,,,,,,,,,,,,METAR,124.0
EGWU 240650Z 10007KT 4500 RA OVC006 07/06 Q0998 NOSIG,EGWU,2018-03-24T06:50:00Z,51.55,-0.42,7.0,6.0,100,7,,2.8,29.468504,,,,,,TRUE,,,,RA,OVC,600,,,,,,,IFR,,,,,,,,,,,,METAR,40.0
OOSA 240650Z 16008KT 110V210 9999 SCT025 28/19 Q1015 NOSIG,OOSA,2018-03-24T06:50:00Z,17.02,54.07,28.0,19.0,160,8,,6.21,29.970472,,,,,,TRUE,,,,,SCT,2500,,,,,,,VFR,,,,,,,,,,,,METAR,20.0
OOMS 240650Z 01009KT 9000 SCT023 28/22 Q1016 NOSIG,OOMS,2018-03-24T06:50:00Z,23.57,58.27,28.0,22.0,10,9,,5.59,30.0,,,,,,TRUE,,,,,SCT,2300,,,,,,,VFR,,,,,,,,,,,,METAR,8.0
LICR 240650Z 04009KT 9999 SCT040 08/05 Q1001,LICR,2018-03-24T06:50:00Z,38.07,15.65,8.0,5.0,40,9,,6.21,29.557087,,,,,,,,,,,SCT,4000,,,,,,,VFR,,,,,,,,,,,,METAR,21.0
LICD 240650Z 28012KT CAVOK 13/06 Q1005,LICD,2018-03-24T06:50:00Z,35.5,12.62,13.0,6.0,280,12,,6.21,29.675198,,,,,,,,,,,CAVOK,,,,,,,,VFR,,,,,,,,,,,,METAR,20.0
LICB 240650Z VRB02KT 070V130 9999 FEW045 08/02 Q1003,LICB,2018-03-24T06:50:00Z,37.0,14.62,8.0,2.0,0,2,,6.21,29.616142,,,,,,,,,,,FEW,4500,,,,,,,VFR,,,,,,,,,,,,METAR,220.0
LICA 240650Z VRB03KT 8000 VCSH FEW015CB BKN040 08/06 Q1001,LICA,2018-03-24T06:50:00Z,38.88,16.25,8.0,6.0,0,3,,4.97,29.557087,,,,,,,,,,VCSH,FEW,1500,BKN,4000,,,,,MVFR,,,,,,,,,,,,METAR,15.0
LIRU 240650Z VRB02KT CAVOK 03/02 Q1002,LIRU,2018-03-24T06:50:00Z,41.95,12.5,3.0,2.0,0,2,,6.21,29.586615,,,,,,,,,,,CAVOK,,,,,,,,VFR,,,,,,,,,,,,METAR,24.0
LIRZ 240650Z 11002KT 9999 FEW030 03/00 Q1002,LIRZ,2018-03-24T06:50:00Z,43.1,12.5,3.0,0.0,110,2,,6.21,29.586615,,,,,,,,,,,FEW,3000,,,,,,,VFR,,,,,,,,,,,,METAR,205.0
LIBP 240650Z 23005KT 9999 BKN065 05/01 Q1003,LIBP,2018-03-24T06:50:00Z,42.42,14.18,5.0,1.0,230,5,,6.21,29.616142,,,,,,,,,,,BKN,6500,,,,,,,VFR,,,,,,,,,,,,METAR,11.0
LIPY 240650Z 16003KT 110V200 9999 SCT035 06/02 Q1003,LIPY,2018-03-24T06:50:00Z,43.62,13.37,6.0,2.0,160,3,,6.21,29.616142,,,,,,,,,,,SCT,3500,,,,,,,VFR,,,,,,,,,,,,METAR,10.0
LIPO 240650Z 06007KT 9999 SCT070 07/00 Q1003,LIPO,2018-03-24T06:50:00Z,45.42,10.33,7.0,0.0,60,7,,6.21,29.616142,,,,,,,,,,,SCT,7000,,,,,,,VFR,,,,,,,,,,,,METAR,109.0
LIMZ 240650Z 25004KT 8000 SCT035 SCT080 03/01 Q1003,LIMZ,2018-03-24T06:50:00Z,44.53,7.62,3.0,1.0,250,4,,4.97,29.616142,,,,,,,,,,,SCT,3500,SCT,8000,,,,,MVFR,,,,,,,,,,,,METAR,380.0
LIMP 240650Z VRB01KT CAVOK 02/00 Q1003,LIMP,2018-03-24T06:50:00Z,44.82,10.3,2.0,0.0,0,1,,6.21,29.616142,,,,,,,,,,,CAVOK,,,,,,,,VFR,,,,,,,,,,,,METAR,50.0
EGOS 240650Z AUTO 35006KT 4700 -RA BKN014/// BKN023/// 05/04 Q1000,EGOS,2018-03-24T06:50:00Z,52.8,-2.67,5.0,4.0,350,6,,2.92,29.52756,,,TRUE,,,,,,,-RA,BKN,1400,BKN,2300,,,,,IFR,,,,,,,,,,,,METAR,76.0
EGDY 240650Z AUTO 04008KT 9999 FEW024/// BKN028/// 07/06 Q0997,EGDY,2018-03-24T06:50:00Z,51.0,-2.62,7.0,6.0,40,8,,6.21,29.438976,,,TRUE,,,,,,,,FEW,2400,BKN,2800,,,,,MVFR,,,,,,,,,,,,METAR,23.0
EGYM 240650Z AUTO 13003KT 4500 -RA OVC031/// 06/06 Q0999,EGYM,2018-03-24T06:50:00Z,52.63,0.57,6.0,6.0,130,3,,2.8,29.498032,,,TRUE,,,,,,,-RA,OVC,3100,,,,,,,IFR,,,,,,,,,,,,METAR,23.0
EGXZ 240650Z AUTO 31005KT 8000 BR SCT026/// BKN033/// BKN070/// 05/04 Q1001 RERA,EGXZ,2018-03-24T06:50:00Z,54.2,-1.38,5.0,4.0,310,5,,4.97,29.557087,,,TRUE,,,,,,,BR,SCT,2600,BKN,3300,BKN,7000,,,MVFR,,,,,,,,,,,,METAR,28.0
EGXU 240650Z AUTO 31005KT 5000 // BKN050/// 05/04 Q1000,EGXU,2018-03-24T06:50:00Z,54.05,-1.25,5.0,4.0,310,5,,3.11,29.52756,,,TRUE,,,,,,,,BKN,5000,,,,,,,MVFR,,,,,,,,,,,,METAR,16.0
EGXT 240650Z AUTO 35001KT 9999 -RA BKN048/// 05/04 Q0998,EGXT,2018-03-24T06:50:00Z,52.62,-0.47,5.0,4.0,350,1,,6.21,29.468504,,,TRUE,,,,,,,-RA,BKN,4800,,,,,,,VFR,,,,,,,,,,,,METAR,84.0
EGXE 240650Z AUTO 31002KT 8000 BR BKN027/// 04/04 Q1000 RERA,EGXE,2018-03-24T06:50:00Z,54.28,-1.52,4.0,4.0,310,2,,4.97,29.52756,,,TRUE,,,,,,,BR,BKN,2700,,,,,,,MVFR,,,,,,,,,,,,METAR,40.0
EGVP 240650Z AUTO 06006KT 5000 // OVC004/// 07/06 Q0997,EGVP,2018-03-24T06:50:00Z,51.13,-1.57,7.0,6.0,60,6,,3.11,29.438976,,,TRUE,,,,,,,,OVC,400,,,,,,,LIFR,,,,,,,,,,,,METAR,91.0
EGUW 240650Z AUTO 09004KT 3000 HZ OVC007/// 06/04 Q0999,EGUW,2018-03-24T06:50:00Z,52.12,0.97,6.0,4.0,90,4,,1.86,29.498032,,,TRUE,,,,,,,HZ,OVC,700,,,,,,,IFR,,,,,,,,,,,,METAR,87.0
EGUB 240650Z AUTO 02005KT 6000 // OVC010/// 06/06 Q0998,EGUB,2018-03-24T06:50:00Z,51.62,-1.07,6.0,6.0,20,5,,3.73,29.468504,,,TRUE,,,,,,,,OVC,1000,,,,,,,MVFR,,,,,,,,,,,,METAR,63.0
EGOP 240650Z AUTO 05008KT 9999 // OVC044/// 06/04 Q0999,EGOP,2018-03-24T06:50:00Z,51.72,-4.32,6.0,4.0,50,8,,6.21,29.498032,,,TRUE,,,,,,,,OVC,4400,,,,,,,VFR,,,,,,,,,,,,METAR,6.0
EGOM 240650Z AUTO 16001KT 0350 FG OVC060/// 02/02 Q0999,EGOM,2018-03-24T06:50:00Z,55.05,-2.55,2.0,2.0,160,1,,0.22,29.498032,,,TRUE,,,,,,,FG,OVC,6000,,,,,,,LIFR,,,,,,,,,,,,METAR,325.0
EGDX 240650Z AUTO 05010KT 9999 -RA FEW013/// BKN022/// 06/04 Q0998,EGDX,2018-03-24T06:50:00Z,51.4,-3.43,6.0,4.0,50,10,,6.21,29.468504,,,TRUE,,,,,,,-RA,FEW,1300,BKN,2200,,,,,MVFR,,,,,,,,,,,,METAR,50.0
EGQM 240650Z AUTO 27007KT 9999 OVC080/// 05/01 Q1000,EGQM,2018-03-24T06:50:00Z,55.42,-1.6,5.0,1.0,270,7,,6.21,29.52756,,,TRUE,,,,,,,,OVC,8000,,,,,,,VFR,,,,,,,,,,,,METAR,23.0
EGQK 240650Z AUTO 20006KT 9999 BKN160/// 04/M00 Q0998,EGQK,2018-03-24T06:50:00Z,57.65,-3.57,4.0,0.0,200,6,,6.21,29.468504,,,TRUE,,,,,,,,BKN,16000,,,,,,,VFR,,,,,,,,,,,,METAR,7.0
EGOV 240650Z AUTO 36006KT 9999 FEW016/// SCT042/// 05/04 Q1000,EGOV,2018-03-24T06:50:00Z,53.25,-4.53,5.0,4.0,360,6,,6.21,29.52756,,,TRUE,,,,,,,,FEW,1600,SCT,4200,,,,,VFR,,,,,,,,,,,,METAR,11.0
OIKO 240650Z 24002KT CAVOK 32/08 Q1016,OIKO,2018-03-24T06:50:00Z,27.13,57.1,32.0,8.0,240,2,,6.21,30.0,,,,,,,,,,,CAVOK,,,,,,,,VFR,,,,,,,,,,,,METAR,27.0
OIHM 240650Z 25002KT 6000 NSC 21/M03 Q1024,OIHM,2018-03-24T06:50:00Z,34.28,48.82,21.0,-3.0,250,2,,3.73,30.236221,,,,,,,,,,,CLR,,,,,,,,MVFR,,,,,,,,,,,,METAR,1726.0
OIGK 240650Z 24010G21KT CAVOK 18/M08 Q1017,OIGK,2018-03-24T06:50:00Z,34.28,47.12,18.0,-8.0,240,10,21,6.21,30.029528,,,,,,,,,,,CAVOK,,,,,,,,VFR,,,,,,,,,,,,METAR,1322.0
OICJ 240650Z 16008KT 5000 DU NSC 16/M02 Q1024,OICJ,2018-03-24T06:50:00Z,33.9,48.75,16.0,-2.0,160,8,,3.11,30.236221,,,,,,,,,,DU,CLR,,,,,,,,MVFR,,,,,,,,,,,,METAR,1600.0
OIAI 240650Z 15002KT CAVOK 30/06 Q1015,OIAI,2018-03-24T06:50:00Z,32.0,49.27,30.0,6.0,150,2,,6.21,29.970472,,,,,,,,,,,CAVOK,,,,,,,,VFR,,,,,,,,,,,,METAR,372.0
KHME 240650Z 00000KT CAVOK 24/M00 Q1021,KHME,2018-03-24T06:50:00Z,,,24.0,0.0,0,0,,6.21,30.147638,,,,,,,,,,,CAVOK,,,,,,,,VFR,,,,,,,,,,,,METAR,
EGXS 240650Z AUTO 01009KT 9999 // OVC050/// 05/04 Q0999,EGXS,2018-03-24T06:50:00Z,53.48,0.15,5.0,4.0,10,9,,6.21,29.498032,,,TRUE,,,,,,,,OVC,5000,,,,,,,VFR,,,,,,,,,,,,METAR,3.0
EGXP 240650Z AUTO 02007KT 9999 // OVC039/// 05/04 Q0999,EGXP,2018-03-24T06:50:00Z,53.3,-0.55,5.0,4.0,20,7,,6.21,29.498032,,,TRUE,,,,,,,,OVC,3900,,,,,,,VFR,,,,,,,,,,,,METAR,61.0
FADY 240649Z 34012KT CAVOK 21/09 Q1013,FADY,2018-03-24T06:49:00Z,-30.67,23.98,21.0,9.0,340,12,,6.21,29.911417,,,,,,,,,,,CAVOK,,,,,,,,VFR,,,,,,,,,,,,SPECI,384.0
SBCZ 240645Z 00000KT 7000 FEW004 BKN100 23/22 Q1011,SBCZ,2018-03-24T06:45:00Z,-7.62,-72.77,23.0,22.0,0,0,,4.35,29.852362,,,,,,,,,,,FEW,400,BKN,10000,,,,,MVFR,,,,,,,,,,,,SPECI,170.0
KFOZ 240645Z AUTO 11006KT 10SM CLR M04/M13 A3032 RMK AO2,KFOZ,2018-03-24T06:45:00Z,47.77,-93.65,-4.0,-13.0,110,6,,10.0,30.318897,,,TRUE,TRUE,,,,,,,CLR,,,,,,,,VFR,,,,,,,,,,,,METAR,411.0
LHBC 240645Z 17002KT 3200 BR NSC M02/M02 Q1007,LHBC,2018-03-24T06:45:00Z,46.68,21.17,-2.0,-2.0,170,2,,1.99,29.734253,,,,,,,,,,BR,CLR,,,,,,,,IFR,,,,,,,,,,,,METAR,86.0
MMCP 240644Z 09010KT 7SM SKC 22/17 A3005,MMCP,2018-03-24T06:44:00Z,19.82,-90.5,22.0,17.0,90,10,,7.0,30.050198,,,,,,,,,,,SKC,,,,,,,,VFR,,,,,,,,,,,,METAR,5.0
MMML 240643Z 29007KT 10SM SCT300 19/08 A2993 RMK 8/008,MMML,2018-03-24T06:43:00Z,32.62,-115.23,19.0,8.0,290,7,,10.0,29.929134,,,,,,,,,,,SCT,30000,,,,,,,VFR,,,,,,,,,,,,METAR,22.0
RJFY 240642Z 29014KT 9999 FEW030 17/04 Q1020 RMK 1CU030 A3015,RJFY,2018-03-24T06:42:00Z,31.37,130.82,17.0,4.0,290,14,,6.21,30.11811,,,,,,,,,,,FEW,3000,,,,,,,VFR,,,,,,,,,,,,METAR,68.0
